CYYG;2007-01-01 00:00;METAR CYYG 010000Z 35010G17KT 12SM -SHSN DRSN BKN040 M05/M12 A3027 RMK SC6 SLP254=
CYYG;2007-01-01 01:00;METAR CYYG 010100Z 35008G16KT 12SM -SHSN DRSN BKN035 M05/M11 A3029 RMK SC7 PCPN VRY LGT SLP259=
CYYG;2007-01-01 01:45;SPECI CYYG 010145Z 34011KT 15SM BKN035 M05/ RMK SC7=
CYYG;2007-01-01 02:00;METAR CYYG 010200Z 34013G18KT 15SM DRSN BKN035 M05/M12 A3030 RMK SC7 SLP262=
CYYG;2007-01-01 03:00;METAR CYYG 010300Z 34009G15KT 15SM DRSN BKN035 M05/M11 A3031 RMK SC7 SLP266=
CYYG;2007-01-01 04:00;METAR CYYG 010400Z 35010G15KT 15SM DRSN BKN032 M05/M11 A3028 RMK SC7 SLP257=
CYYG;2007-01-01 05:00;METAR CYYG 010500Z 34006KT 15SM BKN030 M05/M10 A3028 RMK SC7 SLP258=
CYYG;2007-01-01 06:00;METAR CYYG 010600Z 35005KT 15SM BKN030 M04/M09 A3031 RMK SC7 SLP265=
CYYG;2007-01-01 07:00;METAR CYYG 010700Z 34005KT 15SM BKN030 M04/M10 A3031 RMK SC7 SLP265=
CYYG;2007-01-01 08:00;METAR CYYG 010800Z 34004KT 15SM BKN030 M05/M10 A3030 RMK SC7 SLP264=
CYYG;2007-01-01 09:00;METAR CYYG 010900Z 33002KT 15SM BKN030 M05/M10 A3033 RMK SC7 SLP273=
CYYG;2007-01-01 10:00;METAR CYYG 011000Z 00000KT 15SM BKN029 M06/M09 A3032 RMK SC7 SLP270=
CYYG;2007-01-01 11:00;METAR CYYG 011100Z 00000KT 15SM BKN025 BKN230 M07/M10 A3030 RMK SC6CS1 SLP263=
CYYG;2007-01-01 12:00;METAR CYYG 011200Z 26003KT 15SM FEW025 BKN200 M07/M10 A3032 RMK SC2CI2 SLP271=
CYYG;2007-01-01 13:00;METAR CYYG 011300Z 24005KT 15SM FEW025 SCT055 OVC200 M07/M10 A3034 RMK SC2SC2CI2 SLP278=
CYYG;2007-01-01 14:00;METAR CYYG 011400Z 23003KT 15SM FEW025 SCT055 OVC200 M06/M10 A3031 RMK SC1SC3CI4 SLP268=
CYYG;2007-01-01 15:00;METAR CYYG 011500Z 21003KT 15SM FEW025 SCT100 OVC250 M05/M09 A3028 RMK SC1AC3CI3 SLP257=
CYYG;2007-01-01 16:00;METAR CYYG 011600Z 18009KT 15SM FEW025 BKN120 OVC250 M04/M08 A3024 RMK SC2AS5CI2 SLP244=
CYYG;2007-01-01 17:00;METAR CYYG 011700Z 22008KT 15SM BKN015 OVC100 M04/M07 A3022 RMK SC6AC2 SLP235=
CYYG;2007-01-01 18:00;METAR CYYG 011800Z 19011KT 15SM FEW014 SCT160 BKN250 M04/M07 A3020 RMK SC1AC2CI4 SLP230=
CYYG;2007-01-01 19:00;METAR CYYG 011900Z 19011KT 15SM FEW015 BKN075 OVC120 M03/M07 A3018 RMK SC1AC6AC2 SLP223=
CYYG;2007-01-01 20:00;METAR CYYG 012000Z 18012KT 15SM BKN057 OVC110 M03/M08 A3015 RMK SC5AC3 SLP212=
CYYG;2007-01-01 21:00;METAR CYYG 012100Z CCA 18017KT 15SM DRSN OVC051 M03/M08 A3010 RMK NS8 SLP197=
CYYG;2007-01-01 22:00;METAR CYYG 012200Z 19015KT 15SM DRSN -FZRA OVC043 M03/M07 A3007 RMK NS8 SLP187=
CYYG;2007-01-01 22:38;SPECI CYYG 012238Z 18015KT 8SM -PL -FZRA OVC037 M03/ RMK NS8=
CYYG;2007-01-01 23:00;METAR CYYG 012300Z 18016G21KT 8SM -FZRA OVC037 M03/M05 A3006 REPL RMK NS8 SLP181=
CYYG;2007-01-01 23:41;SPECI CYYG 012341Z 18014G19KT 5SM -FZDZ SCT025 OVC033 M03/ REFZRAPL RMK SC3NS5=
CYYG;2007-01-02 00:00;METAR CYYG 020000Z 18014KT 5SM -FZRA BR FEW006 BKN035 OVC060 M03/M04 A3002 REFZDZ RMK SF2SC4NS2 SLP169=
CYYG;2007-01-02 00:22;SPECI CYYG 020022Z 17015KT 3SM -FZRA BR BKN005 OVC030 M02/ RMK SF6SC2=
CYYG;2007-01-02 01:00;METAR CYYG 020100Z 17013G18KT 6SM -FZRA BR BKN005 OVC045 M02/M02 A2998 RMK SF6NS2 SLP157=
CYYG;2007-01-02 02:00;METAR CYYG 020200Z 17013KT 4SM -FZRA BR BKN005 OVC025 M01/M01 A2993 RMK SF6NS2 SLP139=
CYYG;2007-01-02 02:42;SPECI CYYG 020242Z 17008KT 3SM -FZRA BR BKN003 OVC025 M01/ RMK SF6NS2=
CYYG;2007-01-02 03:00;METAR CYYG 020300Z 16008KT 3SM -FZRA BR OVC004 M01/M01 A2992 RMK SF8 SLP134=
CYYG;2007-01-02 04:00;METAR CYYG 020400Z 15009KT 3SM -FZRA BR OVC004 M00/M01 A2983 RMK SF8 PRESFR SLP105=
CYYG;2007-01-02 04:30;SPECI CYYG 020430Z 16008KT 3SM -RA BR OVC004 00/ REFZRA RMK SF8=
CYYG;2007-01-02 05:00;METAR CYYG 020500Z 15008KT 4SM -RA BR OVC004 00/M00 A2978 REFZRA RMK SF8 SLP086=
CYYG;2007-01-02 06:00;METAR CYYG 020600Z 15007KT 3SM -RA BR OVC004 01/00 A2972 RMK SF8 PRESFR SLP066=
CYYG;2007-01-02 07:00;METAR CYYG 020700Z 15006KT 3SM -RA BR OVC004 01/01 A2966 RMK SF8 PRESFR SLP046=
CYYG;2007-01-02 08:00;METAR CYYG 020800Z 14006KT 2SM -RA BR OVC003 01/01 A2957 RMK SF8 PRESFR SLP016=
CYYG;2007-01-02 09:00;METAR CYYG 020900Z 14004KT 2SM BR FEW003 OVC009 01/01 A2951 RMK SF2SC6 PRESFR SLP995=
CYYG;2007-01-02 09:38;SPECI CYYG 020938Z 14004KT 3/4SM R03/4000VP6000FT/D -RA BR OVC008 01/ RMK SC8=
CYYG;2007-01-02 09:51;SPECI CYYG 020951Z 13004KT 5/8SM R03/3500FT/N -RA BR OVC007 01/ RMK FG3SF5=
CYYG;2007-01-02 10:00;METAR CYYG 021000Z 12004KT 1/2SM R03/2600V4000FT/D -RA FG VV002 01/01 A2944 RMK FG8 SLP970=
CYYG;2007-01-02 11:00;METAR CYYG 021100Z 13005KT 1/2SM R03/2600FT/N -RA FG VV002 02/02 A2938 RMK FG8 PRESFR SLP950=
CYYG;2007-01-02 12:00;METAR CYYG 021200Z 10002KT 1/2SM R03/2600FT/N -RA FG VV002 02/02 A2933 RMK FG8 /R13/ SLP936=
CYYG;2007-01-02 12:17;SPECI CYYG 021217Z 13004KT 1/4SM R03/2200FT/D -RA FG OVC007 03/ RMK FG6SF2=
CYYG;2007-01-02 12:50;SPECI CYYG 021250Z 30010G15KT 1 1/2SM -RA BR BKN002 OVC014 03/ RMK SF6SC2=
CYYG;2007-01-02 13:00;METAR CYYG 021300Z 31009G15KT 2SM -RA BR OVC003 03/03 A2932 RMK SF8 SLP932=
CYYG;2007-01-02 13:07;SPECI CYYG 021307Z 32006KT 2SM -RA BR SCT003 OVC009 03/ RMK SF4SF4=
CYYG;2007-01-02 13:42;SPECI CYYG 021342Z 31008KT 5SM -DZ BR BKN003 OVC010 03/ RMK SF6SF2=
CYYG;2007-01-02 14:00;METAR CYYG 021400Z 30007KT 10SM SCT003 OVC008 03/03 A2932 RMK SF3SF5 SLP930=
CYYG;2007-01-02 14:10;SPECI CYYG 021410Z 31009KT 10SM BKN004 OVC010 03/ RMK SF6SF2 VIS NW-NE 3=
CYYG;2007-01-02 14:49;SPECI CYYG 021449Z 31016KT 15SM -SHRA OVC004 03/ RMK SF8=
CYYG;2007-01-02 15:00;METAR CYYG 021500Z 31014G20KT 10SM -SHRA OVC004 02/02 A2931 RMK SF8 SLP927=
CYYG;2007-01-02 16:00;METAR CYYG 021600Z 31011G18KT 15SM BKN007 OVC016 01/01 A2931 RMK SF6SC2 SLP926=
CYYG;2007-01-02 16:07;SPECI CYYG 021607Z 31009G19KT 10SM -DZ OVC006 01/ RMK SF8=
CYYG;2007-01-02 16:48;SPECI CYYG 021648Z 30014G20KT 3SM -RA BR OVC005 01/ RMK SF8=
CYYG;2007-01-02 17:00;METAR CYYG 021700Z 31014KT 2SM -RA BR OVC005 01/01 A2929 RMK SF8 SLP920=
CYYG;2007-01-02 17:50;SPECI CYYG 021750Z 31018G26KT 10SM -SHSN OVC008 01/ RMK SF8=
CYYG;2007-01-02 18:00;METAR CYYG 021800Z 31016G26KT 10SM -SHSN OVC008 01/00 A2931 RMK SF8 SLP928=
CYYG;2007-01-02 18:41;SPECI CYYG 021841Z 31015G26KT 2SM -SN OVC008 01/ RMK SF8=
CYYG;2007-01-02 19:00;METAR CYYG 021900Z 31020G25KT 2SM -SN SCT008 OVC011 01/M00 A2937 RMK SF4SC4 PRESRR SLP948=
CYYG;2007-01-02 19:29;SPECI CYYG 021929Z 31022G29KT 1SM R03/6000FT/D -SN VV006 00/ RMK SN8=
CYYG;2007-01-02 20:00;METAR CYYG 022000Z 31023G32KT 2SM -SN OVC008 M00/M01 A2943 RMK SF8 PRESRR SLP968=
CYYG;2007-01-02 21:00;METAR CYYG 022100Z 31021G31KT 1 1/2SM -SN DRSN OVC010 M01/M03 A2951 RMK SN2SF6 PRESRR SLP994=
CYYG;2007-01-02 21:43;SPECI CYYG 022143Z 30018G26KT 3SM -SN DRSN OVC011 M02/ RMK SC8=
CYYG;2007-01-02 22:00;METAR CYYG 022200Z 30020G27KT 15SM -SN DRSN OVC022 M02/M04 A2956 RMK SC8 SLP013=
CYYG;2007-01-02 22:43;SPECI CYYG 022243Z 30020G26KT 15SM DRSN BKN025 M02/ RMK SC7=
CYYG;2007-01-02 23:00;METAR CYYG 022300Z 30016G28KT 15SM DRSN BKN030 M02/M06 A2963 RMK SC7 PRESRR SLP035=
CYYG;2007-01-03 00:00;METAR CYYG 030000Z 30020G28KT 15SM DRSN BKN031 M02/M07 A2967 RMK SC6 SLP048=
CYYG;2007-01-03 01:00;METAR CYYG 030100Z 30021G28KT 15SM BKN030 M02/M07 A2971 RMK SC6 SLP062=
CYYG;2007-01-03 02:00;METAR CYYG 030200Z 29018G26KT 15SM BKN025 M03/M07 A2974 RMK SC7 SLP074=
CYYG;2007-01-03 03:00;METAR CYYG 030300Z 28012KT 15SM -SHSN OVC022 M03/M07 A2978 RMK SC8 SLP086=
CYYG;2007-01-03 04:00;METAR CYYG 030400Z 28015G21KT 15SM -SHSN OVC026 M03/M08 A2980 RMK SC8 SLP094=
CYYG;2007-01-03 05:00;METAR CYYG 030500Z 29016G24KT 15SM -SHSN OVC027 M04/M09 A2984 RMK SC8 SLP106=
CYYG;2007-01-03 06:00;METAR CYYG 030600Z 28013G18KT 15SM SCT030 M06/M11 A2988 RMK SC3 SLP120=
CYYG;2007-01-03 07:00;METAR CYYG 030700Z 28011KT 15SM FEW020 M06/M11 A2993 RMK SC2 SLP136=
CYYG;2007-01-03 08:00;METAR CYYG 030800Z 27009KT 15SM SKC M06/M11 A2995 RMK SLP143=
CYYG;2007-01-03 09:00;METAR CYYG 030900Z 27014KT 15SM SKC M06/M11 A2997 RMK SLP151=
CYYG;2007-01-03 10:00;METAR CYYG 031000Z 28009KT 15SM SKC M06/M11 A2999 RMK SLP160=
CYYG;2007-01-03 11:00;METAR CYYG 031100Z 28012KT 15SM SKC M06/M10 A3002 RMK SLP170=
CYYG;2007-01-03 12:00;METAR CYYG 031200Z 28010G18KT 15SM SKC M06/M10 A3006 RMK SLP183=
CYYG;2007-01-03 13:00;METAR CYYG 031300Z 27011KT 15SM FEW250 M05/M10 A3008 RMK CI1 SLP189=
CYYG;2007-01-03 14:00;METAR CYYG 031400Z 27013G18KT 15SM SCT300 M04/M09 A3009 RMK CI1 SLP194=
CYYG;2007-01-03 15:00;METAR CYYG 031500Z 27012KT 15SM SCT300 M04/M09 A3007 RMK CI1 SLP187=
CYYG;2007-01-03 16:00;METAR CYYG 031600Z 26007KT 15SM BKN300 M03/M08 A3006 RMK CI1 SLP181=
CYYG;2007-01-03 17:00;METAR CYYG 031700Z 23011KT 15SM BKN300 M02/M07 A3004 RMK CI2 SLP177=
CYYG;2007-01-03 18:00;METAR CYYG 031800Z 24012KT 15SM BKN300 M00/M06 A3003 RMK CI2 SLP171=
CYYG;2007-01-03 19:00;METAR CYYG 031900Z 23010G15KT 15SM BKN300 01/M04 A3001 RMK CI2 SLP167=
CYYG;2007-01-03 20:00;METAR CYYG 032000Z 23009KT 15SM BKN250 01/M04 A3001 RMK CI2 SLP165=
CYYG;2007-01-03 21:00;METAR CYYG 032100Z 21006KT 15SM BKN250 00/M04 A2999 RMK CI2 SLP159=
CYYG;2007-01-03 22:00;METAR CYYG 032200Z 20007KT 15SM BKN250 M01/M04 A2998 RMK CI3 SLP155=
CYYG;2007-01-03 23:00;METAR CYYG 032300Z 17005KT 15SM BKN250 M01/M04 A2998 RMK CI3 SLP153=
CYYG;2007-01-04 00:00;METAR CYYG 040000Z 22007KT 15SM BKN250 01/M02 A2998 RMK CI3 SLP153=
CYYG;2007-01-04 01:00;METAR CYYG 040100Z 22007KT 15SM BKN250 01/M02 A2995 RMK CI3 SLP144=
CYYG;2007-01-04 02:00;METAR CYYG 040200Z 22006KT 15SM FEW017 BKN250 01/M01 A2994 RMK SC2CI2 SLP141=
CYYG;2007-01-04 03:00;METAR CYYG 040300Z 21006KT 15SM FEW015 BKN250 00/M02 A2992 RMK SC2CI2 SLP135=
CYYG;2007-01-04 04:00;METAR CYYG 040400Z 21005KT 15SM BKN250 M01/M03 A2991 RMK CI3 SLP132=
CYYG;2007-01-04 05:00;METAR CYYG 040500Z 22006KT 15SM OVC250 00/M01 A2990 RMK CI5 SLP127=
CYYG;2007-01-04 06:00;METAR CYYG 040600Z 24005KT 15SM OVC250 M01/M02 A2990 RMK CI6 SLP128=
CYYG;2007-01-04 07:00;METAR CYYG 040700Z 25006KT 15SM OVC250 01/M03 A2993 RMK CI6 SLP136=
CYYG;2007-01-04 08:00;METAR CYYG 040800Z 25004KT 15SM BKN250 M00/M04 A2993 RMK CI5 SLP138=
CYYG;2007-01-04 09:00;METAR CYYG 040900Z 26007KT 15SM BKN250 00/M05 A2995 RMK CI5 SLP144=
CYYG;2007-01-04 10:00;METAR CYYG 041000Z 27005KT 15SM BKN250 M01/M05 A2997 RMK CI5 SLP150=
CYYG;2007-01-04 11:00;METAR CYYG 041100Z 26005KT 15SM SCT250 M01/M05 A2998 RMK CI2 SLP153=
CYYG;2007-01-04 12:00;METAR CYYG 041200Z 26005KT 15SM BKN250 M01/M05 A2998 RMK CI4 SLP154=
CYYG;2007-01-04 13:00;METAR CYYG 041300Z 26005KT 15SM BKN250 M01/M04 A3001 RMK CI2 SLP163=
CYYG;2007-01-04 14:00;METAR CYYG 041400Z 25005KT 15SM BKN250 01/M03 A3001 RMK CI2 SLP163=
CYYG;2007-01-04 15:00;METAR CYYG 041500Z 24008KT 15SM FEW170 BKN250 02/M03 A3002 RMK AC1CI3 SLP167=
CYYG;2007-01-04 16:00;METAR CYYG 041600Z 22007KT 15SM FEW170 BKN250 03/M02 A2999 RMK AC2CI2 SLP158=
CYYG;2007-01-04 17:00;METAR CYYG 041700Z 22006KT 15SM FEW170 BKN250 03/M02 A2996 RMK AC2CI2 SLP149=
CYYG;2007-01-04 18:00;METAR CYYG 041800Z 20009KT 15SM FEW170 BKN250 03/M01 A2995 RMK AC2CI2 SLP143=
CYYG;2007-01-04 19:00;METAR CYYG 041900Z 20009KT 15SM FEW170 BKN250 05/M01 A2993 RMK AC2CI2 SLP139=
CYYG;2007-01-04 20:00;METAR CYYG 042000Z 20008KT 15SM FEW170 SCT250 04/M02 A2992 RMK AC1CI1 SLP133=
CYYG;2007-01-04 21:00;METAR CYYG 042100Z 20007KT 15SM FEW250 03/M01 A2992 RMK CI1 SLP133=
CYYG;2007-01-04 22:00;METAR CYYG 042200Z 21007KT 15SM FEW140 SCT250 03/M01 A2991 RMK AC1CI1 SLP132=
CYYG;2007-01-04 23:00;METAR CYYG 042300Z 22008KT 15SM FEW140 FEW250 04/M02 A2991 RMK AC1CI1 SLP132=
CYYG;2007-01-05 00:00;METAR CYYG 050000Z 23008KT 15SM FEW140 FEW250 04/M01 A2991 RMK AC1CI1 SLP132=
CYYG;2007-01-05 01:00;METAR CYYG 050100Z 21005KT 15SM SCT300 03/M01 A2991 RMK CI1 CONTRAILS SLP131=
CYYG;2007-01-05 02:00;METAR CYYG 050200Z 21009KT 15SM BKN300 03/M01 A2990 RMK CI2 CONTRAILS SLP128=
CYYG;2007-01-05 03:00;METAR CYYG 050300Z 21009KT 15SM SCT300 03/M01 A2989 RMK CI2 SLP123=
CYYG;2007-01-05 04:00;METAR CYYG 050400Z 23007KT 15SM SCT300 03/00 A2988 RMK CI2 SLP121=
CYYG;2007-01-05 05:00;METAR CYYG 050500Z 23009KT 15SM FEW300 03/01 A2985 RMK CI2 SLP112=
CYYG;2007-01-05 06:00;METAR CYYG 050600Z 21010KT 15SM FEW300 02/01 A2986 RMK CI2 SLP113=
CYYG;2007-01-05 07:00;METAR CYYG 050700Z 22008KT 15SM BKN300 02/01 A2989 RMK CI5 SLP122=
CYYG;2007-01-05 08:00;METAR CYYG 050800Z 18007KT 15SM FEW015 BKN300 01/00 A2987 RMK SC1CI6 SLP118=
CYYG;2007-01-05 09:00;METAR CYYG 050900Z 20006KT 15SM FEW011 OVC300 02/01 A2986 RMK SC2CI6 SLP114=
CYYG;2007-01-05 10:00;METAR CYYG 051000Z 21006KT 15SM FEW011 OVC300 02/01 A2987 RMK SC2CI6 SLP119=
CYYG;2007-01-05 11:00;METAR CYYG 051100Z 23009KT 15SM FEW011 BKN300 03/02 A2987 RMK SC1CI6 SLP119=
CYYG;2007-01-05 12:00;METAR CYYG 051200Z 24008KT 15SM FEW140 OVC300 04/03 A2989 RMK AC2CI5 SLP122=
CYYG;2007-01-05 13:00;METAR CYYG 051300Z 23009KT 12SM SCT140 OVC300 04/03 A2991 RMK AC3CI3 SLP130=
CYYG;2007-01-05 14:00;METAR CYYG 051400Z 22009KT 10SM -SHRA BKN100 OVC250 04/03 A2992 RMK AC5CI3 SLP132=
CYYG;2007-01-05 15:00;METAR CYYG 051500Z 22006KT 10SM -SHRA BKN040 OVC100 04/03 A2990 RMK SC6AC2 SLP125=
CYYG;2007-01-05 15:17;SPECI CYYG 051517Z 21008KT 10SM BKN040 OVC100 04/ RMK SC6AC2=
CYYG;2007-01-05 15:48;SPECI CYYG 051548Z 22006KT 10SM -SHRA OVC039 04/ RMK SC8=
CYYG;2007-01-05 16:00;METAR CYYG 051600Z 21006KT 10SM -SHRA OVC040 04/03 A2988 RMK SC8 SLP119=
CYYG;2007-01-05 17:00;METAR CYYG 051700Z 20010KT 10SM -SHRA BKN040 OVC100 04/03 A2986 RMK SC6AC2 SLP112=
CYYG;2007-01-05 18:00;METAR CYYG 051800Z 19007KT 10SM -RA OVC040 04/03 A2983 RMK SC8 SLP104=
CYYG;2007-01-05 19:00;METAR CYYG 051900Z 18009KT 15SM -RA FEW040 OVC100 03/03 A2982 RMK SC2AC6 SLP101=
CYYG;2007-01-05 19:11;SPECI CYYG 051911Z 18009KT 15SM OVC100 04/ RMK AC8=
CYYG;2007-01-05 19:43;SPECI CYYG 051943Z 16011KT 15SM -SHRA OVC100 04/ RMK AC8=
CYYG;2007-01-05 20:00;METAR CYYG 052000Z 17012KT 15SM -SHRA FEW040 OVC100 04/02 A2979 RMK SC2AC6 SLP088=
CYYG;2007-01-05 21:00;METAR CYYG 052100Z 17011KT 15SM -RA OVC018 04/03 A2977 RMK SC8 SLP083=
CYYG;2007-01-05 21:12;SPECI CYYG 052112Z 18008KT 15SM OVC016 04/ RMK SC8=
CYYG;2007-01-05 21:49;SPECI CYYG 052149Z 18008KT 15SM -SHRA OVC014 04/ RMK SC8=
CYYG;2007-01-05 22:00;METAR CYYG 052200Z 18007KT 15SM -SHRA OVC014 04/03 A2975 RMK SC8 SLP077=
CYYG;2007-01-05 22:23;SPECI CYYG 052223Z 18007KT 15SM OVC013 04/ RMK SC8=
CYYG;2007-01-05 23:00;METAR CYYG 052300Z 20006KT 15SM OVC011 05/05 A2974 RMK SC8 SLP074=
CYYG;2007-01-05 23:23;SPECI CYYG 052323Z 22008KT 15SM OVC008 06/ RMK ST8=
CYYG;2007-01-06 00:00;METAR CYYG 060000Z 23007KT 15SM OVC008 07/07 A2974 RMK SF8 SLP071=
CYYG;2007-01-06 01:00;METAR CYYG 060100Z 25009G16KT 12SM OVC007 08/08 A2976 RMK SF8 SLP078=
CYYG;2007-01-06 02:00;METAR CYYG 060200Z 24009KT 12SM OVC006 08/07 A2977 RMK SF8 SLP083=
CYYG;2007-01-06 02:25;SPECI CYYG 060225Z 24008KT 15SM SCT006 OVC280 07/ RMK SF4CI2=
CYYG;2007-01-06 03:00;METAR CYYG 060300Z 24007KT 15SM FEW006 BKN032 BKN280 07/07 A2979 RMK SF2SC2CI2 SLP089=
CYYG;2007-01-06 03:51;SPECI CYYG 060351Z 24008KT 10SM BKN004 OVC028 07/ RMK SF6SC2=
CYYG;2007-01-06 04:00;METAR CYYG 060400Z 24008KT 8SM OVC003 07/07 A2980 RMK SF8 SLP092=
CYYG;2007-01-06 05:00;METAR CYYG 060500Z 24008KT 8SM OVC005 07/07 A2980 RMK SF8 SLP093=
CYYG;2007-01-06 06:00;METAR CYYG 060600Z 24005KT 15SM OVC007 07/06 A2982 RMK SF8 SLP100=
CYYG;2007-01-06 07:00;METAR CYYG 060700Z 22005KT 15SM BKN009 OVC280 06/05 A2983 RMK SF5CI3 SLP104=
CYYG;2007-01-06 08:00;METAR CYYG 060800Z 23005KT 5SM BR OVC004 06/06 A2982 RMK SF8 SLP101=
CYYG;2007-01-06 08:11;SPECI CYYG 060811Z 22005KT 2 1/2SM BR OVC003 06/ RMK SF8=
CYYG;2007-01-06 08:22;SPECI CYYG 060822Z 27004KT 1SM BR OVC280 05/ RMK FG5CI3 VIS N 1/2 FG=
CYYG;2007-01-06 09:00;METAR CYYG 060900Z 20004KT 3SM BR OVC280 04/04 A2981 RMK FG6CI2 VIS N 1/2 FG SLP095=
CYYG;2007-01-06 09:51;SPECI CYYG 060951Z 20006KT 5SM -DZ BR OVC003 06/ RMK SF8=
CYYG;2007-01-06 10:00;METAR CYYG 061000Z 21005KT 4SM -DZ BR BKN003 OVC012 06/06 A2980 RMK SF6SC2 SLP092=
CYYG;2007-01-06 10:12;SPECI CYYG 061012Z 12002KT 1 1/2SM R03/1400VP6000FT/D -DZ BR OVC003 05/ RMK SF8=
CYYG;2007-01-06 10:22;SPECI CYYG 061022Z 14005KT 1/2SM R03/1400FT/N -DZ FG VV002 04/ RMK FG8=
CYYG;2007-01-06 10:42;SPECI CYYG 061042Z 15003KT 2SM -DZ BR OVC005 04/ RMK SF8=
CYYG;2007-01-06 11:00;METAR CYYG 061100Z 17004KT 2SM -DZ BR OVC004 04/04 A2978 RMK SF8 SLP086=
CYYG;2007-01-06 11:43;SPECI CYYG 061143Z 18005KT 1/4SM R03/2400FT/N -RA FG VV001 05/ RMK FG8=
CYYG;2007-01-06 12:00;METAR CYYG 061200Z 18005KT 1/4SM R03/1400V2000FT/D -RA FG VV001 05/05 A2976 RMK FG8 SLP080=
CYYG;2007-01-06 13:00;METAR CYYG 061300Z 14005KT 1/8SM R03/1000FT/N -RA FG VV001 05/05 A2974 RMK FG8 SLP071=
CYYG;2007-01-06 14:00;METAR CYYG 061400Z 14006KT 1/8SM R03/1000FT/N -RA FG VV001 07/07 A2970 RMK FG8 SLP059=
CYYG;2007-01-06 15:00;METAR CYYG 061500Z 12009KT 1/4SM R03/1200FT/N RA FG VV001 08/08 A2961 RMK FG8 PRESFR SLP027=
CYYG;2007-01-06 15:26;SPECI CYYG 061526Z 15010KT 1/2SM R03/2000V4000FT/U RA FG OVC003 08/ RMK FG5SF3=
CYYG;2007-01-06 15:40;SPECI CYYG 061540Z 17010KT 3/4SM R03/2200V5000FT/U -RA BR OVC002 09/ RERA RMK FG2SF6=
CYYG;2007-01-06 16:00;METAR CYYG 061600Z 17013KT 1/4SM R03/1200V1800FT/N -RA FG VV002 09/09 A2956 RERA RMK FG8 SLP011=
CYYG;2007-01-06 16:06;SPECI CYYG 061606Z 16011KT 1/8SM R03/1200FT/N -RA FG VV001 08/ RMK FG8=
CYYG;2007-01-06 16:29;SPECI CYYG 061629Z 18012KT 1/4SM R03/1200V2000FT/U FG VV001 09/ RMK FG8=
CYYG;2007-01-06 16:52;SPECI CYYG 061652Z 18011KT 1/8SM R03/1200FT/N -RA FG VV001 08/ RMK FG8=
CYYG;2007-01-06 17:00;METAR CYYG 061700Z 18011KT 1/8SM R03/1200FT/N -RA FG VV001 08/08 A2950 RMK FG8 PRESFR SLP989=
CYYG;2007-01-06 17:34;SPECI CYYG 061734Z 18010KT 1/4SM R03/1400FT/N FG VV002 09/ RMK FG8=
CYYG;2007-01-06 17:47;SPECI CYYG 061747Z 20009KT 1/2SM R03/2000VP6000FT/U -RA FG VV002 09/ RMK FG8=
CYYG;2007-01-06 18:00;METAR CYYG 061800Z 20010KT 1/2SM R03/4000VP6000FT/U -RA FG OVC002 09/09 A2945 RMK FG2SF6 /R10/ SLP974=
CYYG;2007-01-06 18:06;SPECI CYYG 061806Z 19010KT 1 1/2SM -RA BR OVC003 10/ RMK SF8=
CYYG;2007-01-06 18:44;SPECI CYYG 061844Z 20012KT 3SM -RA BR BKN003 OVC012 10/ RMK SF6SC2=
CYYG;2007-01-06 19:00;METAR CYYG 061900Z 19011KT 3SM -RA BR BKN002 OVC011 10/10 A2942 RMK SF5SC3 SLP965=
CYYG;2007-01-06 20:00;METAR CYYG 062000Z 19010KT 3SM BR BKN003 OVC010 11/11 A2942 RMK SF6SF2 SLP963=
CYYG;2007-01-06 20:13;SPECI CYYG 062013Z 21010G16KT 10SM -RA BKN003 OVC015 11/ RMK SF6SC2=
CYYG;2007-01-06 21:00;METAR CYYG 062100Z 20011G17KT 10SM -RA SCT002 OVC020 11/11 A2939 RMK SF3SC5 SLP952=
CYYG;2007-01-06 22:00;METAR CYYG 062200Z 21012G18KT 5SM -RA BR BKN002 OVC007 12/12 A2936 RMK SF6SF2 SLP942=
CYYG;2007-01-06 22:23;SPECI CYYG 062223Z 20015KT 3SM BR BKN002 OVC016 12/ RMK SF6SC2=
CYYG;2007-01-06 22:48;SPECI CYYG 062248Z 21010KT 1SM R03/P6000FT/D -RA BR OVC002 12/ RMK SF8=
CYYG;2007-01-06 23:00;METAR CYYG 062300Z 21012KT 2SM -RA BR OVC002 12/12 A2934 RMK SF8 SLP938=
CYYG;2007-01-06 23:13;SPECI CYYG 062313Z 21012G19KT 1/2SM R03/3000VP6000FT/D -RA FG VV002 12/ RMK FG8=
CYYG;2007-01-07 00:00;METAR CYYG 070000Z 21011KT 1/2SM R03/2200V4000FT/U -DZ FG VV002 12/12 A2933 RMK FG8 SLP933=
CYYG;2007-01-07 00:28;SPECI CYYG 070028Z 25013G19KT 8SM OVC004 12/ RMK SF8=
CYYG;2007-01-07 01:00;METAR CYYG 070100Z 24010G16KT 8SM OVC005 11/11 A2933 RMK SF8 SLP932=
CYYG;2007-01-07 01:15;SPECI CYYG 070115Z 23011KT 8SM -SHRA OVC004 11/ RMK SF8=
CYYG;2007-01-07 01:29;SPECI CYYG 070129Z 23011G18KT 8SM -SHRA OVC006 11/ RMK SF8 CB ASOCTD LTGIC 15 N OF ARPT=
CYYG;2007-01-07 02:00;METAR CYYG 070200Z 23011G17KT 10SM OVC005 11/11 A2929 RMK SF8 CB ASOCTD LTG DSNT NE SLP920=
CYYG;2007-01-07 02:40;SPECI CYYG 070240Z 24013G19KT 5SM SHRA OVC005 11/ RMK SF8 TCU EMBDD=
CYYG;2007-01-07 03:00;METAR CYYG 070300Z 25015G25KT 3SM -SHRA OVC005 11/10 A2930 RERA RMK SF8 SLP923=
CYYG;2007-01-07 03:44;SPECI CYYG 070344Z 24013G18KT 15SM FEW005 OVC008 10/ RMK SF2SF6=
CYYG;2007-01-07 04:00;METAR CYYG 070400Z 24015G21KT 15SM FEW005 BKN008 OVC022 10/10 A2929 RMK SF2SF4SC2 SLP920=
CYYG;2007-01-07 05:00;METAR CYYG 070500Z 25018G29KT 15SM BKN010 BKN045 09/08 A2931 RMK SC5SC1 SLP925=
CYYG;2007-01-07 06:00;METAR CYYG 070600Z 24016G21KT 15SM OVC036 08/06 A2934 RMK SC8 SLP938=
CYYG;2007-01-07 07:00;METAR CYYG 070700Z 25020G26KT 15SM SCT030 08/04 A2939 RMK SC4 SLP953=
CYYG;2007-01-07 08:00;METAR CYYG 070800Z 27021G33KT 15SM BKN030 07/02 A2942 RMK SC7 SLP963=
CYYG;2007-01-07 09:00;METAR CYYG 070900Z 26016G26KT 15SM SCT030 06/02 A2944 RMK SC4 SLP972=
CYYG;2007-01-07 10:00;METAR CYYG 071000Z 27022G33KT 15SM FEW035 06/01 A2949 RMK SC2 SLP986=
CYYG;2007-01-07 11:00;METAR CYYG 071100Z 27020G29KT 15SM FEW035 05/M00 A2952 RMK SC1 SLP998=
CYYG;2007-01-07 12:00;METAR CYYG 071200Z 27020G34KT 15SM FEW035 FEW260 05/M01 A2957 RMK SC1CI0 SLP015=
CYYG;2007-01-07 13:00;METAR CYYG 071300Z 27022G39KT 15SM FEW260 05/M01 A2965 RMK CI1 PRESRR SLP042=
CYYG;2007-01-07 14:00;METAR CYYG 071400Z 28020G35KT 15SM FEW040 05/M01 A2972 RMK SC1 PRESRR SLP064=
CYYG;2007-01-07 16:00;METAR CYYG 071600Z 28023G30KT 15SM FEW030 06/M02 A2980 RMK SC1 SLP094=
CYYG;2007-01-07 17:00;METAR CYYG 071700Z 29028G36KT 15SM FEW040 06/M03 A2984 RMK SC1 SLP106=
CYYG;2007-01-07 18:00;METAR CYYG 071800Z 29024G29KT 15SM FEW040 06/M04 A2988 RMK SC1 SLP120=
CYYG;2007-01-07 19:00;METAR CYYG 071900Z 28017G25KT 15SM FEW040 06/M04 A2991 RMK SC1 SLP131=
CYYG;2007-01-07 20:00;METAR CYYG 072000Z 27017G22KT 15SM FEW060 05/M03 A2997 RMK SC2 SLP150=
CYYG;2007-01-07 21:00;METAR CYYG 072100Z 29008KT 15SM FEW060 03/M03 A3003 RMK SC2 SLP170=
CYYG;2007-01-07 22:00;METAR CYYG 072200Z 28006KT 15SM FEW060 02/M05 A3007 RMK SC2 SLP186=
CYYG;2007-01-07 23:00;METAR CYYG 072300Z 30010KT 15SM FEW060 02/M05 A3010 RMK SC1 SLP196=
CYYG;2007-01-08 00:00;METAR CYYG 080000Z 29006KT 15SM FEW060 01/M06 A3013 RMK SC1 SLP206=
CYYG;2007-01-08 01:00;METAR CYYG 080100Z 28008KT 15SM SKC 00/M05 A3016 RMK SLP216=
CYYG;2007-01-08 02:00;METAR CYYG 080200Z 29006KT 15SM SKC M00/M05 A3019 RMK SLP226=
CYYG;2007-01-08 03:00;METAR CYYG 080300Z 30005KT 15SM SKC M01/M06 A3020 RMK SLP228=
CYYG;2007-01-08 04:00;METAR CYYG 080400Z 28003KT 15SM SKC M02/M06 A3022 RMK SLP234=
CYYG;2007-01-08 05:00;METAR CYYG 080500Z 28005KT 15SM SKC M02/M06 A3023 RMK SLP240=
CYYG;2007-01-08 06:00;METAR CYYG 080600Z 27004KT 15SM SKC M02/M06 A3024 RMK SLP242=
CYYG;2007-01-08 07:00;METAR CYYG 080700Z 33002KT 15SM SKC M02/M07 A3023 RMK SLP240=
CYYG;2007-01-08 08:00;METAR CYYG 080800Z 19002KT 15SM OVC250 M03/M06 A3022 RMK CS4 SLP235=
CYYG;2007-01-08 09:00;METAR CYYG 080900Z 22004KT 15SM OVC250 M02/M06 A3027 RMK CS4 SLP253=
CYYG;2007-01-08 10:00;METAR CYYG 081000Z 22004KT 15SM OVC250 M02/M06 A3024 RMK CS4 SLP242=
CYYG;2007-01-08 11:00;METAR CYYG 081100Z 21004KT 15SM OVC250 M01/M06 A3022 RMK CS4 SLP236=
CYYG;2007-01-08 12:00;METAR CYYG 081200Z 14003KT 15SM OVC150 M01/M06 A3017 RMK AS8 SLP220=
CYYG;2007-01-08 13:00;METAR CYYG 081300Z 18009KT 15SM OVC045 M01/M05 A3018 RMK NS8 SLP223=
CYYG;2007-01-08 14:00;METAR CYYG 081400Z 16008KT 15SM OVC020 M01/M06 A3014 RMK NS8 VIRGA SLP209=
CYYG;2007-01-08 14:11;SPECI CYYG 081411Z 15009KT 15SM -SN OVC015 M01/ RMK NS8=
CYYG;2007-01-08 15:00;METAR CYYG 081500Z 15007KT 12SM -SN VV015 M00/M06 A3009 RMK SN8 VIS S-NW 4 SLP193=
CYYG;2007-01-08 15:17;SPECI CYYG 081517Z 16008KT 2SM -SN VV010 M01/ RMK SN8=
CYYG;2007-01-08 15:25;SPECI CYYG 081525Z 17010KT 1 1/4SM -SN VV008 M01/ RMK SN8=
CYYG;2007-01-08 15:42;SPECI CYYG 081542Z 16011KT 5/8SM R03/2400V5000FT/D -SN VV005 M02/ RMK SN8=
CYYG;2007-01-08 16:00;METAR CYYG 081600Z 16011KT 1/2SM R03/2400FT/N SN VV004 M02/M03 A3004 RMK SN8 /S01/ SLP175=
CYYG;2007-01-08 16:27;SPECI CYYG 081627Z 16011KT 3/8SM R03/1600V2200FT/D SN VV003 M01/ RMK SN8=
CYYG;2007-01-08 17:00;METAR CYYG 081700Z CCA 15011KT 3/8SM R03/1600FT/N SN VV003 M01/M02 A2996 RMK SN8 PRESFR /S03/ SLP147=
CYYG;2007-01-08 17:25;SPECI CYYG 081725Z 14014KT 1/2SM R03/1600V2800FT/N SNPL VV003 M01/ RMK SN8=
CYYG;2007-01-08 17:30;SPECI CYYG 081730Z 14012G18KT 2SM R03/1600V5000FT/U -SNPL OVC005 M01/ RMK SF8=
CYYG;2007-01-08 17:41;SPECI CYYG 081741Z 14012KT 2 1/2SM -FZRA BR OVC005 M01/ RESN RMK SF8=
CYYG;2007-01-08 17:47;SPECI CYYG 081747Z 14011G16KT 3SM -PL -FZRA BR OVC005 M01/ RESN RMK SF8=
CYYG;2007-01-08 18:00;METAR CYYG 081800Z 13011G16KT 3SM -PLSN -FZRA BR OVC006 M01/M01 A2984 RESN RMK SF8 FRESFR /S06/ SLP108=
CYYG;2007-01-08 18:13;SPECI CYYG 081813Z 13011KT 5SM -FZRA BR OVC006 M00/ RMK SF8=
CYYG;2007-01-08 18:28;SPECI CYYG 081828Z 13012KT 5SM -RA BR OVC006 00/ REFZRA RMK SF8=
CYYG;2007-01-08 19:00;METAR CYYG 081900Z 14016KT 6SM -RA BR OVC007 01/M00 A2974 REFZRA RMK SF8 PRESFR SLP075=
CYYG;2007-01-08 20:00;METAR CYYG 082000Z 13015G20KT 5SM -RA BR OVC007 01/00 A2966 RMK SF8 PRESFR SLP046=
CYYG;2007-01-08 21:00;METAR CYYG 082100Z 14013G19KT 3SM RA BR OVC008 01/00 A2956 RMK SF8 PRESFR SLP011=
CYYG;2007-01-08 22:00;METAR CYYG 082200Z 14017G22KT 3SM RA BR OVC007 02/02 A2943 RMK SF8 PRESFR /R12/ SLP969=
CYYG;2007-01-08 23:00;METAR CYYG 082300Z 18015KT 5SM RA BR OVC007 04/03 A2939 RMK SF8 SLP955=
CYYG;2007-01-08 23:12;SPECI CYYG 082312Z 17017KT 3SM RA BR OVC006 04/ RMK SF8=
CYYG;2007-01-08 23:24;SPECI CYYG 082324Z 18014G21KT 4SM -RA BR OVC005 04/ RERA RMK SF8=
CYYG;2007-01-09 00:00;METAR CYYG 090000Z CCA 16012KT 3SM -RA BR OVC003 04/04 A2931 RMK SF8 RERA PRESFR SLP927=
CYYG;2007-01-09 00:18;SPECI CYYG 090018Z 16014KT 1SM R03/4500VP6000FT/D -RA BR OVC002 05/ RMK SF8=
CYYG;2007-01-09 00:28;SPECI CYYG 090028Z 17015KT 1/2SM R03/3000V5500FT/D RA FG VV002 05/ RMK FG8=
CYYG;2007-01-09 00:55;SPECI CYYG 090055Z 19015KT 3SM R03/2200VP6000FT/U -RA BR OVC003 07/ RMK SF8=
CYYG;2007-01-09 01:00;METAR CYYG 090100Z 20014KT 3SM R03/2400VP6000FT/U -RA BR OVC003 07/07 A2926 RMK SF8 RERA SLP912=
CYYG;2007-01-09 01:07;SPECI CYYG 090107Z 20011G17KT 1/2SM R03/2000VP6000FT/D -RA FG OVC002 06/ RMK SF8=
CYYG;2007-01-09 01:33;SPECI CYYG 090133Z 19010KT 3/4SM R03/3500VP6000FT/U -RA BR OVC002 06/ RMK SF8=
CYYG;2007-01-09 01:39;SPECI CYYG 090139Z 19012KT 2SM -RA BR OVC003 06/ RMK SF8=
CYYG;2007-01-09 02:00;METAR CYYG 090200Z 20011KT 3SM BR BKN003 OVC040 07/07 A2924 RMK SF6SC2 SLP903=
CYYG;2007-01-09 02:22;SPECI CYYG 090222Z 20015KT 10SM SCT003 BKN024 OVC050 08/ RMK SF4SC2SC2=
CYYG;2007-01-09 03:00;METAR CYYG 090300Z 21012G17KT 12SM FEW003 OVC017 08/08 A2924 RMK SF2SC6 SLP902=
CYYG;2007-01-09 03:15;SPECI CYYG 090315Z 22016G21KT 10SM -RA SCT006 OVC013 10/ RMK SF3SC5=
CYYG;2007-01-09 03:33;SPECI CYYG 090333Z 22014KT 12SM -SHRA BKN004 OVC013 10/ RMK SF5SC3=
CYYG;2007-01-09 04:00;METAR CYYG 090400Z 25016G24KT 12SM -SHRA BKN004 OVC015 09/09 A2925 RMK SF5SC3 SLP906=
CYYG;2007-01-09 05:00;METAR CYYG 090500Z 27016KT 15SM -SHRA BKN005 OVC020 06/05 A2928 RMK SF5SC3 SLP917=
CYYG;2007-01-09 05:29;SPECI CYYG 090529Z 26016G21KT 15SM -SHRA SCT005 OVC024 06/ RMK SF3SC5=
CYYG;2007-01-09 06:00;METAR CYYG 090600Z CCA 27013G18KT 15SM -SHRA FEW005 OVC029 05/03 A2931 RMK SF2SC6 SLP925=
CYYG;2007-01-09 07:00;METAR CYYG 090700Z 27013G20KT 15SM OVC030 04/00 A2932 RMK SC8 SLP930=
CYYG;2007-01-09 08:00;METAR CYYG 090800Z 25012G18KT 15SM OVC030 04/00 A2933 RMK SC8 SLP933=
CYYG;2007-01-09 09:00;METAR CYYG 090900Z 23008KT 15SM OVC030 03/01 A2933 RMK SC8 SLP933=
CYYG;2007-01-09 10:00;METAR CYYG 091000Z 23009KT 15SM SCT030 03/M01 A2933 RMK SC4 SLP933=
CYYG;2007-01-09 11:00;METAR CYYG 091100Z 22011G18KT 15SM FEW030 03/M00 A2933 RMK SC2 SLP936=
CYYG;2007-01-09 12:00;METAR CYYG 091200Z 23012G19KT 15SM FEW030 03/M00 A2933 RMK SC2 SLP935=
CYYG;2007-01-09 13:00;METAR CYYG 091300Z 23011G16KT 15SM FEW032 03/M01 A2935 RMK SC2 SLP941=
CYYG;2007-01-09 14:00;METAR CYYG 091400Z 24014G21KT 15SM SCT009 04/M01 A2936 RMK SC4 SLP945=
CYYG;2007-01-09 15:00;METAR CYYG 091500Z 25017G24KT 15SM SCT039 04/M01 A2938 RMK SC3 SLP950=
CYYG;2007-01-09 16:00;METAR CYYG 091600Z 25017G24KT 15SM SCT033 03/M02 A2939 RMK SC4 SLP954=
CYYG;2007-01-09 17:00;METAR CYYG 091700Z 26015G31KT 15SM FEW033 FEW060 04/M04 A2939 RMK SC2SC1 SLP955=
CYYG;2007-01-09 18:00;METAR CYYG 091800Z 26012G21KT 15SM FEW060 04/M04 A2942 RMK SC1 SLP962=
CYYG;2007-01-09 19:00;METAR CYYG 091900Z 25011G22KT 15SM FEW030 FEW050 04/M05 A2945 RMK CF1SC1 SLP974=
CYYG;2007-01-09 20:00;METAR CYYG 092000Z 25011KT 15SM FEW030 FEW050 03/M04 A2948 RMK CF1SC1 SLP983=
CYYG;2007-01-09 21:00;METAR CYYG 092100Z 23010KT 15SM FEW030 03/M04 A2950 RMK SC1 SLP992=
CYYG;2007-01-09 22:00;METAR CYYG 092200Z 24006KT 15SM FEW025 02/M03 A2953 RMK SC1 SLP002=
CYYG;2007-01-09 23:00;METAR CYYG 092300Z 23008KT 15SM FEW025 SCT055 03/M02 A2955 RMK SC1SC4 SLP010=
CYYG;2007-01-10 00:00;METAR CYYG 100000Z 25009KT 15SM BKN047 02/M02 A2958 RMK SC6 SLP017=
CYYG;2007-01-10 01:00;METAR CYYG 100100Z 25005KT 15SM FEW040 01/M03 A2960 RMK SC2 SLP024=
CYYG;2007-01-10 02:00;METAR CYYG 100200Z 26007KT 15SM FEW028 BKN068 01/M04 A2962 RMK SC2AC3 SLP031=
CYYG;2007-01-10 03:00;METAR CYYG 100300Z 25008KT 15SM BKN067 01/M05 A2964 RMK AC6 SLP039=
CYYG;2007-01-10 04:00;METAR CYYG 100400Z 25009KT 15SM BKN067 01/M05 A2965 RMK AC7 SLP042=
CYYG;2007-01-10 05:00;METAR CYYG 100500Z 26007KT 15SM SCT069 01/M05 A2965 RMK AC4 SLP042=
CYYG;2007-01-10 06:00;METAR CYYG 100600Z 25008KT 15SM BKN070 01/M06 A2968 RMK AC6 SLP051=
CYYG;2007-01-10 07:00;METAR CYYG 100700Z 24007KT 15SM BKN072 00/M06 A2970 RMK AC6 SLP058=
CYYG;2007-01-10 08:00;METAR CYYG 100800Z 23005KT 15SM FEW072 M01/M06 A2971 RMK AC1 SLP061=
CYYG;2007-01-10 09:00;METAR CYYG 100900Z 23006KT 15SM SKC M01/M05 A2971 RMK SLP062=
CYYG;2007-01-10 10:00;METAR CYYG 101000Z 23005KT 15SM SKC M02/M07 A2972 RMK SLP066=
CYYG;2007-01-10 11:00;METAR CYYG 101100Z 20005KT 15SM FEW120 M03/M07 A2975 RMK AC1 SLP077=
CYYG;2007-01-10 12:00;METAR CYYG 101200Z 23004KT 15SM FEW020 FEW120 M03/M05 A2978 RMK SC1AC1 SLP086=
CYYG;2007-01-10 13:00;METAR CYYG 101300Z 21004KT 15SM FEW120 FEW290 M01/M05 A2979 RMK AC1CI0 SLP090=
CYYG;2007-01-10 14:00;METAR CYYG 101400Z 26005KT 15SM FEW120 FEW290 00/M05 A2977 RMK AC1CI0 SLP084=
CYYG;2007-01-10 15:00;METAR CYYG 101500Z 28008KT 15SM FEW025 FEW120 FEW290 01/M06 A2973 RMK SC1AC1CI1 SLP070=
CYYG;2007-01-10 16:00;METAR CYYG 101600Z 29009KT 15SM FEW030 BKN290 01/M07 A2969 RMK SC1CI3 SLP055=
CYYG;2007-01-10 17:00;METAR CYYG 101700Z 29006KT 15SM FEW030 BKN290 01/M07 A2969 RMK SC1CI5 SLP056=
CYYG;2007-01-10 18:00;METAR CYYG 101800Z 27004KT 15SM FEW030 BKN290 01/M07 A2971 RMK SC1CI6 SLP063=
CYYG;2007-01-10 19:00;METAR CYYG 101900Z 00000KT 15SM FEW020 BKN290 01/M06 A2974 RMK SC1CI7 SLP074=
CYYG;2007-01-10 20:00;METAR CYYG 102000Z 26003KT 15SM FEW020 FEW040 BKN290 01/M07 A2977 RMK SC1SC1CI6 SLP084=
CYYG;2007-01-10 21:00;METAR CYYG 102100Z 27004KT 15SM FEW020 FEW045 BKN210 M01/M05 A2979 RMK SC1SC1CS6 SLP089=
CYYG;2007-01-10 22:00;METAR CYYG 102200Z 27003KT 15SM FEW020 BKN210 BKN290 M02/M05 A2979 RMK SC1CS3CI4 SLP089=
CYYG;2007-01-10 23:00;METAR CYYG 102300Z 31003KT 15SM FEW020 BKN290 M02/M06 A2979 RMK SC1CI6 SLP091=
CYYG;2007-01-11 00:00;METAR CYYG 110000Z 31005KT 15SM OVC290 M02/M06 A2980 RMK CS4 SLP094=
CYYG;2007-01-11 01:00;METAR CYYG 110100Z 30005KT 15SM FEW090 SCT160 BKN290 M02/M05 A2981 RMK AC2AC2CI1 SLP096=
CYYG;2007-01-11 02:00;METAR CYYG 110200Z 28008KT 15SM BKN180 M03/M05 A2981 RMK AC3 SLP098=
CYYG;2007-01-11 03:00;METAR CYYG 110300Z 30009KT 15SM BKN082 M02/M05 A2982 RMK AC6 SLP100=
CYYG;2007-01-11 04:00;METAR CYYG 110400Z 32009G15KT 15SM BKN073 M02/M05 A2982 RMK AC7 SLP101=
CYYG;2007-01-11 04:51;SPECI CYYG 110451Z 30008KT 15SM BKN010 OVC073 M02/ RMK SC6AC2=
CYYG;2007-01-11 05:00;METAR CYYG 110500Z 31008KT 15SM BKN011 BKN022 BKN079 M03/M05 A2985 RMK SC5SC1AC1 SLP110=
CYYG;2007-01-11 06:00;METAR CYYG 110600Z 29011G16KT 15SM BKN011 OVC078 M03/M06 A2988 RMK SC6AC2 SLP121=
CYYG;2007-01-11 06:44;SPECI CYYG 110644Z 28012G17KT 10SM -SHSN DRSN FEW011 BKN036 M04/ RMK SC2SC6=
CYYG;2007-01-11 07:00;METAR CYYG 110700Z 28013G19KT 1 1/2SM -SHSN DRSN VV007 M05/M07 A2992 RMK SN8 SLP134=
CYYG;2007-01-11 08:00;METAR CYYG 110800Z 29018G24KT 3SM -SHSN DRSN OVC023 M05/M07 A2995 RMK SC8 SLP145=
CYYG;2007-01-11 09:00;METAR CYYG 110900Z 29018KT 10SM -SHSN DRSN SCT013 BKN019 M05/M08 A2999 RMK SC3SC4 SLP160=
CYYG;2007-01-11 10:00;METAR CYYG 111000Z CCA 31016G24KT 3SM -SHSN DRSN OVC019 M06/M09 A3006 RMK SC8 PRESRR SLP184=
CYYG;2007-01-11 11:00;METAR CYYG 111100Z 29016G21KT 15SM -SHSN DRSN FEW014 BKN075 M07/M10 A3011 RMK SC2AC6 SLP199=
CYYG;2007-01-11 12:00;METAR CYYG 111200Z 28012G18KT 15SM -SHSN DRSN FEW014 BKN021 BKN090 M08/M11 A3017 RMK SC1SC6AC1 SLP218=
CYYG;2007-01-11 13:00;METAR CYYG 111300Z 28013G18KT 12SM -SHSN DRSN BKN020 M08/M12 A3021 RMK SC7 SLP233=
CYYG;2007-01-11 14:00;METAR CYYG 111400Z 28017KT 12SM -SHSN DRSN BKN021 M08/M12 A3025 RMK SC7 SLP245=
CYYG;2007-01-11 15:00;METAR CYYG 111500Z 28016KT 5SM -SHSN DRSN BKN022 M08/M12 A3028 RMK SC7 SLP256=
CYYG;2007-01-11 16:00;METAR CYYG 111600Z 28013KT 10SM -SHSN DRSN BKN020 M08/M13 A3028 RMK SC6 SLP258=
CYYG;2007-01-11 16:48;SPECI CYYG 111648Z 29012KT 15SM VCSH SCT021 M08/ RMK SC3=
CYYG;2007-01-11 16:54;SPECI CYYG 111654Z 26011KT 12SM -SHSN BKN021 M08/ RMK SC5=
CYYG;2007-01-11 17:00;METAR CYYG 111700Z 26013KT 12SM -SHSN BKN021 M07/M12 A3029 RMK SC5 SLP261=
CYYG;2007-01-11 17:30;SPECI CYYG 111730Z 27011KT 15SM FEW021 M07/ RMK SC2=
CYYG;2007-01-11 18:00;METAR CYYG 111800Z 26015KT 15SM SCT021 M07/M12 A3031 RMK SC3 SLP267=
CYYG;2007-01-11 19:00;METAR CYYG 111900Z 29011G17KT 15SM FEW021 M07/M12 A3033 RMK SC1 SLP273=
CYYG;2007-01-11 20:00;METAR CYYG 112000Z 29011G18KT 15SM FEW021 M06/M12 A3036 RMK SC2 SLP284=
CYYG;2007-01-11 21:00;METAR CYYG 112100Z 28006KT 15SM FEW020 FEW300 M07/M12 A3039 RMK SC1CI1 SLP296=
CYYG;2007-01-11 22:00;METAR CYYG 112200Z 23004KT 15SM FEW020 FEW300 M07/M13 A3040 RMK SC1CI1 SLP298=
CYYG;2007-01-11 23:00;METAR CYYG 112300Z 26006KT 15SM FEW020 FEW170 BKN300 M07/M12 A3042 RMK SC1AC1CI0 SLP306=
CYYG;2007-01-12 00:00;METAR CYYG 120000Z 25008KT 15SM FEW170 BKN300 M07/M12 A3042 RMK AC2CI1 SLP304=
CYYG;2007-01-12 01:00;METAR CYYG 120100Z 25007KT 15SM BKN300 M07/M12 A3043 RMK CI0 SLP307=
CYYG;2007-01-12 02:00;METAR CYYG 120200Z 26012KT 15SM FEW300 M07/M14 A3042 RMK CI0 SLP305=
CYYG;2007-01-12 03:00;METAR CYYG 120300Z 25009KT 15SM FEW300 M07/M13 A3042 RMK CI1 SLP305=
CYYG;2007-01-12 04:00;METAR CYYG 120400Z 25008KT 15SM FEW057 BKN130 M06/M13 A3040 RMK SC2AC4 SLP299=
CYYG;2007-01-12 05:00;METAR CYYG 120500Z 24004KT 15SM BKN090 M06/M11 A3039 RMK AC6 SLP293=
CYYG;2007-01-12 06:00;METAR CYYG 120600Z 21005KT 15SM OVC120 M04/M08 A3036 RMK AC8 SLP286=
CYYG;2007-01-12 07:00;METAR CYYG 120700Z 20010KT 15SM OVC100 M04/M06 A3034 RMK AC8 SLP279=
CYYG;2007-01-12 07:54;SPECI CYYG 120754Z 20013KT 15SM -SHSN DRSN FEW015 OVC026 M03/ RMK SC2SC6=
CYYG;2007-01-12 08:00;METAR CYYG 120800Z 19012G19KT 3SM -SHSN DRSN FEW015 OVC026 M03/M05 A3031 RMK SC2SC6 SLP269=
CYYG;2007-01-12 08:33;SPECI CYYG 120833Z 19013G18KT 15SM OVC053 M02/ RMK SC8=
CYYG;2007-01-12 09:00;METAR CYYG 120900Z 19012G18KT 15SM OVC066 M02/M05 A3028 RMK AC8 SLP257=
CYYG;2007-01-12 10:00;METAR CYYG 121000Z 20013G21KT 15SM BKN027 OVC095 M01/M04 A3026 RMK SC6AC2 SLP249=
CYYG;2007-01-12 11:00;METAR CYYG 121100Z 20015G20KT 15SM OVC024 M00/M04 A3023 RMK SC8 SLP241=
CYYG;2007-01-12 12:00;METAR CYYG 121200Z 21015KT 15SM OVC022 00/M03 A3022 RMK SC8 SLP236=
CYYG;2007-01-12 13:00;METAR CYYG 121300Z 21012KT 15SM -SHSN OVC019 01/M02 A3021 RMK SC8 SLP232=
CYYG;2007-01-12 13:06;SPECI CYYG 121306Z 20011G16KT 2SM -SHSN OVC018 00/ RMK SN2SC6=
CYYG;2007-01-12 13:21;SPECI CYYG 121321Z 20011KT 3SM -SHSN OVC015 00/ RMK SC8=
CYYG;2007-01-12 13:36;SPECI CYYG 121336Z 20013KT 2SM -SHSN OVC016 00/ RMK SN2SC6=
CYYG;2007-01-12 14:00;METAR CYYG 121400Z 20012KT 2SM -SHSN OVC014 00/M01 A3020 RMK SN2SC6 SLP229=
CYYG;2007-01-12 14:21;SPECI CYYG 121421Z 21011KT 1SM R03/P6000FT/D -SHSN OVC010 00/ RMK SN6SC2=
CYYG;2007-01-12 14:35;SPECI CYYG 121435Z 20011KT 3/4SM R03/3500V5500FT/U -SN OVC005 00/ RMK SN6SF2=
CYYG;2007-01-12 15:00;METAR CYYG 121500Z 21009G16KT 1 1/2SM -SN OVC004 00/M00 A3018 RMK SN4SF4 /S01/ SLP224=
CYYG;2007-01-12 15:31;SPECI CYYG 121531Z 22006KT 2 1/2SM -SN BR OVC004 00/ RMK SF8=
CYYG;2007-01-12 15:40;SPECI CYYG 121540Z 21007KT 8SM -SN BKN004 OVC010 00/ RMK SF6SC2=
CYYG;2007-01-12 15:48;SPECI CYYG 121548Z 21006KT 12SM FEW004 OVC011 00/ RMK SF2SC6=
CYYG;2007-01-12 16:00;METAR CYYG 121600Z 21004KT 12SM FEW004 OVC010 01/00 A3014 RMK SF1SC8 SLP211=
CYYG;2007-01-12 17:00;METAR CYYG 121700Z 22005KT 12SM FEW005 SCT010 OVC025 02/01 A3010 RMK SF1SC3SC5 SLP195=
CYYG;2007-01-12 18:00;METAR CYYG 121800Z 20002KT 6SM -DZ BR OVC008 02/01 A3007 RMK SF8 SLP185=
CYYG;2007-01-12 19:00;METAR CYYG 121900Z 20007KT 6SM BR OVC008 02/01 A3005 RMK SF8 INTMT -DZ SLP177=
CYYG;2007-01-12 19:32;SPECI CYYG 121932Z 19005KT 6SM -SHRA BR FEW008 OVC027 02/ RMK SF2SC6=
CYYG;2007-01-12 20:00;METAR CYYG 122000Z 21006KT 6SM -SHRA BR FEW008 BKN018 OVC028 02/02 A3004 RMK SF2SC4SC2 SLP174=
CYYG;2007-01-12 21:00;METAR CYYG 122100Z 23009G15KT 5SM -SHRA BR FEW008 OVC015 03/02 A3005 RMK SF2SC6 SLP177=
CYYG;2007-01-12 22:00;METAR CYYG 122200Z 25007KT 8SM -SHRA FEW008 OVC013 03/01 A3004 RMK SF1SC7 SLP174=
CYYG;2007-01-12 22:23;SPECI CYYG 122223Z 25008KT 10SM FEW013 OVC045 03/ RMK SC2SC6=
CYYG;2007-01-12 23:00;METAR CYYG 122300Z 24006KT 10SM FEW020 OVC045 02/01 A3003 RMK SC1SC7 SLP172=
CYYG;2007-01-13 00:00;METAR CYYG 130000Z 25008KT 10SM SCT017 OVC038 02/01 A3005 RMK SC3SC5 SLP177=
CYYG;2007-01-13 01:00;METAR CYYG 130100Z 25006KT 15SM SCT035 02/00 A3004 RMK SC3 SLP176=
CYYG;2007-01-13 02:00;METAR CYYG 130200Z 25008KT 15SM SCT035 02/M01 A3003 RMK SC3 SLP172=
CYYG;2007-01-13 03:00;METAR CYYG 130300Z 25006KT 15SM BKN028 01/M02 A3002 RMK SC5 SLP169=
CYYG;2007-01-13 04:00;METAR CYYG 130400Z 25008KT 15SM OVC027 01/M02 A3001 RMK SC8 SLP164=
CYYG;2007-01-13 05:00;METAR CYYG 130500Z 24005KT 15SM OVC026 01/M02 A2999 RMK SC8 SLP158=
CYYG;2007-01-13 06:00;METAR CYYG 130600Z 24007KT 15SM OVC026 01/M02 A2998 RMK SC8 SLP153=
CYYG;2007-01-13 07:00;METAR CYYG 130700Z 23004KT 15SM OVC028 01/M01 A2998 RMK SC8 SLP153=
CYYG;2007-01-13 08:00;METAR CYYG 130800Z 22005KT 15SM OVC035 01/M01 A2996 RMK SC8 SLP147=
CYYG;2007-01-13 09:00;METAR CYYG 130900Z 22007KT 15SM OVC033 02/M01 A2993 RMK SC8 SLP136=
CYYG;2007-01-13 10:00;METAR CYYG 131000Z 22009KT 15SM OVC034 03/M00 A2991 RMK SC8 SLP132=
CYYG;2007-01-13 11:00;METAR CYYG 131100Z 22008KT 15SM OVC029 03/01 A2990 RMK SC8 SLP127=
CYYG;2007-01-13 12:00;METAR CYYG 131200Z 22006KT 15SM OVC027 03/02 A2988 RMK SC8 SLP122=
CYYG;2007-01-13 13:00;METAR CYYG 131300Z 24007KT 15SM VCSH OVC023 04/03 A2989 RMK SC8 SLP123=
CYYG;2007-01-13 13:06;SPECI CYYG 131306Z 24009KT 10SM -RA FEW008 OVC024 04/ RMK SF2SC6=
CYYG;2007-01-13 13:39;SPECI CYYG 131339Z 25011KT 8SM -RA FEW005 OVC010 04/ RMK SF2SC6=
CYYG;2007-01-13 14:00;METAR CYYG 131400Z 25008G15KT 15SM -RA FEW005 BKN011 OVC250 04/02 A2990 RMK SF1SC5CI2 SLP126=
CYYG;2007-01-13 14:16;SPECI CYYG 131416Z 25007KT 15SM SCT011 OVC160 04/ RMK SC4AS4=
CYYG;2007-01-13 14:34;SPECI CYYG 131434Z 26010KT 15SM -SHRA SCT011 BKN025 OVC160 04/ RMK SC3SC3AS2=
CYYG;2007-01-13 15:00;METAR CYYG 131500Z 31011G17KT 15SM -SHRA BKN017 OVC160 04/01 A2993 RMK SC6AS2 SLP137=
CYYG;2007-01-13 15:03;SPECI CYYG 131503Z 33021G28KT 12SM -SHSN OVC014 02/ RMK SC8=
CYYG;2007-01-13 15:36;SPECI CYYG 131536Z 33012G19KT 3SM -SHSN OVC011 M00/ RMK SC8=
CYYG;2007-01-13 16:00;METAR CYYG 131600Z 34014G19KT 3SM -SHSN OVC011 M01/M02 A2996 RMK SC8 SLP147=
CYYG;2007-01-13 16:22;SPECI CYYG 131622Z 33013G19KT 15SM -SHSN OVC015 M01/ RMK SC8=
CYYG;2007-01-13 16:51;SPECI CYYG 131651Z 34012G18KT 15SM BKN015 OVC140 M01/ RMK SC7AS1=
CYYG;2007-01-13 17:00;METAR CYYG 131700Z 33015G20KT 15SM BKN018 OVC140 M01/M04 A2997 RMK SC6AC2 SLP152=
CYYG;2007-01-13 17:13;SPECI CYYG 131713Z 33017G28KT 12SM -SHSN OVC021 M01/ RMK SC8=
CYYG;2007-01-13 18:00;METAR CYYG 131800Z 33017G24KT 10SM -SHSN BKN016 M02/M05 A3001 RMK SC7 SLP165=
CYYG;2007-01-13 18:39;SPECI CYYG 131839Z 34013G22KT 5SM -SHSN OVC011 M03/ RMK SC8=
CYYG;2007-01-13 19:00;METAR CYYG 131900Z 34013G25KT 8SM -SHSN BKN012 M03/M06 A3005 RMK SC7 SLP178=
CYYG;2007-01-13 19:37;SPECI CYYG 131937Z 36017G22KT 10SM -SHSN BKN019 M03/ RMK SC7=
CYYG;2007-01-13 20:00;METAR CYYG 132000Z 35013G25KT 5SM -SHSN BKN011 M03/M08 A3011 RMK SC7 PRESRR SLP198=
CYYG;2007-01-13 21:00;METAR CYYG 132100Z 34011G19KT 6SM -SHSN OVC012 M04/M08 A3015 RMK SC8 SLP213=
CYYG;2007-01-13 21:48;SPECI CYYG 132148Z 35016G30KT 12SM -SHSN BKN020 M05/ RMK SC7=
CYYG;2007-01-13 22:00;METAR CYYG 132200Z 35013G24KT 15SM -SHSN BKN020 M05/M10 A3020 RMK SC7 SLP228=
CYYG;2007-01-13 23:00;METAR CYYG 132300Z 35017G29KT 15SM -SHSN OVC020 M05/M11 A3024 RMK SC8 SLP243=
CYYG;2007-01-14 00:00;METAR CYYG 140000Z 34016G22KT 15SM -SHSN BKN012 OVC017 M06/M10 A3027 RMK SC5SC3 SLP253=
CYYG;2007-01-14 01:00;METAR CYYG 140100Z 35013KT 15SM -SHSN SCT013 OVC024 M06/M10 A3030 RMK SC3SC5 SLP262=
CYYG;2007-01-14 02:00;METAR CYYG 140200Z 36010G19KT 15SM -SHSN SCT016 OVC029 M06/M11 A3033 RMK SC3SC5 SLP274=
CYYG;2007-01-14 03:00;METAR CYYG 140300Z 01010KT 15SM -SHSN OVC028 M06/M11 A3036 RMK SC8 SLP282=
CYYG;2007-01-14 04:00;METAR CYYG 140400Z 01008KT 15SM -SHSN OVC027 M06/M11 A3036 RMK SC8 SLP284=
CYYG;2007-01-14 05:00;METAR CYYG 140500Z 01007KT 15SM -SHSN OVC028 M06/M12 A3037 RMK SC8 SLP287=
CYYG;2007-01-14 06:00;METAR CYYG 140600Z 02007KT 15SM -SHSN OVC029 M06/M11 A3039 RMK SC8 SLP293=
CYYG;2007-01-14 07:00;METAR CYYG 140700Z 04006KT 15SM -SHSN OVC032 M06/M12 A3039 RMK SC8 SLP295=
CYYG;2007-01-14 08:00;METAR CYYG 140800Z 08003KT 15SM -SHSN OVC031 M06/M11 A3039 RMK SC8 SHSN VRY LGT SLP292=
CYYG;2007-01-14 09:00;METAR CYYG 140900Z 00000KT 15SM -SHSN OVC027 M06/M11 A3039 RMK SC8 SLP294=
CYYG;2007-01-14 10:00;METAR CYYG 141000Z 16003KT 15SM -SHSN OVC029 M06/M11 A3038 RMK SC8 SLP292=
CYYG;2007-01-14 11:00;METAR CYYG 141100Z 17004KT 15SM -SHSN OVC028 M06/M11 A3039 RMK SC8 SLP294=
CYYG;2007-01-14 12:00;METAR CYYG 141200Z 20002KT 15SM -SHSN OVC027 M06/M11 A3038 RMK SC8 SLP292=
CYYG;2007-01-14 13:00;METAR CYYG 141300Z 19004KT 15SM -SHSN OVC027 M06/M11 A3039 RMK SC8 SLP293=
CYYG;2007-01-14 14:00;METAR CYYG 141400Z 21007KT 15SM -SHSN OVC026 M05/M10 A3038 RMK SC8 SLP291=
CYYG;2007-01-14 14:45;SPECI CYYG 141445Z 21010KT 15SM SCT026 OVC240 M05/ RMK SC3CS3=
CYYG;2007-01-14 15:00;METAR CYYG 141500Z 22008KT 15SM FEW026 OVC240 M05/M10 A3037 RMK SC2CS3 SLP289=
CYYG;2007-01-14 16:00;METAR CYYG 141600Z 20009KT 15SM SCT023 OVC240 M05/M09 A3034 RMK SC3CS3 SLP279=
CYYG;2007-01-14 17:00;METAR CYYG 141700Z 20011KT 15SM FEW023 OVC240 M05/M09 A3029 RMK SC2CS5 SLP261=
CYYG;2007-01-14 18:00;METAR CYYG 141800Z 22009KT 15SM FEW023 OVC240 M04/M09 A3026 RMK SC2CS5 SLP251=
CYYG;2007-01-14 19:00;METAR CYYG 141900Z 20009G15KT 15SM FEW023 OVC240 M03/M08 A3023 RMK SC2CS3 SLP239=
CYYG;2007-01-14 20:00;METAR CYYG 142000Z 21011KT 15SM BKN023 OVC240 M03/M07 A3020 RMK SC6CS2 SLP230=
CYYG;2007-01-14 21:00;METAR CYYG 142100Z 23006KT 15SM OVC024 M03/M06 A3020 RMK SC8 SLP228=
CYYG;2007-01-14 21:35;SPECI CYYG 142135Z 23006KT 15SM -SHSN OVC018 M03/ RMK SC8=
CYYG;2007-01-14 22:00;METAR CYYG 142200Z 24005KT 15SM -SHSN SCT018 OVC023 M03/M05 A3019 RMK SC3SC5 SLP225=
CYYG;2007-01-14 23:00;METAR CYYG 142300Z 24009KT 15SM -SHSN OVC020 M02/M05 A3019 RMK SC8 SLP226=
CYYG;2007-01-14 23:46;SPECI CYYG 142346Z 25007KT 15SM BKN020 M02/ RMK SC6=
CYYG;2007-01-15 00:00;METAR CYYG 150000Z 25007KT 15SM BKN018 M02/M05 A3018 RMK SC6 SLP222=
CYYG;2007-01-15 01:00;METAR CYYG 150100Z 27009KT 15SM BKN018 M03/M08 A3019 RMK SC6 SLP225=
CYYG;2007-01-15 02:00;METAR CYYG 150200Z 30007KT 15SM FEW020 BKN080 M03/M09 A3019 RMK SC2AC5 SLP226=
CYYG;2007-01-15 03:00;METAR CYYG 150300Z 31007G16KT 15SM SCT080 M04/M10 A3020 RMK AC4 SLP230=
CYYG;2007-01-15 04:00;METAR CYYG 150400Z 31009KT 15SM FEW030 M05/M10 A3022 RMK SC2 SLP235=
CYYG;2007-01-15 05:00;METAR CYYG 150500Z 32009KT 15SM FEW030 M05/M11 A3022 RMK SC2 SLP235=
CYYG;2007-01-15 06:00;METAR CYYG 150600Z 31008KT 15SM FEW030 M06/M11 A3023 RMK SC1 SLP238=
CYYG;2007-01-15 07:00;METAR CYYG 150700Z 32007KT 15SM FEW030 M06/M12 A3024 RMK SC2 SLP244=
CYYG;2007-01-15 08:00;METAR CYYG 150800Z 32007KT 15SM FEW030 M07/M12 A3024 RMK SC2 SLP244=
CYYG;2007-01-15 09:00;METAR CYYG 150900Z 31007KT 15SM FEW005 SCT030 M07/M11 A3026 RMK SF2SC2 SLP250=
CYYG;2007-01-15 09:07;SPECI CYYG 150907Z 31007KT 15SM -SHSN SCT006 BKN030 M07/ RMK SF3SC2=
CYYG;2007-01-15 10:00;METAR CYYG 151000Z 33007KT 12SM -SHSN BKN008 BKN012 M07/M12 A3027 RMK SF5SC2 SLP253=
CYYG;2007-01-15 10:05;SPECI CYYG 151005Z 31008KT 12SM -SHSN SCT010 BKN018 M07/ RMK SF3SC3=
CYYG;2007-01-15 11:00;METAR CYYG 151100Z 30006KT 15SM -SHSN BKN010 M07/M12 A3028 RMK SC6 SLP258=
CYYG;2007-01-15 12:00;METAR CYYG 151200Z 27004KT 15SM -SHSN BKN011 OVC280 M08/M12 A3030 RMK SC6CI2 SLP264=
CYYG;2007-01-15 13:00;METAR CYYG 151300Z 27004KT 15SM -SHSN BKN011 BKN018 OVC280 M08/M11 A3030 RMK SC5SC2CI2 SLP263=
CYYG;2007-01-15 14:00;METAR CYYG 151400Z 28006KT 12SM -SHSN OVC010 M07/M10 A3031 RMK SC8 SLP267=
CYYG;2007-01-15 15:00;METAR CYYG 151500Z 30005KT 15SM -SHSN SCT008 OVC012 M07/M10 A3030 RMK SF3SC5 SLP264=
CYYG;2007-01-15 15:43;SPECI CYYG 151543Z 30002KT 15SM -SHSN SCT012 OVC280 M07/ RMK SC4CS4=
CYYG;2007-01-15 16:00;METAR CYYG 151600Z 32003KT 15SM -SHSN BKN014 OVC280 M06/M11 A3025 RMK SC6CS2 SLP248=
CYYG;2007-01-15 17:00;METAR CYYG 151700Z 32004KT 15SM BKN015 OVC280 M06/M10 A3023 RMK SC6CS2 SLP240=
CYYG;2007-01-15 18:00;METAR CYYG 151800Z 29004KT 15SM FEW010 BKN018 OVC280 M06/M10 A3024 RMK SC2SC4CS2 SLP243=
CYYG;2007-01-15 19:00;METAR CYYG 151900Z 00000KT 15SM FEW010 SCT018 OVC280 M06/M11 A3018 RMK SC1SC3CS4 SLP224=
CYYG;2007-01-15 20:00;METAR CYYG 152000Z 11003KT 15SM FEW018 OVC280 M06/M11 A3013 RMK SC2CS6 SLP207=
CYYG;2007-01-15 20:16;SPECI CYYG 152016Z 13004KT 6SM -SN SCT007 BKN012 OVC280 M06/ RMK SF3SC4CS1=
CYYG;2007-01-15 20:37;SPECI CYYG 152037Z 12003KT 3SM -SN BKN006 OVC012 M07/ RMK SF6SC2=
CYYG;2007-01-15 21:00;METAR CYYG 152100Z 12003KT 2 1/2SM -SN BKN006 OVC012 M07/M09 A3010 RMK SF6SC2 SLP196=
CYYG;2007-01-15 21:40;SPECI CYYG 152140Z 10002KT 1SM R03/P6000FT/D -SN BKN003 OVC010 M07/ RMK SF7SC1=
CYYG;2007-01-15 22:00;METAR CYYG 152200Z 00000KT 1SM -SN BKN003 OVC010 M07/M09 A3010 RMK SF7SC1 SLP195=
CYYG;2007-01-15 23:00;METAR CYYG 152300Z 02006KT 1SM R03/P6000FT/U -SN OVC004 M07/M09 A3006 RMK SF8 SLP182=
CYYG;2007-01-16 00:00;METAR CYYG 160000Z 09007KT 1SM R03/P6000FT/U -SN VV006 M07/M09 A3001 RMK SN8 /S04/ SLP165=
CYYG;2007-01-16 00:43;SPECI CYYG 160043Z 07007KT 1 1/2SM -SN VV007 M07/ RMK SN8=
CYYG;2007-01-16 01:00;METAR CYYG 160100Z 09007KT 1 1/2SM -SN VV007 M07/M09 A2996 RMK SN8 /S01/ SLP149=
CYYG;2007-01-16 01:16;SPECI CYYG 160116Z 07005KT 3/4SM R03/P6000FT/D -SN VV006 M07/ RMK SN8=
CYYG;2007-01-16 02:00;METAR CYYG 160200Z 07006KT 3/4SM R03/P6000FT/D -SN VV005 M07/M08 A2992 RMK SN8 /S02/ SLP136=
CYYG;2007-01-16 02:10;SPECI CYYG 160210Z 07007KT 1 1/2SM -SN VV005 M07/ RMK SN8=
CYYG;2007-01-16 03:00;METAR CYYG 160300Z 06007KT 1 1/2SM -SN VV008 M06/M08 A2986 RMK SN8 PRESFR SLP116=
CYYG;2007-01-16 03:10;SPECI CYYG 160310Z 05006KT 3SM -SN OVC010 M06/ RMK SC8=
CYYG;2007-01-16 03:47;SPECI CYYG 160347Z 05008KT 3/4SM R03/P6000FT/D -SN OVC014 M06/ RMK SN4SC4=
CYYG;2007-01-16 04:00;METAR CYYG 160400Z 04007KT 3/4SM R03/P6000FT/U -SN VV008 M06/M07 A2982 RMK SN8 /S03/ SLP101=
CYYG;2007-01-16 05:00;METAR CYYG 160500Z 05005KT 1SM R03/P6000FT/N -SN OVC010 M06/M07 A2976 RMK SC8 /S04/ SLP082=
CYYG;2007-01-16 06:00;METAR CYYG 160600Z 05005KT 1 1/2SM -SN OVC010 M05/M06 A2970 RMK SC8 PRESFR SLP060=
CYYG;2007-01-16 06:34;SPECI CYYG 160634Z 05006KT 2 1/2SM -SN OVC010 M05/ RMK SC8=
CYYG;2007-01-16 07:00;METAR CYYG 160700Z 05007KT 2 1/2SM -SN OVC010 M05/M06 A2968 RMK SC8 SLP052=
CYYG;2007-01-16 08:00;METAR CYYG 160800Z 03004KT 1 1/2SM -SN OVC012 M04/M05 A2965 RMK SC8 /S01/ SLP044=
CYYG;2007-01-16 09:00;METAR CYYG 160900Z 05007KT 2SM -SN OVC012 M04/M05 A2958 RMK SC8 PRESFR SLP018=
CYYG;2007-01-16 10:00;METAR CYYG 161000Z 04004KT 1 1/2SM -SN OVC012 M04/M05 A2956 RMK SC8 /S02/ SLP013=
CYYG;2007-01-16 10:04;SPECI CYYG 161004Z 04005KT 3/4SM R03/P6000FT/D -SN VV008 M04/ RMK SN8=
CYYG;2007-01-16 10:18;SPECI CYYG 161018Z 02005KT 5/8SM R03/6000FT/D -SN VV006 M04/ RMK SN8=
CYYG;2007-01-16 10:43;SPECI CYYG 161043Z 03005KT 1SM R03/P6000FT/D -SN VV010 M04/ RMK SN8=
CYYG;2007-01-16 11:00;METAR CYYG 161100Z 03006KT 1SM R03/P6000FT/N -SN VV010 M04/M05 A2952 RMK SN8 /S03/ SLP999=
CYYG;2007-01-16 11:27;SPECI CYYG 161127Z 36004KT 3SM -SN OVC015 M04/ RMK SC8=
CYYG;2007-01-16 12:00;METAR CYYG 161200Z 36004KT 1 1/2SM -SN VV007 M04/M04 A2953 RMK SN8 SLP004=
CYYG;2007-01-16 12:05;SPECI CYYG 161205Z 01005KT 3/4SM R03/5000FT/D -SN VV004 M04/ RMK SN8=
CYYG;2007-01-16 12:32;SPECI CYYG 161232Z 02004KT 2SM -SN OVC013 M03/ RMK SC8=
CYYG;2007-01-16 13:00;METAR CYYG 161300Z 36004KT 1 1/2SM -SN OVC024 M03/M04 A2950 RMK SN2SC6 SLP992=
CYYG;2007-01-16 14:00;METAR CYYG 161400Z 33002KT 2 1/2SM -SN OVC017 M03/M03 A2949 RMK SN2SC6 SLP989=
CYYG;2007-01-16 15:00;METAR CYYG 161500Z 34005KT 2SM -SN OVC019 M02/M02 A2948 RMK SN2SC6 SLP986=
CYYG;2007-01-16 15:29;SPECI CYYG 161529Z 33007KT 2SM -SN BKN006 OVC015 M02/ RMK SF6SC2=
CYYG;2007-01-16 15:52;SPECI CYYG 161552Z 33006KT 3/4SM R03/4000VP6000FT/D -SN OVC006 M02/ RMK SN4SF4=
CYYG;2007-01-16 16:00;METAR CYYG 161600Z 33010KT 3/4SM R03/2200VP6000FT/D -SN OVC004 M02/M03 A2948 RMK SN4SF4 /S01/ SLP987=
CYYG;2007-01-16 17:00;METAR CYYG 161700Z 34011G17KT 1 1/2SM R03/3000VP6000FT/U -SN DRSN VV007 M03/M04 A2950 RMK SN8 /S02/ SLP992=
CYYG;2007-01-16 17:38;SPECI CYYG 161738Z 32014G25KT 5SM -SN DRSN OVC011 M03/ RMK SC8=
CYYG;2007-01-16 18:00;METAR CYYG 161800Z 32017G22KT 10SM -SN DRSN OVC011 M03/M05 A2952 RMK SC8 SLP000=
CYYG;2007-01-16 18:38;SPECI CYYG 161838Z 32013KT 1/4SM R03/1800VP6000FT/D +SN DRSN VV003 M04/ RMK SN8=
CYYG;2007-01-16 18:49;SPECI CYYG 161849Z 32010G16KT 3/4SM R03/1800VP6000FT/U -SN DRSN VV009 M04/ RESN RMK SN8=
CYYG;2007-01-16 19:00;METAR CYYG 161900Z 35011G17KT 1SM R03/P6000FT/U -SN DRSN VV007 M04/M05 A2956 RESN RMK SN8 SLP012=
CYYG;2007-01-16 20:00;METAR CYYG 162000Z 36015G22KT 1 1/2SM -SN DRSN VV010 M04/M07 A2959 RMK SN8 /S01/ SLP024=
CYYG;2007-01-16 20:52;SPECI CYYG 162052Z 35011G18KT 10SM -SN DRSN OVC018 M05/ RMK SC8=
CYYG;2007-01-16 21:00;METAR CYYG 162100Z 35009G16KT 10SM -SN DRSN OVC018 M05/M08 A2965 RMK SC8 SLP042=
CYYG;2007-01-16 22:00;METAR CYYG 162200Z 35010G15KT 5SM -SN DRSN OVC018 M06/M09 A2967 RMK SC8 SLP051=
CYYG;2007-01-16 22:41;SPECI CYYG 162241Z 34009KT 1SM R03/P6000FT/D -SN VV010 M06/ RMK SN8=
CYYG;2007-01-16 23:00;METAR CYYG 162300Z 32007KT 1/2SM R03/P6000FT/D SHSN DRSN VV005 M06/M08 A2971 RMK SN8 /S02/ SLP064=
CYYG;2007-01-16 23:16;SPECI CYYG 162316Z 32008KT 2SM R03/4500VP6000FT/U -SHSN DRSN OVC015 M07/ RESN RMK SC8 CU ASOCTD VIS VRB 1/2 6=
CYYG;2007-01-17 00:00;METAR CYYG 170000Z 32012G22KT 2SM R03/1800V5000FT/U -SHSN DRSN OVC015 M08/M10 A2974 RESN RMK SC8 CU ASOCTD VIS VRB 1/4-4 /S03/ SLP073=
CYYG;2007-01-17 01:00;METAR CYYG 170100Z 31016G22KT 1SM R03/P6000FT/D -SHSN DRSN OVC010 M10/M12 A2976 RMK SC8 VIS VRB 1/2-2 SLP079=
CYYG;2007-01-17 02:00;METAR CYYG 170200Z 31017G22KT 1 1/2SM -SHSN DRSN OVC010 M11/M13 A2977 RMK SC8 VIS VRB 1/2-3 SLP085=
CYYG;2007-01-17 03:00;METAR CYYG 170300Z 30014G21KT 1 1/2SM -SHSN DRSN OVC010 M12/M15 A2980 RMK SC8 /S01/ SLP095=
CYYG;2007-01-17 03:29;SPECI CYYG 170329Z 29014G24KT 3SM -SHSN DRSN OVC022 M13/ RMK SC8=
CYYG;2007-01-17 04:00;METAR CYYG 170400Z 30015G22KT 2SM -SHSN OVC022 M14/M16 A2981 RMK SC8 SLP098=
CYYG;2007-01-17 05:00;METAR CYYG 170500Z 29019KT 2 1/2SM -SHSN DRSN OVC028 M15/M17 A2983 RMK SC8 SLP105=
CYYG;2007-01-17 06:00;METAR CYYG 170600Z 28013G21KT 5SM -SHSN DRSN BKN028 M16/M19 A2986 RMK SC7 SLP114=
CYYG;2007-01-17 07:00;METAR CYYG 170700Z 29017G25KT 2SM -SHSN DRSN OVC020 M17/M19 A2988 RMK SC8 SLP123=
CYYG;2007-01-17 08:00;METAR CYYG 170800Z 29018G26KT 2SM -SHSN DRSN OVC020 M17/M20 A2990 RMK SC8 SLP129=
CYYG;2007-01-17 09:00;METAR CYYG 170900Z 29016G28KT 2SM -SHSN DRSN OVC020 M18/M21 A2993 RMK SC8 SLP139=
CYYG;2007-01-17 09:14;SPECI CYYG 170914Z 29018G25KT 1SM R03/5000FT/D -SHSN BLSN OVC020 M18/ RMK SC8=
CYYG;2007-01-17 10:00;METAR CYYG 171000Z 28020G27KT 1SM R03/4000VP6000FT/N -SHSN BLSN OVC020 M19/M21 A2996 RMK SC8 SLP148=
CYYG;2007-01-17 10:18;SPECI CYYG 171018Z 29020G26KT 3/4SM R03/3500V5000FT/D -SHSN BLSN OVC020 M19/ RMK SC8=
CYYG;2007-01-17 10:36;SPECI CYYG 171036Z 29017G25KT 1/2SM R03/3500FT/N -SHSN BLSN OVC014 M19/ RMK BLSN2SC6=
CYYG;2007-01-17 11:00;METAR CYYG 171100Z 29020G26KT 1/2SM R03/2000V4500FT/N -SHSN BLSN OVC014 M19/M21 A2999 RMK BLSN2SC6 /S01/ SLP159=
CYYG;2007-01-17 12:00;METAR CYYG 171200Z 28018G26KT 3/4SM R03/2800VP6000FT/D -SHSN BLSN OVC014 M19/M22 A3002 RMK BLSN3SC5 SLP170=
CYYG;2007-01-17 13:00;METAR CYYG 171300Z 28017G24KT 3/4SM R03/3000FT/U -SHSN BLSN OVC019 M19/M22 A3005 RMK BLSN2SC5 SLP181=
CYYG;2007-01-17 13:49;SPECI CYYG 171349Z 28020G25KT 1 1/2SM R03/2600V4500FT/N BLSN OVC017 M19/ RMK BLSN3SC5 OCNL -SHSN=
CYYG;2007-01-17 14:00;METAR CYYG 171400Z 28022G28KT 1SM R03/3000V5000FT/N -SHSN BLSN OVC017 M19/M22 A3009 RMK BLSN3SC4 SLP192=
CYYG;2007-01-17 15:00;METAR CYYG 171500Z 28018G27KT 3/4SM R03/3500FT/N -SHSN BLSN OVC017 M19/M22 A3011 RMK BLSN5SC3 SLP200=
CYYG;2007-01-17 15:14;SPECI CYYG 171514Z 29022G30KT 1/2SM R03/1600V3500FT/D -SHSN BLSN OVC016 M19/ RMK BLSN7SC1=
CYYG;2007-01-17 16:00;METAR CYYG 171600Z 29015G28KT 1/2SM R03/2000V3500FT/N -SHSN BLSN OVC017 M19/M22 A3012 RMK BLSN6SC2 SLP203=
CYYG;2007-01-17 16:23;SPECI CYYG 171623Z 29018G25KT 5/8SM R03/2200V5500FT/U -SHSN BLSN OVC017 M19/ RMK BLSN6SC2 VIS VRBL 1/2-3/4=
CYYG;2007-01-17 17:00;METAR CYYG 171700Z 28020G26KT 5/8SM R03/3000VP6000FT/D -SHSN BLSN OVC019 M19/M23 A3013 RMK BLSN5SC3 SLP208=
CYYG;2007-01-17 18:00;METAR CYYG 171800Z 29019G25KT 1SM R03/2400V3500FT/N -SHSN BLSN OVC015 M19/M23 A3016 RMK BLSN4SC4 /S01/ SLP218=
CYYG;2007-01-17 19:00;METAR CYYG 171900Z 29022G27KT 2SM R03/3500VP6000FT/U -SHSN BLSN SCT018 M19/M23 A3018 RMK BLSN2SC2 SLP226=
CYYG;2007-01-17 19:46;SPECI CYYG 171946Z 29019G25KT 3SM R03/3000VP6000FT/N -SHSN BLSN BKN018 M19/ RMK BLSN3SC2=
CYYG;2007-01-17 20:00;METAR CYYG 172000Z 29018G28KT 5SM R03/2800VP6000FT/N -SHSN BLSN BKN018 M19/M23 A3023 RMK BLSN3SC2 VIS N-E 3 SLP240=
CYYG;2007-01-17 21:00;METAR CYYG 172100Z 29018G24KT 1 1/2SM -SHSN BLSN BKN031 M19/M24 A3027 RMK BLSN3SC2 VIS SW 5 SLP254=
CYYG;2007-01-17 21:12;SPECI CYYG 172112Z 29020G27KT 1SM R03/P6000FT/U -SHSN BLSN BKN013 M19/ RMK BLSN4SC2 VIS SW 5=
CYYG;2007-01-17 22:00;METAR CYYG 172200Z 29021G26KT 1 1/2SM -SHSN BLSN VV009 M19/M23 A3031 RMK BLSN8 SLP267=
CYYG;2007-01-17 23:00;METAR CYYG 172300Z 28016G24KT 1 1/2SM R03/4500VP6000FT/U -SHSN BLSN VV010 M19/M23 A3036 RMK BLSN8 SLP285=
CYYG;2007-01-18 00:00;METAR CYYG 180000Z CCA 29021G27KT 1 1/2SM R03/4000VP6000FT/U -SHSN BLSN OVC015 M19/M22 A3038 RMK SC8 /S01/ SLP293=
CYYG;2007-01-18 01:00;METAR CYYG 180100Z 29018G24KT 3SM -SHSN BLSN OVC020 M19/M23 A3041 RMK SC8 SLP305=
CYYG;2007-01-18 01:46;SPECI CYYG 180146Z 29019G26KT 8SM -SHSN DRSN BKN020 M19/ REBLSN RMK SC7=
CYYG;2007-01-18 02:00;METAR CYYG 180200Z 29018G26KT 8SM -SHSN DRSN BKN020 M19/M24 A3043 REBLSN RMK SC7 SLP309=
CYYG;2007-01-18 03:00;METAR CYYG 180300Z 27013G18KT 12SM -SHSN DRSN BKN033 M19/M24 A3047 RMK SC7 SLP324=
CYYG;2007-01-18 04:00;METAR CYYG 180400Z 27016G21KT 12SM -SHSN DRSN BKN027 M18/M23 A3051 RMK SC7 SLP336=
CYYG;2007-01-18 05:00;METAR CYYG 180500Z 28010G18KT 6SM -SHSN DRSN OVC023 M18/M22 A3050 RMK SC8 SLP335=
CYYG;2007-01-18 06:00;METAR CYYG 180600Z 27012KT 8SM -SHSN DRSN OVC023 M18/M22 A3052 RMK SC8 SLP341=
CYYG;2007-01-18 07:00;METAR CYYG 180700Z 27011G17KT 15SM DRSN SCT022 M18/M22 A3056 RMK SC3 SLP354=
CYYG;2007-01-18 08:00;METAR CYYG 180800Z 27011KT 15SM DRSN FEW018 M18/M22 A3056 RMK SC2 SLP355=
CYYG;2007-01-18 09:00;METAR CYYG 180900Z 26007KT 15SM BKN018 M18/M22 A3057 RMK SC7 SLP357=
CYYG;2007-01-18 09:43;SPECI CYYG 180943Z 26011KT 15SM OVC014 M19/ RMK SC8=
CYYG;2007-01-18 10:00;METAR CYYG 181000Z 25010G16KT 15SM OVC013 M19/M23 A3059 RMK SC8 SLP364=
CYYG;2007-01-18 11:00;METAR CYYG 181100Z 25008KT 15SM SCT013 M19/M23 A3061 RMK SC4 SLP372=
CYYG;2007-01-18 12:00;METAR CYYG 181200Z 24005KT 15SM FEW015 FEW250 M20/M24 A3061 RMK SC1CI1 SLP371=
CYYG;2007-01-18 13:00;METAR CYYG 181300Z 26005KT 15SM FEW015 SCT250 M20/M24 A3060 RMK SC1CI2 SLP367=
CYYG;2007-01-18 14:00;METAR CYYG 181400Z 23005KT 15SM FEW015 BKN250 M19/M23 A3059 RMK SC1CI2 SLP365=
CYYG;2007-01-18 15:00;METAR CYYG 181500Z 23007KT 15SM FEW015 FEW080 SCT250 M16/M21 A3058 RMK SC1AC1CI1 SLP362=
CYYG;2007-01-18 16:00;METAR CYYG 181600Z 23010KT 15SM FEW080 BKN250 M14/M21 A3055 RMK AC2CI2 SLP351=
CYYG;2007-01-18 17:00;METAR CYYG 181700Z 22009KT 15SM SCT044 BKN054 BKN080 M13/M20 A3052 RMK SC3SC2AC1 SLP341=
CYYG;2007-01-18 18:00;METAR CYYG 181800Z 23009KT 15SM BKN052 M12/M17 A3050 RMK SC7 SLP331=
CYYG;2007-01-18 19:00;METAR CYYG 181900Z 21008KT 15SM BKN050 M11/M15 A3047 RMK SC4 SLP322=
CYYG;2007-01-18 20:00;METAR CYYG 182000Z 21013KT 15SM FEW050 SCT110 BKN250 M08/M14 A3044 RMK SC2AC2CI1 SLP313=
CYYG;2007-01-18 21:00;METAR CYYG 182100Z 21013G19KT 15SM FEW040 SCT110 BKN250 M08/M12 A3043 RMK SC1AC2CI1 SLP308=
CYYG;2007-01-18 22:00;METAR CYYG 182200Z 20013KT 15SM FEW020 FEW110 BKN180 M08/M11 A3041 RMK SC1AC2AC2 SLP301=
CYYG;2007-01-18 23:00;METAR CYYG 182300Z 19013KT 15SM BKN025 BKN120 OVC200 M08/M11 A3039 RMK SC6AC1CI1 SLP295=
CYYG;2007-01-19 00:00;METAR CYYG 190000Z 20011G19KT 15SM BKN028 OVC200 M07/M10 A3037 RMK SC6CI2 SLP289=
CYYG;2007-01-19 01:00;METAR CYYG 190100Z 19013KT 15SM OVC022 M06/M09 A3032 RMK SC8 SLP271=
CYYG;2007-01-19 03:00;METAR CYYG 190300Z 20010KT 15SM OVC021 M05/M07 A3028 RMK SC8 SLP258=
CYYG;2007-01-19 04:00;METAR CYYG 190400Z 20011KT 15SM OVC022 M04/M06 A3026 RMK SC8 SLP250=
CYYG;2007-01-19 05:00;METAR CYYG 190500Z 20012G17KT 15SM BKN022 OVC037 M03/M06 A3023 RMK SC6SC2 SLP241=
CYYG;2007-01-19 06:00;METAR CYYG 190600Z 19011KT 15SM BKN023 OVC034 M03/M05 A3022 RMK SC6SC2 SLP236=
CYYG;2007-01-19 07:00;METAR CYYG 190700Z 18010KT 15SM OVC025 M03/M05 A3021 RMK SC8 SLP233=
CYYG;2007-01-19 08:00;METAR CYYG 190800Z 19013KT 15SM BKN025 M03/M05 A3018 RMK SC6 SLP223=
CYYG;2007-01-19 09:00;METAR CYYG 190900Z 18012KT 15SM SCT025 OVC041 M02/M05 A3014 RMK SC3SC5 SLP211=
CYYG;2007-01-19 10:00;METAR CYYG 191000Z 18012KT 15SM BKN041 OVC100 M02/M05 A3011 RMK SC6AC2 SLP200=
CYYG;2007-01-19 11:00;METAR CYYG 191100Z 18014KT 15SM OVC054 M02/M04 A3009 RMK SC8 SLP193=
CYYG;2007-01-19 12:00;METAR CYYG 191200Z 17013KT 15SM BKN053 OVC072 M02/M04 A3007 RMK SC6AC2 SLP185=
CYYG;2007-01-19 13:00;METAR CYYG 191300Z 16012KT 15SM FEW025 OVC056 M01/M04 A3003 RMK SC1SC7 SLP172=
CYYG;2007-01-19 13:46;SPECI CYYG 191346Z 15013KT 10SM -SHSN BKN018 OVC034 M01/ RMK SC6SC2=
CYYG;2007-01-19 13:53;SPECI CYYG 191353Z 15013KT 2SM -SHSN BKN012 OVC025 M01/ RMK SF5SC3=
CYYG;2007-01-19 14:00;METAR CYYG 191400Z 14013KT 1 1/2SM -SHSN BKN010 OVC024 M01/M03 A2996 RMK SF6SC2 /PRESFR/ SLP150=
CYYG;2007-01-19 14:12;SPECI CYYG 191412Z 14011G17KT 4SM -SHSN BKN012 BKN024 OVC044 M01/ RMK SF5SC2SC2=
CYYG;2007-01-19 15:00;METAR CYYG 191500Z 14014G22KT 15SM -SHSN SCT014 OVC050 00/M02 A2989 RMK SC3SC5 SLP124=
CYYG;2007-01-19 15:48;SPECI CYYG 191548Z 13018G26KT 1 1/2SM -SHSN BKN010 OVC022 00/ RMK SF5SC3=
CYYG;2007-01-19 16:00;METAR CYYG 191600Z 14018G26KT 1 1/2SM -SHSN OVC010 M00/M01 A2979 RMK SF8 /PRESFR/ SLP090=
CYYG;2007-01-19 17:00;METAR CYYG 191700Z 14015G24KT 1 1/2SM -SHSN OVC010 00/M01 A2974 RMK SF8 SLP074=
CYYG;2007-01-19 17:41;SPECI CYYG 191741Z 14016G21KT 1 1/2SM -SHSN OVC007 01/ RMK SF8=
CYYG;2007-01-19 17:52;SPECI CYYG 191752Z 13015G21KT 4SM -SHRA OVC008 01/ RMK SF8=
CYYG;2007-01-19 18:00;METAR CYYG 191800Z 14016G22KT 8SM -SHRA OVC008 01/00 A2964 RMK SF8 SLP039=
CYYG;2007-01-19 19:00;METAR CYYG 191900Z 13017G24KT 8SM -SHRA OVC008 02/01 A2953 RMK SF8 /PRESFR/ SLP003=
CYYG;2007-01-19 20:00;METAR CYYG 192000Z 13017G26KT 8SM -SHRA OVC007 02/02 A2946 RMK SF8 /PRESFR/ SLP979=
CYYG;2007-01-19 21:00;METAR CYYG 192100Z 13019G24KT 8SM -SHRA SCT007 BKN034 OVC051 03/03 A2935 RMK SF3SC3SC2 SLP942=
CYYG;2007-01-19 21:28;SPECI CYYG 192128Z 13016G22KT 4SM -SHRA BR BKN008 OVC022 04/ RMK SF6SC2=
CYYG;2007-01-19 22:00;METAR CYYG 192200Z 13018G26KT 4SM -SHRA BR OVC008 04/04 A2923 RMK SF8 /PRESFR/ SLP902=
CYYG;2007-01-19 23:00;METAR CYYG 192300Z 14014G25KT 5SM RA BR BKN009 OVC030 05/04 A2913 RMK SF7SC1 PRESFR SLP868=
CYYG;2007-01-20 00:00;METAR CYYG 200000Z 13020G27KT 5SM RA BR OVC009 05/05 A2903 RMK SF8 SLP832=
CYYG;2007-01-20 01:00;METAR CYYG 200100Z 14018G24KT 6SM RA BR BKN008 OVC024 06/05 A2894 RMK SF6SC2 PRESFR SLP803=
CYYG;2007-01-20 02:00;METAR CYYG 200200Z 14013G18KT 6SM RA BR OVC011 06/05 A2880 RMK SC8 PRESFR INTMT -RA SLP755=
CYYG;2007-01-20 03:00;METAR CYYG 200300Z 17016KT 6SM RA BKN005 OVC010 06/06 A2868 RMK SF5SC3 PRESFR INTMT -RA SLP712=
CYYG;2007-01-20 03:13;SPECI CYYG 200313Z 20011G16KT 6SM -RA BR BKN002 OVC005 04/ RMK SF6SF2=
CYYG;2007-01-20 04:00;METAR CYYG 200400Z 22017G28KT 10SM -RASN FEW002 BKN006 OVC010 02/01 A2872 RMK SF2SF5SC2 RERA SLP726=
CYYG;2007-01-20 04:20;SPECI CYYG 200420Z 23017G26KT 4SM -SN BLSN OVC006 00/ RMK SF8=
CYYG;2007-01-20 05:00;METAR CYYG 200500Z 22021G31KT 3SM -SN BLSN OVC007 M01/M02 A2878 RMK SF8 PRESRR SLP746=
CYYG;2007-01-20 06:00;METAR CYYG 200600Z 23018G28KT 15SM -SHSN DRSN SCT007 OVC014 M02/M04 A2883 RMK SF3SC5 SLP764=
CYYG;2007-01-20 07:00;METAR CYYG 200700Z 24022G31KT 6SM -SHSN DRSN OVC012 M03/M05 A2886 RMK SC8 SLP776=
CYYG;2007-01-20 08:00;METAR CYYG 200800Z 23024G34KT 3SM R03/4000FT/N -SHSN DRSN BKN004 OVC011 M04/M05 A2889 RMK SF5SC3 SLP785=
CYYG;2007-01-20 09:00;METAR CYYG 200900Z 24021G29KT 1SM R03/3500VP6000FT/U -SHSN DRSN BKN004 OVC011 M04/M05 A2893 RMK SF6SC2 SLP797=
CYYG;2007-01-20 10:00;METAR CYYG 201000Z 25020G30KT 1SM -SHSN DRSN BKN006 OVC013 M05/M06 A2897 RMK SF6SC2 SLP812=
CYYG;2007-01-20 10:44;SPECI CYYG 201044Z 25020G30KT 6SM R03/4500VP6000FT/U -SHSN DRSN BKN007 OVC022 M05/ RMK SF6SC2=
CYYG;2007-01-20 11:00;METAR CYYG 201100Z 25023G32KT 10SM -SHSN DRSN OVC006 M05/M07 A2901 RMK SF8 SLP825=
CYYG;2007-01-20 11:36;SPECI CYYG 201136Z 24019G30KT 6SM R03/4500VP6000FT/U -SHSN DRSN OVC011 M05/ RMK SC8=
CYYG;2007-01-20 12:00;METAR CYYG 201200Z 23019G29KT 6SM R03/2800VP6000FT/U -SHSN BLSN BKN011 OVC026 M04/M08 A2904 RMK SC5SC2 SLP835=
CYYG;2007-01-20 12:37;SPECI CYYG 201237Z 23018G24KT 15SM -SHSN DRSN SCT011 OVC026 M04/ RMK SC3SC5=
CYYG;2007-01-20 13:00;METAR CYYG 201300Z 24019G31KT 15SM -SHSN DRSN FEW011 OVC026 M04/M08 A2906 RMK SC2SC6 SLP843=
CYYG;2007-01-20 14:00;METAR CYYG 201400Z 24018G32KT 5SM R03/2800VP6000FT/U -SHSN DRSN SCT011 OVC026 M04/M08 A2909 RMK SC3SC5 SLP851=
CYYG;2007-01-20 15:00;METAR CYYG 201500Z 24018G30KT 8SM -SHSN DRSN SCT011 OVC023 M05/M09 A2910 RMK SC3SC5 SLP857=
CYYG;2007-01-20 16:00;METAR CYYG 201600Z 24018KT 5SM -SHSN DRSN SCT010 BKN023 M05/M08 A2911 RMK SC3SC4 SLP858=
CYYG;2007-01-20 17:00;METAR CYYG 201700Z 24015G24KT 8SM -SHSN DRSN SCT010 BKN023 M05/M09 A2912 RMK SC3SC4 SLP862=
CYYG;2007-01-20 18:00;METAR CYYG 201800Z 24015G22KT 8SM -SHSN DRSN SCT010 BKN021 M05/M09 A2913 RMK SC4SC3 SLP867=
CYYG;2007-01-20 19:00;METAR CYYG 201900Z 24012G27KT 12SM -SHSN DRSN FEW010 BKN023 M05/M10 A2915 RMK SC1SC4 SLP874=
CYYG;2007-01-20 20:00;METAR CYYG 202000Z 24014G21KT 12SM -SHSN DRSN FEW010 SCT025 M05/M10 A2918 RMK SC1SC3 SLP885=
CYYG;2007-01-20 21:00;METAR CYYG 202100Z 25017G22KT 12SM -SHSN DRSN FEW010 BKN025 M06/M11 A2922 RMK SC1SC4 SLP896=
CYYG;2007-01-20 22:00;METAR CYYG 202200Z 25013G20KT 15SM -SHSN DRSN FEW010 BKN025 M06/M10 A2924 RMK SC1SC4 SLP904=
CYYG;2007-01-20 23:00;METAR CYYG 202300Z 27015G20KT 15SM -SHSN DRSN FEW010 BKN025 M08/M11 A2928 RMK SC2SC4 SLP918=
CYYG;2007-01-21 00:00;METAR CYYG 210000Z 27012KT 10SM -SHSN DRSN FEW010 BKN025 M08/M12 A2933 RMK SC2SC5 SLP935=
CYYG;2007-01-21 01:00;METAR CYYG 210100Z 27009G16KT 15SM -SHSN SCT025 M10/M14 A2936 RMK SC4 SLP945=
CYYG;2007-01-21 01:21;SPECI CYYG 210121Z 27008KT 8SM -SHSN BKN013 M09/ RMK SC6=
CYYG;2007-01-21 01:41;SPECI CYYG 210141Z 28012KT 15SM -SHSN BKN021 M10/ RMK SC6=
CYYG;2007-01-21 02:00;METAR CYYG 210200Z 28012KT 15SM -SHSN BKN024 M10/M14 A2938 RMK SC5 SLP952=
CYYG;2007-01-21 03:00;METAR CYYG 210300Z 27011KT 10SM -SHSN BKN015 M10/M13 A2941 RMK SC6 SLP962=
CYYG;2007-01-21 04:00;METAR CYYG 210400Z 28016KT 12SM -SHSN BKN024 M11/M14 A2943 RMK SC6 SLP968=
CYYG;2007-01-21 05:00;METAR CYYG 210500Z 28011G16KT 15SM -SHSN BKN028 M11/M15 A2945 RMK SC5 SLP977=
CYYG;2007-01-21 06:00;METAR CYYG 210600Z 28012KT 15SM -SHSN SCT028 M12/M15 A2948 RMK SC4 SLP985=
CYYG;2007-01-21 07:00;METAR CYYG 210700Z 27010G17KT 10SM -SHSN BKN021 M12/M14 A2950 RMK SC7 SLP994=
CYYG;2007-01-21 08:00;METAR CYYG 210800Z 28017KT 15SM -SHSN BKN019 M12/M16 A2953 RMK SC6 SLP003=
CYYG;2007-01-21 08:53;SPECI CYYG 210853Z 29017KT 15SM SCT020 M13/ RMK SC4=
CYYG;2007-01-21 09:00;METAR CYYG 210900Z 29016G21KT 15SM SCT020 M13/M17 A2956 RMK SC3 SLP012=
CYYG;2007-01-21 10:00;METAR CYYG 211000Z 29013G18KT 15SM SCT020 M13/M17 A2958 RMK SC3 SLP019=
CYYG;2007-01-21 10:47;SPECI CYYG 211047Z 29014G20KT 10SM -SHSN BKN015 M13/ RMK SC6=
CYYG;2007-01-21 11:00;METAR CYYG 211100Z 29016G21KT 15SM -SHSN DRSN BKN015 M13/M17 A2961 RMK SC6 SLP031=
CYYG;2007-01-21 12:00;METAR CYYG 211200Z 29016G24KT 15SM -SHSN DRSN FEW020 M13/M17 A2963 RMK SC2 VIS N-E 5 SLP038=
CYYG;2007-01-21 13:00;METAR CYYG 211300Z 29015G21KT 15SM DRSN FEW020 M13/M17 A2966 RMK SC1 SLP049=
CYYG;2007-01-21 14:00;METAR CYYG 211400Z 29015G25KT 15SM DRSN FEW020 M13/M17 A2969 RMK SC1 SLP058=
CYYG;2007-01-21 14:46;SPECI CYYG 211446Z 29018G25KT 15SM -SHSN DRSN FEW020 M13/ RMK SC1=
CYYG;2007-01-21 15:00;METAR CYYG 211500Z 29019G25KT 15SM -SHSN DRSN FEW020 M13/M17 A2970 RMK SC1 SLP060=
CYYG;2007-01-21 16:00;METAR CYYG 211600Z 29019G27KT 15SM -SHSN DRSN FEW020 M12/M18 A2971 RMK SC2 SLP066=
CYYG;2007-01-21 17:00;METAR CYYG 211700Z 30014G25KT 15SM -SHSN DRSN FEW030 M12/M17 A2972 RMK SC2 VIS LWR E SLP067=
CYYG;2007-01-21 18:00;METAR CYYG 211800Z 30018G27KT 12SM -SHSN DRSN FEW030 M12/M18 A2971 RMK SC2 SLP066=
CYYG;2007-01-21 19:00;METAR CYYG 211900Z 31021G30KT 15SM -SHSN DRSN FEW030 M12/M18 A2972 RMK SC2 SLP069=
CYYG;2007-01-21 20:00;METAR CYYG 212000Z 28018G25KT 15SM -SHSN DRSN FEW030 M12/M17 A2974 RMK SC2 SLP076=
CYYG;2007-01-21 21:00;METAR CYYG 212100Z 29017G27KT 10SM -SHSN DRSN BKN030 M12/M17 A2977 RMK SC5 VIS NW-E 2 SLP085=
CYYG;2007-01-21 22:00;METAR CYYG 212200Z 29018G26KT 5SM -SHSN DRSN BKN025 M12/M17 A2978 RMK SC6 SLP087=
CYYG;2007-01-21 23:00;METAR CYYG 212300Z 30022G29KT 5SM -SHSN DRSN BKN025 M12/M16 A2979 RMK SC6 SLP091=
CYYG;2007-01-22 00:00;METAR CYYG 220000Z 30018G29KT 10SM -SHSN DRSN BKN017 M12/M16 A2978 RMK SC7 SLP087=
CYYG;2007-01-22 01:00;METAR CYYG 220100Z 29012G26KT 10SM -SHSN DRSN BKN018 M12/M16 A2978 RMK SC6 SLP087=
CYYG;2007-01-22 01:43;SPECI CYYG 220143Z 29015G22KT 3SM -SHSN DRSN OVC014 M12/ RMK SC8=
CYYG;2007-01-22 02:00;METAR CYYG 220200Z 29015G21KT 2SM -SHSN DRSN OVC014 M12/M15 A2978 RMK SC8 SLP089=
CYYG;2007-01-22 03:00;METAR CYYG 220300Z 29017G25KT 1 1/2SM R03/3000VP6000FT/D -SHSN DRSN OVC014 M13/M15 A2980 RMK SC8 SLP094=
CYYG;2007-01-22 03:19;SPECI CYYG 220319Z 28015G24KT 3SM -SHSN DRSN OVC013 M13/M16 RMK SC8=
CYYG;2007-01-22 04:00;METAR CYYG 220400Z 29016G25KT 6SM -SHSN DRSN OVC017 M13/M16 A2982 RMK SC8 SLP102=
CYYG;2007-01-22 05:00;METAR CYYG 220500Z 28016G22KT 6SM -SHSN DRSN OVC015 M13/M17 A2981 RMK SC8 SLP097=
CYYG;2007-01-22 06:00;METAR CYYG 220600Z 29015G20KT 10SM -SHSN DRSN OVC019 M14/M18 A2982 RMK SC8 SLP101=
CYYG;2007-01-22 07:00;METAR CYYG 220700Z 29018G25KT 10SM -SHSN DRSN OVC024 M14/M18 A2983 RMK SC8 SLP105=
CYYG;2007-01-22 08:00;METAR CYYG 220800Z 28014G25KT 15SM -SHSN OVC023 M14/M19 A2983 RMK SC8 SLP105=
CYYG;2007-01-22 09:00;METAR CYYG 220900Z 27013G18KT 15SM -SHSN OVC022 M14/M19 A2984 RMK SC8 SLP109=
CYYG;2007-01-22 10:00;METAR CYYG 221000Z 27012G20KT 15SM -SHSN OVC020 M15/M19 A2985 RMK SC8 SLP113=
CYYG;2007-01-22 11:00;METAR CYYG 221100Z 29016G25KT 15SM -SHSN OVC019 M15/M20 A2985 RMK SC8 SLP113=
CYYG;2007-01-22 12:00;METAR CYYG 221200Z 29017G24KT 15SM -SHSN DRSN BKN018 M15/M20 A2985 RMK SC6 VIS LWR N-E SLP114=
CYYG;2007-01-22 13:00;METAR CYYG 221300Z 28015KT 15SM -SHSN DRSN BKN018 BKN250 M15/M20 A2985 RMK SC6CI0 VIS LWR N-E SLP114=
CYYG;2007-01-22 14:00;METAR CYYG 221400Z 28014G20KT 15SM DRSN VCSH FEW018 SCT250 M14/M19 A2986 RMK SC2CI0 VIS LWR NE-E SLP115=
CYYG;2007-01-22 15:00;METAR CYYG 221500Z 29015G20KT 15SM DRSN FEW020 FEW270 M13/M18 A2986 RMK SC1CI1 SLP115=
CYYG;2007-01-22 16:00;METAR CYYG 221600Z 27015KT 15SM DRSN FEW020 FEW280 M13/M18 A2986 RMK SC1CI1 SLP116=
CYYG;2007-01-22 17:00;METAR CYYG 221700Z 29011G16KT 15SM FEW018 FEW280 M12/M18 A2985 RMK SC1CI1 SLP112=
CYYG;2007-01-22 18:00;METAR CYYG 221800Z 28009G15KT 15SM FEW018 FEW280 M11/M19 A2983 RMK SC1CI1 SLP105=
CYYG;2007-01-22 19:00;METAR CYYG 221900Z 29006KT 15SM FEW018 FEW280 M11/M19 A2983 RMK SC1CI1 SLP104=
CYYG;2007-01-22 20:00;METAR CYYG 222000Z 29010KT 15SM FEW018 FEW280 M10/M19 A2982 RMK SC1CI1 SLP103=
CYYG;2007-01-22 21:00;METAR CYYG 222100Z 27006KT 15SM FEW018 FEW280 M11/M18 A2984 RMK SC1CI1 SLP109=
CYYG;2007-01-22 22:00;METAR CYYG 222200Z 29007KT 15SM FEW018 FEW280 M11/M19 A2983 RMK SC1CI0 SLP107=
CYYG;2007-01-22 23:00;METAR CYYG 222300Z 27005KT 15SM FEW018 FEW280 M12/M19 A2984 RMK SC1CI0 SLP108=
CYYG;2007-01-23 00:00;METAR CYYG 230000Z 27006KT 15SM SKC M12/M18 A2984 RMK SLP108=
CYYG;2007-01-23 01:00;METAR CYYG 230100Z 28008KT 15SM SKC M11/M18 A2982 RMK SLP101=
CYYG;2007-01-23 02:00;METAR CYYG 230200Z 24004KT 15SM SKC M12/M17 A2982 RMK SLP102=
CYYG;2007-01-23 03:00;METAR CYYG 230300Z 25007KT 15SM SKC M12/M16 A2981 RMK SLP098=
CYYG;2007-01-23 04:00;METAR CYYG 230400Z 28007KT 15SM SKC M12/M16 A2980 RMK SLP095=
CYYG;2007-01-23 05:00;METAR CYYG 230500Z 24009KT 15SM SKC M12/M16 A2980 RMK SLP095=
CYYG;2007-01-23 06:00;METAR CYYG 230600Z 28006KT 15SM SKC M12/M16 A2980 RMK SLP096=
CYYG;2007-01-23 07:00;METAR CYYG 230700Z 26002KT 15SM SCT100 M12/M16 A2983 RMK AC4 SLP104=
CYYG;2007-01-23 08:00;METAR CYYG 230800Z 25005KT 15SM BKN100 M11/M15 A2984 RMK AC6 SLP107=
CYYG;2007-01-23 09:00;METAR CYYG 230900Z 27004KT 15SM BKN100 M11/M14 A2983 RMK AC6 SLP106=
CYYG;2007-01-23 10:00;METAR CYYG 231000Z 28003KT 15SM FEW100 M11/M15 A2983 RMK AC2 SLP105=
CYYG;2007-01-23 11:00;METAR CYYG 231100Z 30004KT 15SM FEW100 SCT250 M12/M15 A2983 RMK AC2CI1 SLP106=
CYYG;2007-01-23 12:00;METAR CYYG 231200Z 32004KT 15SM BKN100 M12/M15 A2984 RMK AC6 SLP108=
CYYG;2007-01-23 13:00;METAR CYYG 231300Z 00000KT 15SM BKN100 M12/M14 A2986 RMK AC6 SLP114=
CYYG;2007-01-23 15:00;METAR CYYG 231500Z 02002KT 15SM FEW100 SCT250 M07/M10 A2987 RMK AC2CI2 SLP118=
CYYG;2007-01-23 17:00;METAR CYYG 231700Z 07003KT 15SM FEW030 BKN250 M05/M11 A2984 RMK SC1CI4 SLP109=
CYYG;2007-01-23 18:00;METAR CYYG 231800Z 07003KT 15SM FEW030 SCT250 M05/M11 A2984 RMK SC1CI3 SLP108=
CYYG;2007-01-23 19:00;METAR CYYG 231900Z 02006KT 15SM FEW030 SCT250 M05/M10 A2985 RMK SC2CI2 SLP110=
CYYG;2007-01-23 20:00;METAR CYYG 232000Z 05006KT 15SM FEW030 FEW250 M05/M10 A2985 RMK SC1CI1 SLP110=
CYYG;2007-01-23 22:00;METAR CYYG 232200Z 04004KT 15SM FEW030 FEW250 M08/M11 A2986 RMK SC1CI1 SLP115=
CYYG;2007-01-23 23:00;METAR CYYG 232300Z 06004KT 15SM FEW030 FEW250 M08/M11 A2987 RMK SC1CI2 SLP119=
CYYG;2007-01-24 01:00;METAR CYYG 240100Z 06002KT 15SM SKC M11/M13 A2990 RMK SLP127=
CYYG;2007-01-24 02:00;METAR CYYG 240200Z 02003KT 15SM SKC M13/M15 A2990 RMK SLP130=
CYYG;2007-01-24 03:00;METAR CYYG 240300Z 36004KT 15SM SKC M13/M15 A2990 RMK SLP130=
CYYG;2007-01-24 04:00;METAR CYYG 240400Z 35004KT 15SM SKC M13/M14 A2990 RMK SLP128=
CYYG;2007-01-24 05:00;METAR CYYG 240500Z 34004KT 15SM SKC M11/M13 A2989 RMK SLP125=
CYYG;2007-01-24 06:00;METAR CYYG 240600Z 34002KT 15SM SKC M13/M15 A2989 RMK SLP125=
CYYG;2007-01-24 07:00;METAR CYYG 240700Z 36002KT 15SM OVC025 M11/M12 A2989 RMK SC8 SLP126=
CYYG;2007-01-24 08:00;METAR CYYG NIL=
CYYG;2007-01-24 09:00;METAR CYYG 240900Z 33002KT 15SM OVC025 M08/M10 A2989 RMK SC8 SLP124=
CYYG;2007-01-24 10:00;METAR CYYG 241000Z 34003KT 15SM OVC025 M07/M09 A2988 RMK SC8 SLP122=
CYYG;2007-01-24 11:00;METAR CYYG 241100Z 34003KT 15SM BKN030 M06/M09 A2988 RMK SC7 SLP121=
CYYG;2007-01-24 12:00;METAR CYYG 241200Z 01004KT 15SM BKN025 M07/M10 A2988 RMK SC5 SLP122=
CYYG;2007-01-24 13:00;METAR CYYG 241300Z 01005KT 15SM BKN025 M06/M10 A2987 RMK SC5 SLP119=
CYYG;2007-01-24 14:00;METAR CYYG 241400Z 02010KT 15SM BKN026 M04/M09 A2987 RMK SC6 SLP119=
CYYG;2007-01-24 15:00;METAR CYYG 241500Z 02010KT 15SM BKN027 M04/M09 A2987 RMK SC6 SLP118=
CYYG;2007-01-24 16:00;METAR CYYG 241600Z 36007KT 15SM BKN028 M03/M09 A2984 RMK SC5 SLP109=
CYYG;2007-01-24 17:00;METAR CYYG 241700Z 32011KT 15SM SCT030 M03/M09 A2983 RMK SC4 SLP104=
CYYG;2007-01-24 19:00;METAR CYYG 241900Z 33009KT 15SM FEW031 M03/M09 A2979 RMK SC2 SLP093=
CYYG;2007-01-24 20:00;METAR CYYG 242000Z 32007KT 15SM SCT030 M04/M09 A2979 RMK SC3 SLP093=
CYYG;2007-01-24 21:00;METAR CYYG 242100Z 31007KT 15SM BKN030 M04/M09 A2978 RMK SC5 SLP087=
CYYG;2007-01-24 22:00;METAR CYYG 242200Z 31007KT 15SM BKN030 M05/M09 A2979 RMK SC6 SLP090=
CYYG;2007-01-24 23:00;METAR CYYG 242300Z 32003KT 15SM SCT030 M06/M10 A2978 RMK SC4 SLP088=
CYYG;2007-01-25 00:00;METAR CYYG 250000Z 28007KT 15SM SCT030 M07/M10 A2977 RMK SC3 SLP083=
CYYG;2007-01-25 01:00;METAR CYYG 250100Z 32004KT 15SM FEW030 M07/M10 A2974 RMK SC2 SLP076=
CYYG;2007-01-25 02:00;METAR CYYG 250200Z 29004KT 15SM FEW030 M08/M10 A2973 RMK SC2 SLP070=
CYYG;2007-01-25 03:00;METAR CYYG 250300Z 29006KT 15SM SKC M08/M10 A2970 RMK SLP061=
CYYG;2007-01-25 04:00;METAR CYYG NIL=
CYYG;2007-01-25 05:00;METAR CYYG 250500Z 26005KT 15SM BKN025 M08/M10 A2967 RMK SC6 SLP050=
CYYG;2007-01-25 07:00;METAR CYYG 250700Z 27007KT 15SM SCT015 BKN025 M08/M10 A2965 RMK SC3SC2 SLP043=
CYYG;2007-01-25 08:00;METAR CYYG 250800Z 27009KT 15SM SCT009 BKN025 M07/M09 A2965 RMK SF4SC2 SLP043=
CYYG;2007-01-25 09:00;METAR CYYG 250900Z 29012G18KT 15SM BKN012 M08/M10 A2965 RMK SC6 SLP042=
CYYG;2007-01-25 09:10;SPECI CYYG 250910Z 29012G18KT 15SM -SHSN BKN013 M08/ RMK SC7=
CYYG;2007-01-25 10:00;METAR CYYG 251000Z 27010G15KT 15SM -SHSN BKN013 OVC024 M09/M12 A2965 RMK SC6SC2 SLP043=
CYYG;2007-01-25 10:31;SPECI CYYG 251031Z 28012G17KT 15SM FEW013 SCT025 M10/ RMK SC2SC2=
CYYG;2007-01-25 11:00;METAR CYYG 251100Z 29012KT 15SM FEW025 M11/M15 A2966 RMK SC1 SLP046=
CYYG;2007-01-25 12:00;METAR CYYG 251200Z 28010G16KT 15SM FEW025 FEW270 M13/M16 A2966 RMK SC1CI1 SLP046=
CYYG;2007-01-25 13:00;METAR CYYG 251300Z 27011KT 15SM FEW020 FEW280 M13/M16 A2966 RMK SC1CI0 SLP047=
CYYG;2007-01-25 14:00;METAR CYYG 251400Z 27010KT 15SM FEW025 FEW280 M12/M16 A2966 RMK SC1CI1 SLP049=
CYYG;2007-01-25 15:00;METAR CYYG 251500Z 26009KT 15SM FEW025 FEW280 M12/M17 A2965 RMK SC1CI1 SLP043=
CYYG;2007-01-25 16:00;METAR CYYG 251600Z 25010KT 15SM FEW025 SCT280 M11/M16 A2963 RMK SC1CI1 SLP036=
CYYG;2007-01-25 17:00;METAR CYYG 251700Z 25009KT 15SM FEW025 FEW280 M11/M16 A2960 RMK SC1CI1 SLP029=
CYYG;2007-01-25 18:00;METAR CYYG 251800Z 23009KT 15SM FEW005 FEW280 M10/M16 A2958 RMK SC1CI1 SLP020=
CYYG;2007-01-25 19:00;METAR CYYG 251900Z 25007KT 15SM FEW025 FEW280 M09/M17 A2957 RMK SC1CI1 SLP017=
CYYG;2007-01-25 21:00;METAR CYYG 252100Z 26002KT 15SM FEW022 SCT280 M10/M16 A2956 RMK SC1CI2 SLP012=
CYYG;2007-01-25 23:00;METAR CYYG 252300Z 30003KT 15SM FEW020 FEW270 M12/M17 A2955 RMK SC1CI1 SLP011=
CYYG;2007-01-26 00:00;METAR CYYG 260000Z 27004KT 15SM FEW270 M12/M17 A2957 RMK CI1 SLP016=
CYYG;2007-01-26 01:00;METAR CYYG 260100Z 25004KT 15SM FEW270 M13/M17 A2958 RMK CI1 SLP020=
CYYG;2007-01-26 02:00;METAR CYYG 260200Z 26004KT 15SM SKC M13/M17 A2957 RMK SLP016=
CYYG;2007-01-26 03:00;METAR CYYG 260300Z 25003KT 15SM SKC M14/M18 A2957 RMK SLP016=
CYYG;2007-01-26 04:00;METAR CYYG 260400Z 25006KT 15SM FEW075 M14/M18 A2956 RMK AC1 SLP014=
CYYG;2007-01-26 05:00;METAR CYYG 260500Z 26004KT 15SM FEW075 M15/M19 A2955 RMK AC1 SLP012=
CYYG;2007-01-26 07:00;METAR CYYG 260700Z 28004KT 15SM FEW070 M16/M20 A2954 RMK AC1 SLP006=
CYYG;2007-01-26 08:00;METAR CYYG 260800Z 29007KT 15SM FEW070 M17/M20 A2953 RMK AC1 SLP004=
CYYG;2007-01-26 09:00;METAR CYYG 260900Z 20007KT 15SM SKC M18/M22 A2953 RMK SLP004=
CYYG;2007-01-26 11:00;METAR CYYG 261100Z 30007KT 15SM SKC M18/M23 A2952 RMK SLP999=
CYYG;2007-01-26 12:00;METAR CYYG 261200Z 30007KT 15SM FEW020 FEW280 M18/M23 A2952 RMK SC1CI2 SLP000=
CYYG;2007-01-26 13:00;METAR CYYG 261300Z 29007KT 15SM FEW021 FEW130 SCT270 M18/M23 A2952 RMK SC1AC2CI1 SLP000=
CYYG;2007-01-26 14:00;METAR CYYG 261400Z 30009KT 15SM FEW020 FEW130 SCT250 M17/M22 A2951 RMK SC1AC1CI2 SLP996=
CYYG;2007-01-26 15:00;METAR CYYG 261500Z 30010KT 15SM FEW020 FEW150 BKN230 M16/M21 A2950 RMK SC1AC1CI2 SLP993=
CYYG;2007-01-26 16:08;SPECI CYYG 261608Z 32012G17KT 15SM -SN FEW022 BKN090 BKN210 M15/ RMK CF1AC5CI2 VIS E 6=
CYYG;2007-01-26 17:00;METAR CYYG 261700Z 33011G17KT 15SM BKN024 BKN090 M15/M19 A2940 RMK SC5AC2 SLP961=
CYYG;2007-01-26 18:00;METAR CYYG 261800Z 32014KT 10SM -SN BKN025 BKN090 M14/M18 A2940 RMK SC6AC2 SLP960=
CYYG;2007-01-26 20:00;METAR CYYG 262000Z 32016G21KT 15SM -SN SCT025 OVC100 M13/M17 A2933 RMK SC4AS4 SLP935=
CYYG;2007-01-26 21:00;METAR CYYG 262100Z CCA 31014G22KT 6SM -SN DRSN SCT025 OVC080 M13/M17 A2932 RMK SC4AS4 SLP932=
CYYG;2007-01-26 21:19;SPECI CYYG 262119Z 31016G22KT 2SM -SN DRSN BKN014 BKN025 OVC080 M13/ RMK SC5SC2AS2=
CYYG;2007-01-26 22:21;SPECI CYYG 262221Z 32018G24KT 1/2SM R03/1200VP6000FT/D -SN DRSN BKN005 OVC020 M11/ RMK SC6SC2=
CYYG;2007-01-26 22:32;SPECI CYYG 262232Z 32012G21KT 2 1/2SM R03/2800VP6000FT/U -SN DRSN OVC020 M11/ RMK SN2SC6=
CYYG;2007-01-26 22:48;SPECI CYYG 262248Z 34010G16KT 4SM -SN DRSN OVC020 M09/ RMK SC8=
CYYG;2007-01-26 23:00;METAR CYYG 262300Z 35017G22KT 3SM -SN DRSN OVC020 M08/M10 A2928 RMK SC8 /S02/ SLP920=
CYYG;2007-01-27 00:00;METAR CYYG 270000Z 35023G37KT 2SM R03/1800VP6000FT/D -SN BLSN OVC020 M08/M10 A2929 RMK SC8 SLP923=
CYYG;2007-01-27 00:38;SPECI CYYG 270038Z 35021G34KT 1/2SM R03/1200V4000FT/D -SN BLSN VV010 M08/ RMK SN8=
CYYG;2007-01-27 01:00;METAR CYYG 270100Z 35020G33KT 3SM R03/2000V6000FT/U -SN BLSN OVC020 M08/M12 A2929 RMK SC8 SLP922=
CYYG;2007-01-27 02:00;METAR CYYG 270200Z 35021G32KT 3/4SM R03/1100VP6000FT/D -SN BLSN VV015 M09/M12 A2928 RMK SN8 SLP919=
CYYG;2007-01-27 02:31;SPECI CYYG 270231Z 34020G35KT 3SM -SN BLSN OVC020 M09/ RMK SC8=
CYYG;2007-01-27 03:00;METAR CYYG 270300Z 34020G35KT 5SM -SN BLSN OVC020 M09/M13 A2927 RMK SC8 SLP916=
CYYG;2007-01-27 04:00;METAR CYYG 270400Z 33017G29KT 2SM -SN BLSN OVC020 M09/M11 A2926 RMK SC8 SLP912=
CYYG;2007-01-27 05:00;METAR CYYG 270500Z 32016G26KT 3SM -SN BLSN OVC015 M09/M12 A2926 RMK SC8 SLP913=
CYYG;2007-01-27 05:32;SPECI CYYG 270532Z 31018G30KT 1/2SM R03/1400V3000FT/D -SN BLSN VV010 M10/ RMK SN8=
CYYG;2007-01-27 06:00;METAR CYYG 270600Z 31020G29KT 1/2SM R03/1200V2600FT/D -SN BLSN VV010 M11/M12 A2926 RMK SN8 /S01/ SLP913=
CYYG;2007-01-27 07:00;METAR CYYG 270700Z 31023G29KT 1/2SM R03/1800V3500FT/D -SN BLSN VV010 M11/M13 A2927 RMK SN8 SLP915=
CYYG;2007-01-27 08:00;METAR CYYG 270800Z 30017G25KT 3/4SM R03/3000V5500FT/N -SN BLSN VV010 M13/M15 A2928 RMK SN8 SLP917=
CYYG;2007-01-27 09:00;METAR CYYG 270900Z 30019G28KT 1 1/2SM R03/3500VP6000FT/U -SN BLSN VV015 M14/M16 A2930 RMK SN8 SLP927=
CYYG;2007-01-27 11:00;METAR CYYG 271100Z 29019G24KT 3SM -SN BLSN OVC015 M15/M18 A2933 RMK SC8 SLP935=
CYYG;2007-01-27 12:00;METAR CYYG 271200Z CCA 29019G24KT 5SM -SHSN BLSN BKN025 M16/M19 A2935 RMK SC7 /S01/ SLP943=
CYYG;2007-01-27 13:00;METAR CYYG 271300Z 29018KT 10SM -SHSN DRSN BKN025 M16/M19 A2936 REBLSN RMK SC7 SLP945=
CYYG;2007-01-27 14:00;METAR CYYG 271400Z 29014G25KT 10SM -SHSN DRSN BKN025 M16/M19 A2937 RMK SC7 SLP949=
CYYG;2007-01-27 14:55;SPECI CYYG 271455Z 29020G26KT 10SM DRSN BKN020 M15/ RMK SC6=
CYYG;2007-01-27 15:00;METAR CYYG 271500Z 29018G26KT 10SM DRSN BKN020 M15/M20 A2937 RMK SC6 SLP949=
CYYG;2007-01-27 16:00;METAR CYYG 271600Z 29016G24KT 15SM FEW020 M14/M20 A2937 RMK SC2 SLP949=
CYYG;2007-01-27 17:00;METAR CYYG 271700Z 29017G27KT 15SM SCT020 M13/M20 A2936 RMK SC3 SLP945=
CYYG;2007-01-27 18:00;METAR CYYG 271800Z 29018KT 15SM SCT020 M12/M19 A2935 RMK SC3 SLP942=
CYYG;2007-01-27 19:00;METAR CYYG 271900Z 29019G25KT 15SM FEW020 FEW220 M11/M18 A2936 RMK SC1CI1 SLP944=
CYYG;2007-01-27 20:00;METAR CYYG 272000Z 27011G17KT 15SM FEW020 FEW220 M10/M17 A2936 RMK SC1CI1 SLP945=
CYYG;2007-01-27 21:00;METAR CYYG 272100Z 29019G26KT 15SM FEW025 FEW100 FEW220 M10/M18 A2936 RMK SC1AC1CI1 SLP945=
CYYG;2007-01-27 22:00;METAR CYYG NIL=
CYYG;2007-01-27 23:00;METAR CYYG 272300Z 28014G32KT 15SM FEW025 SCT220 M10/M17 A2940 RMK SC1CI2 SLP960=
CYYG;2007-01-28 00:00;METAR CYYG 280000Z 29015G21KT 15SM FEW025 SCT220 M11/M17 A2943 RMK SC1CI2 SLP969=
CYYG;2007-01-28 01:00;METAR CYYG 280100Z 28017G22KT 15SM FEW025 FEW220 M11/M17 A2944 RMK SC1CI0 SLP973=
CYYG;2007-01-28 02:00;METAR CYYG 280200Z 28015G22KT 15SM FEW025 FEW220 M11/M18 A2944 RMK SC1CI0 SLP974=
CYYG;2007-01-28 03:00;METAR CYYG 280300Z 29014G22KT 15SM FEW025 FEW220 M12/M18 A2947 RMK SC1CI0 SLP983=
CYYG;2007-01-28 04:00;METAR CYYG 280400Z 29014G19KT 15SM FEW025 FEW220 M12/M18 A2948 RMK SC1CI0 SLP988=
CYYG;2007-01-28 07:00;METAR CYYG 280700Z 27010G16KT 15SM SKC M12/M18 A2952 RMK SLP999=
CYYG;2007-01-28 08:00;METAR CYYG 280800Z 25006KT 15SM SKC M13/M18 A2955 RMK SLP009=
CYYG;2007-01-28 10:00;METAR CYYG 281000Z 26006KT 15SM SKC M13/M18 A2956 RMK SLP014=
CYYG;2007-01-28 11:00;METAR CYYG 281100Z 23006KT 15SM FEW250 M14/M18 A2957 RMK CI1 SLP016=
CYYG;2007-01-28 12:00;METAR CYYG 281200Z 25007KT 15SM FEW025 FEW250 M14/M19 A2958 RMK SC1CI1 SLP022=
CYYG;2007-01-28 13:00;METAR CYYG 281300Z 25008KT 15SM FEW025 FEW100 M13/M18 A2959 RMK SC1AC1 SLP025=
CYYG;2007-01-28 14:00;METAR CYYG 281400Z 27005KT 15SM FEW025 FEW100 M12/M18 A2960 RMK SC1AC1 SLP027=
CYYG;2007-01-28 15:00;METAR CYYG 281500Z 24010KT 15SM FEW025 FEW100 M11/M17 A2961 RMK SC1AC1 SLP031=
CYYG;2007-01-28 16:00;METAR CYYG 281600Z 26010G15KT 15SM FEW025 FEW100 M10/M17 A2962 RMK SC1AC1 SLP035=
CYYG;2007-01-28 17:00;METAR CYYG 281700Z 23008KT 15SM FEW025 FEW100 M08/M16 A2961 RMK SC1AC1 SLP031=
CYYG;2007-01-28 18:00;METAR CYYG 281800Z 25008KT 15SM FEW025 FEW100 M07/M16 A2959 RMK SC1AC1 SLP023=
CYYG;2007-01-28 19:00;METAR CYYG 281900Z 24009KT 15SM FEW025 FEW100 M06/M18 A2958 RMK SC1AC1 SLP020=
CYYG;2007-01-28 20:00;METAR CYYG 282000Z 24008KT 15SM FEW100 M05/M18 A2960 RMK AC1 SLP027=
CYYG;2007-01-28 21:00;METAR CYYG 282100Z 25005KT 15SM FEW100 M06/M18 A2961 RMK AC1 SLP032=
CYYG;2007-01-28 23:00;METAR CYYG 282300Z 33002KT 15SM FEW100 M11/M18 A2963 RMK AC1 SLP039=
CYYG;2007-01-29 00:00;METAR CYYG 290000Z 25002KT 15SM SKC M12/M18 A2965 RMK SLP043=
CYYG;2007-01-29 01:00;METAR CYYG 290100Z 30004KT 15SM SKC M12/M19 A2964 RMK SLP041=
CYYG;2007-01-29 02:00;METAR CYYG 290200Z 24003KT 15SM SKC M10/M18 A2964 RMK SLP041=
CYYG;2007-01-29 03:00;METAR CYYG 290300Z 27004KT 15SM SKC M14/M19 A2963 RMK SLP037=
CYYG;2007-01-29 04:00;METAR CYYG 290400Z 30005KT 15SM SKC M11/M16 A2961 RMK SLP031=
CYYG;2007-01-29 05:00;METAR CYYG 290500Z 32005KT 15SM SKC M13/M17 A2960 RMK SLP029=
CYYG;2007-01-29 07:00;METAR CYYG 290700Z 32004KT 15SM FEW030 M12/M15 A2958 RMK SC2 SLP020=
CYYG;2007-01-29 08:00;METAR CYYG 290800Z 31004KT 15SM SKC M12/M15 A2957 RMK SLP017=
CYYG;2007-01-29 09:00;METAR CYYG 290900Z 33004KT 15SM FEW030 M12/M15 A2955 RMK SC2 SLP010=
CYYG;2007-01-29 10:00;METAR CYYG 291000Z 32005KT 15SM FEW030 M11/M13 A2954 RMK SC2 SLP007=
CYYG;2007-01-29 11:00;METAR CYYG 291100Z 32006KT 15SM SCT030 M11/M12 A2954 RMK SC3 SLP006=
CYYG;2007-01-29 12:00;METAR CYYG 291200Z 31004KT 15SM FEW030 M11/M13 A2954 RMK SC2 SLP008=
CYYG;2007-01-29 12:31;SPECI CYYG 291231Z 35003KT 15SM -SHSN BKN030 M11/ RMK SC6=
CYYG;2007-01-29 13:00;METAR CYYG 291300Z CCA 33005KT 4SM -SHSN OVC030 M09/M11 A2955 RMK SC7 SLP010=
CYYG;2007-01-29 14:00;METAR CYYG 291400Z 02013KT 12SM -SHSN BKN030 M06/M10 A2953 RMK SC6 SLP004=
CYYG;2007-01-29 15:00;METAR CYYG 291500Z 01012G18KT 15SM -SHSN BKN026 M06/M11 A2955 RMK SC6 SLP009=
CYYG;2007-01-29 16:00;METAR CYYG 291600Z 36011G16KT 4SM -SHSN BKN026 M06/M10 A2954 RMK SC6 SLP006=
CYYG;2007-01-29 17:00;METAR CYYG 291700Z 35010KT 4SM -SHSN OVC030 M07/M11 A2954 RMK SC8 SLP006=
CYYG;2007-01-29 18:00;METAR CYYG 291800Z 35012KT 6SM -SHSN OVC030 M07/M11 A2953 RMK SC6 SLP003=
CYYG;2007-01-29 19:00;METAR CYYG 291900Z 34012KT 4SM -SHSN OVC030 M07/M11 A2950 RMK SC8 SLP991=
CYYG;2007-01-29 19:42;SPECI CYYG 291942Z 36013KT 2SM -SHSN OVC020 M08/ RMK SC8=
CYYG;2007-01-29 20:00;METAR CYYG 292000Z 35013KT 4SM -SHSN OVC030 M08/M12 A2950 RMK SC8 SLP992=
CYYG;2007-01-29 21:00;METAR CYYG 292100Z 35010G17KT 4SM -SHSN OVC030 M08/M13 A2949 RMK SC6 SLP990=
CYYG;2007-01-29 22:00;METAR CYYG 292200Z 35010G15KT 15SM BKN030 M09/M13 A2951 RMK SC6 SLP995=
CYYG;2007-01-30 00:00;METAR CYYG 300000Z 33007KT 8SM -SHSN BKN025 M09/M12 A2954 RMK SC7 SLP006=
CYYG;2007-01-30 01:00;METAR CYYG NIL=
CYYG;2007-01-30 01:28;SPECI CYYG 300128Z 28008KT 15SM BKN030 M10/ RMK SC7=
CYYG;2007-01-30 02:00;METAR CYYG 300200Z 29011KT 15SM BKN030 M10/M14 A2957 RMK SC7 SLP018=
CYYG;2007-01-30 04:00;METAR CYYG 300400Z 30009KT 15SM SCT035 M11/M17 A2958 RMK SC3 SLP018=
CYYG;2007-01-30 06:00;METAR CYYG 300600Z 29009G16KT 15SM BKN030 M13/M18 A2960 RMK SC6 SLP028=
CYYG;2007-01-30 07:00;METAR CYYG 300700Z 29010KT 15SM SCT030 M14/M19 A2961 RMK SC3 SLP032=
CYYG;2007-01-30 08:00;METAR CYYG 300800Z 28010G15KT 15SM FEW030 M15/M20 A2963 RMK SC2 SLP036=
CYYG;2007-01-30 09:00;METAR CYYG 300900Z 28013KT 15SM FEW030 M16/M21 A2964 RMK SC2 SLP040=
CYYG;2007-01-30 10:00;METAR CYYG 301000Z 28010KT 15SM FEW030 M16/M21 A2964 RMK SC2 SLP042=
CYYG;2007-01-30 12:00;METAR CYYG 301200Z 27008KT 15SM FEW030 M17/M22 A2968 RMK SC1 SLP055=
CYYG;2007-01-30 13:00;METAR CYYG 301300Z 27011KT 15SM FEW030 M16/M22 A2970 RMK SC1 SLP060=
CYYG;2007-01-30 14:00;METAR CYYG 301400Z 26012KT 15SM SKC M15/M21 A2971 RMK SLP065=
CYYG;2007-01-30 15:00;METAR CYYG 301500Z 27011G16KT 15SM SKC M15/M22 A2972 RMK SLP067=
CYYG;2007-01-30 16:00;METAR CYYG 301600Z 27012G17KT 15SM SKC M14/M22 A2971 RMK SLP065=
CYYG;2007-01-30 17:00;METAR CYYG 301700Z 27012G19KT 15SM FEW030 M13/M22 A2969 RMK SC1 SLP058=
CYYG;2007-01-30 18:00;METAR CYYG 301800Z 26012KT 15SM FEW030 M13/M22 A2969 RMK SC1 SLP057=
CYYG;2007-01-30 19:00;METAR CYYG 301900Z 27012KT 15SM FEW030 M13/M23 A2969 RMK SC1 SLP057=
CYYG;2007-01-30 20:00;METAR CYYG 302000Z 26010KT 15SM FEW030 M13/M23 A2971 RMK SC1 SLP063=
CYYG;2007-01-30 22:00;METAR CYYG 302200Z 27006KT 15SM SKC M14/M23 A2975 RMK SLP079=
CYYG;2007-01-30 23:00;METAR CYYG 302300Z 27006KT 15SM SKC M15/M23 A2976 RMK SLP083=
CYYG;2007-01-31 00:00;METAR CYYG NIL=
CYYG;2007-01-31 01:00;METAR CYYG 310100Z 26007KT 15SM SKC M15/M23 A2978 RMK SLP090=
CYYG;2007-01-31 02:00;METAR CYYG 310200Z 27007KT 15SM SKC M16/M23 A2979 RMK SLP093=
CYYG;2007-01-31 03:00;METAR CYYG 310300Z 28009KT 15SM SKC M16/M24 A2980 RMK SLP097=
CYYG;2007-01-31 04:00;METAR CYYG 310400Z 28010KT 15SM BKN250 M16/M24 A2982 RMK CI3 SLP102=
CYYG;2007-01-31 05:00;METAR CYYG 310500Z 29007KT 15SM BKN180 M17/M24 A2984 RMK CI2 SLP108=
CYYG;2007-01-31 06:00;METAR CYYG 310600Z 27005KT 15SM SCT190 M18/M25 A2983 RMK CI1 SLP107=
CYYG;2007-01-31 07:00;METAR CYYG 310700Z 27008KT 15SM SCT190 M17/M25 A2984 RMK CI1 SLP109=
CYYG;2007-01-31 08:00;METAR CYYG 310800Z 27006KT 15SM SCT190 M17/M24 A2984 RMK CI1 SLP108=
CYYG;2007-01-31 11:00;METAR CYYG 311100Z 28005KT 15SM FEW020 FEW200 M19/M24 A2985 RMK SC1CI0 SLP113=
CYYG;2007-01-31 12:00;METAR CYYG 311200Z 27006KT 15SM FEW020 M19/M24 A2987 RMK SC1 SLP119=
CYYG;2007-01-31 13:00;METAR CYYG 311300Z 25006KT 15SM FEW020 M18/M24 A2990 RMK SC1 SLP130=
CYYG;2007-01-31 14:00;METAR CYYG 311400Z 27009KT 15SM FEW020 M16/M23 A2992 RMK SC1 SLP136=
CYYG;2007-01-31 15:00;METAR CYYG 311500Z 25006KT 15SM FEW020 FEW240 M15/M22 A2993 RMK SC1CI1 SLP138=
CYYG;2007-01-31 17:00;METAR CYYG 311700Z 27005KT 15SM FEW020 FEW240 M13/M22 A2989 RMK SC1CI1 SLP127=
CYYG;2007-01-31 20:00;METAR CYYG 312000Z 21003KT 15SM FEW020 SCT240 M12/M24 A2987 RMK SC1CI2 SLP119=
CYYG;2007-01-31 21:00;METAR CYYG 312100Z 00000KT 15SM FEW020 SCT240 M13/M24 A2987 RMK SC1CI2 SLP120=
CYYG;2007-01-31 22:00;METAR CYYG 312200Z 00000KT 15SM FEW020 SCT240 M14/M23 A2987 RMK SC1CI2 SLP121=
CYYG;2007-01-31 23:00;METAR CYYG 312300Z 20004KT 15SM FEW020 SCT240 M13/M21 A2988 RMK SC1CI2 SLP122=
CYYG;2007-02-01 01:00;METAR CYYG 010100Z 22003KT 15SM FEW280 M14/M20 A2989 RMK CI1 SLP125=
CYYG;2007-02-01 02:00;METAR CYYG 010200Z 26004KT 15SM FEW280 M15/M21 A2991 RMK CI1 SLP132=
CYYG;2007-02-01 03:00;METAR CYYG 010300Z 26006KT 15SM SKC M14/M19 A2993 RMK SLP138=
CYYG;2007-02-01 04:00;METAR CYYG 010400Z 26003KT 15SM FEW280 M14/M21 A2993 RMK CI1 SLP141=
CYYG;2007-02-01 05:00;METAR CYYG 010500Z 25004KT 15SM FEW100 FEW280 M15/M21 A2993 RMK AC1CI0 SLP141=
CYYG;2007-02-01 05:24;SPECI CYYG 010524Z 27004KT 15SM BKN067 M14/ RMK AC6=
CYYG;2007-02-01 06:00;METAR CYYG 010600Z 00000KT 15SM FEW063 M14/M21 A2993 RMK SC2 SLP141=
CYYG;2007-02-01 07:00;METAR CYYG 010700Z 23002KT 10SM -SHSN BKN060 M14/M20 A2995 RMK SC7 SLP146=
CYYG;2007-02-01 08:00;METAR CYYG 010800Z 21006KT 5SM -SN OVC060 M13/M18 A2996 RMK SC8 SLP151=
CYYG;2007-02-01 08:11;SPECI CYYG 010811Z 21005KT 2SM -SN VV020 M13/ RMK SN8=
CYYG;2007-02-01 08:48;SPECI CYYG 010848Z 23003KT 3SM -SN OVC050 M13/ RMK SC8=
CYYG;2007-02-01 09:00;METAR CYYG 010900Z 22004KT 4SM -SN OVC050 M13/M15 A2998 RMK SC8 SLP158=
CYYG;2007-02-01 10:00;METAR CYYG 011000Z 24003KT 12SM -SHSN BKN045 M12/M14 A2999 RMK SC6 SLP160=
CYYG;2007-02-01 10:24;SPECI CYYG 011024Z 23004KT 15SM BKN045 M12/ RMK SC6=
CYYG;2007-02-01 11:00;METAR CYYG NIL=
CYYG;2007-02-01 13:00;METAR CYYG 011300Z 27006KT 15SM FEW045 FEW270 M14/M17 A3008 RMK SC1CI0 SLP190=
CYYG;2007-02-01 14:00;METAR CYYG 011400Z 26007KT 15SM SCT270 M13/M17 A3010 RMK CI2 SLP196=
CYYG;2007-02-01 15:00;METAR CYYG 011500Z 24006KT 15SM SCT270 M12/M17 A3012 RMK CI2 SLP203=
CYYG;2007-02-01 17:00;METAR CYYG 011700Z 25009KT 15SM FEW030 SCT270 M11/M19 A3013 RMK SC1CI2 SLP207=
CYYG;2007-02-01 18:00;METAR CYYG 011800Z 25007KT 15SM FEW030 SCT270 M10/M20 A3013 RMK SC1CI2 SLP206=
CYYG;2007-02-01 19:00;METAR CYYG 011900Z 23008KT 15SM SCT270 M10/M12 A3012 RMK CI2 SLP203=
CYYG;2007-02-01 20:00;METAR CYYG 012000Z 22004KT 15SM SCT270 M09/M18 A3013 RMK CI2 SLP206=
CYYG;2007-02-01 21:00;METAR CYYG 012100Z 17007KT 15SM SCT270 M11/M17 A3014 RMK CI2 SLP209=
CYYG;2007-02-01 23:00;METAR CYYG NIL=
CYYG;2007-02-02 00:00;METAR CYYG 020000Z 15007KT 15SM BKN200 M10/M15 A3014 RMK CS2 HALO SLP209=
CYYG;2007-02-02 01:00;METAR CYYG 020100Z 15007KT 15SM FEW100 OVC200 M08/M14 A3013 RMK AC1CS3=
CYYG;2007-02-02 02:00;METAR CYYG 020200Z 16014KT 15SM OVC055 M07/M12 A3012 RMK SC8 SLP202=
CYYG;2007-02-02 03:00;METAR CYYG 020300Z 15011G16KT 15SM FEW025 OVC092 M07/M12 A3010 RMK SC1AC7 SLP198=
CYYG;2007-02-02 04:00;METAR CYYG 020400Z 16011KT 15SM OVC095 M06/M10 A3009 RMK AC8 SLP194=
CYYG;2007-02-02 04:42;SPECI CYYG 020442Z 15011KT 15SM -SHSN OVC050 M06/ RMK SC8=
CYYG;2007-02-02 05:00;METAR CYYG 020500Z 15011KT 10SM -SHSN OVC045 M06/M08 A3007 RMK SC8 SLP188=
CYYG;2007-02-02 05:50;SPECI CYYG 020550Z 16012KT 15SM BKN020 OVC065 M05/ RMK SC6SC2=
CYYG;2007-02-02 06:00;METAR CYYG 020600Z 15012KT 15SM BKN020 OVC065 M05/M07 A3006 RMK SC6SC2 SLP184=
CYYG;2007-02-02 07:00;METAR CYYG 020700Z 16013KT 15SM OVC015 M04/M06 A3004 RMK SC8 SLP176=
CYYG;2007-02-02 07:30;SPECI CYYG 020730Z 15010G15KT 15SM OVC013 M04/ RMK SC8=
CYYG;2007-02-02 08:22;SPECI CYYG 020822Z 16009KT 3SM -SHSN OVC013 M03/ RMK SC8=
CYYG;2007-02-02 09:00;METAR CYYG 020900Z 16009KT 2SM -SHSN FEW005 OVC025 M03/M04 A3003 RMK SF2SC6 SLP171=
CYYG;2007-02-02 10:00;METAR CYYG 021000Z 16008KT 2SM -SN FEW003 OVC010 M02/M03 A3002 RMK SF2SC6 SLP169=
CYYG;2007-02-02 11:00;METAR CYYG 021100Z 14007KT 2 1/2SM -SN OVC005 M02/M03 A3003 RMK SF8 /S01/ SLP171=
CYYG;2007-02-02 11:14;SPECI CYYG 021114Z 14006KT 8SM -SN BKN006 OVC011 M02/ RMK SF6SC2=
CYYG;2007-02-02 11:49;SPECI CYYG 021149Z 13005KT 15SM -SN SCT006 OVC023 M02/ RMK SF3SC5=
CYYG;2007-02-02 12:00;METAR CYYG 021200Z 13005KT 15SM -SN SCT006 OVC024 M02/M03 A3001 RMK SF3SC5 SLP166=
CYYG;2007-02-02 12:53;SPECI CYYG 021253Z 14006KT 12SM -SN FEW008 BKN012 OVC022 M01/ RMK SF1SC6SC1=
CYYG;2007-02-02 13:00;METAR CYYG 021300Z 14006KT 12SM -SN FEW008 OVC011 M01/M02 A2999 RMK SF2SC6 SLP159=
CYYG;2007-02-02 14:00;METAR CYYG 021400Z 14006KT 15SM -SN FEW009 OVC012 M00/M02 A2999 RMK SF2SC6 PCPN VRY LGT SLP158=
CYYG;2007-02-02 15:00;METAR CYYG 021500Z 14007KT 15SM -SN BKN009 OVC013 00/M01 A2995 RMK SF7SC1 PCPN VRY LGT SLP145=
CYYG;2007-02-02 15:28;SPECI CYYG 021528Z 13005KT 15SM BKN009 OVC013 01/ RMK SF7SC1=
CYYG;2007-02-02 16:00;METAR CYYG 021600Z 11005KT 15SM BKN009 OVC013 01/M01 A2989 RMK SF6SC2 PRESFR SLP124=
CYYG;2007-02-02 17:32;SPECI CYYG 021732Z 11005KT 15SM OVC004 01/ RMK SF8=
CYYG;2007-02-02 18:00;METAR CYYG 021800Z 10005KT 10SM OVC004 01/M00 A2980 RMK SF8 SLP095=
CYYG;2007-02-02 18:21;SPECI CYYG 021821Z 09005KT 6SM BR OVC002 00/ RMK SF8=
CYYG;2007-02-02 18:35;SPECI CYYG 021835Z 07005KT 3SM BR OVC002 00/ RMK SF8=
CYYG;2007-02-02 19:00;METAR CYYG 021900Z 07006KT 3SM BR OVC003 00/M00 A2976 RMK SF8 SLP079=
CYYG;2007-02-02 20:00;METAR CYYG 022000Z 05005KT 2 1/2SM -RASN BR OVC003 00/00 A2972 RMK SF8 SLP068=
CYYG;2007-02-02 20:24;SPECI CYYG 022024Z 06005KT 1 1/2SM -RASN BR OVC003 00/ RMK SF8=
CYYG;2007-02-02 20:33;SPECI CYYG 022033Z 06005KT 1SM R03/6000FT/D -RASN BR OVC002 00/ RMK SF8=
CYYG;2007-02-02 21:00;METAR CYYG 022100Z 04006KT 5/8SM R03/P6000FT/D -DZ BR OVC002 00/00 A2969 RMK SF8 SLP055=
CYYG;2007-02-02 21:53;SPECI CYYG 022153Z 03009KT 3/4SM R03/5000FT/N -FZDZ BR VV002 M00/ RMK FG8=
CYYG;2007-02-02 22:00;METAR CYYG 022200Z 03009KT 2SM R03/6000FT/U -FZRA BR BKN002 OVC006 M00/M01 A2966 REFZDZ RMK SF6SF2 SLP048=
CYYG;2007-02-02 23:00;METAR CYYG 022300Z 03010KT 2SM -FZRA BR OVC002 M00/M01 A2963 RMK SF8 SLP038=
CYYG;2007-02-02 23:23;SPECI CYYG 022323Z 02009KT 5SM -FZDZ BR BKN003 OVC009 M00/ REFZRA RMK SF6SF2=
CYYG;2007-02-03 00:00;METAR CYYG 030000Z 02009KT 6SM -FZDZ BR SCT003 BKN009 OVC014 M00/M01 A2960 RMK SF3SF3SC2 REFZRA SLP027=
CYYG;2007-02-03 02:00;METAR CYYG 030200Z 36007KT 12SM -FZDZ OVC006 M01/M01 A2956 RMK SF8 SLP011=
CYYG;2007-02-03 02:33;SPECI CYYG 030233Z 36007KT 15SM FEW003 OVC011 M01/ RMK SF2SC6=
CYYG;2007-02-03 03:00;METAR CYYG 030300Z 36008KT 15SM SCT003 OVC009 M01/M02 A2953 RMK SF3SF5 SLP001=
CYYG;2007-02-03 04:00;METAR CYYG 030400Z 35005KT 15SM FEW002 OVC010 M01/M02 A2950 RMK SF2SF6 SLP990=
CYYG;2007-02-03 04:38;SPECI CYYG 030438Z 31005KT 10SM BKN003 OVC014 M01/ RMK SF6SC2=
CYYG;2007-02-03 05:00;METAR CYYG 030500Z 34003KT 4SM BR OVC003 M01/M02 A2948 RMK SF8 SLP986=
CYYG;2007-02-03 07:00;METAR CYYG 030700Z 32006KT 1SM R03/5000FT/U BR OVC002 M01/M02 A2944 RMK SF8 SLP972=
CYYG;2007-02-03 08:40;SPECI CYYG 030840Z 31003KT 1SM R03/3000FT/U -SN OVC002 M01/ RMK SF8=
CYYG;2007-02-03 09:00;METAR CYYG 030900Z 00000KT 1SM R03/P6000FT/N -SN OVC002 M02/M02 A2942 RMK SF8 SLP964=
CYYG;2007-02-03 09:44;SPECI CYYG 030944Z 00000KT 3SM -SN BKN007 OVC030 M02/ RMK SF6SC2=
CYYG;2007-02-03 11:00;METAR CYYG 031100Z 09004KT 2SM -SN FEW003 OVC022 M02/M02 A2931 RMK SF2SC6 SLP929=
CYYG;2007-02-03 11:31;SPECI CYYG 031131Z 17004KT 1SM R03/P6000FT/D -SN BKN002 OVC006 M02/ RMK SF6SF2=
CYYG;2007-02-03 12:00;METAR CYYG 031200Z 16004KT 3/4SM R03/4500FT/N -SN BR BKN002 OVC012 M02/M02 A2930 RMK SF7SC1 /S02/ SLP923=
CYYG;2007-02-03 13:00;METAR CYYG 031300Z 21006KT 3/4SM R03/P6000FT/D -SN BR VV011 M02/M03 A2926 RMK SN8 SLP912=
CYYG;2007-02-03 13:37;SPECI CYYG 031337Z 22004KT 1SM R03/P6000FT/U -SN BR BKN008 OVC016 M02/ RMK SF7SC1=
CYYG;2007-02-03 14:00;METAR CYYG 031400Z 21004KT 1SM R03/P6000FT/N -SN BR BKN008 OVC016 M02/M02 A2922 RMK SF7SC1 /S02/ SLP898=
CYYG;2007-02-03 15:00;METAR CYYG 031500Z 21004KT 1SM R03/P6000FT/D -SN BR VV004 M01/M02 A2917 RMK SN8 SLP881=
CYYG;2007-02-03 15:23;SPECI CYYG 031523Z 22004KT 6SM -SN BR OVC003 M01/ RMK SF8=
CYYG;2007-02-03 15:37;SPECI CYYG 031537Z 22004KT 1 1/2SM -SN BR OVC003 M01/ RMK SF8=
CYYG;2007-02-03 15:46;SPECI CYYG 031546Z 23006KT 3/4SM R03/4500VP6000FT/D -SN BR OVC003 M01/M01 RMK SF8=
CYYG;2007-02-03 16:31;SPECI CYYG 031631Z 26011KT 3SM -SN BR BKN006 OVC020 M01/ RMK SF6SC2=
CYYG;2007-02-03 16:56;SPECI CYYG 031656Z 27014G19KT 6SM -SHSN BR BKN009 OVC047 M01/ RMK SF5SC3=
CYYG;2007-02-03 17:00;METAR CYYG 031700Z 26014G19KT 8SM -SHSN SCT010 BKN025 OVC046 M01/M03 A2915 RMK SF4SC2SC2 SLP872=
CYYG;2007-02-03 17:40;SPECI CYYG 031740Z 27015G20KT 2SM -SN BR BKN008 OVC016 M02/ RMK SF7SC1=
CYYG;2007-02-03 18:32;SPECI CYYG 031832Z 27015G24KT 3/4SM R03/3500VP6000FT/D -SN BR OVC006 M03/ RMK SF8=
CYYG;2007-02-03 19:00;METAR CYYG 031900Z 27019G26KT 3/4SM R03/3500VP6000FT/D -SN BR OVC008 M03/M04 A2921 RMK SF8 /SO1/ SLP894=
CYYG;2007-02-03 19:22;SPECI CYYG 031922Z 27019G25KT 6SM -SN BLSN BKN012 OVC020 M02/ RMK SC6SC2=
CYYG;2007-02-03 20:00;METAR CYYG 032000Z 27015G24KT 1 1/2SM -SN BLSN BKN011 OVC016 M02/M04 A2925 RMK SC6SC2 SLP907=
CYYG;2007-02-03 20:19;SPECI CYYG 032019Z 27016G24KT 6SM -SN BLSN BKN015 OVC040 M02/ RMK SC5SC3=
CYYG;2007-02-03 21:00;METAR CYYG 032100Z 25013G22KT 3SM -SHSN BLSN BKN016 OVC035 M01/M04 A2929 RMK SC6SC2 SLP922=
CYYG;2007-02-03 21:21;SPECI CYYG 032121Z 26021G28KT 3/4SM R03/1800V3500FT/D -SHSN BLSN BKN006 OVC017 M03/ RMK SF6SC2=
CYYG;2007-02-03 21:28;SPECI CYYG 032128Z 27020G28KT 1/2SM R03/1400V2200FT/D SN BLSN VV005 M03/ RMK SN8=
CYYG;2007-02-03 21:50;SPECI CYYG 032150Z 26018G28KT 1 1/2SM R03/1200VP6000FT/U -SN BLSN BKN011 OVC021 M03/ RESN RMK SC6SC2=
CYYG;2007-02-03 22:00;METAR CYYG 032200Z 26018G28KT 1 1/2SM R03/1600VP6000FT/U -SN BLSN BKN011 OVC017 M03/M06 A2934 RESN RMK SC6SC2 SLP938=
CYYG;2007-02-03 23:00;METAR CYYG 032300Z 26017G22KT 2 1/2SM -SN BLSN OVC015 M03/M07 A2939 RMK SC8 /S03/ SLP954=
CYYG;2007-02-03 23:34;SPECI CYYG 032334Z 27018KT 2SM -SN BLSN FEW017 OVC032 M04/ RMK SC2SC6=
CYYG;2007-02-04 00:00;METAR CYYG 040000Z 27017KT 10SM -SHSN DRSN OVC044 M04/M09 A2944 RMK SC8 SLP973=
CYYG;2007-02-04 01:00;METAR CYYG 040100Z 27015G21KT 15SM DRSN SCT037 M06/M10 A2950 RMK SC4 SLP991=
CYYG;2007-02-04 02:00;METAR CYYG 040200Z 27015G22KT 15SM FEW040 M06/M11 A2953 RMK SC2 SLP003=
CYYG;2007-02-04 03:00;METAR CYYG 040300Z 27017G27KT 15SM SKC M07/M13 A2957 RMK SLP017=
CYYG;2007-02-04 04:00;METAR CYYG 040400Z 27019G24KT 15SM SKC M08/M13 A2959 RMK SLP024=
CYYG;2007-02-04 05:00;METAR CYYG 040500Z 26013G21KT 15SM SKC M09/M14 A2962 RMK SLP032=
CYYG;2007-02-04 06:00;METAR CYYG 040600Z 26010G19KT 15SM SKC M09/M14 A2965 RMK SLP042=
CYYG;2007-02-04 07:00;METAR CYYG 040700Z 26010G16KT 15SM SKC M10/M15 A2966 RMK SLP048=
CYYG;2007-02-04 08:00;METAR CYYG 040800Z 26009KT 15SM SKC M10/M15 A2968 RMK SLP053=
CYYG;2007-02-04 09:00;METAR CYYG 040900Z 25008KT 15SM SKC M11/M15 A2969 RMK SLP055=
CYYG;2007-02-04 10:00;METAR CYYG 041000Z 25008KT 15SM SKC M11/M15 A2970 RMK SLP059=
CYYG;2007-02-04 11:00;METAR CYYG 041100Z 25008KT 15SM SCT110 M11/M15 A2971 RMK AC2 SLP065=
CYYG;2007-02-04 12:00;METAR CYYG 041200Z 25007KT 15SM FEW020 FEW110 FEW250 M11/M15 A2973 RMK SC1AC1CI0 SLP072=
CYYG;2007-02-04 13:00;METAR CYYG 041300Z 25008KT 15SM FEW020 FEW250 M10/M15 A2973 RMK SC1CI1 SLP072=
CYYG;2007-02-04 14:00;METAR CYYG 041400Z 25011KT 15SM FEW020 FEW250 M09/M14 A2973 RMK SC1CI1 SLP071=
CYYG;2007-02-04 15:00;METAR CYYG 041500Z 25007KT 15SM FEW025 FEW250 M07/M15 A2970 RMK CU1CI1 SLP060=
CYYG;2007-02-04 16:00;METAR CYYG NIL=
CYYG;2007-02-04 17:00;METAR CYYG 041700Z 24012G19KT 15SM FEW035 SCT250 M07/M14 A2966 RMK CU1CI1 SLP046=
CYYG;2007-02-04 18:00;METAR CYYG 041800Z 23014KT 15SM FEW041 BKN250 M06/M14 A2964 RMK CU2CI1 SLP039=
CYYG;2007-02-04 19:00;METAR CYYG 041900Z CCA 24011G17KT 15SM DRSN FEW045 FEW250 M06/M16 A2963 RMK CU1CI1 SLP035=
CYYG;2007-02-04 20:00;METAR CYYG 042000Z 25008G15KT 15SM DRSN BKN047 M06/M16 A2963 RMK SC5 SLP036=
CYYG;2007-02-04 22:00;METAR CYYG NIL=
CYYG;2007-02-04 23:00;METAR CYYG 042300Z 25005KT 15SM FEW047 M09/M17 A2966 RMK SC1 SLP046=
CYYG;2007-02-05 00:00;METAR CYYG 050000Z 28007KT 15SM SKC M10/M17 A2967 RMK SLP050=
CYYG;2007-02-05 01:00;METAR CYYG 050100Z 28008KT 15SM SKC M10/M16 A2968 RMK SLP053=
CYYG;2007-02-05 03:00;METAR CYYG NIL=
CYYG;2007-02-05 04:00;METAR CYYG 050400Z 24004KT 15SM SKC M12/M17 A2971 RMK SLP063=
CYYG;2007-02-05 05:00;METAR CYYG 050500Z 21005KT 15SM FEW150 M13/M17 A2970 RMK AC2 SLP062=
CYYG;2007-02-05 06:00;METAR CYYG 050600Z 24004KT 15SM FEW100 M13/M17 A2969 RMK AC2 SLP056=
CYYG;2007-02-05 08:00;METAR CYYG 050800Z 24005KT 15SM SCT062 M13/M18 A2960 RMK SC4 SLP029=
CYYG;2007-02-05 10:00;METAR CYYG 051000Z 25005KT 15SM FEW020 SCT080 M14/M17 A2963 RMK SC2AC2 SLP036=
CYYG;2007-02-05 11:00;METAR CYYG 051100Z 24006KT 15SM FEW020 BKN087 M14/M18 A2962 RMK SC2AC3 SLP034=
CYYG;2007-02-05 12:00;METAR CYYG 051200Z 24006KT 15SM FEW020 BKN081 M13/M19 A2962 RMK SC2AS5 SLP034=
CYYG;2007-02-05 13:00;METAR CYYG 051300Z 27015G20KT 15SM FEW020 BKN070 M13/M19 A2961 RMK SC2AS5 SLP030=
CYYG;2007-02-05 14:00;METAR CYYG 051400Z 27014G20KT 15SM SCT030 BKN070 M13/M20 A2961 RMK SC3AS3 SLP031=
CYYG;2007-02-05 14:22;SPECI CYYG 051422Z 27015G20KT 15SM -SHSN DRSN SCT033 BKN070 M14/ RMK SC4AC2=
CYYG;2007-02-05 15:00;METAR CYYG 051500Z 27015G22KT 15SM DRSN FEW040 SCT070 BKN250 M14/M22 A2959 RMK SC2AC2CI1 SLP023=
CYYG;2007-02-05 16:00;METAR CYYG 051600Z 26017KT 15SM DRSN FEW040 FEW070 BKN250 M14/M24 A2956 RMK SC2AC1CI1 SLP015=
CYYG;2007-02-05 17:00;METAR CYYG 051700Z 27019G24KT 15SM DRSN SCT034 SCT055 BKN220 M14/M24 A2954 RMK SC3SC1CI2 SLP008=
CYYG;2007-02-05 18:00;METAR CYYG 051800Z 28015G22KT 15SM DRSN SCT035 SCT055 BKN220 M14/M25 A2952 RMK SC3SC1CI2 SLP001=
CYYG;2007-02-05 19:00;METAR CYYG 051900Z 26011G20KT 15SM DRSN VCSH SCT029 BKN230 M14/M24 A2951 RMK SC4CI2 SLP998=
CYYG;2007-02-05 22:00;METAR CYYG 052200Z 28012G17KT 15SM DRSN FEW030 FEW230 M16/M27 A2952 RMK SC1CI1 SLP999=
CYYG;2007-02-05 23:00;METAR CYYG 052300Z 27010G18KT 15SM DRSN FEW030 M16/M26 A2953 RMK SC1 SLP005=
CYYG;2007-02-05 23:29;SPECI CYYG 052329Z 27015G21KT 15SM -SHSN DRSN SCT025 M17/ RMK SC4=
CYYG;2007-02-06 00:00;METAR CYYG 060000Z 27009G15KT 15SM -SHSN DRSN SCT025 M17/M25 A2955 RMK SC4 SLP009=
CYYG;2007-02-06 00:27;SPECI CYYG 060027Z 27016G21KT 15SM DRSN SCT025 M18/ RMK SC4=
CYYG;2007-02-06 01:00;METAR CYYG 060100Z CCA 28012G20KT 15SM SCT025 M19/M28 A2956 RMK SC4 SLP014=
CYYG;2007-02-06 03:00;METAR CYYG 060300Z 28011KT 15SM SCT027 M20/M28 A2957 RMK SC4 SLP017=
CYYG;2007-02-06 04:00;METAR CYYG NIL=
CYYG;2007-02-06 05:00;METAR CYYG 060500Z 27014G21KT 15SM FEW025 FEW250 M21/M28 A2958 RMK SC2CI1 SLP023=
CYYG;2007-02-06 06:00;METAR CYYG 060600Z 27015KT 15SM SCT025 SCT250 M21/M28 A2959 RMK SC3CI1 SLP026=
CYYG;2007-02-06 07:00;METAR CYYG 060700Z 26012G17KT 15SM SCT025 SCT250 M21/M29 A2960 RMK SC3CI1 SLP028=
CYYG;2007-02-06 08:00;METAR CYYG 060800Z 26015KT 15SM FEW025 FEW250 M22/M29 A2960 RMK SC2CI1 SLP030=
CYYG;2007-02-06 09:00;METAR CYYG 060900Z 26013KT 15SM FEW025 FEW250 M22/M29 A2961 RMK SC1CI2 SLP033=
CYYG;2007-02-06 10:00;METAR CYYG NIL=
CYYG;2007-02-06 11:00;METAR CYYG 061100Z 25011G17KT 15SM FEW250 M21/M28 A2963 RMK CI1 SLP037=
CYYG;2007-02-06 12:00;METAR CYYG 061200Z 26012G17KT 15SM DRSN FEW040 M21/M28 A2964 RMK SC1 SLP041=
CYYG;2007-02-06 13:00;METAR CYYG 061300Z 26013G20KT 15SM DRSN FEW040 M20/M27 A2964 RMK SC1 SLP042=
CYYG;2007-02-06 15:00;METAR CYYG 061500Z 27016G24KT 15SM DRSN FEW030 M18/M25 A2963 RMK SC1 SLP040=
CYYG;2007-02-06 16:00;METAR CYYG 061600Z 27014G19KT 15SM DRSN BKN025 M17/M24 A2962 RMK SC2 SLP036=
CYYG;2007-02-06 18:00;METAR CYYG 061800Z 25013KT 15SM DRSN FEW031 BKN250 M15/M23 A2961 RMK SC2CI1 SLP031=
CYYG;2007-02-06 19:00;METAR CYYG 061900Z 26015KT 15SM DRSN FEW031 BKN250 M15/M24 A2960 RMK SC1CI1 SLP028=
CYYG;2007-02-06 20:00;METAR CYYG 062000Z 26011G18KT 15SM FEW029 BKN260 M15/M24 A2960 RMK SC1CI2 SLP029=
CYYG;2007-02-06 21:00;METAR CYYG 062100Z 26007KT 15SM FEW029 BKN250 M15/M24 A2960 RMK SC1CI2 SLP030=
CYYG;2007-02-06 22:00;METAR CYYG 062200Z 24007KT 15SM FEW020 BKN250 M15/M24 A2961 RMK SC2CI1 SLP033=
CYYG;2007-02-06 23:00;METAR CYYG NIL=
CYYG;2007-02-07 00:00;METAR CYYG 070000Z 25006KT 15SM FEW025 SCT250 M15/M23 A2964 RMK SC1CI2 SLP041=
CYYG;2007-02-07 01:00;METAR CYYG 070100Z 26006KT 15SM FEW250 M16/M23 A2966 RMK CI1 SLP048=
CYYG;2007-02-07 02:00;METAR CYYG 070200Z 26006KT 15SM FEW250 M16/M23 A2967 RMK CI1 SLP051=
CYYG;2007-02-07 03:00;METAR CYYG 070300Z 25006KT 15SM FEW250 M16/M23 A2966 RMK CI1 SLP050=
CYYG;2007-02-07 04:00;METAR CYYG 070400Z 26009KT 15SM SCT250 M16/M23 A2967 RMK CI1 SLP051=
CYYG;2007-02-07 05:00;METAR CYYG 070500Z 25007KT 15SM FEW250 M16/M23 A2966 RMK CI1 SLP048=
CYYG;2007-02-07 06:00;METAR CYYG 070600Z 25005KT 15SM FEW250 M16/M22 A2966 RMK CI1 SLP050=
CYYG;2007-02-07 07:00;METAR CYYG 070700Z 25009KT 15SM FEW250 M16/M22 A2967 RMK CI1 SLP051=
CYYG;2007-02-07 09:00;METAR CYYG 070900Z 25006KT 15SM FEW250 M16/M23 A2968 RMK CI1 SLP055=
CYYG;2007-02-07 10:00;METAR CYYG NIL=
CYYG;2007-02-07 11:00;METAR CYYG 071100Z 27007KT 15SM FEW250 M16/M23 A2969 RMK CI1 SLP058=
CYYG;2007-02-07 12:00;METAR CYYG 071200Z 27010KT 15SM FEW025 M16/M22 A2969 RMK SC1 SLP059=
CYYG;2007-02-07 13:00;METAR CYYG 071300Z 29010KT 15SM FEW025 M16/M22 A2969 RMK SC1 SLP059=
CYYG;2007-02-07 15:00;METAR CYYG 071500Z 28010G15KT 15SM FEW030 FEW250 M13/M21 A2969 RMK SC1CI1 SLP060=
CYYG;2007-02-07 16:00;METAR CYYG 071600Z 29011KT 15SM FEW030 FEW270 M12/M21 A2967 RMK SC1CI1 SLP051=
CYYG;2007-02-07 17:00;METAR CYYG 071700Z 30009KT 15SM FEW030 FEW120 SCT270 M12/M20 A2964 RMK SC1AC1CI2 SLP041=
CYYG;2007-02-07 18:00;METAR CYYG 071800Z 28007KT 15SM FEW030 BKN270 M12/M22 A2960 RMK SC1CI2 SLP027=
CYYG;2007-02-07 19:00;METAR CYYG 071900Z 27007KT 15SM FEW030 SCT270 M11/M21 A2958 RMK CU1CI1 SLP019=
CYYG;2007-02-07 20:00;METAR CYYG 072000Z 32005KT 15SM FEW030 SCT270 M12/M22 A2957 RMK SC1CI1 SLP018=
CYYG;2007-02-07 21:00;METAR CYYG 072100Z 30005KT 15SM FEW030 BKN200 M12/M23 A2958 RMK SC1CS6 SLP021=
CYYG;2007-02-07 22:00;METAR CYYG 072200Z 00000KT 15SM FEW030 BKN200 M14/M22 A2958 RMK SC1CS6 SLP019=
CYYG;2007-02-07 23:00;METAR CYYG 072300Z 21003KT 15SM BKN140 BKN200 M13/M22 A2958 RMK AC6CS2 SLP019=
CYYG;2007-02-08 00:00;METAR CYYG 080000Z 23005KT 15SM BKN120 M14/M21 A2958 RMK AC5 SLP020=
CYYG;2007-02-08 02:00;METAR CYYG 080200Z 28007KT 15SM SKC M14/M22 A2959 RMK SLP023=
CYYG;2007-02-08 03:00;METAR CYYG 080300Z 29008KT 15SM SKC M14/M23 A2959 RMK SLP023=
CYYG;2007-02-08 04:00;METAR CYYG 080400Z 28007KT 15SM FEW200 M15/M24 A2958 RMK CI1 SLP022=
CYYG;2007-02-08 05:00;METAR CYYG 080500Z 28007KT 15SM FEW200 M16/M24 A2959 RMK CI1 SLP023=
CYYG;2007-02-08 06:00;METAR CYYG 080600Z 27006KT 15SM SKC M16/M23 A2958 RMK SLP022=
CYYG;2007-02-08 08:00;METAR CYYG 080800Z 27007KT 15SM SKC M18/M22 A2957 RMK SLP018=
CYYG;2007-02-08 10:00;METAR CYYG NIL=
CYYG;2007-02-08 11:00;METAR CYYG 081100Z 26006KT 15SM FEW250 M18/M23 A2957 RMK CI1 SLP017=
CYYG;2007-02-08 12:00;METAR CYYG 081200Z 24005KT 15SM FEW030 BKN140 BKN250 M18/M23 A2957 RMK SC1AC5CI0 SLP017=
CYYG;2007-02-08 13:00;METAR CYYG 081300Z 26007KT 15SM FEW020 FEW140 BKN250 M17/M22 A2957 RMK SC1AC1CI2 SLP016=
CYYG;2007-02-08 14:00;METAR CYYG 081400Z 26008KT 15SM FEW020 FEW140 BKN250 M16/M22 A2956 RMK SC1AC1CI2 SLP015=
CYYG;2007-02-08 15:00;METAR CYYG 081500Z 25007KT 15SM FEW020 FEW140 BKN250 M15/M21 A2955 RMK CU1AC1CI0 SLP009=
CYYG;2007-02-08 16:00;METAR CYYG 081600Z 24013KT 15SM FEW025 BKN250 M14/M21 A2953 RMK CU1CI1 SLP003=
CYYG;2007-02-08 17:00;METAR CYYG 081700Z 25011KT 15SM FEW034 SCT250 M13/M21 A2949 RMK CU1CI1 SLP990=
CYYG;2007-02-08 18:00;METAR CYYG 081800Z 27014KT 15SM FEW035 BKN250 M13/M22 A2946 RMK CU1CS2 SLP981=
CYYG;2007-02-08 19:00;METAR CYYG 081900Z 26011KT 15SM FEW035 BKN250 M13/M22 A2945 RMK CU1CS4 SLP977=
CYYG;2007-02-08 20:00;METAR CYYG 082000Z 25006KT 15SM FEW034 OVC250 M13/M22 A2944 RMK CU1CS6 SLP974=
CYYG;2007-02-08 21:00;METAR CYYG 082100Z 27003KT 15SM FEW034 OVC200 M13/M21 A2943 RMK CU1CS7 SLP969=
CYYG;2007-02-08 22:00;METAR CYYG 082200Z 00000KT 15SM FEW040 OVC200 M14/M21 A2943 RMK SC1CS6 SLP970=
CYYG;2007-02-09 00:00;METAR CYYG 090000Z 30008KT 2 1/2SM -SHSN BKN009 OVC027 M14/M18 A2946 RMK SF6SC2 SLP980=
CYYG;2007-02-09 00:14;SPECI CYYG 090014Z 29008KT 6SM -SHSN BKN033 OVC052 M14/ RMK SC6SC2=
CYYG;2007-02-09 01:00;METAR CYYG 090100Z 29012G17KT 15SM OVC055 M14/M22 A2946 RMK SC8 SLP979=
CYYG;2007-02-09 02:00;METAR CYYG 090200Z 27005KT 15SM FEW070 M16/M24 A2947 RMK AC1 SLP983=
CYYG;2007-02-09 03:00;METAR CYYG 090300Z 26005KT 15SM FEW035 FEW200 M16/M24 A2946 RMK SC1CI1 SLP981=
CYYG;2007-02-09 05:00;METAR CYYG 090500Z 27006KT 15SM FEW030 M16/M24 A2947 RMK SC2 SLP983=
CYYG;2007-02-09 06:00;METAR CYYG 090600Z 25008KT 15SM SKC M16/M22 A2945 RMK SLP978=
CYYG;2007-02-09 07:00;METAR CYYG 090700Z 26011KT 15SM SKC M16/M23 A2944 RMK SLP974=
CYYG;2007-02-09 08:00;METAR CYYG 090800Z 27011KT 15SM SKC M16/M23 A2943 RMK SLP970=
CYYG;2007-02-09 10:00;METAR CYYG 091000Z 25009KT 15SM SKC M16/M23 A2944 RMK SLP973=
CYYG;2007-02-09 11:00;METAR CYYG 091100Z 24006KT 15SM FEW250 M17/M22 A2944 RMK CI1 SLP972=
CYYG;2007-02-09 13:00;METAR CYYG 091300Z 25009G15KT 15SM SCT250 M14/M21 A2943 RMK CI1 SLP971=
CYYG;2007-02-09 14:00;METAR CYYG 091400Z 27013KT 15SM FEW250 M13/M20 A2941 RMK CI1 SLP963=
CYYG;2007-02-09 15:00;METAR CYYG 091500Z 27011G18KT 15SM FEW025 FEW250 M12/M21 A2940 RMK CU1CI1 SLP961=
CYYG;2007-02-09 17:00;METAR CYYG 091700Z 28010G17KT 15SM FEW025 FEW042 SCT250 M12/M20 A2939 RMK CU1SC1CI1 SLP956=
CYYG;2007-02-09 18:00;METAR CYYG 091800Z 26012G17KT 15SM FEW040 SCT250 M11/M20 A2938 RMK SC1CI1 SLP953=
CYYG;2007-02-09 19:00;METAR CYYG 091900Z 26011KT 15SM FEW040 SCT250 M11/M21 A2938 RMK SC1CI1 SLP954=
CYYG;2007-02-09 20:00;METAR CYYG 092000Z 27012KT 15SM FEW040 BKN250 M11/M21 A2939 RMK SC1CI2 SLP958=
CYYG;2007-02-09 21:00;METAR CYYG 092100Z 28008KT 15SM FEW040 BKN250 M12/M21 A2941 RMK SC1CI1 SLP963=
CYYG;2007-02-09 22:00;METAR CYYG 092200Z 27005KT 15SM FEW040 SCT250 M13/M21 A2944 RMK SC1CI1 SLP973=
CYYG;2007-02-09 23:00;METAR CYYG 092300Z 24003KT 15SM FEW040 FEW250 M13/M21 A2947 RMK SC1CI1 SLP982=
CYYG;2007-02-10 01:00;METAR CYYG 100100Z 24005KT 15SM FEW040 FEW120 M14/M21 A2950 RMK SC1AC1 SLP995=
CYYG;2007-02-10 03:00;METAR CYYG 100300Z 26006KT 15SM FEW110 M14/M21 A2953 RMK AC1 SLP005=
CYYG;2007-02-10 05:00;METAR CYYG 100500Z 27009KT 15SM FEW050 BKN070 M13/M20 A2956 RMK SC1AC4 SLP013=
CYYG;2007-02-10 06:00;METAR CYYG 100600Z 26009KT 15SM FEW070 FEW200 M13/M19 A2958 RMK AC1CI1 SLP022=
CYYG;2007-02-10 07:00;METAR CYYG 100700Z 25008KT 15SM FEW070 SCT200 M14/M19 A2960 RMK AC1CI1 SLP027=
CYYG;2007-02-10 08:00;METAR CYYG 100800Z 25009KT 15SM FEW070 SCT220 M14/M20 A2961 RMK AC1CI1 SLP030=
CYYG;2007-02-10 09:00;METAR CYYG 100900Z 26009KT 15SM FEW041 SCT070 BKN200 M13/M19 A2963 RMK SC2AC1CI1 SLP036=
CYYG;2007-02-10 11:00;METAR CYYG 101100Z 23006KT 15SM SCT200 M14/M20 A2967 RMK CI2 SLP051=
CYYG;2007-02-10 12:00;METAR CYYG 101200Z 24008KT 15SM FEW160 SCT240 M15/M20 A2970 RMK AC1CI1 SLP060=
CYYG;2007-02-10 13:00;METAR CYYG 101300Z 26010KT 15SM FEW059 SCT240 M13/M18 A2972 RMK SC1CI0 SLP067=
CYYG;2007-02-10 14:00;METAR CYYG 101400Z 27010KT 15SM FEW060 SCT260 M12/M18 A2972 RMK SC1CI1 SLP068=
CYYG;2007-02-10 16:00;METAR CYYG 101600Z 30010KT 15SM FEW035 BKN270 M10/M16 A2974 RMK SC1CI2 SLP073=
CYYG;2007-02-10 17:00;METAR CYYG 101700Z 29006KT 15SM FEW035 BKN270 M09/M16 A2973 RMK SC1CI2 SLP072=
CYYG;2007-02-10 18:00;METAR CYYG 101800Z 24008KT 15SM SCT032 BKN270 M09/M15 A2974 RMK SC3CI2 SLP073=
CYYG;2007-02-10 19:00;METAR CYYG 101900Z 27006KT 15SM SCT029 BKN270 M08/M15 A2974 RMK SC4CI2 SLP074=
CYYG;2007-02-10 20:00;METAR CYYG 102000Z 27008KT 15SM FEW029 BKN270 M09/M16 A2975 RMK SC2CI4 SLP079=
CYYG;2007-02-10 21:00;METAR CYYG NIL=
CYYG;2007-02-10 22:00;METAR CYYG 102200Z 29002KT 15SM FEW031 SCT120 BKN250 M10/M16 A2977 RMK SC2AC2CI4 SLP086=
CYYG;2007-02-10 23:00;METAR CYYG 102300Z 00000KT 12SM SCT047 BKN069 OVC260 M10/M16 A2979 RMK SC3AC3CI2 SLP091=
CYYG;2007-02-11 00:00;METAR CYYG 110000Z 20002KT 15SM FEW042 BKN160 OVC250 M10/M16 A2979 RMK SC2AC3CI2 SLP093=
CYYG;2007-02-11 02:00;METAR CYYG 110200Z 19002KT 15SM OVC067 M11/M15 A2980 RMK AC8 SLP095=
CYYG;2007-02-11 04:00;METAR CYYG NIL=
CYYG;2007-02-11 04:26;SPECI CYYG 110426Z 23002KT 15SM -SHSN SCT048 OVC064 M10/ RMK SC3SC5=
CYYG;2007-02-11 05:00;METAR CYYG 110500Z 26005KT 15SM -SHSN BKN038 OVC064 M09/M12 A2981 RMK SC5SC3 SLP099=
CYYG;2007-02-11 06:00;METAR CYYG 110600Z 27005KT 15SM OVC054 M09/M12 A2982 RMK SC8 SLP103=
CYYG;2007-02-11 07:00;METAR CYYG 110700Z 27005KT 15SM FEW054 FEW130 M10/M13 A2984 RMK SC2AC1 SLP109=
CYYG;2007-02-11 09:00;METAR CYYG 110900Z 28010KT 15SM -SHSN FEW014 FEW030 SCT120 M12/M14 A2987 RMK SC1SC2AC1 SLP119=
CYYG;2007-02-11 09:49;SPECI CYYG 110949Z 28007KT 15SM FEW040 M12/ RMK SC2=
CYYG;2007-02-11 11:00;METAR CYYG 111100Z 28004KT 15SM FEW040 M13/M18 A2991 RMK SC2 SLP131=
CYYG;2007-02-11 12:00;METAR CYYG 111200Z 29010KT 15SM FEW035 M14/M19 A2993 RMK SC2 SLP141=
CYYG;2007-02-11 13:00;METAR CYYG 111300Z 29010G18KT 15SM FEW035 M14/M20 A2995 RMK SC1 SLP145=
CYYG;2007-02-11 14:00;METAR CYYG 111400Z 29018KT 15SM FEW039 M13/M20 A2996 RMK SC2 SLP148=
CYYG;2007-02-11 15:00;METAR CYYG 111500Z 29016G24KT 15SM FEW038 M13/M20 A2996 RMK SC2 SLP149=
CYYG;2007-02-11 16:00;METAR CYYG 111600Z 29017G24KT 15SM FEW019 FEW037 M12/M20 A2995 RMK SC1SC1 SLP147=
CYYG;2007-02-11 17:00;METAR CYYG 111700Z 30014G19KT 15SM FEW021 FEW040 M12/M19 A2995 RMK SC1SC1 SLP145=
CYYG;2007-02-11 18:00;METAR CYYG 111800Z 31013G19KT 15SM FEW040 FEW270 M11/M20 A2995 RMK SC1CI0 SLP144=
CYYG;2007-02-11 19:00;METAR CYYG 111900Z 30012KT 15SM FEW040 M10/M20 A2995 RMK SC1 SLP144=
CYYG;2007-02-11 20:00;METAR CYYG 112000Z 27011KT 15SM FEW040 FEW270 M10/M20 A2995 RMK SC1CI0 SLP146=
CYYG;2007-02-11 22:00;METAR CYYG 112200Z 27005KT 15SM FEW035 FEW270 M11/M20 A2996 RMK SC1CI0 SLP149=
CYYG;2007-02-11 23:00;METAR CYYG 112300Z 27005KT 15SM FEW035 FEW260 M12/M20 A2997 RMK SC1CI0 SLP154=
CYYG;2007-02-12 00:00;METAR CYYG 120000Z 27006KT 15SM SKC M12/M20 A2998 RMK SLP158=
CYYG;2007-02-12 01:00;METAR CYYG 120100Z 25005KT 15SM SKC M12/M20 A2998 RMK SLP158=
CYYG;2007-02-12 02:00;METAR CYYG 120200Z 25006KT 15SM SKC M12/M20 A2998 RMK SLP157=
CYYG;2007-02-12 03:00;METAR CYYG 120300Z 26007KT 15SM SKC M13/M19 A2998 RMK SLP156=
CYYG;2007-02-12 04:00;METAR CYYG 120400Z 28011KT 15SM SKC M12/M19 A2997 RMK SLP152=
CYYG;2007-02-12 05:00;METAR CYYG 120500Z 26007KT 15SM SKC M13/M19 A2997 RMK SLP152=
CYYG;2007-02-12 07:00;METAR CYYG 120700Z 23006KT 15SM SKC M14/M20 A2994 RMK SLP144=
CYYG;2007-02-12 08:00;METAR CYYG 120800Z 23006KT 15SM SCT200 M14/M20 A2991 RMK CI1 SLP134=
CYYG;2007-02-12 09:00;METAR CYYG 120900Z 23005KT 15SM BKN200 M13/M20 A2989 RMK CI2 SLP125=
CYYG;2007-02-12 10:00;METAR CYYG 121000Z 24006KT 15SM BKN200 M12/M19 A2987 RMK CI2 SLP118=
CYYG;2007-02-12 11:00;METAR CYYG 121100Z 24006KT 15SM BKN220 M11/M18 A2985 RMK CI2 SLP111=
CYYG;2007-02-12 12:00;METAR CYYG 121200Z 22003KT 15SM BKN080 OVC200 M11/M17 A2984 RMK AS6CS2 SUN DIMLY VISBL SLP107=
CYYG;2007-02-12 13:00;METAR CYYG 121300Z 24004KT 15SM OVC070 M09/M15 A2983 RMK AS8 VIRGA SUN DIMLY VISBL SLP105=
CYYG;2007-02-12 13:49;SPECI CYYG 121349Z 27005KT 15SM -SHSN OVC040 M08/ RMK SC8 SUN VISBL=
CYYG;2007-02-12 14:46;SPECI CYYG 121446Z 25012G18KT 15SM BKN040 M06/ RMK SC6=
CYYG;2007-02-12 15:00;METAR CYYG 121500Z 25013KT 15SM FEW015 BKN045 M06/M12 A2978 RMK CU1SC4 SLP089=
CYYG;2007-02-12 17:00;METAR CYYG 121700Z 27010G17KT 15SM FEW025 M05/M12 A2973 RMK CU1 SLP070=
CYYG;2007-02-12 19:00;METAR CYYG 121900Z 29014G20KT 15SM FEW036 FEW050 SCT270 M05/M13 A2970 RMK CF2SC1CI0 CU ASOCTD SLP061=
CYYG;2007-02-12 20:00;METAR CYYG 122000Z 28013G19KT 15SM FEW040 M05/M13 A2970 RMK CU2 SLP060=
CYYG;2007-02-12 21:00;METAR CYYG 122100Z 27008G15KT 15SM VCSH FEW050 M06/M11 A2971 RMK CU2 SLP064=
CYYG;2007-02-12 23:00;METAR CYYG 122300Z 28007KT 15SM FEW045 M07/M13 A2972 RMK CU2 SLP069=
CYYG;2007-02-13 00:00;METAR CYYG 130000Z 28012G18KT 15SM FEW050 BKN070 M06/M13 A2974 RMK CU2AC5 SLP074=
CYYG;2007-02-13 01:00;METAR CYYG 130100Z 28015G25KT 15SM FEW050 BKN080 M07/M14 A2974 RMK CU2AC5 SLP076=
CYYG;2007-02-13 02:00;METAR CYYG 130200Z 29017KT 15SM FEW050 SCT080 M08/M14 A2975 RMK CU2AC2 SLP078=
CYYG;2007-02-13 02:16;SPECI CYYG 130216Z 28013G21KT 15SM -SHSN FEW020 BKN080 M09/ RMK SC2AC2=
CYYG;2007-02-13 02:43;SPECI CYYG 130243Z 28017G22KT 15SM FEW020 SCT040 BKN080 M10/ RMK SC2SC2AC2=
CYYG;2007-02-13 03:00;METAR CYYG 130300Z 28015G27KT 15SM FEW020 FEW040 SCT080 M11/M20 A2977 RMK SC2SC1AC2 SLP084=
CYYG;2007-02-13 04:00;METAR CYYG 130400Z 29013KT 15SM FEW020 M12/M19 A2978 RMK SC2 SLP088=
CYYG;2007-02-13 05:00;METAR CYYG 130500Z 28015G21KT 15SM FEW020 M13/M20 A2979 RMK SC2 SLP091=
CYYG;2007-02-13 06:00;METAR CYYG NIL=
CYYG;2007-02-13 07:00;METAR CYYG 130700Z 29015G20KT 15SM SKC M15/M21 A2981 RMK SLP100=
CYYG;2007-02-13 08:00;METAR CYYG 130800Z 29018KT 15SM SKC M15/M22 A2983 RMK SLP106=
CYYG;2007-02-13 09:00;METAR CYYG 130900Z 28011G20KT 15SM SKC M16/M23 A2984 RMK SLP109=
CYYG;2007-02-13 10:00;METAR CYYG 131000Z 28014G21KT 15SM SKC M16/M23 A2988 RMK SLP121=
CYYG;2007-02-13 11:00;METAR CYYG 131100Z 29014G20KT 15SM FEW020 M16/M23 A2991 RMK SC1 SLP131=
CYYG;2007-02-13 12:00;METAR CYYG 131200Z 28013KT 15SM FEW020 M17/M23 A2994 RMK SC1 SLP142=
CYYG;2007-02-13 13:00;METAR CYYG 131300Z 29014G20KT 15SM FEW020 M16/M23 A2997 RMK SC1 SLP153=
CYYG;2007-02-13 14:00;METAR CYYG 131400Z 28012G18KT 15SM FEW020 FEW040 M15/M23 A2998 RMK CF1SC1 SLP156=
CYYG;2007-02-13 15:00;METAR CYYG 131500Z 29013G21KT 15SM FEW020 FEW040 M15/M22 A3001 RMK CF1SC1 SLP166=
CYYG;2007-02-13 16:30;SPECI CYYG 131630Z 28012KT 15SM FEW020 BKN034 M13/ RMK CF1SC5=
CYYG;2007-02-13 18:00;METAR CYYG 131800Z 28009KT 15SM FEW020 SCT035 M12/M19 A3005 RMK CF1SC3 SLP180=
CYYG;2007-02-13 20:00;METAR CYYG 132000Z 27008KT 15SM FEW030 M11/M18 A3009 RMK SC1 SLP194=
CYYG;2007-02-13 22:00;METAR CYYG 132200Z 29006KT 15SM FEW030 FEW300 M12/M19 A3012 RMK SC1CI1 SLP202=
CYYG;2007-02-13 23:00;METAR CYYG NIL=
CYYG;2007-02-14 01:00;METAR CYYG 140100Z 24006KT 15SM FEW300 M12/M19 A3018 RMK CI1 SLP224=
CYYG;2007-02-14 02:00;METAR CYYG 140200Z 25007KT 15SM SKC M12/M19 A3020 RMK SLP230=
CYYG;2007-02-14 03:00;METAR CYYG 140300Z 28006KT 15SM SKC M12/M18 A3019 RMK SLP228=
CYYG;2007-02-14 04:00;METAR CYYG 140400Z 27006KT 15SM SKC M13/M18 A3020 RMK SLP232=
CYYG;2007-02-14 05:00;METAR CYYG 140500Z 26006KT 15SM SKC M13/M18 A3023 RMK SLP241=
CYYG;2007-02-14 06:00;METAR CYYG 140600Z 29004KT 15SM SKC M13/M18 A3023 RMK SLP242=
CYYG;2007-02-14 08:00;METAR CYYG 140800Z 32005KT 15SM SKC M13/M17 A3024 RMK SLP245=
CYYG;2007-02-14 09:00;METAR CYYG 140900Z 30004KT 15SM SCT240 M13/M17 A3025 RMK CI4 SLP246=
CYYG;2007-02-14 12:00;METAR CYYG 141200Z 34002KT 15SM FEW030 OVC270 M14/M17 A3025 RMK SC1CS6 SLP247=
CYYG;2007-02-14 13:00;METAR CYYG 141300Z 00000KT 15SM FEW018 OVC270 M12/M16 A3024 RMK SC1CS5 SLP243=
CYYG;2007-02-14 14:00;METAR CYYG 141400Z 17003KT 15SM FEW018 OVC270 M09/M12 A3027 RMK SC2CS6 SLP253=
CYYG;2007-02-14 15:00;METAR CYYG 141500Z 17004KT 15SM FEW018 OVC270 M07/M11 A3024 RMK SC1CS8 SUN VISBL SLP244=
CYYG;2007-02-14 16:00;METAR CYYG 141600Z 15004KT 15SM FEW130 OVC270 M07/M11 A3020 RMK AC1CS6 SLP231=
CYYG;2007-02-14 17:00;METAR CYYG 141700Z 11006KT 15SM BKN120 OVC270 M05/M10 A3015 RMK AC5CS2 VIRGA SLP213=
CYYG;2007-02-14 18:00;METAR CYYG 141800Z 12008KT 15SM BKN095 OVC160 M03/M08 A3012 RMK AC5AS3 SLP201=
CYYG;2007-02-14 19:00;METAR CYYG 141900Z 09009KT 15SM OVC100 M03/M08 A3008 RMK AS8 SLP189=
CYYG;2007-02-14 21:00;METAR CYYG 142100Z 11010KT 15SM OVC090 M04/M09 A3004 RMK AS8 VIRGA SLP176=
CYYG;2007-02-14 22:00;METAR CYYG 142200Z 11010G15KT 15SM OVC090 M04/M08 A3001 RMK AS8 VIRGA SLP164=
CYYG;2007-02-14 23:00;METAR CYYG 142300Z 13011G17KT 15SM OVC070 M04/M07 A2996 RMK AS8 VIRGA SLP149=
CYYG;2007-02-15 00:00;METAR CYYG 150000Z 14014KT 12SM BKN037 OVC053 M04/M07 A2992 RMK SC5SC3 SLP136=
CYYG;2007-02-15 00:12;SPECI CYYG 150012Z 13013KT 8SM -SN BKN033 OVC046 M04/ RMK SC6SC2=
CYYG;2007-02-15 00:48;SPECI CYYG 150048Z 12019G25KT 10SM BKN028 OVC043 M04/ RMK SC6SC2=
CYYG;2007-02-15 01:00;METAR CYYG 150100Z 12018KT 10SM OVC032 M04/M07 A2983 RMK SC8 /PRESFR/ SLP104=
CYYG;2007-02-15 01:19;SPECI CYYG 150119Z 11017G25KT 2SM -SHSN BKN013 OVC026 M04/ RMK SF5SC3=
CYYG;2007-02-15 02:00;METAR CYYG 150200Z 11016G22KT 4SM -SHSN BKN012 OVC059 M04/M06 A2972 RMK SF6SC2 /PRESFR/ SLP068=
CYYG;2007-02-15 04:00;METAR CYYG 150400Z 11025G32KT 4SM -SHSN OVC009 M03/M05 A2953 RMK SF8 /PRESFR/ SLP003=
CYYG;2007-02-15 04:47;SPECI CYYG 150447Z 11024G31KT 1 1/2SM R03/4000VP6000FT/U -SHSN OVC009 M02/ RMK SF8=
CYYG;2007-02-15 05:00;METAR CYYG 150500Z 11026G37KT 1 1/2SM R03/2800V5000FT/U -SNPL OVC008 M02/M04 A2941 RMK SF8 /PRESFR/ SLP961=
CYYG;2007-02-15 05:53;SPECI CYYG 150553Z 13022G39KT 3SM -SN OVC009 M01/ RMK SF8=
CYYG;2007-02-15 06:00;METAR CYYG 150600Z 13027G40KT 3SM -SN OVC008 M01/M03 A2935 RMK SF8 /PRESFR/ SLP940=
CYYG;2007-02-15 06:51;SPECI CYYG 150651Z 12029G41KT 4SM -FZRA OVC011 M00/ RMK SF8=
CYYG;2007-02-15 08:00;METAR CYYG 150800Z 13024G33KT 8SM -FZRA OVC010 00/M02 A2920 RMK SF8 SLP889=
CYYG;2007-02-15 08:43;SPECI CYYG 150843Z 13025G40KT 4SM -RA BR OVC010 01/ RMK SF8=
CYYG;2007-02-15 09:00;METAR CYYG 150900Z 13026G38KT 4SM -RA BR OVC010 01/M01 A2912 RMK SF8 /PRESFR/ SLP863=
CYYG;2007-02-15 10:00;METAR CYYG 151000Z 14022G36KT 4SM -RA BR OVC009 01/M00 A2909 RMK SF8 SLP854=
CYYG;2007-02-15 10:50;SPECI CYYG 151050Z 13021G30KT 10SM OVC008 01/ RMK SF8=
CYYG;2007-02-15 11:00;METAR CYYG 151100Z 13021G30KT 10SM OVC007 01/00 A2902 RMK SF8 SLP829=
CYYG;2007-02-15 11:42;SPECI CYYG 151142Z 13017G26KT 5SM BR OVC005 02/ RMK SF8=
CYYG;2007-02-15 12:00;METAR CYYG NIL=
CYYG;2007-02-15 12:49;SPECI CYYG 151249Z 14017G26KT 6SM -DZ BR OVC004 02/ RMK SF8=
CYYG;2007-02-15 13:00;METAR CYYG 151300Z 14015G21KT 5SM -DZ BR OVC006 02/01 A2897 RMK SF8 SLP811=
CYYG;2007-02-15 13:50;SPECI CYYG 151350Z 19018G25KT 15SM BKN007 BKN026 02/ RMK SF6SC2=
CYYG;2007-02-15 14:00;METAR CYYG 151400Z 18018G25KT 15SM BKN009 BKN023 02/00 A2895 RMK SF5SC2 SLP804=
CYYG;2007-02-15 14:34;SPECI CYYG 151434Z 20021G28KT 15SM SCT009 BKN022 02/ RMK SF4SC3=
CYYG;2007-02-15 15:00;METAR CYYG 151500Z 20020G26KT 15SM SCT009 BKN027 01/M02 A2894 RMK SF3SC4 SLP802=
CYYG;2007-02-15 15:52;SPECI CYYG 151552Z 19023KT 10SM -SHSN OVC018 01/ RMK SC8 VIS SW 2=
CYYG;2007-02-15 16:00;METAR CYYG 151600Z 20021G30KT 15SM R03/3000VP6000FT/U -SHSN FEW010 OVC026 M00/M02 A2892 RMK SC2SC6 SLP795=
CYYG;2007-02-15 17:00;METAR CYYG 151700Z 22016G30KT 15SM -SHSN FEW010 OVC028 M00/M04 A2893 RMK SF1SC7 SLP798=
CYYG;2007-02-15 17:13;SPECI CYYG 151713Z 21026G32KT 15SM FEW010 OVC030 M00/ RMK SF1SC7=
CYYG;2007-02-15 18:00;METAR CYYG 151800Z 22022G38KT 15SM OVC027 M01/M06 A2894 RMK SC8 SLP801=
CYYG;2007-02-15 19:00;METAR CYYG 151900Z 22023G34KT 15SM OVC020 M02/M07 A2895 RMK SC8 SLP806=
CYYG;2007-02-15 20:00;METAR CYYG 152000Z 22023G36KT 15SM BKN024 M03/M08 A2899 RMK SC7 SLP820=
CYYG;2007-02-15 22:00;METAR CYYG 152200Z 23022G30KT 15SM BKN022 M05/M10 A2907 RMK SC6 SLP845=
CYYG;2007-02-15 22:13;SPECI CYYG 152213Z 22019G31KT 15SM -SHSN BKN024 M05/ RMK SC7=
CYYG;2007-02-15 23:00;METAR CYYG 152300Z 23021G30KT 15SM -SHSN FEW024 BKN042 M05/M11 A2909 RMK SC2SC2 SLP854=
CYYG;2007-02-15 23:47;SPECI CYYG 152347Z 24017G28KT 2SM R03/4000VP6000FT/D -SHSN FEW009 OVC021 M07/ RMK SC2SC6=
CYYG;2007-02-15 23:53;SPECI CYYG 152353Z 24019G28KT 4SM R03/4000VP6000FT/U -SHSN DRSN FEW009 OVC021 M07/ RMK SF2SC6=
CYYG;2007-02-16 00:00;METAR CYYG 160000Z 24019G29KT 5SM -SHSN DRSN FEW009 OVC021 M07/M10 A2912 RMK SF2SC6 SLP865=
CYYG;2007-02-16 01:00;METAR CYYG 160100Z 25019G27KT 6SM -SHSN DRSN FEW009 OVC026 M08/M12 A2916 RMK SF2SC6 SLP876=
CYYG;2007-02-16 02:00;METAR CYYG 160200Z 23014G22KT 7SM -SHSN FEW010 BKN029 M09/M13 A2917 RMK SF1SC7 SLP879=
CYYG;2007-02-16 03:00;METAR CYYG 160300Z 23017G22KT 10SM -SHSN DRSN BKN034 M10/M16 A2917 RMK SC7 SLP881=
CYYG;2007-02-16 04:00;METAR CYYG NIL=
CYYG;2007-02-16 05:00;METAR CYYG 160500Z 26012G17KT 15SM DRSN SCT035 M13/M18 A2917 RMK SC4 SLP881=
CYYG;2007-02-16 06:00;METAR CYYG 160600Z 25018G26KT 15SM DRSN SCT035 M13/M20 A2917 RMK SC4 SLP880=
CYYG;2007-02-16 07:00;METAR CYYG 160700Z 23013G21KT 15SM SCT030 M14/M20 A2917 RMK SC3 SLP879=
CYYG;2007-02-16 08:00;METAR CYYG 160800Z 24013G21KT 15SM FEW030 M15/M21 A2915 RMK SC2 SLP875=
CYYG;2007-02-16 09:00;METAR CYYG 160900Z 24014KT 15SM FEW030 M15/M21 A2915 RMK SC2 SLP874=
CYYG;2007-02-16 10:00;METAR CYYG 161000Z 24013G22KT 15SM FEW030 M15/M21 A2913 RMK SC2 SLP867=
CYYG;2007-02-16 11:00;METAR CYYG 161100Z 24016G25KT 15SM FEW030 M15/M22 A2912 RMK SC2 SLP865=
CYYG;2007-02-16 13:00;METAR CYYG 161300Z 24021G29KT 15SM FEW030 SCT250 M15/M22 A2911 RMK SC2CI1 SLP861=
CYYG;2007-02-16 14:00;METAR CYYG 161400Z 25019G31KT 15SM FEW030 SCT250 M15/M22 A2911 RMK SC1CI2 SLP860=
CYYG;2007-02-16 15:00;METAR CYYG 161500Z 25016G22KT 15SM FEW030 SCT250 M14/M20 A2909 RMK SC1CI2 SLP856=
CYYG;2007-02-16 17:00;METAR CYYG 161700Z 25022G29KT 15SM FEW030 SCT250 M12/M20 A2906 RMK SC1CI2 SLP845=
CYYG;2007-02-16 18:00;METAR CYYG 161800Z 25018G25KT 15SM FEW035 FEW150 BKN250 M12/M20 A2905 RMK SC1AC1CI2 SLP842=
CYYG;2007-02-16 20:00;METAR CYYG 162000Z 23017G22KT 15SM FEW035 FEW250 M10/M18 A2904 RMK SC1CI1 SLP838=
CYYG;2007-02-16 22:00;METAR CYYG NIL=
CYYG;2007-02-16 23:00;METAR CYYG 162300Z 26009KT 15SM FEW035 M12/M20 A2909 RMK SC2 SLP855=
CYYG;2007-02-17 01:00;METAR CYYG 170100Z 26010G16KT 15SM FEW022 BKN110 M12/M18 A2910 RMK SC2AC2 SLP858=
CYYG;2007-02-17 02:00;METAR CYYG 170200Z 26010G16KT 12SM -SHSN BKN026 M12/M17 A2909 RMK SC7 SLP855=
CYYG;2007-02-17 03:00;METAR CYYG 170300Z 26011G16KT 15SM -SHSN SCT026 BKN190 M12/M18 A2908 RMK SC3CI4 SLP852=
CYYG;2007-02-17 04:00;METAR CYYG 170400Z 25011KT 15SM -SHSN FEW026 BKN190 M12/M18 A2909 RMK SC2CI2 SLP853=
CYYG;2007-02-17 05:00;METAR CYYG 170500Z 25011G16KT 12SM -SHSN SCT027 BKN110 M12/M16 A2908 RMK SC3AC3 SLP852=
CYYG;2007-02-17 06:00;METAR CYYG 170600Z 25009KT 12SM -SHSN BKN031 M11/M16 A2909 RMK SC7 SLP854=
CYYG;2007-02-17 07:00;METAR CYYG 170700Z 26009G15KT 15SM -SHSN BKN026 M11/M15 A2910 RMK SC7 SLP857=
CYYG;2007-02-17 09:00;METAR CYYG 170900Z 27011G19KT 15SM BKN026 BKN110 M11/M16 A2912 RMK SC5AC1 OCNL -SHSN SLP864=
CYYG;2007-02-17 09:46;SPECI CYYG 170946Z 27013G19KT 15SM SCT026 BKN110 M11/ RMK SC3AC4=
CYYG;2007-02-17 10:00;METAR CYYG 171000Z CCA 28014G21KT 15SM FEW026 BKN110 M11/M16 A2914 RMK SC2AC4 SLP870=
CYYG;2007-02-17 11:00;METAR CYYG 171100Z 27011KT 15SM SCT024 BKN110 M11/M16 A2916 RMK SC3AC3 SLP878=
CYYG;2007-02-17 12:00;METAR CYYG 171200Z 29014G19KT 15SM FEW025 BKN099 M10/M16 A2918 RMK SC2AC5 SLP885=
CYYG;2007-02-17 13:00;METAR CYYG 171300Z 29014G24KT 15SM FEW025 BKN095 M10/M16 A2922 RMK SC2AC5 SLP897=
CYYG;2007-02-17 14:00;METAR CYYG 171400Z 30012G19KT 15SM FEW029 BKN095 M09/M14 A2925 RMK SC2AC4 SLP908=
CYYG;2007-02-17 15:00;METAR CYYG 171500Z 29011G20KT 15SM SCT028 BKN094 M08/M13 A2925 RMK SC3AC4 SLP909=
CYYG;2007-02-17 16:00;METAR CYYG 171600Z 28015G21KT 15SM SCT028 BKN096 M07/M12 A2927 RMK SC3AC3 SLP914=
CYYG;2007-02-17 17:00;METAR CYYG 171700Z 31014G21KT 15SM SCT028 BKN096 M06/M11 A2928 RMK SC4AC2 SLP919=
CYYG;2007-02-17 18:00;METAR CYYG 171800Z 29016G21KT 15SM BKN032 M06/M11 A2930 RMK SC7 SLP926=
CYYG;2007-02-17 19:00;METAR CYYG 171900Z 31012G17KT 15SM -SHSN OVC030 M06/M10 A2933 RMK SC8 SLP935=
CYYG;2007-02-17 20:00;METAR CYYG 172000Z 28008KT 15SM -SHSN BKN034 M06/M09 A2936 RMK SC7 SLP946=
CYYG;2007-02-17 21:00;METAR CYYG 172100Z 27005KT 15SM -SHSN SCT026 BKN036 M06/M09 A2939 RMK SC3SC4 SLP954=
CYYG;2007-02-17 23:00;METAR CYYG 172300Z 26005KT 15SM -SHSN FEW052 M06/M09 A2945 RMK SC2 SLP977=
CYYG;2007-02-18 00:00;METAR CYYG 180000Z 27004KT 15SM BKN045 M07/M09 A2948 RMK SC5 SLP987=
CYYG;2007-02-18 01:00;METAR CYYG 180100Z 29008KT 15SM FEW045 M06/M11 A2951 RMK SC2 SLP996=
CYYG;2007-02-18 02:00;METAR CYYG 180200Z 28008KT 15SM FEW045 M06/M12 A2953 RMK SC2 SLP003=
CYYG;2007-02-18 03:00;METAR CYYG 180300Z 27005KT 15SM -SHSN BKN035 M07/M11 A2955 RMK SC5 SLP010=
CYYG;2007-02-18 03:49;SPECI CYYG 180349Z 24005KT 15SM FEW030 M07/ RMK SC2=
CYYG;2007-02-18 04:00;METAR CYYG 180400Z 25005KT 15SM FEW030 M07/M11 A2957 RMK SC2 SLP017=
CYYG;2007-02-18 05:00;METAR CYYG 180500Z 23006KT 15SM FEW033 M08/M11 A2960 RMK SC2 SLP026=
CYYG;2007-02-18 06:00;METAR CYYG 180600Z 26005KT 15SM FEW033 M08/M10 A2960 RMK SC1 SLP028=
CYYG;2007-02-18 07:00;METAR CYYG 180700Z 25006KT 15SM FEW033 M08/M11 A2961 RMK SC1 SLP030=
CYYG;2007-02-18 08:00;METAR CYYG 180800Z 25005KT 15SM SKC M08/M11 A2961 RMK SLP031=
CYYG;2007-02-18 09:00;METAR CYYG 180900Z 27006KT 15SM SKC M08/M11 A2964 RMK SLP041=
CYYG;2007-02-18 10:00;METAR CYYG 181000Z 22005KT 15SM SKC M08/M11 A2965 RMK SLP043=
CYYG;2007-02-18 11:00;METAR CYYG 181100Z 24007KT 15SM SCT280 M09/M11 A2965 RMK CI1 FROIN SLP044=
CYYG;2007-02-18 12:00;METAR CYYG 181200Z CCA 22003KT 15SM BKN280 M09/M11 A2967 RMK CI2 SLP051=
CYYG;2007-02-18 13:00;METAR CYYG 181300Z 22005KT 15SM BKN280 M06/M09 A2967 RMK CI3 SLP050=
CYYG;2007-02-18 14:00;METAR CYYG 181400Z 23007KT 15SM BKN250 M05/M09 A2967 RMK CI2 SLP049=
CYYG;2007-02-18 16:00;METAR CYYG 181600Z 22010KT 15SM BKN088 BKN250 M03/M08 A2965 RMK AC5CI0 SLP043=
CYYG;2007-02-18 17:00;METAR CYYG 181700Z 20007KT 15SM BKN042 M02/M08 A2962 RMK SC6 SLP034=
CYYG;2007-02-18 18:00;METAR CYYG NIL=
CYYG;2007-02-18 19:00;METAR CYYG 181900Z 22003KT 15SM SCT035 BKN091 M01/M07 A2959 RMK SC3AC3 SLP023=
CYYG;2007-02-18 20:00;METAR CYYG 182000Z 24002KT 15SM OVC045 M01/M07 A2958 RMK SC8 SLP020=
CYYG;2007-02-18 21:00;METAR CYYG 182100Z 00000KT 15SM OVC050 M01/M06 A2956 RMK SC8 SLP014=
CYYG;2007-02-18 21:34;SPECI CYYG 182134Z 05002KT 15SM -SN BKN042 OVC067 M01/ RMK SC6AC2=
CYYG;2007-02-18 23:00;METAR CYYG 182300Z 02004KT 15SM -SN BKN024 BKN046 M02/M06 A2954 RMK SC5SC2 SLP006=
CYYG;2007-02-18 23:34;SPECI CYYG 182334Z 05005KT 15SM SCT020 BKN041 M02/ RMK SC3SC4=
CYYG;2007-02-19 00:00;METAR CYYG 190000Z 05006KT 15SM BKN045 OVC060 M02/M06 A2953 RMK SC6SC2 SLP002=
CYYG;2007-02-19 01:00;METAR CYYG 190100Z 08008KT 15SM BKN045 M03/M06 A2951 RMK SC6 SLP997=
CYYG;2007-02-19 02:00;METAR CYYG 190200Z 01005KT 15SM FEW045 M04/M07 A2950 RMK SC2 SLP992=
CYYG;2007-02-19 03:00;METAR CYYG 190300Z 04004KT 15SM BKN045 M04/M07 A2948 RMK SC6 SLP987=
CYYG;2007-02-19 04:00;METAR CYYG 190400Z 09006KT 15SM SCT045 M04/M07 A2947 RMK SC3 SLP983=
CYYG;2007-02-19 06:00;METAR CYYG 190600Z 06004KT 15SM OVC120 M05/M08 A2944 RMK AC8 FROIN SLP973=
CYYG;2007-02-19 07:30;SPECI CYYG 190730Z 08006KT 15SM BKN004 OVC120 M04/ RMK SF7AC1=
CYYG;2007-02-19 08:00;METAR CYYG 190800Z 07007KT 15SM BKN004 OVC140 M05/M06 A2942 RMK SF6AC2 FROIN SLP964=
CYYG;2007-02-19 09:00;METAR CYYG 190900Z 02007KT 12SM OVC005 M05/M06 A2942 RMK ST8 FROIN SLP963=
CYYG;2007-02-19 10:00;METAR CYYG 191000Z 02007KT 12SM OVC007 M04/M06 A2942 RMK SF8 FROIN SLP965=
CYYG;2007-02-19 10:12;SPECI CYYG 191012Z 02008KT 15SM OVC008 M04/ RMK SF8=
CYYG;2007-02-19 11:00;METAR CYYG 191100Z 02011KT 15SM FEW014 OVC110 M04/M05 A2941 RMK SC2AC6 SLP960=
CYYG;2007-02-19 12:00;METAR CYYG 191200Z 02015KT 15SM BKN010 BKN040 OVC120 M04/M06 A2941 RMK SC5SC2AC2 SLP960=
CYYG;2007-02-19 12:48;SPECI CYYG 191248Z 02017KT 10SM -SHSN BKN012 OVC025 M04/ RMK SC6SC2=
CYYG;2007-02-19 13:00;METAR CYYG 191300Z 02013G20KT 12SM -SHSN BKN011 OVC025 M04/M06 A2940 RMK SC7SC1 SLP959=
CYYG;2007-02-19 13:50;SPECI CYYG 191350Z 02017KT 4SM -SHSN DRSN OVC009 M04/ RMK SF8=
CYYG;2007-02-19 14:00;METAR CYYG 191400Z 01012G22KT 3SM -SHSN DRSN OVC009 M04/M06 A2941 RMK SF8 SLP960=
CYYG;2007-02-19 15:00;METAR CYYG 191500Z 03022G27KT 1 1/2SM -SHSN DRSN OVC009 M04/M06 A2939 RMK SF8 SLP953=
CYYG;2007-02-19 16:00;METAR CYYG 191600Z 02021G29KT 3/4SM R03/3000V4500FT/N -SHSN BLSN BKN008 OVC014 M04/M06 A2937 RMK SF6SC2 SLP949=
CYYG;2007-02-19 16:54;SPECI CYYG 191654Z 02021G27KT 2SM -SHSN BLSN BKN009 OVC018 M04/ RMK SF6SC2=
CYYG;2007-02-19 17:00;METAR CYYG 191700Z 01019G27KT 2 1/2SM -SHSN BLSN BKN009 OVC018 M04/M06 A2938 RMK SF6SC2 SLP951=
CYYG;2007-02-19 17:36;SPECI CYYG 191736Z 01019G27KT 3SM -SHSN BLSN BKN010 OVC025 M04/ RMK SC6SC2=
CYYG;2007-02-19 17:41;SPECI CYYG 191741Z 01019G27KT 2 1/2SM -SHSN BLSN BKN010 OVC020 M04/ RMK SC7SC1=
CYYG;2007-02-19 18:00;METAR CYYG 191800Z 36019G25KT 5SM -SHSN BLSN FEW009 OVC012 M05/M07 A2939 RMK SF2SC6 /SO1/ SLP954=
CYYG;2007-02-19 18:16;SPECI CYYG 191816Z 36019G26KT 2 1/2SM -SHSN BLSN FEW009 OVC012 M05/ RMK SF2SC6=
CYYG;2007-02-19 19:00;METAR CYYG 191900Z 01020G27KT 1 1/2SM R03/2600V5500FT/D -SHSN BLSN BKN012 OVC030 M05/M08 A2940 RMK SC7SC1 SLP957=
CYYG;2007-02-19 19:26;SPECI CYYG 191926Z 36017G27KT 5SM R03/4500VP6000FT/U -SHSN BLSN BKN013 OVC022 M05/ RMK SC7SC1=
CYYG;2007-02-19 20:00;METAR CYYG 192000Z 36014G24KT 6SM -SHSN BLSN BKN012 OVC026 M05/M08 A2941 RMK SC6SC2 SLP960=
CYYG;2007-02-19 21:00;METAR CYYG 192100Z 36013G21KT 5SM -SHSN BLSN SCT014 OVC024 M06/M09 A2942 RMK SC3SC5 SLP964=
CYYG;2007-02-19 21:14;SPECI CYYG 192114Z 34015G22KT 1 1/2SM R03/3500VP6000FT/D -SN BLSN OVC013 M06/ RMK SC8=
CYYG;2007-02-19 21:49;SPECI CYYG 192149Z 33017G26KT 2 1/2SM -SN BLSN SCT012 OVC032 M07/ RMK SC3SC5=
CYYG;2007-02-19 23:00;METAR CYYG 192300Z 31014G20KT 8SM -SN DRSN FEW013 OVC036 M06/M10 A2946 RMK SC2SC6 SLP980=
CYYG;2007-02-20 01:00;METAR CYYG 200100Z 31016G22KT 8SM -SN DRSN OVC037 M07/M12 A2951 RMK SC8 SLP995=
CYYG;2007-02-20 03:00;METAR CYYG 200300Z 31016G24KT 6SM -SN DRSN SCT018 OVC036 M10/M13 A2955 RMK SC3SC5 SLP009=
CYYG;2007-02-20 04:00;METAR CYYG 200400Z 30015G20KT 8SM -SN DRSN OVC038 M11/M14 A2958 RMK SC8 SLP021=
CYYG;2007-02-20 06:00;METAR CYYG 200600Z 30015G22KT 12SM -SN DRSN OVC033 M13/M17 A2964 RMK SC8 SLP040=
CYYG;2007-02-20 07:00;METAR CYYG 200700Z 29013G18KT 15SM SCT030 M14/M18 A2966 RMK SC3 SLP049=
CYYG;2007-02-20 10:00;METAR CYYG 201000Z 26008KT 15SM SKC M17/M20 A2972 RMK SLP068=
CYYG;2007-02-20 11:00;METAR CYYG 201100Z 27007KT 15SM FEW030 M17/M20 A2973 RMK SC1 SLP072=
CYYG;2007-02-20 12:00;METAR CYYG 201200Z 25008KT 15SM FEW030 M17/M20 A2974 RMK SC2 SLP076=
CYYG;2007-02-20 13:00;METAR CYYG 201300Z 27008KT 15SM FEW030 BKN250 M16/M19 A2975 RMK SC2CI1 SLP078=
CYYG;2007-02-20 14:00;METAR CYYG 201400Z 25010KT 15SM FEW030 FEW140 BKN250 M15/M19 A2976 RMK SC1AC1CI2 SLP080=
CYYG;2007-02-20 15:00;METAR CYYG 201500Z 25009KT 15SM FEW090 BKN220 M15/M19 A2974 RMK AC2CI3 SLP075=
CYYG;2007-02-20 19:00;METAR CYYG 201900Z 24010KT 15SM BKN061 BKN100 M09/M16 A2969 RMK SC5AC2 SLP057=
CYYG;2007-02-20 20:00;METAR CYYG 202000Z 24010G15KT 15SM SCT062 BKN220 M08/M15 A2969 RMK SC3CI1 SLP056=
CYYG;2007-02-20 21:00;METAR CYYG 202100Z 23010KT 15SM FEW060 BKN220 M08/M14 A2968 RMK SC2CI1 SLP054=
CYYG;2007-02-20 23:00;METAR CYYG 202300Z 22004KT 15SM FEW060 SCT220 M09/M13 A2966 RMK SC1CI1 SLP049=
CYYG;2007-02-21 00:00;METAR CYYG 210000Z 22003KT 15SM FEW060 FEW220 M09/M13 A2966 RMK SC1CI0 SLP047=
CYYG;2007-02-21 01:00;METAR CYYG 210100Z 00000KT 15SM SKC M11/M13 A2967 RMK SLP050=
CYYG;2007-02-21 02:00;METAR CYYG NIL=
CYYG;2007-02-21 03:00;METAR CYYG 210300Z 00000KT 15SM FEW060 M14/M15 A2966 RMK SC1 SLP046=
CYYG;2007-02-21 04:00;METAR CYYG NIL=
CYYG;2007-02-21 05:00;METAR CYYG 210500Z 26003KT 15SM FEW060 FEW200 M13/M15 A2964 RMK SC1CI0 SLP041=
CYYG;2007-02-21 06:00;METAR CYYG 210600Z 22004KT 15SM SCT064 M11/M12 A2965 RMK SC4 SLP043=
CYYG;2007-02-21 07:00;METAR CYYG 210700Z 00000KT 15SM BKN062 M11/M12 A2964 RMK SC6 SLP041=
CYYG;2007-02-21 09:00;METAR CYYG 210900Z 25003KT 15SM OVC030 M10/M12 A2964 RMK SC8 SLP041=
CYYG;2007-02-21 10:00;METAR CYYG 211000Z 00000KT 15SM SCT015 OVC029 M10/M12 A2963 RMK SC3SC5 SLP037=
CYYG;2007-02-21 12:00;METAR CYYG 211200Z 23003KT 8SM -SN FEW015 OVC028 M09/M11 A2965 RMK SC2SC6 SLP043=
CYYG;2007-02-21 13:00;METAR CYYG 211300Z 29002KT 6SM -SN SCT018 OVC030 M08/M11 A2964 RMK SC4SC4 SLP042=
CYYG;2007-02-21 14:00;METAR CYYG 211400Z 32003KT 10SM -SN SCT018 BKN047 M08/M11 A2964 RMK SC3SC3 SLP042=
CYYG;2007-02-21 15:00;METAR CYYG 211500Z 27002KT 15SM SCT024 BKN047 BKN150 M07/M10 A2964 RMK SC3SC2AC1 SLP042=
CYYG;2007-02-21 17:00;METAR CYYG 211700Z 31004KT 15SM FEW017 BKN028 M06/M10 A2962 RMK SC2SC6 SLP033=
CYYG;2007-02-21 18:00;METAR CYYG 211800Z 33004KT 15SM BKN021 M06/M10 A2961 RMK SC7 SLP029=
CYYG;2007-02-21 18:45;SPECI CYYG 211845Z 32006KT 15SM -SHSN BKN024 OVC055 M06/ RMK SC6SC2=
CYYG;2007-02-21 19:00;METAR CYYG 211900Z 35004KT 12SM -SHSN BKN022 OVC055 M05/M10 A2961 RMK SC6SC1 SLP029=
CYYG;2007-02-21 23:00;METAR CYYG 212300Z 00000KT 15SM FEW030 FEW060 M09/M13 A2963 RMK SC1SC2 SLP036=
CYYG;2007-02-22 00:00;METAR CYYG 220000Z 00000KT 15SM FEW030 FEW055 M10/M12 A2964 RMK SC1SC2 SLP041=
CYYG;2007-02-22 00:29;SPECI CYYG 220029Z 32002KT 15SM -SHSN BKN037 M09/ RMK SC5=
CYYG;2007-02-22 01:00;METAR CYYG NIL=
CYYG;2007-02-22 02:00;METAR CYYG 220200Z 27004KT 10SM -SHSN OVC035 M08/M10 A2966 RMK SC8 SLP047=
CYYG;2007-02-22 02:11;SPECI CYYG 220211Z 28005KT 5SM -SHSN SCT008 OVC024 M08/ RMK SF4SC4=
CYYG;2007-02-22 03:00;METAR CYYG 220300Z 31005KT 15SM SCT024 BKN055 M08/M11 A2966 RMK SC3SC2 SLP046=
CYYG;2007-02-22 04:00;METAR CYYG 220400Z 30007KT 15SM BKN034 M09/M13 A2965 RMK SC6 SLP043=
CYYG;2007-02-22 05:00;METAR CYYG 220500Z 30010KT 15SM BKN038 M10/M14 A2965 RMK SC6 SLP042=
CYYG;2007-02-22 06:00;METAR CYYG 220600Z 28008KT 15SM SCT035 M11/M15 A2965 RMK SC4 SLP044=
CYYG;2007-02-22 07:00;METAR CYYG 220700Z 28007KT 15SM BKN038 M12/M16 A2965 RMK SC5 SLP045=
CYYG;2007-02-22 08:00;METAR CYYG 220800Z 27005KT 15SM BKN038 M12/M16 A2965 RMK SC6 SLP043=
CYYG;2007-02-22 09:00;METAR CYYG 220900Z 28008KT 15SM OVC042 M11/M15 A2964 RMK SC8 SLP042=
CYYG;2007-02-22 09:11;SPECI CYYG 220911Z 27007KT 12SM -SHSN OVC040 M11/ RMK SC8=
CYYG;2007-02-22 10:00;METAR CYYG 221000Z 27008KT 12SM -SHSN OVC037 M12/M15 A2964 RMK SC8 SLP042=
CYYG;2007-02-22 11:29;SPECI CYYG 221129Z 28009KT 15SM SCT035 SCT270 M12/ RMK SC3CI0=
CYYG;2007-02-22 12:00;METAR CYYG NIL=
CYYG;2007-02-22 13:00;METAR CYYG 221300Z 28011KT 15SM DRSN FEW033 FEW270 M12/M15 A2965 RMK SC1CI0 SLP045=
CYYG;2007-02-22 14:00;METAR CYYG 221400Z 30012G17KT 15SM DRSN FEW033 FEW270 M11/M15 A2964 RMK SC1CI0 SLP042=
CYYG;2007-02-22 15:00;METAR CYYG 221500Z 29011KT 15SM FEW033 M10/M15 A2964 RMK SC1 SLP041=
CYYG;2007-02-22 16:00;METAR CYYG 221600Z 27009KT 15SM FEW033 M09/M14 A2963 RMK SC1 SLP037=
CYYG;2007-02-22 17:00;METAR CYYG NIL=
CYYG;2007-02-22 18:00;METAR CYYG 221800Z 28011G16KT 15SM FEW027 M08/M14 A2961 RMK SC2 SLP031=
CYYG;2007-02-22 19:00;METAR CYYG 221900Z 27007KT 15SM FEW034 FEW100 M07/M14 A2960 RMK SC1AC1 SLP028=
CYYG;2007-02-22 20:00;METAR CYYG 222000Z 26009KT 15SM FEW034 BKN064 M07/M14 A2960 RMK CU1SC5 SLP027=
CYYG;2007-02-22 22:00;METAR CYYG 222200Z 22005KT 15SM FEW064 M07/M14 A2960 RMK SC1 SLP026=
CYYG;2007-02-23 04:00;METAR CYYG 230400Z 28005KT 15SM SKC M09/M14 A2958 RMK SLP021=
CYYG;2007-02-23 05:00;METAR CYYG 230500Z 23006KT 15SM SKC M10/M14 A2960 RMK SLP025=
CYYG;2007-02-23 06:00;METAR CYYG 230600Z 26004KT 15SM SKC M10/M14 A2958 RMK SLP019=
CYYG;2007-02-23 07:00;METAR CYYG 230700Z 25005KT 15SM SKC M10/M14 A2957 RMK SLP016=
CYYG;2007-02-23 08:00;METAR CYYG 230800Z 28006KT 15SM SKC M11/M14 A2957 RMK SLP015=
CYYG;2007-02-23 10:00;METAR CYYG 231000Z 29006KT 15SM SKC M11/M15 A2957 RMK SLP016=
CYYG;2007-02-23 11:00;METAR CYYG 231100Z 32004KT 15SM FEW250 M12/M15 A2956 RMK CI1 SLP013=
CYYG;2007-02-23 12:00;METAR CYYG 231200Z CCA 32003KT 15SM FEW025 FEW250 M11/M14 A2956 RMK CU1CI0 SLP015=
CYYG;2007-02-23 13:00;METAR CYYG 231300Z 34005KT 15SM FEW025 FEW250 M09/M12 A2953 RMK SC1CI0 SLP005=
CYYG;2007-02-23 14:00;METAR CYYG 231400Z 01004KT 15SM FEW025 FEW250 M07/M11 A2953 RMK SC1CI0 SLP005=
CYYG;2007-02-23 15:00;METAR CYYG NIL=
CYYG;2007-02-23 17:00;METAR CYYG 231700Z 01010KT 15SM VCSH BKN025 M06/M11 A2947 RMK SC6 VIS LWR W-NW SLP983=
CYYG;2007-02-23 18:00;METAR CYYG 231800Z 02011KT 15SM VCSH BKN020 M06/M10 A2946 RMK SC6 SLP980=
CYYG;2007-02-23 18:37;SPECI CYYG 231837Z 35011KT 12SM -SHSN BKN020 M06/ RMK SC7 CU ASOCTD=
CYYG;2007-02-23 20:00;METAR CYYG 232000Z 36011KT 8SM -SHSN BKN020 BKN028 M07/M11 A2946 RMK CU5SC2 SLP980=
CYYG;2007-02-23 21:00;METAR CYYG 232100Z 34010KT 10SM -SHSN BKN014 M07/M11 A2946 RMK SC7 SLP979=
CYYG;2007-02-23 23:00;METAR CYYG 232300Z 36006KT 15SM -SHSN OVC024 M08/M12 A2947 RMK SC8 SLP982=
CYYG;2007-02-24 00:00;METAR CYYG 240000Z 33007KT 15SM -SHSN OVC025 M08/M12 A2947 RMK SC8 SLP981=
CYYG;2007-02-24 01:00;METAR CYYG 240100Z 34003KT 15SM -SHSN BKN026 OVC035 M08/M13 A2946 RMK SC6SC2 SLP979=
CYYG;2007-02-24 01:33;SPECI CYYG 240133Z 31004KT 15SM SCT027 M10/ RMK SC4=
CYYG;2007-02-24 02:00;METAR CYYG 240200Z 31003KT 15SM SCT025 M10/M13 A2944 RMK SC3 SLP972=
CYYG;2007-02-24 03:00;METAR CYYG 240300Z 34002KT 15SM FEW025 BKN031 M11/M13 A2942 RMK SC2SC6 SLP965=
CYYG;2007-02-24 04:00;METAR CYYG 240400Z 27002KT 15SM BKN034 M11/M14 A2941 RMK SC6 SLP961=
CYYG;2007-02-24 06:00;METAR CYYG 240600Z 26006KT 15SM FEW027 OVC034 M11/M14 A2939 RMK SC2SC6 SLP956=
CYYG;2007-02-24 07:00;METAR CYYG 240700Z 26006KT 15SM -SHSN OVC030 M11/M13 A2938 RMK SC8 PCPN VRY LGT SLP953=
CYYG;2007-02-24 09:00;METAR CYYG 240900Z 30005KT 15SM -SHSN OVC025 M09/M11 A2939 RMK SC8 PCPN VRY LGT SLP956=
CYYG;2007-02-24 10:00;METAR CYYG NIL=
CYYG;2007-02-24 11:00;METAR CYYG 241100Z 27004KT 15SM -SHSN OVC034 M09/M11 A2941 RMK SC8 SLP963=
CYYG;2007-02-24 12:00;METAR CYYG 241200Z 29005KT 15SM -SHSN OVC031 M09/M11 A2944 RMK SC8 SLP971=
CYYG;2007-02-24 13:00;METAR CYYG 241300Z 32005KT 10SM -SHSN FEW009 OVC025 M08/M10 A2945 RMK SF2SC6 SLP977=
CYYG;2007-02-24 13:12;SPECI CYYG 241312Z 31006KT 10SM -SHSN BKN009 OVC025 M08/ RMK SF6SC2=
CYYG;2007-02-24 13:25;SPECI CYYG 241325Z 31007KT 10SM -SHSN BKN013 OVC025 M07/ RMK SC7SC1=
CYYG;2007-02-24 13:40;SPECI CYYG 241340Z 33007KT 8SM -SHSN OVC008 M07/ RMK SF8=
CYYG;2007-02-24 14:00;METAR CYYG 241400Z 02012KT 6SM -SHSN OVC009 M06/M08 A2947 RMK SF8 SLP984=
CYYG;2007-02-24 15:00;METAR CYYG 241500Z 36009G16KT 10SM -SHSN SCT009 OVC014 M06/M10 A2949 RMK SF4SC4 SLP989=
CYYG;2007-02-24 16:00;METAR CYYG 241600Z 01012KT 10SM -SHSN SCT015 OVC032 M06/M10 A2950 RMK SC3SC5 SLP993=
CYYG;2007-02-24 17:00;METAR CYYG 241700Z 33010KT 5SM -SHSN SCT013 BKN017 OVC030 M06/M10 A2950 RMK SC3SC2SC2 SLP993=
CYYG;2007-02-24 18:00;METAR CYYG 241800Z 33008G16KT 4SM -SHSN OVC017 M05/M09 A2950 RMK SC8 SLP992=
CYYG;2007-02-24 18:54;SPECI CYYG 241854Z 34010KT 15SM -SHSN BKN012 BKN022 M05/ RMK SC6SC2=
CYYG;2007-02-24 20:00;METAR CYYG 242000Z 34007KT 15SM OVC012 M05/M08 A2950 RMK SC8 SLP994=
CYYG;2007-02-24 20:54;SPECI CYYG 242054Z 34008G15KT 8SM -SHSN OVC017 M05/ RMK SC8=
CYYG;2007-02-24 21:40;SPECI CYYG 242140Z 32008KT 1SM R03/P6000FT/D -SHSN BKN008 OVC021 M05/ RMK SF6SC2=
CYYG;2007-02-24 23:00;METAR CYYG 242300Z 30010KT 2 1/2SM -SHSN BKN010 OVC021 M04/M05 A2952 RMK SF6SC2 SLP998=
CYYG;2007-02-25 00:00;METAR CYYG 250000Z 33016G22KT 3SM -SHSN OVC014 M02/M03 A2952 RMK SC8 SLP000=
CYYG;2007-02-25 00:31;SPECI CYYG 250031Z 33016G25KT 2SM -SHSN OVC009 M02/ RMK SC8=
CYYG;2007-02-25 01:00;METAR CYYG 250100Z 33017G24KT 2 1/2SM -SN DRSN OVC009 M02/M03 A2954 RMK SC8 SLP005=
CYYG;2007-02-25 02:00;METAR CYYG 250200Z 33017G25KT 3SM -SN DRSN BKN012 OVC020 M02/M03 A2955 RMK SC5SC3 /S01/ SLP011=
CYYG;2007-02-25 03:00;METAR CYYG 250300Z 33017G27KT 3SM -SN DRSN BKN010 OVC037 M02/M03 A2957 RMK SC5SC3 SLP017=
CYYG;2007-02-25 04:00;METAR CYYG 250400Z 34018G27KT 3SM -SHSN DRSN BKN012 OVC027 M02/M04 A2958 RMK SC6SC2 /S02/ SLP020=
CYYG;2007-02-25 05:00;METAR CYYG 250500Z 33017G26KT 3SM -SHSN DRSN BKN012 OVC020 M02/M04 A2959 RMK SC5SC3 SLP024=
CYYG;2007-02-25 06:00;METAR CYYG 250600Z 33014G27KT 5SM -SHSN DRSN BKN012 OVC022 M02/M04 A2960 RMK SC5SC3 /S03/ SLP027=
CYYG;2007-02-25 07:00;METAR CYYG 250700Z 33016G22KT 3SM -SHSN DRSN BKN011 OVC022 M02/M04 A2960 RMK SC6SC2 SLP028=
CYYG;2007-02-25 08:00;METAR CYYG 250800Z 33014G20KT 5SM -SHSN DRSN SCT010 OVC030 M02/M04 A2961 RMK SC3SC5 SLP030=
CYYG;2007-02-25 09:00;METAR CYYG 250900Z CCA 32014G20KT 5SM -SHSN DRSN FEW025 OVC040 M02/M05 A2962 RMK SC2SC6 SLP034=
CYYG;2007-02-25 10:00;METAR CYYG 251000Z 32014G20KT 5SM -SHSN DRSN FEW025 OVC045 M02/M05 A2963 RMK SC2SC6 /S02/ SLP037=
CYYG;2007-02-25 11:00;METAR CYYG 251100Z 32017G24KT 8SM -SHSN DRSN FEW035 OVC046 M03/M06 A2963 RMK SC2SC6 SLP038=
CYYG;2007-02-25 12:00;METAR CYYG 251200Z 31016G24KT 15SM -SHSN DRSN BKN045 M03/M06 A2966 RMK SC7 SLP047=
CYYG;2007-02-25 12:38;SPECI CYYG 251238Z 32016G26KT 15SM DRSN BKN043 M02/ RMK SC7=
CYYG;2007-02-25 13:00;METAR CYYG 251300Z 33018G29KT 15SM DRSN BKN038 M02/M06 A2966 RMK SC6 SLP048=
CYYG;2007-02-25 15:00;METAR CYYG 251500Z 32024G30KT 15SM FEW040 M02/M07 A2967 RMK SC2 SLP051=
CYYG;2007-02-25 17:00;METAR CYYG 251700Z 31020G26KT 15SM FEW120 M01/M06 A2966 RMK AC2 SLP046=
CYYG;2007-02-25 18:00;METAR CYYG 251800Z 32019G29KT 15SM FEW120 M01/M06 A2965 RMK AC2 SLP042=
CYYG;2007-02-25 20:00;METAR CYYG 252000Z 32017G28KT 15SM SCT030 BKN110 00/M07 A2963 RMK SC2AC2 SLP037=
CYYG;2007-02-25 21:00;METAR CYYG 252100Z 31018G27KT 15SM SCT035 BKN100 M00/M07 A2963 RMK SC3AC3 SLP037=
CYYG;2007-02-26 00:00;METAR CYYG 260000Z 32019G26KT 15SM BKN035 OVC110 M02/M08 A2967 RMK SC5AC3 SLP051=
CYYG;2007-02-26 02:00;METAR CYYG 260200Z 32014G22KT 15SM FEW035 FEW110 M03/M08 A2968 RMK SC1AC2 SLP054=
CYYG;2007-02-26 03:00;METAR CYYG 260300Z 31013KT 15SM SKC M04/M08 A2969 RMK SLP058=
CYYG;2007-02-26 04:00;METAR CYYG 260400Z 31011G16KT 15SM SCT026 M04/M08 A2971 RMK SC3 SLP063=
CYYG;2007-02-26 05:00;METAR CYYG 260500Z 28009KT 15SM BKN025 M05/M08 A2973 RMK SC6 SLP071=
CYYG;2007-02-26 07:00;METAR CYYG 260700Z 31009KT 15SM BKN024 OVC036 M05/M08 A2972 RMK SC6SC2 SLP067=
CYYG;2007-02-26 09:00;METAR CYYG 260900Z 34010G16KT 15SM OVC024 M03/M07 A2974 RMK SC8 SLP072=
CYYG;2007-02-26 10:00;METAR CYYG 261000Z 34010KT 15SM OVC016 M03/M07 A2973 RMK SC8 SLP069=
CYYG;2007-02-26 11:00;METAR CYYG 261100Z 35008KT 15SM BKN015 OVC022 M04/M07 A2974 RMK SC6SC2 SLP074=
CYYG;2007-02-26 12:00;METAR CYYG 261200Z 35010KT 12SM FEW015 OVC023 M03/M06 A2977 RMK SC2SC6 SLP084=
CYYG;2007-02-26 13:28;SPECI CYYG 261328Z 31006KT 10SM BKN014 OVC021 M03/ RMK SC6SC2=
CYYG;2007-02-26 14:07;SPECI CYYG 261407Z 33008KT 4SM -FZDZ BR SCT008 OVC014 M03/ RMK SF3SF5=
CYYG;2007-02-26 15:00;METAR CYYG 261500Z 34008KT 6SM -FZDZ BR SCT008 OVC014 M03/M04 A2981 RMK SF3SF5 SLP096=
CYYG;2007-02-26 16:28;SPECI CYYG 261628Z 34008G15KT 10SM SCT008 OVC016 M02/ RMK SF3SC5=
CYYG;2007-02-26 17:00;METAR CYYG 261700Z 35008KT 12SM FEW008 OVC013 M03/M05 A2979 RMK SF2SC6 SLP091=
CYYG;2007-02-26 18:00;METAR CYYG 261800Z 36009KT 12SM FEW008 OVC014 M02/M06 A2978 RMK SF2SC6 SLP088=
CYYG;2007-02-26 19:00;METAR CYYG 261900Z 01007KT 12SM FEW008 OVC015 M03/M06 A2979 RMK SF2SC6 SLP092=
CYYG;2007-02-26 20:00;METAR CYYG 262000Z 01007KT 12SM FEW008 OVC013 M03/M05 A2981 RMK SF2SC6 SLP096=
CYYG;2007-02-26 20:23;SPECI CYYG 262023Z 36007KT 12SM -FZDZ FEW008 OVC012 M03/ RMK SF2SC6=
CYYG;2007-02-26 21:00;METAR CYYG 262100Z 35005KT 12SM -FZDZ FEW008 OVC013 M03/M06 A2981 RMK SF2SC6 SLP098=
CYYG;2007-02-26 22:28;SPECI CYYG 262228Z 36006KT 12SM FEW008 OVC016 M03/M05 RMK SF2SC6=
CYYG;2007-02-26 23:00;METAR CYYG 262300Z 35005KT 10SM FEW008 OVC016 M03/M05 A2985 RMK SF2SC6 SLP109=
CYYG;2007-02-26 23:04;SPECI CYYG 262304Z 36004KT 9SM -FZDZ SCT008 OVC016 M03/ RMK SF4SC4=
CYYG;2007-02-26 23:43;SPECI CYYG 262343Z 35005KT 12SM FEW008 OVC017 M03/ RMK SF2SC6=
CYYG;2007-02-27 00:00;METAR CYYG 270000Z 36005KT 12SM FEW007 OVC017 M03/M05 A2984 RMK SF2SC6 SLP108=
CYYG;2007-02-27 00:25;SPECI CYYG 270025Z 01005KT 6SM -SN -FZDZ FEW006 OVC017 M03/ RMK SF2SC6=
CYYG;2007-02-27 00:55;SPECI CYYG 270055Z 01008KT 15SM FEW006 BKN017 OVC083 M03/ RMK SF2SC4AC2=
CYYG;2007-02-27 02:00;METAR CYYG 270200Z 01004KT 15SM FEW006 OVC020 M03/M05 A2986 RMK SF2SC6 SLP114=
CYYG;2007-02-27 03:00;METAR CYYG 270300Z 01004KT 15SM OVC021 M03/M05 A2987 RMK SC8 SLP116=
CYYG;2007-02-27 04:00;METAR CYYG 270400Z 36004KT 15SM FEW010 OVC025 M04/M05 A2986 RMK SF2SC6 SLP113=
CYYG;2007-02-27 05:00;METAR CYYG 270500Z 32004KT 15SM FEW010 OVC028 M05/M06 A2986 RMK SF1SC7 SLP114=
CYYG;2007-02-27 07:00;METAR CYYG 270700Z 33004KT 15SM BKN025 M05/M06 A2986 RMK SC7 SLP113=
CYYG;2007-02-27 08:00;METAR CYYG 270800Z 34004KT 15SM BKN025 M05/M06 A2986 RMK SC5 SLP115=
CYYG;2007-02-27 10:00;METAR CYYG 271000Z 34004KT 15SM BKN021 M05/M06 A2989 RMK SC7 SLP123=
CYYG;2007-02-27 11:00;METAR CYYG 271100Z 34003KT 15SM OVC016 M04/M05 A2990 RMK SC8 SLP126=
CYYG;2007-02-27 12:00;METAR CYYG 271200Z 00000KT 12SM BKN016 M04/M04 A2991 RMK SC7 SLP130=
CYYG;2007-02-27 14:00;METAR CYYG 271400Z 02007KT 15SM BKN009 OVC015 M02/M03 A2992 RMK SF6SC2 SLP135=
CYYG;2007-02-27 15:00;METAR CYYG 271500Z 36005KT 15SM BKN009 OVC014 M02/M04 A2992 RMK SF5SC3 SLP135=
CYYG;2007-02-27 16:00;METAR CYYG 271600Z 01006KT 15SM BKN009 OVC014 M02/M04 A2992 RMK SF6SC2 SLP133=
CYYG;2007-02-27 18:00;METAR CYYG 271800Z 36005KT 12SM BKN012 OVC017 M02/M05 A2990 RMK SC6SC2 SLP127=
CYYG;2007-02-27 18:50;SPECI CYYG 271850Z 35008KT 4SM -SHSN OVC014 M02/ RMK SC8=
CYYG;2007-02-27 20:00;METAR CYYG 272000Z 01008KT 6SM -SHSN BKN013 M02/M04 A2990 RMK SC7 VIS NW 3 SLP128=
CYYG;2007-02-27 21:00;METAR CYYG 272100Z 03009KT 10SM VCSH BKN014 M02/M05 A2991 RMK SC7 OCNL -SHSN SLP132=
CYYG;2007-02-27 22:00;METAR CYYG 272200Z 04007KT 12SM VCSH BKN013 M03/M05 A2992 RMK SC7 OCNL -SHSN SLP134=
CYYG;2007-02-27 23:00;METAR CYYG 272300Z 05005KT 15SM -SHSN OVC014 M03/M06 A2994 RMK SC8 SLP140=
CYYG;2007-02-28 00:00;METAR CYYG NIL=
CYYG;2007-02-28 01:00;METAR CYYG 280100Z 04006KT 15SM OVC014 M03/M06 A2995 RMK SC8 SLP143=
CYYG;2007-02-28 02:00;METAR CYYG 280200Z 03008KT 15SM OVC012 M04/M06 A2995 RMK SC8 SLP143=
CYYG;2007-02-28 03:00;METAR CYYG 280300Z 03004KT 15SM OVC011 M04/M06 A2994 RMK SC8 SLP140=
CYYG;2007-02-28 04:00;METAR CYYG 280400Z 04004KT 15SM OVC011 M04/M06 A2993 RMK SC8 SLP139=
CYYG;2007-02-28 05:00;METAR CYYG 280500Z 03002KT 15SM OVC011 M04/M06 A2994 RMK SC8 SLP140=
CYYG;2007-02-28 06:00;METAR CYYG 280600Z 07005KT 15SM OVC012 M04/M07 A2994 RMK SC8 SLP142=
CYYG;2007-02-28 07:00;METAR CYYG 280700Z 35002KT 15SM OVC011 M04/M07 A2994 RMK SC8 SLP142=
CYYG;2007-02-28 09:00;METAR CYYG 280900Z 34005KT 15SM OVC012 M04/M07 A2996 RMK SC8 SLP146=
CYYG;2007-02-28 10:00;METAR CYYG 281000Z 07002KT 15SM OVC011 M04/M07 A2996 RMK SC8 SLP148=
CYYG;2007-02-28 11:00;METAR CYYG 281100Z 02003KT 15SM OVC013 M04/M07 A2998 RMK SC8 SLP153=
CYYG;2007-02-28 12:00;METAR CYYG 281200Z 28002KT 15SM OVC013 M04/M07 A2999 RMK SC8 SLP158=
CYYG;2007-02-28 13:00;METAR CYYG 281300Z 00000KT 15SM OVC013 M04/M07 A2999 RMK SC8 SLP159=
CYYG;2007-02-28 14:00;METAR CYYG 281400Z 06003KT 15SM OVC014 M04/M07 A3000 RMK SC8 SLP161=
CYYG;2007-02-28 15:00;METAR CYYG 281500Z 14002KT 15SM OVC015 M04/M07 A2999 RMK SC8 SLP160=
CYYG;2007-02-28 17:00;METAR CYYG 281700Z 19005KT 15SM OVC016 M03/M07 A2998 RMK SC8 SLP155=
CYYG;2007-02-28 18:00;METAR CYYG 281800Z 24003KT 15SM OVC016 M03/M07 A2998 RMK SC8 SLP154=
CYYG;2007-02-28 19:00;METAR CYYG 281900Z 18004KT 15SM OVC016 M03/M06 A2998 RMK SC8 SLP155=
CYYG;2007-02-28 20:00;METAR CYYG 282000Z 19003KT 15SM OVC018 M03/M06 A2997 RMK SC8 SLP153=
CYYG;2007-02-28 21:00;METAR CYYG 282100Z 16003KT 15SM BKN018 M03/M07 A2998 RMK SC7 SLP155=
CYYG;2007-03-01 04:00;METAR CYYG 010400Z 18002KT 15SM -SHSN OVC024 M04/M07 A3000 RMK SC8 SLP161=
CYYG;2007-03-01 05:00;METAR CYYG 010500Z 14002KT 15SM FEW023 OVC090 M04/M07 A2998 RMK SC2AC6 SLP157=
CYYG;2007-03-01 06:00;METAR CYYG 010600Z 27002KT 15SM BKN022 BKN085 M05/M07 A2999 RMK SC6AC1 SLP159=
CYYG;2007-03-01 07:00;METAR CYYG 010700Z 00000KT 15SM FEW020 M08/M08 A2998 RMK SC2 SLP156=
CYYG;2007-03-01 08:00;METAR CYYG 010800Z 34003KT 15SM SCT018 BKN068 M06/M08 A2998 RMK SC3AC3 SLP157=
CYYG;2007-03-01 09:00;METAR CYYG 010900Z 00000KT 15SM BKN018 BKN068 OVC082 M06/M07 A2999 RMK SC5AC2AC2 SLP158=
CYYG;2007-03-01 09:23;SPECI CYYG 010923Z 35003KT 15SM -SHSN FEW018 BKN083 M06/ RMK SC2AC4=
CYYG;2007-03-01 10:00;METAR CYYG 011000Z 34002KT 15SM BKN019 BKN083 M06/M07 A2999 RMK SC5AC2 SLP160=
CYYG;2007-03-01 11:00;METAR CYYG 011100Z 00000KT 15SM FEW019 SCT058 SCT078 M06/M07 A2999 RMK SC2SC2AC1 SLP160=
CYYG;2007-03-01 12:00;METAR CYYG 011200Z 00000KT 15SM SCT021 BKN068 M05/M06 A3001 RMK SC3AC4 SLP165=
CYYG;2007-03-01 12:19;SPECI CYYG 011219Z 00000KT 12SM -SHSN BKN022 OVC065 M05/ RMK SC6SC2=
CYYG;2007-03-01 13:00;METAR CYYG 011300Z 00000KT 5SM -SHSN OVC023 M04/M06 A3002 RMK SC8 SLP168=
CYYG;2007-03-01 13:30;SPECI CYYG 011330Z 36002KT 3SM -SHSN FEW008 OVC023 M04/ RMK SF1SC7=
CYYG;2007-03-01 13:53;SPECI CYYG 011353Z 00000KT 1 1/2SM -SHSN FEW009 OVC024 M04/ RMK SF2SC6=
CYYG;2007-03-01 14:00;METAR CYYG 011400Z 00000KT 3SM -SHSN FEW009 OVC027 M04/M06 A3002 RMK SF2SC6 SLP169=
CYYG;2007-03-01 14:13;SPECI CYYG 011413Z 00000KT 1 1/2SM -SHSN FEW005 OVC015 M03/ RMK SF2SC6=
CYYG;2007-03-01 14:30;SPECI CYYG 011430Z 00000KT 12SM -SHSN FEW005 OVC029 M03/ RMK SF2SC6=
CYYG;2007-03-01 15:00;METAR CYYG 011500Z 00000KT 1SM R03/P6000FT/N -SHSN BKN008 OVC027 M03/M05 A3001 RMK SF6SC2 SLP167=
CYYG;2007-03-01 15:25;SPECI CYYG 011525Z 36002KT 5SM -SHSN BKN008 OVC027 M03/ RMK SF5SC3=
CYYG;2007-03-01 16:00;METAR CYYG NIL=
CYYG;2007-03-01 16:34;SPECI CYYG 011634Z 35004KT 12SM -SHSN SCT008 OVC031 M03/ RMK SF4SC4=
CYYG;2007-03-01 17:00;METAR CYYG 011700Z 03004KT 8SM -SHSN SCT012 OVC032 M03/M05 A3000 RMK CU3SC5 SLP163=
CYYG;2007-03-01 17:42;SPECI CYYG 011742Z 02004KT 2 1/2SM -SHSN SCT012 OVC025 M02/ RMK SN1CU3SC4=
CYYG;2007-03-01 18:00;METAR CYYG 011800Z 02003KT 2 1/2SM -SHSN SCT012 OVC025 M02/M04 A3000 RMK SN1CU3SC4 SLP163=
CYYG;2007-03-01 18:53;SPECI CYYG 011853Z 32005KT 8SM -SHSN BKN009 OVC025 M03/ RMK CU5SC3=
CYYG;2007-03-01 19:00;METAR CYYG 011900Z 34004KT 6SM -SHSN BKN009 OVC022 M03/M05 A3001 RMK CU5SC3 SLP166=
CYYG;2007-03-01 20:00;METAR CYYG 012000Z 35005KT 6SM -SHSN SCT009 OVC022 M03/M05 A3003 RMK CU4SC4 SLP172=
CYYG;2007-03-01 20:16;SPECI CYYG 012016Z 35005KT 2 1/2SM -SHSN OVC022 M04/ RMK SC8=
CYYG;2007-03-01 20:29;SPECI CYYG 012029Z 33005KT 1 1/2SM -SHSN OVC022 M04/ RMK SN2SC6=
CYYG;2007-03-01 21:12;SPECI CYYG 012112Z 34006KT 6SM -SHSN FEW007 BKN020 M04/ RMK SF2SC5=
CYYG;2007-03-01 22:00;METAR CYYG 012200Z 35003KT 15SM -SHSN FEW007 SCT020 M05/M06 A3006 RMK SF1SC2 SLP184=
CYYG;2007-03-01 22:12;SPECI CYYG 012212Z 35003KT 15SM FEW020 M05/ RMK SC2=
CYYG;2007-03-01 23:00;METAR CYYG 012300Z 34004KT 15SM FEW020 M08/M10 A3009 RMK SC1 SLP193=
CYYG;2007-03-02 00:00;METAR CYYG 020000Z 32003KT 15SM FEW020 M08/M09 A3010 RMK SC2 SLP197=
CYYG;2007-03-02 01:00;METAR CYYG 020100Z 32004KT 15SM BKN022 M08/M09 A3011 RMK SC6 SLP200=
CYYG;2007-03-02 02:00;METAR CYYG 020200Z 28005KT 15SM BKN029 M06/M07 A3012 RMK SC7 SLP204=
CYYG;2007-03-02 03:00;METAR CYYG 020300Z 32004KT 15SM SCT018 BKN026 M06/M08 A3012 RMK SC3SC2 SLP201=
CYYG;2007-03-02 04:00;METAR CYYG NIL=
CYYG;2007-03-02 05:00;METAR CYYG 020500Z 27005KT 15SM SCT016 BKN032 M06/M07 A3015 RMK SC4SC3 SLP213=
CYYG;2007-03-02 06:00;METAR CYYG 020600Z 28005KT 15SM BKN012 OVC026 M05/M07 A3016 RMK SC5SC3 SLP216=
CYYG;2007-03-02 07:00;METAR CYYG 020700Z 30009KT 10SM BKN012 OVC030 M04/M06 A3015 RMK SC6SC2 SLP212=
CYYG;2007-03-02 08:00;METAR CYYG 020800Z 31009KT 10SM SCT015 BKN030 M05/M06 A3018 RMK SC3SC2 SLP224=
CYYG;2007-03-02 09:00;METAR CYYG 020900Z 33008KT 8SM -SHSN BKN008 OVC021 M04/M05 A3017 RMK SF5SC3 SLP221=
CYYG;2007-03-02 10:00;METAR CYYG 021000Z 33009KT 8SM -SHSN OVC008 M04/M05 A3020 RMK SF8 SLP229=
CYYG;2007-03-02 11:00;METAR CYYG 021100Z 33010KT 10SM BKN006 OVC029 M04/M05 A3022 RMK SF6SC2 SLP237=
CYYG;2007-03-02 12:00;METAR CYYG 021200Z 32006KT 15SM SCT006 OVC026 M04/M05 A3024 RMK SF3SC5 SLP244=
CYYG;2007-03-02 13:00;METAR CYYG 021300Z 33005KT 15SM FEW006 OVC032 M03/M04 A3026 RMK SF2SC6 SLP251=
CYYG;2007-03-02 14:00;METAR CYYG 021400Z 35006KT 15SM SCT006 OVC029 M02/M04 A3026 RMK SF4SC4 SLP251=
CYYG;2007-03-02 16:00;METAR CYYG 021600Z 01005KT 15SM BKN025 M01/M06 A3028 RMK SC7 SLP258=
CYYG;2007-03-02 17:00;METAR CYYG 021700Z 09006KT 15SM BKN026 BKN250 M01/M06 A3025 RMK SC6CI1 SLP248=
CYYG;2007-03-02 19:00;METAR CYYG 021900Z 08009KT 15SM BKN026 OVC150 M01/M05 A3023 RMK SC5AC3 SLP238=
CYYG;2007-03-02 20:00;METAR CYYG 022000Z 12011KT 15SM FEW024 OVC100 M01/M06 A3022 RMK SC2AS6 SLP235=
CYYG;2007-03-02 21:00;METAR CYYG 022100Z 12009KT 15SM OVC100 M02/M07 A3021 RMK AS8 SLP234=
CYYG;2007-03-02 23:00;METAR CYYG 022300Z 10011G16KT 15SM OVC070 M03/M06 A3016 RMK AS8 SLP216=
CYYG;2007-03-03 00:00;METAR CYYG 030000Z 12014KT 15SM BKN040 OVC058 M02/M05 A3010 RMK SC6SC2 SLP195=
CYYG;2007-03-03 00:27;SPECI CYYG 030027Z 12015G20KT 8SM -SHSN BKN016 OVC035 M02/ RMK SC6SC2=
CYYG;2007-03-03 01:00;METAR CYYG 030100Z 12017G24KT 1 1/2SM -SHSN BKN007 OVC019 M03/M04 A3005 RMK SF6SC2 SLP178=
CYYG;2007-03-03 02:00;METAR CYYG NIL=
CYYG;2007-03-03 02:38;SPECI CYYG 030238Z 12020G25KT 3/4SM R03/4000V5500FT/D -SN BKN004 OVC011 M02/ RMK SF6SC2=
CYYG;2007-03-03 03:00;METAR CYYG 030300Z 11020G28KT 3/4SM R03/3500V5000FT/U -SN BKN004 OVC010 M02/M03 A2990 RMK SF6SF2 /PRESFR/ SLP129=
CYYG;2007-03-03 04:51;SPECI CYYG 030451Z 12020G28KT 2SM -SHSNPL BKN005 OVC010 M02/ RMK SF6SC2=
CYYG;2007-03-03 05:00;METAR CYYG 030500Z 12024G31KT 3SM R03/2600VP6000FT/D -SHSNPL BKN008 OVC014 M02/M04 A2978 RMK SF6SC2 /PRESFR/ SLP086=
CYYG;2007-03-03 06:00;METAR CYYG NIL=
CYYG;2007-03-03 07:00;METAR CYYG 030700Z 13017G24KT 4SM -SN -FZRA OVC009 M02/M03 A2968 RMK SF8 SLP054=
CYYG;2007-03-03 08:00;METAR CYYG 030800Z 12018G24KT 4SM -SN -FZRA BKN007 OVC024 M02/M03 A2959 RMK SF6SC2 /PRESFR/ SLP023=
CYYG;2007-03-03 08:16;SPECI CYYG 030816Z 12017G22KT 4SM BR OVC009 M01/ RMK SF8=
CYYG;2007-03-03 09:00;METAR CYYG 030900Z 13018KT 6SM BR OVC010 M01/M03 A2953 RMK SF8 SLP003=
CYYG;2007-03-03 10:00;METAR CYYG 031000Z 15014G21KT 6SM BR OVC011 00/M02 A2949 RMK SF8 SLP989=
CYYG;2007-03-03 12:00;METAR CYYG 031200Z 17012G17KT 10SM OVC013 01/M00 A2950 RMK SC8 SLP992=
CYYG;2007-03-03 13:00;METAR CYYG 031300Z 22011KT 15SM BKN009 BKN013 01/01 A2952 RMK SF6SC2 SLP999=
CYYG;2007-03-03 13:16;SPECI CYYG 031316Z 25012G18KT 15SM FEW009 SCT012 02/ RMK SF2SC2=
CYYG;2007-03-03 14:00;METAR CYYG 031400Z 27013G21KT 15SM FEW012 02/M02 A2955 RMK SC1 SLP007=
CYYG;2007-03-03 15:00;METAR CYYG 031500Z 27017KT 15SM SKC 02/M04 A2957 RMK SLP015=
CYYG;2007-03-03 16:00;METAR CYYG 031600Z 25011G17KT 15SM SKC 03/M03 A2959 RMK SLP021=
CYYG;2007-03-03 17:00;METAR CYYG 031700Z 24015KT 15SM SKC 04/M03 A2959 RMK SLP023=
CYYG;2007-03-03 19:00;METAR CYYG 031900Z 24013G21KT 15SM FEW260 05/M03 A2959 RMK CI0 SLP021=
CYYG;2007-03-03 20:00;METAR CYYG 032000Z 24011G17KT 15SM FEW260 05/M02 A2959 RMK CI1 SLP021=
CYYG;2007-03-03 21:00;METAR CYYG 032100Z 24006KT 15SM SCT130 BKN260 04/M02 A2959 RMK AC2CI2 SLP023=
CYYG;2007-03-03 22:00;METAR CYYG 032200Z 25007KT 15SM FEW130 SCT260 03/M04 A2959 RMK AC2CI1 SLP021=
CYYG;2007-03-03 23:00;METAR CYYG 032300Z 25010KT 15SM FEW130 BKN260 04/M05 A2958 RMK AC2CI2 SLP020=
CYYG;2007-03-04 00:00;METAR CYYG 040000Z 24010KT 15SM BKN100 04/M04 A2958 RMK AC4 SLP017=
CYYG;2007-03-04 01:00;METAR CYYG 040100Z 23005KT 15SM FEW120 03/M03 A2956 RMK AC2 SLP011=
CYYG;2007-03-04 02:00;METAR CYYG 040200Z 22005KT 15SM FEW120 BKN220 02/M03 A2955 RMK AC2CS2 SLP009=
CYYG;2007-03-04 03:00;METAR CYYG 040300Z 17004KT 15SM BKN200 M01/M04 A2952 RMK CS3 SLP000=
CYYG;2007-03-04 04:00;METAR CYYG 040400Z 18005KT 15SM BKN100 OVC200 00/M03 A2949 RMK AC6CS2 SLP987=
CYYG;2007-03-04 05:00;METAR CYYG 040500Z 15004KT 15SM OVC081 01/M03 A2945 RMK AC8 SLP975=
CYYG;2007-03-04 06:00;METAR CYYG 040600Z 21005KT 15SM OVC058 02/M03 A2943 RMK SC8 SLP968=
CYYG;2007-03-04 06:34;SPECI CYYG 040634Z 16005KT 15SM -SHSN SCT018 OVC038 01/ RMK SC3SC5=
CYYG;2007-03-04 07:00;METAR CYYG 040700Z 02002KT 10SM -SHSN BKN017 OVC035 01/M02 A2937 RMK SC5SC3 SLP948=
CYYG;2007-03-04 08:00;METAR CYYG 040800Z 14006KT 15SM SCT018 OVC057 02/M03 A2932 RMK SC3SC5 SLP932=
CYYG;2007-03-04 08:51;SPECI CYYG 040851Z 18015G20KT 15SM -SHRA OVC032 02/ RMK SC8=
CYYG;2007-03-04 09:00;METAR CYYG 040900Z 18017G25KT 15SM -SHRA OVC027 03/M01 A2928 RMK SC8 SLP917=
CYYG;2007-03-04 09:49;SPECI CYYG 040949Z 18014G19KT 15SM BKN021 OVC042 02/ RMK SC6SC2=
CYYG;2007-03-04 10:52;SPECI CYYG 041052Z 21012G18KT 8SM -SHRA OVC012 02/ RMK SC8=
CYYG;2007-03-04 11:00;METAR CYYG 041100Z 21014KT 8SM -SHRA OVC013 02/M00 A2923 RMK SC8 SLP899=
CYYG;2007-03-04 11:14;SPECI CYYG 041114Z 21011KT 8SM -SHRASN OVC012 02/ RMK SC8=
CYYG;2007-03-04 11:43;SPECI CYYG 041143Z 22009KT 10SM -SHRA OVC009 01/ RMK SF8=
CYYG;2007-03-04 12:00;METAR CYYG 041200Z 23013KT 4SM -SHSN OVC006 02/00 A2922 RMK SF8 SLP897=
CYYG;2007-03-04 12:32;SPECI CYYG 041232Z 25015KT 15SM OVC007 02/ RMK SF8=
CYYG;2007-03-04 12:48;SPECI CYYG 041248Z 25010G17KT 15SM OVC010 02/ RMK SF8=
CYYG;2007-03-04 13:00;METAR CYYG 041300Z 25014G20KT 15SM OVC012 02/M00 A2921 RMK SC8 SLP893=
CYYG;2007-03-04 14:00;METAR CYYG 041400Z 25013G24KT 15SM OVC014 01/M02 A2921 RMK SC8 SLP892=
CYYG;2007-03-04 15:00;METAR CYYG 041500Z 25016G27KT 15SM OVC014 01/M02 A2920 RMK SC8 SLP891=
CYYG;2007-03-04 16:00;METAR CYYG 041600Z 27021G29KT 15SM BKN020 00/M03 A2921 RMK SC7 SLP893=
CYYG;2007-03-04 16:28;SPECI CYYG 041628Z 29023G32KT 10SM -SHSN BKN012 M00/ RMK SC7=
CYYG;2007-03-04 17:00;METAR CYYG 041700Z 30019G26KT 15SM -SHSN BKN014 M01/M04 A2926 RMK SC7 SLP911=
CYYG;2007-03-04 18:00;METAR CYYG 041800Z 31011G16KT 6SM -SHSN OVC013 M01/M04 A2929 RMK SC8 SLP921=
CYYG;2007-03-04 19:38;SPECI CYYG 041938Z 32005KT 2 1/2SM -SHSN BKN007 OVC018 M02/ RMK SF6SC2=
CYYG;2007-03-04 20:00;METAR CYYG 042000Z 33007KT 2 1/2SM -SHSN BKN007 OVC018 M02/M04 A2933 RMK SF6SC2 SLP935=
CYYG;2007-03-04 21:00;METAR CYYG 042100Z 34005KT 2 1/2SM -SHSN BKN007 OVC018 M02/M04 A2934 RMK SF6SC2 SLP938=
CYYG;2007-03-04 22:00;METAR CYYG 042200Z 34004KT 3SM -SHSN BKN007 OVC020 M03/M04 A2935 RMK SF5SC3 SLP941=
CYYG;2007-03-04 22:12;SPECI CYYG 042212Z 33004KT 15SM -SHSN FEW007 BKN019 BKN030 M03/ RMK SF2SC3SC2=
CYYG;2007-03-05 00:00;METAR CYYG 050000Z 16002KT 15SM -SHSN FEW004 OVC066 M03/M04 A2937 RMK SF2AC6 SLP947=
CYYG;2007-03-05 00:42;SPECI CYYG 050042Z 00000KT 15SM FEW053 FEW074 M04/ RMK SC1AC1=
CYYG;2007-03-05 01:00;METAR CYYG 050100Z 00000KT 15SM FEW047 SCT074 M05/M06 A2938 RMK SC2AC2 SLP952=
CYYG;2007-03-05 01:48;SPECI CYYG 050148Z 18005KT 15SM BKN006 BKN039 M04/ RMK SF5SC2=
CYYG;2007-03-05 02:00;METAR CYYG 050200Z 18004KT 10SM BKN005 BKN010 OVC039 M05/M06 A2939 RMK ST6SC1SC2 SLP953=
CYYG;2007-03-05 02:34;SPECI CYYG 050234Z 19006KT 10SM -SHSN FEW002 BKN007 OVC035 M03/ RMK ST2ST5SC2=
CYYG;2007-03-05 03:00;METAR CYYG 050300Z 18006KT 5SM -SHSN BKN002 OVC007 M03/M04 A2937 RMK SF6SF2 SLP949=
CYYG;2007-03-05 03:16;SPECI CYYG 050316Z 21005KT 1 1/2SM -SHSN OVC003 M03/ RMK SN2SF6=
CYYG;2007-03-05 03:19;SPECI CYYG 050319Z 20003KT 3SM -SHSN SCT003 BKN015 OVC025 M03/ RMK SF3SC2SC2=
CYYG;2007-03-05 03:46;SPECI CYYG 050346Z 23004KT 2SM -SHSN BKN004 OVC015 M03/ RMK SF6SC2 TCU ASOCTD=
CYYG;2007-03-05 04:00;METAR CYYG 050400Z 23004KT 5SM -SHSN SCT004 SCT015 BKN070 M03/M04 A2936 RMK SF3SC1AC1 TCU ASOCTD SLP945=
CYYG;2007-03-05 04:53;SPECI CYYG 050453Z 23005KT 6SM BR FEW004 FEW015 M03/ RMK SF1SC2 FROIN=
CYYG;2007-03-05 05:00;METAR CYYG 050500Z 23006KT 3SM R03/4500VP6000FT/D BR SCT008 BKN015 M04/M05 A2936 RMK SF3SC3 FROIN SLP945=
CYYG;2007-03-05 06:00;METAR CYYG 050600Z 27005KT 10SM FEW015 SCT070 M04/M06 A2936 RMK SC2AC2 SLP944=
CYYG;2007-03-05 06:19;SPECI CYYG 050619Z 27007KT 10SM BKN008 M03/ RMK SF7=
CYYG;2007-03-05 07:37;SPECI CYYG 050737Z 27010KT 10SM OVC005 M03/ RMK SF8=
CYYG;2007-03-05 08:00;METAR CYYG 050800Z 25006KT 10SM BKN005 M04/M05 A2936 RMK SF5 SLP945=
CYYG;2007-03-05 09:00;METAR CYYG 050900Z 24005KT 10SM FEW005 FEW040 M05/M06 A2937 RMK SF1SC2 SLP949=
CYYG;2007-03-05 10:00;METAR CYYG 051000Z 26006KT 10SM FEW005 SCT080 M05/M06 A2937 RMK SF1AC4 SLP949=
CYYG;2007-03-05 11:00;METAR CYYG 051100Z 26005KT 15SM FEW080 BKN280 M05/M06 A2938 RMK AC1CI1 SLP950=
CYYG;2007-03-05 13:00;METAR CYYG 051300Z 25008KT 15SM FEW080 BKN280 M04/M06 A2938 RMK AC1CI1 SLP952=
CYYG;2007-03-05 14:00;METAR CYYG 051400Z 24008KT 15SM FEW015 BKN035 BKN280 M02/M05 A2938 RMK CU1SC4CI2 SLP950=
CYYG;2007-03-05 14:39;SPECI CYYG 051439Z 24009KT 1 1/2SM -SHSN OVC011 M03/ RMK SC8=
CYYG;2007-03-05 15:06;SPECI CYYG 051506Z 24008KT 2SM -SHSN BKN007 OVC013 M02/ RMK SF6SC2=
CYYG;2007-03-05 15:41;SPECI CYYG 051541Z 26009KT 10SM -SHSN BKN008 BKN020 BKN250 M03/ RMK SF5SC1CI1=
CYYG;2007-03-05 15:51;SPECI CYYG 051551Z 24009KT 10SM -SHSN FEW009 BKN015 M02/ RMK SF2SC5=
CYYG;2007-03-05 16:00;METAR CYYG NIL=
CYYG;2007-03-05 16:41;SPECI CYYG 051641Z 28010KT 10SM -SHSN FEW009 BKN017 M02/ RMK SF2SC5=
CYYG;2007-03-05 17:00;METAR CYYG NIL=
CYYG;2007-03-05 18:00;METAR CYYG 051800Z 28010G15KT 15SM -SHSN FEW015 BKN027 M02/M08 A2934 RMK SC1SC5 SLP937=
CYYG;2007-03-05 18:23;SPECI CYYG 051823Z 27008KT 15SM BKN030 M02/ RMK SC5=
CYYG;2007-03-05 19:00;METAR CYYG 051900Z 25006KT 15SM BKN032 M02/M07 A2933 RMK SC6 SLP936=
CYYG;2007-03-05 19:13;SPECI CYYG 051913Z 27011KT 2SM -SHSN OVC021 M02/ RMK SC8=
CYYG;2007-03-05 19:27;SPECI CYYG 051927Z 26005KT 15SM -SHSN BKN035 M03/ RMK SC7=
CYYG;2007-03-05 20:00;METAR CYYG 052000Z 25008KT 15SM -SHSN BKN015 BKN025 M02/M06 A2934 RMK SC6SC2 SLP937=
CYYG;2007-03-05 20:23;SPECI CYYG 052023Z 26011KT 15SM BKN015 BKN035 M02/ RMK SC5SC2=
CYYG;2007-03-05 21:00;METAR CYYG 052100Z 26010KT 15SM FEW015 BKN051 M02/M08 A2935 RMK SC2SC5 SLP940=
CYYG;2007-03-05 22:00;METAR CYYG 052200Z 27008KT 15SM FEW015 BKN057 M03/M10 A2935 RMK SC2SC6 SLP941=
CYYG;2007-03-05 23:00;METAR CYYG 052300Z 26005KT 15SM FEW015 BKN057 M03/M11 A2937 RMK SC1SC6 SLP947=
CYYG;2007-03-06 01:00;METAR CYYG 060100Z 19003KT 15SM FEW045 FEW070 M05/M09 A2936 RMK SC1AC1 SLP946=
CYYG;2007-03-06 02:00;METAR CYYG 060200Z 23003KT 15SM FEW040 FEW070 M05/M08 A2936 RMK SC1AC1 SLP946=
CYYG;2007-03-06 03:00;METAR CYYG 060300Z 25003KT 15SM FEW070 SCT280 M05/M09 A2936 RMK AC1CI1 FROIN SLP943=
CYYG;2007-03-06 04:00;METAR CYYG 060400Z 22004KT 15SM FEW100 SCT280 M06/M09 A2935 RMK AC1CI1 FROIN SLP940=
CYYG;2007-03-06 05:00;METAR CYYG 060500Z 23005KT 15SM FEW100 FEW280 M07/M10 A2935 RMK AC1CI1 FROIN SLP940=
CYYG;2007-03-06 06:00;METAR CYYG 060600Z 24005KT 15SM FEW280 M06/M10 A2934 RMK CI0 FROIN SLP938=
CYYG;2007-03-06 07:00;METAR CYYG 060700Z 25004KT 15SM FEW080 FEW150 M07/M10 A2933 RMK AC1AC1 FROIN SLP936=
CYYG;2007-03-06 08:00;METAR CYYG 060800Z 27004KT 15SM FEW050 FEW150 M07/M10 A2934 RMK SC2AC1 FROIN SLP937=
CYYG;2007-03-06 09:00;METAR CYYG 060900Z 27005KT 15SM FEW050 BKN280 M08/M11 A2935 RMK SC1CI1 FROIN SLP940=
CYYG;2007-03-06 11:00;METAR CYYG 061100Z 31012G17KT 15SM FEW050 BKN100 M08/M12 A2936 RMK SC1AC6 SLP946=
CYYG;2007-03-06 12:00;METAR CYYG 061200Z 31012G17KT 15SM DRSN FEW050 BKN095 M09/M13 A2939 RMK SC2AC5 SLP955=
CYYG;2007-03-06 13:00;METAR CYYG 061300Z 31013G19KT 15SM DRSN FEW050 BKN081 BKN120 M09/M13 A2941 RMK SC2AC2AS2 SLP961=
CYYG;2007-03-06 14:00;METAR CYYG 061400Z 32015G21KT 15SM DRSN FEW020 SCT075 BKN250 M10/M15 A2942 RMK SC2AC2CI2 -SHSN SW-NW SLP967=
CYYG;2007-03-06 15:00;METAR CYYG 061500Z 32013G18KT 15SM DRSN SCT018 BKN150 M10/M15 A2943 RMK SC4AC3 SLP970=
CYYG;2007-03-06 16:23;SPECI CYYG 061623Z 29017KT 3SM -SHSN DRSN BKN013 OVC022 M11/ RMK SC6SC2=
CYYG;2007-03-06 17:00;METAR CYYG 061700Z 28014KT 3SM -SHSN DRSN BKN014 OVC026 M12/M15 A2946 RMK SC6SC2 SLP978=
CYYG;2007-03-06 17:28;SPECI CYYG 061728Z 29016G21KT 1 1/2SM -SHSN DRSN BKN010 OVC022 M12/ RMK SC6SC2=
CYYG;2007-03-06 18:49;SPECI CYYG 061849Z 29016KT 3SM -SHSN DRSN SCT010 OVC025 M11/ RMK SC3SC5=
CYYG;2007-03-06 19:00;METAR CYYG 061900Z 29016KT 6SM -SHSN DRSN OVC020 M11/M17 A2949 RMK SC8 SLP990=
CYYG;2007-03-06 20:00;METAR CYYG 062000Z 29016G21KT 12SM DRSN SCT025 OVC037 M11/M17 A2951 RMK SC3SC5 SLP996=
CYYG;2007-03-06 21:00;METAR CYYG 062100Z 30015G20KT 12SM DRSN FEW025 BKN040 OVC080 M12/M17 A2953 RMK SC1SC4AC3 SLP002=
CYYG;2007-03-06 21:35;SPECI CYYG 062135Z 30012G17KT 10SM -SHSN DRSN BKN024 OVC040 M12/ RMK SC6SC2=
CYYG;2007-03-06 21:55;SPECI CYYG 062155Z 31011G17KT 2 1/2SM -SHSN DRSN BKN025 OVC040 M12/ RMK SC6SC2=
CYYG;2007-03-06 22:00;METAR CYYG 062200Z 30015KT 3SM -SHSN DRSN BKN022 OVC040 M13/M16 A2955 RMK SC6SC2 SLP011=
CYYG;2007-03-06 23:00;METAR CYYG 062300Z 30015G25KT 12SM -SHSN DRSN BKN040 OVC110 M14/M19 A2959 RMK SC6AC2 SLP023=
CYYG;2007-03-06 23:28;SPECI CYYG 062328Z 30014G19KT 15SM DRSN FEW040 BKN140 M15/ RMK SC2AC3=
CYYG;2007-03-07 00:00;METAR CYYG 070000Z 30012G24KT 15SM DRSN FEW040 BKN140 M15/M20 A2961 RMK SC2AC5 SLP031=
CYYG;2007-03-07 00:25;SPECI CYYG 070025Z 30014G19KT 3SM -SHSN DRSN OVC020 M15/ RMK SC8=
CYYG;2007-03-07 01:00;METAR CYYG NIL=
CYYG;2007-03-07 02:00;METAR CYYG 070200Z 28014G21KT 10SM -SHSN DRSN FEW025 OVC037 M16/M20 A2965 RMK SC2SC6 SLP045=
CYYG;2007-03-07 03:00;METAR CYYG NIL=
CYYG;2007-03-07 04:00;METAR CYYG 070400Z 28016G22KT 5SM -SHSN DRSN BKN030 OVC040 M15/M19 A2967 RMK SC6SC2 SLP050=
CYYG;2007-03-07 05:00;METAR CYYG 070500Z 28017G30KT 10SM -SHSN DRSN FEW030 OVC040 M15/M19 A2969 RMK SC2SC6 SLP057=
CYYG;2007-03-07 06:00;METAR CYYG 070600Z 28019G28KT 10SM -SHSN DRSN OVC044 M15/M20 A2971 RMK SC8 SLP065=
CYYG;2007-03-07 07:00;METAR CYYG 070700Z 29021G29KT 10SM -SHSN DRSN OVC043 M16/M20 A2973 RMK SC8 SLP071=
CYYG;2007-03-07 08:00;METAR CYYG 070800Z 28021G28KT 10SM -SHSN DRSN OVC040 M16/M21 A2977 RMK SC8 SLP083=
CYYG;2007-03-07 09:00;METAR CYYG 070900Z 29019G24KT 10SM -SHSN DRSN BKN035 OVC048 M17/M21 A2980 RMK SC6SC2 SLP096=
CYYG;2007-03-07 10:00;METAR CYYG 071000Z 29021G26KT 10SM -SHSN DRSN BKN035 BKN050 M18/M22 A2983 RMK SC5SC1 SLP106=
CYYG;2007-03-07 11:00;METAR CYYG 071100Z 29017G27KT 15SM DRSN BKN036 M18/M23 A2986 RMK SC6 SLP116=
CYYG;2007-03-07 12:00;METAR CYYG 071200Z 28018KT 15SM BKN038 M19/M24 A2990 RMK SC6 SLP129=
CYYG;2007-03-07 13:00;METAR CYYG 071300Z 28018G28KT 15SM DRSN SCT024 M19/M24 A2992 RMK SC4 SLP135=
CYYG;2007-03-07 14:00;METAR CYYG 071400Z 28015G20KT 15SM DRSN VCSH SCT025 M19/M26 A2993 RMK SC4 SLP138=
CYYG;2007-03-07 15:00;METAR CYYG 071500Z 28010G21KT 15SM DRSN VCSH BKN026 M18/M25 A2994 RMK SC6 SLP143=
CYYG;2007-03-07 16:00;METAR CYYG 071600Z 28016G24KT 15SM FEW026 M17/M25 A2993 RMK SC1 SLP139=
CYYG;2007-03-07 17:00;METAR CYYG 071700Z 28015G24KT 15SM FEW033 M16/M24 A2993 RMK CU1 SLP138=
CYYG;2007-03-07 18:00;METAR CYYG 071800Z 29018KT 15SM FEW035 M15/M24 A2992 RMK SC2 SLP136=
CYYG;2007-03-07 19:00;METAR CYYG 071900Z 29015G22KT 15SM FEW035 M14/M25 A2993 RMK SC1 SLP138=
CYYG;2007-03-07 20:00;METAR CYYG 072000Z 27013G25KT 15SM FEW035 M13/M24 A2992 RMK SC1 SLP135=
CYYG;2007-03-07 21:00;METAR CYYG 072100Z 29016G24KT 15SM FEW040 M13/M24 A2993 RMK SC1 SLP140=
CYYG;2007-03-07 22:00;METAR CYYG 072200Z 29015G20KT 15SM FEW050 M14/M25 A2994 RMK SC1 SLP144=
CYYG;2007-03-08 00:00;METAR CYYG NIL=
CYYG;2007-03-08 01:00;METAR CYYG 080100Z 27007KT 15SM BKN065 M15/M25 A3000 RMK SC3 SLP163=
CYYG;2007-03-08 02:00;METAR CYYG 080200Z 27005KT 15SM BKN048 M15/M24 A3000 RMK SC3 SLP165=
CYYG;2007-03-08 03:00;METAR CYYG 080300Z 27004KT 15SM BKN050 M16/M25 A2999 RMK SC2 SLP160=
CYYG;2007-03-08 04:00;METAR CYYG 080400Z 26004KT 15SM FEW050 M16/M25 A2998 RMK SC1 SLP156=
CYYG;2007-03-08 06:00;METAR CYYG 080600Z 26004KT 15SM SKC M16/M25 A2994 RMK SLP144=
CYYG;2007-03-08 07:00;METAR CYYG 080700Z 24004KT 15SM SKC M17/M24 A2992 RMK SLP136=
CYYG;2007-03-08 08:00;METAR CYYG 080800Z 26004KT 15SM SKC M17/M25 A2990 RMK SLP129=
CYYG;2007-03-08 10:00;METAR CYYG NIL=
CYYG;2007-03-08 11:00;METAR CYYG 081100Z 23004KT 15SM BKN180 M17/M24 A2988 RMK AC3 SLP123=
CYYG;2007-03-08 12:00;METAR CYYG 081200Z 27006KT 15SM BKN180 M15/M23 A2987 RMK AC4 SLP121=
CYYG;2007-03-08 13:00;METAR CYYG 081300Z 29008KT 15SM FEW015 BKN150 M15/M22 A2988 RMK SC1AC3 SLP122=
CYYG;2007-03-08 15:39;SPECI CYYG 081539Z 28006KT 3SM -SHSN SCT013 OVC025 M14/ RMK SC4SC4=
CYYG;2007-03-08 15:49;SPECI CYYG 081549Z 32006KT 3SM -SHSN BKN010 OVC030 M14/ RMK SC6SC2=
CYYG;2007-03-08 17:00;METAR CYYG 081700Z 32008KT 2SM -SHSN BKN013 OVC022 M14/M20 A2985 RMK SC6SC2 SLP112=
CYYG;2007-03-08 17:19;SPECI CYYG 081719Z 33007KT 4SM -SHSN SCT015 BKN021 OVC045 M14/ RMK SC3SC3SC2=
CYYG;2007-03-08 18:00;METAR CYYG 081800Z 33006KT 8SM -SHSN BKN020 OVC029 M15/M21 A2984 RMK SC6SC2 SLP108=
CYYG;2007-03-08 19:00;METAR CYYG NIL=
CYYG;2007-03-08 20:00;METAR CYYG 082000Z 31009KT 15SM VCSH FEW030 OVC090 M15/M24 A2986 RMK SC2AC5 SLP115=
CYYG;2007-03-08 22:00;METAR CYYG 082200Z 32006KT 15SM FEW030 BKN090 M16/M24 A2989 RMK SC2AC2 SLP125=
CYYG;2007-03-08 23:00;METAR CYYG 082300Z 28003KT 15SM FEW030 FEW090 M16/M23 A2991 RMK SC1AC2 SLP133=
CYYG;2007-03-09 00:00;METAR CYYG 090000Z 28005KT 15SM FEW030 M17/M23 A2993 RMK SC2 SLP138=
CYYG;2007-03-09 01:00;METAR CYYG 090100Z 32008KT 8SM -SHSN FEW007 BKN017 M17/M24 A2995 RMK SC2SC2 SLP147=
CYYG;2007-03-09 03:00;METAR CYYG 090300Z 29011G16KT 15SM FEW030 SCT080 M19/M28 A2998 RMK SC1AC2 SLP158=
CYYG;2007-03-09 04:00;METAR CYYG 090400Z 29011G16KT 15SM FEW080 M20/M28 A2999 RMK AC2 SLP160=
CYYG;2007-03-09 06:00;METAR CYYG 090600Z 27012KT 15SM SCT037 M20/M25 A3001 RMK SC3 SLP168=
CYYG;2007-03-09 07:00;METAR CYYG 090700Z 27009G16KT 15SM BKN100 M19/M26 A3002 RMK AC5 SLP170=
CYYG;2007-03-09 08:00;METAR CYYG 090800Z 27010G15KT 15SM FEW100 M19/M25 A3003 RMK AC2 SLP175=
CYYG;2007-03-09 09:00;METAR CYYG NIL=
CYYG;2007-03-09 10:00;METAR CYYG 091000Z 27011KT 15SM SKC M19/M24 A3007 RMK SLP187=
CYYG;2007-03-09 11:00;METAR CYYG NIL=
CYYG;2007-03-09 12:00;METAR CYYG 091200Z 27011G17KT 15SM FEW020 M17/M22 A3013 RMK SC1 SLP207=
CYYG;2007-03-09 13:00;METAR CYYG 091300Z 28014G19KT 15SM FEW020 M15/M21 A3015 RMK SC1 SLP215=
CYYG;2007-03-09 14:00;METAR CYYG 091400Z 29014KT 15SM FEW020 M14/M21 A3017 RMK SC1 SLP220=
CYYG;2007-03-09 15:00;METAR CYYG 091500Z 29013G19KT 15SM FEW020 M14/M20 A3019 RMK SC1 SLP228=
CYYG;2007-03-09 16:00;METAR CYYG 091600Z 28013KT 15SM FEW020 M13/M20 A3019 RMK SC1 SLP229=
CYYG;2007-03-09 17:00;METAR CYYG 091700Z 27011KT 15SM FEW020 M12/M19 A3018 RMK SC1 SLP226=
CYYG;2007-03-09 18:00;METAR CYYG 091800Z 27012G17KT 15SM FEW020 M11/M18 A3017 RMK SC1 SLP223=
CYYG;2007-03-09 19:00;METAR CYYG 091900Z 27015KT 15SM FEW020 M08/M18 A3017 RMK SC1 SLP220=
CYYG;2007-03-09 20:00;METAR CYYG NIL=
CYYG;2007-03-09 21:00;METAR CYYG 092100Z 27010G16KT 15SM FEW210 M05/M16 A3016 RMK CI1 SLP216=
CYYG;2007-03-09 22:00;METAR CYYG NIL=
CYYG;2007-03-09 23:00;METAR CYYG 092300Z 28007KT 15SM FEW250 M06/M14 A3019 RMK CI1 SLP228=
CYYG;2007-03-10 00:00;METAR CYYG 100000Z 28009KT 15SM FEW250 M06/M14 A3021 RMK CI1 SLP235=
CYYG;2007-03-10 01:00;METAR CYYG 100100Z 29009KT 15SM SKC M06/M14 A3024 RMK SLP243=
CYYG;2007-03-10 02:00;METAR CYYG 100200Z 28007KT 15SM SKC M07/M15 A3026 RMK SLP250=
CYYG;2007-03-10 03:00;METAR CYYG 100300Z 29010KT 15SM SKC M07/M15 A3027 RMK SLP255=
CYYG;2007-03-10 04:00;METAR CYYG 100400Z 29011G16KT 15SM SKC M08/M15 A3028 RMK SLP258=
CYYG;2007-03-10 07:00;METAR CYYG 100700Z 26007KT 15SM SKC M09/M16 A3034 RMK SLP277=
CYYG;2007-03-10 08:00;METAR CYYG 100800Z 25006KT 15SM SKC M10/M15 A3035 RMK SLP280=
CYYG;2007-03-10 09:00;METAR CYYG 100900Z 24005KT 15SM SKC M10/M16 A3036 RMK SLP285=
CYYG;2007-03-10 11:00;METAR CYYG 101100Z 26007KT 15SM FEW250 M09/M17 A3037 RMK CI2 SLP289=
CYYG;2007-03-10 12:00;METAR CYYG 101200Z 23005KT 15SM BKN150 BKN250 M08/M16 A3040 RMK AC6CI0 SLP299=
CYYG;2007-03-10 13:00;METAR CYYG 101300Z 22006KT 15SM BKN083 BKN140 BKN250 M06/M12 A3041 RMK AC6AC1CI0 SLP301=
CYYG;2007-03-10 14:00;METAR CYYG 101400Z 20005KT 15SM BKN074 M04/M12 A3040 RMK AC6 SLP299=
CYYG;2007-03-10 17:00;METAR CYYG 101700Z 18010G15KT 15SM OVC024 M00/M07 A3035 RMK SC8 SLP280=
CYYG;2007-03-10 18:00;METAR CYYG 101800Z 18014KT 15SM FEW028 BKN069 BKN250 01/M05 A3032 RMK SC2AC2CI0 SLP271=
CYYG;2007-03-10 19:00;METAR CYYG 101900Z 18016G21KT 15SM FEW028 FEW069 BKN250 01/M05 A3030 RMK SC2AC1CI1 SLP263=
CYYG;2007-03-10 20:00;METAR CYYG 102000Z 18012KT 15SM FEW028 FEW095 BKN250 01/M04 A3028 RMK SC1AC1CI1 SLP256=
CYYG;2007-03-10 21:00;METAR CYYG 102100Z 18014KT 15SM SCT160 BKN250 01/M04 A3025 RMK AC2CI1 SLP248=
CYYG;2007-03-10 22:00;METAR CYYG 102200Z 18016KT 15SM SCT150 BKN250 01/M04 A3023 RMK AC2CI2 SLP241=
CYYG;2007-03-10 23:00;METAR CYYG 102300Z 18016KT 15SM SCT150 BKN250 M01/M04 A3023 RMK AC2CI2 SLP239=
CYYG;2007-03-11 00:00;METAR CYYG 110000Z 19017KT 15SM BKN250 M01/M04 A3021 RMK CI3 SLP232=
CYYG;2007-03-11 03:00;METAR CYYG 110300Z 18014KT 15SM BKN035 M00/M02 A3017 RMK SC7 SLP218=
CYYG;2007-03-11 04:00;METAR CYYG 110400Z 19012KT 15SM OVC038 01/M01 A3014 RMK SC8 SLP211=
CYYG;2007-03-11 05:00;METAR CYYG 110500Z 18014KT 15SM OVC032 02/M00 A3014 RMK SC8 SLP208=
CYYG;2007-03-11 06:00;METAR CYYG 110600Z 19016KT 15SM BKN030 OVC054 03/M00 A3012 RMK SC6SC2 SLP201=
CYYG;2007-03-11 07:00;METAR CYYG 110700Z 19015KT 15SM FEW030 OVC050 03/M00 A3010 RMK SC2SC6 SLP195=
CYYG;2007-03-11 08:00;METAR CYYG NIL=
CYYG;2007-03-11 09:00;METAR CYYG NIL=
CYYG;2007-03-11 10:00;METAR CYYG 111000Z 19010KT 15SM OVC050 03/00 A3009 RMK SC8 SLP190=
CYYG;2007-03-11 10:13;SPECI CYYG 111013Z 19012KT 15SM -SHRA SCT050 OVC069 03/ RMK SC4AC4=
CYYG;2007-03-11 11:00;METAR CYYG 111100Z 19012KT 15SM FEW021 SCT068 OVC074 03/00 A3008 RMK SC2AC2AC5 SLP188=
CYYG;2007-03-11 15:00;METAR CYYG 111500Z 20012KT 15SM -RA FEW016 OVC023 04/02 A3004 RMK SC2SC6 VIS W-N 5 SLP175=
CYYG;2007-03-11 17:00;METAR CYYG 111700Z 20009KT 5SM -RA BR BKN018 OVC025 05/03 A3000 RMK SC6SC2 SLP161=
CYYG;2007-03-11 18:00;METAR CYYG 111800Z 21004KT 10SM -RA OVC020 05/04 A2998 RMK SC8 SLP153=
CYYG;2007-03-11 19:00;METAR CYYG 111900Z 25006KT 5SM -RA BR FEW006 OVC017 05/04 A2997 RMK SF2SC6 SLP150=
CYYG;2007-03-11 20:00;METAR CYYG 112000Z 26004KT 10SM -RA FEW003 OVC021 05/04 A2996 RMK SF2SC6 SLP148=
CYYG;2007-03-11 20:44;SPECI CYYG 112044Z 27004KT 10SM -RA BKN003 OVC013 04/ RMK SF6SC2 VIS SW 3=
CYYG;2007-03-11 21:00;METAR CYYG 112100Z 28004KT 5SM -RA BR BKN003 OVC013 04/03 A2996 RMK SF6SC2 SLP148=
CYYG;2007-03-11 21:18;SPECI CYYG 112118Z 28004KT 10SM -RA FEW003 SCT011 OVC032 04/ RMK SF2SC2SC5=
CYYG;2007-03-11 21:49;SPECI CYYG 112149Z 31005KT 10SM -RA BKN005 OVC014 03/ RMK SF6SC2=
CYYG;2007-03-11 22:00;METAR CYYG 112200Z 29007KT 10SM -RA BKN005 OVC014 03/02 A2996 RMK SF6SC2 SLP149=
CYYG;2007-03-11 23:00;METAR CYYG 112300Z 00000KT 15SM -RA FEW005 BKN034 02/02 A2996 RMK SF1SC6 SLP148=
CYYG;2007-03-11 23:29;SPECI CYYG 112329Z 21002KT 15SM SCT034 BKN065 02/ RMK SC3SC4=
CYYG;2007-03-12 00:00;METAR CYYG 120000Z 21002KT 15SM FEW034 OVC070 02/01 A2995 RMK SC2AC6 SLP144=
CYYG;2007-03-12 01:00;METAR CYYG 120100Z 25004KT 15SM BKN073 02/01 A2996 RMK AC7 SLP148=
CYYG;2007-03-12 02:00;METAR CYYG 120200Z 27004KT 15SM BKN075 02/01 A2995 RMK AC6 SLP145=
CYYG;2007-03-12 03:00;METAR CYYG 120300Z 28005KT 15SM SCT075 01/00 A2994 RMK AC4 SLP141=
CYYG;2007-03-12 05:00;METAR CYYG NIL=
CYYG;2007-03-12 05:31;SPECI CYYG 120531Z 32007KT 15SM FEW008 BKN060 01/ RMK SF2SC2=
CYYG;2007-03-12 06:00;METAR CYYG 120600Z 33009KT 15SM FEW008 SCT060 01/M01 A2992 RMK SF2SC2 SLP135=
CYYG;2007-03-12 08:00;METAR CYYG NIL=
CYYG;2007-03-12 09:00;METAR CYYG 120900Z 32013G21KT 15SM FEW060 M01/M07 A2995 RMK SC2 SLP143=
CYYG;2007-03-12 11:00;METAR CYYG 121100Z 32012KT 15SM FEW045 M03/M08 A2998 RMK SC1 SLP154=
CYYG;2007-03-12 13:00;METAR CYYG 121300Z 32019G28KT 15SM FEW025 M03/M09 A3004 RMK SC2 SLP173=
CYYG;2007-03-12 15:00;METAR CYYG 121500Z 33017G22KT 15SM FEW027 M03/M09 A3004 RMK CU1 SLP175=
CYYG;2007-03-12 16:00;METAR CYYG 121600Z 31013G18KT 15SM FEW028 M02/M09 A3005 RMK SC1 SLP177=
CYYG;2007-03-12 17:00;METAR CYYG 121700Z 31010G17KT 15SM FEW028 M02/M09 A3004 RMK SC1 SLP174=
CYYG;2007-03-12 18:00;METAR CYYG 121800Z 31010KT 15SM FEW028 M01/M09 A3003 RMK SC1 SLP171=
CYYG;2007-03-12 19:00;METAR CYYG 121900Z 32004KT 15SM FEW028 FEW250 M01/M10 A3003 RMK SC1CI1 SLP171=
CYYG;2007-03-12 20:00;METAR CYYG 122000Z 27005KT 15SM FEW040 FEW250 00/M11 A3004 RMK SC1CI1 SLP174=
CYYG;2007-03-12 21:00;METAR CYYG NIL=
CYYG;2007-03-12 22:00;METAR CYYG 122200Z 18006KT 15SM SCT100 M01/M08 A3005 RMK AC3 SLP177=
CYYG;2007-03-12 23:00;METAR CYYG 122300Z 19008KT 15SM BKN060 M01/M07 A3006 RMK SC5 SLP180=
CYYG;2007-03-13 00:00;METAR CYYG 130000Z 19010KT 15SM BKN070 M02/M07 A3006 RMK AC7 SLP184=
CYYG;2007-03-13 02:00;METAR CYYG 130200Z 18008KT 15SM BKN056 M01/M06 A3005 RMK SC7 SLP179=
CYYG;2007-03-13 03:00;METAR CYYG 130300Z 20008KT 15SM OVC060 00/M05 A3004 RMK SC8 SLP173=
CYYG;2007-03-13 04:00;METAR CYYG 130400Z 20009KT 15SM OVC064 00/M05 A3002 RMK SC8 SLP169=
CYYG;2007-03-13 05:00;METAR CYYG 130500Z 22008KT 15SM OVC065 00/M04 A3002 RMK SC8 SLP168=
CYYG;2007-03-13 06:00;METAR CYYG 130600Z 23005KT 15SM BKN060 OVC085 01/M03 A3004 RMK SC6AC2 SLP173=
CYYG;2007-03-13 07:00;METAR CYYG NIL=
CYYG;2007-03-13 09:00;METAR CYYG 130900Z 30006KT 15SM FEW018 OVC070 01/M02 A3007 RMK SC2AC6 SLP185=
CYYG;2007-03-13 10:45;SPECI CYYG 131045Z 36006KT 10SM BKN004 OVC058 M02/ RMK SF6SC2=
CYYG;2007-03-13 11:00;METAR CYYG 131100Z 35006KT 10SM OVC004 M02/M03 A3014 RMK SF8 SLP207=
CYYG;2007-03-13 11:51;SPECI CYYG 131151Z 35007KT 10SM OVC005 M02/ RMK SF8=
CYYG;2007-03-13 12:00;METAR CYYG 131200Z 36009KT 10SM OVC005 M02/M04 A3017 RMK SF8 SLP221=
CYYG;2007-03-13 12:52;SPECI CYYG 131252Z 02009KT 10SM SCT005 BKN061 BKN250 M03/ RMK SF4SC2CI1=
CYYG;2007-03-13 13:00;METAR CYYG 131300Z 02009KT 12SM SCT005 BKN059 BKN250 M03/M04 A3020 RMK SF3SC2CI2 SLP229=
CYYG;2007-03-13 17:00;METAR CYYG 131700Z 03003KT 15SM FEW033 BKN270 M00/M06 A3024 RMK SC2CI4 SLP244=
CYYG;2007-03-13 18:00;METAR CYYG 131800Z 05004KT 15SM FEW060 OVC270 01/M06 A3023 RMK SC2CS5 SLP237=
CYYG;2007-03-13 19:00;METAR CYYG 131900Z 07005KT 15SM SCT071 OVC270 01/M06 A3022 RMK AC3CS4 SLP236=
CYYG;2007-03-13 20:00;METAR CYYG 132000Z 04007KT 15SM FEW051 BKN071 OVC270 00/M06 A3023 RMK SC2AC4CS2 SLP238=
CYYG;2007-03-13 21:00;METAR CYYG 132100Z 07002KT 15SM BKN047 BKN071 OVC270 M00/M06 A3023 RMK SC5AC2CS0 SLP238=
CYYG;2007-03-13 22:00;METAR CYYG 132200Z 11004KT 15SM SCT045 BKN063 BKN270 M00/M04 A3022 RMK SC3SC2CI1 SLP237=
CYYG;2007-03-13 23:00;METAR CYYG NIL=
CYYG;2007-03-14 00:00;METAR CYYG 140000Z 12009KT 15SM SCT060 BKN110 M02/M05 A3020 RMK SC3AC2 SLP231=
CYYG;2007-03-14 01:00;METAR CYYG 140100Z 12008KT 15SM FEW060 BKN090 M02/M06 A3018 RMK SC2AC3 SLP222=
CYYG;2007-03-14 02:00;METAR CYYG 140200Z 13010KT 15SM BKN100 M01/M05 A3017 RMK AC5 SLP218=
CYYG;2007-03-14 03:00;METAR CYYG 140300Z 14010KT 15SM FEW078 BKN110 00/M03 A3012 RMK AC2AC4 SLP202=
CYYG;2007-03-14 04:00;METAR CYYG 140400Z 16014KT 15SM BKN074 BKN110 01/M02 A3009 RMK AC5AC2 SLP191=
CYYG;2007-03-14 05:00;METAR CYYG 140500Z 16013KT 15SM OVC072 01/M01 A3007 RMK AC8 SLP186=
CYYG;2007-03-14 06:00;METAR CYYG NIL=
CYYG;2007-03-14 07:00;METAR CYYG 140700Z 17011KT 15SM BKN074 OVC100 01/M01 A3003 RMK AC6AC2 SLP172=
CYYG;2007-03-14 08:00;METAR CYYG 140800Z 18017KT 15SM BKN074 OVC100 02/01 A3001 RMK AC6AC2 SLP165=
CYYG;2007-03-14 09:00;METAR CYYG 140900Z 18015KT 15SM BKN074 OVC100 03/01 A2999 RMK AC6AC2 SLP158=
CYYG;2007-03-14 10:00;METAR CYYG 141000Z 18018G24KT 15SM BKN065 OVC100 04/01 A2996 RMK SC6AC2 SLP146=
CYYG;2007-03-14 11:00;METAR CYYG 141100Z 18015G20KT 15SM SCT065 BKN078 BKN270 04/01 A2995 RMK SC3AC2CI1 SLP145=
CYYG;2007-03-14 12:00;METAR CYYG 141200Z 19015KT 15SM FEW065 SCT081 BKN270 04/01 A2994 RMK SC2AC2CI1 SLP142=
CYYG;2007-03-14 13:00;METAR CYYG 141300Z 18011KT 15SM FEW065 FEW080 BKN270 04/01 A2993 RMK SC1AC2CI4 SLP139=
CYYG;2007-03-14 13:45;SPECI CYYG 141345Z 19014KT 10SM -RA FEW028 BKN081 OVC110 06/ RMK SC1AS6AS2=
CYYG;2007-03-14 14:00;METAR CYYG 141400Z 20013G18KT 10SM -RA FEW028 BKN078 OVC130 06/02 A2993 RMK SC1AS6AS1 SLP137=
CYYG;2007-03-14 15:00;METAR CYYG 141500Z 20013KT 8SM -RA FEW030 BKN046 OVC130 06/03 A2991 RMK SC2SC3AS3 SLP132=
CYYG;2007-03-14 15:22;SPECI CYYG 141522Z 20013KT 15SM BKN073 OVC130 07/ RMK AS6AS2=
CYYG;2007-03-14 16:00;METAR CYYG 141600Z 21014KT 15SM -RA BKN068 BKN120 BKN270 07/04 A2989 RMK AS5AC2CI0 SLP123=
CYYG;2007-03-14 17:00;METAR CYYG NIL=
CYYG;2007-03-14 18:00;METAR CYYG 141800Z 20015G24KT 15SM FEW068 BKN150 BKN270 09/04 A2983 RMK AS2AC2CI1 SLP104=
CYYG;2007-03-14 19:00;METAR CYYG 141900Z 20014KT 15SM FEW068 BKN130 BKN270 10/04 A2983 RMK AS2AC3CI1 SLP104=
CYYG;2007-03-14 20:00;METAR CYYG 142000Z 19015KT 15SM FEW068 BKN110 OVC280 09/04 A2982 RMK AS2AC3CI1 SLP098=
CYYG;2007-03-14 21:00;METAR CYYG 142100Z 19014G19KT 15SM FEW068 BKN130 OVC280 08/04 A2981 RMK AS2AC5CI2 SLP095=
CYYG;2007-03-14 22:00;METAR CYYG 142200Z 19012KT 15SM FEW068 BKN110 OVC280 07/04 A2981 RMK AS2AC6CI1 SLP095=
CYYG;2007-03-14 23:00;METAR CYYG NIL=
CYYG;2007-03-15 00:00;METAR CYYG 150000Z 19012G17KT 15SM BKN110 OVC220 07/04 A2982 RMK AC6CS2 SLP099=
CYYG;2007-03-15 02:00;METAR CYYG 150200Z 19007KT 15SM FEW030 SCT078 OVC120 06/04 A2984 RMK SC2AC2AC5 SLP105=
CYYG;2007-03-15 05:00;METAR CYYG 150500Z 19010KT 12SM SCT018 BKN080 OVC110 07/06 A2982 RMK SC4AC1AC3 SLP100=
CYYG;2007-03-15 07:00;METAR CYYG 150700Z 15005KT 3SM -SHRA BR OVC014 05/05 A2980 RMK SC8 SLP094=
CYYG;2007-03-15 08:00;METAR CYYG NIL=
CYYG;2007-03-15 08:26;SPECI CYYG 150826Z 19012G18KT 3SM -SHRA BR SCT003 OVC009 07/ RMK SF3SF5=
CYYG;2007-03-15 09:00;METAR CYYG 150900Z 18010G15KT 3SM -SHRA BR SCT003 OVC009 07/06 A2979 RMK SF3SF5 SLP089=
CYYG;2007-03-15 09:23;SPECI CYYG 150923Z 18013KT 4SM BR SCT003 OVC009 07/ RMK SF3SF5=
CYYG;2007-03-15 10:00;METAR CYYG 151000Z 19011KT 4SM BR FEW003 OVC009 07/06 A2980 RMK SF2SF6 SLP092=
CYYG;2007-03-15 10:12;SPECI CYYG 151012Z 20011KT 4SM -SHRA BR FEW003 OVC009 07/ RMK SF2SF6=
CYYG;2007-03-15 11:00;METAR CYYG 151100Z 19011KT 6SM -SHRA BR FEW003 OVC010 07/07 A2980 RMK SF2SF6 SLP094=
CYYG;2007-03-15 12:00;METAR CYYG 151200Z 19013G19KT 3SM -SHRA BR FEW003 OVC010 07/07 A2980 RMK SF2SF6 SLP092=
CYYG;2007-03-15 12:40;SPECI CYYG 151240Z 20012KT 2 1/2SM -SHRA SCT003 OVC007 07/ RMK SF3SF5=
CYYG;2007-03-15 13:00;METAR CYYG 151300Z 20012KT 2 1/2SM -SHRA BR SCT003 OVC008 07/06 A2982 RMK SF4SF4 SLP098=
CYYG;2007-03-15 14:00;METAR CYYG 151400Z 19011KT 2 1/2SM BR SCT003 OVC007 07/06 A2981 RMK SF4SF4 VIS E 6 OCNL -SHRA SLP097=
CYYG;2007-03-15 14:20;SPECI CYYG 151420Z 20012KT 4SM BR FEW003 OVC008 07/ RMK SF2SF6=
CYYG;2007-03-15 15:00;METAR CYYG 151500Z 01002KT 3SM BR SCT003 OVC007 07/07 A2981 RMK SF3SF5 SLP095=
CYYG;2007-03-15 16:00;METAR CYYG NIL=
CYYG;2007-03-15 17:00;METAR CYYG 151700Z 20013KT 6SM BR FEW003 OVC009 08/07 A2977 RMK SF1SF7 SLP083=
CYYG;2007-03-15 18:00;METAR CYYG 151800Z 19010KT 6SM BR FEW003 OVC009 08/07 A2975 RMK SF1SF7 SLP077=
CYYG;2007-03-15 19:00;METAR CYYG 151900Z 22008KT 4SM BR FEW003 OVC008 07/06 A2977 RMK SF2SF6 SLP082=
CYYG;2007-03-15 20:00;METAR CYYG 152000Z 26003KT 1 1/2SM BR OVC003 06/06 A2978 RMK SF8 SLP086=
CYYG;2007-03-15 21:00;METAR CYYG 152100Z 28002KT 2 1/2SM -SHRA BR BKN003 OVC009 07/06 A2979 RMK SF5SF3 SLP088=
CYYG;2007-03-15 22:00;METAR CYYG 152200Z 29008KT 2 1/2SM -SHRA BR BKN004 BKN007 OVC016 06/06 A2982 RMK SF5SF2SC1 SLP098=
CYYG;2007-03-15 22:16;SPECI CYYG 152216Z 30008KT 6SM -SHRA BR SCT004 OVC007 06/ RMK SF3SF5=
CYYG;2007-03-15 23:00;METAR CYYG 152300Z 33009KT 15SM -RA BKN003 OVC007 04/04 A2987 RMK SF6SF2 SLP115=
CYYG;2007-03-15 23:49;SPECI CYYG 152349Z 35009KT 10SM -DZ OVC003 01/ RMK SF8=
CYYG;2007-03-16 00:00;METAR CYYG 160000Z 35010KT 10SM -DZ OVC003 01/00 A2993 RMK SF8 PRESRR SLP135=
CYYG;2007-03-16 00:45;SPECI CYYG 160045Z 35009KT 15SM BKN003 OVC008 01/ RMK SF6SF2=
CYYG;2007-03-16 01:00;METAR CYYG 160100Z 36008KT 15SM SCT003 OVC017 01/00 A2996 RMK SF3SC5 SLP148=
CYYG;2007-03-16 02:00;METAR CYYG 160200Z 33007KT 15SM OVC017 01/00 A3002 RMK SC8 PRESRR SLP168=
CYYG;2007-03-16 02:41;SPECI CYYG 160241Z 33009KT 5SM -DZ BR BKN003 OVC008 01/ RMK SF6SF2=
CYYG;2007-03-16 02:51;SPECI CYYG 160251Z 33009G15KT 5SM -RA BR OVC004 01/ RMK SF8=
CYYG;2007-03-16 03:00;METAR CYYG 160300Z 34015G20KT 5SM -RA BR BKN003 OVC006 01/00 A3006 RMK SF6SF2 SLP181=
CYYG;2007-03-16 03:12;SPECI CYYG 160312Z 33014G21KT 15SM FEW003 SCT008 OVC018 00/ RMK SF2SF2SC5=
CYYG;2007-03-16 04:00;METAR CYYG 160400Z 34013G25KT 15SM OVC024 M01/M06 A3012 RMK SC8 SLP200=
CYYG;2007-03-16 05:00;METAR CYYG 160500Z 32017G28KT 15SM FEW026 SCT033 OVC044 M03/M08 A3015 RMK SC2SC2SC4 SLP211=
CYYG;2007-03-16 07:00;METAR CYYG 160700Z 33017G24KT 15SM FEW039 OVC130 M05/M10 A3023 RMK SC2AC6 SLP238=
CYYG;2007-03-16 08:00;METAR CYYG 160800Z 34016G24KT 15SM OVC130 M05/M10 A3026 RMK AC8 SLP248=
CYYG;2007-03-16 09:00;METAR CYYG 160900Z 33013G20KT 15SM FEW021 OVC140 M06/M11 A3031 RMK SC2AC6 SLP266=
CYYG;2007-03-16 11:00;METAR CYYG 161100Z 33010G15KT 15SM BKN026 BKN160 M06/M10 A3041 RMK SC6AC1 SLP300=
CYYG;2007-03-16 11:27;SPECI CYYG 161127Z 35014G20KT 15SM -SHSN BKN026 BKN250 M06/ RMK SC6CI1=
CYYG;2007-03-16 13:00;METAR CYYG 161300Z 35014G19KT 12SM -SHSN BKN026 BKN250 M06/M11 A3047 RMK SC7CI1 SLP322=
CYYG;2007-03-16 14:00;METAR CYYG 161400Z 34014G19KT 10SM -SHSN BKN026 BKN250 M06/M11 A3050 RMK SC7CI1 SLP329=
CYYG;2007-03-16 15:00;METAR CYYG 161500Z 02016G21KT 10SM -SHSN BKN022 BKN250 M05/M10 A3051 RMK SC7CI1 SLP333=
CYYG;2007-03-16 17:00;METAR CYYG 161700Z 02016KT 12SM -SHSN BKN021 BKN250 M05/M10 A3051 RMK SC6CI1 SLP335=
CYYG;2007-03-16 18:00;METAR CYYG 161800Z 01018G25KT 8SM -SHSN BKN020 OVC250 M06/M10 A3052 RMK SC7CI0 SLP337=
CYYG;2007-03-16 19:00;METAR CYYG 161900Z 02013G18KT 8SM -SHSN OVC021 M05/M09 A3053 RMK SC8 SLP343=
CYYG;2007-03-16 20:00;METAR CYYG 162000Z 04013G21KT 10SM -SHSN BKN021 OVC200 M06/M11 A3053 RMK SC7CS1 SLP341=
CYYG;2007-03-16 21:00;METAR CYYG NIL=
CYYG;2007-03-16 22:00;METAR CYYG 162200Z 05014KT 15SM BKN020 OVC120 M06/M11 A3055 RMK SC6AS2 SLP348=
CYYG;2007-03-16 23:00;METAR CYYG 162300Z 06012KT 15SM BKN022 OVC120 M06/M10 A3056 RMK SC5AS3 SLP353=
CYYG;2007-03-17 02:00;METAR CYYG NIL=
CYYG;2007-03-17 02:08;SPECI CYYG 170208Z 06016KT 12SM -SHSN SCT014 OVC036 M06/ RMK SC4SC4=
CYYG;2007-03-17 02:39;SPECI CYYG 170239Z 06015G21KT 1 1/4SM -SN VV015 M06/ RMK SN8=
CYYG;2007-03-17 03:00;METAR CYYG 170300Z 06015KT 1SM R03/5000FT/N -SN DRSN VV010 M06/M09 A3052 RMK SN8 SLP337=
CYYG;2007-03-17 04:28;SPECI CYYG 170428Z 05016KT 2SM -SN DRSN OVC009 M06/ RMK SC8=
CYYG;2007-03-17 04:47;SPECI CYYG 170447Z 05019KT 3SM -SN DRSN OVC010 M06/ RMK SC8=
CYYG;2007-03-17 05:00;METAR CYYG 170500Z 05015G24KT 6SM -SN DRSN BKN009 OVC034 M06/M08 A3043 RMK SC7SC1 SLP307=
CYYG;2007-03-17 06:00;METAR CYYG 170600Z 06013G18KT 8SM -SN DRSN BKN009 OVC037 M05/M08 A3042 RMK SC6SC2 SLP304=
CYYG;2007-03-17 07:33;SPECI CYYG 170733Z 05018KT 3SM -SN DRSN SCT012 OVC048 M05/ RMK SC3SC5=
CYYG;2007-03-17 07:44;SPECI CYYG 170744Z 05017G24KT 4SM -PLSN DRSN FEW012 OVC046 M05/ RMK SC2SC6=
CYYG;2007-03-17 08:00;METAR CYYG 170800Z 05017KT 6SM -PLSN FEW012 OVC042 M04/M06 A3033 RMK SC2SC6 /S01/ SLP273=
CYYG;2007-03-17 08:46;SPECI CYYG 170846Z 05013G21KT 4SM -PL -FZRA BKN010 OVC034 M04/ RMK SC5SC3=
CYYG;2007-03-17 09:48;SPECI CYYG 170948Z 07014KT 2SM R03/5500FT/N -PL BR BKN009 OVC021 M04/ RMK SC6SC2=
CYYG;2007-03-17 10:00;METAR CYYG 171000Z 07015KT 2SM -PL BR BKN008 OVC020 M04/M05 A3025 REFZRA RMK SC6SC2 SLP246=
CYYG;2007-03-17 10:27;SPECI CYYG 171027Z 07015KT 2 1/2SM -FZDZ BR OVC011 M04/M05 RMK SC8=
CYYG;2007-03-17 11:00;METAR CYYG 171100Z 09012KT 2SM -FZDZ BR OVC008 M03/M04 A3021 RMK SF8 SLP232=
CYYG;2007-03-17 11:41;SPECI CYYG 171141Z 09016KT 10SM -FZDZ OVC005 M02/ RMK SF8 VIS NW-NE 3=
CYYG;2007-03-17 12:00;METAR CYYG 171200Z 10015KT 10SM -FZDZ OVC005 M02/M03 A3017 RMK SF8 SLP218=
CYYG;2007-03-17 12:37;SPECI CYYG 171237Z 12016G21KT 3SM -FZRA BR OVC005 M00/ REFZDZ RMK SF8=
CYYG;2007-03-17 13:00;METAR CYYG 171300Z 12017KT 5SM -RA BR OVC006 01/M00 A3015 REFZRAFZDZ RMK SF8 SLP213=
CYYG;2007-03-17 13:53;SPECI CYYG 171353Z 13018G26KT 15SM OVC007 01/ RMK SF8=
CYYG;2007-03-17 14:00;METAR CYYG NIL=
CYYG;2007-03-17 14:18;SPECI CYYG 171418Z 13016G27KT 8SM -RA OVC007 01/ RMK SF8=
CYYG;2007-03-17 15:00;METAR CYYG 171500Z 13021G26KT 15SM -RA OVC005 01/00 A3008 RMK SF8 SLP188=
CYYG;2007-03-17 16:00;METAR CYYG 171600Z 12022G29KT 15SM OVC005 01/00 A3004 RMK SF8 INTMT -RA SLP176=
CYYG;2007-03-17 16:30;SPECI CYYG 171630Z 12018G27KT 10SM OVC005 02/ RMK SF8=
CYYG;2007-03-17 17:00;METAR CYYG 171700Z 13018G28KT 10SM OVC005 02/01 A3002 RMK SF8 SLP169=
CYYG;2007-03-17 17:37;SPECI CYYG 171737Z 13014G19KT 6SM BR OVC004 02/ RMK SF8=
CYYG;2007-03-17 18:00;METAR CYYG 171800Z 12014KT 3SM BR OVC003 02/01 A3000 RMK SF8 SLP160=
CYYG;2007-03-17 18:29;SPECI CYYG 171829Z 12012G17KT 3SM BR OVC002 02/ RMK SF8=
CYYG;2007-03-17 19:00;METAR CYYG 171900Z 12014KT 2SM BR OVC002 02/02 A2997 RMK SF8 SLP152=
CYYG;2007-03-17 20:00;METAR CYYG 172000Z 12016KT 1/2SM R03/P6000FT/N FG VV002 02/02 A2993 RMK FG8 SLP138=
CYYG;2007-03-17 21:00;METAR CYYG NIL=
CYYG;2007-03-17 22:12;SPECI CYYG 172212Z 12012G17KT 1/2SM R03/P6000FT/U FG VV002 04/ RMK FG8=
CYYG;2007-03-17 22:41;SPECI CYYG 172241Z 13014G21KT 2SM BR OVC002 04/ RMK SF8=
CYYG;2007-03-17 23:00;METAR CYYG NIL=
CYYG;2007-03-18 00:00;METAR CYYG 180000Z 15019G29KT 4SM BR OVC003 05/05 A2980 RMK SF8 SLP094=
CYYG;2007-03-18 03:00;METAR CYYG NIL=
CYYG;2007-03-18 05:00;METAR CYYG NIL=
CYYG;2007-03-18 05:35;SPECI CYYG 180535Z 14027G33KT 15SM -RA BKN008 OVC014 08/ RMK SF6SC2=
CYYG;2007-03-18 06:00;METAR CYYG 180600Z 15027G37KT 15SM -RA BKN008 OVC050 08/07 A2957 RMK SF6SC2 SLP014=
CYYG;2007-03-18 07:00;METAR CYYG 180700Z 16025G34KT 10SM -RA BKN007 OVC014 08/08 A2957 RMK SF6SC2 SLP016=
CYYG;2007-03-18 08:00;METAR CYYG 180800Z 15018G26KT 6SM -RA BR OVC004 08/08 A2955 RMK SF8 SLP009=
CYYG;2007-03-18 09:00;METAR CYYG NIL=
CYYG;2007-03-18 10:00;METAR CYYG NIL=
CYYG;2007-03-18 11:27;SPECI CYYG 181127Z 17018KT 15SM -RA SCT004 OVC014 06/ RMK SF3SC5=
CYYG;2007-03-18 12:00;METAR CYYG 181200Z 17013G18KT 15SM -RA FEW003 FEW010 OVC033 06/06 A2954 RMK SF1SF1SC6 SLP003=
CYYG;2007-03-18 12:29;SPECI CYYG 181229Z 18014KT 15SM FEW010 OVC037 05/ RMK SF1SC7=
CYYG;2007-03-18 12:39;SPECI CYYG 181239Z 18014KT 15SM -RA FEW010 OVC038 05/ RMK SF1SC7=
CYYG;2007-03-18 13:00;METAR CYYG 181300Z 18014KT 15SM -RA FEW010 OVC039 05/04 A2954 RMK SC1SC7 SLP005=
CYYG;2007-03-18 17:00;METAR CYYG 181700Z 20014G19KT 15SM FEW015 BKN023 OVC035 04/01 A2956 RMK CU1SC5SC2 SLP013=
CYYG;2007-03-18 18:00;METAR CYYG 181800Z 20011G17KT 15SM FEW025 BKN037 OVC250 04/M00 A2955 RMK CU1SC6CI2 SLP006=
CYYG;2007-03-18 19:00;METAR CYYG 181900Z 21011KT 15SM FEW030 BKN039 BKN250 04/M01 A2952 RMK CU1SC6CI1 SLP997=
CYYG;2007-03-18 20:00;METAR CYYG 182000Z 19012KT 15SM VCSH FEW033 BKN040 OVC250 04/M00 A2955 RMK CU1SC6CI1 SLP006=
CYYG;2007-03-18 20:51;SPECI CYYG 182051Z 25007KT 15SM -SHRA SCT016 BKN028 02/ RMK SC3SC4=
CYYG;2007-03-18 21:00;METAR CYYG 182100Z 26007KT 15SM -SHRA FEW016 BKN028 01/M02 A2956 RMK SC2SC6 SLP011=
CYYG;2007-03-18 21:45;SPECI CYYG 182145Z 25008KT 15SM BKN018 BKN033 01/ RMK SC5SC2=
CYYG;2007-03-18 22:00;METAR CYYG NIL=
CYYG;2007-03-18 22:41;SPECI CYYG 182241Z 24010G15KT 15SM -SHSN BKN029 OVC050 00/ RMK SC6SC2=
CYYG;2007-03-18 23:00;METAR CYYG 182300Z 25010G18KT 15SM -SHSN OVC029 00/M04 A2958 RMK SC8 SLP018=
CYYG;2007-03-19 00:00;METAR CYYG 190000Z 23015G22KT 15SM -SHSN SCT030 BKN042 OVC050 M00/M05 A2959 RMK SC3SC2SC2 SLP023=
CYYG;2007-03-19 01:00;METAR CYYG NIL=
CYYG;2007-03-19 02:00;METAR CYYG 190200Z 22017G25KT 15SM BKN056 M02/M07 A2960 RMK SC6 SLP027=
CYYG;2007-03-19 03:00;METAR CYYG 190300Z 22013G22KT 15SM FEW070 M02/M07 A2961 RMK AC2 SLP030=
CYYG;2007-03-19 04:00;METAR CYYG 190400Z 22020G26KT 15SM FEW024 SCT082 M02/M06 A2961 RMK SC2AC2 SLP029=
CYYG;2007-03-19 04:18;SPECI CYYG 190418Z 25016G25KT 3SM -SHSN SCT014 BKN022 M04/ RMK SC4SC2=
CYYG;2007-03-19 04:42;SPECI CYYG 190442Z 23011KT 15SM FEW015 FEW025 M04/ RMK SC1SC2=
CYYG;2007-03-19 05:00;METAR CYYG 190500Z 23010KT 15SM FEW025 M04/M07 A2964 RMK SC2 SLP040=
CYYG;2007-03-19 06:00;METAR CYYG 190600Z 23012G19KT 15SM SCT030 M04/M08 A2966 RMK SC3 SLP044=
CYYG;2007-03-19 07:00;METAR CYYG 190700Z 23018G26KT 15SM BKN040 M04/M09 A2966 RMK SC6 SLP045=
CYYG;2007-03-19 08:00;METAR CYYG 190800Z 24018G26KT 15SM SCT018 BKN042 M05/M12 A2971 RMK SC3SC2 SLP061=
CYYG;2007-03-19 11:00;METAR CYYG 191100Z 25012G26KT 15SM FEW030 M05/M11 A2985 RMK SC2 SLP110=
CYYG;2007-03-19 12:00;METAR CYYG 191200Z 26014G22KT 15SM BKN025 M05/M10 A2988 RMK SC6 SLP122=
CYYG;2007-03-19 15:00;METAR CYYG 191500Z 23018G28KT 15SM FEW040 M02/M11 A2997 RMK CF1 SLP152=
CYYG;2007-03-19 16:00;METAR CYYG 191600Z 24016G22KT 15SM FEW045 M01/M10 A3001 RMK CF1 SLP163=
CYYG;2007-03-19 17:00;METAR CYYG 191700Z 24014G20KT 15SM FEW045 M01/M10 A3003 RMK CF1 SLP170=
CYYG;2007-03-19 18:00;METAR CYYG 191800Z 27015G21KT 15SM FEW045 M00/M12 A3005 RMK CF1 SLP178=
CYYG;2007-03-19 19:00;METAR CYYG 191900Z 24016G24KT 15SM FEW050 FEW250 M00/M11 A3008 RMK SF1CI1 SLP188=
CYYG;2007-03-19 21:00;METAR CYYG 192100Z 24012G19KT 15SM SCT250 M00/M12 A3013 RMK CI1 SLP207=
CYYG;2007-03-19 23:00;METAR CYYG 192300Z 25008KT 15SM FEW140 BKN260 M02/M10 A3020 RMK AS1CI2 SLP229=
CYYG;2007-03-20 00:00;METAR CYYG 200000Z 24006KT 15SM FEW140 BKN260 M02/M10 A3022 RMK AS2CI2 SLP235=
CYYG;2007-03-20 01:00;METAR CYYG 200100Z 21011KT 15SM SCT130 BKN260 M02/M09 A3023 RMK AC4CI2 SLP238=
CYYG;2007-03-20 02:00;METAR CYYG 200200Z 22010KT 15SM BKN110 BKN260 M02/M09 A3022 RMK AC6CI2 SLP235=
CYYG;2007-03-20 03:00;METAR CYYG 200300Z 21010G16KT 15SM BKN095 OVC200 M02/M09 A3020 RMK AC6CI2 SLP229=
CYYG;2007-03-20 04:00;METAR CYYG 200400Z 21009KT 15SM FEW090 BKN110 OVC170 M02/M08 A3019 RMK AC2AC5AC2 SLP227=
CYYG;2007-03-20 06:00;METAR CYYG 200600Z 19012KT 15SM OVC140 M02/M07 A3018 RMK AC8 SLP223=
CYYG;2007-03-20 07:00;METAR CYYG 200700Z 18012KT 15SM FEW040 OVC140 M02/M07 A3015 RMK SC2AC6 SLP213=
CYYG;2007-03-20 07:44;SPECI CYYG 200744Z 17013KT 12SM -SHSN BKN012 OVC040 M01/ RMK SC5SC3=
CYYG;2007-03-20 08:00;METAR CYYG 200800Z 17012KT 12SM -SHSN BKN012 OVC052 M01/M06 A3011 RMK SC5SC3 SLP199=
CYYG;2007-03-20 09:00;METAR CYYG 200900Z 16012KT 6SM -SHSN DRSN BKN012 OVC028 M02/M04 A3008 RMK SC5SC3 /S01/ SLP188=
CYYG;2007-03-20 09:24;SPECI CYYG 200924Z 17013G18KT 8SM -SHSN DRSN FEW012 OVC021 M01/ RMK SC2SC6=
CYYG;2007-03-20 10:00;METAR CYYG 201000Z 17018KT 6SM -SHSN DRSN FEW012 OVC025 M01/M03 A3004 RMK SC2SC6 SLP173=
CYYG;2007-03-20 10:47;SPECI CYYG 201047Z 17016G24KT 2SM -SHSN DRSN SCT007 OVC020 M01/ RMK SF4SC4=
CYYG;2007-03-20 11:00;METAR CYYG 201100Z 17017G22KT 1SM R03/4000VP6000FT/N -SN DRSN OVC006 M01/M02 A3001 RMK SN2SF6 SLP163=
CYYG;2007-03-20 11:26;SPECI CYYG 201126Z 17019G25KT 1/2SM R03/3500V6000FT/N SN DRSN OVC004 M01/ RMK SN4SF4=
CYYG;2007-03-20 12:00;METAR CYYG 201200Z 17017G24KT 1SM R03/P6000FT/N -SN DRSN OVC004 M01/M01 A2997 RESN RMK SN2SF6 /S03/ SLP151=
CYYG;2007-03-20 13:20;SPECI CYYG 201320Z 17019G25KT 2SM -SN OVC004 M00/ RMK SF8=
CYYG;2007-03-20 14:00;METAR CYYG 201400Z 16016KT 2SM -SN OVC004 M00/M01 A2988 RMK SF8 SLP121=
CYYG;2007-03-20 15:00;METAR CYYG 201500Z 17017KT 2SM -SN OVC004 01/M00 A2982 RMK SF8 PRESFR /S01/ SLP101=
CYYG;2007-03-20 15:02;SPECI CYYG 201502Z 17017KT 1/2SM R03/2800VP6000FT/D SN OVC004 00/ RMK SN4SF4=
CYYG;2007-03-20 15:07;SPECI CYYG 201507Z 17016KT 2SM R03/2800VP6000FT/U -SN OVC003 00/ RESN RMK SF8=
CYYG;2007-03-20 16:00;METAR CYYG 201600Z 16015KT 2SM -SN BKN002 BKN005 OVC011 00/M00 A2976 RESN RMK SF6SF2SC1 PRESFR /S02/ SLP080=
CYYG;2007-03-20 17:00;METAR CYYG 201700Z 18012KT 5SM -SN SCT002 BKN004 OVC009 01/00 A2971 RMK SF3SF3SF2 SLP063=
CYYG;2007-03-20 17:47;SPECI CYYG 201747Z 20012KT 12SM -RA FEW002 BKN005 OVC009 02/ RMK SF1SF5SF2=
CYYG;2007-03-20 18:00;METAR CYYG 201800Z 21010G16KT 15SM -RA FEW004 OVC009 02/01 A2969 RMK SF2SF6 /S03/ SLP055=
CYYG;2007-03-20 18:46;SPECI CYYG 201846Z 26015G21KT 15SM BKN009 BKN020 02/ RMK SF5SC2 WSHFT 1846=
CYYG;2007-03-20 19:00;METAR CYYG 201900Z 27015G20KT 15SM -SHRASN FEW009 BKN020 02/M00 A2971 RMK SF2SC5 SLP063=
CYYG;2007-03-20 19:41;SPECI CYYG 201941Z 26010G18KT 15SM FEW013 FEW038 BKN073 03/ RMK CU1SC2AC2=
CYYG;2007-03-20 20:00;METAR CYYG 202000Z 26012G18KT 15SM FEW013 FEW038 SCT072 03/M01 A2973 RMK CU1SC2AC2 SLP069=
CYYG;2007-03-20 20:22;SPECI CYYG 202022Z 25012G18KT 15SM -SHSN BKN026TCU BKN072 03/ RMK TCU5AC2 VIS S-W 3=
CYYG;2007-03-20 22:00;METAR CYYG 202200Z 27008KT 15SM FEW035 FEW082 FEW250 01/M02 A2977 RMK CU1AC1CI0 SLP085=
CYYG;2007-03-20 23:00;METAR CYYG 202300Z 28013KT 15SM FEW025 FEW130 FEW250 01/M03 A2980 RMK CU1AC1CI0 SLP095=
CYYG;2007-03-21 00:00;METAR CYYG 210000Z 28016KT 15SM FEW025 FEW120 M01/M05 A2984 RMK SC2AC1 SLP107=
CYYG;2007-03-21 00:14;SPECI CYYG 210014Z 28017G24KT 6SM -SHSN FEW013 BKN020 M01/ RMK SC2SC4 CU ASOCTD=
CYYG;2007-03-21 00:25;SPECI CYYG 210025Z 28014G22KT 2SM -SHSN SCT013 OVC025 M02/ RMK SC3SC5 CU ASOCTD=
CYYG;2007-03-21 00:41;SPECI CYYG 210041Z 27013G18KT 1SM R03/P6000FT/U -SHSN VV010 M02/ RMK SN8=
CYYG;2007-03-21 00:52;SPECI CYYG 210052Z 28011G18KT 1/2SM R03/5000FT/D SHSN VV005 M02/ RMK SN8=
CYYG;2007-03-21 01:00;METAR CYYG 210100Z 27013G18KT 3/8SM R03/5000FT/N SHSN VV004 M02/M04 A2988 RMK SN8 /S01/ SLP121=
CYYG;2007-03-21 01:10;SPECI CYYG 210110Z 29015KT 5/8SM R03/P6000FT/D -SHSN VV006 M02/ RESN RMK SN8=
CYYG;2007-03-21 01:18;SPECI CYYG 210118Z 32015G22KT 1SM R03/4000VP6000FT/U -SHSN OVC010 M02/ RESN RMK SN2SC6=
CYYG;2007-03-21 02:00;METAR CYYG 210200Z 31020G27KT 2SM -SHSN OVC011 M02/M03 A2993 RESN RMK SC8 SLP137=
CYYG;2007-03-21 02:37;SPECI CYYG 210237Z 33019G32KT 5/8SM R03/1400V5500FT/D -SHSN DRSN VV006 M02/ RESN RMK SN8=
CYYG;2007-03-21 03:00;METAR CYYG NIL=
CYYG;2007-03-21 03:16;SPECI CYYG 210316Z 32025G34KT 2SM R03/1200V5500FT/D -SHSN BLSN OVC013 M03/ RMK SC8=
CYYG;2007-03-21 04:00;METAR CYYG 210400Z 33024G32KT 1/2SM R03/1100VP6000FT/U -SHSN BLSN OVC020 M03/M07 A3007 RMK SC8 TWR VIS 5 PRESRR /S03/ SLP185=
CYYG;2007-03-21 04:47;SPECI CYYG 210447Z 32020G34KT 6SM R03/1200V3000FT/N -SHSN BLSN OVC030 M04/ RMK SC8=
CYYG;2007-03-21 05:00;METAR CYYG 210500Z 33021G31KT 6SM R03/2400VP6000FT/U -SHSN BLSN OVC032 M04/M09 A3013 RMK SC8 PRESRR SLP206=
CYYG;2007-03-21 06:00;METAR CYYG NIL=
CYYG;2007-03-21 07:00;METAR CYYG 210700Z 32014G27KT 12SM -SHSN DRSN OVC032 M06/M11 A3027 RMK SC8 G37 PST HR PRESRR SLP253=
CYYG;2007-03-21 09:00;METAR CYYG NIL=
CYYG;2007-03-21 10:00;METAR CYYG 211000Z 34017G28KT 15SM DRSN BKN035 M07/M14 A3041 RMK SC6 SLP302=
CYYG;2007-03-21 11:00;METAR CYYG 211100Z 33015G26KT 15SM DRSN BKN030 M08/M15 A3046 RMK SC6 SLP316=
CYYG;2007-03-21 12:00;METAR CYYG 211200Z 31016G25KT 15SM DRSN BKN031 M07/M13 A3051 RMK SC6 SLP334=
CYYG;2007-03-21 13:00;METAR CYYG 211300Z CCA 31002G24KT 15SM BKN033 M08/M14 A3054 RMK SC6 SLP345=
CYYG;2007-03-21 14:00;METAR CYYG 211400Z 33011G20KT 15SM SCT029 M07/M14 A3057 RMK SC4 SLP354=
CYYG;2007-03-21 15:00;METAR CYYG 211500Z 32016G21KT 15SM BKN029 M07/M14 A3059 RMK SC6 SLP361=
CYYG;2007-03-21 16:00;METAR CYYG 211600Z 33013G20KT 15SM SCT029 M07/M13 A3060 RMK SC4 SLP364=
CYYG;2007-03-21 17:00;METAR CYYG 211700Z 32013G19KT 15SM SCT033 M07/M13 A3062 RMK SC4 SLP371=
CYYG;2007-03-21 18:00;METAR CYYG 211800Z 33011G16KT 15SM FEW030 FEW250 M07/M14 A3060 RMK SC2CI0 SLP365=
CYYG;2007-03-21 19:00;METAR CYYG 211900Z 32011KT 15SM FEW030 FEW250 M07/M14 A3059 RMK SC1CI0 SLP361=
CYYG;2007-03-21 20:00;METAR CYYG 212000Z 33007KT 15SM FEW030 SCT250 M06/M14 A3058 RMK SC1CI1 SLP360=
CYYG;2007-03-21 21:00;METAR CYYG 212100Z 29006KT 15SM BKN250 M06/M15 A3058 RMK CI5 SLP357=
CYYG;2007-03-21 22:00;METAR CYYG 212200Z 31003KT 15SM BKN250 M05/M15 A3056 RMK CI2 SLP352=
CYYG;2007-03-21 23:00;METAR CYYG 212300Z 00000KT 15SM FEW190 OVC280 M06/M15 A3056 RMK CC1CS2 SLP351=
CYYG;2007-03-22 00:00;METAR CYYG 220000Z 18005KT 15SM FEW190 OVC280 M08/M14 A3055 RMK CC1CS2 SLP347=
CYYG;2007-03-22 01:00;METAR CYYG 220100Z 19007KT 15SM OVC280 M07/M13 A3053 RMK CS3 SLP342=
CYYG;2007-03-22 02:00;METAR CYYG 220200Z 20005KT 15SM FEW100 OVC280 M06/M12 A3051 RMK AC1CS2 SLP334=
CYYG;2007-03-22 03:00;METAR CYYG NIL=
CYYG;2007-03-22 05:00;METAR CYYG 220500Z 23009G15KT 15SM OVC067 M03/M09 A3042 RMK AC8 SLP306=
CYYG;2007-03-22 06:00;METAR CYYG NIL=
CYYG;2007-03-22 07:00;METAR CYYG 220700Z 21012KT 15SM OVC095 M03/M09 A3037 RMK AC8 SLP287=
CYYG;2007-03-22 08:00;METAR CYYG 220800Z 21012KT 15SM FEW095 OVC140 M03/M11 A3033 RMK AC2AC6 SLP276=
CYYG;2007-03-22 09:00;METAR CYYG 220900Z 21011G16KT 15SM OVC140 M03/M11 A3031 RMK AC8 SLP268=
CYYG;2007-03-22 10:00;METAR CYYG 221000Z 21014G20KT 15SM FEW140 BKN280 M03/M10 A3028 RMK AC2CI2 SLP258=
CYYG;2007-03-22 11:00;METAR CYYG 221100Z 20016KT 15SM FEW019 BKN140 OVC250 M03/M09 A3025 RMK SC2AC4CI1 SLP247=
CYYG;2007-03-22 12:00;METAR CYYG 221200Z 20016G22KT 15SM BKN020 BKN095 OVC250 M03/M08 A3021 RMK SC6AC1CI1 SLP234=
CYYG;2007-03-22 12:54;SPECI CYYG 221254Z 20018G25KT 15SM -SN FEW020 SCT060 OVC250 M02/ RMK SC2SC2CI2=
CYYG;2007-03-22 13:00;METAR CYYG 221300Z 19018G24KT 15SM -SN SCT025 BKN100 OVC250 M01/M05 A3017 RMK SC3AC2CI2 SLP219=
CYYG;2007-03-22 13:18;SPECI CYYG 221318Z 20022G28KT 15SM -FZRA BKN025 BKN110 OVC250 M01/ RMK SC5AC2CI1 PCPN VRY LGT=
CYYG;2007-03-22 13:48;SPECI CYYG 221348Z 20022G29KT 15SM BKN022 OVC110 M01/ REFZRA RMK SC6AC2=
CYYG;2007-03-22 14:44;SPECI CYYG 221444Z 20022G28KT 15SM -FZRA OVC020 M01/ RMK SC8 PCPN VRY LGT=
CYYG;2007-03-22 15:00;METAR CYYG 221500Z 20020G27KT 15SM -FZRA OVC020 M00/M04 A3008 RMK SC8 PCPN VRY LGT SLP188=
CYYG;2007-03-22 15:11;SPECI CYYG 221511Z 20019G26KT 15SM OVC018 M00/ REFZRA RMK SC8=
CYYG;2007-03-22 16:00;METAR CYYG 221600Z 20018G28KT 15SM -DZ OVC018 00/M03 A3004 REFZRA RMK SC8 SLP174=
CYYG;2007-03-22 16:24;SPECI CYYG 221624Z 21019G26KT 15SM OVC020 01/ RMK SC8=
CYYG;2007-03-22 16:33;SPECI CYYG 221633Z 21019G26KT 10SM -RA OVC019 01/ RMK SC8=
CYYG;2007-03-22 18:00;METAR CYYG 221800Z 21021G29KT 15SM OVC014 03/M00 A2993 RMK SC8 SLP137=
CYYG;2007-03-22 19:00;METAR CYYG 221900Z 22019G29KT 15SM OVC014 04/01 A2990 RMK SC8 SLP126=
CYYG;2007-03-22 20:00;METAR CYYG 222000Z 21021G29KT 15SM OVC014 04/02 A2985 RMK SC8 SLP110=
CYYG;2007-03-22 21:00;METAR CYYG 222100Z 20017G24KT 15SM OVC012 04/02 A2982 RMK SC8 SLP101=
CYYG;2007-03-22 23:00;METAR CYYG 222300Z 20019G25KT 10SM OVC011 05/04 A2975 RMK SC8 SLP076=
CYYG;2007-03-23 00:00;METAR CYYG 230000Z 20017G22KT 10SM OVC009 06/04 A2974 RMK SC8 SLP074=
CYYG;2007-03-23 01:00;METAR CYYG 230100Z 21017G26KT 10SM OVC009 07/05 A2974 RMK SC8 SLP071=
CYYG;2007-03-23 01:52;SPECI CYYG 230152Z 23019G26KT 6SM -SHRA BR SCT007 OVC010 07/ RMK SF3SC5=
CYYG;2007-03-23 02:49;SPECI CYYG 230249Z 23020G32KT 6SM -SHRA BR OVC011 08/ RMK SC8=
CYYG;2007-03-23 03:00;METAR CYYG 230300Z 22016G30KT 6SM -SHRA BR OVC009 07/06 A2970 RMK SC8 SLP060=
CYYG;2007-03-23 04:00;METAR CYYG 230400Z 23016G28KT 6SM -SHRA BR OVC009 07/06 A2969 RMK SC8 SLP055=
CYYG;2007-03-23 05:00;METAR CYYG 230500Z 23014G20KT 5SM -SHRA BR OVC009 07/06 A2971 RMK SC8 SLP061=
CYYG;2007-03-23 07:00;METAR CYYG 230700Z 24015G20KT 12SM OVC010 07/06 A2972 RMK SC8 SLP065=
CYYG;2007-03-23 08:00;METAR CYYG 230800Z 25010G15KT 12SM OVC008 06/06 A2974 RMK SC8 SLP074=
CYYG;2007-03-23 09:00;METAR CYYG 230900Z 24009KT 3SM BR OVC005 06/05 A2976 RMK SF8 SLP079=
CYYG;2007-03-23 09:38;SPECI CYYG 230938Z 25013KT 2SM BR BKN005 05/ RMK SF7=
CYYG;2007-03-23 10:00;METAR CYYG 231000Z 25008KT 2 1/2SM BR BKN004 05/05 A2977 RMK SF7 SLP083=
CYYG;2007-03-23 11:00;METAR CYYG 231100Z 24008KT 1 1/2SM BR OVC002 05/05 A2980 RMK SF8 SLP092=
CYYG;2007-03-23 12:00;METAR CYYG 231200Z 25010KT 1SM R03/P6000FT/U BR VV002 05/05 A2981 RMK FG8 TOWER VIS 5/8 SLP097=
CYYG;2007-03-23 12:41;SPECI CYYG 231241Z 25009KT 3SM BR BKN003 OVC250 05/ RMK SF6CI1=
CYYG;2007-03-23 13:00;METAR CYYG 231300Z 24008KT 5SM BR BKN003 OVC250 06/06 A2982 RMK SF7CI1 SLP099=
CYYG;2007-03-23 13:25;SPECI CYYG 231325Z 25009KT 15SM BKN006 BKN100 BKN250 06/ RMK SF5AC1CI1=
CYYG;2007-03-23 13:33;SPECI CYYG 231333Z 24008KT 15SM SCT007 BKN080 BKN250 07/ RMK SF3AC2CI1=
CYYG;2007-03-23 14:00;METAR CYYG 231400Z 27009KT 15SM FEW010 FEW035 BKN043 07/05 A2983 RMK SF1SC2SC4 SLP104=
CYYG;2007-03-23 15:00;METAR CYYG NIL=
CYYG;2007-03-23 16:00;METAR CYYG NIL=
CYYG;2007-03-23 17:00;METAR CYYG 231700Z 32009KT 15SM FEW035 BKN043 BKN250 07/02 A2987 RMK SC2SC3CI1 SLP115=
CYYG;2007-03-23 19:00;METAR CYYG 231900Z 36013G18KT 15SM FEW035 BKN048 BKN250 03/M04 A2988 RMK SC2SC4CI1 SLP120=
CYYG;2007-03-23 20:00;METAR CYYG NIL=
CYYG;2007-03-23 21:00;METAR CYYG 232100Z 36010KT 15SM FEW050 FEW140 BKN250 03/M05 A2992 RMK SC1AC2CC2 SLP134=
CYYG;2007-03-23 22:00;METAR CYYG NIL=
CYYG;2007-03-23 23:00;METAR CYYG 232300Z 35006KT 15SM FEW060 SCT130 BKN250 01/M05 A2998 RMK SC2AC2CI0 SLP153=
CYYG;2007-03-24 01:00;METAR CYYG 240100Z 33004KT 15SM FEW060 SCT140 M01/M05 A3004 RMK SC1AC2 SLP175=
CYYG;2007-03-24 02:00;METAR CYYG 240200Z 33004KT 15SM FEW140 M01/M05 A3006 RMK AC2 SLP182=
CYYG;2007-03-24 03:00;METAR CYYG 240300Z 34003KT 15SM FEW130 M02/M05 A3010 RMK AC2 SLP195=
CYYG;2007-03-24 04:00;METAR CYYG 240400Z 33004KT 15SM FEW057 FEW130 M02/M05 A3012 RMK SC1AC1 SLP200=
CYYG;2007-03-24 05:00;METAR CYYG 240500Z 31004KT 15SM FEW058 M03/M05 A3014 RMK SC2 SLP208=
CYYG;2007-03-24 06:00;METAR CYYG 240600Z 32004KT 15SM SKC M03/M06 A3016 RMK SLP214=
CYYG;2007-03-24 07:00;METAR CYYG NIL=
CYYG;2007-03-24 08:00;METAR CYYG 240800Z 35005KT 15SM FEW050 M02/M06 A3020 RMK SC1 SLP227=
CYYG;2007-03-24 10:00;METAR CYYG 241000Z 01007KT 15SM FEW018 M03/M06 A3027 RMK SC2 SLP252=
CYYG;2007-03-24 12:00;METAR CYYG 241200Z 03011KT 15SM FEW020 M02/M07 A3033 RMK SC2 SLP272=
CYYG;2007-03-24 13:00;METAR CYYG 241300Z 02013G18KT 15SM BKN024 M03/M07 A3035 RMK SC5 SLP281=
CYYG;2007-03-24 14:00;METAR CYYG 241400Z 36010G16KT 15SM BKN022 M02/M07 A3039 RMK SC6 SLP294=
CYYG;2007-03-24 15:00;METAR CYYG 241500Z 34010G15KT 15SM BKN022 M03/M08 A3041 RMK SC6 SLP302=
CYYG;2007-03-24 16:00;METAR CYYG NIL=
CYYG;2007-03-24 17:00;METAR CYYG 241700Z 01010KT 15SM BKN024 M03/M09 A3043 RMK SC7 SLP306=
CYYG;2007-03-24 18:00;METAR CYYG 241800Z 36011G16KT 15SM SCT022 M04/M10 A3042 RMK SC4 SLP305=
CYYG;2007-03-24 19:00;METAR CYYG 241900Z 01009KT 15SM FEW024 BKN250 M04/M10 A3043 RMK SC1CI1 SLP306=
CYYG;2007-03-24 20:00;METAR CYYG 242000Z 36009KT 15SM FEW024 BKN250 M04/M10 A3042 RMK CF1CI1 SLP303=
CYYG;2007-03-24 21:00;METAR CYYG 242100Z 36008KT 15SM FEW025 BKN250 M05/M10 A3043 RMK CF1CI1 SLP306=
CYYG;2007-03-24 22:00;METAR CYYG 242200Z 01007KT 15SM FEW025 BKN250 M06/M11 A3041 RMK CF1CI1 SLP302=
CYYG;2007-03-25 01:00;METAR CYYG 250100Z 09003KT 15SM BKN220 M08/M11 A3044 RMK CI2 SLP310=
CYYG;2007-03-25 03:00;METAR CYYG 250300Z 09003KT 15SM SCT240 M08/M11 A3042 RMK CI2 SLP306=
CYYG;2007-03-25 05:00;METAR CYYG 250500Z 00000KT 15SM FEW180 BKN240 M08/M11 A3041 RMK AC2CI2 SLP300=
CYYG;2007-03-25 06:00;METAR CYYG 250600Z 04002KT 15SM BKN160 BKN240 M08/M11 A3042 RMK AC5CI2 SLP306=
CYYG;2007-03-25 07:00;METAR CYYG 250700Z 09002KT 15SM SCT160 BKN240 M08/M11 A3041 RMK AC3CI2 SLP303=
CYYG;2007-03-25 08:00;METAR CYYG 250800Z 00000KT 15SM BKN240 M08/M11 A3042 RMK CI2 SLP304=
CYYG;2007-03-25 09:00;METAR CYYG NIL=
CYYG;2007-03-25 10:00;METAR CYYG 251000Z 02003KT 15SM SCT240 M09/M11 A3042 RMK CI2 SLP304=
CYYG;2007-03-25 11:00;METAR CYYG 251100Z 02003KT 15SM FEW160 BKN240 M08/M10 A3042 RMK AC1CI2 SLP305=
CYYG;2007-03-25 14:00;METAR CYYG 251400Z 04011G16KT 15SM SCT022 BKN240 M04/M09 A3046 RMK SC3CI1 SLP319=
CYYG;2007-03-25 15:00;METAR CYYG 251500Z 03011KT 15SM FEW022 BKN240 M03/M09 A3045 RMK SF2CI1 SLP315=
CYYG;2007-03-25 17:00;METAR CYYG 251700Z 02012KT 15SM FEW025 SCT240 M03/M09 A3043 RMK SC2CI1 SLP308=
CYYG;2007-03-25 19:00;METAR CYYG 251900Z 01011G17KT 15SM FEW026 SCT240 M03/M10 A3043 RMK SC2CI1 SLP307=
CYYG;2007-03-25 20:00;METAR CYYG 252000Z 36009G16KT 15SM FEW026 SCT250 M03/M10 A3042 RMK SC2CI1 SLP304=
CYYG;2007-03-25 21:00;METAR CYYG 252100Z 36011KT 15SM FEW025 SCT250 M04/M10 A3042 RMK SC2CI1 SLP305=
CYYG;2007-03-25 22:00;METAR CYYG 252200Z 36007KT 15SM FEW025 SCT250 M04/M10 A3043 RMK SC1CI1 SLP309=
CYYG;2007-03-25 23:00;METAR CYYG 252300Z 01007KT 15SM FEW025 FEW250 M05/M10 A3044 RMK SC1CI1 SLP312=
CYYG;2007-03-26 00:00;METAR CYYG 260000Z 01005KT 15SM FEW250 M06/M10 A3046 RMK CI1 SLP317=
CYYG;2007-03-26 01:00;METAR CYYG NIL=
CYYG;2007-03-26 02:00;METAR CYYG 260200Z 36003KT 15SM FEW021 M07/M10 A3045 RMK SC2 SLP316=
CYYG;2007-03-26 03:00;METAR CYYG 260300Z 35004KT 15SM FEW020 M07/M10 A3045 RMK SC2 SLP314=
CYYG;2007-03-26 04:00;METAR CYYG NIL=
CYYG;2007-03-26 05:00;METAR CYYG 260500Z 00000KT 15SM SKC M08/M10 A3044 RMK SLP311=
CYYG;2007-03-26 06:00;METAR CYYG 260600Z 29002KT 15SM SKC M08/M10 A3044 RMK SLP313=
CYYG;2007-03-26 07:00;METAR CYYG 260700Z 00000KT 15SM SKC M09/M11 A3043 RMK SLP308=
CYYG;2007-03-26 08:00;METAR CYYG 260800Z 32009KT 15SM SKC M10/M11 A3042 RMK SLP304=
CYYG;2007-03-26 09:00;METAR CYYG 260900Z 30004KT 15SM SKC M08/M10 A3043 RMK SLP308=
CYYG;2007-03-26 10:00;METAR CYYG 261000Z 29002KT 15SM SKC M08/M11 A3044 RMK SLP311=
CYYG;2007-03-26 11:00;METAR CYYG 261100Z 30003KT 15SM FEW270 M07/M09 A3043 RMK CI0 SLP309=
CYYG;2007-03-26 12:00;METAR CYYG 261200Z 29005KT 15SM FEW015 FEW270 M05/M08 A3042 RMK CF1CI0 SLP306=
CYYG;2007-03-26 13:00;METAR CYYG 261300Z 26003KT 15SM FEW270 M03/M08 A3042 RMK CI0 SLP305=
CYYG;2007-03-26 14:00;METAR CYYG 261400Z 25002KT 15SM FEW270 M01/M10 A3039 RMK CI1 SLP296=
CYYG;2007-03-26 15:00;METAR CYYG 261500Z 17003KT 15SM SCT270 00/M10 A3036 RMK CI2 SLP284=
CYYG;2007-03-26 16:00;METAR CYYG NIL=
CYYG;2007-03-26 17:00;METAR CYYG 261700Z 19008KT 15SM BKN270 02/M08 A3031 RMK CS2 SLP268=
CYYG;2007-03-26 18:00;METAR CYYG 261800Z 18007KT 15SM BKN270 03/M09 A3030 RMK CS2 SLP262=
CYYG;2007-03-26 19:00;METAR CYYG 261900Z 19006KT 15SM FEW110 SCT270 04/M10 A3028 RMK AC1CI1 SLP257=
CYYG;2007-03-26 21:00;METAR CYYG 262100Z 17006KT 15SM FEW270 04/M09 A3022 RMK CI1 SLP236=
CYYG;2007-03-26 23:00;METAR CYYG 262300Z 21004KT 15SM FEW270 M01/M08 A3020 RMK CI1 SLP228=
CYYG;2007-03-27 00:00;METAR CYYG 270000Z 17004KT 15SM SKC M02/M08 A3018 RMK SLP222=
CYYG;2007-03-27 01:00;METAR CYYG 270100Z 17006KT 15SM SKC M03/M07 A3016 RMK SLP216=
CYYG;2007-03-27 02:00;METAR CYYG 270200Z 18005KT 15SM SKC M03/M08 A3014 RMK SLP208=
CYYG;2007-03-27 03:00;METAR CYYG NIL=
CYYG;2007-03-27 04:00;METAR CYYG 270400Z 22006KT 15SM SKC M01/M05 A3011 RMK SLP197=
CYYG;2007-03-27 06:00;METAR CYYG 270600Z 23006KT 15SM SKC M01/M03 A3007 RMK SLP185=
CYYG;2007-03-27 07:00;METAR CYYG 270700Z 22006KT 15SM SKC M01/M02 A3005 RMK SLP178=
CYYG;2007-03-27 09:00;METAR CYYG 270900Z 25004KT 12SM OVC009 01/M01 A3003 RMK SF8 SLP171=
CYYG;2007-03-27 09:27;SPECI CYYG 270927Z 24005KT 12SM OVC011 01/ RMK SF8=
CYYG;2007-03-27 09:40;SPECI CYYG 270940Z 23002KT 15SM BKN007 OVC009 01/ RMK SF6SF2=
CYYG;2007-03-27 12:00;METAR CYYG 271200Z 22006KT 5SM BR OVC004 02/01 A3002 RMK ST8 SLP167=
CYYG;2007-03-27 14:00;METAR CYYG 271400Z 25008KT 15SM OVC009 04/02 A3000 RMK SC8 SLP161=
CYYG;2007-03-27 14:49;SPECI CYYG 271449Z 25005KT 15SM OVC011 04/ RMK SC8=
CYYG;2007-03-27 15:00;METAR CYYG NIL=
CYYG;2007-03-27 16:00;METAR CYYG 271600Z 22008KT 15SM OVC014 05/01 A2997 RMK SC8 SLP151=
CYYG;2007-03-27 17:00;METAR CYYG 271700Z 26006KT 15SM OVC016 05/01 A2996 RMK SC8 SLP146=
CYYG;2007-03-27 18:00;METAR CYYG 271800Z 25005KT 15SM BKN017 06/02 A2993 RMK SC7 SLP137=
CYYG;2007-03-27 20:00;METAR CYYG 272000Z 25008KT 15SM FEW025 FEW300 08/02 A2989 RMK SC2CI0 SLP123=
CYYG;2007-03-27 21:00;METAR CYYG 272100Z 25008KT 15SM FEW025 BKN300 08/02 A2987 RMK SC1CI0 SLP118=
CYYG;2007-03-27 23:00;METAR CYYG 272300Z 24005KT 15SM FEW025 FEW250 05/01 A2985 RMK SC1CI0 SLP110=
CYYG;2007-03-28 00:00;METAR CYYG 280000Z 25004KT 15SM SKC 04/01 A2985 RMK SLP110=
CYYG;2007-03-28 01:00;METAR CYYG 280100Z 24005KT 15SM SCT030 02/00 A2985 RMK SC4 SLP110=
CYYG;2007-03-28 02:00;METAR CYYG NIL=
CYYG;2007-03-28 03:00;METAR CYYG 280300Z 22005KT 15SM OVC020 03/01 A2979 RMK SC8 SLP088=
CYYG;2007-03-28 04:00;METAR CYYG 280400Z 23005KT 15SM OVC018 04/01 A2976 RMK SC8 SLP078=
CYYG;2007-03-28 05:00;METAR CYYG 280500Z 24009KT 15SM FEW018 OVC071 04/02 A2974 RMK SC2AC6 SLP071=
CYYG;2007-03-28 05:50;SPECI CYYG 280550Z 25008KT 15SM OVC013 04/ RMK SC8=
CYYG;2007-03-28 06:00;METAR CYYG 280600Z 25008KT 15SM OVC012 04/02 A2971 RMK SC8 SLP061=
CYYG;2007-03-28 06:09;SPECI CYYG 280609Z 25008KT 8SM -RA OVC010 03/ RMK SC8=
CYYG;2007-03-28 06:29;SPECI CYYG 280629Z 25009KT 6SM -RA BR OVC006 03/ RMK SF8=
CYYG;2007-03-28 07:00;METAR CYYG NIL=
CYYG;2007-03-28 08:00;METAR CYYG 280800Z 25008KT 5SM -DZ BR OVC003 03/03 A2966 RMK SF8 SLP045=
CYYG;2007-03-28 09:00;METAR CYYG 280900Z 27009KT 15SM -DZ BKN009 OVC037 04/03 A2963 RMK SF6SC2 SLP036=
CYYG;2007-03-28 11:00;METAR CYYG 281100Z 29014G19KT 15SM OVC032 04/02 A2963 RMK SC7 SLP034=
CYYG;2007-03-28 12:52;SPECI CYYG 281252Z 32020G32KT 15SM BKN022 OVC034 03/ RMK SC5SC3=
CYYG;2007-03-28 13:00;METAR CYYG 281300Z 32018G34KT 15SM SCT020 OVC034 03/M02 A2965 RMK SC3SC5 SLP041=
CYYG;2007-03-28 14:00;METAR CYYG 281400Z 31024G32KT 15SM OVC032 02/M03 A2966 RMK SC8 SLP047=
CYYG;2007-03-28 15:00;METAR CYYG 281500Z 32021G35KT 15SM OVC034 02/M04 A2967 RMK SC8 SLP048=
CYYG;2007-03-28 17:00;METAR CYYG 281700Z 30027G37KT 15SM OVC037 01/M06 A2967 RMK SC8 SLP049=
CYYG;2007-03-28 17:26;SPECI CYYG 281726Z 32024G38KT 6SM -SHSN BKN030 BKN045 01/ RMK CU5SC2=
CYYG;2007-03-28 18:00;METAR CYYG 281800Z 31026G36KT 10SM -SHSN BKN032 BKN046 00/M07 A2968 RMK SC5SC2 SLP051=
CYYG;2007-03-28 18:36;SPECI CYYG 281836Z 31024G33KT 10SM VCSH BKN027 OVC042 M00/ RMK SC6SC2=
CYYG;2007-03-28 19:00;METAR CYYG 281900Z 32026G39KT 10SM -SHSN BKN027 OVC042 M00/M07 A2968 RMK SC6SC2 SLP053=
CYYG;2007-03-28 20:00;METAR CYYG 282000Z 32023G34KT 8SM -SHSN DRSN BKN025 OVC042 M01/M07 A2969 RMK SC6SC2 SLP056=
CYYG;2007-03-28 20:46;SPECI CYYG 282046Z 32020G29KT 2SM -SHSN DRSN OVC022 M02/ RMK SN2SC6=
CYYG;2007-03-28 20:53;SPECI CYYG 282053Z 32017G31KT 1/2SM R03/4000VP6000FT/D SHSN DRSN VV005 M03/ RMK SN8=
CYYG;2007-03-28 21:00;METAR CYYG NIL=
CYYG;2007-03-28 21:17;SPECI CYYG 282117Z 31017G29KT 3/4SM R03/P6000FT/N -SHSN DRSN OVC012 M03/ RMK SN3SC5=
CYYG;2007-03-28 22:00;METAR CYYG 282200Z 32022G35KT 3/4SM R03/5500FT/N -SHSN DRSN BKN005 OVC015 M04/M05 A2971 RESN RMK SF6SC2 SLP061=
CYYG;2007-03-28 22:47;SPECI CYYG 282247Z 31021G29KT 1/2SM R03/2800V5000FT/D SHSN DRSN OVC010 M04/ RMK SN4SF4=
CYYG;2007-03-28 23:27;SPECI CYYG 282327Z 32019G28KT 2SM -SN BLSN OVC020 M03/ RMK BLSN2SC6=
CYYG;2007-03-29 00:00;METAR CYYG NIL=
CYYG;2007-03-29 01:00;METAR CYYG 290100Z 33023G31KT 1 1/2SM R03/1400VP6000FT/D -SN BLSN SCT010 OVC019 M04/M06 A2972 RMK SC4SC4 SLP066=
CYYG;2007-03-29 01:21;SPECI CYYG 290121Z 32021G33KT 3/4SM R03/1600V5000FT/D -SN BLSN OVC010 M04/ RMK BLSN3SC5 /S01/=
CYYG;2007-03-29 02:00;METAR CYYG 290200Z 33022G32KT 3/4SM R03/1800V4500FT/N -SN BLSN OVC012 M04/M06 A2971 RMK BLSN2SC6 SLP065=
CYYG;2007-03-29 03:00;METAR CYYG 290300Z 33023G32KT 3/4SM R03/1000V5000FT/U -SN BLSN OVC015 M04/M06 A2971 RMK BLSN3SC5 SLP063=
CYYG;2007-03-29 04:00;METAR CYYG 290400Z 33020G34KT 3/4SM R03/1400V4000FT/D -SN BLSN OVC015 M04/M05 A2971 RMK BLSN2SC6 /S02/ SLP064=
CYYG;2007-03-29 05:00;METAR CYYG 290500Z 34021G33KT 3/4SM R03/1400V3000FT/D -SN BLSN OVC015 M04/M05 A2971 RMK BLSN4SC4 SLP064=
CYYG;2007-03-29 08:00;METAR CYYG NIL=
CYYG;2007-03-29 08:38;SPECI CYYG 290838Z 33024G31KT 1/2SM R03/0900V1600FT/D SN BLSN VV005 M04/ RMK SN8=
CYYG;2007-03-29 09:00;METAR CYYG 290900Z 34020G31KT 1/2SM R03/1200V2000FT/N SN BLSN VV005 M04/M05 A2975 RMK SN8 /S02/ SLP076=
CYYG;2007-03-29 11:00;METAR CYYG 291100Z 34019G32KT 1/2SM R03/3000VP6000FT/N SN BLSN BKN007 OVC023 M03/M06 A2979 RMK SC6SC2 SLP089=
CYYG;2007-03-29 11:18;SPECI CYYG 291118Z 34023G31KT 3/4SM R03/3000V4500FT/N -SN BLSN BKN009 OVC015 M03/ RESN RMK SN3SF2SC2=
CYYG;2007-03-29 11:47;SPECI CYYG 291147Z 35023G33KT 2 1/2SM R03/3500VP6000FT/U -SN BKN018 OVC031 M03/ RMK SC5SC3=
CYYG;2007-03-29 12:00;METAR CYYG 291200Z 34021G29KT 2 1/2SM -SN BLSN SCT014 BKN021 OVC028 M03/M06 A2980 RESN RMK SC3SC3SC2 SLP093=
CYYG;2007-03-29 13:00;METAR CYYG 291300Z 34015G27KT 3SM R03/3000VP6000FT/U -SN DRSN SCT014 OVC022 M03/M06 A2982 RMK SC3SC5 SLP101=
CYYG;2007-03-29 14:00;METAR CYYG 291400Z 34017G32KT 5SM -SN DRSN OVC026 M03/M08 A2983 RMK SC8 SLP105=
CYYG;2007-03-29 15:00;METAR CYYG 291500Z 35015G32KT 5SM -SHSN DRSN OVC028 M02/M08 A2983 RMK SC8 SLP104=
CYYG;2007-03-29 16:00;METAR CYYG 291600Z 35021G34KT 8SM -SHSN DRSN OVC028 M02/M08 A2985 RMK SC8 SLP109=
CYYG;2007-03-29 17:00;METAR CYYG 291700Z 34018G32KT 8SM -SHSN DRSN OVC026 M02/M08 A2986 RMK SC8 SLP113=
CYYG;2007-03-29 18:00;METAR CYYG 291800Z 34017G29KT 10SM -SHSN DRSN OVC023 M02/M07 A2987 RMK SC8 SLP118=
CYYG;2007-03-29 19:00;METAR CYYG 291900Z 34024G32KT 10SM -SHSN DRSN OVC025 M02/M08 A2987 RMK SC8 SLP119=
CYYG;2007-03-29 20:00;METAR CYYG 292000Z 35016G28KT 10SM OVC026 M02/M07 A2989 RMK SC8 SLP123=
CYYG;2007-03-29 21:00;METAR CYYG 292100Z 35016G30KT 15SM OVC032 M01/M07 A2991 RMK SC8 SLP131=
CYYG;2007-03-29 22:00;METAR CYYG 292200Z 34016G28KT 15SM OVC035 M01/M07 A2993 RMK SC8 SLP136=
CYYG;2007-03-29 23:00;METAR CYYG 292300Z 34015G25KT 15SM OVC036 M01/M07 A2995 RMK SC8 SLP145=
CYYG;2007-03-30 00:00;METAR CYYG 300000Z 34015G25KT 15SM OVC040 00/M07 A2996 RMK SC8 SLP146=
CYYG;2007-03-30 01:00;METAR CYYG 300100Z 35016G28KT 15SM OVC039 01/M07 A2996 RMK SC8 SLP147=
CYYG;2007-03-30 02:00;METAR CYYG 300200Z 34015G21KT 15SM BKN041 OVC051 01/M07 A2996 RMK SC6SC2 SLP147=
CYYG;2007-03-30 03:00;METAR CYYG 300300Z 34013G19KT 15SM BKN044 OVC060 00/M06 A2995 RMK SC6SC2 SLP144=
CYYG;2007-03-30 04:00;METAR CYYG 300400Z 35013G18KT 15SM BKN046 OVC060 M00/M06 A2995 RMK SC6SC2 SLP145=
CYYG;2007-03-30 05:00;METAR CYYG 300500Z 34010G17KT 15SM SCT045 M01/M06 A2996 RMK SC3 SLP146=
CYYG;2007-03-30 06:00;METAR CYYG 300600Z 33010G15KT 15SM SKC M01/M06 A2994 RMK SLP142=
CYYG;2007-03-30 08:00;METAR CYYG 300800Z 33012KT 15SM SKC M01/M06 A2994 RMK SLP142=
CYYG;2007-03-30 09:00;METAR CYYG NIL=
CYYG;2007-03-30 10:00;METAR CYYG 301000Z 34008KT 15SM FEW250 M02/M07 A2993 RMK CI1 SLP137=
CYYG;2007-03-30 12:00;METAR CYYG NIL=
CYYG;2007-03-30 13:00;METAR CYYG 301300Z 33014G21KT 15SM FEW080 BKN270 01/M08 A2993 RMK AC1CI2 SLP138=
CYYG;2007-03-30 14:00;METAR CYYG 301400Z 32012G19KT 15SM FEW080 BKN270 02/M08 A2990 RMK AC2CI3 SLP128=
CYYG;2007-03-30 16:00;METAR CYYG NIL=
CYYG;2007-03-30 17:00;METAR CYYG 301700Z 29006KT 15SM SCT110 OVC270 02/M08 A2982 RMK AC3CS2 SLP099=
CYYG;2007-03-30 20:00;METAR CYYG 302000Z 27009KT 15SM SCT036 BKN070 BKN270 04/M07 A2973 RMK SC3AC2CS2 SLP069=
CYYG;2007-03-30 21:00;METAR CYYG 302100Z 27011KT 15SM SCT036 BKN069 BKN140 04/M02 A2974 RMK SC3AC3AS1 SLP071=
CYYG;2007-03-30 22:39;SPECI CYYG 302239Z 31013G22KT 15SM -SHSN BKN027 BKN066 04/ RMK SC6AC2=
CYYG;2007-03-30 23:00;METAR CYYG NIL=
CYYG;2007-03-31 00:00;METAR CYYG 310000Z 30011G17KT 15SM BKN051 OVC070 03/M04 A2974 RMK SC6AC2 SLP073=
CYYG;2007-03-31 01:00;METAR CYYG 310100Z 31010G18KT 15SM OVC055 03/M03 A2976 RMK SC8 SLP078=
CYYG;2007-03-31 03:00;METAR CYYG NIL=
CYYG;2007-03-31 04:00;METAR CYYG 310400Z 34015G25KT 15SM BKN040 M02/M09 A2982 RMK SC5 SLP101=
CYYG;2007-03-31 05:00;METAR CYYG 310500Z 34013G25KT 15SM BKN051 M02/M11 A2984 RMK SC6 SLP106=
CYYG;2007-03-31 06:00;METAR CYYG NIL=
CYYG;2007-03-31 07:00;METAR CYYG 310700Z 34015G22KT 15SM BKN052 M04/M12 A2987 RMK SC6 SLP119=
CYYG;2007-03-31 08:00;METAR CYYG 310800Z 32016G21KT 15SM BKN057 M04/M10 A2989 RMK SC6 SLP125=
CYYG;2007-03-31 09:00;METAR CYYG 310900Z 33017G25KT 15SM BKN055 M04/M12 A2991 RMK SC6 SLP130=
CYYG;2007-03-31 10:21;SPECI CYYG 311021Z 33012G17KT 10SM -SHSN BKN030 OVC053 M04/ RMK CU5SC3=
CYYG;2007-03-31 11:00;METAR CYYG 311100Z 32015G20KT 6SM -SHSN BKN025 OVC050 M05/M09 A2996 RMK CU5SC3 SLP149=
CYYG;2007-03-31 12:00;METAR CYYG 311200Z 33018KT 2SM R03/4500VP6000FT/D -SHSN OVC015 M06/M09 A2999 RMK SN5SC3 SLP157=
CYYG;2007-03-31 12:20;SPECI CYYG 311220Z 33019KT 8SM -SHSN SCT022 OVC036 M05/ RMK SC3SC5=
CYYG;2007-03-31 13:00;METAR CYYG 311300Z 33017G25KT 8SM -SHSN SCT018 BKN030 OVC038 M04/M11 A3000 RMK SC3SC3SC2 SLP161=
CYYG;2007-03-31 13:50;SPECI CYYG 311350Z 33014G25KT 15SM VCSH FEW015 BKN034 M03/ RMK SC2SC4=
CYYG;2007-03-31 14:00;METAR CYYG 311400Z 32021KT 15SM VCSH FEW017 BKN032 04/M11 A3000 RMK SC1SC4 SLP162=
CYYG;2007-03-31 14:49;SPECI CYYG 311449Z 33016G21KT 6SM -SHSN SCT011 BKN024 BKN041 M04/ RMK SF2SC3SC1=
CYYG;2007-03-31 15:00;METAR CYYG 311500Z 33014G25KT 8SM -SHSN BKN022 BKN042 M03/M09 A3001 RMK SC5SC2 SLP163=
CYYG;2007-03-31 16:00;METAR CYYG 311600Z 33013G26KT 10SM VCSH SCT028 OVC041 M03/M11 A3001 RMK SC3SC4 SLP164=
CYYG;2007-03-31 16:36;SPECI CYYG 311636Z 32016G22KT 10SM -SHSN BKN031 M04/ RMK SC6=
CYYG;2007-03-31 17:00;METAR CYYG 311700Z 32014G21KT 15SM BKN033 M02/M10 A3001 RMK SC6 SLP164=
CYYG;2007-03-31 18:00;METAR CYYG 311800Z 34013G20KT 15SM BKN035 M02/M12 A3001 RMK SC4 SLP163=
CYYG;2007-03-31 19:00;METAR CYYG 311900Z 32013G20KT 15SM FEW040 FEW250 M02/M11 A3000 RMK SC1CI1 SLP161=
CYYG;2007-03-31 20:00;METAR CYYG 312000Z 33009G19KT 15SM FEW040 SCT250 M01/M11 A3000 RMK SC1CI1 SLP161=
CYYG;2007-03-31 21:00;METAR CYYG 312100Z 32011G17KT 15SM BKN250 M02/M12 A3001 RMK CI2 SLP165=
CYYG;2007-03-31 22:00;METAR CYYG 312200Z 34009KT 15SM FEW250 M02/M12 A3002 RMK CI1 SLP168=
CYYG;2007-03-31 23:00;METAR CYYG 312300Z 33007KT 15SM FEW100 M03/M11 A3003 RMK AC1 SLP172=
CYYG;2007-04-01 05:00;METAR CYYG 010500Z 27005KT 15SM SKC M06/M10 A3009 RMK FROIN SLP192=
CYYG;2007-04-01 06:00;METAR CYYG 010600Z 26007KT 15SM SKC M06/M10 A3010 RMK FROIN SLP196=
CYYG;2007-04-01 07:00;METAR CYYG 010700Z 27007KT 15SM SKC M06/M09 A3011 RMK FROIN SLP200=
CYYG;2007-04-01 08:00;METAR CYYG 010800Z 28007KT 15SM FEW040 M05/M09 A3012 RMK SC1 FROIN SLP201=
CYYG;2007-04-01 09:00;METAR CYYG 010900Z 30006KT 15SM SCT035 M05/M08 A3012 RMK SC3 FROIN SLP204=
CYYG;2007-04-01 10:00;METAR CYYG 011000Z 31004KT 15SM FEW028 M05/M09 A3014 RMK SC1 FROIN SLP209=
CYYG;2007-04-01 11:00;METAR CYYG NIL=
CYYG;2007-04-01 12:00;METAR CYYG 011200Z 34012KT 15SM VCSH FEW035 M02/M10 A3019 RMK SC2 SLP225=
CYYG;2007-04-01 13:00;METAR CYYG 011300Z 35012G17KT 15SM SCT040 M02/M11 A3020 RMK SC3 SLP231=
CYYG;2007-04-01 14:00;METAR CYYG 011400Z 35008G18KT 15SM SCT045 M01/M11 A3022 RMK SC4 SLP236=
CYYG;2007-04-01 15:00;METAR CYYG 011500Z 35009G18KT 15SM SCT037 M02/M10 A3023 RMK SC4 SLP238=
CYYG;2007-04-01 16:00;METAR CYYG NIL=
CYYG;2007-04-01 17:00;METAR CYYG NIL=
CYYG;2007-04-01 18:00;METAR CYYG NIL=
CYYG;2007-04-01 19:00;METAR CYYG 011900Z 34011G18KT 15SM FEW038 M01/M10 A3023 RMK SC1 SLP238=
CYYG;2007-04-01 20:00;METAR CYYG 012000Z 33014KT 15SM FEW038 M02/M12 A3023 RMK SC1 SLP240=
CYYG;2007-04-01 21:00;METAR CYYG 012100Z 02010KT 15SM FEW040 M02/M12 A3022 RMK SC1 SLP236=
CYYG;2007-04-01 22:00;METAR CYYG 012200Z 35006KT 15SM FEW300 M03/M12 A3022 RMK CI0 SLP237=
CYYG;2007-04-01 23:00;METAR CYYG 012300Z 36003KT 15SM FEW300 M04/M11 A3023 RMK CI0 SLP238=
CYYG;2007-04-02 01:00;METAR CYYG 020100Z 34002KT 15SM SKC M05/M10 A3023 RMK SLP241=
CYYG;2007-04-02 02:00;METAR CYYG 020200Z 27004KT 15SM SKC M05/M10 A3025 RMK SLP247=
CYYG;2007-04-02 03:00;METAR CYYG 020300Z 31004KT 15SM FEW040 M06/M09 A3026 RMK SC1 FROIN SLP249=
CYYG;2007-04-02 04:00;METAR CYYG NIL=
CYYG;2007-04-02 05:00;METAR CYYG 020500Z 28003KT 15SM SKC M06/M09 A3025 RMK FROIN SLP245=
CYYG;2007-04-02 06:00;METAR CYYG 020600Z 32002KT 15SM SCT300 M08/M10 A3024 RMK CI1 FROIN SLP242=
CYYG;2007-04-02 08:00;METAR CYYG 020800Z 27005KT 15SM FEW300 M07/M09 A3026 RMK CI0 FROIN SLP249=
CYYG;2007-04-02 09:00;METAR CYYG 020900Z 27005KT 15SM FEW300 M07/M09 A3026 RMK CI0 FROIN SLP250=
CYYG;2007-04-02 10:00;METAR CYYG 021000Z 00000KT 15SM FEW025 BKN300 M07/M09 A3026 RMK SC1CI0 FROIN SLP249=
CYYG;2007-04-02 11:00;METAR CYYG 021100Z 29002KT 15SM FEW025 BKN300 M05/M08 A3027 RMK SC1CI1 SLP253=
CYYG;2007-04-02 12:00;METAR CYYG 021200Z 31003KT 15SM FEW025 BKN300 M03/M08 A3028 RMK SC1CI1 CONTRAILS SLP255=
CYYG;2007-04-02 13:00;METAR CYYG 021300Z 36003KT 15SM FEW025 FEW120 BKN300 M02/M08 A3028 RMK SC1AC1CI2 CONTRAILS SLP255=
CYYG;2007-04-02 14:00;METAR CYYG 021400Z 32004KT 15SM FEW025 FEW120 BKN300 M01/M08 A3027 RMK SC1AC1CI2 CONTRAILS SLP254=
CYYG;2007-04-02 15:00;METAR CYYG 021500Z 33006KT 15SM FEW030 FEW120 BKN280 00/M09 A3027 RMK SC1AC1CS5 CONTRAILS SLP253=
CYYG;2007-04-02 16:00;METAR CYYG 021600Z 02006KT 15SM FEW030 FEW120 BKN280 M00/M08 A3027 RMK SC2AC1CS4 SLP252=
CYYG;2007-04-02 17:00;METAR CYYG 021700Z 36006KT 15SM FEW030 FEW120 BKN280 M01/M07 A3027 RMK SC1AC1CS6 SLP252=
CYYG;2007-04-02 19:00;METAR CYYG 021900Z 09005KT 15SM FEW030 FEW160 BKN280 M01/M09 A3027 RMK SC1AC1CS5 SLP253=
CYYG;2007-04-02 20:00;METAR CYYG 022000Z 03008KT 15SM FEW030 FEW160 BKN280 M01/M09 A3027 RMK SC1AC2CS3 SLP254=
CYYG;2007-04-02 21:00;METAR CYYG 022100Z 03012KT 15SM BKN150 BKN280 M02/M08 A3027 RMK AC5CI2 SLP252=
CYYG;2007-04-02 22:00;METAR CYYG 022200Z 05008KT 15SM BKN140 BKN280 M03/M09 A3028 RMK AC6CI1 SLP257=
CYYG;2007-04-02 23:00;METAR CYYG 022300Z 06008KT 15SM BKN140 BKN280 M04/M10 A3029 RMK AC6CI1 SLP259=
CYYG;2007-04-03 00:00;METAR CYYG 030000Z 05006KT 15SM FEW140 SCT280 M05/M11 A3031 RMK AC2CI0 SLP267=
CYYG;2007-04-03 02:00;METAR CYYG 030200Z 08010KT 15SM BKN130 M04/M10 A3033 RMK AC6 SLP272=
CYYG;2007-04-03 03:00;METAR CYYG 030300Z 09011KT 15SM BKN140 M04/M10 A3033 RMK AC7 SLP273=
CYYG;2007-04-03 05:00;METAR CYYG 030500Z 08006KT 15SM FEW140 M06/M09 A3033 RMK AC2 SLP272=
CYYG;2007-04-03 06:00;METAR CYYG 030600Z 08007KT 15SM BKN140 M05/M08 A3033 RMK AC6 SLP272=
CYYG;2007-04-03 07:00;METAR CYYG 030700Z 08006KT 15SM BKN140 M05/M08 A3033 RMK AC7 SLP272=
CYYG;2007-04-03 08:00;METAR CYYG 030800Z 07007KT 15SM OVC140 M04/M08 A3032 RMK AC8 SLP271=
CYYG;2007-04-03 09:00;METAR CYYG 030900Z 07007KT 15SM SCT017 BKN140 M04/M07 A3033 RMK SC3AC4 SLP272=
CYYG;2007-04-03 10:00;METAR CYYG 031000Z 07006KT 15SM FEW017 SCT120 BKN140 M04/M07 A3033 RMK SC1AC2AC4 SLP274=
CYYG;2007-04-03 11:00;METAR CYYG 031100Z 08007KT 15SM BKN017 BKN120 M04/M07 A3035 RMK SC6AC2 SLP280=
CYYG;2007-04-03 12:00;METAR CYYG 031200Z 10007KT 15SM BKN017 OVC120 M03/M06 A3036 RMK SC7AC1 SLP282=
CYYG;2007-04-03 13:00;METAR CYYG 031300Z 10006KT 15SM BKN017 BKN120 M03/M07 A3036 RMK SC5AC2 SLP283=
CYYG;2007-04-03 14:00;METAR CYYG 031400Z 08009KT 15SM BKN023 BKN120 M01/M07 A3036 RMK SC5AC2 SLP285=
CYYG;2007-04-03 15:00;METAR CYYG 031500Z 11009KT 15SM SCT023 OVC100 M00/M08 A3036 RMK SC3AC3 SLP285=
CYYG;2007-04-03 16:00;METAR CYYG 031600Z 08007KT 15SM SCT029 BKN120 01/M08 A3036 RMK SC3AC2 SLP282=
CYYG;2007-04-03 17:00;METAR CYYG NIL=
CYYG;2007-04-03 18:00;METAR CYYG 031800Z 09005KT 15SM FEW030 BKN040 BKN260 01/M07 A3034 RMK CU2SC3CS1 SLP278=
CYYG;2007-04-03 19:00;METAR CYYG 031900Z 04012KT 15SM FEW029 BKN040 BKN260 01/M06 A3033 RMK CU2SC3CS1 SLP275=
CYYG;2007-04-03 20:00;METAR CYYG 032000Z 04012G18KT 15SM FEW025 BKN040 BKN260 00/M06 A3033 RMK CU1SC5CI1 SLP274=
CYYG;2007-04-03 21:00;METAR CYYG 032100Z 05009G16KT 15SM BKN044 BKN260 M00/M06 A3033 RMK SC5CI0 SLP273=
CYYG;2007-04-03 23:00;METAR CYYG 032300Z 06012G17KT 15SM BKN042 M02/M08 A3034 RMK SC6 SLP276=
CYYG;2007-04-04 00:00;METAR CYYG 040000Z 06012KT 15SM BKN042 M03/M08 A3035 RMK SC6 SLP280=
CYYG;2007-04-04 02:00;METAR CYYG 040200Z 05007KT 15SM FEW040 M05/M09 A3033 RMK SC1 SLP274=
CYYG;2007-04-04 04:00;METAR CYYG 040400Z 04007KT 15SM FEW040 M05/M09 A3029 RMK SC1 SLP260=
CYYG;2007-04-04 05:00;METAR CYYG 040500Z 04005KT 15SM FEW030 M06/M10 A3027 RMK SC2 SLP253=
CYYG;2007-04-04 06:00;METAR CYYG 040600Z 02003KT 15SM BKN029 M05/M09 A3026 RMK SC6 SLP250=
CYYG;2007-04-04 07:00;METAR CYYG 040700Z 02004KT 15SM BKN031 M04/M09 A3027 RMK SC6 SLP252=
CYYG;2007-04-04 08:00;METAR CYYG 040800Z 36005KT 15SM BKN029 M03/M09 A3025 RMK SC6 SLP246=
CYYG;2007-04-04 09:00;METAR CYYG 040900Z 01006KT 15SM BKN026 M03/M09 A3025 RMK SC6 SLP245=
CYYG;2007-04-04 11:00;METAR CYYG 041100Z 01008KT 15SM OVC029 M02/M07 A3022 RMK SC8 SLP236=
CYYG;2007-04-04 12:00;METAR CYYG NIL=
CYYG;2007-04-04 13:00;METAR CYYG NIL=
CYYG;2007-04-04 14:00;METAR CYYG 041400Z 36014KT 15SM OVC013 M01/M04 A3018 RMK SC8 SLP224=
CYYG;2007-04-04 14:29;SPECI CYYG 041429Z 01013G22KT 15SM OVC009 M01/ RMK SF8=
CYYG;2007-04-04 15:00;METAR CYYG 041500Z 01010G19KT 15SM OVC010 M01/M04 A3015 RMK SF8 SLP214=
CYYG;2007-04-04 16:00;METAR CYYG 041600Z 36012KT 15SM OVC013 M01/M04 A3013 RMK SC8 SLP207=
CYYG;2007-04-04 17:00;METAR CYYG 041700Z 36013KT 15SM OVC011 M01/M04 A3012 RMK SC8 SLP201=
CYYG;2007-04-04 18:00;METAR CYYG 041800Z 01014KT 15SM OVC013 M01/M04 A3009 RMK SC8 SLP194=
CYYG;2007-04-04 18:28;SPECI CYYG 041828Z 36013KT 12SM -SHSN OVC011 M01/ RMK SC8=
CYYG;2007-04-04 19:00;METAR CYYG 041900Z 01008G15KT 12SM -SHSN OVC011 M01/M04 A3007 RMK SC8 SLP187=
CYYG;2007-04-04 20:00;METAR CYYG 042000Z 01011G16KT 10SM -SHSN OVC013 M01/M04 A3006 RMK SC8 SLP182=
CYYG;2007-04-04 20:29;SPECI CYYG 042029Z 01012KT 10SM -SHSN OVC008 M01/ RMK SF8=
CYYG;2007-04-04 20:41;SPECI CYYG 042041Z 01014KT 12SM -SHSN SCT008 OVC011 M01/ RMK SF3SC5=
CYYG;2007-04-04 21:00;METAR CYYG 042100Z 01009G19KT 12SM -SHSN SCT008 OVC012 M01/M03 A3003 RMK SF3SC5 SLP170=
CYYG;2007-04-04 22:00;METAR CYYG 042200Z 01008KT 12SM OVC009 M01/M03 A3001 RMK SF8 SLP166=
CYYG;2007-04-04 23:00;METAR CYYG 042300Z 01007KT 10SM OVC007 M02/M03 A3002 RMK SF8 SLP169=
CYYG;2007-04-05 00:00;METAR CYYG NIL=
CYYG;2007-04-05 00:53;SPECI CYYG 050053Z 01004KT 10SM OVC006 M01/ RMK SF8=
CYYG;2007-04-05 01:00;METAR CYYG 050100Z 36006KT 10SM OVC005 M01/M03 A3001 RMK SF8 SLP164=
CYYG;2007-04-05 02:00;METAR CYYG 050200Z 03007KT 4SM BR OVC004 M01/M03 A2998 RMK SF8 SLP156=
CYYG;2007-04-05 03:00;METAR CYYG 050300Z 01006KT 3SM BR BKN004 OVC013 M01/M02 A2996 RMK SF6SC2 SLP148=
CYYG;2007-04-05 04:00;METAR CYYG 050400Z 02007KT 8SM BKN005 OVC017 M01/M02 A2995 RMK SF6SC2 SLP143=
CYYG;2007-04-05 05:00;METAR CYYG 050500Z 02004KT 4SM BR BKN005 OVC016 M01/M02 A2994 RMK SF6SC2 SLP140=
CYYG;2007-04-05 06:00;METAR CYYG 050600Z 02003KT 4SM BR BKN004 OVC020 M01/M02 A2992 RMK SF6SC2 SLP135=
CYYG;2007-04-05 07:00;METAR CYYG 050700Z 03004KT 8SM BKN005 OVC021 M01/M02 A2990 RMK SF6SC2 SLP126=
CYYG;2007-04-05 08:00;METAR CYYG 050800Z 04002KT 4SM BR SCT005 OVC017 M01/M02 A2988 RMK SF3SC5 SLP121=
CYYG;2007-04-05 09:00;METAR CYYG 050900Z 00000KT 4SM BR FEW005 OVC017 M01/M02 A2986 RMK SF2SC6 SLP115=
CYYG;2007-04-05 10:00;METAR CYYG NIL=
CYYG;2007-04-05 11:00;METAR CYYG 051100Z 10004KT 3SM -DZ BR BKN003 OVC010 00/M01 A2985 RMK SF7SC1 SLP112=
CYYG;2007-04-05 12:00;METAR CYYG 051200Z 09010KT 6SM -DZ BR SCT003 OVC009 01/M00 A2982 RMK SF4SC4 SLP102=
CYYG;2007-04-05 13:00;METAR CYYG NIL=
CYYG;2007-04-05 13:46;SPECI CYYG 051346Z 11013KT 15SM OVC011 04/ RMK SC8=
CYYG;2007-04-05 15:00;METAR CYYG NIL=
CYYG;2007-04-05 16:00;METAR CYYG 051600Z 11017G25KT 15SM OVC008 04/01 A2974 RMK SC8 SLP072=
CYYG;2007-04-05 17:00;METAR CYYG 051700Z 11018G24KT 15SM OVC006 03/01 A2972 RMK SC8 SLP067=
CYYG;2007-04-05 19:00;METAR CYYG 051900Z 12020KT 15SM OVC006 03/01 A2964 RMK SF8 SLP039=
CYYG;2007-04-05 19:41;SPECI CYYG 051941Z 11019G29KT 15SM -SHRA OVC006 03/ RMK SF8=
CYYG;2007-04-05 20:00;METAR CYYG 052000Z 11018G27KT 10SM -SHRA OVC004 02/01 A2962 RMK SF8 SLP031=
CYYG;2007-04-05 20:44;SPECI CYYG 052044Z 11021G26KT 3SM -SHRA BR OVC002 02/ RMK SF8=
CYYG;2007-04-05 21:00;METAR CYYG 052100Z 11018G25KT 1 1/2SM -SHRA BR OVC002 02/01 A2959 RMK SF8 SLP021=
CYYG;2007-04-05 21:54;SPECI CYYG 052154Z 10017G27KT 3SM -SHRA BR OVC004 01/ RMK SF8=
CYYG;2007-04-05 22:00;METAR CYYG 052200Z 10018G27KT 5SM -SHRA BR OVC005 01/00 A2955 RMK SF8 SLP007=
CYYG;2007-04-05 23:00;METAR CYYG 052300Z 12015G21KT 5SM -SHRA OVC005 01/00 A2954 RMK SF8 SLP004=
CYYG;2007-04-06 01:00;METAR CYYG 060100Z 11016G22KT 8SM -SHRA OVC006 01/01 A2949 RMK SF8 SLP988=
CYYG;2007-04-06 02:00;METAR CYYG 060200Z 12018G25KT 8SM -SHRA OVC008 02/01 A2945 RMK SF8 SLP976=
CYYG;2007-04-06 03:00;METAR CYYG 060300Z 12017G24KT 8SM -SHRA OVC007 02/01 A2942 RMK SF8 SLP963=
CYYG;2007-04-06 04:00;METAR CYYG 060400Z 13014G22KT 8SM OVC007 02/01 A2942 RMK SF8 SLP964=
CYYG;2007-04-06 04:49;SPECI CYYG 060449Z 12015G24KT 4SM -SHRA BR OVC006 02/ RMK SF8=
CYYG;2007-04-06 06:00;METAR CYYG 060600Z 12012KT 5SM -SHRA BR OVC006 02/01 A2938 RMK SF8 SLP952=
CYYG;2007-04-06 07:00;METAR CYYG 060700Z 15012KT 10SM -SHRA BKN008 OVC022 02/02 A2938 RMK SF6SC2 SLP950=
CYYG;2007-04-06 08:00;METAR CYYG 060800Z 16014KT 10SM BKN011 OVC016 01/00 A2938 RMK SF5SC3 SLP951=
CYYG;2007-04-06 09:00;METAR CYYG 060900Z 16011KT 10SM BKN009 OVC013 01/M00 A2938 RMK SF6SC2 SLP952=
CYYG;2007-04-06 10:00;METAR CYYG 061000Z 17014KT 15SM SCT008 BKN014 BKN045 01/M00 A2940 RMK SC3SC2SC2 SLP958=
CYYG;2007-04-06 11:00;METAR CYYG 061100Z 18014KT 15SM FEW008 BKN029 01/M00 A2942 RMK SF2SC4 SLP963=
CYYG;2007-04-06 12:00;METAR CYYG 061200Z 20016KT 15SM FEW008 BKN025 02/M00 A2943 RMK SF1SC6 SLP967=
CYYG;2007-04-06 13:00;METAR CYYG NIL=
CYYG;2007-04-06 14:00;METAR CYYG 061400Z 22017G25KT 15SM BKN030 03/M02 A2945 RMK SC7 SLP976=
CYYG;2007-04-06 15:00;METAR CYYG 061500Z 20014G19KT 15SM BKN026 03/M01 A2946 RMK SC7 SLP979=
CYYG;2007-04-06 16:00;METAR CYYG 061600Z 22016G24KT 15SM BKN023 02/M02 A2948 RMK SC7 SLP984=
CYYG;2007-04-06 17:00;METAR CYYG 061700Z 21015G21KT 15SM SCT025 BKN067 03/M02 A2948 RMK SC4AC3 SLP986=
CYYG;2007-04-06 18:00;METAR CYYG 061800Z 23015G21KT 15SM SCT030 BKN050 02/M02 A2950 RMK SC4SC3 SLP990=
CYYG;2007-04-06 19:00;METAR CYYG 061900Z 22014G19KT 15SM SCT030 BKN050 03/M03 A2950 RMK SC3SC3 SLP990=
CYYG;2007-04-06 20:00;METAR CYYG 062000Z 23014G19KT 15SM FEW030 BKN042 03/M02 A2952 RMK SC2SC5 SLP997=
CYYG;2007-04-06 22:00;METAR CYYG 062200Z 22015KT 15SM BKN044 01/M04 A2957 RMK SC7 SLP015=
CYYG;2007-04-06 23:00;METAR CYYG 062300Z 24011G17KT 15SM BKN045 01/M03 A2960 RMK SC7 SLP024=
CYYG;2007-04-07 00:00;METAR CYYG 070000Z 22010G15KT 15SM BKN045 01/M04 A2963 RMK SC7 SLP037=
CYYG;2007-04-07 01:00;METAR CYYG 070100Z 22010KT 15SM BKN050 01/M03 A2966 RMK SC7 SLP046=
CYYG;2007-04-07 02:00;METAR CYYG 070200Z 22010KT 15SM FEW025 FEW050 00/M03 A2968 RMK SC1SC1 SLP052=
CYYG;2007-04-07 03:00;METAR CYYG 070300Z 20009KT 15SM SKC M01/M04 A2969 RMK SLP056=
CYYG;2007-04-07 04:00;METAR CYYG 070400Z 21009KT 15SM SKC M00/M04 A2969 RMK SLP056=
CYYG;2007-04-07 05:00;METAR CYYG 070500Z 21011G17KT 15SM SKC M00/M05 A2969 RMK SLP056=
CYYG;2007-04-07 06:00;METAR CYYG 070600Z 20012KT 15SM SKC M01/M04 A2970 RMK SLP058=
CYYG;2007-04-07 07:00;METAR CYYG 070700Z 19011KT 15SM SKC M01/M04 A2970 RMK SLP059=
CYYG;2007-04-07 08:00;METAR CYYG 070800Z 19010KT 15SM SKC M02/M05 A2971 RMK SLP062=
CYYG;2007-04-07 09:00;METAR CYYG 070900Z 20009KT 15SM BKN200 M01/M05 A2971 RMK CI2 SLP064=
CYYG;2007-04-07 10:00;METAR CYYG 071000Z 19010KT 15SM BKN200 M01/M05 A2972 RMK CI3 SLP067=
CYYG;2007-04-07 11:00;METAR CYYG 071100Z 18013KT 15SM FEW150 BKN220 M01/M04 A2973 RMK AC1CI2 SLP070=
CYYG;2007-04-07 12:00;METAR CYYG 071200Z 16013KT 15SM SCT040 BKN220 00/M04 A2974 RMK SC3CI2 SLP071=
CYYG;2007-04-07 13:00;METAR CYYG 071300Z 18011G18KT 15SM FEW047 SCT220 01/M04 A2974 RMK SC2CI0 SLP074=
CYYG;2007-04-07 14:00;METAR CYYG 071400Z 19014G19KT 15SM FEW047 SCT054 BKN250 03/M03 A2974 RMK SC2SC2CI2 SLP071=
CYYG;2007-04-07 15:00;METAR CYYG NIL=
CYYG;2007-04-07 16:00;METAR CYYG 071600Z 20013KT 15SM SCT055 OVC250 03/M05 A2971 RMK SC3CI3 SLP063=
CYYG;2007-04-07 17:00;METAR CYYG 071700Z 20008KT 15SM SCT055 OVC200 04/M04 A2969 RMK SC4CI3 SLP055=
CYYG;2007-04-07 18:00;METAR CYYG 071800Z 18008KT 15SM OVC044 03/M05 A2970 RMK SC8 SLP059=
CYYG;2007-04-07 19:00;METAR CYYG 071900Z 00000KT 15SM FEW030 BKN044 OVC200 03/M05 A2966 RMK CU1SC6CI1 SLP046=
CYYG;2007-04-07 20:00;METAR CYYG 072000Z 10004KT 15SM FEW030 BKN040 OVC085 03/M05 A2965 RMK CU1SC6AC2 SLP042=
CYYG;2007-04-07 22:00;METAR CYYG 072200Z 09009KT 15SM FEW020 OVC038 01/M02 A2960 RMK SF2SC6 SLP026=
CYYG;2007-04-07 22:06;SPECI CYYG 072206Z 09009KT 15SM -SHSN FEW020 OVC032 01/ RMK SF2SC6=
CYYG;2007-04-07 22:19;SPECI CYYG 072219Z 08011KT 2SM -SHSN OVC018 01/ RMK SC8=
CYYG;2007-04-07 22:26;SPECI CYYG 072226Z 09009KT 1 1/2SM -SN OVC013 00/ RMK SC8=
CYYG;2007-04-07 22:39;SPECI CYYG 072239Z 08009KT 3/4SM R03/P6000FT/D -SN VV007 00/ RMK SN8=
CYYG;2007-04-07 23:00;METAR CYYG 072300Z 09007KT 5/8SM R03/5000FT/D -SN OVC008 M00/M01 A2958 RMK SN4NS4 SLP020=
CYYG;2007-04-08 00:00;METAR CYYG 080000Z 07008KT 5/8SM R03/3500FT/N -SN BR OVC008 M01/M01 A2955 RMK SN4NS4 /S01/ SLP009=
CYYG;2007-04-08 00:48;SPECI CYYG 080048Z 05015KT 1/4SM R03/1200V1800FT/N +SN VV003 M01/ RMK SN8=
CYYG;2007-04-08 01:00;METAR CYYG 080100Z CCA 05014G19KT 3/8SM R03/1400V2200FT/U SN DRSN VV004 M01/M02 A2946 RESN RMK SN8 PRESFR /S01/ SLP978=
CYYG;2007-04-08 01:23;SPECI CYYG 080123Z 04015KT 1/8SM R03/1200FT/D +SN DRSN VV002 M01/ RMK SN8 PRESFR=
CYYG;2007-04-08 01:49;SPECI CYYG 080149Z 03020KT 3/8SM R03/1200V1800FT/U SN DRSN VV004 M01/ RESN RMK SN8 PRESFR=
CYYG;2007-04-08 02:00;METAR CYYG 080200Z 04020KT 1/2SM R03/2200FT/U SN DRSN OVC006 M01/M02 A2937 RESN RMK SN3SF5 PRESFR /S03/ SLP948=
CYYG;2007-04-08 02:14;SPECI CYYG 080214Z 03020G25KT 5/8SM R03/2000V3000FT/U -SN DRSN OVC005 M01/ RESN RMK SN2SF6 PRESFR=
CYYG;2007-04-08 03:10;SPECI CYYG 080310Z 03021G26KT 3/8SM R03/1400V2200FT/U SN DRSN OVC008 M01/ RESN RMK SN4SF4 PRESFR=
CYYG;2007-04-08 04:22;SPECI CYYG 080422Z 03026G33KT 1/8SM R03/1200V5000FT/D +SN +BLSN VV002 M01/ RMK SN8 PRESFR=
CYYG;2007-04-08 05:00;METAR CYYG 080500Z 03026G35KT 3/8SM R03/1100V2000FT/N SN BLSN VV004 M01/M02 A2903 RESN RMK SN8 PRESFR /S13/ SLP832=
CYYG;2007-04-08 05:21;SPECI CYYG 080521Z 03030G35KT 3/8SM R03/1100V3000FT/D SN BLSN VV004 M01/ RESN RMK SN8 PRESFR=
CYYG;2007-04-08 05:32;SPECI CYYG 080532Z 02028G38KT 1/8SM R03/1200FT/N +TSSN +BLSN VV002 M01/ RMK SN8 CB EMBDD OCNL LTGIC PRESFR=
CYYG;2007-04-08 05:52;SPECI CYYG 080552Z 02027G35KT 1/8SM SN +BLSN VV004 M01/ RETSSN RMK SN8 PRESFR=
CYYG;2007-04-08 06:00;METAR CYYG 080600Z 02027G36KT 1/4SM R03/1000FT/N SN +BLSN VV004 M01/M01 A2892 RETSSN RMK SN8 PRESFR /S17/ SLP796=
CYYG;2007-04-08 06:41;SPECI CYYG 080641Z 01033G43KT 1/8SM +SN +BLSN VV002 M01/ RMK SN8 PRESFR=
CYYG;2007-04-08 07:00;METAR CYYG NIL=
CYYG;2007-04-08 07:54;SPECI CYYG 080754Z 35021G32KT 1/4SM -SN +BLSN OVC008 M01/ RESN RMK SN5SF3 PRESFR=
CYYG;2007-04-08 08:28;SPECI CYYG 080828Z 34019G36KT 1/8SM SN +BLSN VV004 M01/ RMK SN8=
CYYG;2007-04-08 09:00;METAR CYYG NIL=
CYYG;2007-04-08 09:45;SPECI CYYG 080945Z 32027G41KT 1/8SM -SN +BLSN OVC007 M02/ RESN RMK BLSN2SF6 TWR VIS 1=
CYYG;2007-04-08 11:00;METAR CYYG 081100Z 29028G38KT 1/8SM -SN +BLSN OVC014 M02/M02 A2881 RMK BLSN4SC4 TWR VIS 1/2 PRESRR SLP759=
CYYG;2007-04-08 12:00;METAR CYYG 081200Z 28023G36KT 1/2SM -SN BLSN OVC009 M02/M02 A2886 REBLSN RMK BLSN4SF4 /S13/ SLP774=
CYYG;2007-04-08 13:00;METAR CYYG NIL=
CYYG;2007-04-08 14:00;METAR CYYG 081400Z 26024G38KT 1/2SM -SN BLSN OVC010 M02/M03 A2894 RMK BLSN3SF5 /S02/ SLP803=
CYYG;2007-04-08 14:22;SPECI CYYG 081422Z 27025G39KT 2SM -SN BLSN OVC013 M02/ RMK SC8=
CYYG;2007-04-08 15:00;METAR CYYG 081500Z 25022G34KT 1/2SM -SN BLSN OVC010 M02/M02 A2898 RMK BLSN4SC4 /S03/ SLP816=
CYYG;2007-04-08 16:00;METAR CYYG 081600Z 25025G33KT 1/2SM -SN BLSN OVC007 M01/M01 A2902 RMK BLSN4SF4 /S04/ SLP830=
CYYG;2007-04-08 18:00;METAR CYYG 081800Z 24024G31KT 1/2SM R03/1800V3000FT/D -SN BLSN OVC007 M01/M02 A2910 RMK BLSN4SF4 /S05/ SLP855=
CYYG;2007-04-08 18:23;SPECI CYYG 081823Z 24022G38KT 3/4SM R03/2800V4500FT/D -SN BLSN OVC008 M01/ RMK BLSN3SF5=
CYYG;2007-04-08 19:00;METAR CYYG 081900Z 25023G32KT 2SM -SN BLSN OVC012 M01/M02 A2913 RMK SC8 SLP866=
CYYG;2007-04-08 19:11;SPECI CYYG 081911Z 24024G33KT 3/4SM R03/2200V4000FT/U -SN BLSN OVC008 M01/ RMK BLSN6SF2=
CYYG;2007-04-08 20:00;METAR CYYG 082000Z 25021G33KT 3/4SM R03/3500FT/U -SN BLSN OVC008 M01/M02 A2916 RMK BLSN6SF2 /S01/ SLP876=
CYYG;2007-04-08 20:48;SPECI CYYG 082048Z 24019G31KT 1 1/2SM R03/3000VP6000FT/D -SN BLSN OVC014 M01/ RMK BLSN3SC5=
CYYG;2007-04-08 21:00;METAR CYYG 082100Z 24022G31KT 2SM -SN BLSN OVC018 M01/M02 A2917 RMK SC8 SLP880=
CYYG;2007-04-08 23:00;METAR CYYG 082300Z 24022G33KT 12SM DRSN OVC032 M00/M03 A2920 RMK SC8 SLP892=
CYYG;2007-04-09 00:00;METAR CYYG 090000Z 24018G26KT 15SM DRSN OVC032 00/M04 A2922 RMK SC8 SLP898=
CYYG;2007-04-09 01:00;METAR CYYG 090100Z 24020G30KT 15SM BKN032 BKN077 00/M04 A2923 RMK SC5AC2 SLP902=
CYYG;2007-04-09 02:00;METAR CYYG 090200Z 24022G31KT 15SM DRSN OVC027 M00/M04 A2923 RMK SC8 SLP902=
CYYG;2007-04-09 03:00;METAR CYYG 090300Z 24024G30KT 15SM DRSN OVC034 M01/M05 A2923 RMK SC8 SLP900=
CYYG;2007-04-09 04:00;METAR CYYG NIL=
CYYG;2007-04-09 05:00;METAR CYYG 090500Z 23018G31KT 15SM -SHSN DRSN OVC026 M01/M05 A2924 RMK SC8 SLP903=
CYYG;2007-04-09 06:00;METAR CYYG 090600Z 24018G35KT 15SM -SHSN DRSN OVC030 M01/M04 A2924 RMK SC8 SLP904=
CYYG;2007-04-09 08:00;METAR CYYG 090800Z 23015G22KT 10SM -SHSN DRSN OVC025 M01/M04 A2925 RMK SC8 SLP906=
CYYG;2007-04-09 09:00;METAR CYYG 090900Z 23012G18KT 15SM -SHSN DRSN OVC024 M01/M04 A2926 RMK SC8 SLP910=
CYYG;2007-04-09 10:00;METAR CYYG 091000Z 25013KT 3SM -SHSN DRSN BKN012 OVC024 M01/M03 A2927 RMK SC5SC3 SLP915=
CYYG;2007-04-09 10:33;SPECI CYYG 091033Z 24014G19KT 2SM -SN DRSN BKN008 OVC014 M01/ RMK SF6SC2=
CYYG;2007-04-09 10:42;SPECI CYYG 091042Z 24014G20KT 1 1/2SM -SN DRSN OVC006 M01/ RMK SN2SF6=
CYYG;2007-04-09 11:00;METAR CYYG 091100Z 24012G22KT 3SM -SN DRSN BKN006 BKN014 M01/M03 A2929 RMK SF5SC2 SLP921=
CYYG;2007-04-09 11:28;SPECI CYYG 091128Z 24014KT 2SM -SN DRSN OVC008 M01/ RMK SF8=
CYYG;2007-04-09 12:00;METAR CYYG 091200Z 25012G18KT 2 1/2SM -SN DRSN BKN008 OVC015 M01/M02 A2931 RMK SF7SC1 SLP926=
CYYG;2007-04-09 12:20;SPECI CYYG 091220Z 26009G19KT 10SM -SHSN DRSN BKN010 OVC018 M00/ RMK SC6SC2=
CYYG;2007-04-09 13:00;METAR CYYG 091300Z 26011G19KT 8SM -SHSN DRSN BKN012 OVC025 M00/M03 A2932 RMK SC6SC2 VIS S 3 SLP932=
CYYG;2007-04-09 14:00;METAR CYYG 091400Z 27015G20KT 15SM -SHSN BKN025 OVC035 00/M04 A2934 RMK SC6SC2 SLP938=
CYYG;2007-04-09 16:00;METAR CYYG NIL=
CYYG;2007-04-09 17:00;METAR CYYG 091700Z 29013KT 15SM -SHSN OVC023 01/M04 A2940 RMK SC8 SLP958=
CYYG;2007-04-09 18:00;METAR CYYG NIL=
CYYG;2007-04-09 19:00;METAR CYYG NIL=
CYYG;2007-04-09 21:00;METAR CYYG 092100Z 29010G16KT 15SM FEW032 OVC045 01/M05 A2949 RMK SC2SC6 SLP988=
CYYG;2007-04-09 21:31;SPECI CYYG 092131Z 30011G17KT 15SM -SHSN BKN032 OVC057 01/ RMK SC5SC3=
CYYG;2007-04-09 22:00;METAR CYYG 092200Z 30012G19KT 15SM -SHSN SCT032 OVC055 00/M05 A2952 RMK SC4SC4 SLP000=
CYYG;2007-04-09 23:00;METAR CYYG NIL=
CYYG;2007-04-10 00:00;METAR CYYG 100000Z 27004KT 15SM -SHSN OVC055 00/M04 A2958 RMK SC8 SLP018=
CYYG;2007-04-10 01:00;METAR CYYG 100100Z 29005KT 15SM OVC050 00/M05 A2960 RMK SC8 SLP026=
CYYG;2007-04-10 02:00;METAR CYYG 100200Z 29006KT 15SM OVC043 00/M05 A2962 RMK SC8 SLP031=
CYYG;2007-04-10 03:00;METAR CYYG 100300Z 29008KT 15SM OVC047 00/M06 A2962 RMK SC8 SLP032=
CYYG;2007-04-10 05:00;METAR CYYG 100500Z 26006KT 15SM OVC045 M01/M06 A2964 RMK SC8 SLP040=
CYYG;2007-04-10 06:00;METAR CYYG NIL=
CYYG;2007-04-10 07:00;METAR CYYG 100700Z 28007KT 15SM BKN047 M01/M06 A2965 RMK SC6 SLP041=
CYYG;2007-04-10 09:00;METAR CYYG 100900Z 25006KT 15SM FEW050 M03/M06 A2967 RMK SC1 SLP049=
CYYG;2007-04-10 10:00;METAR CYYG 101000Z 26006KT 15SM FEW050 M03/M06 A2968 RMK SC1 SLP054=
CYYG;2007-04-10 11:00;METAR CYYG 101100Z 28007KT 15SM FEW050 M02/M06 A2970 RMK SC1 SLP061=
CYYG;2007-04-10 12:00;METAR CYYG 101200Z 29008KT 15SM FEW300 M01/M06 A2971 RMK CI0 SLP062=
CYYG;2007-04-10 13:00;METAR CYYG 101300Z 31007KT 15SM FEW300 M01/M06 A2971 RMK CI0 SLP063=
CYYG;2007-04-10 14:00;METAR CYYG 101400Z 32007KT 15SM FEW020 SCT300 00/M06 A2972 RMK CU1CI1 SLP067=
CYYG;2007-04-10 15:00;METAR CYYG 101500Z 33007KT 15SM FEW020 SCT300 01/M06 A2973 RMK SC1CI0 SLP068=
CYYG;2007-04-10 16:00;METAR CYYG 101600Z 33011KT 15SM FEW032 SCT300 01/M05 A2973 RMK SC1CI0 SLP069=
CYYG;2007-04-10 17:00;METAR CYYG 101700Z 34007KT 15SM FEW032 SCT300 01/M04 A2974 RMK SC2CI0 SLP072=
CYYG;2007-04-10 18:00;METAR CYYG 101800Z 34011KT 15SM FEW030 FEW300 01/M05 A2975 RMK SC1CI1 SLP077=
CYYG;2007-04-10 19:00;METAR CYYG 101900Z 36005KT 15SM FEW030 FEW300 01/M07 A2975 RMK SC1CI1 SLP078=
CYYG;2007-04-10 20:00;METAR CYYG NIL=
CYYG;2007-04-10 21:00;METAR CYYG 102100Z 02006KT 15SM FEW040 FEW300 01/M07 A2977 RMK SC1CI1 SLP082=
CYYG;2007-04-10 22:00;METAR CYYG 102200Z 35005KT 15SM FEW040 FEW300 M00/M08 A2978 RMK SC1CI1 SLP086=
CYYG;2007-04-10 23:00;METAR CYYG 102300Z 00000KT 15SM FEW040 FEW300 M02/M09 A2979 RMK SC1CI1 SLP089=
CYYG;2007-04-11 00:00;METAR CYYG 110000Z 00000KT 15SM FEW300 M03/M08 A2981 RMK CI1 SLP097=
CYYG;2007-04-11 01:00;METAR CYYG 110100Z 00000KT 15SM FEW300 M05/M08 A2983 RMK CI1 SLP105=
CYYG;2007-04-11 02:00;METAR CYYG 110200Z 02003KT 15SM FEW300 M06/M08 A2984 RMK CI1 SLP107=
CYYG;2007-04-11 03:00;METAR CYYG 110300Z 00000KT 15SM SKC M05/M09 A2985 RMK SLP111=
CYYG;2007-04-11 04:00;METAR CYYG NIL=
CYYG;2007-04-11 07:00;METAR CYYG NIL=
CYYG;2007-04-11 08:00;METAR CYYG 110800Z 27006KT 15SM SCT200 M04/M09 A2986 RMK CI3 SLP115=
CYYG;2007-04-11 09:00;METAR CYYG 110900Z 29008KT 15SM SCT200 M04/M08 A2988 RMK CI2 SLP120=
CYYG;2007-04-11 10:00;METAR CYYG 111000Z 30008KT 15SM SCT200 M04/M08 A2989 RMK CI2 SLP125=
CYYG;2007-04-11 11:00;METAR CYYG 111100Z 31008KT 15SM BKN300 M03/M07 A2992 RMK CI2 SLP135=
CYYG;2007-04-11 12:00;METAR CYYG 111200Z 31008KT 15SM BKN300 M02/M06 A2993 RMK CI2 SLP138=
CYYG;2007-04-11 13:00;METAR CYYG 111300Z 30007KT 15SM BKN300 M01/M06 A2993 RMK CI2 SLP139=
CYYG;2007-04-11 14:00;METAR CYYG 111400Z 32009KT 15SM SCT300 01/M07 A2994 RMK CI1 SLP142=
CYYG;2007-04-11 15:00;METAR CYYG 111500Z 31007KT 15SM FEW300 02/M06 A2995 RMK CI1 SLP144=
CYYG;2007-04-11 16:00;METAR CYYG NIL=
CYYG;2007-04-11 17:00;METAR CYYG 111700Z 35004KT 15SM FEW024 SCT300 03/M06 A2995 RMK SC1CI1 SLP145=
CYYG;2007-04-11 18:00;METAR CYYG 111800Z 34008KT 15SM FEW024 SCT300 03/M05 A2996 RMK SC1CI1 SLP147=
CYYG;2007-04-11 19:00;METAR CYYG 111900Z 33009KT 15SM FEW300 03/M07 A2996 RMK CI1 SLP149=
CYYG;2007-04-11 20:00;METAR CYYG 112000Z 33006KT 15SM SKC 03/M11 A2996 RMK SLP147=
CYYG;2007-04-11 23:00;METAR CYYG NIL=
CYYG;2007-04-12 00:00;METAR CYYG 120000Z 00000KT 15SM SKC M01/M09 A3000 RMK SLP161=
CYYG;2007-04-12 01:00;METAR CYYG 120100Z 22005KT 15SM SKC M01/M07 A3001 RMK SLP166=
CYYG;2007-04-12 02:00;METAR CYYG 120200Z 25006KT 15SM SKC M01/M07 A3002 RMK SLP167=
CYYG;2007-04-12 03:00;METAR CYYG 120300Z 25006KT 15SM SKC M01/M08 A3002 RMK SLP168=
CYYG;2007-04-12 04:00;METAR CYYG NIL=
CYYG;2007-04-12 05:00;METAR CYYG 120500Z 28006KT 15SM SKC M02/M10 A3003 RMK SLP172=
CYYG;2007-04-12 06:00;METAR CYYG 120600Z 30008KT 15SM SKC M01/M09 A3003 RMK SLP171=
CYYG;2007-04-12 07:00;METAR CYYG 120700Z 30004KT 15SM SKC M02/M09 A3004 RMK SLP175=
CYYG;2007-04-12 08:00;METAR CYYG 120800Z 29005KT 15SM SKC M02/M09 A3006 RMK SLP181=
CYYG;2007-04-12 09:00;METAR CYYG 120900Z 30005KT 15SM SKC M03/M09 A3006 RMK SLP183=
CYYG;2007-04-12 10:00;METAR CYYG 121000Z 31004KT 15SM SKC M03/M09 A3007 RMK SLP186=
CYYG;2007-04-12 11:00;METAR CYYG 121100Z 31004KT 15SM SKC M01/M07 A3010 RMK SLP195=
CYYG;2007-04-12 12:00;METAR CYYG NIL=
CYYG;2007-04-12 13:00;METAR CYYG 121300Z 27002KT 15SM SKC 03/M05 A3011 RMK SLP199=
CYYG;2007-04-12 14:00;METAR CYYG NIL=
CYYG;2007-04-12 15:00;METAR CYYG 121500Z 32005KT 15SM SKC 04/M04 A3012 RMK SLP202=
CYYG;2007-04-12 16:00;METAR CYYG 121600Z 24003KT 15SM SKC 06/M02 A3011 RMK SLP197=
CYYG;2007-04-12 17:00;METAR CYYG 121700Z 31006KT 15SM FEW300 06/M06 A3009 RMK CI1 SLP191=
CYYG;2007-04-12 18:00;METAR CYYG 121800Z 02005KT 15SM FEW300 07/M05 A3006 RMK CI1 SLP183=
CYYG;2007-04-12 19:00;METAR CYYG 121900Z 36002KT 15SM SCT300 07/M06 A3006 RMK CI1 SLP181=
CYYG;2007-04-12 20:00;METAR CYYG 122000Z 00000KT 15SM FEW300 08/M07 A3003 RMK CI1 SLP172=
CYYG;2007-04-12 21:00;METAR CYYG 122100Z 10004KT 15SM FEW300 06/M04 A3003 RMK CI1 SLP170=
CYYG;2007-04-12 23:00;METAR CYYG 122300Z 08006KT 15SM BKN300 04/M05 A3000 RMK CI4 SLP160=
CYYG;2007-04-13 00:00;METAR CYYG 130000Z 10005KT 15SM BKN300 02/M04 A3000 RMK CI4 SLP161=
CYYG;2007-04-13 01:00;METAR CYYG 130100Z 12005KT 15SM FEW300 01/M04 A3000 RMK CI2 SLP161=
CYYG;2007-04-13 02:00;METAR CYYG 130200Z 11005KT 15SM FEW300 M00/M04 A2998 RMK CI2 SLP154=
CYYG;2007-04-13 03:00;METAR CYYG 130300Z 11005KT 15SM BKN300 M00/M04 A2996 RMK CI5 SLP147=
CYYG;2007-04-13 05:00;METAR CYYG 130500Z 11006KT 15SM OVC170 01/M05 A2990 RMK AC8 SLP129=
CYYG;2007-04-13 06:00;METAR CYYG 130600Z 11005KT 15SM OVC160 01/M04 A2987 RMK AC8 SLP118=
CYYG;2007-04-13 07:00;METAR CYYG 130700Z 14006KT 15SM OVC120 01/M05 A2988 RMK AC8 SLP121=
CYYG;2007-04-13 08:00;METAR CYYG 130800Z 12005KT 15SM OVC100 01/M05 A2985 RMK AC8 SLP111=
CYYG;2007-04-13 09:00;METAR CYYG 130900Z 11005KT 15SM BKN080 01/M05 A2981 RMK AC7 SLP095=
CYYG;2007-04-13 10:00;METAR CYYG 131000Z 11007KT 15SM BKN069 01/M05 A2977 RMK AC7 SLP083=
CYYG;2007-04-13 11:00;METAR CYYG 131100Z 13009KT 15SM BKN026 OVC069 02/M07 A2978 RMK SC6AC2 SLP085=
CYYG;2007-04-13 11:06;SPECI CYYG 131106Z 13007KT 3SM -SN OVC021 02/ RMK SC8 VIS NW-E 15=
CYYG;2007-04-13 11:16;SPECI CYYG 131116Z 13009G16KT 1 1/2SM -SN VV008 01/ RMK SN8=
CYYG;2007-04-13 11:33;SPECI CYYG 131133Z 12010KT 1/2SM R03/3500VP6000FT/D SN VV005 M01/ RMK SN8=
CYYG;2007-04-13 12:30;SPECI CYYG 131230Z 08011G18KT 1 1/2SM -SN BKN005 OVC011 M01/ RMK SN3SF3SC2=
CYYG;2007-04-13 13:00;METAR CYYG 131300Z 09014KT 1 1/2SM -SN OVC004 M01/M01 A2970 RMK SN2SF6 /S02/ SLP060=
CYYG;2007-04-13 13:16;SPECI CYYG 131316Z 08013KT 1/2SM R03/3500V5000FT/D SN BKN003 OVC007 M01/ RMK SN3SF3SF2=
CYYG;2007-04-13 13:35;SPECI CYYG 131335Z 10018KT 3/8SM R03/1800V3000FT/D SN VV004 M01/ RMK SN8=
CYYG;2007-04-13 14:00;METAR CYYG 131400Z 09015G20KT 1/2SM R03/2200FT/N SN VV005 M01/M02 A2969 RMK SN8 /S04/ SLP054=
CYYG;2007-04-13 14:17;SPECI CYYG 131417Z 09014G21KT 1/4SM R03/1600V2200FT/N +SN VV003 M01/ RMK SN8=
CYYG;2007-04-13 14:29;SPECI CYYG 131429Z 09014G22KT 1/2SM R03/2600FT/N SN VV006 M01/ RESN RMK SN8=
CYYG;2007-04-13 14:39;SPECI CYYG 131439Z 09012G19KT 3/4SM R03/3500FT/U -SN BKN003 OVC012 M01/ RESN RMK SN2SF3SC2=
CYYG;2007-04-13 15:00;METAR CYYG 131500Z 09017KT 1SM R03/P6000FT/U -SN BKN004 OVC026 M01/M02 A2965 RESN RMK SN2SF3SC2 /S05/ SLP042=
CYYG;2007-04-13 15:11;SPECI CYYG 131511Z 08018KT 3SM -SN BKN008 BKN017 OVC026 M01/ RMK SF5SC2SC2=
CYYG;2007-04-13 16:00;METAR CYYG 131600Z 08018G26KT 10SM -SN OVC009 M00/M02 A2960 RMK SF8 SLP027=
CYYG;2007-04-13 17:00;METAR CYYG 131700Z 09021G27KT 5SM -SN OVC009 01/M01 A2956 RMK SF8 SLP011=
CYYG;2007-04-13 18:00;METAR CYYG 131800Z 08018G26KT 10SM -SN FEW008 OVC011 01/M01 A2953 RMK SF2SC6 SLP002=
CYYG;2007-04-13 18:38;SPECI CYYG 131838Z 08021G27KT 10SM -DZ OVC009 01/ RMK SF8=
CYYG;2007-04-13 19:00;METAR CYYG 131900Z 08019G24KT 15SM OVC010 01/M01 A2950 RMK SF8 SLP991=
CYYG;2007-04-13 20:00;METAR CYYG 132000Z 08017G26KT 15SM OVC010 01/M01 A2947 RMK SF8 SLP981=
CYYG;2007-04-13 21:00;METAR CYYG 132100Z 09016G21KT 15SM OVC010 01/M00 A2947 RMK SC8 SLP981=
CYYG;2007-04-13 21:36;SPECI CYYG 132136Z 09015KT 15SM OVC009 01/ RMK SC8=
CYYG;2007-04-13 22:00;METAR CYYG 132200Z 09016KT 15SM OVC008 01/M00 A2948 RMK SF8 SLP984=
CYYG;2007-04-13 22:32;SPECI CYYG 132232Z 09015KT 5SM -RA BR BKN006 OVC011 01/ RMK SF5SF3=
CYYG;2007-04-13 23:00;METAR CYYG 132300Z 09013G20KT 12SM -DZ BKN008 OVC012 01/M01 A2949 RMK SF6SC2 SLP987=
CYYG;2007-04-13 23:14;SPECI CYYG 132314Z 08013G20KT 12SM -DZ FEW009 OVC013 01/ RMK SF2SC6=
CYYG;2007-04-14 00:27;SPECI CYYG 140027Z 05011KT 12SM OVC013 01/ RMK SC8=
CYYG;2007-04-14 01:00;METAR CYYG NIL=
CYYG;2007-04-14 02:00;METAR CYYG 140200Z 05011KT 12SM OVC014 01/M01 A2948 RMK SC8 SLP986=
CYYG;2007-04-14 02:45;SPECI CYYG 140245Z 05013KT 5SM -DZ BR OVC015 00/ RMK SC8=
CYYG;2007-04-14 03:00;METAR CYYG NIL=
CYYG;2007-04-14 04:00;METAR CYYG 140400Z 04014KT 3SM -FZDZ BR OVC007 M00/M01 A2947 RMK SF8 SLP983=
CYYG;2007-04-14 04:34;SPECI CYYG 140434Z 05013KT 2SM -FZDZ BR OVC005 M00/ RMK SF8=
CYYG;2007-04-14 05:24;SPECI CYYG 140524Z 03011G16KT 8SM OVC011 M00/ RMK SC8=
CYYG;2007-04-14 06:00;METAR CYYG 140600Z 04012KT 12SM OVC014 M00/M01 A2948 RMK SC8 SLP986=
CYYG;2007-04-14 06:20;SPECI CYYG 140620Z 06012KT 6SM -FZDZ BR BKN014 OVC024 00/ RMK SC6SC2=
CYYG;2007-04-14 07:00;METAR CYYG 140700Z 04013KT 8SM OVC014 M00/M01 A2949 REFZDZ RMK SC8 SLP989=
CYYG;2007-04-14 09:00;METAR CYYG 140900Z 05015KT 12SM OVC021 00/M02 A2951 RMK SC8 SLP996=
CYYG;2007-04-14 10:00;METAR CYYG 141000Z 04015KT 15SM FEW018 OVC023 00/M01 A2953 RMK SC1SC7 SLP002=
CYYG;2007-04-14 11:00;METAR CYYG 141100Z 04015KT 15SM FEW008 OVC025 00/M01 A2956 RMK SF2SC6 SLP012=
CYYG;2007-04-14 11:51;SPECI CYYG 141151Z 05017G22KT 10SM BKN007 BKN028 OVC055 00/ RMK SF5SC2SC2=
CYYG;2007-04-14 12:00;METAR CYYG NIL=
CYYG;2007-04-14 12:05;SPECI CYYG 141205Z 05017KT 3SM -SN BKN007 OVC032 00/ RMK SF6SC2 VIS S-W 10=
CYYG;2007-04-14 13:00;METAR CYYG 141300Z 04021G26KT 10SM -SN BKN008 OVC062 00/M01 A2960 RMK SF6SC2 SLP026=
CYYG;2007-04-14 14:00;METAR CYYG 141400Z 04019G27KT 15SM -SN OVC008 00/M01 A2963 RMK SF8 SLP036=
CYYG;2007-04-14 15:00;METAR CYYG 141500Z 05017G24KT 15SM -SN BKN008 OVC026 00/M01 A2967 RMK SF6SC2 SLP048=
CYYG;2007-04-14 16:00;METAR CYYG 141600Z 04023KT 15SM -SN BKN007 OVC011 00/M01 A2969 RMK SF6SC2 SLP054=
CYYG;2007-04-14 17:00;METAR CYYG 141700Z 04019G26KT 15SM -SN OVC008 00/M01 A2972 RMK SF8 SLP067=
CYYG;2007-04-14 18:00;METAR CYYG 141800Z 04018G24KT 2SM -SN OVC007 00/M01 A2975 RMK SF8 SLP076=
CYYG;2007-04-14 19:00;METAR CYYG 141900Z 04019G26KT 2SM -SN OVC006 00/M01 A2977 RMK SF8 SLP085=
CYYG;2007-04-14 19:37;SPECI CYYG 141937Z 03015KT 3SM -SN OVC006 00/ RMK SF8=
CYYG;2007-04-14 20:00;METAR CYYG 142000Z 04016G22KT 10SM -SN OVC005 00/M01 A2980 RMK SF8 SLP094=
CYYG;2007-04-14 21:00;METAR CYYG NIL=
CYYG;2007-04-14 22:00;METAR CYYG 142200Z 01011KT 5SM -SN OVC004 M01/M01 A2987 RMK SF8 SLP116=
CYYG;2007-04-14 23:00;METAR CYYG NIL=
CYYG;2007-04-15 00:00;METAR CYYG 150000Z 01010KT 6SM -SN FEW005 BKN009 OVC039 M01/M02 A2993 RMK SF2SF6SC1 SLP139=
CYYG;2007-04-15 00:22;SPECI CYYG 150022Z 36007KT 12SM FEW010 OVC039 M01/ RMK SC1SC6=
CYYG;2007-04-15 01:00;METAR CYYG 150100Z 01006KT 15SM SCT040 M01/M02 A2994 RMK SC3 SLP140=
CYYG;2007-04-15 01:17;SPECI CYYG 150117Z 36006KT 12SM SCT007 BKN039 M01/ RMK SF4SC2=
CYYG;2007-04-15 02:00;METAR CYYG 150200Z 36007KT 12SM FEW009 M02/M03 A2995 RMK SC2 SLP143=
CYYG;2007-04-15 03:00;METAR CYYG 150300Z 36007KT 12SM BKN007 M02/M03 A2996 RMK SF6 SLP147=
CYYG;2007-04-15 03:46;SPECI CYYG 150346Z 01004KT 12SM FEW007 M02/ RMK SF2=
CYYG;2007-04-15 04:00;METAR CYYG 150400Z 36005KT 15SM FEW007 M02/M03 A2998 RMK SF2 SLP156=
CYYG;2007-04-15 06:00;METAR CYYG 150600Z 34004KT 15SM SKC M03/M04 A3000 RMK SLP162=
CYYG;2007-04-15 07:00;METAR CYYG 150700Z 33004KT 15SM SKC M03/M04 A3002 RMK SLP168=
CYYG;2007-04-15 08:00;METAR CYYG 150800Z 35004KT 15SM SKC M03/M04 A3002 RMK SLP167=
CYYG;2007-04-15 09:00;METAR CYYG 150900Z 34004KT 8SM FEW250 M03/M04 A3002 RMK CI1 SLP169=
CYYG;2007-04-15 09:43;SPECI CYYG 150943Z 28005KT 6SM BR FEW007 SCT250 M03/ RMK SF2CI0=
CYYG;2007-04-15 10:00;METAR CYYG 151000Z 28005KT 6SM BR SCT007 BKN250 M04/M04 A3006 RMK SF2CI1 SLP181=
CYYG;2007-04-15 11:00;METAR CYYG 151100Z 02003KT 8SM BKN005 BKN250 M02/M03 A3006 RMK SF5CI2 SLP183=
CYYG;2007-04-15 13:00;METAR CYYG 151300Z 04005KT 15SM SCT005 BKN250 00/M01 A3010 RMK SF4CI2 SLP196=
CYYG;2007-04-15 14:00;METAR CYYG 151400Z 01004KT 15SM FEW010 FEW250 01/M01 A3011 RMK SF1CI1 SLP197=
CYYG;2007-04-15 15:00;METAR CYYG 151500Z 36005KT 15SM FEW010 FEW250 03/M00 A3013 RMK SF1CI1 SLP205=
CYYG;2007-04-15 16:00;METAR CYYG 151600Z 02009KT 15SM FEW015 FEW250 03/M01 A3014 RMK SC1CI1 SLP207=
CYYG;2007-04-15 17:00;METAR CYYG 151700Z 02009KT 15SM FEW015 BKN250 03/M01 A3011 RMK SC1CI2 SLP198=
CYYG;2007-04-15 18:00;METAR CYYG 151800Z 02006KT 15SM FEW015 BKN250 03/M02 A3016 RMK SC1CI3 SLP215=
CYYG;2007-04-15 19:00;METAR CYYG 151900Z 01008KT 15SM BKN250 03/M03 A3014 RMK CI4 SLP207=
CYYG;2007-04-15 20:00;METAR CYYG 152000Z 04008KT 15SM BKN250 02/M03 A3012 RMK CI7 SLP203=
CYYG;2007-04-15 21:00;METAR CYYG 152100Z 04007KT 15SM OVC250 01/M03 A3013 RMK CS8 SLP205=
CYYG;2007-04-15 22:00;METAR CYYG 152200Z 05010KT 15SM FEW160 OVC250 01/M04 A3012 RMK AC2CS6 SLP202=
CYYG;2007-04-15 23:00;METAR CYYG 152300Z 04005KT 15SM FEW180 OVC250 M00/M03 A3015 RMK AC2CS6 SLP213=
CYYG;2007-04-16 00:00;METAR CYYG 160000Z 01003KT 15SM SCT170 OVC250 M01/M03 A3017 RMK AC4CS4 SLP219=
CYYG;2007-04-16 01:00;METAR CYYG 160100Z 05005KT 15SM BKN170 OVC250 M01/M03 A3017 RMK AC6CI2 SLP218=
CYYG;2007-04-16 02:00;METAR CYYG NIL=
CYYG;2007-04-16 03:00;METAR CYYG 160300Z 09004KT 15SM FEW180 M02/M04 A3015 RMK AC2 SLP213=
CYYG;2007-04-16 04:00;METAR CYYG 160400Z 10003KT 15SM FEW180 M02/M03 A3015 RMK AC2 SLP213=
CYYG;2007-04-16 05:00;METAR CYYG 160500Z 09004KT 15SM SCT170 M02/M03 A3014 RMK AC4 SLP207=
CYYG;2007-04-16 06:00;METAR CYYG 160600Z 09003KT 15SM BKN170 M01/M03 A3013 RMK AC6 SLP206=
CYYG;2007-04-16 07:00;METAR CYYG 160700Z 10004KT 15SM BKN170 M02/M03 A3011 RMK AC6 SLP198=
CYYG;2007-04-16 08:00;METAR CYYG 160800Z 09003KT 15SM OVC170 M01/M03 A3010 RMK AC8 SLP195=
CYYG;2007-04-16 09:00;METAR CYYG 160900Z 12004KT 15SM OVC170 M01/M03 A3010 RMK AC8 SLP194=
CYYG;2007-04-16 10:00;METAR CYYG 161000Z 11007KT 15SM BKN140 OVC300 M01/M03 A3009 RMK AC5CI2 SLP191=
CYYG;2007-04-16 11:00;METAR CYYG 161100Z 13009KT 15SM BKN110 BKN300 M00/M03 A3011 RMK AC6CI2 SLP197=
CYYG;2007-04-16 12:00;METAR CYYG 161200Z 11011KT 15SM BKN120 OVC300 01/M03 A3010 RMK AC6CI2 SLP195=
CYYG;2007-04-16 13:00;METAR CYYG 161300Z 12011KT 15SM BKN120 OVC300 02/M03 A3010 RMK AC5CI3 SLP194=
CYYG;2007-04-16 15:00;METAR CYYG NIL=
CYYG;2007-04-16 16:00;METAR CYYG 161600Z 11014G19KT 15SM OVC094 03/M02 A3009 RMK AC8 SLP190=
CYYG;2007-04-16 17:00;METAR CYYG 161700Z 10015G20KT 15SM OVC097 03/M02 A3006 RMK AC8 SLP183=
CYYG;2007-04-16 19:00;METAR CYYG 161900Z 09008KT 15SM OVC084 03/M02 A3004 RMK AC8 SLP173=
CYYG;2007-04-16 20:00;METAR CYYG 162000Z 11010KT 15SM OVC071 03/M02 A3004 RMK AC8 SLP176=
CYYG;2007-04-16 21:00;METAR CYYG 162100Z 09010G15KT 15SM OVC069 03/M02 A3002 RMK AC8 SLP168=
CYYG;2007-04-16 22:00;METAR CYYG 162200Z 04008KT 15SM SCT062 OVC068 02/M01 A3001 RMK SC3AC5 SLP164=
CYYG;2007-04-17 00:00;METAR CYYG 170000Z 08010KT 15SM OVC060 02/M02 A3001 RMK SC8 SLP163=
CYYG;2007-04-17 00:22;SPECI CYYG 170022Z 09009KT 15SM -SHRA OVC065 02/ RMK SC8=
CYYG;2007-04-17 01:00;METAR CYYG 170100Z 08012KT 15SM -SHRA OVC063 02/M03 A3002 RMK SC8 SLP167=
CYYG;2007-04-17 03:00;METAR CYYG 170300Z 09011KT 15SM -SHRA OVC080 01/M02 A2996 RMK AC8 SLP148=
CYYG;2007-04-17 03:31;SPECI CYYG 170331Z 09012G18KT 15SM OVC080 02/ RMK AC8=
CYYG;2007-04-17 04:00;METAR CYYG 170400Z 08008KT 15SM OVC090 02/M02 A2994 RMK AC8 SLP140=
CYYG;2007-04-17 05:00;METAR CYYG 170500Z 04008KT 15SM OVC100 01/M02 A2991 RMK AC8 SLP132=
CYYG;2007-04-17 06:00;METAR CYYG 170600Z 05007KT 15SM SCT025 OVC100 01/M02 A2989 RMK SC3AC5 SLP125=
CYYG;2007-04-17 07:00;METAR CYYG 170700Z 06008KT 15SM SCT025 OVC110 01/M02 A2989 RMK SC3AC5 SLP124=
CYYG;2007-04-17 08:00;METAR CYYG 170800Z 05010KT 15SM FEW025 OVC110 01/M02 A2986 RMK SC2AC6 SLP114=
CYYG;2007-04-17 09:00;METAR CYYG 170900Z 06012KT 15SM FEW022 OVC110 02/M01 A2986 RMK SC2AC6 SLP114=
CYYG;2007-04-17 10:00;METAR CYYG 171000Z 06016G21KT 15SM SCT019 OVC110 02/M01 A2986 RMK SC3AC5 SLP113=
CYYG;2007-04-17 11:00;METAR CYYG 171100Z 06015G24KT 15SM OVC016 02/M01 A2986 RMK SC8 SLP115=
CYYG;2007-04-17 12:00;METAR CYYG 171200Z 06019G26KT 15SM OVC017 02/M01 A2986 RMK SC8 SLP115=
CYYG;2007-04-17 12:37;SPECI CYYG 171237Z 06016G25KT 12SM -SHRA OVC015 02/ RMK SC8=
CYYG;2007-04-17 15:00;METAR CYYG 171500Z 04015KT 10SM -SHRA OVC015 02/01 A2986 RMK SC8 SLP113=
CYYG;2007-04-17 15:38;SPECI CYYG 171538Z 05016G24KT 10SM -SHRA FEW008 OVC014 02/ RMK SF2SC6=
CYYG;2007-04-17 17:00;METAR CYYG 171700Z 06016KT 12SM VCSH FEW007 OVC014 03/01 A2986 RMK SF2SC6 SLP114=
CYYG;2007-04-17 19:00;METAR CYYG NIL=
CYYG;2007-04-17 21:00;METAR CYYG 172100Z 04017G27KT 15SM FEW008 OVC017 02/00 A2987 RMK SF2SC6 SLP116=
CYYG;2007-04-17 22:00;METAR CYYG 172200Z 04020G26KT 12SM FEW009 OVC018 02/00 A2987 RMK SF1SC7 SLP116=
CYYG;2007-04-18 00:00;METAR CYYG 180000Z 04019G24KT 15SM OVC019 02/00 A2990 RMK SC8 SLP126=
CYYG;2007-04-18 01:00;METAR CYYG 180100Z 04016G21KT 15SM OVC020 02/00 A2990 RMK SC8 SLP127=
CYYG;2007-04-18 02:00;METAR CYYG 180200Z 05019G25KT 15SM OVC018 02/00 A2989 RMK SC8 SLP124=
CYYG;2007-04-18 03:00;METAR CYYG 180300Z 05019G27KT 15SM BKN016 OVC160 02/00 A2989 RMK SC6AC2 SLP123=
CYYG;2007-04-18 04:00;METAR CYYG 180400Z 05017G28KT 15SM SCT011 OVC017 02/M00 A2989 RMK SC3SC5 SLP124=
CYYG;2007-04-18 05:00;METAR CYYG 180500Z 04017KT 15SM BKN009 OVC019 01/M00 A2988 RMK SF5SC3 SLP122=
CYYG;2007-04-18 06:00;METAR CYYG 180600Z 04020G26KT 15SM SCT009 OVC018 01/M01 A2987 RMK SC3SC5 SLP118=
CYYG;2007-04-18 08:00;METAR CYYG 180800Z 04022G28KT 15SM FEW010 OVC020 01/M01 A2987 RMK SC2SC6 SLP116=
CYYG;2007-04-18 09:00;METAR CYYG 180900Z 04021G31KT 15SM BKN011 OVC020 01/M01 A2987 RMK SC5SC3 SLP117=
CYYG;2007-04-18 10:00;METAR CYYG NIL=
CYYG;2007-04-18 11:00;METAR CYYG 181100Z 04023G32KT 15SM FEW011 OVC022 01/M02 A2989 RMK SF2SC6 SLP124=
CYYG;2007-04-18 13:00;METAR CYYG NIL=
CYYG;2007-04-18 13:13;SPECI CYYG 181313Z 04023G32KT 8SM -DZ BKN012 OVC020 01/ RMK SF6SC2=
CYYG;2007-04-18 14:00;METAR CYYG 181400Z 03023G35KT 5SM -DZ BR OVC010 01/M01 A2989 RMK SF8 SLP124=
CYYG;2007-04-18 14:48;SPECI CYYG 181448Z 04026G36KT 5SM -SHRA BR OVC010 01/ RMK SF8=
CYYG;2007-04-18 15:00;METAR CYYG 181500Z 04024G33KT 8SM -SHRA OVC010 01/M01 A2989 RMK SF8 SLP123=
CYYG;2007-04-18 15:19;SPECI CYYG 181519Z 04024G34KT 8SM -DZ OVC014 02/ RMK SF8=
CYYG;2007-04-18 16:00;METAR CYYG 181600Z 04025G31KT 8SM -DZ OVC010 01/M01 A2989 RMK SF8 SLP123=
CYYG;2007-04-18 17:00;METAR CYYG 181700Z 04020G31KT 8SM -DZ OVC008 01/M01 A2989 RMK SF8 SLP125=
CYYG;2007-04-18 18:00;METAR CYYG 181800Z 03023G32KT 8SM -DZ OVC008 01/M01 A2990 RMK SF8 SLP126=
CYYG;2007-04-18 19:00;METAR CYYG 181900Z 04020G29KT 10SM -DZ OVC008 01/M01 A2989 RMK SF8 SLP125=
CYYG;2007-04-18 20:00;METAR CYYG 182000Z 04019G27KT 10SM -DZ BKN009 OVC017 01/M01 A2990 RMK SF6SC2 SLP129=
CYYG;2007-04-18 21:00;METAR CYYG 182100Z 03017KT 10SM -DZ BKN009 OVC017 00/M01 A2991 RMK SF6SC2 SLP130=
CYYG;2007-04-18 21:34;SPECI CYYG 182134Z 02017KT 10SM SCT009 OVC024 00/ RMK SF3SC5 INTMT -DZ=
CYYG;2007-04-18 22:37;SPECI CYYG 182237Z 03016KT 10SM FEW009 OVC025 00/ RMK SF2SC6 VIS LWR=
CYYG;2007-04-18 23:00;METAR CYYG 182300Z 03014G19KT 10SM BKN027 OVC053 00/M02 A2992 RMK SC5SC3 SLP133=
CYYG;2007-04-19 01:00;METAR CYYG 190100Z 03016G21KT 15SM BKN029 OVC053 01/M02 A2991 RMK SC6SC2 SLP131=
CYYG;2007-04-19 02:00;METAR CYYG 190200Z 04014KT 15SM FEW030 FEW040 OVC064 01/M02 A2990 RMK SC1SC1SC6 SLP126=
CYYG;2007-04-19 03:00;METAR CYYG 190300Z 03014KT 15SM FEW064 M00/M02 A2989 RMK SC2 SLP123=
CYYG;2007-04-19 04:00;METAR CYYG 190400Z 02013G18KT 15SM SCT220 M00/M02 A2988 RMK CI2 SLP120=
CYYG;2007-04-19 05:00;METAR CYYG 190500Z 04011G17KT 15SM SCT220 M00/M02 A2987 RMK CI2 SLP116=
CYYG;2007-04-19 07:00;METAR CYYG 190700Z 03014KT 15SM SCT042 BKN170 M00/M03 A2985 RMK SC3AC3 SLP109=
CYYG;2007-04-19 08:00;METAR CYYG 190800Z 04018KT 15SM BKN030 OVC040 00/M03 A2985 RMK SC6SC2 SLP112=
CYYG;2007-04-19 10:00;METAR CYYG 191000Z 03019G26KT 15SM SCT028 OVC052 00/M02 A2987 RMK SC3SC5 SLP116=
CYYG;2007-04-19 11:00;METAR CYYG 191100Z 03018G24KT 12SM FEW010 BKN032 00/M02 A2988 RMK SF2SC6 VIS LWR E SLP122=
CYYG;2007-04-19 12:00;METAR CYYG 191200Z 03019KT 12SM FEW010 BKN032 BKN047 00/M02 A2989 RMK SF2SC4SC2 SLP124=
CYYG;2007-04-19 13:00;METAR CYYG 191300Z 03018KT 12SM FEW008 BKN016 01/M02 A2990 RMK SF2SC6 SLP129=
CYYG;2007-04-19 14:42;SPECI CYYG 191442Z 04020G27KT 12SM FEW007 BKN013 01/ RMK SF1SC6=
CYYG;2007-04-19 15:00;METAR CYYG 191500Z 04019G27KT 12SM FEW007 BKN014 02/M02 A2993 RMK SF1SC6 VIS LWR NE-E SLP136=
CYYG;2007-04-19 16:00;METAR CYYG 191600Z 02022G27KT 12SM FEW008 BKN015 02/M01 A2992 RMK SF1SC6 SLP134=
CYYG;2007-04-19 17:00;METAR CYYG 191700Z 01017G25KT 15SM FEW008 BKN015 02/M01 A2993 RMK SF1SC6 SLP137=
CYYG;2007-04-19 18:00;METAR CYYG 191800Z 02018G26KT 15SM FEW010 BKN016 02/M01 A2993 RMK SF1SC6 SLP138=
CYYG;2007-04-19 18:41;SPECI CYYG 191841Z 02014G22KT 15SM BKN012 02/ RMK SC7=
CYYG;2007-04-19 19:00;METAR CYYG 191900Z 02018G29KT 15SM BKN011 01/M02 A2993 RMK SC7 SLP138=
CYYG;2007-04-19 20:00;METAR CYYG 192000Z 02019G25KT 15SM OVC011 01/M02 A2993 RMK SC8 SLP139=
CYYG;2007-04-19 21:00;METAR CYYG 192100Z 02017KT 15SM BKN012 00/M02 A2995 RMK SC7 SLP144=
CYYG;2007-04-19 22:00;METAR CYYG 192200Z 02013G20KT 12SM BKN011 M00/M02 A2996 RMK SC7 SLP146=
CYYG;2007-04-19 23:23;SPECI CYYG 192323Z 02012G17KT 10SM OVC008 M01/ RMK SF8=
CYYG;2007-04-20 00:00;METAR CYYG 200000Z 01012G18KT 10SM OVC008 M01/M03 A2998 RMK SF8 SLP154=
CYYG;2007-04-20 01:00;METAR CYYG 200100Z 36008KT 10SM BKN007 M01/M03 A2998 RMK SF6 SLP155=
CYYG;2007-04-20 02:00;METAR CYYG 200200Z 01008KT 15SM SCT008 M01/M03 A2998 RMK SF3 SLP153=
CYYG;2007-04-20 03:00;METAR CYYG 200300Z 01008KT 15SM FEW008 M02/M03 A2997 RMK SF2 SLP152=
CYYG;2007-04-20 04:00;METAR CYYG 200400Z 01008KT 15SM FEW010 M01/M03 A2997 RMK SC2 SLP151=
CYYG;2007-04-20 05:00;METAR CYYG 200500Z 36006KT 15SM FEW015 M02/M03 A2996 RMK SC2 SLP148=
CYYG;2007-04-20 06:00;METAR CYYG 200600Z 36006KT 15SM FEW020 M02/M03 A2996 RMK SC2 SLP147=
CYYG;2007-04-20 07:00;METAR CYYG 200700Z 35006KT 15SM FEW020 M02/M03 A2996 RMK SC2 SLP148=
CYYG;2007-04-20 08:00;METAR CYYG 200800Z 36006KT 15SM SKC M02/M03 A2996 RMK SLP147=
CYYG;2007-04-20 09:00;METAR CYYG 200900Z 35004KT 10SM BCFG SKC M02/M03 A2997 RMK SLP152=
CYYG;2007-04-20 10:00;METAR CYYG 201000Z 36007KT 10SM SKC M01/M02 A2998 RMK SLP154=
CYYG;2007-04-20 11:00;METAR CYYG 201100Z 02007KT 15SM FEW020 FEW300 00/M01 A2999 RMK CF1CI1 SLP158=
CYYG;2007-04-20 13:00;METAR CYYG 201300Z 36008KT 15SM SKC 04/M01 A3000 RMK SLP161=
CYYG;2007-04-20 14:00;METAR CYYG 201400Z 01008KT 15SM SKC 04/M01 A3001 RMK SLP163=
CYYG;2007-04-20 15:00;METAR CYYG 201500Z 01007KT 15SM FEW300 05/M01 A3001 RMK CI0 SLP163=
CYYG;2007-04-20 16:00;METAR CYYG 201600Z 01007KT 15SM FEW300 07/00 A2999 RMK CI0 SLP157=
CYYG;2007-04-20 17:00;METAR CYYG 201700Z 35007KT 15SM FEW300 08/M03 A2998 RMK CI0 SLP154=
CYYG;2007-04-20 18:00;METAR CYYG 201800Z 01005KT 15SM FEW300 09/M03 A2997 RMK CI0 SLP151=
CYYG;2007-04-20 19:00;METAR CYYG 201900Z 33005KT 15SM SKC 11/M02 A2996 RMK SLP146=
CYYG;2007-04-20 21:00;METAR CYYG 202100Z 02005KT 15SM SKC 11/M07 A2993 RMK SLP138=
CYYG;2007-04-20 23:00;METAR CYYG 202300Z 12003KT 15SM FEW300 09/M07 A2992 RMK CI1 SLP134=
CYYG;2007-04-21 01:00;METAR CYYG 210100Z 00000KT 15SM SKC 06/M04 A2993 RMK SLP135=
CYYG;2007-04-21 03:00;METAR CYYG 210300Z 00000KT 15SM SKC 04/M02 A2993 RMK SLP138=
CYYG;2007-04-21 05:00;METAR CYYG 210500Z 25005KT 15SM SKC 06/M06 A2991 RMK SLP131=
CYYG;2007-04-21 06:00;METAR CYYG 210600Z 25007KT 15SM SKC 04/M05 A2991 RMK SLP129=
CYYG;2007-04-21 07:00;METAR CYYG 210700Z 25004KT 15SM SKC 04/M06 A2990 RMK SLP127=
CYYG;2007-04-21 08:00;METAR CYYG 210800Z 25005KT 15SM SKC 04/M06 A2989 RMK SLP124=
CYYG;2007-04-21 09:00;METAR CYYG 210900Z 25006KT 15SM SKC 03/M05 A2989 RMK SLP124=
CYYG;2007-04-21 10:00;METAR CYYG NIL=
CYYG;2007-04-21 11:00;METAR CYYG 211100Z 36005KT 15SM FEW300 04/M02 A2994 RMK CI0 SLP139=
CYYG;2007-04-21 12:00;METAR CYYG NIL=
CYYG;2007-04-21 13:00;METAR CYYG 211300Z 03014KT 15SM FEW300 05/M01 A2998 RMK CI0 SLP153=
CYYG;2007-04-21 14:00;METAR CYYG 211400Z 04018KT 15SM FEW300 05/M01 A3000 RMK CI0 SLP159=
CYYG;2007-04-21 15:00;METAR CYYG 211500Z 05016KT 15SM FEW300 05/M01 A3002 RMK CI0 SLP168=
CYYG;2007-04-21 16:00;METAR CYYG 211600Z 04017KT 15SM SKC 07/M02 A3002 RMK SLP169=
CYYG;2007-04-21 17:00;METAR CYYG 211700Z 03013KT 15SM SKC 07/M01 A3004 RMK SLP174=
CYYG;2007-04-21 18:00;METAR CYYG NIL=
CYYG;2007-04-21 19:00;METAR CYYG 211900Z 02014KT 15SM SKC 05/M04 A3006 RMK SLP183=
CYYG;2007-04-21 20:00;METAR CYYG 212000Z 02012KT 15SM FEW300 05/M04 A3007 RMK CI0 SLP186=
CYYG;2007-04-21 21:00;METAR CYYG 212100Z 03011KT 15SM FEW300 04/M05 A3008 RMK CI1 SLP188=
CYYG;2007-04-21 22:00;METAR CYYG 212200Z 04008KT 15SM BKN300 03/M05 A3009 RMK CI1 SLP191=
CYYG;2007-04-21 23:00;METAR CYYG 212300Z 04004KT 15SM BKN300 01/M05 A3009 RMK CI2 SLP193=
CYYG;2007-04-22 01:00;METAR CYYG NIL=
CYYG;2007-04-22 02:00;METAR CYYG 220200Z 36004KT 15SM SKC M02/M04 A3017 RMK SLP218=
CYYG;2007-04-22 03:00;METAR CYYG 220300Z 30002KT 15SM SKC M02/M03 A3017 RMK SLP218=
CYYG;2007-04-22 04:00;METAR CYYG 220400Z 27003KT 15SM SKC M03/M04 A3017 RMK SLP219=
CYYG;2007-04-22 05:00;METAR CYYG 220500Z 29002KT 15SM SKC M04/M05 A3017 RMK SLP220=
CYYG;2007-04-22 06:00;METAR CYYG 220600Z 28002KT 15SM SKC M03/M04 A3017 RMK SLP220=
CYYG;2007-04-22 07:00;METAR CYYG 220700Z 26005KT 15SM SKC M02/M05 A3018 RMK SLP223=
CYYG;2007-04-22 08:00;METAR CYYG 220800Z 29003KT 15SM SKC M03/M06 A3021 RMK SLP231=
CYYG;2007-04-22 09:00;METAR CYYG 220900Z 31003KT 15SM SKC M02/M06 A3022 RMK SLP236=
CYYG;2007-04-22 11:00;METAR CYYG NIL=
CYYG;2007-04-22 12:00;METAR CYYG 221200Z 31003KT 15SM SCT300 04/M05 A3025 RMK CI2 SLP247=
CYYG;2007-04-22 13:00;METAR CYYG NIL=
CYYG;2007-04-22 14:00;METAR CYYG 221400Z 32003KT 15SM FEW300 06/M05 A3025 RMK CI1 SLP247=
CYYG;2007-04-22 15:00;METAR CYYG 221500Z 19007KT 15SM FEW300 07/M02 A3025 RMK CI1 SLP245=
CYYG;2007-04-22 16:00;METAR CYYG 221600Z 19008KT 15SM FEW300 08/M03 A3024 RMK CI1 SLP242=
CYYG;2007-04-22 17:00;METAR CYYG 221700Z 21007KT 15SM FEW300 10/M05 A3024 RMK CI1 SLP241=
CYYG;2007-04-22 18:00;METAR CYYG 221800Z 19009KT 15SM SCT300 10/M06 A3021 RMK CI2 SLP233=
CYYG;2007-04-22 19:00;METAR CYYG 221900Z 16008KT 15SM BKN300 10/M06 A3018 RMK CI2 SLP222=
CYYG;2007-04-22 20:00;METAR CYYG 222000Z 20007KT 15SM BKN300 11/M06 A3016 RMK CI3 SLP216=
CYYG;2007-04-22 22:00;METAR CYYG 222200Z 17009KT 15SM BKN300 08/M05 A3012 RMK CI3 SLP202=
CYYG;2007-04-22 23:00;METAR CYYG 222300Z 20006KT 15SM OVC300 06/M04 A3012 RMK CI4 SLP203=
CYYG;2007-04-23 00:00;METAR CYYG 230000Z 21007KT 15SM FEW160 OVC250 06/M04 A3011 RMK AC2CI2 SLP199=
CYYG;2007-04-23 01:00;METAR CYYG 230100Z 21010KT 15SM FEW160 BKN250 06/M04 A3009 RMK AC2CI2 SLP193=
CYYG;2007-04-23 02:00;METAR CYYG 230200Z 21013G18KT 15SM FEW160 SCT250 06/M05 A3009 RMK AC2CI1 SLP191=
CYYG;2007-04-23 04:00;METAR CYYG 230400Z 20012KT 15SM OVC110 05/M04 A3007 RMK AC8 SLP185=
CYYG;2007-04-23 05:00;METAR CYYG 230500Z 20013KT 15SM OVC100 05/M04 A3005 RMK AC8 SLP178=
CYYG;2007-04-23 06:00;METAR CYYG NIL=
CYYG;2007-04-23 06:08;SPECI CYYG 230608Z 18013G20KT 15SM -SHRA BKN040 OVC080 04/ RMK SC5AC3=
CYYG;2007-04-23 06:32;SPECI CYYG 230632Z 20010G16KT 15SM FEW040 OVC096 05/ RMK SC2AC6=
CYYG;2007-04-23 07:00;METAR CYYG 230700Z 20011KT 15SM BKN096 OVC110 05/M03 A2998 RMK AC5AC3 SLP155=
CYYG;2007-04-23 08:00;METAR CYYG 230800Z 21013KT 15SM BKN100 OVC160 05/M02 A2996 RMK AC6AC2 SLP146=
CYYG;2007-04-23 09:00;METAR CYYG 230900Z 20015KT 15SM OVC110 06/M01 A2990 RMK AC8 SLP126=
CYYG;2007-04-23 10:00;METAR CYYG 231000Z 20015G21KT 15SM BKN110 OVC160 06/00 A2986 RMK AC6AC2 SLP114=
CYYG;2007-04-23 11:00;METAR CYYG 231100Z 22015G22KT 15SM BKN100 OVC160 08/00 A2985 RMK AC6AC2 SLP110=
CYYG;2007-04-23 12:00;METAR CYYG 231200Z 24017G22KT 15SM BKN100 OVC160 09/01 A2984 RMK AC6AC2 SLP107=
CYYG;2007-04-23 13:00;METAR CYYG 231300Z 24017KT 15SM OVC100 10/01 A2984 RMK AC8 SLP105=
CYYG;2007-04-23 14:00;METAR CYYG 231400Z 25012G17KT 15SM OVC100 12/02 A2983 RMK AC8 SLP102=
CYYG;2007-04-23 15:00;METAR CYYG 231500Z 24015G24KT 15SM SCT100 BKN280 15/03 A2980 RMK AC4CI3 SLP093=
CYYG;2007-04-23 16:00;METAR CYYG 231600Z 25016G22KT 15SM BKN280 17/04 A2978 RMK CI2 SLP085=
CYYG;2007-04-23 17:00;METAR CYYG 231700Z 24016KT 15SM FEW280 19/04 A2976 RMK CI1 SLP077=
CYYG;2007-04-23 18:00;METAR CYYG 231800Z 23016G21KT 15SM SCT280 20/05 A2974 RMK CI1 SLP071=
CYYG;2007-04-23 20:00;METAR CYYG 232000Z 24014G26KT 15SM BKN280 21/04 A2970 RMK CI2 SLP058=
CYYG;2007-04-23 21:00;METAR CYYG 232100Z 24017KT 15SM BKN280 20/03 A2969 RMK CI2 SLP056=
CYYG;2007-04-23 22:00;METAR CYYG 232200Z 24017KT 15SM BKN280 19/03 A2968 RMK CI1 SLP050=
CYYG;2007-04-23 23:00;METAR CYYG 232300Z 24018G25KT 15SM BKN250 18/01 A2968 RMK CI2 SLP051=
CYYG;2007-04-24 00:00;METAR CYYG 240000Z 25011G17KT 15SM SCT250 16/01 A2968 RMK CI2 SLP052=
CYYG;2007-04-24 01:00;METAR CYYG 240100Z 24011G16KT 15SM FEW250 14/01 A2967 RMK CI1 SLP049=
CYYG;2007-04-24 02:00;METAR CYYG 240200Z 22012KT 15SM BKN250 14/01 A2965 RMK CI2 SLP042=
CYYG;2007-04-24 03:00;METAR CYYG NIL=
CYYG;2007-04-24 04:00;METAR CYYG 240400Z 23011G17KT 15SM BKN230 13/03 A2960 RMK CS2 SLP025=
CYYG;2007-04-24 05:00;METAR CYYG 240500Z 22011KT 15SM BKN210 13/03 A2957 RMK CS2 SLP014=
CYYG;2007-04-24 06:00;METAR CYYG 240600Z 20012KT 15SM BKN200 11/03 A2954 RMK CS3 SLP004=
CYYG;2007-04-24 07:00;METAR CYYG 240700Z 21011KT 15SM BKN160 12/03 A2952 RMK AS6 SLP995=
CYYG;2007-04-24 08:00;METAR CYYG 240800Z 20011G16KT 15SM SCT180 12/03 A2948 RMK AS3 SLP984=
CYYG;2007-04-24 09:00;METAR CYYG 240900Z 20008KT 15SM BKN150 OVC250 10/03 A2946 RMK AC6CI1 SLP977=
CYYG;2007-04-24 10:00;METAR CYYG 241000Z 22013KT 15SM BKN160 OVC250 11/04 A2947 RMK AC6CI1 SLP978=
CYYG;2007-04-24 11:00;METAR CYYG 241100Z 23015G20KT 15SM BKN160 BKN250 12/04 A2947 RMK AC6CI0 ACC ASOCTD SLP979=
CYYG;2007-04-24 12:00;METAR CYYG 241200Z 24014KT 15SM SCT045 BKN110 13/05 A2948 RMK SC3AC2 ACC ASOCTD SLP983=
CYYG;2007-04-24 13:00;METAR CYYG 241300Z 25015G20KT 15SM BKN040 BKN110 BKN300 13/06 A2950 RMK SC6AC1CI0 ACC ASOCTD SLP988=
CYYG;2007-04-24 14:00;METAR CYYG 241400Z 27013G18KT 15SM BKN037 OVC110 13/07 A2952 RMK SC7AC1 SLP996=
CYYG;2007-04-24 15:00;METAR CYYG 241500Z 32011G19KT 15SM BKN030 13/07 A2956 RMK SC7 FROPA SLP010=
CYYG;2007-04-24 17:00;METAR CYYG 241700Z 33011G18KT 15SM SCT040 12/02 A2960 RMK SC4 SLP024=
CYYG;2007-04-24 18:00;METAR CYYG 241800Z 35014G19KT 15SM FEW050 FEW300 12/00 A2961 RMK SC1CI1 SLP029=
CYYG;2007-04-24 19:00;METAR CYYG 241900Z 35014KT 15SM FEW050 FEW300 10/M02 A2963 RMK SC1CI1 SLP035=
CYYG;2007-04-24 20:00;METAR CYYG NIL=
CYYG;2007-04-24 21:00;METAR CYYG 242100Z 34013G21KT 15SM FEW050 FEW300 07/M03 A2971 RMK SC1CI1 SLP061=
CYYG;2007-04-24 23:00;METAR CYYG 242300Z 34007KT 15SM FEW050 FEW300 04/M04 A2977 RMK SC1CI1 SLP082=
CYYG;2007-04-25 00:00;METAR CYYG 250000Z 34004KT 15SM FEW280 02/M04 A2980 RMK CI0 SLP094=
CYYG;2007-04-25 02:00;METAR CYYG 250200Z 28002KT 15SM SKC 02/M03 A2986 RMK SLP113=
CYYG;2007-04-25 03:00;METAR CYYG 250300Z 31006KT 15SM SKC 02/M04 A2988 RMK SLP120=
CYYG;2007-04-25 04:00;METAR CYYG 250400Z 30006KT 15SM SKC 02/M05 A2989 RMK SLP123=
CYYG;2007-04-25 05:00;METAR CYYG 250500Z 29005KT 15SM SKC 01/M06 A2990 RMK SLP125=
CYYG;2007-04-25 06:00;METAR CYYG 250600Z 27005KT 15SM SKC 00/M06 A2989 RMK SLP122=
CYYG;2007-04-25 09:00;METAR CYYG 250900Z 27006KT 15SM SKC M01/M06 A2992 RMK SLP134=
CYYG;2007-04-25 10:00;METAR CYYG 251000Z 27006KT 15SM FEW050 FEW300 M00/M06 A2994 RMK SC1CI1 SLP141=
CYYG;2007-04-25 12:00;METAR CYYG 251200Z 29011KT 15SM SCT040 SCT300 03/M06 A2995 RMK SC3CI1 SLP145=
CYYG;2007-04-25 14:00;METAR CYYG NIL=
CYYG;2007-04-25 15:00;METAR CYYG 251500Z 29010G17KT 15SM FEW050 05/M06 A2995 RMK SC2 SLP144=
CYYG;2007-04-25 17:00;METAR CYYG 251700Z 29014KT 15SM FEW050 FEW300 06/M06 A2992 RMK SC1CI1 SLP135=
CYYG;2007-04-25 18:00;METAR CYYG 251800Z 31012G17KT 15SM FEW050 FEW300 08/M06 A2990 RMK SC1CI1 SLP127=
CYYG;2007-04-25 19:00;METAR CYYG NIL=
CYYG;2007-04-25 20:00;METAR CYYG 252000Z 26011G19KT 15SM FEW050 FEW300 09/M07 A2987 RMK SC1CI1 SLP116=
CYYG;2007-04-25 23:00;METAR CYYG 252300Z 26004KT 15SM FEW280 06/M06 A2987 RMK CI1 SLP115=
CYYG;2007-04-26 00:00;METAR CYYG 260000Z 24003KT 15SM FEW280 05/M06 A2988 RMK CI1 SLP119=
CYYG;2007-04-26 01:00;METAR CYYG 260100Z 22006KT 15SM SKC 03/M05 A2989 RMK SLP124=
CYYG;2007-04-26 02:00;METAR CYYG 260200Z 24007KT 15SM SKC 02/M05 A2990 RMK SLP125=
CYYG;2007-04-26 03:00;METAR CYYG 260300Z 26006KT 15SM SKC 02/M03 A2990 RMK SLP127=
CYYG;2007-04-26 04:00;METAR CYYG 260400Z 27006KT 15SM SKC 01/M05 A2992 RMK SLP132=
CYYG;2007-04-26 05:00;METAR CYYG 260500Z 28006KT 15SM SKC 01/M05 A2992 RMK SLP134=
CYYG;2007-04-26 07:00;METAR CYYG 260700Z 27007KT 15SM SKC M00/M07 A2992 RMK SLP133=
CYYG;2007-04-26 08:00;METAR CYYG 260800Z 27007KT 15SM SKC 00/M07 A2992 RMK SLP134=
CYYG;2007-04-26 09:00;METAR CYYG NIL=
CYYG;2007-04-26 10:00;METAR CYYG 261000Z 27006KT 15SM SKC 01/M08 A2995 RMK SLP142=
CYYG;2007-04-26 11:00;METAR CYYG 261100Z 27008KT 15SM SKC 03/M07 A2996 RMK SLP148=
CYYG;2007-04-26 12:00;METAR CYYG 261200Z 27011KT 15SM SKC 05/M05 A2997 RMK SLP149=
CYYG;2007-04-26 13:00;METAR CYYG 261300Z 26012G17KT 15SM SKC 06/M07 A2995 RMK SLP144=
CYYG;2007-04-26 14:00;METAR CYYG 261400Z 30013G19KT 15SM SKC 08/M06 A2995 RMK SLP142=
CYYG;2007-04-26 15:00;METAR CYYG 261500Z 28016G22KT 15SM SKC 08/M08 A2995 RMK SLP144=
CYYG;2007-04-26 16:00;METAR CYYG NIL=
CYYG;2007-04-26 18:00;METAR CYYG 261800Z 30015G22KT 15SM SKC 11/M09 A2995 RMK SLP144=
CYYG;2007-04-26 19:00;METAR CYYG 261900Z 32013G18KT 15SM SKC 11/M07 A2996 RMK SLP147=
CYYG;2007-04-26 21:00;METAR CYYG 262100Z 36009KT 15SM SKC 09/M09 A2999 RMK SLP157=
CYYG;2007-04-26 22:00;METAR CYYG 262200Z 36009KT 15SM SKC 09/M09 A3002 RMK SLP166=
CYYG;2007-04-26 23:00;METAR CYYG 262300Z 05010KT 15SM FEW300 02/M07 A3006 RMK CI1 SLP179=
CYYG;2007-04-27 01:00;METAR CYYG 270100Z 08002KT 15SM SKC M01/M08 A3012 RMK SLP200=
CYYG;2007-04-27 02:00;METAR CYYG 270200Z 19007KT 15SM SKC M01/M07 A3014 RMK SLP208=
CYYG;2007-04-27 03:00;METAR CYYG 270300Z 19006KT 15SM SKC 00/M07 A3015 RMK SLP212=
CYYG;2007-04-27 04:00;METAR CYYG 270400Z 20006KT 15SM SKC 00/M05 A3016 RMK SLP215=
CYYG;2007-04-27 05:00;METAR CYYG 270500Z 20006KT 15SM SKC 00/M05 A3017 RMK SLP217=
CYYG;2007-04-27 06:00;METAR CYYG 270600Z 18006KT 15SM SKC M01/M06 A3017 RMK SLP218=
CYYG;2007-04-27 07:00;METAR CYYG 270700Z 19005KT 15SM SCT300 M00/M06 A3018 RMK CI2 SLP221=
CYYG;2007-04-27 08:00;METAR CYYG 270800Z CCA 00000KT 15SM SCT300 M01/M07 A3018 RMK CI2 SLP221=
CYYG;2007-04-27 09:00;METAR CYYG NIL=
CYYG;2007-04-27 10:00;METAR CYYG 271000Z 19007KT 15SM BKN300 03/M04 A3020 RMK CI2 SLP230=
CYYG;2007-04-27 11:00;METAR CYYG 271100Z 18006KT 15SM BKN300 03/M03 A3020 RMK CI2 SLP228=
CYYG;2007-04-27 13:00;METAR CYYG 271300Z 21009KT 15SM FEW160 BKN300 07/M05 A3021 RMK AC2CI2 SLP231=
CYYG;2007-04-27 14:00;METAR CYYG 271400Z 19007KT 15SM BKN160 BKN300 08/M04 A3021 RMK AC3CI2 SLP233=
CYYG;2007-04-27 15:00;METAR CYYG 271500Z 19009KT 15SM SCT120 OVC160 08/M05 A3020 RMK AC3AS5 SLP229=
CYYG;2007-04-27 16:00;METAR CYYG 271600Z 18010KT 15SM SCT120 OVC160 10/M05 A3018 RMK AC4AS4 SLP222=
CYYG;2007-04-27 17:00;METAR CYYG 271700Z 17011KT 15SM SCT100 OVC160 10/M05 A3017 RMK AC4AS4 SLP219=
CYYG;2007-04-27 18:00;METAR CYYG 271800Z 19012KT 15SM OVC120 11/M05 A3017 RMK AC8 SLP217=
CYYG;2007-04-27 19:00;METAR CYYG 271900Z 18011KT 15SM OVC110 10/M04 A3014 RMK AC8 SLP209=
CYYG;2007-04-27 20:00;METAR CYYG 272000Z 18011KT 15SM OVC100 10/M03 A3014 RMK AC8 SLP207=
CYYG;2007-04-27 21:00;METAR CYYG 272100Z 17011KT 15SM FEW080 OVC110 10/M03 A3010 RMK AC2AC6 SLP196=
CYYG;2007-04-27 23:00;METAR CYYG 272300Z 18010KT 15SM OVC079 08/01 A3009 RMK AC8 SLP193=
CYYG;2007-04-28 00:00;METAR CYYG 280000Z 18011KT 15SM BKN056 OVC074 07/03 A3010 RMK SC5AC3 SLP194=
CYYG;2007-04-28 00:13;SPECI CYYG 280013Z 18009KT 12SM -RA BKN028 OVC046 07/ RMK SC6SC2=
CYYG;2007-04-28 01:00;METAR CYYG 280100Z 18008KT 12SM -RA OVC030 06/04 A3011 RMK SC8 SLP196=
CYYG;2007-04-28 02:00;METAR CYYG 280200Z 15007KT 15SM -RA SCT030 OVC072 06/04 A3007 RMK SC4AC4 SLP183=
CYYG;2007-04-28 03:00;METAR CYYG 280300Z 14008KT 12SM -RA SCT030 OVC056 06/04 A3003 RMK SC4SC4 SLP171=
CYYG;2007-04-28 05:00;METAR CYYG 280500Z 12012G17KT 3SM -RA BR OVC007 05/04 A2993 RMK SF8 SLP136=
CYYG;2007-04-28 06:00;METAR CYYG 280600Z 11012KT 3SM -RA BR OVC005 05/04 A2988 RMK SF8 SLP119=
CYYG;2007-04-28 07:00;METAR CYYG 280700Z 11011G16KT 3SM -RA BR OVC005 04/03 A2985 RMK SF8 SLP109=
CYYG;2007-04-28 08:00;METAR CYYG 280800Z 11010KT 6SM -RA BR OVC005 04/03 A2981 RMK SF8 SLP096=
CYYG;2007-04-28 09:00;METAR CYYG 280900Z 11009KT 10SM -RA OVC004 04/03 A2977 RMK SF8 SLP082=
CYYG;2007-04-28 09:07;SPECI CYYG 280907Z 11012KT 10SM -DZ OVC005 04/ RMK SF8=
CYYG;2007-04-28 11:00;METAR CYYG 281100Z 12006KT 3SM -RADZ BR OVC003 04/04 A2973 RMK SF8 SLP069=
CYYG;2007-04-28 11:37;SPECI CYYG 281137Z 12005KT 3/4SM R03/P6000FT/D -DZ BR OVC002 05/ RMK FG2ST6=
CYYG;2007-04-28 12:00;METAR CYYG 281200Z 12004KT 3/4SM R03/P6000FT/N -DZ BR OVC002 05/04 A2970 RMK FG3ST5 SLP060=
CYYG;2007-04-28 13:00;METAR CYYG 281300Z 16003KT 1/2SM R03/3500FT/D FG VV002 06/05 A2969 RMK FG8 SLP055=
CYYG;2007-04-28 13:17;SPECI CYYG 281317Z 19004KT 1SM R03/5000FT/U -RA BR OVC002 06/ RMK FG2SF6=
CYYG;2007-04-28 14:00;METAR CYYG 281400Z 20006KT 1SM R03/P6000FT/D BR OVC002 07/06 A2968 RMK FG2SF6 SLP053=
CYYG;2007-04-28 15:00;METAR CYYG 281500Z 28005KT 15SM FEW003 OVC006 07/06 A2967 RMK SF2SF6 VIS SE-SW 3 SLP049=
CYYG;2007-04-28 15:51;SPECI CYYG 281551Z 31008KT 15SM FEW004 OVC008 07/ RMK SF1SC8=
CYYG;2007-04-28 16:30;SPECI CYYG 281630Z 29007KT 15SM FEW007 BKN012 08/ RMK SF1SC7=
CYYG;2007-04-28 18:00;METAR CYYG 281800Z 33009KT 15SM OVC007 07/05 A2967 RMK SF8 SLP050=
CYYG;2007-04-28 18:42;SPECI CYYG 281842Z 32010KT 15SM BKN010 07/ RMK SC7=
CYYG;2007-04-28 21:00;METAR CYYG 282100Z 33010KT 15SM BKN013 06/04 A2970 RMK SC7 SLP059=
CYYG;2007-04-28 21:28;SPECI CYYG 282128Z 32007KT 15SM OVC008 05/ RMK SC8=
CYYG;2007-04-28 21:46;SPECI CYYG 282146Z 33009G15KT 15SM OVC005 04/ RMK ST8=
CYYG;2007-04-29 00:00;METAR CYYG 290000Z 33010G15KT 12SM OVC006 02/01 A2976 RMK ST8 SLP080=
CYYG;2007-04-29 00:25;SPECI CYYG 290025Z 34009G18KT 2SM BR OVC002 01/ RMK SF8=
CYYG;2007-04-29 01:00;METAR CYYG 290100Z 34011KT 1SM R03/3500V6000FT/U BR OVC003 01/00 A2979 RMK SF8 SLP088=
CYYG;2007-04-29 01:23;SPECI CYYG 290123Z 35008KT 2SM BR OVC002 01/ RMK SF8=
CYYG;2007-04-29 03:00;METAR CYYG 290300Z 01010KT 2SM BR OVC003 01/00 A2980 RMK SF8 SLP094=
CYYG;2007-04-29 04:00;METAR CYYG 290400Z 01008KT 3/4SM R03/4500FT/N BR OVC003 01/00 A2982 RMK SF8 SLP098=
CYYG;2007-04-29 05:00;METAR CYYG 290500Z 02006KT 1/2SM R03/1600V3500FT/D FG VV002 01/00 A2983 RMK FG8 SLP104=
CYYG;2007-04-29 06:00;METAR CYYG 290600Z 01007KT 2SM BR OVC003 01/01 A2982 RMK SF8 SLP100=
CYYG;2007-04-29 06:05;SPECI CYYG 290605Z 01007KT 6SM BR OVC004 01/ RMK SF8=
CYYG;2007-04-29 07:00;METAR CYYG 290700Z 01005KT 6SM BR OVC003 01/01 A2983 RMK SF8 SLP103=
CYYG;2007-04-29 08:00;METAR CYYG 290800Z 34004KT 10SM BKN005 OVC014 01/00 A2984 RMK SF7SC1 SLP106=
CYYG;2007-04-29 09:00;METAR CYYG NIL=
CYYG;2007-04-29 10:00;METAR CYYG 291000Z 04008KT 6SM BR OVC004 01/00 A2985 RMK SF8 SLP111=
CYYG;2007-04-29 11:00;METAR CYYG 291100Z 04008KT 12SM OVC004 02/01 A2985 RMK SF8 SLP110=
CYYG;2007-04-29 11:24;SPECI CYYG 291124Z 05011KT 15SM FEW004 OVC007 02/ RMK SF2SF6=
CYYG;2007-04-29 12:25;SPECI CYYG 291225Z 07007KT 15SM OVC010 03/ RMK SC8=
CYYG;2007-04-29 13:14;SPECI CYYG 291314Z 03008KT 15SM -DZ BKN007 OVC013 03/ RMK SF6SC2=
CYYG;2007-04-29 13:29;SPECI CYYG 291329Z 02009KT 15SM -DZ BKN005 OVC015 03/ RMK SF6SC2 VIS LWR NW-E=
CYYG;2007-04-29 14:00;METAR CYYG 291400Z 04011KT 15SM -DZ OVC005 04/02 A2988 RMK SF8 SLP120=
CYYG;2007-04-29 16:00;METAR CYYG 291600Z 04012G17KT 15SM OVC005 04/02 A2985 RMK SF8 SLP112=
CYYG;2007-04-29 17:00;METAR CYYG 291700Z 03011KT 15SM OVC008 04/02 A2986 RMK SC8 SLP113=
CYYG;2007-04-29 18:51;SPECI CYYG 291851Z 03011KT 15SM SCT007 BKN100 04/ RMK SF3AC3=
CYYG;2007-04-29 19:22;SPECI CYYG 291922Z 03010G15KT 15SM BKN007 BKN078 03/ RMK SF6AC2=
CYYG;2007-04-29 20:00;METAR CYYG 292000Z 03010KT 15SM BKN007 04/01 A2984 RMK SF7 SLP107=
CYYG;2007-04-29 20:26;SPECI CYYG 292026Z 03011KT 15SM SCT007 BKN100 03/ RMK SF4AC3=
CYYG;2007-04-29 21:00;METAR CYYG 292100Z 03010KT 15SM FEW006 SCT020 BKN100 03/01 A2983 RMK SF2SC2AC4 SLP103=
CYYG;2007-04-29 22:00;METAR CYYG NIL=
CYYG;2007-04-29 23:00;METAR CYYG 292300Z 03006KT 15SM BKN006 OVC080 02/00 A2985 RMK SF7AC1 SLP109=
CYYG;2007-04-30 01:20;SPECI CYYG 300120Z 02005KT 3SM BR OVC003 01/ RMK SF8=
CYYG;2007-04-30 01:41;SPECI CYYG 300141Z 01004KT 1 1/2SM BR OVC002 01/ RMK SF8=
CYYG;2007-04-30 02:00;METAR CYYG 300200Z 01005KT 1 1/2SM BR OVC002 01/00 A2985 RMK SF8 SLP112=
CYYG;2007-04-30 05:00;METAR CYYG 300500Z 00000KT 3SM BR OVC003 01/M00 A2983 RMK SF8 SLP104=
CYYG;2007-04-30 05:53;SPECI CYYG 300553Z 05002KT 2 1/2SM BR BKN002 OVC018 01/ RMK SF7SC1=
CYYG;2007-04-30 06:14;SPECI CYYG 300614Z 00000KT 8SM BKN003 BKN020 OVC077 01/ RMK SF5SC2AC2=
CYYG;2007-04-30 06:41;SPECI CYYG 300641Z 00000KT 8SM FEW003 BKN010 OVC020 01/ RMK SF2SC5SC2=
CYYG;2007-04-30 07:00;METAR CYYG NIL=
CYYG;2007-04-30 08:00;METAR CYYG 300800Z 00000KT 12SM OVC015 01/00 A2981 RMK SC8 SLP095=
CYYG;2007-04-30 09:00;METAR CYYG 300900Z 00000KT 12SM BKN022 OVC030 01/00 A2980 RMK SC7SC1 SLP094=
CYYG;2007-04-30 11:00;METAR CYYG 301100Z 09004KT 15SM FEW015 FEW030 BKN075 03/01 A2980 RMK SC1SC1AC7 SLP092=
CYYG;2007-04-30 12:00;METAR CYYG 301200Z 12008KT 15SM BKN011 OVC072 04/01 A2979 RMK SC6AC2 SLP089=
CYYG;2007-04-30 13:51;SPECI CYYG 301351Z 12005KT 15SM OVC015 05/ RMK SC8=
CYYG;2007-04-30 15:00;METAR CYYG 301500Z 15004KT 15SM OVC016 06/01 A2977 RMK SC8 SLP081=
CYYG;2007-04-30 16:00;METAR CYYG 301600Z 14006KT 15SM OVC017 06/02 A2975 RMK SC8 SLP076=
CYYG;2007-04-30 18:00;METAR CYYG 301800Z 17002KT 15SM OVC018 06/02 A2974 RMK SC8 SLP071=
CYYG;2007-04-30 20:00;METAR CYYG 302000Z 05003KT 15SM -SHRA BKN020 OVC055 06/03 A2970 RMK SC5SC3 SLP060=
CYYG;2007-04-30 21:00;METAR CYYG 302100Z 00000KT 15SM -RA BKN018 OVC035 05/02 A2970 RMK SC6SC2 SLP059=
CYYG;2007-05-01 00:00;METAR CYYG 010000Z 04003KT 15SM -RA FEW015 BKN030 OVC061 03/03 A2969 RMK SC2SC4SC2 SLP056=
CYYG;2007-05-01 02:00;METAR CYYG 010200Z 33002KT 6SM -RA BR FEW002 OVC031 03/02 A2969 RMK SF2SC6 SLP054=
CYYG;2007-05-01 03:00;METAR CYYG 010300Z 33002KT 8SM -RA FEW002 BKN031 OVC040 03/02 A2967 RMK SF2SC5SC2 SLP050=
CYYG;2007-05-01 04:00;METAR CYYG 010400Z 34002KT 12SM -RA FEW005 BKN010 OVC035 02/02 A2966 RMK SF2SC6SC1 SLP046=
CYYG;2007-05-01 05:39;SPECI CYYG 010539Z 04003KT 8SM -SN BKN008 OVC022 02/ RMK SF6SC2=
CYYG;2007-05-01 05:54;SPECI CYYG 010554Z 36003KT 5SM -SN OVC004 01/ RMK SF8=
CYYG;2007-05-01 06:00;METAR CYYG 010600Z 35002KT 5SM -SN OVC004 01/00 A2964 RMK SF8 SLP040=
CYYG;2007-05-01 06:44;SPECI CYYG 010644Z 36003KT 3SM -SN OVC008 00/ RMK SF8=
CYYG;2007-05-01 07:00;METAR CYYG 010700Z 35003KT 2SM R03/4500VP6000FT/U -SN OVC007 00/M01 A2963 RMK SF8 /S01/ SLP035=
CYYG;2007-05-01 08:00;METAR CYYG 010800Z 33004KT 2SM -SN FEW002 OVC008 00/M01 A2962 RMK SF2SF6 /S02/ SLP033=
CYYG;2007-05-01 09:00;METAR CYYG 010900Z 33005KT 2SM -SN BR OVC002 00/M01 A2962 RMK SF8 SLP033=
CYYG;2007-05-01 10:00;METAR CYYG 011000Z 33005KT 2SM -SN BR BKN002 BKN007 OVC028 00/M00 A2963 RMK SF6SF2SC1 SLP034=
CYYG;2007-05-01 11:00;METAR CYYG 011100Z 33005KT 1SM R03/P6000FT/N -SN BR OVC002 00/M00 A2964 RMK SF8 SLP038=
CYYG;2007-05-01 12:00;METAR CYYG 011200Z 33006KT 1 1/2SM -RA BR OVC003 01/00 A2965 RMK SF8 SLP042=
CYYG;2007-05-01 12:51;SPECI CYYG 011251Z 33007KT 4SM -RA BR OVC005 01/ RMK SF8=
CYYG;2007-05-01 13:00;METAR CYYG 011300Z 33006KT 4SM -RA BR OVC004 01/01 A2966 RMK SF8 SLP047=
CYYG;2007-05-01 15:00;METAR CYYG 011500Z 33013KT 5SM -RA BR OVC007 03/02 A2969 RMK SF8 SLP056=
CYYG;2007-05-01 16:00;METAR CYYG 011600Z 33014G19KT 5SM -RA BR OVC008 03/02 A2970 RMK SF8 SLP059=
CYYG;2007-05-01 17:00;METAR CYYG 011700Z 34015KT 2 1/2SM -RA BR OVC007 03/02 A2971 RMK SF8 SLP061=
CYYG;2007-05-01 18:00;METAR CYYG 011800Z 34013G24KT 2 1/2SM -RA BR OVC005 03/02 A2971 RMK SF8 SLP064=
CYYG;2007-05-01 19:00;METAR CYYG 011900Z 33012G19KT 10SM OVC011 04/02 A2971 RMK SC8 SLP064=
CYYG;2007-05-01 20:00;METAR CYYG 012000Z 34011KT 15SM OVC017 05/02 A2972 RMK SC8 SLP067=
CYYG;2007-05-01 21:00;METAR CYYG 012100Z 34010G17KT 15SM SCT014 OVC023 04/02 A2974 RMK SC4SC4 SLP071=
CYYG;2007-05-01 22:00;METAR CYYG 012200Z 32008KT 15SM SCT012 BKN022 04/01 A2974 RMK SC3SC4 SLP072=
CYYG;2007-05-01 23:00;METAR CYYG 012300Z 32004KT 15SM FEW012 OVC028 04/02 A2976 RMK SC2SC6 SLP078=
CYYG;2007-05-02 00:00;METAR CYYG 020000Z 29004KT 15SM OVC028 04/02 A2978 RMK SC8 SLP087=
CYYG;2007-05-02 01:00;METAR CYYG 020100Z 32002KT 15SM OVC028 04/02 A2979 RMK SC8 SLP089=
CYYG;2007-05-02 02:00;METAR CYYG NIL=
CYYG;2007-05-02 03:00;METAR CYYG 020300Z 00000KT 15SM OVC026 04/02 A2978 RMK SC8 SLP087=
CYYG;2007-05-02 04:00;METAR CYYG 020400Z 00000KT 15SM BKN026 OVC070 04/02 A2977 RMK SC6AC2 SLP082=
CYYG;2007-05-02 05:00;METAR CYYG 020500Z 25003KT 15SM SCT026 OVC070 04/03 A2974 RMK SC3AC5 SLP072=
CYYG;2007-05-02 06:00;METAR CYYG 020600Z 25006KT 15SM OVC070 05/03 A2974 RMK AC8 SLP074=
CYYG;2007-05-02 07:00;METAR CYYG 020700Z 27006KT 15SM SCT070 04/02 A2974 RMK AC4 SLP074=
CYYG;2007-05-02 09:00;METAR CYYG 020900Z 25005KT 15SM FEW200 03/01 A2976 RMK CI1 SLP078=
CYYG;2007-05-02 10:00;METAR CYYG 021000Z 24007KT 15SM FEW220 03/01 A2977 RMK CI1 SLP084=
CYYG;2007-05-02 11:00;METAR CYYG 021100Z 26008KT 15SM FEW220 05/02 A2978 RMK CI2 SLP085=
CYYG;2007-05-02 12:00;METAR CYYG 021200Z 28006KT 15SM SCT220 07/03 A2977 RMK CI2 SLP082=
CYYG;2007-05-02 13:00;METAR CYYG 021300Z 29009KT 15SM SCT066 BKN220 09/04 A2977 RMK SC2CI2 SLP084=
CYYG;2007-05-02 14:00;METAR CYYG 021400Z 27008KT 15SM SCT027 BKN060 BKN200 10/04 A2976 RMK SC2SC1CI2 SLP079=
CYYG;2007-05-02 15:00;METAR CYYG 021500Z 25009KT 15SM SCT026 BKN069 BKN220 10/03 A2976 RMK SC3AC2CI1 SLP078=
CYYG;2007-05-02 16:00;METAR CYYG 021600Z 26011KT 15SM FEW030 BKN069 OVC220 11/03 A2975 RMK SC2AC4CI2 SLP075=
CYYG;2007-05-02 18:00;METAR CYYG 021800Z 02013KT 15SM SCT040 BKN070 11/05 A2973 RMK SC3AC3 SLP069=
CYYG;2007-05-02 20:00;METAR CYYG 022000Z 00000KT 15SM BKN062 08/03 A2974 RMK SC7 SLP072=
CYYG;2007-05-02 21:00;METAR CYYG 022100Z 00000KT 15SM BKN067 09/03 A2974 RMK AC7 SLP071=
CYYG;2007-05-02 23:00;METAR CYYG 022300Z 14003KT 15SM FEW078 BKN300 08/03 A2974 RMK AC2CI0 SLP074=
CYYG;2007-05-03 00:00;METAR CYYG 030000Z 27003KT 15SM FEW053 SCT090 BKN300 07/02 A2975 RMK SC2AC2CI0 SLP075=
CYYG;2007-05-03 02:00;METAR CYYG 030200Z 00000KT 15SM BKN050 BKN067 OVC083 05/03 A2974 RMK SC5AC2AC2 SLP074=
CYYG;2007-05-03 03:00;METAR CYYG 030300Z 00000KT 15SM FEW057 OVC084 05/03 A2974 RMK SC2AC6 SLP072=
CYYG;2007-05-03 04:00;METAR CYYG NIL=
CYYG;2007-05-03 05:00;METAR CYYG 030500Z 26004KT 15SM OVC096 05/03 A2973 RMK AC8 SLP069=
CYYG;2007-05-03 06:00;METAR CYYG 030600Z 30006KT 15SM OVC096 06/03 A2972 RMK AC8 SLP067=
CYYG;2007-05-03 08:00;METAR CYYG 030800Z 29005KT 15SM OVC100 06/02 A2973 RMK AC8 SLP069=
CYYG;2007-05-03 09:00;METAR CYYG 030900Z 29007KT 15SM BKN053 BKN100 06/02 A2974 RMK SC6AC2 SLP073=
CYYG;2007-05-03 10:00;METAR CYYG 031000Z 30008KT 15SM FEW053 BKN100 06/01 A2976 RMK SC2AC5 SLP078=
CYYG;2007-05-03 11:00;METAR CYYG 031100Z 31014G19KT 15SM FEW053 BKN100 06/01 A2977 RMK SC2AC5 SLP084=
CYYG;2007-05-03 12:00;METAR CYYG 031200Z 31014G21KT 15SM FEW030 BKN053 OVC100 06/00 A2978 RMK SC2SC4AC2 VIRGA SLP087=
CYYG;2007-05-03 12:27;SPECI CYYG 031227Z 31017KT 15SM -SHRA FEW030 BKN050 BKN100 06/ RMK SC2SC5AC1=
CYYG;2007-05-03 12:43;SPECI CYYG 031243Z 31013KT 15SM VCSH FEW030 SCT050 BKN070 06/ RMK SC1SC2AC4=
CYYG;2007-05-03 13:00;METAR CYYG 031300Z 32013G20KT 15SM FEW030 FEW050 BKN110 06/01 A2978 RMK SC1SC2AC5 SLP087=
CYYG;2007-05-03 14:00;METAR CYYG 031400Z 33016G21KT 15SM BKN030 BKN110 06/M01 A2979 RMK SC5AC2 SLP090=
CYYG;2007-05-03 15:00;METAR CYYG 031500Z 32012G22KT 15SM BKN034 BKN110 07/M00 A2979 RMK SC7AC1 SLP090=
CYYG;2007-05-03 16:00;METAR CYYG 031600Z 34014G19KT 15SM BKN034 BKN110 BKN300 07/M01 A2979 RMK SC6AC1CI0 SLP089=
CYYG;2007-05-03 18:00;METAR CYYG 031800Z 34009KT 15SM BKN046 BKN110 07/M01 A2978 RMK SC6AC1 SLP087=
CYYG;2007-05-03 19:00;METAR CYYG 031900Z 34007KT 15SM BKN045 BKN110 06/M01 A2979 RMK SC7AC1 SLP089=
CYYG;2007-05-03 20:00;METAR CYYG 032000Z 34010KT 15SM BKN052 06/M02 A2979 RMK SC7 CU ASOCTD SLP090=
CYYG;2007-05-03 21:00;METAR CYYG 032100Z 29009G15KT 15SM BKN052 BKN083 07/M01 A2979 RMK SC6AC2 SLP088=
CYYG;2007-05-03 22:00;METAR CYYG NIL=
CYYG;2007-05-03 23:00;METAR CYYG 032300Z 31012KT 15SM VCSH OVC040 06/M01 A2980 RMK SC8 CU ASOCTD SLP093=
CYYG;2007-05-04 00:00;METAR CYYG 040000Z 30009KT 15SM OVC042 06/M01 A2980 RMK SC8 SLP093=
CYYG;2007-05-04 03:00;METAR CYYG 040300Z 29012KT 15SM SCT042 OVC077 05/M00 A2977 RMK SC4AC4 SLP084=
CYYG;2007-05-04 04:00;METAR CYYG 040400Z 29011G17KT 15SM FEW045 OVC075 05/00 A2976 RMK SC2AC6 SLP080=
CYYG;2007-05-04 05:00;METAR CYYG 040500Z 29011KT 15SM SCT030 OVC075 05/00 A2976 RMK SC4AC4 SLP078=
CYYG;2007-05-04 06:00;METAR CYYG 040600Z 29010KT 15SM SCT030 OVC060 04/01 A2975 RMK SC4SC4 SLP075=
CYYG;2007-05-04 07:00;METAR CYYG 040700Z 31011G16KT 15SM OVC024 04/01 A2974 RMK SC8 SLP073=
CYYG;2007-05-04 08:00;METAR CYYG 040800Z 31017KT 15SM OVC018 04/01 A2974 RMK SC8 SLP074=
CYYG;2007-05-04 08:42;SPECI CYYG 040842Z 31011G17KT 15SM -SHRA OVC014 03/ RMK SC8=
CYYG;2007-05-04 09:00;METAR CYYG 040900Z 32013G20KT 15SM -SHRA OVC012 03/01 A2976 RMK SC8 SLP078=
CYYG;2007-05-04 09:52;SPECI CYYG 040952Z 31012KT 15SM -SHRA OVC009 03/ RMK SF8=
CYYG;2007-05-04 10:00;METAR CYYG 041000Z 31012KT 15SM -SHRA OVC009 03/01 A2977 RMK SF8 SLP081=
CYYG;2007-05-04 11:00;METAR CYYG 041100Z 31011G17KT 10SM -SHRA OVC012 04/02 A2978 RMK SC8 OBS TAKEN 1110 SLP087=
CYYG;2007-05-04 12:00;METAR CYYG 041200Z 32012G19KT 15SM -SHRA BKN012 BKN040 04/02 A2979 RMK SC6SC2 SLP089=
CYYG;2007-05-04 13:00;METAR CYYG 041300Z 31011G24KT 15SM -SHRA OVC014 05/02 A2980 RMK SC8 SLP092=
CYYG;2007-05-04 13:26;SPECI CYYG 041326Z 33014G22KT 15SM VCSH BKN017 OVC030 05/ RMK SC5SC3 CU ASOCTD=
CYYG;2007-05-04 14:00;METAR CYYG 041400Z 33015G24KT 15SM FEW020 OVC038 05/01 A2982 RMK CU2SC6 SLP098=
CYYG;2007-05-04 15:00;METAR CYYG 041500Z 34010G20KT 15SM VCSH BKN018 OVC040 05/01 A2984 RMK SC6SC2 CU ASOCTD SLP105=
CYYG;2007-05-04 16:00;METAR CYYG 041600Z 34010G22KT 15SM VCSH BKN021 OVC040 04/01 A2986 RMK SC6SC2 SLP112=
CYYG;2007-05-04 17:00;METAR CYYG 041700Z 34015G24KT 15SM OVC020 05/00 A2986 RMK SC8 SLP112=
CYYG;2007-05-04 17:40;SPECI CYYG 041740Z 33019G26KT 15SM -SHRA BKN020 BKN045 05/ RMK CU5SC2=
CYYG;2007-05-04 18:00;METAR CYYG 041800Z 34015G24KT 15SM -SHRA BKN020 BKN045 BKN080 06/M00 A2987 RMK CU5SC2AC1 SLP117=
CYYG;2007-05-04 19:00;METAR CYYG 041900Z 34016G22KT 15SM FEW020 OVC034 05/M01 A2989 RMK CU2SC6 SLP122=
CYYG;2007-05-04 20:00;METAR CYYG 042000Z 34016G21KT 15SM OVC036 05/M02 A2989 RMK SC8 SLP124=
CYYG;2007-05-04 21:00;METAR CYYG 042100Z 33013G18KT 15SM OVC037 06/M01 A2990 RMK SC8 SLP127=
CYYG;2007-05-04 22:00;METAR CYYG 042200Z 34013G18KT 15SM BKN045 OVC060 05/M01 A2992 RMK SC6SC2 SLP133=
CYYG;2007-05-04 23:00;METAR CYYG 042300Z 33009KT 15SM -SHRA OVC022 04/01 A2993 RMK SC8 SLP138=
CYYG;2007-05-05 01:00;METAR CYYG 050100Z 33007KT 15SM OVC030 04/01 A2996 RMK SC8 SLP147=
CYYG;2007-05-05 02:00;METAR CYYG 050200Z 32003KT 15SM OVC035 04/01 A2996 RMK SC8 SLP147=
CYYG;2007-05-05 03:00;METAR CYYG 050300Z 27005KT 15SM OVC042 04/01 A2996 RMK SC8 SLP146=
CYYG;2007-05-05 04:00;METAR CYYG NIL=
CYYG;2007-05-05 05:00;METAR CYYG 050500Z 30005KT 15SM OVC060 04/01 A2995 RMK SC8 SLP144=
CYYG;2007-05-05 06:00;METAR CYYG 050600Z 36005KT 15SM OVC055 04/00 A2996 RMK SC8 SLP145=
CYYG;2007-05-05 07:00;METAR CYYG 050700Z 35004KT 15SM OVC055 03/00 A2996 RMK SC8 SLP147=
CYYG;2007-05-05 08:00;METAR CYYG 050800Z 36004KT 15SM OVC060 03/00 A2997 RMK SC8 SLP150=
CYYG;2007-05-05 10:00;METAR CYYG 051000Z 04006KT 15SM BKN067 03/01 A2999 RMK AC7 SLP158=
CYYG;2007-05-05 11:00;METAR CYYG 051100Z 03008KT 15SM BKN067 BKN100 04/00 A3001 RMK AC5AC1 SLP166=
CYYG;2007-05-05 13:00;METAR CYYG 051300Z 02009KT 15SM FEW049 SCT067 OVC100 06/M00 A3003 RMK SC2AC2AC2 SLP171=
CYYG;2007-05-05 14:00;METAR CYYG 051400Z 36010KT 15SM BKN037 OVC100 05/M01 A3004 RMK SC5AC2 SLP176=
CYYG;2007-05-05 15:00;METAR CYYG 051500Z 35008KT 15SM FEW030 BKN070 BKN100 06/M01 A3004 RMK SC2AC2AC1 SLP176=
CYYG;2007-05-05 16:00;METAR CYYG 051600Z 03014KT 15SM FEW030 SCT050 OVC070 06/M02 A3005 RMK SC2SC2AC2 SLP179=
CYYG;2007-05-05 17:00;METAR CYYG 051700Z 01012KT 15SM FEW020 OVC070 05/M01 A3006 RMK SC2AS6 SLP180=
CYYG;2007-05-05 18:00;METAR CYYG 051800Z 01011KT 15SM FEW020 OVC070 04/M01 A3007 RMK SC2AS6 SLP186=
CYYG;2007-05-05 19:00;METAR CYYG 051900Z 36012G17KT 15SM BKN020 OVC040 04/M01 A3009 RMK SC5SC3 SLP190=
CYYG;2007-05-05 20:00;METAR CYYG 052000Z 35011G17KT 15SM BKN023 OVC040 04/M01 A3009 RMK SC6SC2 SLP193=
CYYG;2007-05-05 22:00;METAR CYYG 052200Z 01009G15KT 3SM -SN OVC009 01/M00 A3013 RMK SF8 SLP204=
CYYG;2007-05-05 23:00;METAR CYYG 052300Z 36007KT 8SM -SN OVC009 01/M00 A3014 RMK SF8 SLP209=
CYYG;2007-05-06 00:00;METAR CYYG 060000Z 36007KT 15SM -SHSN OVC009 01/M00 A3016 RMK SF8 SLP215=
CYYG;2007-05-06 01:40;SPECI CYYG 060140Z 35008KT 12SM -SHSN OVC005 01/ RMK SF8=
CYYG;2007-05-06 02:00;METAR CYYG 060200Z 34007KT 10SM -SHSN OVC005 01/M00 A3018 RMK SF8 SLP223=
CYYG;2007-05-06 03:00;METAR CYYG 060300Z 36009KT 10SM -SHRASN BKN006 OVC014 02/01 A3018 RMK SF6SC2 SLP221=
CYYG;2007-05-06 04:00;METAR CYYG 060400Z 36011G16KT 15SM -SHRA OVC009 02/00 A3018 RMK SF8 SLP223=
CYYG;2007-05-06 05:00;METAR CYYG NIL=
CYYG;2007-05-06 06:00;METAR CYYG 060600Z 01007KT 15SM -SHRA SCT008 OVC045 02/00 A3020 RMK SF3SC5 SLP228=
CYYG;2007-05-06 07:00;METAR CYYG 060700Z 36008G15KT 15SM FEW008 SCT045 OVC092 02/00 A3020 RMK SF1SC3AC4 SLP230=
CYYG;2007-05-06 08:00;METAR CYYG 060800Z 36007KT 15SM FEW008 FEW045 OVC087 02/00 A3022 RMK SF1SC2AC6 SLP234=
CYYG;2007-05-06 09:00;METAR CYYG 060900Z 01010G15KT 15SM SCT005 OVC087 02/00 A3023 RMK SF4AC4 SLP239=
CYYG;2007-05-06 09:27;SPECI CYYG 060927Z 02011KT 15SM BKN008 OVC087 02/00 RMK SF6AC2=
CYYG;2007-05-06 10:00;METAR CYYG 061000Z 01011KT 15SM OVC008 02/00 A3025 RMK SF8 SLP247=
CYYG;2007-05-06 11:00;METAR CYYG 061100Z 01011KT 15SM OVC009 02/M00 A3028 RMK SF8 SLP257=
CYYG;2007-05-06 12:00;METAR CYYG 061200Z 01013KT 15SM BKN011 OVC030 02/M00 A3031 RMK SC6SC2 SLP264=
CYYG;2007-05-06 14:00;METAR CYYG 061400Z 01012G17KT 15SM BKN026 BKN032 04/M00 A3035 RMK SC6SC2 SLP278=
CYYG;2007-05-06 15:00;METAR CYYG 061500Z 36011G18KT 15SM BKN023 04/M01 A3035 RMK SC7 SLP280=
CYYG;2007-05-06 16:00;METAR CYYG 061600Z 36013G18KT 15SM FEW024 BKN045 BKN240 06/M01 A3035 RMK SC2SC2CI0 SLP280=
CYYG;2007-05-06 17:00;METAR CYYG 061700Z 34013KT 15SM FEW040 SCT240 06/M02 A3036 RMK SC2CI0 SLP281=
CYYG;2007-05-06 18:00;METAR CYYG 061800Z 32012G19KT 15SM FEW040 06/M01 A3035 RMK SC2 SLP280=
CYYG;2007-05-06 19:00;METAR CYYG 061900Z 32011G16KT 15SM FEW040 FEW240 06/M02 A3034 RMK SC1CI1 SLP277=
CYYG;2007-05-06 20:00;METAR CYYG 062000Z 32009KT 15SM FEW040 FEW240 06/M03 A3033 RMK SC1CI0 SLP272=
CYYG;2007-05-06 22:00;METAR CYYG 062200Z 36003KT 15SM FEW030 BKN280 06/M04 A3031 RMK SC1CI2 SLP265=
CYYG;2007-05-06 23:00;METAR CYYG 062300Z 05003KT 15SM BKN280 04/M03 A3032 RMK CI2 CONTRAILS SLP268=
CYYG;2007-05-07 00:00;METAR CYYG 070000Z 11003KT 15SM BKN280 02/M03 A3032 RMK CS3 SLP269=
CYYG;2007-05-07 01:00;METAR CYYG 070100Z 17004KT 15SM BKN280 02/M03 A3032 RMK CS2 SLP270=
CYYG;2007-05-07 02:00;METAR CYYG 070200Z 23005KT 15SM SCT280 03/M02 A3032 RMK CI1 SLP269=
CYYG;2007-05-07 03:00;METAR CYYG 070300Z 23007KT 15SM FEW280 03/M00 A3031 RMK CI0 SLP266=
CYYG;2007-05-07 04:00;METAR CYYG 070400Z 25009KT 15SM SKC 04/00 A3030 RMK SLP261=
CYYG;2007-05-07 05:00;METAR CYYG 070500Z 24010KT 15SM FEW280 03/00 A3027 RMK CI1 SLP252=
CYYG;2007-05-07 06:00;METAR CYYG NIL=
CYYG;2007-05-07 07:00;METAR CYYG 070700Z 24009KT 15SM SCT280 03/M00 A3025 RMK CI1 SLP245=
CYYG;2007-05-07 08:00;METAR CYYG 070800Z 25008KT 15SM BKN280 03/M00 A3025 RMK CS5 SLP244=
CYYG;2007-05-07 09:00;METAR CYYG 070900Z 26008KT 15SM FEW070 BKN280 04/M01 A3024 RMK AC1CS6 SLP241=
CYYG;2007-05-07 10:00;METAR CYYG 071000Z 27008KT 15SM FEW070 BKN280 05/M01 A3024 RMK AC1CS6 SLP241=
CYYG;2007-05-07 11:00;METAR CYYG 071100Z 27008KT 15SM FEW070 BKN280 06/M00 A3025 RMK AC1CS5 SLP245=
CYYG;2007-05-07 12:00;METAR CYYG 071200Z 27008KT 15SM FEW070 BKN280 09/M00 A3025 RMK AC1CS3 SLP245=
CYYG;2007-05-07 13:00;METAR CYYG 071300Z 26010KT 15SM FEW070 BKN280 11/00 A3023 RMK AC1CS3 SLP238=
CYYG;2007-05-07 14:00;METAR CYYG 071400Z 26009KT 15SM FEW100 BKN280 14/01 A3022 RMK AC1CS2 SLP234=
CYYG;2007-05-07 15:00;METAR CYYG NIL=
CYYG;2007-05-07 16:00;METAR CYYG 071600Z 25011G17KT 15SM FEW100 BKN280 16/M03 A3016 RMK AC2CS3 SLP213=
CYYG;2007-05-07 17:00;METAR CYYG 071700Z 25014G19KT 15SM FEW100 BKN280 17/M01 A3015 RMK AC2CS3 SLP210=
CYYG;2007-05-07 18:00;METAR CYYG 071800Z 25015G24KT 15SM SCT100 BKN280 18/M00 A3012 RMK AC3CS2 SLP200=
CYYG;2007-05-07 21:00;METAR CYYG 072100Z 25014KT 15SM FEW120 BKN280 17/M01 A3007 RMK AC1CI2 SLP184=
CYYG;2007-05-07 22:00;METAR CYYG 072200Z 24013G20KT 15SM FEW120 BKN280 15/M01 A3004 RMK AC1CI1 SLP175=
CYYG;2007-05-07 23:00;METAR CYYG 072300Z 24014G22KT 15SM FEW120 OVC280 14/M03 A3005 RMK AC1CI1 SLP176=
CYYG;2007-05-08 00:00;METAR CYYG 080000Z 23015G21KT 15SM BKN130 BKN280 13/M03 A3003 RMK AC5CI1 SLP170=
CYYG;2007-05-08 01:00;METAR CYYG 080100Z 24016G21KT 15SM SCT130 BKN280 12/M03 A3005 RMK AC4CI1 SLP177=
CYYG;2007-05-08 02:00;METAR CYYG 080200Z 24012G18KT 15SM FEW120 BKN280 11/M02 A3004 RMK AC2CI2 SLP175=
CYYG;2007-05-08 03:00;METAR CYYG 080300Z 23011G16KT 15SM BKN280 10/M02 A3002 RMK CI3 SLP168=
CYYG;2007-05-08 05:00;METAR CYYG 080500Z 23008KT 15SM FEW120 BKN280 09/M01 A2998 RMK AC2CI2 SLP155=
CYYG;2007-05-08 06:00;METAR CYYG 080600Z 23007KT 15SM FEW160 BKN280 09/M01 A2997 RMK AC2CI0 SLP150=
CYYG;2007-05-08 07:00;METAR CYYG 080700Z 25012KT 15SM SCT120 BKN230 09/M01 A2996 RMK AC3CI0 SLP144=
CYYG;2007-05-08 09:00;METAR CYYG 080900Z 25010G15KT 15SM FEW110 SCT160 BKN280 08/01 A2996 RMK AC1AC2CI1 SLP144=
CYYG;2007-05-08 10:00;METAR CYYG 081000Z 25014KT 15SM FEW080 BKN120 BKN280 08/01 A2996 RMK AC2AC3CI1 SLP144=
CYYG;2007-05-08 11:00;METAR CYYG 081100Z 24013G18KT 15SM SCT120 BKN280 10/01 A2996 RMK AC3CI2 SLP144=
CYYG;2007-05-08 12:00;METAR CYYG 081200Z 25012G19KT 15SM BKN170 BKN280 12/02 A2995 RMK AC5CI2 SLP143=
CYYG;2007-05-08 13:00;METAR CYYG 081300Z 25016G22KT 15SM BKN160 BKN280 13/02 A2994 RMK AC6CI1 SLP141=
CYYG;2007-05-08 15:00;METAR CYYG 081500Z 25012KT 15SM BKN140 BKN280 14/03 A2994 RMK AC6CI1 SLP139=
CYYG;2007-05-08 16:00;METAR CYYG 081600Z 25011G16KT 15SM BKN130 BKN280 15/03 A2992 RMK AC6CI1 SLP133=
CYYG;2007-05-08 17:00;METAR CYYG NIL=
CYYG;2007-05-08 19:00;METAR CYYG 081900Z 24013G20KT 15SM FEW160 BKN250 20/04 A2985 RMK AC2CI3 SLP110=
CYYG;2007-05-08 20:00;METAR CYYG 082000Z 24015G20KT 15SM FEW160 BKN250 20/01 A2983 RMK AC2CI2 SLP102=
CYYG;2007-05-08 21:00;METAR CYYG 082100Z 24018G27KT 15SM FEW160 BKN250 19/M00 A2982 RMK AC2CI2 SLP097=
CYYG;2007-05-08 23:00;METAR CYYG 082300Z 24015G20KT 15SM FEW160 BKN250 16/M00 A2981 RMK AC2CI2 SLP096=
CYYG;2007-05-09 00:00;METAR CYYG 090000Z 24012G18KT 15SM FEW120 BKN240 BKN330 14/00 A2982 RMK AC2CC5CI0 SLP098=
CYYG;2007-05-09 01:00;METAR CYYG 090100Z 24014G20KT 15SM BKN070 BKN240 13/02 A2983 RMK AC5CC2 SLP103=
CYYG;2007-05-09 02:00;METAR CYYG 090200Z 26016G21KT 15SM OVC085 12/02 A2985 RMK AC8 SLP108=
CYYG;2007-05-09 03:00;METAR CYYG 090300Z 25014KT 15SM OVC090 11/03 A2987 RMK AC8 SLP114=
CYYG;2007-05-09 04:00;METAR CYYG 090400Z 25013G19KT 15SM OVC085 11/03 A2986 RMK AC8 SLP112=
CYYG;2007-05-09 06:00;METAR CYYG 090600Z 25012KT 15SM FEW120 09/03 A2987 RMK AC1 SLP116=
CYYG;2007-05-09 07:00;METAR CYYG 090700Z 27009KT 15SM FEW120 09/03 A2989 RMK AC1 SLP123=
CYYG;2007-05-09 08:00;METAR CYYG 090800Z 27006KT 15SM FEW120 FEW300 11/03 A2991 RMK AC1CI0 SLP129=
CYYG;2007-05-09 09:00;METAR CYYG 090900Z 25008KT 15SM FEW110 FEW300 09/03 A2991 RMK AC1CI0 SLP130=
CYYG;2007-05-09 10:00;METAR CYYG 091000Z 25008KT 15SM FEW110 FEW300 09/03 A2994 RMK AC2CI0 SLP139=
CYYG;2007-05-09 11:00;METAR CYYG 091100Z 25009KT 15SM FEW110 FEW300 11/05 A2996 RMK AC1CI0 SLP147=
CYYG;2007-05-09 12:00;METAR CYYG 091200Z 27006KT 15SM FEW300 15/07 A2998 RMK CI1 SLP151=
CYYG;2007-05-09 13:00;METAR CYYG 091300Z 31012KT 15SM FEW300 18/06 A2999 RMK CI1 SLP157=
CYYG;2007-05-09 14:00;METAR CYYG 091400Z 28007KT 15SM FEW300 20/06 A3000 RMK CI1 SLP160=
CYYG;2007-05-09 16:00;METAR CYYG NIL=
CYYG;2007-05-09 17:00;METAR CYYG 091700Z 26008KT 15SM BKN300 22/04 A3000 RMK CI2 SLP158=
CYYG;2007-05-09 18:00;METAR CYYG 091800Z 35004KT 15SM BKN300 22/04 A2999 RMK CI2 SLP155=
CYYG;2007-05-09 19:00;METAR CYYG 091900Z 00000KT 15SM BKN300 23/03 A2997 RMK CI2 SLP149=
CYYG;2007-05-09 20:00;METAR CYYG 092000Z 09006KT 15SM BKN300 23/04 A2996 RMK CI2 SLP144=
CYYG;2007-05-09 21:00;METAR CYYG 092100Z 12004KT 15SM SCT300 23/05 A2995 RMK CI2 SLP143=
CYYG;2007-05-09 22:00;METAR CYYG 092200Z 16008KT 15SM SCT300 19/03 A2995 RMK CI2 SLP142=
CYYG;2007-05-09 23:00;METAR CYYG 092300Z 17005KT 15SM FEW240 BKN300 18/03 A2996 RMK CC2CI0 CONTRAILS SLP145=
CYYG;2007-05-10 00:00;METAR CYYG 100000Z 18005KT 15SM FEW230 SCT300 14/03 A2996 RMK CC1CI0 CONTRAILS SLP147=
CYYG;2007-05-10 01:00;METAR CYYG 100100Z 17004KT 15SM SCT300 15/02 A2998 RMK CI0 SLP152=
CYYG;2007-05-10 02:00;METAR CYYG 100200Z 12004KT 15SM SCT300 13/03 A2997 RMK CI0 SLP148=
CYYG;2007-05-10 03:00;METAR CYYG 100300Z 15003KT 15SM FEW300 13/03 A2996 RMK CI0 SLP145=
CYYG;2007-05-10 04:00;METAR CYYG 100400Z 22006KT 15SM FEW300 12/03 A2994 RMK CI0 SLP139=
CYYG;2007-05-10 05:00;METAR CYYG 100500Z 23008KT 15SM FEW220 12/03 A2993 RMK CI1 SLP136=
CYYG;2007-05-10 06:00;METAR CYYG 100600Z 23007KT 15SM BKN200 12/04 A2992 RMK CI2 SLP132=
CYYG;2007-05-10 07:00;METAR CYYG 100700Z 24008KT 15SM SCT200 12/04 A2991 RMK CI1 SLP129=
CYYG;2007-05-10 08:00;METAR CYYG 100800Z 24008KT 15SM BKN280 12/03 A2990 RMK CI2 SLP125=
CYYG;2007-05-10 09:00;METAR CYYG 100900Z 23008KT 15SM BKN280 12/03 A2990 RMK CI2 SLP125=
CYYG;2007-05-10 10:00;METAR CYYG 101000Z 23007KT 15SM BKN280 12/05 A2990 RMK CI2 SLP126=
CYYG;2007-05-10 11:00;METAR CYYG 101100Z 34011G16KT 15SM BKN280 15/06 A2997 RMK CI1 PRESRR SLP148=
CYYG;2007-05-10 12:00;METAR CYYG 101200Z 04017KT 15SM SCT280 11/03 A2999 RMK CI1 SLP156=
CYYG;2007-05-10 13:00;METAR CYYG 101300Z 05012G18KT 15SM BKN280 13/04 A2999 RMK CI1 SLP157=
CYYG;2007-05-10 14:00;METAR CYYG 101400Z 08011G18KT 15SM FEW280 16/04 A3001 RMK CI1 SLP162=
CYYG;2007-05-10 15:00;METAR CYYG 101500Z 04011G16KT 15SM FEW300 18/05 A3003 RMK CI0 SLP170=
CYYG;2007-05-10 16:00;METAR CYYG 101600Z 04011G17KT 15SM FEW300 17/05 A3004 RMK CI0 SLP173=
CYYG;2007-05-10 17:00;METAR CYYG 101700Z 36010G16KT 15SM FEW300 16/05 A3004 RMK CI0 SLP174=
CYYG;2007-05-10 18:00;METAR CYYG 101800Z 02009KT 15SM FEW300 15/05 A3004 RMK CI0 SLP174=
CYYG;2007-05-10 19:00;METAR CYYG 101900Z 04008KT 15SM FEW300 15/06 A3004 RMK CI0 SLP174=
CYYG;2007-05-10 20:00;METAR CYYG 102000Z 03010KT 15SM FEW300 14/06 A3006 RMK CI0 SLP181=
CYYG;2007-05-10 21:00;METAR CYYG 102100Z 04008KT 15SM SCT300 12/05 A3006 RMK CI0 SLP182=
CYYG;2007-05-10 22:00;METAR CYYG 102200Z 03006KT 15SM FEW300 12/06 A3006 RMK CI0 SLP182=
CYYG;2007-05-10 23:00;METAR CYYG 102300Z 06004KT 15SM BKN350 11/06 A3006 RMK CI1 SLP181=
CYYG;2007-05-11 00:00;METAR CYYG 110000Z 06002KT 15SM BKN350 09/05 A3006 RMK CI1 SLP181=
CYYG;2007-05-11 01:00;METAR CYYG 110100Z 12006KT 15SM BKN350 09/06 A3007 RMK CI1 SLP183=
CYYG;2007-05-11 02:00;METAR CYYG 110200Z 13005KT 15SM SCT350 08/05 A3006 RMK CI1 SLP180=
CYYG;2007-05-11 03:00;METAR CYYG 110300Z 14007KT 15SM SCT350 08/05 A3004 RMK CI0 SLP174=
CYYG;2007-05-11 04:00;METAR CYYG 110400Z 13008KT 15SM FEW350 08/04 A3003 RMK CI0 SLP169=
CYYG;2007-05-11 05:00;METAR CYYG 110500Z 16008KT 15SM FEW350 08/04 A3001 RMK CI0 SLP165=
CYYG;2007-05-11 06:00;METAR CYYG 110600Z 15009KT 15SM BKN350 10/04 A2999 RMK CI2 SLP157=
CYYG;2007-05-11 07:00;METAR CYYG 110700Z 15011KT 15SM SCT300 10/03 A2998 RMK CI1 SLP154=
CYYG;2007-05-11 08:00;METAR CYYG 110800Z 16008KT 15SM FEW190 BKN300 09/03 A2997 RMK CC1CI1 SLP149=
CYYG;2007-05-11 09:00;METAR CYYG 110900Z 17012KT 15SM FEW170 BKN300 10/04 A2996 RMK AC1CI1 SLP145=
CYYG;2007-05-11 10:00;METAR CYYG 111000Z 17014KT 15SM FEW020 FEW170 SCT300 10/06 A2995 RMK SC1AC1CI0 SLP144=
CYYG;2007-05-11 10:26;SPECI CYYG 111026Z 19011KT 15SM BKN013 BKN300 11/06 RMK SC5CI0=
CYYG;2007-05-11 11:00;METAR CYYG 111100Z 17010KT 15SM BKN011 11/06 A2996 RMK SC7 SLP146=
CYYG;2007-05-11 12:00;METAR CYYG 111200Z 18013KT 15SM BKN011 12/08 A2995 RMK SC7 SLP144=
CYYG;2007-05-11 12:43;SPECI CYYG 111243Z 20014KT 15SM OVC009 13/ RMK SF8=
CYYG;2007-05-11 13:00;METAR CYYG 111300Z 19012KT 15SM OVC010 13/09 A2994 RMK SC8 SLP139=
CYYG;2007-05-11 14:00;METAR CYYG 111400Z 18011KT 15SM BKN010 BKN300 15/11 A2990 RMK SC5CI1 SLP128=
CYYG;2007-05-11 15:00;METAR CYYG 111500Z 20012KT 15SM FEW010 BKN300 18/13 A2989 RMK CF1CI4 SLP121=
CYYG;2007-05-11 16:00;METAR CYYG 111600Z 19015KT 15SM BKN024 BKN300 18/12 A2987 RMK SC5CI2 SLP115=
CYYG;2007-05-11 17:00;METAR CYYG 111700Z 20018G24KT 15SM FEW024 SCT050 BKN300 20/13 A2984 RMK SC2SC2CI2 SLP106=
CYYG;2007-05-11 18:00;METAR CYYG 111800Z 20017G22KT 15SM BKN038 BKN300 21/14 A2982 RMK SC6CI1 SLP100=
CYYG;2007-05-11 19:00;METAR CYYG 111900Z 21015KT 15SM BKN051 BKN300 22/15 A2980 RMK SC6CI1 SLP091=
CYYG;2007-05-11 20:00;METAR CYYG 112000Z 25015KT 15SM BKN050 BKN300 22/15 A2978 RMK SC6CI1 SLP086=
CYYG;2007-05-11 21:00;METAR CYYG 112100Z 25017KT 15SM SCT056 BKN300 21/14 A2977 RMK SC3CI1 SLP083=
CYYG;2007-05-11 22:00;METAR CYYG 112200Z 25013G19KT 15SM SCT050 BKN077 BKN300 18/14 A2977 RMK SC3AC2CI1 SLP083=
CYYG;2007-05-11 22:22;SPECI CYYG 112222Z 25010G17KT 15SM -SHRA BKN047 OVC077 17/ RMK SC6AC2=
CYYG;2007-05-11 23:00;METAR CYYG 112300Z 25011G20KT 15SM -SHRA SCT023 BKN040 BKN060 17/14 A2977 RMK SC3SC3SC1 VIS W 3 SLP083=
CYYG;2007-05-12 00:00;METAR CYYG 120000Z 21015G21KT 12SM -SHRA SCT023 BKN040 OVC060 16/14 A2977 RMK SC3SC3SC2 SLP083=
CYYG;2007-05-12 01:00;METAR CYYG 120100Z CCA 20010KT 15SM -SHRA FEW018 SCT070 OVC090 16/14 A2977 RMK SC2AC2AC4 SLP082=
CYYG;2007-05-12 02:00;METAR CYYG 120200Z 20014KT 12SM -SHRA SCT016 BKN048 OVC070 16/14 A2976 RMK SC3SC2AC2 SLP077=
CYYG;2007-05-12 03:00;METAR CYYG 120300Z 20010KT 12SM FEW011 OVC017 15/13 A2974 RMK SC2SC6 OCNL -SHRA SLP073=
CYYG;2007-05-12 04:00;METAR CYYG 120400Z 21011G17KT 8SM -SHRA SCT005 OVC018 15/13 A2973 RMK SF3SC5 SLP068=
CYYG;2007-05-12 04:17;SPECI CYYG 120417Z 29011G22KT 3SM +SHRA OVC003 15/ RMK SF8=
CYYG;2007-05-12 04:40;SPECI CYYG 120440Z 36015G20KT 5SM R03/4500VP6000FT/U -SHRA BKN004 OVC011 08/ RERA RMK SF6SC2=
CYYG;2007-05-12 05:00;METAR CYYG 120500Z 36014G19KT 12SM -SHRA FEW005 BKN016 OVC044 07/06 A2979 RERA RMK SF2SC4SC2 PRESRR SLP089=
CYYG;2007-05-12 05:52;SPECI CYYG 120552Z 36012KT 12SM FEW016 BKN025 OVC035 07/ RMK SC2SC4SC2=
CYYG;2007-05-12 06:00;METAR CYYG 120600Z CCA 36012KT 15SM BKN026 OVC035 07/05 A2981 RMK SC6SC2 /R11/ SLP095=
CYYG;2007-05-12 07:00;METAR CYYG 120700Z 36012G18KT 15SM BKN028 OVC041 07/04 A2982 RMK SC6SC2 SLP099=
CYYG;2007-05-12 08:00;METAR CYYG 120800Z 35009G19KT 15SM BKN035 OVC047 06/04 A2985 RMK SC5SC3 SLP109=
CYYG;2007-05-12 08:20;SPECI CYYG 120820Z 35009KT 15SM -SHRA BKN035 OVC078 06/ RMK SC6AC2=
CYYG;2007-05-12 09:00;METAR CYYG 120900Z 35011G20KT 15SM VCSH BKN040 BKN080 06/02 A2988 RMK SC6AC1 SLP118=
CYYG;2007-05-12 10:00;METAR CYYG 121000Z 35011G18KT 15SM BKN043 BKN050 05/01 A2990 RMK SC5SC2 SLP127=
CYYG;2007-05-12 11:00;METAR CYYG 121100Z 36012G24KT 15SM SCT047 BKN077 05/01 A2993 RMK SC2AC3 SLP137=
CYYG;2007-05-12 12:00;METAR CYYG 121200Z 36013G20KT 15SM FEW036 SCT077 BKN250 07/01 A2996 RMK SC2AC2CI1 SLP145=
CYYG;2007-05-12 13:00;METAR CYYG 121300Z 01016G25KT 15SM FEW020 FEW080 SCT250 07/01 A2997 RMK CF1AC1CI1 SLP150=
CYYG;2007-05-12 14:00;METAR CYYG 121400Z 01015G22KT 15SM FEW020 FEW080 08/M00 A2999 RMK CF1AC1 SLP156=
CYYG;2007-05-12 15:00;METAR CYYG 121500Z 36012G20KT 15SM FEW028 FEW080 07/M00 A3000 RMK CF1AC1 SLP160=
CYYG;2007-05-12 16:00;METAR CYYG 121600Z 01014G21KT 15SM FEW032 FEW080 08/M01 A3000 RMK SC2AC1 SLP161=
CYYG;2007-05-12 17:00;METAR CYYG 121700Z 01014G20KT 15SM FEW035 SCT080 07/M02 A3001 RMK SC2AC1 SLP165=
CYYG;2007-05-12 18:00;METAR CYYG 121800Z 01016G24KT 15SM FEW038 07/M04 A3002 RMK SC2 SLP167=
CYYG;2007-05-12 19:00;METAR CYYG 121900Z 01015G20KT 15SM FEW040 07/M04 A3003 RMK SC1 SLP169=
CYYG;2007-05-12 20:00;METAR CYYG 122000Z 35012KT 15SM FEW080 06/M04 A3004 RMK AC1 SLP173=
CYYG;2007-05-12 21:00;METAR CYYG 122100Z 03014KT 15SM SKC 06/M04 A3002 RMK SLP166=
CYYG;2007-05-12 22:00;METAR CYYG 122200Z 36010KT 15SM SKC 05/M05 A3002 RMK SLP168=
CYYG;2007-05-12 23:00;METAR CYYG 122300Z 01005KT 15SM SCT250 04/M05 A3004 RMK CI1 SLP175=
CYYG;2007-05-13 00:00;METAR CYYG 130000Z 36003KT 15SM SCT250 02/M04 A3006 RMK CI2 SLP180=
CYYG;2007-05-13 01:00;METAR CYYG 130100Z 01005KT 15SM SCT250 01/M04 A3005 RMK CI2 SLP179=
CYYG;2007-05-13 02:00;METAR CYYG 130200Z 00000KT 15SM FEW250 M00/M04 A3005 RMK CI1 SLP178=
CYYG;2007-05-13 03:00;METAR CYYG 130300Z 00000KT 15SM FEW220 M01/M03 A3005 RMK CI1 SLP179=
CYYG;2007-05-13 04:00;METAR CYYG 130400Z 00000KT 15SM FEW200 M01/M04 A3005 RMK CI1 SLP178=
CYYG;2007-05-13 05:00;METAR CYYG 130500Z 00000KT 15SM BKN150 M01/M03 A3003 RMK AC3 SLP171=
CYYG;2007-05-13 06:00;METAR CYYG 130600Z 09003KT 15SM SCT150 01/M02 A3003 RMK AC2 SLP172=
CYYG;2007-05-13 07:00;METAR CYYG 130700Z 31004KT 15SM FEW140 BKN160 00/M02 A3004 RMK AC2AC5 SLP174=
CYYG;2007-05-13 08:00;METAR CYYG 130800Z 00000KT 15SM FEW120 BKN140 01/M03 A3004 RMK AC2AC3 SLP174=
CYYG;2007-05-13 09:00;METAR CYYG 130900Z 31003KT 15SM BKN120 OVC250 01/M03 A3004 RMK AC6CI1 SLP176=
CYYG;2007-05-13 10:00;METAR CYYG 131000Z 00000KT 15SM BKN160 BKN250 02/M02 A3004 RMK AS5CI1 SLP176=
CYYG;2007-05-13 11:00;METAR CYYG 131100Z 00000KT 15SM BKN160 BKN250 04/M01 A3006 RMK AS3CI2 SLP182=
CYYG;2007-05-13 12:00;METAR CYYG 131200Z 00000KT 15SM FEW067 SCT300 06/M04 A3005 RMK AC2CI0 SLP179=
CYYG;2007-05-13 13:00;METAR CYYG 131300Z 13004KT 15SM SCT067 BKN300 08/M04 A3004 RMK AC3CI0 SLP176=
CYYG;2007-05-13 14:00;METAR CYYG 131400Z 07004KT 15SM SCT076 BKN300 08/M03 A3004 RMK AC3CI1 SLP173=
CYYG;2007-05-13 15:00;METAR CYYG 131500Z 24002KT 15SM BKN082 BKN300 09/M03 A3002 RMK AC5CI0 SLP169=
CYYG;2007-05-13 16:00;METAR CYYG 131600Z 20005KT 15SM FEW040 SCT084 BKN300 10/M03 A3001 RMK SC1AC3CI0 SLP164=
CYYG;2007-05-13 17:00;METAR CYYG 131700Z 22006KT 15SM BKN067 BKN300 10/M03 A3000 RMK AC5CI1 SLP161=
CYYG;2007-05-13 18:00;METAR CYYG 131800Z 17008KT 15SM FEW067 FEW083 BKN300 10/M03 A2999 RMK AC1AC2CI1 SLP156=
CYYG;2007-05-13 19:00;METAR CYYG 131900Z 05008KT 15SM FEW088 BKN300 10/M00 A2997 RMK AC1CI2 SLP151=
CYYG;2007-05-13 20:00;METAR CYYG 132000Z 04010KT 15SM BKN077 BKN300 09/M01 A2997 RMK AC3CI2 SLP151=
CYYG;2007-05-13 21:00;METAR CYYG 132100Z 05007KT 15SM BKN054 BKN100 BKN300 08/M03 A2997 RMK SC5AC1CI0 SLP150=
CYYG;2007-05-13 22:00;METAR CYYG 132200Z 06006KT 15SM FEW054 BKN120 09/M01 A2997 RMK SC1AC4 SLP151=
CYYG;2007-05-13 23:00;METAR CYYG 132300Z 12003KT 15SM FEW054 BKN120 08/M01 A2999 RMK SC1AC4 SLP156=
CYYG;2007-05-14 00:00;METAR CYYG 140000Z 05002KT 15SM FEW054 SCT120 06/M02 A3002 RMK SC1AC3 SLP166=
CYYG;2007-05-14 01:00;METAR CYYG 140100Z 02003KT 15SM FEW120 03/M01 A3004 RMK AC2 SLP173=
CYYG;2007-05-14 02:00;METAR CYYG 140200Z 02003KT 15SM FEW120 02/M01 A3005 RMK AC2 SLP176=
CYYG;2007-05-14 03:00;METAR CYYG 140300Z 34003KT 15SM SCT120 01/M01 A3005 RMK AC3 SLP178=
CYYG;2007-05-14 04:00;METAR CYYG 140400Z 34003KT 15SM BKN086 02/M00 A3005 RMK AC5 SLP177=
CYYG;2007-05-14 05:00;METAR CYYG 140500Z 35005KT 15SM BKN085 02/00 A3005 RMK AC5 SLP177=
CYYG;2007-05-14 06:00;METAR CYYG 140600Z 03002KT 15SM BKN100 02/00 A3003 RMK AC6 SLP170=
CYYG;2007-05-14 07:00;METAR CYYG 140700Z 33004KT 15SM SCT100 00/M01 A3003 RMK AC3 SLP171=
CYYG;2007-05-14 08:00;METAR CYYG 140800Z 34005KT 15SM FEW100 01/M01 A3004 RMK AC2 SLP173=
CYYG;2007-05-14 09:00;METAR CYYG 140900Z 34003KT 15SM FEW100 M00/M01 A3005 RMK AC1 SLP178=
CYYG;2007-05-14 10:00;METAR CYYG 141000Z 32002KT 15SM FEW100 02/M00 A3006 RMK AC1 SLP182=
CYYG;2007-05-14 11:00;METAR CYYG 141100Z 34006KT 15SM FEW100 05/02 A3008 RMK AC1 SLP188=
CYYG;2007-05-14 12:00;METAR CYYG 141200Z 35007KT 15SM FEW030 FEW100 06/00 A3009 RMK SC1AC1 SLP191=
CYYG;2007-05-14 13:00;METAR CYYG 141300Z 33008KT 15SM FEW033 08/M03 A3009 RMK CU1 SLP192=
CYYG;2007-05-14 14:00;METAR CYYG 141400Z 33007KT 15SM FEW035 09/M03 A3009 RMK CU2 SLP191=
CYYG;2007-05-14 15:00;METAR CYYG 141500Z 33011G17KT 15SM FEW055 10/M04 A3010 RMK CU2 SLP194=
CYYG;2007-05-14 16:00;METAR CYYG 141600Z 34013G18KT 15SM FEW048 09/M06 A3010 RMK SC2 SLP196=
CYYG;2007-05-14 17:00;METAR CYYG 141700Z 36010G16KT 15SM FEW038 09/M01 A3010 RMK SC2 SLP196=
CYYG;2007-05-14 18:00;METAR CYYG 141800Z 01013KT 15SM FEW038 09/M02 A3010 RMK SC2 SLP196=
CYYG;2007-05-14 19:00;METAR CYYG 141900Z 36008KT 15SM FEW038 FEW078 08/M05 A3011 RMK SC1AC1 SLP198=
CYYG;2007-05-14 20:00;METAR CYYG 142000Z 01009KT 15SM FEW040 FEW078 08/M04 A3011 RMK CU1AC1 SLP198=
CYYG;2007-05-14 21:00;METAR CYYG 142100Z 04007KT 15SM FEW040 07/M05 A3011 RMK SC1 SLP199=
CYYG;2007-05-14 22:00;METAR CYYG 142200Z 05007KT 15SM FEW040 07/M04 A3010 RMK SC1 SLP195=
CYYG;2007-05-14 23:00;METAR CYYG 142300Z 08004KT 15SM SKC 06/M05 A3010 RMK SLP194=
CYYG;2007-05-15 00:00;METAR CYYG 150000Z 14002KT 15SM SKC 05/M06 A3010 RMK SLP195=
CYYG;2007-05-15 01:00;METAR CYYG 150100Z 16005KT 15SM SKC 04/M05 A3009 RMK SLP192=
CYYG;2007-05-15 02:00;METAR CYYG 150200Z 15009KT 15SM SKC 04/M01 A3008 RMK SLP187=
CYYG;2007-05-15 03:00;METAR CYYG 150300Z 17004KT 15SM SKC 04/M01 A3007 RMK SLP183=
CYYG;2007-05-15 04:00;METAR CYYG 150400Z 17009KT 15SM SKC 04/M01 A3005 RMK SLP177=
CYYG;2007-05-15 05:00;METAR CYYG 150500Z 18008KT 15SM SKC 04/M00 A3003 RMK SLP171=
CYYG;2007-05-15 06:00;METAR CYYG 150600Z 18011KT 15SM SKC 05/M01 A2999 RMK SLP157=
CYYG;2007-05-15 07:00;METAR CYYG 150700Z 19012KT 15SM SKC 05/M01 A2996 RMK SLP147=
CYYG;2007-05-15 08:00;METAR CYYG 150800Z 20009KT 15SM FEW160 05/M01 A2994 RMK AC1 SLP139=
CYYG;2007-05-15 09:00;METAR CYYG 150900Z 20011KT 15SM FEW160 FEW280 06/M01 A2990 RMK AC1CI0 SLP128=
CYYG;2007-05-15 10:00;METAR CYYG 151000Z 20012KT 15SM FEW160 FEW280 07/M01 A2989 RMK AC1CI0 SLP123=
CYYG;2007-05-15 11:00;METAR CYYG 151100Z 20013KT 15SM FEW160 BKN280 09/M01 A2986 RMK AC1CI2 SLP114=
CYYG;2007-05-15 12:00;METAR CYYG 151200Z 19013KT 15SM FEW090 SCT160 BKN280 11/00 A2982 RMK AC1AC1CI2 SLP099=
CYYG;2007-05-15 13:00;METAR CYYG 151300Z 20013KT 15SM SCT140 BKN280 13/01 A2978 RMK AC2CI3 SLP086=
CYYG;2007-05-15 14:00;METAR CYYG 151400Z 19011KT 15SM SCT120 BKN280 14/02 A2975 RMK AC2CI3 SLP075=
CYYG;2007-05-15 15:00;METAR CYYG 151500Z 20012G19KT 15SM BKN110 OVC250 17/03 A2971 RMK AC4CI3 SLP062=
CYYG;2007-05-15 16:00;METAR CYYG 151600Z 24011G19KT 15SM SCT074 BKN095 OVC110 16/02 A2970 RMK AC3AC2AC2 SLP059=
CYYG;2007-05-15 17:00;METAR CYYG 151700Z 26010G18KT 15SM BKN079 OVC090 14/03 A2970 RMK AC6AC2 SLP059=
CYYG;2007-05-15 17:52;SPECI CYYG 151752Z 26013G20KT 15SM -SHRA BKN044 OVC058 12/ RMK SC6SC2=
CYYG;2007-05-15 18:00;METAR CYYG 151800Z 27013G19KT 15SM -SHRA SCT044 OVC058 12/05 A2970 RMK SC4SC4 SLP057=
CYYG;2007-05-15 19:00;METAR CYYG 151900Z 22007KT 15SM -SHRA OVC058 12/06 A2966 RMK SC8 OCNL -SHRA SLP044=
CYYG;2007-05-15 19:49;SPECI CYYG 151949Z 23012KT 15SM OVC060 13/ RMK SC8=
CYYG;2007-05-15 20:00;METAR CYYG 152000Z 24011G16KT 15SM OVC060 13/05 A2963 RMK SC8 SLP035=
CYYG;2007-05-15 21:00;METAR CYYG 152100Z 25006KT 15SM SCT050 OVC070 11/06 A2962 RMK SC3AC5 SLP031=
CYYG;2007-05-15 22:00;METAR CYYG 152200Z 26009KT 15SM OVC030 10/05 A2963 RMK SC8 SLP035=
CYYG;2007-05-15 22:48;SPECI CYYG 152248Z 27008KT 15SM -SHRA BKN022 OVC032 10/ RMK SC5SC3=
CYYG;2007-05-15 23:00;METAR CYYG 152300Z 27006KT 15SM -SHRA BKN022 OVC038 10/06 A2966 RMK SC5SC3 SLP046=
CYYG;2007-05-16 00:00;METAR CYYG 160000Z 25007KT 15SM SCT020 BKN046 09/06 A2968 RMK SC3SC3 SLP051=
CYYG;2007-05-16 01:00;METAR CYYG 160100Z 27006KT 15SM FEW020 BKN056 08/06 A2971 RMK SC2SC5 SLP063=
CYYG;2007-05-16 02:00;METAR CYYG 160200Z 27004KT 15SM OVC053 08/06 A2972 RMK SC8 SLP064=
CYYG;2007-05-16 03:00;METAR CYYG 160300Z 31003KT 15SM BKN055 BKN140 08/06 A2972 RMK SC5AC1 SLP066=
CYYG;2007-05-16 04:00;METAR CYYG 160400Z 30004KT 15SM FEW055 FEW140 07/06 A2974 RMK SC1AC1 SLP073=
CYYG;2007-05-16 05:00;METAR CYYG 160500Z 28004KT 15SM FEW130 06/05 A2977 RMK AC1 SLP080=
CYYG;2007-05-16 06:00;METAR CYYG 160600Z 30004KT 15SM SKC 06/05 A2977 RMK SLP083=
CYYG;2007-05-16 07:00;METAR CYYG 160700Z 34005KT 15SM FEW025 FEW150 06/05 A2981 RMK SC1AC2 SLP095=
CYYG;2007-05-16 08:00;METAR CYYG 160800Z 01008KT 15SM FEW020 BKN110 BKN250 05/03 A2983 RMK SC1AC5CI0 SLP104=
CYYG;2007-05-16 09:00;METAR CYYG 160900Z 02010KT 15SM FEW020 SCT110 BKN200 04/01 A2986 RMK SC1AC3CI2 SLP114=
CYYG;2007-05-16 10:00;METAR CYYG 161000Z 02012G17KT 15SM FEW110 BKN150 OVC200 05/00 A2989 RMK AC1AS4CI2 SLP124=
CYYG;2007-05-16 11:00;METAR CYYG 161100Z 02011G17KT 15SM FEW110 OVC170 05/M00 A2993 RMK AC2AC5 SLP135=
CYYG;2007-05-16 12:00;METAR CYYG 161200Z 04015KT 15SM FEW120 OVC180 05/M01 A2996 RMK AC2AC6 SLP145=
CYYG;2007-05-16 13:00;METAR CYYG 161300Z 04013KT 15SM FEW065 SCT110 OVC180 06/M03 A2998 RMK SC1AC2AC4 SLP153=
CYYG;2007-05-16 14:00;METAR CYYG 161400Z 04012KT 15SM FEW065 BKN110 OVC180 05/M04 A2999 RMK SC2AC3AC3 SLP157=
CYYG;2007-05-16 15:00;METAR CYYG 161500Z 03010KT 15SM FEW065 BKN110 OVC180 06/M02 A3002 RMK SC2AC3AC3 SLP168=
CYYG;2007-05-16 16:00;METAR CYYG 161600Z 05008KT 15SM OVC100 06/M05 A3002 RMK AS8 SLP167=
CYYG;2007-05-16 17:00;METAR CYYG 161700Z 06007KT 15SM OVC100 06/M05 A3003 RMK AS8 SLP169=
CYYG;2007-05-16 18:00;METAR CYYG 161800Z 02009KT 15SM OVC100 06/M05 A3004 RMK AS8 SLP173=
CYYG;2007-05-16 19:00;METAR CYYG 161900Z 05008KT 15SM OVC082 05/M04 A3004 RMK AC8 SLP173=
CYYG;2007-05-16 20:00;METAR CYYG 162000Z 03009KT 15SM FEW020 OVC078 04/M03 A3006 RMK CF1AC7 SLP179=
CYYG;2007-05-16 21:00;METAR CYYG 162100Z 04008KT 15SM FEW020 OVC075 04/M03 A3007 RMK CF1AC7 SLP186=
CYYG;2007-05-16 22:00;METAR CYYG 162200Z 06006KT 15SM FEW020 OVC080 04/M03 A3008 RMK CF1AC7 SLP187=
CYYG;2007-05-16 23:00;METAR CYYG 162300Z 07007KT 15SM FEW020 SCT060 OVC076 04/M03 A3009 RMK SC1SC2AC5 SLP192=
CYYG;2007-05-17 00:00;METAR CYYG 170000Z 07003KT 15SM FEW020 OVC063 04/M02 A3012 RMK SC1SC7 SLP203=
CYYG;2007-05-17 01:00;METAR CYYG 170100Z 12005KT 15SM OVC062 04/M03 A3012 RMK SC8 SLP201=
CYYG;2007-05-17 02:00;METAR CYYG 170200Z 12006KT 15SM OVC054 03/M02 A3009 RMK SC8 SLP193=
CYYG;2007-05-17 03:00;METAR CYYG 170300Z 10007KT 15SM OVC040 03/M03 A3010 RMK SC8 SLP195=
CYYG;2007-05-17 03:32;SPECI CYYG 170332Z 11006KT 15SM -SN BKN015 OVC040 03/ RMK SF6SC2=
CYYG;2007-05-17 03:45;SPECI CYYG 170345Z 12008KT 3SM -SN OVC009 01/ RMK SF8=
CYYG;2007-05-17 04:00;METAR CYYG 170400Z 11008KT 2 1/2SM -SN OVC007 01/M01 A3013 RMK SF8 SLP204=
CYYG;2007-05-17 05:00;METAR CYYG 170500Z 09009KT 2 1/2SM -SN OVC006 00/M01 A3011 RMK SF8 SLP197=
CYYG;2007-05-17 05:41;SPECI CYYG 170541Z 09009KT 3SM -SN BKN007 OVC025 00/ RMK SF5SC3=
CYYG;2007-05-17 06:00;METAR CYYG 170600Z 09010KT 5SM -SN SCT007 OVC026 00/M01 A3011 RMK SF3SC5 /S01/ SLP198=
CYYG;2007-05-17 06:48;SPECI CYYG 170648Z 08011KT 2SM -SN OVC006 00/ RMK SF8=
CYYG;2007-05-17 07:00;METAR CYYG 170700Z 07012KT 2SM -SN OVC006 00/M01 A3007 RMK SF8 SLP186=
CYYG;2007-05-17 07:19;SPECI CYYG 170719Z 07010KT 2 1/2SM -RASN SCT006 OVC027 00/ RMK SF3SC5=
CYYG;2007-05-17 08:00;METAR CYYG 170800Z 07011KT 3SM -RASN SCT005 OVC027 00/M01 A3006 RMK SF4SC4 SLP180=
CYYG;2007-05-17 08:20;SPECI CYYG 170820Z 07014KT 2SM -RASN OVC008 00/ RMK SF8=
CYYG;2007-05-17 09:00;METAR CYYG 170900Z 06013KT 1 1/2SM -SN BKN003 OVC020 00/M01 A3006 RMK SF6SC2 /S01/ SLP180=
CYYG;2007-05-17 09:12;SPECI CYYG 170912Z 06012KT 3SM -SN BKN005 OVC024 00/ RMK SF6SC2=
CYYG;2007-05-17 09:21;SPECI CYYG 170921Z 05012KT 3SM -SNPL BKN005 BKN025 OVC038 00/ RMK SF5SC2SC2=
CYYG;2007-05-17 10:00;METAR CYYG 171000Z 06011G16KT 6SM -RASN BKN004 OVC019 00/M00 A3007 REPL RMK SF6SC2 SLP184=
CYYG;2007-05-17 10:25;SPECI CYYG 171025Z 05011KT 12SM -RASN BKN006 OVC015 01/ RMK SF6SC2=
CYYG;2007-05-17 10:49;SPECI CYYG 171049Z 05013KT 12SM -RA SCT006 BKN015 OVC040 01/ RMK SF3SC4SC1 VIS LWR E=
CYYG;2007-05-17 11:00;METAR CYYG 171100Z 06014KT 12SM -RA SCT006 BKN014 OVC038 01/M00 A3010 RMK SF3SC4SC1 VSBY LWR E SLP195=
CYYG;2007-05-17 11:18;SPECI CYYG 171118Z 06013KT 5SM -RASN BKN007 OVC014 01/ RMK SF6SC2=
CYYG;2007-05-17 12:00;METAR CYYG 171200Z 05015KT 10SM -RA BKN007 OVC039 01/M00 A3008 RMK SF6SC2 SLP187=
CYYG;2007-05-17 13:00;METAR CYYG 171300Z 05010KT 4SM -RA BR BKN006 OVC011 01/00 A3010 RMK SF6SC2 SLP195=
CYYG;2007-05-17 14:00;METAR CYYG 171400Z 07011KT 3SM -RA BR BKN007 OVC014 02/01 A3010 RMK SF6SC2 SLP194=
CYYG;2007-05-17 14:48;SPECI CYYG 171448Z 07013KT 8SM BKN007 OVC017 02/ RMK SF5SC3=
CYYG;2007-05-17 15:00;METAR CYYG 171500Z 07012KT 15SM BKN009 OVC031 03/01 A3009 RMK SF5SC3 SLP190=
CYYG;2007-05-17 16:00;METAR CYYG 171600Z 05009KT 15SM OVC010 03/01 A3012 RMK SC8 SLP200=
CYYG;2007-05-17 16:26;SPECI CYYG 171626Z 04012KT 15SM OVC008 03/ RMK SF8=
CYYG;2007-05-17 17:00;METAR CYYG 171700Z 05010KT 15SM OVC007 03/02 A3013 RMK SF8 SLP204=
CYYG;2007-05-17 18:00;METAR CYYG 171800Z 04009KT 15SM OVC009 04/03 A3014 RMK SF8 SLP207=
CYYG;2007-05-17 19:00;METAR CYYG 171900Z 03012KT 15SM BKN009 OVC017 04/02 A3016 RMK SF6SC2 SLP214=
CYYG;2007-05-17 19:36;SPECI CYYG 171936Z 03011KT 15SM OVC013 05/ RMK SC8=
CYYG;2007-05-17 20:00;METAR CYYG 172000Z 01010KT 15SM BKN014 OVC035 04/02 A3018 RMK SC6SC2 SLP221=
CYYG;2007-05-17 21:00;METAR CYYG 172100Z 04010KT 15SM OVC013 04/02 A3021 RMK SC8 SLP231=
CYYG;2007-05-17 22:00;METAR CYYG 172200Z 02010KT 15SM OVC011 04/02 A3022 RMK SC8 SLP236=
CYYG;2007-05-17 22:19;SPECI CYYG 172219Z 03011KT 5SM BR BKN007 OVC013 04/ RMK SF5SC3=
CYYG;2007-05-17 23:00;METAR CYYG 172300Z 03011KT 5SM BR OVC008 03/02 A3025 RMK SF8 SLP244=
CYYG;2007-05-18 00:00;METAR CYYG 180000Z 05008G15KT 5SM BR OVC007 03/02 A3028 RMK SF8 SLP256=
CYYG;2007-05-18 01:00;METAR CYYG 180100Z 04010KT 6SM BR OVC007 03/02 A3032 RMK SF8 SLP268=
CYYG;2007-05-18 02:00;METAR CYYG 180200Z 04010KT 5SM BR OVC007 03/02 A3033 RMK SF8 SLP274=
CYYG;2007-05-18 02:40;SPECI CYYG 180240Z 04008KT 8SM -SHRA BKN007 OVC012 03/ RMK SF6SC2=
CYYG;2007-05-18 03:00;METAR CYYG 180300Z 05006KT 15SM -SHRA SCT007 OVC014 03/02 A3035 RMK SF4SC4 SLP280=
CYYG;2007-05-18 04:00;METAR CYYG 180400Z 04008KT 15SM FEW007 OVC012 03/01 A3037 RMK SF2SC6 SLP285=
CYYG;2007-05-18 05:00;METAR CYYG 180500Z 06006KT 15SM OVC012 03/01 A3038 RMK SC8 SLP290=
CYYG;2007-05-18 06:00;METAR CYYG 180600Z 05006KT 15SM OVC013 03/01 A3038 RMK SC8 SLP289=
CYYG;2007-05-18 07:00;METAR CYYG 180700Z 07005KT 15SM OVC011 02/01 A3039 RMK SC8 SLP293=
CYYG;2007-05-18 08:00;METAR CYYG 180800Z 06005KT 15SM OVC011 02/01 A3039 RMK SC8 SLP294=
CYYG;2007-05-18 09:00;METAR CYYG 180900Z 05007KT 15SM BKN011 OVC018 03/01 A3040 RMK SC6SC2 SLP296=
CYYG;2007-05-18 10:00;METAR CYYG 181000Z 06006KT 15SM OVC010 03/01 A3042 RMK SC8 SLP304=
CYYG;2007-05-18 11:00;METAR CYYG 181100Z 09007KT 15SM OVC011 03/01 A3043 RMK SC8 SLP306=
CYYG;2007-05-18 12:00;METAR CYYG 181200Z 06012KT 15SM OVC012 04/01 A3041 RMK SC8 SLP301=
CYYG;2007-05-18 13:00;METAR CYYG 181300Z 09008G15KT 15SM OVC011 04/02 A3041 RMK SC8 SLP300=
CYYG;2007-05-18 14:00;METAR CYYG 181400Z 08008KT 15SM OVC011 05/02 A3041 RMK SC8 SLP300=
CYYG;2007-05-18 15:00;METAR CYYG 181500Z 10007KT 15SM OVC015 06/02 A3040 RMK SC8 SLP296=
CYYG;2007-05-18 16:00;METAR CYYG 181600Z 14004KT 15SM OVC018 07/03 A3039 RMK SC8 SLP294=
CYYG;2007-05-18 17:00;METAR CYYG 181700Z 13006KT 15SM OVC018 07/03 A3037 RMK SC8 SLP285=
CYYG;2007-05-18 18:00;METAR CYYG 181800Z 11007KT 15SM OVC016 07/03 A3035 RMK SC8 SLP280=
CYYG;2007-05-18 19:00;METAR CYYG 181900Z 12005KT 10SM BKN014 OVC026 07/03 A3034 RMK SC6SC2 SLP276=
CYYG;2007-05-18 19:06;SPECI CYYG 181906Z 16004KT 2 1/2SM -SHRA BR BKN013 OVC017 07/ RMK SC6SC2=
CYYG;2007-05-18 19:43;SPECI CYYG 181943Z 12006KT 5SM -SHRA BR BKN008 BKN012 OVC023 07/ RMK SF5SC2SC1=
CYYG;2007-05-18 20:00;METAR CYYG 182000Z 16007KT 8SM -SHRA SCT008 BKN013 OVC023 07/04 A3033 RMK SF3SC3SC2 SLP271=
CYYG;2007-05-18 20:23;SPECI CYYG 182023Z 13007KT 2SM -SHRA BR OVC009 07/ RMK SF8=
CYYG;2007-05-18 20:52;SPECI CYYG 182052Z 13007KT 4SM -DZ BR BKN009 OVC024 07/ RMK SF6SC2=
CYYG;2007-05-18 21:00;METAR CYYG 182100Z 11006KT 4SM -DZ BR OVC008 07/05 A3030 RMK SF8 SLP263=
CYYG;2007-05-18 21:50;SPECI CYYG 182150Z 13008KT 8SM SCT008 OVC015 07/ RMK SF4SC4=
CYYG;2007-05-18 22:00;METAR CYYG 182200Z 13006KT 15SM SCT008 OVC014 07/05 A3028 RMK SF4SC4 SLP257=
CYYG;2007-05-18 23:00;METAR CYYG 182300Z 12007KT 15SM OVC008 07/05 A3028 RMK SF8 SLP254=
CYYG;2007-05-19 00:00;METAR CYYG 190000Z 13007KT 15SM OVC007 07/05 A3026 RMK SF8 SLP248=
CYYG;2007-05-19 01:00;METAR CYYG 190100Z 13008KT 15SM OVC005 06/05 A3027 RMK SF8 SLP251=
CYYG;2007-05-19 02:00;METAR CYYG 190200Z 14006KT 12SM OVC004 06/05 A3025 RMK SF8 SLP245=
CYYG;2007-05-19 02:35;SPECI CYYG 190235Z 14009KT 12SM OVC003 06/ RMK SF8=
CYYG;2007-05-19 03:00;METAR CYYG 190300Z 15007KT 15SM OVC003 07/06 A3023 RMK SF8 SLP238=
CYYG;2007-05-19 04:00;METAR CYYG 190400Z 15009KT 12SM OVC004 07/07 A3022 RMK SF8 SLP234=
CYYG;2007-05-19 05:00;METAR CYYG 190500Z 16009KT 15SM OVC005 08/07 A3020 RMK SF8 SLP227=
CYYG;2007-05-19 06:00;METAR CYYG 190600Z 18008KT 15SM OVC005 09/08 A3019 RMK SF8 SLP224=
CYYG;2007-05-19 07:00;METAR CYYG 190700Z 17007KT 15SM OVC003 09/08 A3017 RMK SF8 SLP220=
CYYG;2007-05-19 08:00;METAR CYYG 190800Z 11005KT 15SM BKN003 OVC100 09/08 A3013 RMK SF6AC2 SLP204=
CYYG;2007-05-19 08:38;SPECI CYYG 190838Z 16004KT 15SM SCT003 BKN041 OVC110 10/ RMK SF3SC3AC2=
CYYG;2007-05-19 09:00;METAR CYYG 190900Z 16009KT 15SM SCT018 BKN040 OVC110 11/08 A3015 RMK SC3SC3AC2 SLP212=
CYYG;2007-05-19 10:00;METAR CYYG 191000Z 17002KT 15SM FEW010 BKN015 OVC040 11/10 A3015 RMK SC2SC3SC2 SLP211=
CYYG;2007-05-19 11:00;METAR CYYG 191100Z 14005KT 15SM FEW010 FEW055 OVC095 11/10 A3014 RMK SC2SC1AC6 SLP208=
CYYG;2007-05-19 11:12;SPECI CYYG 191112Z 13006KT 15SM -SHRA BKN011 OVC095 12/ RMK SC6AC2=
CYYG;2007-05-19 11:49;SPECI CYYG 191149Z 12005KT 15SM -SHRA OVC009 12/ RMK SC8=
CYYG;2007-05-19 12:00;METAR CYYG 191200Z 11004KT 15SM -SHRA OVC009 12/11 A3012 RMK SF8 SLP201=
CYYG;2007-05-19 12:20;SPECI CYYG 191220Z 12005KT 12SM -SHRA SCT009 SCT050 OVC095 12/ RMK SC3SC1AC4=
CYYG;2007-05-19 12:40;SPECI CYYG 191240Z 13005KT 8SM -SHRA SCT009 OVC013 13/ RMK SC3SC5=
CYYG;2007-05-19 13:00;METAR CYYG 191300Z 13008KT 5SM -SHRA BR SCT005 OVC012 13/12 A3011 RMK SF4SC4 SLP196=
CYYG;2007-05-19 13:35;SPECI CYYG 191335Z 14011KT 5SM -SHRA BR BKN005 OVC012 13/ RMK SF6SC2=
CYYG;2007-05-19 14:00;METAR CYYG 191400Z 13009KT 4SM -SHRA BR BKN005 OVC012 13/12 A3009 RMK SF7SC1 SLP192=
CYYG;2007-05-19 14:39;SPECI CYYG 191439Z 12008KT 2 1/2SM -RA BR OVC006 13/ RMK SF8=
CYYG;2007-05-19 15:00;METAR CYYG 191500Z 12011KT 2 1/2SM -RA BR FEW003 OVC006 14/13 A3006 RMK SF2SF6 SLP181=
CYYG;2007-05-19 15:31;SPECI CYYG 191531Z 11011G17KT 2SM -RA BR BKN003 OVC006 13/ RMK SF6SF2=
CYYG;2007-05-19 16:00;METAR CYYG 191600Z 11010G15KT 2SM R03/5500FT/N RA BR BKN003 OVC006 13/12 A3002 RMK SF7SF1 SLP166=
CYYG;2007-05-19 16:44;SPECI CYYG 191644Z 12009KT 2 1/2SM -RA BR BKN004 OVC008 13/ RERA RMK SF7SF1 VIS HIER N=
CYYG;2007-05-19 17:00;METAR CYYG 191700Z 13009KT 2 1/2SM -RA BR BKN004 OVC008 13/12 A2999 RERA RMK SF7SF1 /R12/ SLP158=
CYYG;2007-05-19 17:45;SPECI CYYG 191745Z 16013KT 3SM -RADZ BR OVC004 14/ RMK SF8=
CYYG;2007-05-19 18:00;METAR CYYG 191800Z 16015KT 3SM -RADZ BR BKN005 OVC012 14/13 A2997 RMK SF7SC1 SLP149=
CYYG;2007-05-19 18:29;SPECI CYYG 191829Z 16014KT 15SM FEW005 OVC013 14/ RMK SF2SC6=
CYYG;2007-05-19 19:00;METAR CYYG 191900Z 17011KT 15SM FEW005 OVC013 14/13 A2995 RMK SF1SC7 SLP144=
CYYG;2007-05-19 19:32;SPECI CYYG 191932Z 17011KT 2 1/2SM -SHRA BR FEW005 OVC010 14/ RMK SF1SC7=
CYYG;2007-05-19 20:00;METAR CYYG 192000Z 16009KT 2SM -SHRA BR BKN003 OVC010 13/12 A2995 RMK SF6SC2 SLP144=
CYYG;2007-05-19 20:37;SPECI CYYG 192037Z 17010KT 1 1/4SM R03/4500VP6000FT/D -SHRA BR BKN003 OVC010 14/ RMK SF7SC1=
CYYG;2007-05-19 20:46;SPECI CYYG 192046Z 16011KT 1 1/2SM R03/4000VP6000FT/U -SHRA BR OVC002 14/ RMK SF8=
CYYG;2007-05-19 21:00;METAR CYYG 192100Z 16010KT 1 1/2SM R03/4000V6000FT/D -SHRA BR BKN002 OVC004 13/13 A2994 RMK SF6SF2 SLP140=
CYYG;2007-05-19 21:52;SPECI CYYG 192152Z 17010KT 2SM -SHRA BR BKN004 OVC010 14/ RERA RMK SF6SC2=
CYYG;2007-05-19 22:00;METAR CYYG 192200Z 17010KT 2 1/2SM -SHRA BR BKN004 OVC008 14/14 A2993 RERA RMK SF7SC1 SLP138=
CYYG;2007-05-19 22:31;SPECI CYYG 192231Z 17010KT 6SM BR FEW003 OVC018 14/ RMK SF1SC7=
CYYG;2007-05-19 23:00;METAR CYYG 192300Z 17012KT 5SM -RA BR BKN013 OVC033 14/13 A2993 RMK SC6SC2 SLP138=
CYYG;2007-05-20 00:00;METAR CYYG 200000Z 17010KT 10SM -RA FEW013 BKN017 OVC025 14/13 A2993 RMK SC2SC3SC2 SLP135=
CYYG;2007-05-20 00:09;SPECI CYYG 200009Z 17009KT 15SM OVC015 14/ RMK SC8=
CYYG;2007-05-20 00:21;SPECI CYYG 200021Z 17011KT 15SM -SHRA SCT015 OVC021 14/ RMK SC3SC5=
CYYG;2007-05-20 01:00;METAR CYYG 200100Z 17010KT 15SM -SHRA BKN012 OVC020 14/13 A2993 RMK SC5SC3 SLP135=
CYYG;2007-05-20 01:41;SPECI CYYG 200141Z 16009KT 15SM -SHRA BKN002 BKN009 OVC015 14/ RMK SF5SF2SC2=
CYYG;2007-05-20 02:00;METAR CYYG 200200Z 16009KT 15SM -DZ BKN002 OVC010 14/13 A2992 RMK SF6SC2 SLP131=
CYYG;2007-05-20 03:00;METAR CYYG 200300Z 16009KT 10SM -DZ BKN002 OVC016 14/13 A2990 RMK SF6SC2 SLP126=
CYYG;2007-05-20 04:00;METAR CYYG 200400Z 16005KT 15SM BKN003 OVC008 13/13 A2989 RMK SF6SF2 SLP121=
CYYG;2007-05-20 04:50;SPECI CYYG 200450Z 16007KT 10SM -RA OVC003 13/ RMK SF8=
CYYG;2007-05-20 05:00;METAR CYYG 200500Z 16007KT 10SM -RA OVC003 13/13 A2987 RMK SF8 SLP117=
CYYG;2007-05-20 05:32;SPECI CYYG 200532Z 17010KT 1 1/2SM -RA BR VV002 13/ RMK FG8=
CYYG;2007-05-20 06:00;METAR CYYG 200600Z 16007KT 3SM -RA BR OVC002 13/13 A2986 RMK SF8 SLP111=
CYYG;2007-05-20 07:00;METAR CYYG 200700Z 16009KT 1 1/2SM -RA BR VV002 13/13 A2985 RMK FG8 SLP109=
CYYG;2007-05-20 08:00;METAR CYYG 200800Z 17009KT 1 1/2SM -RA BR VV002 13/12 A2984 RMK FG8 SLP105=
CYYG;2007-05-20 08:12;SPECI CYYG 200812Z 17007KT 1/2SM R03/3500VP6000FT/D -RA FG VV002 13/ RMK FG8=
CYYG;2007-05-20 08:21;SPECI CYYG 200821Z 16008KT 3/4SM R03/3500V5500FT/U -RA BR VV002 13/ RMK FG8=
CYYG;2007-05-20 09:00;METAR CYYG 200900Z 16007KT 1 1/2SM R03/4500VP6000FT/U -RA BR VV002 13/12 A2983 RMK FG8 SLP101=
CYYG;2007-05-20 09:12;SPECI CYYG 200912Z 16004KT 1/2SM R03/3000FT/D -DZ FG VV002 13/ RMK FG8=
CYYG;2007-05-20 09:38;SPECI CYYG 200938Z 16007KT 3/4SM R03/3000V4500FT/U -RA BR VV002 13/ RMK FG8=
CYYG;2007-05-20 10:00;METAR CYYG 201000Z 16008KT 1SM R03/P6000FT/D RA BR OVC002 13/12 A2982 RMK SF8 /R12/ SLP099=
CYYG;2007-05-20 10:19;SPECI CYYG 201019Z 17010KT 2SM RA BR BKN002 OVC005 13/ RMK SF6SF2=
CYYG;2007-05-20 11:00;METAR CYYG 201100Z 17013KT 1 1/2SM -RA BR BKN002 OVC006 13/12 A2982 RERA RMK SF7SF1 SLP100=
CYYG;2007-05-20 12:00;METAR CYYG 201200Z 16006KT 2SM -RA BR OVC002 14/13 A2980 RMK SF8 SLP092=
CYYG;2007-05-20 12:36;SPECI CYYG 201236Z 14006KT 3SM -RA BR BKN003 OVC030 14/ RMK SF6NS2=
CYYG;2007-05-20 13:00;METAR CYYG 201300Z 14007KT 4SM -RA BR BKN003 OVC012 14/13 A2976 RMK SF7NS1 SLP079=
CYYG;2007-05-20 13:38;SPECI CYYG 201338Z 17010KT 8SM -RA BKN004 OVC010 15/ RMK SF7NS1=
CYYG;2007-05-20 14:00;METAR CYYG 201400Z 16009KT 8SM -RA BKN004 OVC010 15/13 A2976 RMK SF7NS1 SLP078=
CYYG;2007-05-20 14:22;SPECI CYYG 201422Z 16009KT 10SM -RA FEW004 OVC007 15/ RMK SF1SF7=
CYYG;2007-05-20 15:00;METAR CYYG 201500Z 18009KT 8SM -RA BKN005 OVC010 15/13 A2975 RMK SF6SF2 SLP075=
CYYG;2007-05-20 15:09;SPECI CYYG 201509Z 18010KT 6SM -RA BR BKN004 OVC011 15/ RMK SF6SF2=
CYYG;2007-05-20 15:48;SPECI CYYG 201548Z 20008KT 5SM -RA BR BKN003 OVC010 14/ RMK SF6SF2=
CYYG;2007-05-20 16:00;METAR CYYG 201600Z 20006KT 5SM -RA BR BKN003 OVC014 14/13 A2974 RMK SF6NS2 SLP072=
CYYG;2007-05-20 16:08;SPECI CYYG 201608Z 20005KT 5SM -RA BR FEW003 BKN013 OVC050 14/ RMK SF2SC5SC1=
CYYG;2007-05-20 16:34;SPECI CYYG 201634Z 22005KT 10SM BKN003 OVC050 14/ RMK SF6SC2=
CYYG;2007-05-20 17:00;METAR CYYG 201700Z 21006KT 15SM BKN004 OVC012 14/13 A2973 RMK SF7SC1 SLP067=
CYYG;2007-05-20 17:17;SPECI CYYG 201717Z 20007KT 6SM -DZ BR OVC004 14/ RMK SF8=
CYYG;2007-05-20 17:27;SPECI CYYG 201727Z 21008KT 1 1/2SM -DZ BR OVC004 14/ RMK SF8=
CYYG;2007-05-20 17:48;SPECI CYYG 201748Z 20010KT 1SM R03/4000VP6000FT/D -DZ BR OVC003 13/ RMK SF8=
CYYG;2007-05-20 18:00;METAR CYYG 201800Z 22009KT 1 1/2SM -DZ BR OVC003 13/12 A2973 RMK SF8 SLP069=
CYYG;2007-05-20 18:31;SPECI CYYG 201831Z 25006KT 15SM SCT003 OVC012 12/ RMK SF3SC5=
CYYG;2007-05-20 19:00;METAR CYYG 201900Z 22008KT 15SM FEW004 OVC014 12/10 A2971 RMK SF2SC6 SLP062=
CYYG;2007-05-20 19:54;SPECI CYYG 201954Z 25010KT 7SM -DZ FEW004 OVC008 11/ RMK SF1SF7=
CYYG;2007-05-20 20:00;METAR CYYG 202000Z 24010KT 7SM -DZ FEW004 OVC008 11/09 A2971 RMK SF1SF7 SLP062=
CYYG;2007-05-20 20:09;SPECI CYYG 202009Z 25006KT 7SM -DZ OVC006 10/ RMK SF8=
CYYG;2007-05-20 20:37;SPECI CYYG 202037Z 25007KT 15SM SCT006 OVC018 10/ RMK SF3SC5=
CYYG;2007-05-20 21:00;METAR CYYG 202100Z 24009KT 15SM SCT006 OVC017 10/08 A2971 RMK SF4SC4 SLP060=
CYYG;2007-05-20 21:05;SPECI CYYG 202105Z 24008KT 10SM -DZ BKN006 OVC017 10/ RMK SF6SC2=
CYYG;2007-05-20 21:27;SPECI CYYG 202127Z 25008KT 15SM FEW006 OVC018 10/ RMK SF2SC6=
CYYG;2007-05-20 22:00;METAR CYYG 202200Z 26009KT 15SM BKN006 BKN018 OVC035 10/08 A2971 RMK SF5SC2SC2 SLP060=
CYYG;2007-05-20 22:47;SPECI CYYG 202247Z 25010KT 15SM FEW006 BKN040 09/ RMK SF2SC6=
CYYG;2007-05-20 23:00;METAR CYYG 202300Z 25007KT 15SM FEW006 SCT030 BKN042 09/07 A2971 RMK SF1SC2SC4 SLP061=
CYYG;2007-05-21 00:00;METAR CYYG 210000Z 26005KT 15SM FEW006 SCT043 SCT300 09/07 A2971 RMK SF1SC2CI1 SLP061=
CYYG;2007-05-21 01:00;METAR CYYG 210100Z 28004KT 15SM FEW005 BKN039 08/06 A2971 RMK SF2SC6 SLP061=
CYYG;2007-05-21 02:00;METAR CYYG 210200Z 25003KT 15SM OVC027 07/06 A2970 RMK SC8 SLP058=
CYYG;2007-05-21 02:36;SPECI CYYG 210236Z 22005KT 10SM -RA BKN011 OVC027 07/ RMK SC5SC3=
CYYG;2007-05-21 03:00;METAR CYYG 210300Z 22003KT 15SM FEW004 OVC011 07/06 A2970 RMK SF2SC6 SLP058=
CYYG;2007-05-21 03:14;SPECI CYYG 210314Z 27002KT 10SM -SHRA SCT003 OVC010 07/ RMK SF3SC5=
CYYG;2007-05-21 04:00;METAR CYYG 210400Z 00000KT 15SM -SHRA FEW004 OVC009 07/06 A2968 RMK SF2SF6 SLP052=
CYYG;2007-05-21 05:00;METAR CYYG 210500Z 00000KT 10SM -SHRA OVC009 07/06 A2967 RMK SF8 SLP049=
CYYG;2007-05-21 05:34;SPECI CYYG 210534Z 00000KT 15SM BKN003 OVC008 07/ RMK SF6SF2=
CYYG;2007-05-21 06:00;METAR CYYG 210600Z 00000KT 15SM BKN003 OVC008 07/06 A2966 RMK SF6SF2 SLP044=
CYYG;2007-05-21 06:40;SPECI CYYG 210640Z 01005KT 2SM BR OVC002 06/ RMK SF8=
CYYG;2007-05-21 07:00;METAR CYYG 210700Z 36005KT 2SM BR OVC002 05/05 A2966 RMK SF8 SLP043=
CYYG;2007-05-21 07:22;SPECI CYYG 210722Z 35004KT 3SM -DZ BR OVC003 05/ RMK ST8=
CYYG;2007-05-21 08:00;METAR CYYG 210800Z 36005KT 3SM -DZ BR SCT003 OVC006 04/03 A2966 RMK SF3SF5 SLP044=
CYYG;2007-05-21 08:26;SPECI CYYG 210826Z 33005KT 1 1/2SM -DZ BR OVC003 04/ RMK ST8=
CYYG;2007-05-21 09:00;METAR CYYG 210900Z 34006KT 2SM -DZ BR OVC003 04/03 A2968 RMK ST8 SLP053=
CYYG;2007-05-21 09:21;SPECI CYYG 210921Z 31007KT 5SM BR OVC004 04/ RMK SF8=
CYYG;2007-05-21 10:00;METAR CYYG 211000Z 32008KT 3SM BR BKN004 OVC012 04/02 A2970 RMK SF6SC2 SLP058=
CYYG;2007-05-21 10:06;SPECI CYYG 211006Z 31007KT 5SM -DZ BR BKN005 OVC012 04/ RMK SF6SC2=
CYYG;2007-05-21 11:00;METAR CYYG 211100Z 31010G15KT 10SM -DZ BKN008 OVC020 04/02 A2972 RMK SF7SC1 SLP067=
CYYG;2007-05-21 12:00;METAR CYYG 211200Z 32008KT 10SM BKN011 OVC032 04/02 A2975 RMK SC6SC2 SLP077=
CYYG;2007-05-21 13:00;METAR CYYG 211300Z 33010G15KT 15SM BKN017 BKN048 05/01 A2978 RMK SC6SC2 SLP086=
CYYG;2007-05-21 14:00;METAR CYYG 211400Z 30009KT 15SM BKN017 06/02 A2978 RMK SC7 SLP087=
CYYG;2007-05-21 15:00;METAR CYYG 211500Z 31008KT 15SM BKN020 07/01 A2979 RMK SC7 SLP091=
CYYG;2007-05-21 16:00;METAR CYYG 211600Z 32006KT 12SM VCSH BKN020 OVC030 06/02 A2980 RMK SC7SC1 SLP094=
CYYG;2007-05-21 16:11;SPECI CYYG 211611Z 34007KT 6SM -SHRA SCT012 OVC020 05/ RMK SF3SC5=
CYYG;2007-05-21 17:00;METAR CYYG 211700Z 30014G21KT 6SM -SHRA FEW007 OVC015 06/03 A2983 RMK SF2SC6 SLP102=
CYYG;2007-05-21 18:00;METAR CYYG 211800Z 34007KT 10SM -SHRA BKN015 BKN020 06/03 A2985 RMK SC5SC2 SLP111=
CYYG;2007-05-21 19:00;METAR CYYG 211900Z 34009G15KT 15SM BKN025 06/02 A2988 RMK SC6 SLP119=
CYYG;2007-05-21 20:00;METAR CYYG 212000Z 33011G17KT 15SM SCT025 BKN043 06/01 A2990 RMK SC3SC3 SLP128=
CYYG;2007-05-21 21:00;METAR CYYG 212100Z 34010G16KT 15SM FEW020 BKN069 06/01 A2993 RMK SC2AC5 SLP137=
CYYG;2007-05-21 22:00;METAR CYYG 212200Z 34009G15KT 15SM FEW020 BKN060 05/M00 A2997 RMK SC2SC6 SLP150=
CYYG;2007-05-21 23:00;METAR CYYG 212300Z 33010KT 15SM SCT020 OVC071 04/M01 A3000 RMK SC2AC5 SLP160=
CYYG;2007-05-22 00:00;METAR CYYG 220000Z 33012KT 15SM BKN069 03/M02 A3003 RMK AC6 SLP170=
CYYG;2007-05-22 01:00;METAR CYYG 220100Z 32007G15KT 15SM FEW070 03/M01 A3004 RMK AC2 SLP175=
CYYG;2007-05-22 02:00;METAR CYYG 220200Z 33009G15KT 15SM SCT028 BKN083 03/M02 A3005 RMK SC3AC2 SLP178=
CYYG;2007-05-22 03:00;METAR CYYG 220300Z 33010G16KT 15SM SCT022 BKN046 BKN084 03/M02 A3007 RMK SC2SC2AC2 SLP185=
CYYG;2007-05-22 03:51;SPECI CYYG 220351Z 33010G18KT 8SM -SHRA BKN014 OVC042 03/ RMK SC6SC2=
CYYG;2007-05-22 04:00;METAR CYYG 220400Z 32013G18KT 8SM -SHRA OVC014 02/M01 A3008 RMK SC8 SLP188=
CYYG;2007-05-22 05:00;METAR CYYG 220500Z 33010G15KT 10SM -SHRA OVC012 03/M00 A3008 RMK SC8 SLP189=
CYYG;2007-05-22 06:00;METAR CYYG 220600Z 34007G15KT 10SM -SHRA OVC011 02/M00 A3009 RMK SF8 SLP193=
CYYG;2007-05-22 07:00;METAR CYYG 220700Z 34011KT 15SM -SHRA BKN011 OVC039 03/M00 A3011 RMK SF6SC2 SLP198=
CYYG;2007-05-22 08:00;METAR CYYG 220800Z 35014KT 12SM -SHRA SCT012 OVC019 02/00 A3012 RMK SF4SC4 SLP203=
CYYG;2007-05-22 09:00;METAR CYYG 220900Z 34011G16KT 10SM -SHRA SCT012 OVC024 02/M01 A3015 RMK SF3SC5 SLP213=
CYYG;2007-05-22 10:00;METAR CYYG 221000Z 34009G19KT 15SM FEW010 OVC021 03/M00 A3018 RMK SF2SC6 SLP222=
CYYG;2007-05-22 11:00;METAR CYYG 221100Z 35015G21KT 15SM -SHRA OVC018 03/M01 A3021 RMK SC8 SLP232=
CYYG;2007-05-22 12:00;METAR CYYG 221200Z 35014G25KT 12SM -SHRA FEW011 OVC020 03/00 A3024 RMK SF2SC6 SLP243=
CYYG;2007-05-22 13:00;METAR CYYG 221300Z 36013G21KT 12SM -SHRA FEW015 BKN022 04/00 A3027 RMK SC2SC5 SLP253=
CYYG;2007-05-22 13:51;SPECI CYYG 221351Z 36017G22KT 4SM -SHRASN OVC015 03/ RMK SC8=
CYYG;2007-05-22 14:00;METAR CYYG 221400Z 36013G22KT 6SM -SHRASN FEW006 BKN015 03/01 A3029 RMK SF2SC5 SLP260=
CYYG;2007-05-22 14:39;SPECI CYYG 221439Z 36015G22KT 12SM VCSH SCT015 BKN020 04/ RMK SC3SC4=
CYYG;2007-05-22 15:00;METAR CYYG 221500Z 36017G22KT 12SM VCSH BKN022 04/M00 A3031 RMK SC7 SLP267=
CYYG;2007-05-22 16:00;METAR CYYG 221600Z 36014G21KT 15SM VCSH OVC019 04/M01 A3033 RMK SC8 SLP274=
CYYG;2007-05-22 17:00;METAR CYYG 221700Z 35017G22KT 15SM VCSH OVC018 04/M01 A3035 RMK SC8 SLP279=
CYYG;2007-05-22 18:00;METAR CYYG 221800Z 35016G24KT 15SM VCSH OVC024 04/M01 A3037 RMK SC8 SLP286=
CYYG;2007-05-22 18:42;SPECI CYYG 221842Z 36017G22KT 10SM -SHSN SCT017 OVC024 03/ RMK SC3SC5=
CYYG;2007-05-22 19:21;SPECI CYYG 221921Z 35013G21KT 12SM VCSH SCT017 OVC021 04/ RMK SC3SC5=
CYYG;2007-05-22 19:26;SPECI CYYG 221926Z 36015KT 10SM -SHSN BKN023 03/ RMK SC7=
CYYG;2007-05-22 20:00;METAR CYYG 222000Z 35014G19KT 10SM -SHSN SCT018 OVC023 03/M01 A3040 RMK SC3SC5 SLP295=
CYYG;2007-05-22 21:00;METAR CYYG 222100Z 01012G18KT 10SM -SHSN OVC019 03/M00 A3041 RMK SC7 SLP299=
CYYG;2007-05-22 22:00;METAR CYYG 222200Z 01012G17KT 8SM -SHSN OVC016 03/M00 A3043 RMK SC6 SLP306=
CYYG;2007-05-22 23:00;METAR CYYG 222300Z 36008G15KT 15SM -SHSN BKN018 02/M00 A3045 RMK SC4 SLP314=
CYYG;2007-05-22 23:36;SPECI CYYG 222336Z 01009KT 15SM BKN024 02/ RMK SC5=
CYYG;2007-05-23 00:00;METAR CYYG 230000Z 01009G15KT 15SM BKN023 02/M02 A3045 RMK SC6 SLP313=
CYYG;2007-05-23 01:00;METAR CYYG 230100Z 01006KT 15SM FEW024 01/M02 A3046 RMK SC2 SLP318=
CYYG;2007-05-23 02:00;METAR CYYG 230200Z 36004KT 15SM BKN025 00/M02 A3047 RMK SC4 SLP319=
CYYG;2007-05-23 03:00;METAR CYYG 230300Z 01004KT 15SM SCT025 00/M02 A3047 RMK SC2 SLP320=
CYYG;2007-05-23 04:00;METAR CYYG 230400Z 35004KT 15SM FEW025 M00/M02 A3048 RMK SC1 SLP323=
CYYG;2007-05-23 05:00;METAR CYYG 230500Z 34004KT 15SM FEW025 M01/M02 A3049 RMK SC1 SLP326=
CYYG;2007-05-23 06:00;METAR CYYG 230600Z 34004KT 15SM SKC M01/M02 A3049 RMK SLP326=
CYYG;2007-05-23 07:00;METAR CYYG 230700Z 33004KT 15SM SKC M01/M02 A3051 RMK SLP334=
CYYG;2007-05-23 08:00;METAR CYYG 230800Z 35003KT 15SM FEW030 M01/M02 A3052 RMK SC1 SLP336=
CYYG;2007-05-23 09:00;METAR CYYG 230900Z 34004KT 15SM FEW030 M02/M03 A3052 RMK SC1 SLP339=
CYYG;2007-05-23 10:00;METAR CYYG 231000Z 01004KT 15SM FEW030 FEW090 02/M01 A3054 RMK SC1AC0 SLP344=
CYYG;2007-05-23 11:00;METAR CYYG 231100Z 02010KT 15SM FEW024 FEW090 04/M00 A3055 RMK CF2AC1 SLP349=
CYYG;2007-05-23 12:00;METAR CYYG 231200Z 05011KT 15SM SCT036 05/M00 A3058 RMK SC4 SLP356=
CYYG;2007-05-23 13:00;METAR CYYG 231300Z 01008KT 15SM BKN031 05/M00 A3058 RMK SC5 SLP358=
CYYG;2007-05-23 14:00;METAR CYYG 231400Z 03009KT 15SM BKN033 06/M01 A3058 RMK SC5 SLP357=
CYYG;2007-05-23 15:00;METAR CYYG 231500Z 03008KT 15SM SCT033 07/M00 A3058 RMK SC4 SLP356=
CYYG;2007-05-23 16:00;METAR CYYG 231600Z 05007KT 15SM SCT032 07/00 A3056 RMK SC4 SLP351=
CYYG;2007-05-23 17:00;METAR CYYG 231700Z 05008KT 15SM FEW031 07/00 A3055 RMK SC2 SLP346=
CYYG;2007-05-23 18:00;METAR CYYG 231800Z 04005KT 15SM FEW030 08/M00 A3054 RMK SC2 SLP343=
CYYG;2007-05-23 19:00;METAR CYYG 231900Z 04004KT 15SM FEW030 SCT250 07/M01 A3052 RMK SC2CI1 SLP338=
CYYG;2007-05-23 20:00;METAR CYYG 232000Z 07003KT 15SM FEW030 SCT250 08/M01 A3051 RMK SC1CI1 SLP333=
CYYG;2007-05-23 21:00;METAR CYYG 232100Z 03002KT 15SM FEW030 SCT250 08/M03 A3050 RMK SC1CI1 SLP330=
CYYG;2007-05-23 22:00;METAR CYYG 232200Z 19008KT 15SM FEW030 SCT250 07/01 A3049 RMK SC1CI1 SLP327=
CYYG;2007-05-23 23:00;METAR CYYG 232300Z 19007KT 15SM FEW050 SCT300 05/M00 A3048 RMK SC1CI1 CONTRAILS SLP325=
CYYG;2007-05-24 00:00;METAR CYYG 240000Z 18005KT 15SM FEW300 03/M01 A3048 RMK CI1 CONTRAILS SLP324=
CYYG;2007-05-24 01:00;METAR CYYG 240100Z 15006KT 15SM FEW300 03/M01 A3048 RMK CI1 SLP323=
CYYG;2007-05-24 02:00;METAR CYYG 240200Z 15008KT 15SM FEW300 03/M02 A3047 RMK CI0 SLP319=
CYYG;2007-05-24 03:00;METAR CYYG 240300Z 17005KT 15SM FEW300 01/M02 A3046 RMK CI0 SLP317=
CYYG;2007-05-24 04:00;METAR CYYG 240400Z 16007KT 15SM SKC 02/M01 A3044 RMK SLP312=
CYYG;2007-05-24 05:00;METAR CYYG 240500Z 17007KT 15SM FEW250 02/M01 A3043 RMK CI1 SLP306=
CYYG;2007-05-24 06:00;METAR CYYG 240600Z 18006KT 15SM SCT250 02/M01 A3041 RMK CI1 SLP301=
CYYG;2007-05-24 07:00;METAR CYYG 240700Z 18006KT 15SM FEW140 BKN270 02/M00 A3040 RMK AC2CI0 SLP295=
CYYG;2007-05-24 08:00;METAR CYYG 240800Z 19008KT 15SM FEW140 SCT270 03/01 A3039 RMK AC2CI0 SLP291=
CYYG;2007-05-24 09:00;METAR CYYG 240900Z 21006KT 15SM FEW100 SCT140 05/02 A3039 RMK AC2AC1 SLP291=
CYYG;2007-05-24 10:00;METAR CYYG 241000Z 21009KT 15SM FEW100 BKN140 06/02 A3038 RMK AC1AC4 SLP288=
CYYG;2007-05-24 11:00;METAR CYYG 241100Z 22010KT 15SM FEW100 BKN140 07/03 A3036 RMK AC2AC4 SLP283=
CYYG;2007-05-24 12:00;METAR CYYG 241200Z 19010KT 15SM BKN087 BKN140 07/02 A3035 RMK AC6AC2 SLP278=
CYYG;2007-05-24 13:00;METAR CYYG 241300Z 20011KT 15SM BKN084 BKN140 07/02 A3032 RMK AC6AC2 SLP270=
CYYG;2007-05-24 14:00;METAR CYYG 241400Z 20010KT 15SM BKN084 OVC280 08/02 A3031 RMK AC6CI2 SLP264=
CYYG;2007-05-24 15:00;METAR CYYG 241500Z 19014G19KT 15SM BKN084 OVC280 10/03 A3026 RMK AC5CI3 SLP249=
CYYG;2007-05-24 16:00;METAR CYYG 241600Z 18013KT 15SM BKN082 OVC160 11/04 A3024 RMK AC6AC2 SLP241=
CYYG;2007-05-24 17:00;METAR CYYG 241700Z 18016KT 15SM FEW080 FEW160 BKN280 13/05 A3020 RMK AC2AC1CI1 SLP227=
CYYG;2007-05-24 18:00;METAR CYYG 241800Z 18013KT 15SM FEW085 BKN280 14/05 A3016 RMK AC1CI2 SLP215=
CYYG;2007-05-24 19:00;METAR CYYG 241900Z 18015KT 15SM FEW085 BKN280 15/05 A3014 RMK ACC1CI2 SLP206=
CYYG;2007-05-24 20:00;METAR CYYG 242000Z CCB 19013KT 15SM BKN100 BKN140 OVC250 15/05 A3011 RMK AC5ACC2CI1 SLP198=
CYYG;2007-05-24 21:00;METAR CYYG 242100Z 18009KT 15SM SCT100 BKN120 OVC250 14/07 A3009 RMK AC3ACC2CI2 SLP191=
CYYG;2007-05-24 21:39;SPECI CYYG 242139Z 18008KT 15SM -SHRA SCT056 BKN100 OVC250 14/ RMK SC4AC2CI2=
CYYG;2007-05-24 23:00;METAR CYYG 242300Z 18009KT 15SM BKN110 13/09 A3007 RMK AC6 ACC ASOCTD SLP183=
CYYG;2007-05-25 00:00;METAR CYYG 250000Z 17008KT 15SM BKN130 BKN270 12/08 A3007 RMK AC6CI0 ACC ASOCTD SLP183=
CYYG;2007-05-25 01:00;METAR CYYG 250100Z 17009KT 15SM BKN130 11/08 A3007 RMK AC7 SLP184=
CYYG;2007-05-25 02:00;METAR CYYG 250200Z 18013KT 15SM BKN130 11/07 A3006 RMK AC7 SLP180=
CYYG;2007-05-25 03:00;METAR CYYG 250300Z 18010KT 15SM OVC130 11/07 A3004 RMK AC8 SLP175=
CYYG;2007-05-25 04:00;METAR CYYG 250400Z 18013KT 15SM OVC120 10/07 A3003 RMK AC8 SLP169=
CYYG;2007-05-25 05:00;METAR CYYG 250500Z 16009KT 15SM OVC110 10/07 A3002 RMK AC8 SLP167=
CYYG;2007-05-25 06:00;METAR CYYG 250600Z 16015KT 15SM BKN085 OVC120 09/07 A3003 RMK AC6AC2 SLP169=
CYYG;2007-05-25 07:00;METAR CYYG 250700Z 16012KT 15SM FEW085 OVC120 08/06 A3002 RMK AC2AC6 SLP168=
CYYG;2007-05-25 08:00;METAR CYYG 250800Z 16010G15KT 15SM FEW080 OVC120 08/06 A3003 RMK AC1AC7 SLP170=
CYYG;2007-05-25 09:00;METAR CYYG 250900Z 18010KT 15SM FEW090 BKN140 08/06 A3002 RMK AC1AC6 SLP166=
CYYG;2007-05-25 10:00;METAR CYYG 251000Z 19009KT 15SM SCT140 BKN270 09/07 A3003 RMK AC3CI0 SLP170=
CYYG;2007-05-25 11:00;METAR CYYG 251100Z 17011KT 15SM FEW100 FEW150 BKN250 09/07 A3004 RMK AC2AC1CI1 SLP174=
CYYG;2007-05-25 12:00;METAR CYYG 251200Z 23008KT 15SM FEW100 BKN250 11/08 A3002 RMK AC2CI2 SLP166=
CYYG;2007-05-25 13:00;METAR CYYG 251300Z 21010KT 15SM FEW150 SCT250 14/09 A2999 RMK AC1CI1 SLP158=
CYYG;2007-05-25 14:00;METAR CYYG 251400Z 19007KT 15SM FEW150 FEW250 18/12 A2999 RMK AC1CI1 SLP158=
CYYG;2007-05-25 15:00;METAR CYYG 251500Z 17010KT 15SM FEW150 FEW250 16/11 A3000 RMK AC1CI1 SLP159=
CYYG;2007-05-25 16:00;METAR CYYG 251600Z 16008KT 15SM FEW150 SCT250 17/10 A3001 RMK AC1CI2 SLP161=
CYYG;2007-05-25 17:00;METAR CYYG 251700Z 17007KT 15SM SCT150 BKN250 19/12 A2999 RMK AC2CI2 SLP156=
CYYG;2007-05-25 18:00;METAR CYYG 251800Z 16010KT 15SM BKN140 21/11 A2998 RMK AC3 SLP151=
CYYG;2007-05-25 19:00;METAR CYYG 251900Z 17010KT 15SM BKN140 20/12 A2996 RMK AC6 SLP147=
CYYG;2007-05-25 20:00;METAR CYYG 252000Z 15008KT 15SM BKN140 20/13 A2996 RMK AC6 SLP147=
CYYG;2007-05-25 21:00;METAR CYYG 252100Z 14010KT 15SM OVC140 19/12 A2994 RMK AC7 SLP140=
CYYG;2007-05-25 22:00;METAR CYYG 252200Z 17009KT 15SM BKN140 18/12 A2993 RMK AC6 SLP136=
CYYG;2007-05-25 23:00;METAR CYYG 252300Z 16008KT 15SM BKN140 17/10 A2993 RMK AC6 SLP136=
CYYG;2007-05-26 00:00;METAR CYYG 260000Z 18006KT 15SM SCT140 BKN300 14/09 A2991 RMK AC3CI2 SLP130=
CYYG;2007-05-26 01:00;METAR CYYG 260100Z 17009KT 15SM BKN170 BKN300 14/09 A2992 RMK AC5CI0 SLP132=
CYYG;2007-05-26 02:00;METAR CYYG 260200Z 19008KT 15SM SCT170 BKN300 12/09 A2990 RMK AC3CI0 SLP127=
CYYG;2007-05-26 03:00;METAR CYYG 260300Z 16010KT 15SM FEW170 BKN300 12/10 A2990 RMK AC2CI1 SLP124=
CYYG;2007-05-26 04:00;METAR CYYG 260400Z 17009KT 15SM SCT096 BKN300 14/09 A2988 RMK AC3CI1 LTGIC W SLP119=
CYYG;2007-05-26 05:00;METAR CYYG 260500Z 17015KT 15SM FEW080 BKN100 13/10 A2984 RMK AC2AC2 SLP104=
CYYG;2007-05-26 06:00;METAR CYYG 260600Z 17007KT 15SM FEW080 BKN100 11/08 A2985 RMK AC2AC2 SLP107=
CYYG;2007-05-26 07:00;METAR CYYG 260700Z 17010KT 15SM FEW160 12/08 A2982 RMK AC2 SLP099=
CYYG;2007-05-26 08:00;METAR CYYG 260800Z 19010KT 15SM FEW120 BKN210 11/08 A2980 RMK AC2CI3 SLP093=
CYYG;2007-05-26 09:00;METAR CYYG 260900Z 18009KT 12SM SCT210 10/08 A2979 RMK CI2 SLP088=
CYYG;2007-05-26 10:00;METAR CYYG 261000Z 18007KT 10SM FEW210 12/09 A2978 RMK CI1 HAZY SLP084=
CYYG;2007-05-26 11:00;METAR CYYG 261100Z 22007KT 15SM FEW200 13/10 A2977 RMK CI1 HAZY SLP080=
CYYG;2007-05-26 12:00;METAR CYYG 261200Z 24008KT 10SM FEW300 17/12 A2975 RMK CI0 SLP076=
CYYG;2007-05-26 13:00;METAR CYYG 261300Z 27007KT 10SM BKN300 21/13 A2975 RMK CI2 SLP074=
CYYG;2007-05-26 14:00;METAR CYYG 261400Z 30012KT 10SM SCT095 BKN300 24/14 A2974 RMK AC3CI0 SLP073=
CYYG;2007-05-26 15:00;METAR CYYG 261500Z 33012KT 15SM BKN098 BKN300 25/15 A2974 RMK AC5CI0 SLP072=
CYYG;2007-05-26 16:00;METAR CYYG 261600Z 33015KT 15SM SCT090 BKN140 23/14 A2975 RMK AC2AC3 SLP073=
CYYG;2007-05-26 17:00;METAR CYYG 261700Z 33016G24KT 15SM BKN100 OVC300 23/13 A2975 RMK AC6CI1 SLP075=
CYYG;2007-05-26 18:00;METAR CYYG 261800Z 34009G16KT 15SM BKN100 OVC300 19/10 A2977 RMK AC6CI0 SLP081=
CYYG;2007-05-26 19:00;METAR CYYG 261900Z 34009KT 15SM SCT100 OVC300 17/10 A2977 RMK AC3CI3 SLP080=
CYYG;2007-05-26 20:00;METAR CYYG 262000Z 34005KT 15SM SCT100 OVC300 18/10 A2977 RMK AC3CI3 SLP080=
CYYG;2007-05-26 21:00;METAR CYYG 262100Z 00000KT 15SM FEW100 BKN300 19/10 A2975 RMK AC2CI4 SLP075=
CYYG;2007-05-26 22:00;METAR CYYG 262200Z 36005KT 15SM FEW300 20/09 A2975 RMK CI2 SLP076=
CYYG;2007-05-26 23:00;METAR CYYG 262300Z CCA 34005KT 15SM FEW300 17/08 A2978 RMK CI2 SLP084=
CYYG;2007-05-27 00:00;METAR CYYG 270000Z 00000KT 15SM FEW300 14/09 A2983 RMK CI1 SLP102=
CYYG;2007-05-27 01:00;METAR CYYG 270100Z 32009KT 15SM SKC 15/06 A2987 RMK SLP114=
CYYG;2007-05-27 02:00;METAR CYYG 270200Z 33015G24KT 15SM SKC 15/03 A2990 RMK SLP127=
CYYG;2007-05-27 03:00;METAR CYYG 270300Z 33015G21KT 15SM SKC 13/03 A2993 RMK SLP135=
CYYG;2007-05-27 04:00;METAR CYYG 270400Z 36008KT 15SM SKC 09/04 A2998 RMK SLP152=
CYYG;2007-05-27 05:00;METAR CYYG 270500Z 34004KT 15SM SKC 08/04 A3000 RMK SLP158=
CYYG;2007-05-27 06:00;METAR CYYG 270600Z 33006KT 15SM SKC 07/04 A3004 RMK SLP172=
CYYG;2007-05-27 07:00;METAR CYYG 270700Z 35005KT 15SM SKC 07/02 A3006 RMK SLP180=
CYYG;2007-05-27 08:00;METAR CYYG 270800Z 34005KT 15SM SKC 06/01 A3009 RMK SLP189=
CYYG;2007-05-27 09:00;METAR CYYG 270900Z 34006KT 15SM BKN300 06/00 A3011 RMK CI2 SLP198=
CYYG;2007-05-27 10:00;METAR CYYG 271000Z 36005KT 15SM BKN300 08/02 A3015 RMK CI2 SLP212=
CYYG;2007-05-27 11:00;METAR CYYG 271100Z CCA 00000KT 15SM BKN300 09/00 A3017 RMK CI3 WIND READING EST SLP219=
CYYG;2007-05-27 12:00;METAR CYYG 271200Z 01008KT 15SM SCT300 10/01 A3020 RMK CI2 SLP227=
CYYG;2007-05-27 13:00;METAR CYYG 271300Z 35010KT 15SM SCT300 10/M01 A3021 RMK CI2 SLP232=
CYYG;2007-05-27 14:00;METAR CYYG 271400Z 02008KT 15SM FEW300 10/00 A3023 RMK CI1 SLP236=
CYYG;2007-05-27 15:00;METAR CYYG 271500Z 02008KT 15SM FEW300 11/01 A3023 RMK CI1 SLP239=
CYYG;2007-05-27 16:00;METAR CYYG 271600Z 31006KT 15SM FEW030 FEW300 11/02 A3025 RMK CF1CI1 SLP243=
CYYG;2007-05-27 17:00;METAR CYYG 271700Z 06009KT 15SM FEW040 FEW300 11/01 A3025 RMK SC1CI1 SLP244=
CYYG;2007-05-27 18:00;METAR CYYG 271800Z 04004KT 15SM FEW300 11/02 A3024 RMK CI0 SLP240=
CYYG;2007-05-27 19:00;METAR CYYG 271900Z 08004KT 15SM FEW300 12/03 A3024 RMK CI0 SLP240=
CYYG;2007-05-27 20:00;METAR CYYG 272000Z 07007KT 15SM FEW300 12/02 A3024 RMK CI0 SLP241=
CYYG;2007-05-27 21:00;METAR CYYG 272100Z 08003KT 15SM FEW300 13/02 A3024 RMK CI0 SLP240=
CYYG;2007-05-27 22:00;METAR CYYG 272200Z 14003KT 15SM FEW300 13/02 A3024 RMK CI0 SLP241=
CYYG;2007-05-27 23:00;METAR CYYG 272300Z 14005KT 15SM BKN300 12/02 A3023 RMK CI1 SLP239=
CYYG;2007-05-28 00:00;METAR CYYG 280000Z 13007KT 15SM BKN300 09/01 A3024 RMK CI2 SLP241=
CYYG;2007-05-28 01:00;METAR CYYG 280100Z 12005KT 15SM BKN300 07/01 A3025 RMK CI2 SLP244=
CYYG;2007-05-28 02:00;METAR CYYG 280200Z 13008KT 15SM BKN220 06/M02 A3026 RMK CI4 SLP247=
CYYG;2007-05-28 03:00;METAR CYYG 280300Z 13004KT 15SM BKN180 BKN300 06/M01 A3025 RMK AC5CI0 SLP246=
CYYG;2007-05-28 04:00;METAR CYYG 280400Z 14007KT 15SM OVC120 08/02 A3023 RMK AC8 SLP238=
CYYG;2007-05-28 05:00;METAR CYYG 280500Z 16008KT 15SM OVC120 10/04 A3020 RMK AC8 SLP230=
CYYG;2007-05-28 06:00;METAR CYYG 280600Z 17011KT 15SM OVC100 10/04 A3021 RMK AC8 SLP232=
CYYG;2007-05-28 07:00;METAR CYYG 280700Z 17010KT 15SM OVC098 10/03 A3020 RMK AC8 SLP226=
CYYG;2007-05-28 08:00;METAR CYYG 280800Z 18011KT 15SM OVC090 10/03 A3019 RMK AC8 SLP225=
CYYG;2007-05-28 09:00;METAR CYYG 280900Z 18011KT 15SM BKN100 10/03 A3020 RMK AC7 SLP229=
CYYG;2007-05-28 09:06;SPECI CYYG 280906Z 19013KT 12SM -SHRA BKN092 10/ RMK AC7=
CYYG;2007-05-28 10:00;METAR CYYG 281000Z 18007KT 12SM -SHRA OVC079 08/05 A3021 RMK AC8 SLP231=
CYYG;2007-05-28 11:00;METAR CYYG 281100Z CCA 16008KT 12SM -SHRA OVC074 08/05 A3020 RMK AC8 RW VRY LGT SLP227=
CYYG;2007-05-28 12:00;METAR CYYG 281200Z 16009KT 15SM -SHRA OVC069 08/06 A3019 RMK AC8 SLP225=
CYYG;2007-05-28 13:00;METAR CYYG 281300Z 14009KT 15SM -SHRA OVC070 08/06 A3014 RMK AC8 SLP209=
CYYG;2007-05-28 14:00;METAR CYYG 281400Z 14011KT 15SM -SHRA OVC066 09/05 A3012 RMK AC8 SLP200=
CYYG;2007-05-28 15:00;METAR CYYG 281500Z 15010G15KT 10SM -RA OVC059 09/05 A3010 RMK SC8 SLP194=
CYYG;2007-05-28 16:00;METAR CYYG 281600Z 16008G16KT 3SM -RA BR BKN025 OVC040 09/06 A3009 RMK SC6SC2 SLP189=
CYYG;2007-05-28 17:00;METAR CYYG 281700Z 15014KT 5SM -RA BR SCT025 OVC038 09/07 A3005 RERA RMK SC3SC5 SLP177=
CYYG;2007-05-28 18:00;METAR CYYG 281800Z 16012KT 10SM -RA BKN021 OVC040 10/08 A3000 RMK SC5SC3 SLP159=
CYYG;2007-05-28 18:27;SPECI CYYG 281827Z 16012KT 15SM BKN016 OVC035 11/ RMK SC5SC3=
CYYG;2007-05-28 19:00;METAR CYYG 281900Z 16015KT 15SM BKN011 OVC030 11/09 A2998 RMK SC6SC2 SLP155=
CYYG;2007-05-28 19:06;SPECI CYYG 281906Z 17015KT 15SM OVC007 11/ RMK SF8=
CYYG;2007-05-28 20:00;METAR CYYG 282000Z 16012G17KT 15SM BKN006 OVC018 11/09 A2997 RMK SF6SC2 SLP150=
CYYG;2007-05-28 20:07;SPECI CYYG 282007Z 18012KT 15SM SCT006 OVC017 12/ RMK SF4SC4=
CYYG;2007-05-28 21:00;METAR CYYG 282100Z 17011G16KT 15SM FEW006 OVC012 12/09 A2994 RMK SF2SC6 SLP141=
CYYG;2007-05-28 22:00;METAR CYYG 282200Z 17010KT 15SM OVC010 12/10 A2993 RMK SC8 SLP136=
CYYG;2007-05-28 22:40;SPECI CYYG 282240Z 18010KT 15SM OVC009 12/ RMK SF8=
CYYG;2007-05-28 23:00;METAR CYYG 282300Z 17012KT 15SM OVC009 12/10 A2992 RMK SF8 SLP133=
CYYG;2007-05-29 00:00;METAR CYYG 290000Z 19008KT 15SM OVC008 12/10 A2991 RMK SF8 SLP130=
CYYG;2007-05-29 01:00;METAR CYYG 290100Z 19008KT 15SM OVC006 12/10 A2992 RMK SF8 SLP133=
CYYG;2007-05-29 02:00;METAR CYYG 290200Z 18009KT 10SM OVC003 12/10 A2991 RMK SF8 SLP130=
CYYG;2007-05-29 02:14;SPECI CYYG 290214Z 23004KT 12SM BKN006 OVC025 12/ RMK SF6SC2=
CYYG;2007-05-29 03:00;METAR CYYG 290300Z 21007KT 12SM OVC006 12/10 A2991 RMK SF8 SLP129=
CYYG;2007-05-29 03:26;SPECI CYYG 290326Z 23002KT 10SM -SHRA BKN006 OVC021 12/ RMK SF7SC1=
CYYG;2007-05-29 04:00;METAR CYYG 290400Z 22007KT 10SM -SHRA BKN009 OVC080 12/11 A2989 RMK SF5AC3 SLP124=
CYYG;2007-05-29 05:00;METAR CYYG 290500Z 23007KT 4SM -SHRA BR OVC005 12/11 A2988 RMK SF8 SLP120=
CYYG;2007-05-29 06:00;METAR CYYG 290600Z 24008KT 4SM -SHRA BR OVC004 12/11 A2987 RMK SF8 SLP116=
CYYG;2007-05-29 06:26;SPECI CYYG 290626Z 25008KT 1 1/2SM BR OVC003 12/ RMK SF8=
CYYG;2007-05-29 07:00;METAR CYYG 290700Z 27007KT 3/4SM R03/3000V5000FT/U BR OVC002 12/11 A2988 RMK SF8 SLP118=
CYYG;2007-05-29 07:49;SPECI CYYG 290749Z 28006KT 2SM BR OVC003 12/ RMK SF8=
CYYG;2007-05-29 08:00;METAR CYYG 290800Z 28007KT 4SM BR OVC003 12/11 A2988 RMK SF8 SLP118=
CYYG;2007-05-29 08:15;SPECI CYYG 290815Z 29009KT 6SM BR SCT005 12/ RMK SF4=
CYYG;2007-05-29 09:00;METAR CYYG 290900Z 30008KT 15SM FEW005 FEW080 12/10 A2988 RMK SF1AC1 SLP120=
CYYG;2007-05-29 10:00;METAR CYYG 291000Z 31007KT 15SM FEW005 FEW080 12/10 A2990 RMK SF1AC1 SLP124=
CYYG;2007-05-29 11:00;METAR CYYG 291100Z 34005KT 15SM SCT008 BKN080 13/10 A2991 RMK CF4AC1 SLP128=
CYYG;2007-05-29 11:05;SPECI CYYG 291105Z 33007KT 15SM BKN008 BKN080 13/ RMK SC6AC1=
CYYG;2007-05-29 12:00;METAR CYYG 291200Z 34007KT 12SM FEW004 BKN008 BKN080 13/10 A2992 RMK SF2SC3AC2 VIS N-NE 3 SLP133=
CYYG;2007-05-29 12:14;SPECI CYYG 291214Z 34008KT 12SM FEW003 BKN006 12/ RMK SF1SF6 VIS NW-NE 3=
CYYG;2007-05-29 12:31;SPECI CYYG 291231Z 34009KT 2SM PRFG OVC002 11/ RMK ST8 VIS NW-NE 1/2 FG / VIS SW 6=
CYYG;2007-05-29 13:00;METAR CYYG 291300Z 33011G16KT 3/4SM R03/1800VP6000FT/D BR BKN002 OVC004 09/08 A2994 RMK SF7SF1 SLP139=
CYYG;2007-05-29 13:48;SPECI CYYG 291348Z 32009KT 1 1/2SM BR OVC003 10/ RMK SF8 CIG RAG / VIS HIER N=
CYYG;2007-05-29 14:00;METAR CYYG 291400Z CCA 32010KT 5SM BR SCT003 OVC006 11/09 A2995 RMK SF4SF4 VIS HIER W-N SLP141=
CYYG;2007-05-29 14:44;SPECI CYYG 291444Z 34012G18KT 10SM OVC005 10/ RMK SF8=
CYYG;2007-05-29 15:00;METAR CYYG 291500Z 33015KT 12SM FEW004 BKN008 OVC018 10/07 A2997 RMK SF2SF4SC2 SLP149=
CYYG;2007-05-29 15:46;SPECI CYYG 291546Z 33013G18KT 12SM FEW007 OVC014 10/ RMK SF2SC6=
CYYG;2007-05-29 16:00;METAR CYYG 291600Z 33013G19KT 15SM FEW007 BKN015 10/06 A2999 RMK SF2SC6 SLP158=
CYYG;2007-05-29 16:16;SPECI CYYG 291616Z 36013G19KT 15SM BKN006 OVC015 08/ RMK SF5SC3=
CYYG;2007-05-29 17:00;METAR CYYG 291700Z 36008G19KT 15SM OVC009 09/05 A3001 RMK SC8 SLP164=
CYYG;2007-05-29 17:38;SPECI CYYG 291738Z 36012G17KT 15SM FEW009 BKN018 10/ RMK SF2SC5=
CYYG;2007-05-29 18:00;METAR CYYG 291800Z 36011G18KT 15SM FEW009 BKN024 10/05 A3001 RMK SF2SC6 SLP164=
CYYG;2007-05-29 19:00;METAR CYYG 291900Z 01013G18KT 15SM BKN010 BKN025 09/05 A3001 RMK SC6SC2 SLP164=
CYYG;2007-05-29 20:00;METAR CYYG 292000Z 35010G17KT 15SM BKN010 BKN028 08/04 A3004 RMK SC6SC2 SLP172=
CYYG;2007-05-29 21:00;METAR CYYG 292100Z 35012G17KT 15SM BKN009 OVC030 07/04 A3005 RMK SC6SC2 SLP178=
CYYG;2007-05-29 22:00;METAR CYYG 292200Z 01008G16KT 15SM BKN008 BKN030 OVC070 06/03 A3006 RMK SC6SC2AC1 SLP182=
CYYG;2007-05-29 23:00;METAR CYYG 292300Z 01010G18KT 15SM OVC006 05/03 A3009 RMK SF7 SLP189=
CYYG;2007-05-29 23:43;SPECI CYYG 292343Z 36010G16KT 15SM OVC004 05/ RMK SF8=
CYYG;2007-05-30 00:00;METAR CYYG 300000Z 01011KT 15SM OVC004 05/03 A3010 RMK SF8 SLP193=
CYYG;2007-05-30 01:00;METAR CYYG 300100Z 36007KT 15SM OVC005 06/04 A3012 RMK SF8 SLP201=
CYYG;2007-05-30 02:00;METAR CYYG 300200Z 35006KT 15SM BKN006 OVC031 06/04 A3013 RMK SF6SC2 SLP203=
CYYG;2007-05-30 03:00;METAR CYYG 300300Z 34005KT 15SM BKN007 OVC031 06/04 A3012 RMK SF7SC1 SLP202=
CYYG;2007-05-30 03:39;SPECI CYYG 300339Z 34004KT 15SM SCT007 BKN037 OVC055 06/ RMK SF3SC2SC2=
CYYG;2007-05-30 04:00;METAR CYYG 300400Z 35004KT 15SM FEW009 SCT018 OVC054 06/04 A3011 RMK SF2SC2SC4 SLP198=
CYYG;2007-05-30 05:00;METAR CYYG 300500Z 34005KT 15SM SCT008 OVC020 06/04 A3012 RMK SF4SC4 SLP199=
CYYG;2007-05-30 05:16;SPECI CYYG 300516Z 33005KT 15SM OVC008 06/ RMK SF8=
CYYG;2007-05-30 06:00;METAR CYYG 300600Z 33005KT 15SM BKN008 OVC020 06/04 A3011 RMK SF6SC2 SLP197=
CYYG;2007-05-30 07:00;METAR CYYG 300700Z 33005KT 15SM BKN009 OVC017 06/04 A3011 RMK SF6SC2 SLP197=
CYYG;2007-05-30 08:00;METAR CYYG 300800Z 33006KT 15SM BKN009 OVC020 07/04 A3012 RMK SF6SC2 SLP199=
CYYG;2007-05-30 09:00;METAR CYYG 300900Z 34006KT 15SM BKN009 OVC038 07/04 A3012 RMK SF5SC2 SLP201=
CYYG;2007-05-30 09:28;SPECI CYYG 300928Z 33007KT 15SM SCT009 BKN037 07/ RMK SF3SC4=
CYYG;2007-05-30 10:00;METAR CYYG 301000Z 33008KT 15SM FEW010 BKN035 08/05 A3013 RMK SC1SC6 SLP204=
CYYG;2007-05-30 11:00;METAR CYYG 301100Z 35007KT 15SM BKN014 BKN030 09/05 A3014 RMK SC6SC1 SLP206=
CYYG;2007-05-30 12:00;METAR CYYG 301200Z 35012G18KT 15SM BKN015 09/05 A3013 RMK SC6 SLP203=
CYYG;2007-05-30 13:00;METAR CYYG 301300Z 02012KT 15SM BKN018 BKN280 11/06 A3014 RMK SC5CS0 SLP207=
CYYG;2007-05-30 14:00;METAR CYYG 301400Z 01010KT 15SM SCT020 BKN280 12/06 A3014 RMK SC4CS0 SLP208=
CYYG;2007-05-30 15:00;METAR CYYG 301500Z 01009KT 15SM FEW021 BKN280 12/06 A3014 RMK CU2CS1=
CYYG;2007-05-30 16:00;METAR CYYG 301600Z 01010KT 15SM FEW023 BKN280 13/06 A3014 RMK CU2CS2=
CYYG;2007-05-30 17:00;METAR CYYG 301700Z 02010KT 15SM FEW026 BKN280 13/06 A3012 RMK CU2CS2 CONTRAILS SLP202=
CYYG;2007-05-30 18:00;METAR CYYG 301800Z 02008KT 15SM FEW028 BKN280 13/06 A3012 RMK CU1CS2 CONTRAILS SLP200=
CYYG;2007-05-30 19:00;METAR CYYG 301900Z 01008KT 15SM FEW030 FEW150 BKN280 14/05 A3012 RMK CU1AC1CS2 SLP200=
CYYG;2007-05-30 20:00;METAR CYYG 302000Z 03003KT 15SM FEW030 FEW150 FEW280 13/05 A3011 RMK CU1AC2CI0 SLP197=
CYYG;2007-05-30 21:00;METAR CYYG 302100Z 02004KT 15SM FEW030 FEW150 13/04 A3011 RMK CU1AC2 SLP197=
CYYG;2007-05-30 22:00;METAR CYYG 302200Z 01005KT 15SM FEW032 FEW120 13/04 A3012 RMK CF1AC1 SLP199=
CYYG;2007-05-30 23:00;METAR CYYG 302300Z 07006KT 15SM FEW120 11/05 A3012 RMK AC2 SLP202=
CYYG;2007-05-31 00:00;METAR CYYG 310000Z 06003KT 15SM BKN130 09/05 A3012 RMK AC5 SLP202=
CYYG;2007-05-31 01:00;METAR CYYG 310100Z 11004KT 15SM FEW110 BKN130 09/05 A3012 RMK AC2AC4 SLP201=
CYYG;2007-05-31 02:00;METAR CYYG 310200Z 14002KT 15SM FEW100 OVC120 09/05 A3013 RMK AC2AC6 SLP203=
CYYG;2007-05-31 03:00;METAR CYYG 310300Z 22003KT 15SM SCT092 BKN120 09/05 A3013 RMK AC4AC3 SLP204=
CYYG;2007-05-31 04:00;METAR CYYG 310400Z 20005KT 15SM OVC066 09/04 A3014 RMK SC7 SLP206=
CYYG;2007-05-31 05:00;METAR CYYG 310500Z 18003KT 15SM BKN060 OVC085 09/04 A3014 RMK SC6AC2 SLP208=
CYYG;2007-05-31 06:00;METAR CYYG 310600Z 00000KT 15SM OVC068 08/05 A3015 RMK AC8 SLP210=
CYYG;2007-05-31 07:00;METAR CYYG 310700Z 00000KT 15SM BKN037 OVC060 08/04 A3015 RMK SC6SC2 SLP212=
CYYG;2007-05-31 08:00;METAR CYYG 310800Z 02006KT 15SM BKN038 BKN060 08/05 A3016 RMK SC6SC1 SLP214=
CYYG;2007-05-31 08:55;SPECI CYYG 310855Z 01007KT 15SM FEW006 OVC039 08/ RMK SF2SC6=
CYYG;2007-05-31 09:00;METAR CYYG 310900Z 02008KT 15SM FEW006 OVC039 08/06 A3017 RMK SF2SC6 SLP219=
CYYG;2007-05-31 10:00;METAR CYYG 311000Z 01005KT 15SM FEW006 OVC037 08/05 A3019 RMK SF1SC7 SLP225=
CYYG;2007-05-31 10:46;SPECI CYYG 311046Z 35008KT 15SM BKN008 OVC033 08/ RMK SF5SC3=
CYYG;2007-05-31 11:00;METAR CYYG 311100Z 36006KT 15SM BKN005 OVC033 08/06 A3021 RMK SF6SC2 SLP231=
CYYG;2007-05-31 12:00;METAR CYYG 311200Z 35008KT 15SM OVC005 08/05 A3022 RMK SF8 SLP236=
CYYG;2007-05-31 13:00;METAR CYYG 311300Z 35008KT 15SM OVC007 08/05 A3023 RMK SF8 SLP237=
CYYG;2007-05-31 13:49;SPECI CYYG 311349Z 36011KT 15SM OVC010 08/ RMK SF8=
CYYG;2007-05-31 14:00;METAR CYYG 311400Z 35010KT 15SM OVC010 08/05 A3023 RMK SF8 SLP240=
CYYG;2007-05-31 15:00;METAR CYYG 311500Z 01010G15KT 15SM BKN012 08/04 A3024 RMK SC7 SLP241=
CYYG;2007-05-31 16:00;METAR CYYG 311600Z 02012KT 15SM BKN013 BKN035 09/05 A3023 RMK SC6SC2 SLP238=
CYYG;2007-05-31 17:00;METAR CYYG 311700Z 35010G16KT 15SM BKN012 08/04 A3023 RMK SC7 SLP238=
CYYG;2007-05-31 18:00;METAR CYYG 311800Z 01010G15KT 15SM BKN012 07/03 A3024 RMK SC7 SLP241=
CYYG;2007-05-31 19:00;METAR CYYG 311900Z 03009KT 15SM BKN014 08/04 A3022 RMK SC6 SLP236=
CYYG;2007-05-31 20:00;METAR CYYG 312000Z 36007KT 15SM BKN014 07/03 A3022 RMK SC7 SLP234=
CYYG;2007-05-31 21:00;METAR CYYG 312100Z 35006KT 15SM SCT015 BKN250 07/03 A3020 RMK SC3CI1 SLP229=
CYYG;2007-05-31 22:00;METAR CYYG 312200Z 01007KT 15SM FEW015 SCT250 07/03 A3019 RMK SC2CI1 SLP226=
CYYG;2007-05-31 23:00;METAR CYYG 312300Z 02005KT 15SM SCT009 BKN300 05/02 A3020 RMK SC3CI0 SLP228=
CYYG;2007-06-01 00:00;METAR CYYG 010000Z 01004KT 15SM FEW006 FEW300 04/02 A3018 RMK SF2CI0 SLP221=
CYYG;2007-06-01 00:14;SPECI CYYG 010014Z 00000KT 15SM BKN006 BKN300 04/ RMK SF6CI0=
CYYG;2007-06-01 00:25;SPECI CYYG 010025Z 11003KT 15SM BKN004 04/ RMK SF7=
CYYG;2007-06-01 01:00;METAR CYYG 010100Z 00000KT 15SM FEW003 BKN300 04/01 A3018 RMK SF2CI0 SLP221=
CYYG;2007-06-01 01:12;SPECI CYYG 010112Z 05003KT 15SM BKN003 04/ RMK SF6=
CYYG;2007-06-01 01:27;SPECI CYYG 010127Z 06002KT 15SM FEW003 04/ RMK SF2=
CYYG;2007-06-01 02:00;METAR CYYG 010200Z 01002KT 15SM BKN003 03/01 A3017 RMK SF6 SLP217=
CYYG;2007-06-01 03:00;METAR CYYG 010300Z 00000KT 15SM BKN004 03/01 A3015 RMK SF7 SLP212=
CYYG;2007-06-01 04:00;METAR CYYG 010400Z 00000KT 15SM OVC005 04/03 A3014 RMK ST8 SLP208=
CYYG;2007-06-01 05:00;METAR CYYG 010500Z 12004KT 15SM OVC004 05/04 A3012 RMK ST8 SLP202=
CYYG;2007-06-01 06:00;METAR CYYG 010600Z 15005KT 3/4SM R03/3000VP6000FT/U BR VV002 05/03 A3010 RMK FG8 SLP196=
CYYG;2007-06-01 06:24;SPECI CYYG 010624Z 14003KT 1/4SM R03/2000FT/N FG VV002 04/ RMK FG8=
CYYG;2007-06-01 07:00;METAR CYYG 010700Z 14004KT 1/4SM R03/1600V2200FT/N FG VV001 04/03 A3009 RMK FG8 SLP192=
CYYG;2007-06-01 08:00;METAR CYYG 010800Z 14005KT 1/8SM R03/1200FT/N FG VV001 04/03 A3007 RMK FG8 SLP185=
CYYG;2007-06-01 09:00;METAR CYYG 010900Z 17006KT 1/8SM R03/1400FT/N FG VV001 04/03 A3004 RMK FG8 SLP175=
CYYG;2007-06-01 09:49;SPECI CYYG 010949Z 18008KT 3/4SM R03/2000V5500FT/U BR BKN100 06/ RMK FG6AC1=
CYYG;2007-06-01 10:00;METAR CYYG 011000Z 18006KT 3/4SM R03/3500VP6000FT/U BR BKN002 BKN100 06/05 A3003 RMK FG2SF3AC2 SLP169=
CYYG;2007-06-01 10:46;SPECI CYYG 011046Z 19008KT 3SM BR BKN003 BKN100 08/ RMK SF5AC2=
CYYG;2007-06-01 11:00;METAR CYYG 011100Z 19008KT 15SM SCT004 BKN100 BKN320 08/06 A3002 RMK SF2AC1CI0 SLP166=
CYYG;2007-06-01 12:00;METAR CYYG 011200Z 20008KT 15SM FEW006 FEW130 BKN320 10/06 A2999 RMK SF1AC1CI1 CC ASOCTD SLP157=
CYYG;2007-06-01 13:00;METAR CYYG 011300Z 20008KT 15SM FEW010 FEW130 BKN320 13/08 A2997 RMK CF1AC1CI1 CC ASOCTD CONTRAILS SLP150=
CYYG;2007-06-01 14:00;METAR CYYG 011400Z 21009KT 15SM FEW015 FEW120 BKN320 14/08 A2993 RMK CF1AC1CI1 CONTRAILS SLP138=
CYYG;2007-06-01 15:00;METAR CYYG 011500Z 21011KT 15SM FEW020 FEW120 BKN320 16/09 A2991 RMK CU1AC1CI1 CONTRAILS SLP129=
CYYG;2007-06-01 16:00;METAR CYYG 011600Z 22010G16KT 15SM FEW030 FEW120 BKN320 18/08 A2987 RMK CU1AC1CI1 CONTRAILS SLP117=
CYYG;2007-06-01 17:00;METAR CYYG 011700Z 20013KT 15SM FEW030 FEW120 SCT320 18/08 A2984 RMK CU1AC1CI1 CONTRAILS SLP107=
CYYG;2007-06-01 18:00;METAR CYYG 011800Z 23014KT 15SM FEW040 FEW120 FEW320 20/07 A2982 RMK CU1AC1CI0 SLP097=
CYYG;2007-06-01 19:00;METAR CYYG 011900Z 24012G20KT 15SM FEW040 FEW120 20/10 A2979 RMK CU1AC1 SLP089=
CYYG;2007-06-01 20:00;METAR CYYG 012000Z 25016G24KT 15SM FEW030 FEW120 19/11 A2978 RMK CU1AC1 SLP085=
CYYG;2007-06-01 21:00;METAR CYYG 012100Z 23016G24KT 15SM FEW030 FEW080 18/11 A2976 RMK CU1AC1 SLP079=
CYYG;2007-06-01 22:00;METAR CYYG 012200Z 25019G24KT 15SM FEW030 FEW060 16/11 A2976 RMK CF1SC1 SLP077=
CYYG;2007-06-01 23:00;METAR CYYG 012300Z 24013G18KT 15SM FEW030 FEW100 14/11 A2976 RMK SC1AC2 SLP079=
CYYG;2007-06-02 00:00;METAR CYYG 020000Z 24009KT 15SM FEW030 BKN110 BKN300 14/11 A2977 RMK SC1AC4CI0 SLP082=
CYYG;2007-06-02 01:00;METAR CYYG 020100Z 24012KT 15SM FEW030 FEW100 13/11 A2977 RMK SC1AC2 SLP080=
CYYG;2007-06-02 02:00;METAR CYYG 020200Z 24009KT 15SM FEW030 FEW100 12/11 A2977 RMK SC1AC1 SLP081=
CYYG;2007-06-02 03:00;METAR CYYG 020300Z 26006KT 15SM FEW040 11/11 A2979 RMK SC2 SLP087=
CYYG;2007-06-02 03:18;SPECI CYYG 020318Z 35004KT 15SM BKN008 11/ RMK SF7=
CYYG;2007-06-02 03:27;SPECI CYYG 020327Z 34004KT 15SM FEW005 FEW022 SCT039 11/ RMK SF2SC1SC1=
CYYG;2007-06-02 04:00;METAR CYYG 020400Z 00000KT 15SM FEW028 11/10 A2980 RMK SC1 SLP093=
CYYG;2007-06-02 05:00;METAR CYYG 020500Z 00000KT 15SM MIFG FEW300 09/09 A2981 RMK CI0 SLP094=
CYYG;2007-06-02 06:00;METAR CYYG 020600Z 34007KT 15SM FEW300 09/09 A2982 RMK CI0 SLP097=
CYYG;2007-06-02 07:00;METAR CYYG 020700Z 35006KT 15SM FEW300 08/07 A2984 RMK CI1 SLP105=
CYYG;2007-06-02 08:00;METAR CYYG 020800Z 35009KT 15SM FEW030 FEW100 SCT300 07/05 A2985 RMK SC1AC1CI0 SLP110=
CYYG;2007-06-02 08:21;SPECI CYYG 020821Z 36006KT 15SM FEW005 BKN300 07/ RMK SF1CI1=
CYYG;2007-06-02 08:36;SPECI CYYG 020836Z 01009KT 15SM BKN005 BKN300 07/ RMK SF5CI1=
CYYG;2007-06-02 08:47;SPECI CYYG 020847Z 01009KT 15SM BKN004 07/ RMK ST7 VIS LWR NW-E=
CYYG;2007-06-02 09:00;METAR CYYG 020900Z 02011KT 15SM BKN003 07/06 A2988 RMK ST7 VIS N-E 3 SLP120=
CYYG;2007-06-02 09:06;SPECI CYYG 020906Z 01012KT 1SM R03/P6000FT/N BR OVC003 06/ RMK ST8 VIS S-SW 10=
CYYG;2007-06-02 09:17;SPECI CYYG 020917Z 02011KT 1/4SM R03/P6000FT/D FG OVC002 06/ RMK FG6ST2=
CYYG;2007-06-02 09:42;SPECI CYYG 020942Z 02012KT 1SM R03/P6000FT/U BR OVC002 06/ RMK ST8=
CYYG;2007-06-02 10:00;METAR CYYG 021000Z 02011KT 1 1/2SM BR OVC002 06/06 A2992 RMK ST8 SLP132=
CYYG;2007-06-02 10:06;SPECI CYYG 021006Z 03012G18KT 6SM BR OVC006 06/ RMK ST8=
CYYG;2007-06-02 10:15;SPECI CYYG 021015Z 02013KT 15SM BKN005 07/ RMK SF6=
CYYG;2007-06-02 10:30;SPECI CYYG 021030Z 03012KT 15SM SCT005 SCT300 07/ RMK SF3CI1=
CYYG;2007-06-02 11:00;METAR CYYG 021100Z 02014KT 15SM FEW008 FEW100 FEW300 09/04 A2994 RMK CF1AC1CI1 SLP140=
CYYG;2007-06-02 12:00;METAR CYYG 021200Z 03015KT 15SM FEW010 FEW300 09/02 A2996 RMK CF1CI1 SLP147=
CYYG;2007-06-02 13:00;METAR CYYG 021300Z 04014KT 15SM FEW012 FEW300 10/02 A2998 RMK CF1CI1 SLP154=
CYYG;2007-06-02 14:00;METAR CYYG 021400Z 03013KT 15SM FEW015 FEW300 11/01 A2999 RMK CF1CI1 SLP157=
CYYG;2007-06-02 15:00;METAR CYYG 021500Z 04010G16KT 15SM FEW020 FEW300 10/01 A3000 RMK CF1CI1 SLP161=
CYYG;2007-06-02 16:00;METAR CYYG 021600Z 01008G15KT 15SM FEW020 SCT300 11/01 A3002 RMK CF1CI1 CONTRAILS SLP166=
CYYG;2007-06-02 17:00;METAR CYYG 021700Z 01008KT 15SM FEW020 SCT300 12/01 A3002 RMK CF1CI1 CONTRAILS SLP168=
CYYG;2007-06-02 18:00;METAR CYYG 021800Z 04008KT 15SM FEW020 SCT300 11/M00 A3003 RMK SF1CI1 SLP169=
CYYG;2007-06-02 19:00;METAR CYYG 021900Z 04007KT 15SM BKN300 11/M01 A3003 RMK CI2 SLP170=
CYYG;2007-06-02 20:00;METAR CYYG 022000Z 07009KT 15SM BKN300 11/M02 A3003 RMK CI3 SLP170=
CYYG;2007-06-02 21:00;METAR CYYG 022100Z 08006KT 15SM BKN300 11/M01 A3003 RMK CI3 SLP170=
CYYG;2007-06-02 22:00;METAR CYYG 022200Z 11005KT 15SM BKN300 11/M00 A3004 RMK CI2 SLP172=
CYYG;2007-06-02 23:00;METAR CYYG 022300Z 06005KT 15SM FEW170 BKN300 09/00 A3004 RMK AC2CI2 SLP175=
CYYG;2007-06-03 00:00;METAR CYYG 030000Z 07005KT 15SM BKN150 BKN300 08/00 A3005 RMK AC5CI0 SLP176=
CYYG;2007-06-03 01:00;METAR CYYG 030100Z 07006KT 15SM BKN130 BKN300 07/00 A3006 RMK AC6CI0 SLP179=
CYYG;2007-06-03 02:00;METAR CYYG 030200Z 10004KT 15SM BKN140 07/M00 A3006 RMK AC7 SLP182=
CYYG;2007-06-03 03:00;METAR CYYG 030300Z 00000KT 15SM BKN140 06/00 A3008 RMK AC6 SLP187=
CYYG;2007-06-03 04:00;METAR CYYG 030400Z 11005KT 15SM FEW140 BKN300 05/M01 A3008 RMK AC2CI1 SLP186=
CYYG;2007-06-03 05:00;METAR CYYG 030500Z 07003KT 15SM BKN170 04/M00 A3007 RMK AC6 SLP185=
CYYG;2007-06-03 06:00;METAR CYYG 030600Z 05006KT 15SM BKN077 BKN170 03/M01 A3007 RMK AC5AC2 SLP185=
CYYG;2007-06-03 07:00;METAR CYYG 030700Z 07004KT 15SM BKN076 04/M00 A3008 RMK AC6 SLP187=
CYYG;2007-06-03 08:00;METAR CYYG 030800Z 03003KT 15SM FEW076 SCT140 03/M00 A3008 RMK AC2AC2 SLP187=
CYYG;2007-06-03 09:00;METAR CYYG 030900Z 03003KT 15SM BKN071 BKN160 04/01 A3009 RMK AC5AC1 SLP189=
CYYG;2007-06-03 10:00;METAR CYYG 031000Z 07003KT 15SM FEW068 BKN150 05/02 A3009 RMK AC2AC2 SLP192=
CYYG;2007-06-03 11:00;METAR CYYG 031100Z 09005KT 15SM BKN068 BKN150 07/03 A3011 RMK AC5AC2 SLP197=
CYYG;2007-06-03 12:00;METAR CYYG 031200Z 08006KT 15SM SCT067 BKN140 08/02 A3012 RMK AC3AC2 SLP202=
CYYG;2007-06-03 13:00;METAR CYYG 031300Z 07006KT 15SM FEW070 FEW140 SCT330 11/01 A3013 RMK AC1AC2CI0 SLP203=
CYYG;2007-06-03 14:00;METAR CYYG 031400Z 10006KT 15SM FEW330 12/01 A3014 RMK CI1 SLP206=
CYYG;2007-06-03 15:00;METAR CYYG 031500Z 11005KT 15SM FEW330 14/02 A3014 RMK CI1 SLP206=
CYYG;2007-06-03 16:00;METAR CYYG 031600Z 01007KT 15SM FEW035 FEW330 13/04 A3014 RMK CF1CI0 SLP206=
CYYG;2007-06-03 17:00;METAR CYYG 031700Z 04011G16KT 15SM FEW040 FEW330 15/04 A3013 RMK CU1CI0 SLP205=
CYYG;2007-06-03 18:00;METAR CYYG 031800Z 03012KT 15SM FEW040 FEW330 14/03 A3014 RMK CU1CI0 SLP207=
CYYG;2007-06-03 19:00;METAR CYYG 031900Z 04010G15KT 15SM FEW040 SCT330 14/02 A3013 RMK CU1CI0 SLP204=
CYYG;2007-06-03 20:00;METAR CYYG 032000Z 04011KT 15SM FEW040 SCT330 15/02 A3013 RMK CU1CI0 SLP205=
CYYG;2007-06-03 21:00;METAR CYYG 032100Z 04010KT 15SM FEW040 SCT330 14/02 A3012 RMK CU1CI0 SLP199=
CYYG;2007-06-03 22:00;METAR CYYG 032200Z 07009KT 15SM SCT330 13/01 A3013 RMK CI1 SLP203=
CYYG;2007-06-03 23:00;METAR CYYG 032300Z 08007KT 15SM FEW330 12/01 A3014 RMK CI1 SLP206=
CYYG;2007-06-04 00:00;METAR CYYG 040000Z 00000KT 15SM FEW330 09/01 A3016 RMK CI1 CONTRAILS SLP213=
CYYG;2007-06-04 01:00;METAR CYYG 040100Z 11004KT 15SM FEW330 08/01 A3018 RMK CI0 SLP220=
CYYG;2007-06-04 02:00;METAR CYYG 040200Z 09006KT 15SM SKC 07/00 A3018 RMK SLP222=
CYYG;2007-06-04 03:00;METAR CYYG 040300Z 12005KT 15SM FEW300 06/01 A3018 RMK CI0 SLP221=
CYYG;2007-06-04 04:00;METAR CYYG 040400Z 14005KT 15SM SKC 06/02 A3018 RMK SLP221=
CYYG;2007-06-04 05:00;METAR CYYG 040500Z 15006KT 15SM SKC 06/03 A3017 RMK SLP217=
CYYG;2007-06-04 06:00;METAR CYYG 040600Z 16009KT 15SM SKC 07/02 A3017 RMK SLP218=
CYYG;2007-06-04 07:00;METAR CYYG 040700Z 17008KT 15SM FEW280 06/02 A3017 RMK CI1 SLP218=
CYYG;2007-06-04 08:00;METAR CYYG 040800Z 16009KT 15SM FEW160 FEW280 06/02 A3016 RMK AC1CI1 SLP215=
CYYG;2007-06-04 09:00;METAR CYYG 040900Z 15005KT 15SM FEW140 FEW280 06/03 A3016 RMK AC1CI1 SLP213=
CYYG;2007-06-04 10:00;METAR CYYG 041000Z 15009KT 15SM FEW140 BKN280 08/04 A3015 RMK AC1CI1 SLP212=
CYYG;2007-06-04 11:00;METAR CYYG 041100Z 15007KT 15SM FEW140 BKN330 09/04 A3016 RMK AC1CI1 CONTRAILS SLP214=
CYYG;2007-06-04 12:00;METAR CYYG 041200Z 16008KT 15SM FEW100 BKN330 10/05 A3015 RMK AC1CI2 SLP212=
CYYG;2007-06-04 13:00;METAR CYYG 041300Z 15008KT 15SM FEW100 BKN330 13/05 A3015 RMK AC1CI1 CONTRAILS SLP210=
CYYG;2007-06-04 14:00;METAR CYYG 041400Z 17010G15KT 15SM SCT090 BKN330 13/05 A3013 RMK AC3CI0 SLP203=
CYYG;2007-06-04 15:00;METAR CYYG 041500Z 16011KT 15SM BKN100 OVC330 14/05 A3012 RMK AC6CI0 SLP199=
CYYG;2007-06-04 16:00;METAR CYYG 041600Z 16014KT 15SM FEW080 BKN100 OVC330 15/03 A3010 RMK AC2AC6CI0 SLP193=
CYYG;2007-06-04 17:00;METAR CYYG 041700Z 13013KT 15SM BKN036 OVC080 14/04 A3008 RMK SC6AC2 SLP186=
CYYG;2007-06-04 18:00;METAR CYYG 041800Z 14013KT 15SM OVC040 14/04 A3005 RMK SC8 SLP178=
CYYG;2007-06-04 19:00;METAR CYYG 041900Z 14013G18KT 15SM OVC032 14/04 A3004 RMK SC8 SLP173=
CYYG;2007-06-04 20:00;METAR CYYG 042000Z 14015G22KT 15SM OVC030 15/08 A3001 RMK SC8 SLP163=
CYYG;2007-06-04 21:00;METAR CYYG 042100Z 13012G18KT 15SM BKN020 BKN140 OVC300 14/09 A2999 RMK SC7AC1CI0 SLP157=
CYYG;2007-06-04 22:00;METAR CYYG 042200Z 12013G18KT 15SM OVC017 13/08 A2997 RMK SC8 SLP150=
CYYG;2007-06-04 23:00;METAR CYYG 042300Z 13013G18KT 15SM BKN017 OVC076 12/08 A2996 RMK SC6AC2 SLP145=
CYYG;2007-06-04 23:14;SPECI CYYG 042314Z 13014KT 15SM -SHRA BKN017 BKN039 OVC070 11/ RMK SC6SC1AC2=
CYYG;2007-06-05 00:00;METAR CYYG 050000Z 13013KT 15SM -SHRA BKN008 OVC019 11/09 A2994 RMK SF6SC2 SLP139=
CYYG;2007-06-05 00:10;SPECI CYYG 050010Z 13012KT 12SM -SHRA SCT009 OVC017 11/ RMK SF4SC4=
CYYG;2007-06-05 01:00;METAR CYYG 050100Z 13012KT 10SM -SHRA OVC008 11/09 A2993 RMK SF8 SLP135=
CYYG;2007-06-05 02:00;METAR CYYG 050200Z 12011G17KT 10SM -SHRA OVC007 11/09 A2990 RMK SF8 SLP127=
CYYG;2007-06-05 02:21;SPECI CYYG 050221Z 13010G16KT 12SM OVC007 11/ RMK SF8=
CYYG;2007-06-05 03:00;METAR CYYG 050300Z 12011KT 12SM OVC007 11/09 A2987 RMK SF8 SLP117=
CYYG;2007-06-05 03:13;SPECI CYYG 050313Z 12011KT 10SM -SHRA OVC007 10/ RMK SF8=
CYYG;2007-06-05 04:00;METAR CYYG 050400Z 12010G18KT 6SM -SHRA OVC004 10/09 A2984 RMK SF8 SLP106=
CYYG;2007-06-05 05:00;METAR CYYG 050500Z 12011G19KT 12SM -SHRA OVC004 11/10 A2980 RMK SF8 SLP093=
CYYG;2007-06-05 06:00;METAR CYYG 050600Z 13012G18KT 12SM -SHRA OVC004 11/10 A2976 RMK SF8 SLP077=
CYYG;2007-06-05 07:00;METAR CYYG 050700Z 13017G24KT 12SM -SHRA BKN006 OVC021 12/11 A2971 RMK SF6SC2 SLP061=
CYYG;2007-06-05 08:00;METAR CYYG 050800Z 13013KT 15SM BKN006 13/11 A2968 RMK SF7 SLP052=
CYYG;2007-06-05 08:21;SPECI CYYG 050821Z 12014G19KT 15SM SCT006 OVC012 13/ RMK SF4SC4=
CYYG;2007-06-05 09:00;METAR CYYG 050900Z 13014G21KT 15SM OVC008 14/13 A2966 RMK SF8 SLP043=
CYYG;2007-06-05 09:46;SPECI CYYG 050946Z 13013G21KT 15SM OVC005 14/ RMK SF8=
CYYG;2007-06-05 10:00;METAR CYYG 051000Z 13014G19KT 12SM OVC004 14/13 A2963 RMK SF8 SLP035=
CYYG;2007-06-05 10:24;SPECI CYYG 051024Z 13013G19KT 10SM OVC003 14/ RMK SF8=
CYYG;2007-06-05 10:54;SPECI CYYG 051054Z 15015KT 5SM -SHRA BR OVC003 15/ RMK SF8 VIS HIER N=
CYYG;2007-06-05 11:00;METAR CYYG 051100Z 15015KT 5SM -SHRA BR OVC003 15/14 A2962 RMK SF8 CIG RAG VIS HIER N SLP030=
CYYG;2007-06-05 12:00;METAR CYYG 051200Z 15018KT 6SM -SHRA BKN005 OVC012 16/15 A2959 RMK SF5SC3 SLP020=
CYYG;2007-06-05 12:32;SPECI CYYG 051232Z 16021G27KT 12SM SCT005 OVC015 16/ RMK SF3SC5=
CYYG;2007-06-05 13:00;METAR CYYG 051300Z 16020KT 15SM FEW005 BKN011 BKN240 17/15 A2958 RMK SF2SC3CI1 SLP017=
CYYG;2007-06-05 14:00;METAR CYYG 051400Z 17017G24KT 15SM FEW007 BKN011 BKN018 17/15 A2960 RMK SF2SC3SC2 SLP023=
CYYG;2007-06-05 15:00;METAR CYYG 051500Z 18018KT 15SM BKN020 BKN240 19/16 A2960 RMK SC5CI0 SLP023=
CYYG;2007-06-05 16:00;METAR CYYG 051600Z 19015G21KT 15SM BKN021 19/16 A2961 RMK SC7 SLP029=
CYYG;2007-06-05 17:00;METAR CYYG 051700Z 20014G19KT 15SM BKN025 20/15 A2963 RMK SC7 SLP034=
CYYG;2007-06-05 18:00;METAR CYYG 051800Z 19015G20KT 15SM BKN030 21/17 A2963 RMK SC6 SLP034=
CYYG;2007-06-05 19:00;METAR CYYG 051900Z 18016KT 15SM FEW030 BKN240 22/17 A2963 RMK SC2CI3 SLP035=
CYYG;2007-06-05 20:00;METAR CYYG 052000Z 18015KT 10SM FEW040 BKN240 22/17 A2963 RMK SC2CI3=
CYYG;2007-06-05 21:00;METAR CYYG 052100Z 17013G18KT 10SM FEW040 BKN240 22/17 A2963 RMK SC1CI2=
CYYG;2007-06-05 22:00;METAR CYYG 052200Z 18017G22KT 10SM BKN240 21/17 A2963 RMK CI2 HAZY SLP034=
CYYG;2007-06-05 23:00;METAR CYYG 052300Z 18016G24KT 25SM BKN240 20/17 A2965 RMK CI2 SLP040=
CYYG;2007-06-06 00:00;METAR CYYG 060000Z 17012G17KT 10SM BKN160 OVC240 18/16 A2967 RMK AC3CI2 SLP046=
CYYG;2007-06-06 01:00;METAR CYYG 060100Z 17013KT 10SM BKN019 OVC110 18/16 A2968 RMK SC6AC2 SLP050=
CYYG;2007-06-06 02:00;METAR CYYG 060200Z 17011KT 10SM BKN008 OVC014 17/15 A2968 RMK SF6SC2 SLP051=
CYYG;2007-06-06 03:00;METAR CYYG 060300Z 17011KT 10SM BKN005 OVC031 16/15 A2969 RMK SF6SC2 SLP052=
CYYG;2007-06-06 04:00;METAR CYYG 060400Z 16014KT 15SM SCT006 BKN062 BKN240 16/15 A2967 RMK SC3SC2CI1 SLP047=
CYYG;2007-06-06 06:00;METAR CYYG 060600Z 18011KT 10SM FEW008 15/14 A2968 RMK SF2 SLP049=
CYYG;2007-06-06 07:00;METAR CYYG 060700Z 18011KT 10SM OVC008 15/14 A2966 RMK SF8 SLP043=
CYYG;2007-06-06 08:00;METAR CYYG 060800Z 18016KT 6SM BR BKN008 OVC011 15/14 A2966 RMK SF6SC2 SLP044=
CYYG;2007-06-06 09:00;METAR CYYG 060900Z 17012G17KT 6SM BR BKN010 BKN019 16/15 A2967 RMK SF6SC2 SLP048=
CYYG;2007-06-06 10:00;METAR CYYG 061000Z 18014KT 10SM FEW010 BKN019 16/15 A2967 RMK SF2SC3 SLP046=
CYYG;2007-06-06 10:22;SPECI CYYG 061022Z 17013KT 10SM BKN008 OVC015 17/ RMK SF5SC2=
CYYG;2007-06-06 11:00;METAR CYYG 061100Z 18014KT 10SM BKN007 OVC012 16/15 A2968 RMK SF6SC2 SLP051=
CYYG;2007-06-06 12:00;METAR CYYG 061200Z 18018KT 8SM BKN009 OVC012 17/15 A2967 RMK SF6SC2 HAZY SLP048=
CYYG;2007-06-06 12:14;SPECI CYYG 061214Z 18017G22KT 8SM SCT009 17/ RMK SF3 HAZY=
CYYG;2007-06-06 13:00;METAR CYYG 061300Z 18017KT 10SM FEW010 19/16 A2968 RMK SF2 HAZY SLP049=
CYYG;2007-06-06 14:00;METAR CYYG 061400Z 18018KT 12SM FEW010 FEW250 19/16 A2968 RMK SC1CI1=
CYYG;2007-06-06 15:00;METAR CYYG 061500Z 18014KT 12SM SCT250 21/16 A2968 RMK CI1 HAZY SLP051=
CYYG;2007-06-06 16:00;METAR CYYG 061600Z 19015G20KT 12SM SCT250 23/17 A2968 RMK CI1 HAZY SLP049=
CYYG;2007-06-06 17:00;METAR CYYG 061700Z 19016KT 12SM SCT250 25/17 A2967 RMK CI1 HAZY SLP048=
CYYG;2007-06-06 18:00;METAR CYYG 061800Z 19013KT 15SM FEW040 SCT250 26/17 A2966 RMK CU1CI1=
CYYG;2007-06-06 19:00;METAR CYYG 061900Z 18012G17KT 12SM FEW060 SCT250 25/17 A2966 RMK CU1CI1=
CYYG;2007-06-06 20:00;METAR CYYG 062000Z 18008KT 12SM SCT050 BKN250 25/17 A2965 RMK SC3CI2=
CYYG;2007-06-06 21:00;METAR CYYG 062100Z 25008KT 15SM SCT052 BKN250 24/14 A2966 RMK SC3CI0 SLP042=
CYYG;2007-06-06 22:00;METAR CYYG 062200Z 26004KT 15SM SCT050 BKN083 BKN250 22/14 A2966 RMK SC3AC2CI1 SLP043=
CYYG;2007-06-06 23:00;METAR CYYG 062300Z 25003KT 15SM BKN042 BKN077 22/14 A2967 RMK SC5AC1 SLP047=
CYYG;2007-06-07 00:00;METAR CYYG 070000Z 24007KT 15SM -SHRA BKN044 21/13 A2968 RMK SC7 SLP050=
CYYG;2007-06-07 00:48;SPECI CYYG 070048Z 17004KT 15SM BKN050 19/ RMK SC6=
CYYG;2007-06-07 01:00;METAR CYYG 070100Z 17004KT 15SM BKN042 19/15 A2969 RMK SC6 SLP054=
CYYG;2007-06-07 02:00;METAR CYYG 070200Z 24005KT 15SM SCT035 BKN051 18/13 A2968 RMK SC3SC4 SLP050=
CYYG;2007-06-07 03:00;METAR CYYG 070300Z 32005KT 15SM SCT038 BKN050 BKN160 17/13 A2968 RMK SC3SC2AC2 SLP049=
CYYG;2007-06-07 04:00;METAR CYYG 070400Z 01002KT 15SM BKN038 16/14 A2968 RMK SC7 SLP050=
CYYG;2007-06-07 05:00;METAR CYYG 070500Z 00000KT 8SM -RA OVC028 15/14 A2968 RMK SC8 SLP051=
CYYG;2007-06-07 06:00;METAR CYYG 070600Z 32008KT 12SM -RA OVC032 15/14 A2966 RMK SC8 SLP042=
CYYG;2007-06-07 07:00;METAR CYYG 070700Z 34013G19KT 15SM -RA OVC036 12/11 A2963 RMK SC8 SLP032=
CYYG;2007-06-07 07:48;SPECI CYYG 070748Z 36010G17KT 2 1/2SM -SHRA BR BKN004 OVC032 11/ RMK SF6SC2=
CYYG;2007-06-07 08:00;METAR CYYG 070800Z 35014G19KT 2SM -SHRA BR OVC003 11/10 A2961 RMK SF8 SLP026=
CYYG;2007-06-07 08:33;SPECI CYYG 070833Z 32007KT 4SM -SHRA BR OVC003 10/ RMK SF8=
CYYG;2007-06-07 09:00;METAR CYYG 070900Z 34011KT 2SM -SHRA BR OVC004 09/09 A2964 RMK SF8 SLP038=
CYYG;2007-06-07 10:00;METAR CYYG 071000Z 34012G21KT 2SM -SHRA BR BKN004 OVC016 08/07 A2968 RMK SF6SC2 SLP051=
CYYG;2007-06-07 10:30;SPECI CYYG 071030Z 33014G25KT 6SM -SHRA BR SCT004 OVC016 08/ RMK SF4SC4=
CYYG;2007-06-07 11:00;METAR CYYG 071100Z 35011G20KT 5SM -SHRA BR BKN006 OVC016 08/08 A2971 RMK SF5SC3 SLP059=
CYYG;2007-06-07 12:00;METAR CYYG 071200Z 33014G26KT 3SM -SHRA BR BKN007 OVC018 09/08 A2971 RERA RMK SF6SC2 /R16/ SLP063=
CYYG;2007-06-07 13:00;METAR CYYG 071300Z 31012G21KT 5SM -SHRA BR BKN007 OVC012 09/08 A2974 RMK SF6SC2 SLP070=
CYYG;2007-06-07 13:15;SPECI CYYG 071315Z 31012G19KT 8SM -SHRA OVC010 09/ RMK SF8=
CYYG;2007-06-07 14:00;METAR CYYG 071400Z 33014KT 12SM -SHRA BKN012 OVC018 09/08 A2976 RMK SF6SC2 SLP077=
CYYG;2007-06-07 14:06;SPECI CYYG 071406Z 31013G19KT 15SM BKN014 OVC030 10/ RMK SC6SC2=
CYYG;2007-06-07 14:16;SPECI CYYG 071416Z 32013G20KT 15SM SCT014 OVC024 10/ RMK SC4SC4=
CYYG;2007-06-07 15:00;METAR CYYG 071500Z 31011G16KT 15SM SCT017 OVC026 10/08 A2978 RMK SC3SC5 SLP084=
CYYG;2007-06-07 16:00;METAR CYYG 071600Z 31014G20KT 15SM FEW011 BKN048 12/09 A2980 RMK SC2SC4 SLP092=
CYYG;2007-06-07 17:00;METAR CYYG 071700Z 31009G16KT 15SM FEW014 OVC042 11/08 A2983 RMK SC2SC6 SLP103=
CYYG;2007-06-07 17:29;SPECI CYYG 071729Z 30008KT 15SM BKN015 OVC042 11/ RMK SC5SC3=
CYYG;2007-06-07 18:00;METAR CYYG 071800Z 31007KT 15SM BKN019 OVC040 12/09 A2984 RMK SC6SC2 SLP105=
CYYG;2007-06-07 19:00;METAR CYYG 071900Z 32005KT 15SM FEW019 BKN036 13/08 A2984 RMK SC2SC3 SLP105=
CYYG;2007-06-07 20:00;METAR CYYG 072000Z 30005KT 15SM FEW019 SCT035 15/09 A2985 RMK SC2SC2 SLP107=
CYYG;2007-06-07 21:00;METAR CYYG 072100Z 33003KT 15SM FEW020 SCT080 15/08 A2985 RMK SC1AC3 SLP108=
CYYG;2007-06-07 22:00;METAR CYYG 072200Z 00000KT 15SM FEW020 FEW080 SCT250 15/08 A2985 RMK SC1AC1CI1 SLP110=
CYYG;2007-06-07 23:00;METAR CYYG 072300Z 09004KT 15SM FEW080 SCT280 13/08 A2988 RMK AC1CI2 SLP119=
CYYG;2007-06-08 00:00;METAR CYYG 080000Z 00000KT 15SM BKN081 12/08 A2990 RMK AC3 SLP127=
CYYG;2007-06-08 01:00;METAR CYYG 080100Z 00000KT 15SM SCT080 10/07 A2992 RMK AC2 SLP133=
CYYG;2007-06-08 02:00;METAR CYYG 080200Z 00000KT 15SM FEW080 11/08 A2993 RMK AC2 SLP138=
CYYG;2007-06-08 03:00;METAR CYYG 080300Z 20004KT 15SM FEW080 10/07 A2994 RMK AC2 SLP139=
CYYG;2007-06-08 04:00;METAR CYYG 080400Z 20003KT 15SM SKC 09/07 A2993 RMK SLP138=
CYYG;2007-06-08 05:00;METAR CYYG 080500Z 22005KT 15SM SKC 09/08 A2993 RMK SLP138=
CYYG;2007-06-08 06:00;METAR CYYG 080600Z 22005KT 15SM SKC 09/08 A2994 RMK SLP139=
CYYG;2007-06-08 07:00;METAR CYYG 080700Z 24002KT 15SM SKC 08/07 A2996 RMK SLP145=
CYYG;2007-06-08 08:00;METAR CYYG 080800Z 22004KT 15SM FEW080 08/07 A2998 RMK AC1 SLP152=
CYYG;2007-06-08 09:00;METAR CYYG 080900Z 00000KT 15SM FEW080 08/07 A3000 RMK AC1 SLP160=
CYYG;2007-06-08 10:00;METAR CYYG 081000Z 32003KT 15SM FEW100 10/08 A3000 RMK AC1 SLP160=
CYYG;2007-06-08 11:00;METAR CYYG 081100Z 34005KT 15SM FEW310 12/08 A3002 RMK CI1 SLP168=
CYYG;2007-06-08 12:00;METAR CYYG 081200Z 35005KT 15SM FEW310 14/07 A3001 RMK CI1 SLP165=
CYYG;2007-06-08 13:00;METAR CYYG 081300Z 35006KT 15SM FEW310 15/06 A3002 RMK CI1 SLP166=
CYYG;2007-06-08 14:00;METAR CYYG 081400Z 02007KT 15SM FEW310 16/07 A3002 RMK CI1 SLP167=
CYYG;2007-06-08 15:00;METAR CYYG 081500Z 33005KT 15SM FEW030 FEW310 17/08 A3003 RMK CU1CI1 SLP171=
CYYG;2007-06-08 16:00;METAR CYYG 081600Z 32004KT 15SM FEW030 FEW310 17/07 A3004 RMK CU1CI1 SLP172=
CYYG;2007-06-08 17:00;METAR CYYG 081700Z 02006KT 15SM FEW030 FEW310 17/07 A3002 RMK CU1CI1 SLP168=
CYYG;2007-06-08 18:00;METAR CYYG 081800Z 02005KT 15SM FEW030 FEW310 18/07 A3002 RMK CU1CI1 SLP167=
CYYG;2007-06-08 19:00;METAR CYYG 081900Z 03006KT 15SM FEW310 18/07 A3001 RMK CI1 SLP163=
CYYG;2007-06-08 20:00;METAR CYYG 082000Z 03005KT 15SM BKN310 18/06 A3000 RMK CI1 SLP159=
CYYG;2007-06-08 21:00;METAR CYYG 082100Z 04004KT 15SM SCT310 18/06 A2998 RMK CI1 SLP154=
CYYG;2007-06-08 22:00;METAR CYYG 082200Z 05004KT 15SM FEW310 17/06 A2998 RMK CI1 SLP154=
CYYG;2007-06-08 23:00;METAR CYYG 082300Z 06003KT 15SM FEW310 16/06 A3000 RMK CI0 SLP159=
CYYG;2007-06-09 00:00;METAR CYYG 090000Z 00000KT 15SM FEW100 FEW310 14/07 A2999 RMK AC1CI0 SLP155=
CYYG;2007-06-09 01:00;METAR CYYG 090100Z 00000KT 15SM FEW310 13/08 A3000 RMK CI0 SLP160=
CYYG;2007-06-09 02:00;METAR CYYG 090200Z 12004KT 15SM FEW310 11/08 A2999 RMK CI0 SLP155=
CYYG;2007-06-09 03:00;METAR CYYG 090300Z 10003KT 15SM SKC 10/06 A2997 RMK SLP149=
CYYG;2007-06-09 04:00;METAR CYYG 090400Z 13004KT 15SM SKC 11/06 A2998 RMK SLP154=
CYYG;2007-06-09 05:00;METAR CYYG 090500Z 19002KT 15SM SKC 10/06 A3000 RMK SLP158=
CYYG;2007-06-09 06:00;METAR CYYG 090600Z 00000KT 15SM SKC 09/06 A2999 RMK SLP157=
CYYG;2007-06-09 07:00;METAR CYYG 090700Z 27003KT 15SM SKC 09/06 A3001 RMK SLP162=
CYYG;2007-06-09 08:00;METAR CYYG 090800Z 00000KT 15SM FEW020 FEW300 08/05 A3000 RMK SC1CI0 SLP160=
CYYG;2007-06-09 09:00;METAR CYYG 090900Z 31002KT 15SM FEW020 07/06 A3001 RMK SC1 SLP164=
CYYG;2007-06-09 10:00;METAR CYYG 091000Z 00000KT 15SM BKN010 11/09 A3002 RMK ST2 SLP168=
CYYG;2007-06-09 10:03;SPECI CYYG 091003Z 00000KT 15SM FEW007 BKN010 11/ RMK SF2ST4=
CYYG;2007-06-09 10:15;SPECI CYYG 091015Z 12003KT 15SM BKN007 11/ RMK ST7=
CYYG;2007-06-09 10:30;SPECI CYYG 091030Z 14004KT 15SM BKN005 12/ RMK ST7=
CYYG;2007-06-09 11:00;METAR CYYG 091100Z 15006KT 12SM OVC005 13/11 A3004 RMK SF7 SLP172=
CYYG;2007-06-09 11:08;SPECI CYYG 091108Z 15005KT 15SM BKN007 13/ RMK SF6=
CYYG;2007-06-09 11:20;SPECI CYYG 091120Z 15006KT 15SM FEW008 SCT020 14/ RMK SF2SC1=
CYYG;2007-06-09 12:00;METAR CYYG 091200Z 17012KT 15SM FEW008 SCT020 15/12 A3003 RMK SF2SC1 SLP169=
CYYG;2007-06-09 12:25;SPECI CYYG 091225Z 15012KT 15SM BKN010 17/ RMK SC6=
CYYG;2007-06-09 13:00;METAR CYYG 091300Z 14009G15KT 15SM BKN012 17/14 A3003 RMK SC7 SLP170=
CYYG;2007-06-09 14:00;METAR CYYG 091400Z 16009KT 15SM FEW013 19/15 A3003 RMK SC2 SLP170=
CYYG;2007-06-09 15:00;METAR CYYG 091500Z 15007KT 15SM FEW020 20/15 A3003 RMK SC1 SLP170=
CYYG;2007-06-09 16:00;METAR CYYG 091600Z 16009KT 15SM FEW020 FEW350 21/15 A3003 RMK CF1CI1 CONTRAILS SLP169=
CYYG;2007-06-09 17:00;METAR CYYG 091700Z 16008KT 15SM FEW020 21/15 A3003 RMK CU1 SLP168=
CYYG;2007-06-09 18:00;METAR CYYG 091800Z 15011KT 15SM FEW020 FEW250 23/14 A3002 RMK CU1CI1 SLP165=
CYYG;2007-06-09 19:00;METAR CYYG 091900Z 16008KT 15SM FEW020 FEW250 23/13 A3002 RMK CU1CI1 SLP165=
CYYG;2007-06-09 20:00;METAR CYYG 092000Z 15007KT 15SM FEW020 FEW250 24/13 A3002 RMK CF1CI1 SLP165=
CYYG;2007-06-09 21:00;METAR CYYG 092100Z 15008KT 15SM FEW020 FEW250 24/11 A3002 RMK CF1CI1 SLP165=
CYYG;2007-06-09 22:00;METAR CYYG 092200Z 11008KT 15SM FEW020 FEW250 22/14 A3003 RMK CF1CI1 SLP170=
CYYG;2007-06-09 23:00;METAR CYYG 092300Z 11007KT 15SM SKC 21/13 A3004 RMK SLP173=
CYYG;2007-06-10 00:00;METAR CYYG 100000Z 12004KT 15SM FEW050 19/12 A3005 RMK SC1 SLP177=
CYYG;2007-06-10 01:00;METAR CYYG 100100Z 12005KT 15SM FEW300 17/12 A3008 RMK CI0 SLP186=
CYYG;2007-06-10 02:00;METAR CYYG 100200Z 12006KT 15SM FEW300 15/11 A3009 RMK CI0 SLP190=
CYYG;2007-06-10 03:00;METAR CYYG 100300Z 15004KT 15SM FEW300 16/12 A3010 RMK CI0 SLP192=
CYYG;2007-06-10 04:00;METAR CYYG 100400Z 00000KT 15SM SKC 15/11 A3010 RMK SLP194=
CYYG;2007-06-10 05:00;METAR CYYG 100500Z 00000KT 15SM SKC 14/11 A3009 RMK SLP191=
CYYG;2007-06-10 06:00;METAR CYYG 100600Z 00000KT 15SM SKC 13/11 A3009 RMK SLP188=
CYYG;2007-06-10 07:00;METAR CYYG 100700Z 13006KT 15SM SKC 13/11 A3009 RMK SLP188=
CYYG;2007-06-10 08:00;METAR CYYG 100800Z 13006KT 15SM FEW080 14/12 A3009 RMK AC1 SLP189=
CYYG;2007-06-10 09:00;METAR CYYG 100900Z 10004KT 15SM FEW080 13/11 A3010 RMK AC1 SLP192=
CYYG;2007-06-10 09:44;SPECI CYYG 100944Z 10006KT 15SM FEW005 FEW080 14/ RMK SF1AC1=
CYYG;2007-06-10 10:00;METAR CYYG 101000Z 11007KT 15SM FEW005 FEW100 15/12 A3011 RMK SF1AC1 SLP196=
CYYG;2007-06-10 10:40;SPECI CYYG 101040Z 11007KT 2SM BR BKN002 14/ RMK SF7=
CYYG;2007-06-10 11:00;METAR CYYG 101100Z 08006KT 1 1/2SM BR OVC002 14/12 A3012 RMK SF8 SLP199=
CYYG;2007-06-10 12:00;METAR CYYG 101200Z 07005KT 1 1/2SM BR OVC002 15/14 A3013 RMK SF8 SLP202=
CYYG;2007-06-10 12:10;SPECI CYYG 101210Z 08002KT 8SM OVC003 16/ RMK SF8=
CYYG;2007-06-10 12:22;SPECI CYYG 101222Z 07004KT 10SM OVC005 17/ RMK SF8=
CYYG;2007-06-10 12:39;SPECI CYYG 101239Z 09005KT 15SM OVC006 18/ RMK SF7=
CYYG;2007-06-10 13:00;METAR CYYG 101300Z 05005KT 15SM BKN008 BKN250 19/15 A3013 RMK SF5CI1 SLP202=
CYYG;2007-06-10 13:20;SPECI CYYG 101320Z 08007KT 15SM BKN011 BKN200 20/ RMK SC5CI2=
CYYG;2007-06-10 14:00;METAR CYYG 101400Z 07008KT 15SM BKN015 20/15 A3012 RMK SC7 SLP200=
CYYG;2007-06-10 15:00;METAR CYYG 101500Z 03007KT 15SM BKN016 18/14 A3012 RMK SC7 SLP200=
CYYG;2007-06-10 16:00;METAR CYYG 101600Z 07008KT 15SM SCT018 21/14 A3010 RMK SC4 SLP193=
CYYG;2007-06-10 17:00;METAR CYYG 101700Z 05007KT 15SM BKN025 BKN050 21/16 A3009 RMK SC6SC2 SLP190=
CYYG;2007-06-10 18:00;METAR CYYG 101800Z 09004KT 15SM FEW022 BKN026 21/15 A3009 RMK SC2SC5 SLP190=
CYYG;2007-06-10 19:00;METAR CYYG 101900Z 03010KT 15SM FEW035 FEW060 22/17 A3008 RMK SC2SC1 SLP187=
CYYG;2007-06-10 20:00;METAR CYYG 102000Z 03012KT 15SM BKN038 21/16 A3008 RMK SC6 SLP185=
CYYG;2007-06-10 21:00;METAR CYYG 102100Z 03013KT 15SM FEW050 FEW120 20/15 A3008 RMK SC2AC1 SLP185=
CYYG;2007-06-10 22:00;METAR CYYG 102200Z 02013G18KT 15SM FEW050 FEW120 19/14 A3006 RMK SC1AC1 SLP181=
CYYG;2007-06-10 23:00;METAR CYYG 102300Z 01007KT 15SM FEW050 FEW120 17/13 A3006 RMK SC1AC0 SLP180=
CYYG;2007-06-11 00:00;METAR CYYG 110000Z 02006KT 15SM SCT120 15/13 A3007 RMK AC3 SLP182=
CYYG;2007-06-11 01:00;METAR CYYG 110100Z 02008KT 15SM BKN120 15/13 A3006 RMK AC6 SLP178=
CYYG;2007-06-11 02:00;METAR CYYG 110200Z 01006KT 15SM BKN150 14/12 A3004 RMK AC6 SLP174=
CYYG;2007-06-11 03:00;METAR CYYG 110300Z 01005KT 15SM BKN160 13/11 A3004 RMK AC7 SLP171=
CYYG;2007-06-11 04:00;METAR CYYG 110400Z 01006KT 15SM BKN160 12/11 A3002 RMK AC6 SLP167=
CYYG;2007-06-11 05:00;METAR CYYG 110500Z 32002KT 15SM FEW040 BKN160 11/10 A3002 RMK SC2AC4 SLP165=
CYYG;2007-06-11 06:00;METAR CYYG 110600Z 35007KT 15SM FEW040 SCT160 12/11 A3001 RMK SC2AC2 SLP161=
CYYG;2007-06-11 07:00;METAR CYYG 110700Z 36007KT 15SM FEW040 SCT160 12/11 A2999 RMK SC2AC2 SLP157=
CYYG;2007-06-11 08:00;METAR CYYG 110800Z 04008KT 15SM FEW040 SCT160 13/12 A3000 RMK SC2AC2 SLP160=
CYYG;2007-06-11 09:00;METAR CYYG 110900Z 03009KT 15SM SCT040 BKN060 BKN160 14/13 A3002 RMK SC3SC2AC2 VIS 3 N FOG SLP166=
CYYG;2007-06-11 10:00;METAR CYYG 111000Z 04010KT 15SM FEW032 BKN060 BKN160 15/14 A3002 RMK SC2SC2AC1 SLP167=
CYYG;2007-06-11 11:00;METAR CYYG 111100Z 04013KT 15SM FEW010 FEW160 BKN250 15/13 A3002 RMK SF1AC2CI2 SLP165=
CYYG;2007-06-11 12:00;METAR CYYG 111200Z 03012KT 15SM FEW006 SCT120 BKN250 15/13 A3002 RMK SF1AC2CI2 SLP166=
CYYG;2007-06-11 13:00;METAR CYYG 111300Z 05014KT 15SM FEW006 SCT120 BKN250 18/14 A3002 RMK SF1AC2CI2 SLP166=
CYYG;2007-06-11 14:00;METAR CYYG 111400Z 05016KT 15SM FEW006 SCT130 BKN250 19/14 A3002 RMK SF1AC3CI2 SLP166=
CYYG;2007-06-11 15:00;METAR CYYG 111500Z 04013G18KT 15SM FEW006 SCT130 BKN250 20/15 A3002 RMK SF1AC3CI2 SLP167=
CYYG;2007-06-11 16:00;METAR CYYG 111600Z 02011G16KT 15SM FEW006 SCT130 BKN220 17/12 A3003 RMK SF1AC3CI2 SLP168=
CYYG;2007-06-11 17:00;METAR CYYG 111700Z 02013KT 15SM FEW006 BKN140 BKN220 16/12 A3002 RMK SF1AC5CI1 SLP166=
CYYG;2007-06-11 18:00;METAR CYYG 111800Z 03015G20KT 15SM FEW007 BKN120 OVC220 15/09 A3002 RMK SF2AC3CI2 SLP166=
CYYG;2007-06-11 18:53;SPECI CYYG 111853Z 02015KT 15SM -SHRA BKN006 BKN040 OVC250 13/ RMK SF6SC1CI1=
CYYG;2007-06-11 19:00;METAR CYYG 111900Z 02016KT 15SM -SHRA BKN005 BKN040 OVC250 13/11 A3002 RMK SF6SC1CI1 SLP167=
CYYG;2007-06-11 20:00;METAR CYYG 112000Z 02014KT 12SM -SHRA OVC005 12/11 A3001 RMK SF8 SLP165=
CYYG;2007-06-11 20:27;SPECI CYYG 112027Z 02015KT 15SM BKN005 BKN200 14/ RMK SF5CI2=
CYYG;2007-06-11 21:00;METAR CYYG 112100Z 03013KT 15SM BKN006 BKN140 OVC200 13/11 A3001 RMK SF5AC2CI1 SLP164=
CYYG;2007-06-11 21:09;SPECI CYYG 112109Z 03012KT 15SM SCT006 BKN140 OVC200 13/ RMK SF3AC3CI1=
CYYG;2007-06-11 22:00;METAR CYYG 112200Z 03013KT 15SM FEW006 BKN140 OVC220 13/11 A3001 RMK SF2AC4CI2 SLP162=
CYYG;2007-06-11 23:00;METAR CYYG 112300Z 02011KT 15SM FEW006 BKN140 BKN220 12/10 A3001 RMK SF1AC5CI1 SLP165=
CYYG;2007-06-12 00:00;METAR CYYG 120000Z 02009KT 15SM BKN160 OVC240 12/10 A3001 RMK AC6CI1 SLP163=
CYYG;2007-06-12 01:00;METAR CYYG 120100Z 03008KT 15SM OVC130 11/10 A3002 RMK AC6 SLP167=
CYYG;2007-06-12 02:00;METAR CYYG 120200Z 02010KT 15SM OVC120 11/09 A3001 RMK AC6 SLP163=
CYYG;2007-06-12 02:41;SPECI CYYG 120241Z 02009KT 15SM -SHRA OVC110 11/ RMK AC8=
CYYG;2007-06-12 03:00;METAR CYYG 120300Z 36009KT 15SM -SHRA OVC100 11/10 A3001 RMK AC8 SLP161=
CYYG;2007-06-12 03:42;SPECI CYYG 120342Z 02008KT 15SM OVC090 11/ RMK AC8=
CYYG;2007-06-12 04:00;METAR CYYG 120400Z 02008KT 15SM OVC090 11/10 A3000 RMK AC8 SLP160=
CYYG;2007-06-12 05:00;METAR CYYG 120500Z 36005KT 15SM FEW070 OVC082 12/10 A2999 RMK AC2AC6 SLP156=
CYYG;2007-06-12 06:00;METAR CYYG 120600Z 01012KT 15SM OVC083 11/09 A2999 RMK AC8 SLP157=
CYYG;2007-06-12 07:00;METAR CYYG 120700Z 01008KT 15SM OVC100 11/09 A3000 RMK AC8 SLP160=
CYYG;2007-06-12 08:00;METAR CYYG 120800Z 01008KT 15SM BKN110 11/09 A2999 RMK AC6 SLP158=
CYYG;2007-06-12 09:00;METAR CYYG 120900Z 36005KT 15SM FEW060 BKN120 11/09 A3001 RMK SC2AC2 SLP163=
CYYG;2007-06-12 10:00;METAR CYYG 121000Z 02007KT 15SM SCT056 12/10 A3002 RMK SC2 SLP168=
CYYG;2007-06-12 11:00;METAR CYYG 121100Z 02008KT 15SM FEW030 BKN055 13/10 A3005 RMK SC1CU6 SLP176=
CYYG;2007-06-12 12:00;METAR CYYG 121200Z 02007KT 15SM FEW010 BKN023 14/11 A3006 RMK SF1SC7 SLP122=
CYYG;2007-06-12 12:14;SPECI CYYG 121214Z 02005KT 15SM BKN010 14/ RMK SC7=
CYYG;2007-06-12 13:00;METAR CYYG 121300Z 11007KT 15SM FEW005 OVC009 16/13 A3006 RMK SF1SC8 SLP182=
CYYG;2007-06-12 13:20;SPECI CYYG 121320Z 08005KT 15SM FEW005 OVC011 16/ RMK SF1SC8=
CYYG;2007-06-12 14:00;METAR CYYG 121400Z 07007KT 15SM FEW005 OVC013 17/13 A3007 RMK SF1SC8 SLP184=
CYYG;2007-06-12 14:42;SPECI CYYG 121442Z 10009KT 15SM FEW007 OVC017 16/ RMK SF1SC8=
CYYG;2007-06-12 15:00;METAR CYYG 121500Z 11008KT 15SM OVC018 16/12 A3009 RMK SC8=
CYYG;2007-06-12 16:00;METAR CYYG 121600Z 09009KT 15SM FEW012 OVC017 15/12 A3009 RMK CU1SC7 SLP191=
CYYG;2007-06-12 17:00;METAR CYYG 121700Z 09007KT 15SM OVC017 16/12 A3010 RMK SC8 SLP195=
CYYG;2007-06-12 18:00;METAR CYYG 121800Z 02009KT 15SM FEW005 OVC015 13/11 A3012 RMK SF1SC8 SLP199=
CYYG;2007-06-12 19:00;METAR CYYG 121900Z 03008KT 15SM FEW005 FEW015 OVC035 14/11 A3012 RMK SF1SC2SC6 SLP202=
CYYG;2007-06-12 20:00;METAR CYYG 122000Z 04008KT 15SM FEW005 OVC022 13/10 A3014 RMK SF1SC8 SLP206=
CYYG;2007-06-12 21:00;METAR CYYG 122100Z 03007KT 15SM FEW005 OVC025 13/11 A3014 RMK SF1SC8 SLP209=
CYYG;2007-06-12 22:00;METAR CYYG 122200Z 04007KT 15SM FEW005 FEW025 BKN055 13/10 A3016 RMK SF1SC2SC5 SLP213=
CYYG;2007-06-12 23:00;METAR CYYG 122300Z 03011KT 15SM FEW005 FEW025 BKN055 12/09 A3017 RMK SF1SC2SC3 SLP218=
CYYG;2007-06-13 00:00;METAR CYYG 130000Z 04009KT 15SM FEW005 FEW025 BKN060 11/08 A3018 RMK SF1SC1SC3 SLP222=
CYYG;2007-06-13 01:00;METAR CYYG 130100Z 05009KT 15SM FEW005 SCT030 09/08 A3020 RMK SF1SC2 SLP228=
CYYG;2007-06-13 02:00;METAR CYYG 130200Z 05008KT 15SM FEW005 SCT030 09/07 A3020 RMK SF1SC2 SLP228=
CYYG;2007-06-13 03:00;METAR CYYG 130300Z 06007KT 15SM FEW005 SCT030 08/07 A3019 RMK SF2SC2 SLP225=
CYYG;2007-06-13 04:00;METAR CYYG 130400Z 05006KT 15SM FEW005 FEW030 08/07 A3020 RMK SF1SC2 SLP226=
CYYG;2007-06-13 05:00;METAR CYYG 130500Z 01004KT 15SM FEW005 FEW030 07/06 A3019 RMK SF1SC2 SLP224=
CYYG;2007-06-13 06:00;METAR CYYG 130600Z 03004KT 15SM FEW030 07/06 A3019 RMK SC2 SLP225=
CYYG;2007-06-13 07:00;METAR CYYG 130700Z 36003KT 15SM FEW030 07/06 A3019 RMK SC2 SLP225=
CYYG;2007-06-13 08:00;METAR CYYG 130800Z 36005KT 15SM FEW030 07/06 A3020 RMK SC2 SLP228=
CYYG;2007-06-13 09:00;METAR CYYG 130900Z 01006KT 15SM BKN040 08/08 A3020 RMK SC6 SLP229=
CYYG;2007-06-13 10:00;METAR CYYG 131000Z 03007KT 15SM BKN037 09/08 A3022 RMK SC7 SLP233=
CYYG;2007-06-13 11:00;METAR CYYG 131100Z 01006KT 15SM FEW005 BKN028 BKN041 10/09 A3022 RMK SF1SC5SC2 SLP235=
CYYG;2007-06-13 12:00;METAR CYYG 131200Z 02009KT 15SM FEW005 FEW028 OVC041 11/09 A3023 RMK SF1SC2SC6 SLP237=
CYYG;2007-06-13 13:00;METAR CYYG 131300Z 03007KT 15SM FEW028 BKN040 12/09 A3023 RMK SC2SC6 SLP237=
CYYG;2007-06-13 14:00;METAR CYYG 131400Z 03007KT 15SM BKN038 12/09 A3023 RMK SC7 SLP238=
CYYG;2007-06-13 15:00;METAR CYYG 131500Z 03011KT 15SM OVC042 13/09 A3024 RMK SC8 SLP240=
CYYG;2007-06-13 16:00;METAR CYYG 131600Z 04012KT 15SM OVC044 14/09 A3024 RMK SC8 SLP240=
CYYG;2007-06-13 17:00;METAR CYYG 131700Z 02012KT 15SM FEW030 BKN050 14/09 A3023 RMK CU1SC6 SLP239=
CYYG;2007-06-13 18:00;METAR CYYG 131800Z 05010G15KT 15SM FEW030 BKN053 15/09 A3022 RMK CU2SC4 SLP234=
CYYG;2007-06-13 19:00;METAR CYYG 131900Z 03013G18KT 15SM BKN052 15/10 A3021 RMK SC3 SLP231=
CYYG;2007-06-13 20:00;METAR CYYG 132000Z 04012KT 15SM FEW022 SCT052 16/10 A3020 RMK CU2SC2 SLP228=
CYYG;2007-06-13 21:00;METAR CYYG 132100Z 04013KT 15SM FEW022 BKN051 15/09 A3020 RMK CU1SC4 SLP226=
CYYG;2007-06-13 22:00;METAR CYYG 132200Z 04011KT 15SM FEW022 BKN046 13/09 A3020 RMK CU1SC6 SLP228=
CYYG;2007-06-13 23:00;METAR CYYG 132300Z 05009KT 15SM FEW022 BKN045 12/09 A3020 RMK CU1SC4 SLP227=
CYYG;2007-06-14 00:00;METAR CYYG 140000Z 02008KT 15SM FEW022 SCT045 SCT300 10/08 A3020 RMK CU1SC2CI1 SLP229=
CYYG;2007-06-14 01:00;METAR CYYG 140100Z 03006KT 15SM SCT045 SCT300 09/08 A3022 RMK SC3CI1 SLP235=
CYYG;2007-06-14 01:22;SPECI CYYG 140122Z 02005KT 15SM FEW004 BKN040 09/ RMK SF2SC3=
CYYG;2007-06-14 02:00;METAR CYYG 140200Z 04005KT 15SM FEW004 BKN038 10/09 A3023 RMK SF2SC6 SLP236=
CYYG;2007-06-14 03:00;METAR CYYG 140300Z 03006KT 15SM FEW004 BKN037 09/08 A3023 RMK SF2SC6 SF OVR STRAITS SLP236=
CYYG;2007-06-14 04:00;METAR CYYG 140400Z 05005KT 15SM FEW004 SCT035 08/08 A3023 RMK SF1SC3 SF OVR STRAITS SLP237=
CYYG;2007-06-14 05:00;METAR CYYG 140500Z 11006KT 15SM FEW004 BKN016 09/08 A3023 RMK SF2SC3 SLP236=
CYYG;2007-06-14 06:00;METAR CYYG 140600Z 11006KT 15SM BKN021 10/08 A3022 RMK SC6 SLP234=
CYYG;2007-06-14 07:00;METAR CYYG 140700Z 10005KT 15SM OVC020 10/08 A3022 RMK SC8 SLP233=
CYYG;2007-06-14 08:00;METAR CYYG 140800Z 07005KT 15SM BKN019 10/08 A3021 RMK SC7 SLP232=
CYYG;2007-06-14 09:00;METAR CYYG 140900Z 09008KT 15SM BKN018 10/07 A3022 RMK SC7 SLP233=
CYYG;2007-06-14 10:00;METAR CYYG 141000Z 09006KT 15SM OVC015 10/07 A3022 RMK SC8 SLP235=
CYYG;2007-06-14 11:00;METAR CYYG 141100Z 11004KT 15SM OVC017 11/08 A3023 RMK SC8 SLP239=
CYYG;2007-06-14 12:00;METAR CYYG 141200Z 08006KT 15SM OVC016 11/07 A3024 RMK SC8 SLP241=
CYYG;2007-06-14 13:00;METAR CYYG 141300Z 11009KT 15SM OVC018 12/08 A3024 RMK SC8 SLP241=
CYYG;2007-06-14 14:00;METAR CYYG 141400Z 12009KT 15SM OVC018 12/08 A3024 RMK SC8 SLP242=
CYYG;2007-06-14 15:00;METAR CYYG 141500Z 10008KT 15SM OVC019 13/08 A3025 RMK SC8 SLP243=
CYYG;2007-06-14 16:00;METAR CYYG 141600Z 07008KT 15SM OVC020 13/09 A3024 RMK SC8 SLP242=
CYYG;2007-06-14 17:00;METAR CYYG 141700Z 08003KT 15SM OVC022 14/09 A3023 RMK SC8 SLP237=
CYYG;2007-06-14 18:00;METAR CYYG 141800Z 04004KT 15SM OVC022 13/10 A3021 RMK SC8 SLP232=
CYYG;2007-06-14 19:00;METAR CYYG 141900Z 02007KT 15SM OVC023 14/10 A3020 RMK SC8 SLP227=
CYYG;2007-06-14 20:00;METAR CYYG 142000Z 04004KT 15SM OVC024 15/10 A3018 RMK SC8 SLP222=
CYYG;2007-06-14 21:00;METAR CYYG 142100Z 06004KT 15SM BKN021 15/10 A3017 RMK SC7 SLP218=
CYYG;2007-06-14 22:00;METAR CYYG 142200Z CCA 24005KT 15SM BKN024 14/11 A3016 RMK SC7 SLP215=
CYYG;2007-06-14 23:00;METAR CYYG 142300Z 20005KT 15SM BKN020 13/10 A3017 RMK SC7 SLP217=
CYYG;2007-06-15 00:00;METAR CYYG 150000Z 22002KT 15SM FEW020 SCT300 12/09 A3016 RMK SC2CI0 SLP215=
CYYG;2007-06-15 01:00;METAR CYYG 150100Z 00000KT 15SM SCT300 09/08 A3017 RMK CI2 SLP217=
CYYG;2007-06-15 02:00;METAR CYYG 150200Z 00000KT 15SM FEW300 07/06 A3017 RMK CI2 SLP216=
CYYG;2007-06-15 03:00;METAR CYYG 150300Z 00000KT 15SM FEW300 08/07 A3015 RMK CI1 SLP212=
CYYG;2007-06-15 04:00;METAR CYYG 150400Z 12003KT 15SM FEW300 07/07 A3015 RMK CI1 SLP212=
CYYG;2007-06-15 05:00;METAR CYYG 150500Z 14002KT 15SM FEW300 06/06 A3015 RMK CI2 SLP211=
CYYG;2007-06-15 06:00;METAR CYYG 150600Z 16002KT 15SM FEW300 08/07 A3014 RMK CI1 SLP209=
CYYG;2007-06-15 07:00;METAR CYYG 150700Z 00000KT 15SM FEW300 06/05 A3013 RMK CI1 SLP204=
CYYG;2007-06-15 08:00;METAR CYYG 150800Z 13002KT 15SM MIFG FEW300 06/05 A3012 RMK CI1 FG BNK OVR STRAITS SLP202=
CYYG;2007-06-15 08:15;SPECI CYYG 150815Z 17003KT 1/2SM R03/P6000FT/N FG BKN300 06/ RMK FG5CI1=
CYYG;2007-06-15 08:21;SPECI CYYG 150821Z 16003KT 1/2SM R03/2600VP6000FT/D FG VV002 07/ RMK FG8=
CYYG;2007-06-15 08:51;SPECI CYYG 150851Z 12002KT 1/4SM R03/0900V1400FT/N FG VV002 07/ RMK FG8=
CYYG;2007-06-15 09:00;METAR CYYG 150900Z 00000KT 1/4SM R03/1000FT/N FG VV002 07/07 A3013 RMK FG8 SLP203=
CYYG;2007-06-15 10:00;METAR CYYG 151000Z 15002KT 1/4SM R03/0600FT/N FG VV002 08/08 A3012 RMK FG8 SLP201=
CYYG;2007-06-15 10:31;SPECI CYYG 151031Z 00000KT 1/8SM R03/0700FT/N FG VV001 08/ RMK FG8=
CYYG;2007-06-15 11:00;METAR CYYG 151100Z 00000KT 1/4SM R03/0800V1800FT/N FG VV001 09/09 A3014 RMK FG8 SLP206=
CYYG;2007-06-15 11:39;SPECI CYYG 151139Z 16005KT 3/4SM R03/2800VP6000FT/U BR VV002 09/ RMK FG8=
CYYG;2007-06-15 12:00;METAR CYYG 151200Z 15004KT 1SM R03/P6000FT/N BR OVC002 09/09 A3014 RMK SF8 SLP208=
CYYG;2007-06-15 13:00;METAR CYYG 151300Z 14004KT 3SM BR BKN003 10/10 A3014 RMK SF7 SLP207=
CYYG;2007-06-15 13:23;SPECI CYYG 151323Z 16003KT 12SM FEW003 SCT300 12/ RMK SF2CI1=
CYYG;2007-06-15 14:00;METAR CYYG 151400Z 14004KT 15SM FEW003 SCT300 14/11 A3013 RMK SF1CI1 SLP203=
CYYG;2007-06-15 15:00;METAR CYYG 151500Z 18004KT 15SM SCT300 17/10 A3012 RMK CI1 SLP201=
CYYG;2007-06-15 16:00;METAR CYYG 151600Z 23006KT 15SM SCT300 18/12 A3011 RMK CI1 SLP196=
CYYG;2007-06-15 17:00;METAR CYYG 151700Z 24002KT 15SM FEW300 20/13 A3009 RMK CI1 SLP191=
CYYG;2007-06-15 18:00;METAR CYYG 151800Z 18005KT 15SM FEW300 21/14 A3007 RMK CI1 SLP184=
CYYG;2007-06-15 19:00;METAR CYYG 151900Z 19008KT 15SM FEW040 FEW300 22/13 A3006 RMK CF1CI1 SLP181=
CYYG;2007-06-15 20:00;METAR CYYG 152000Z 19007KT 15SM FEW300 21/12 A3006 RMK CI1 SLP179=
CYYG;2007-06-15 21:00;METAR CYYG 152100Z 15007KT 15SM FEW300 21/11 A3004 RMK CI1 SLP173=
CYYG;2007-06-15 22:00;METAR CYYG 152200Z 15004KT 15SM FEW300 21/12 A3003 RMK CI0 SLP169=
CYYG;2007-06-15 23:00;METAR CYYG 152300Z 18004KT 15SM FEW300 20/13 A3003 RMK CI1 SLP169=
CYYG;2007-06-16 00:00;METAR CYYG 160000Z 12006KT 15SM FEW300 18/12 A3003 RMK CI1 SLP170=
CYYG;2007-06-16 01:00;METAR CYYG 160100Z 12006KT 15SM FEW300 15/12 A3004 RMK CI1 SLP172=
CYYG;2007-06-16 02:00;METAR CYYG 160200Z 16008KT 15SM FEW300 16/12 A3004 RMK CI1 SLP173=
CYYG;2007-06-16 03:00;METAR CYYG 160300Z 17011KT 15SM SKC 15/13 A3005 RMK SLP175=
CYYG;2007-06-16 04:00;METAR CYYG 160400Z 17005KT 15SM SKC 14/12 A3005 RMK SLP177=
CYYG;2007-06-16 05:00;METAR CYYG 160500Z 17008KT 15SM SKC 13/12 A3005 RMK SLP176=
CYYG;2007-06-16 06:00;METAR CYYG 160600Z 16008KT 15SM SKC 13/12 A3004 RMK SLP173=
CYYG;2007-06-16 06:17;SPECI CYYG 160617Z 17008KT 15SM BKN002 13/ RMK SF5=
CYYG;2007-06-16 06:37;SPECI CYYG 160637Z 17008KT 1 1/2SM BR VV002 13/ RMK FG8=
CYYG;2007-06-16 07:00;METAR CYYG 160700Z 16008KT 5/8SM R03/3000V5000FT/U BR VV002 13/12 A3004 RMK FG8 SLP172=
CYYG;2007-06-16 07:34;SPECI CYYG 160734Z 16007KT 1/2SM R03/2600FT/N FG VV002 13/ RMK FG8=
CYYG;2007-06-16 08:00;METAR CYYG 160800Z 16008KT 1/2SM R03/2800FT/N FG VV002 13/13 A3004 RMK FG8 SLP174=
CYYG;2007-06-16 09:00;METAR CYYG 160900Z 17006KT 1/2SM R03/2800VP6000FT/U FG VV002 13/13 A3005 RMK FG8 SLP175=
CYYG;2007-06-16 09:43;SPECI CYYG 160943Z 17009KT 3/8SM R03/1800V3000FT/N FG VV002 13/ RMK FG8=
CYYG;2007-06-16 10:00;METAR CYYG 161000Z 16009KT 3/8SM R03/1600V2200FT/N FG VV002 13/13 A3005 RMK FG8 SLP177=
CYYG;2007-06-16 10:17;SPECI CYYG 161017Z 16007KT 5/8SM R03/1800V3000FT/N BR VV002 13/ RMK FG8=
CYYG;2007-06-16 11:00;METAR CYYG 161100Z 17007KT 1/4SM R03/1800V2800FT/D FG VV002 13/13 A3006 RMK FG8 SLP178=
CYYG;2007-06-16 11:12;SPECI CYYG 161112Z 17006KT 1/2SM R03/1800V4000FT/U FG VV002 13/ RMK FG8=
CYYG;2007-06-16 12:00;METAR CYYG 161200Z 18006KT 3/4SM R03/2800VP6000FT/U BR VV002 14/13 A3005 RMK FG8 SLP177=
CYYG;2007-06-16 12:16;SPECI CYYG 161216Z 17007KT 2SM BR OVC003 14/ RMK SF8 VIS SE-S 5=
CYYG;2007-06-16 12:52;SPECI CYYG 161252Z 17007KT 15SM FEW007 BKN028 16/ RMK SF2SC2=
CYYG;2007-06-16 13:00;METAR CYYG 161300Z 18008KT 15SM BKN009 17/15 A3004 RMK SF3 SLP171=
CYYG;2007-06-16 14:00;METAR CYYG 161400Z 16007KT 15SM FEW007 FEW020 FEW120 19/16 A3003 RMK SF1CU1AC1 SLP169=
CYYG;2007-06-16 15:00;METAR CYYG 161500Z 16006KT 15SM FEW020 FEW120 20/17 A3002 RMK CU1AC1 SLP166=
CYYG;2007-06-16 16:00;METAR CYYG 161600Z 18007KT 15SM FEW020 22/18 A3001 RMK CU2 SLP161=
CYYG;2007-06-16 17:00;METAR CYYG 161700Z 17008KT 15SM FEW020 23/18 A2999 RMK CU2 SLP155=
CYYG;2007-06-16 18:00;METAR CYYG 161800Z 15010KT 15SM FEW030TCU 24/18 A2998 RMK TCU2 TCU NE-E SLP151=
CYYG;2007-06-16 19:00;METAR CYYG 161900Z 18010KT 15SM FEW038TCU BKN057 23/17 A2996 RMK TCU1SC6 SLP146=
CYYG;2007-06-16 20:00;METAR CYYG 162000Z 16011KT 15SM FEW038TCU SCT061 25/18 A2995 RMK TCU1SC2 SLP142=
CYYG;2007-06-16 21:00;METAR CYYG 162100Z 17009KT 15SM FEW040TCU FEW060 24/17 A2993 RMK TCU1SC2 SLP135=
CYYG;2007-06-16 22:00;METAR CYYG 162200Z 18012KT 15SM FEW040 FEW060 23/16 A2992 RMK CU1SC2 SLP133=
CYYG;2007-06-16 23:00;METAR CYYG 162300Z 17009G15KT 15SM FEW040 FEW060 21/16 A2992 RMK SC1SC1 SLP131=
CYYG;2007-06-17 00:00;METAR CYYG 170000Z 18011KT 15SM FEW060 19/15 A2991 RMK SC1 SLP129=
CYYG;2007-06-17 01:00;METAR CYYG 170100Z 18012KT 15SM FEW060 18/15 A2991 RMK SC1 SLP129=
CYYG;2007-06-17 02:00;METAR CYYG 170200Z 18012KT 15SM SKC 17/14 A2990 RMK SLP127=
CYYG;2007-06-17 03:00;METAR CYYG 170300Z 19013KT 15SM SKC 16/14 A2990 RMK SLP125=
CYYG;2007-06-17 03:35;SPECI CYYG 170335Z 19011KT 15SM BKN009 15/ RMK SF6=
CYYG;2007-06-17 04:00;METAR CYYG 170400Z 19011KT 15SM OVC008 15/14 A2990 RMK SF8 SLP125=
CYYG;2007-06-17 05:00;METAR CYYG 170500Z 18012KT 12SM OVC008 15/13 A2990 RMK SF8 SLP124=
CYYG;2007-06-17 05:46;SPECI CYYG 170546Z 19011KT 8SM -DZ OVC008 15/ RMK SF8=
CYYG;2007-06-17 06:00;METAR CYYG 170600Z 19011KT 8SM -DZ OVC008 15/13 A2989 RMK SF8 SLP123=
CYYG;2007-06-17 06:18;SPECI CYYG 170618Z 18010KT 3SM -DZ BR OVC006 14/ RMK SF8=
CYYG;2007-06-17 06:31;SPECI CYYG 170631Z 18009KT 3SM -DZ BR OVC004 14/ RMK SF8=
CYYG;2007-06-17 06:50;SPECI CYYG 170650Z 18010KT 2 1/2SM -DZ BR OVC003 14/ RMK SF8=
CYYG;2007-06-17 07:00;METAR CYYG 170700Z 18010KT 2SM -DZ BR OVC003 14/13 A2987 RMK SF8 SLP117=
CYYG;2007-06-17 08:00;METAR CYYG 170800Z 19010KT 3SM -DZ BR OVC003 13/12 A2987 RMK SF8 SLP117=
CYYG;2007-06-17 08:33;SPECI CYYG 170833Z 19011KT 1 1/2SM -DZ BR OVC002 13/ RMK SF8=
CYYG;2007-06-17 09:00;METAR CYYG 170900Z 19011KT 1 1/2SM -DZ BR OVC002 13/12 A2987 RMK SF8 SLP114=
CYYG;2007-06-17 09:29;SPECI CYYG 170929Z 18009KT 5SM -DZ BR OVC003 13/ RMK SF8=
CYYG;2007-06-17 09:47;SPECI CYYG 170947Z 18009KT 2 1/2SM -DZ BR OVC003 13/ RMK SF8=
CYYG;2007-06-17 10:00;METAR CYYG 171000Z 18009KT 3SM -DZ BR OVC003 13/12 A2986 RMK SF8 SLP111=
CYYG;2007-06-17 11:00;METAR CYYG 171100Z 19010KT 10SM OVC006 14/12 A2985 RMK SF8 SLP110=
CYYG;2007-06-17 12:00;METAR CYYG 171200Z 18012KT 10SM OVC006 14/12 A2984 RMK SF8 SLP106=
CYYG;2007-06-17 13:00;METAR CYYG 171300Z 18011KT 15SM OVC009 16/13 A2983 RMK SF8 SLP102=
CYYG;2007-06-17 14:00;METAR CYYG 171400Z 19012KT 15SM BKN012 17/14 A2983 RMK SC6 SLP102=
CYYG;2007-06-17 15:00;METAR CYYG 171500Z 20012KT 15SM SCT014 18/15 A2982 RMK SC2 SLP097=
CYYG;2007-06-17 16:00;METAR CYYG 171600Z 18013G18KT 15SM SCT022 19/14 A2980 RMK SC3 SLP092=
CYYG;2007-06-17 17:00;METAR CYYG 171700Z 18014KT 15SM SCT022 20/16 A2977 RMK SC2 SLP082=
CYYG;2007-06-17 18:00;METAR CYYG 171800Z 18011G16KT 15SM FEW020 21/16 A2975 RMK SC1 SLP076=
CYYG;2007-06-17 19:00;METAR CYYG 171900Z 18013KT 15SM FEW020 22/15 A2973 RMK SC1 SLP068=
CYYG;2007-06-17 20:00;METAR CYYG 172000Z 18017KT 15SM FEW020 21/15 A2971 RMK SC1 SLP061=
CYYG;2007-06-17 21:00;METAR CYYG 172100Z 19010KT 15SM FEW020 23/16 A2970 RMK SC1 SLP056=
CYYG;2007-06-17 22:00;METAR CYYG 172200Z 21010KT 15SM FEW020 22/15 A2971 RMK SC1 SLP059=
CYYG;2007-06-17 23:00;METAR CYYG 172300Z 21008KT 15SM FEW080 FEW300 22/15 A2970 RMK ACC1CI1 SLP058=
CYYG;2007-06-18 00:00;METAR CYYG 180000Z 19011KT 15SM FEW080 FEW300 19/14 A2970 RMK ACC2CI1 SLP057=
CYYG;2007-06-18 01:00;METAR CYYG 180100Z 22007KT 15SM BKN045 BKN088 BKN300 18/13 A2971 RMK SC5ACC1CI0 SLP063=
CYYG;2007-06-18 02:00;METAR CYYG 180200Z 22006KT 15SM FEW045 SCT094 18/14 A2970 RMK SC2AC2 SLP058=
CYYG;2007-06-18 03:00;METAR CYYG 180300Z 23008KT 15SM SCT069 17/14 A2969 RMK AC4 SLP055=
CYYG;2007-06-18 04:00;METAR CYYG 180400Z 24004KT 15SM BKN072 BKN110 16/13 A2969 RMK AC5AC2 SLP053=
CYYG;2007-06-18 05:00;METAR CYYG 180500Z 00000KT 15SM FEW040 BKN072 BKN110 15/13 A2969 RMK SC2AC3AC2 SLP053=
CYYG;2007-06-18 05:40;SPECI CYYG 180540Z 34003KT 10SM -SHRA FEW040 BKN072 BKN110 16/ RMK SC2AC3AC2=
CYYG;2007-06-18 06:00;METAR CYYG 180600Z 30002KT 10SM -SHRA FEW072 OVC095 16/14 A2969 RMK AC2AC6 SLP053=
CYYG;2007-06-18 07:00;METAR CYYG 180700Z 33003KT 15SM FEW005 FEW050 OVC091 16/14 A2969 RMK SF1SC2AC6 SLP053=
CYYG;2007-06-18 07:44;SPECI CYYG 180744Z 33005KT 15SM BKN005 OVC040 15/ RMK SF6SC2=
CYYG;2007-06-18 08:00;METAR CYYG 180800Z 33007KT 5SM BR OVC004 15/13 A2970 RMK SF8 SLP058=
CYYG;2007-06-18 09:00;METAR CYYG 180900Z 36008KT 5SM BR BKN004 OVC011 13/12 A2972 RMK SF6SF2 SLP064=
CYYG;2007-06-18 09:42;SPECI CYYG 180942Z 01010KT 5SM -SHRA BR SCT004 OVC027 13/ RMK SF4SC4=
CYYG;2007-06-18 10:00;METAR CYYG 181000Z 01010KT 5SM -SHRA BR BKN004 OVC012 13/11 A2972 RMK SF6SC2 SLP064=
CYYG;2007-06-18 10:45;SPECI CYYG 181045Z 35012G17KT 2SM -SHRA BR BKN003 OVC012 12/ RMK SF6SC2=
CYYG;2007-06-18 11:00;METAR CYYG 181100Z 36011G21KT 2SM -SHRA BR OVC005 12/10 A2975 RMK SF8 SLP074=
CYYG;2007-06-18 12:00;METAR CYYG 181200Z 35011G20KT 2SM -SHRA BR BKN006 BKN014 OVC020 12/09 A2977 RMK SF6SC2SC1 SLP081=
CYYG;2007-06-18 12:23;SPECI CYYG 181223Z 36011G17KT 1 1/2SM -SHRA BR BKN004 OVC009 11/ RMK SF6SF2=
CYYG;2007-06-18 12:49;SPECI CYYG 181249Z 36011G17KT 3SM -SHRA BR BKN008 OVC012 11/ RMK SF6SC2=
CYYG;2007-06-18 13:00;METAR CYYG 181300Z 35012G18KT 6SM -SHRA BR SCT009 OVC014 11/09 A2978 RMK SF3SC5 SLP086=
CYYG;2007-06-18 14:00;METAR CYYG 181400Z 34011G20KT 10SM -SHRA OVC014 12/09 A2980 RMK SC8 OCNL RW- SLP091=
CYYG;2007-06-18 14:08;SPECI CYYG 181408Z 35013G18KT 10SM OVC015 11/ RMK SC8=
CYYG;2007-06-18 15:00;METAR CYYG 181500Z 34016G24KT 10SM OVC015 11/08 A2981 RMK SC8 SLP096=
CYYG;2007-06-18 16:00;METAR CYYG 181600Z 34015G21KT 10SM OVC017 11/08 A2982 RMK SC8 SLP098=
CYYG;2007-06-18 17:00;METAR CYYG 181700Z 34015G24KT 10SM SCT013 OVC029 12/08 A2982 RMK SC4SC4 SLP097=
CYYG;2007-06-18 18:00;METAR CYYG 181800Z 35015G22KT 15SM SCT012 OVC034 11/07 A2983 RMK SC3SC5 SLP102=
CYYG;2007-06-18 19:00;METAR CYYG 181900Z 34017G25KT 15SM FEW016 OVC038 11/07 A2985 RMK SC2SC5 SLP108=
CYYG;2007-06-18 20:00;METAR CYYG 182000Z 36019G25KT 15SM FEW018 BKN044 BKN200 12/07 A2986 RMK SC2SC2CI2 SLP112=
CYYG;2007-06-18 21:00;METAR CYYG 182100Z 36015G27KT 15SM FEW020 FEW045 SCT200 12/07 A2985 RMK SC1SC1CI1 SLP109=
CYYG;2007-06-18 22:00;METAR CYYG 182200Z 36016G31KT 15SM BKN043 12/06 A2986 RMK SC3 SLP113=
CYYG;2007-06-18 23:00;METAR CYYG 182300Z 36017G26KT 15SM BKN014 BKN047 BKN300 11/07 A2988 RMK SC5SC1CI1 SLP118=
CYYG;2007-06-19 00:00;METAR CYYG 190000Z 35015G25KT 15SM BKN012 10/07 A2988 RMK SC7 SLP121=
CYYG;2007-06-19 01:00;METAR CYYG 190100Z 01017G24KT 15SM BKN010 10/07 A2990 RMK SC7 SLP126=
CYYG;2007-06-19 01:49;SPECI CYYG 190149Z 36017KT 10SM -DZ OVC009 09/ RMK SC8=
CYYG;2007-06-19 02:00;METAR CYYG 190200Z 36016G21KT 10SM -DZ OVC008 09/07 A2990 RMK SF8 SLP126=
CYYG;2007-06-19 02:07;SPECI CYYG 190207Z 36016G24KT 5SM -RA BR BKN008 OVC014 09/ RMK SF6SC2=
CYYG;2007-06-19 02:21;SPECI CYYG 190221Z 36014G24KT 5SM -DZ BR BKN006 OVC012 09/ RMK SF6SF2=
CYYG;2007-06-19 03:00;METAR CYYG 190300Z 36013G21KT 10SM -DZ OVC006 09/08 A2992 RMK SF8 SLP132=
CYYG;2007-06-19 03:18;SPECI CYYG 190318Z 36017G22KT 15SM OVC007 09/ RMK SF8=
CYYG;2007-06-19 03:52;SPECI CYYG 190352Z 02019G24KT 10SM -DZ OVC008 09/ RMK SF8=
CYYG;2007-06-19 04:00;METAR CYYG 190400Z 01016G25KT 10SM -DZ OVC008 09/07 A2992 RMK SF8 SLP134=
CYYG;2007-06-19 05:00;METAR CYYG 190500Z 01018G26KT 10SM -DZ OVC009 09/07 A2992 RMK SF8 SLP134=
CYYG;2007-06-19 06:00;METAR CYYG 190600Z 01018G26KT 15SM -DZ OVC009 09/07 A2993 RMK SF8 SLP138=
CYYG;2007-06-19 06:44;SPECI CYYG 190644Z 01013G22KT 15SM OVC009 09/ RMK SF8=
CYYG;2007-06-19 07:00;METAR CYYG 190700Z 01017G24KT 15SM OVC009 09/08 A2995 RMK SF8 SLP144=
CYYG;2007-06-19 08:00;METAR CYYG 190800Z 01016G21KT 15SM OVC008 09/07 A2997 RMK SF8 SLP149=
CYYG;2007-06-19 09:00;METAR CYYG 190900Z 36011G18KT 15SM OVC009 09/07 A2998 RMK SF8 SLP152=
CYYG;2007-06-19 10:00;METAR CYYG 191000Z 36011G18KT 15SM BKN010 09/07 A2998 RMK SC7 SLP152=
CYYG;2007-06-19 11:00;METAR CYYG 191100Z 36014G21KT 15SM OVC011 10/07 A3000 RMK SC8 SLP160=
CYYG;2007-06-19 11:38;SPECI CYYG 191138Z 36016KT 15SM OVC009 10/ RMK ST8=
CYYG;2007-06-19 12:00;METAR CYYG 191200Z 01016G22KT 15SM OVC011 10/07 A3002 RMK SC8 SLP166=
CYYG;2007-06-19 13:00;METAR CYYG 191300Z 35012G21KT 15SM OVC010 10/07 A3002 RMK SC8 SLP167=
CYYG;2007-06-19 14:00;METAR CYYG 191400Z 01011G20KT 15SM OVC011 11/07 A3003 RMK SC8 SLP170=
CYYG;2007-06-19 15:00;METAR CYYG 191500Z 36012G17KT 15SM OVC014 11/07 A3003 RMK SC8 SLP169=
CYYG;2007-06-19 16:00;METAR CYYG 191600Z 36012G18KT 15SM OVC014 10/07 A3003 RMK SC8 SLP171=
CYYG;2007-06-19 17:00;METAR CYYG 191700Z 01015KT 15SM OVC015 11/06 A3003 RMK SC8 SLP169=
CYYG;2007-06-19 18:00;METAR CYYG 191800Z 36010G17KT 15SM OVC016 11/07 A3003 RMK SC8 SLP170=
CYYG;2007-06-19 19:00;METAR CYYG 191900Z 36010G19KT 15SM BKN017 12/06 A3002 RMK SC7 SLP168=
CYYG;2007-06-19 20:00;METAR CYYG 192000Z 36013G18KT 15SM BKN017 11/06 A3002 RMK SC7 SLP166=
CYYG;2007-06-19 21:00;METAR CYYG 192100Z 01012KT 15SM BKN018 11/06 A3001 RMK SC7 SLP163=
CYYG;2007-06-19 22:00;METAR CYYG 192200Z 02011KT 15SM SCT014 BKN250 10/06 A3000 RMK SC2CI2 SLP159=
CYYG;2007-06-19 23:00;METAR CYYG 192300Z 01006KT 15SM FEW018 BKN250 10/05 A2998 RMK SC1CI2 SLP155=
CYYG;2007-06-20 00:00;METAR CYYG 200000Z 35003KT 15SM BKN250 08/05 A2998 RMK CI2 SLP154=
CYYG;2007-06-20 03:00;METAR CYYG 200300Z 35004KT 15SM BKN250 06/04 A2996 RMK CI2 SLP145=
CYYG;2007-06-20 04:00;METAR CYYG 200400Z 00000KT 15SM SCT250 05/04 A2996 RMK CI1 SLP147=
CYYG;2007-06-20 05:00;METAR CYYG 200500Z 31003KT 15SM SCT250 05/04 A2997 RMK CI1 SLP149=
CYYG;2007-06-20 06:00;METAR CYYG 200600Z 00000KT 15SM SCT250 05/04 A2996 RMK CI1 SLP147=
CYYG;2007-06-20 07:00;METAR CYYG 200700Z 32002KT 15SM SCT250 04/03 A2995 RMK CI1 SLP142=
CYYG;2007-06-20 08:00;METAR CYYG 200800Z 31005KT 15SM SCT250 05/04 A2995 RMK CI1 SLP143=
CYYG;2007-06-20 09:00;METAR CYYG 200900Z 00000KT 15SM SCT250 07/05 A2995 RMK CI1 SLP142=
CYYG;2007-06-20 10:00;METAR CYYG 201000Z 00000KT 15SM BKN250 09/08 A2996 RMK CI1 SLP145=
CYYG;2007-06-20 11:00;METAR CYYG 201100Z 01003KT 15SM FEW010 BKN330 11/08 A2994 RMK CF1CI1 SLP140=
CYYG;2007-06-20 12:00;METAR CYYG 201200Z 02003KT 15SM FEW010 BKN330 13/09 A2993 RMK CF1CI2 SLP135=
CYYG;2007-06-20 13:00;METAR CYYG 201300Z 01002KT 15SM FEW015 FEW050 BKN330 14/09 A2992 RMK CF1FU0CI2 SLP134=
CYYG;2007-06-20 14:00;METAR CYYG 201400Z 11006KT 15SM FEW015 FEW050 BKN330 16/10 A2990 RMK CF1FU0CI1 SLP126=
CYYG;2007-06-20 15:00;METAR CYYG 201500Z 13005KT 15SM FEW025 FEW050 BKN330 17/11 A2988 RMK CU1FU0CI1 SLP118=
CYYG;2007-06-20 16:00;METAR CYYG 201600Z 17004KT 15SM FEW030 BKN330 18/12 A2987 RMK CU1CI1 FU ALF SLP115=
CYYG;2007-06-20 17:00;METAR CYYG 201700Z 20004KT 15SM FEW030 BKN330 20/02 A2986 RMK CU1CI1 FU ALF SLP111=
CYYG;2007-06-20 18:00;METAR CYYG 201800Z 18005KT 15SM FEW032 SCT330 20/12 A2984 RMK CU1CI0 FU ALF SLP106=
CYYG;2007-06-20 19:00;METAR CYYG 201900Z 15006KT 15SM FEW032 FEW330 20/12 A2983 RMK CU1CI0 FU ALF SLP103=
CYYG;2007-06-20 20:00;METAR CYYG 202000Z 19004KT 15SM FEW032 FEW330 20/12 A2982 RMK CU1CI0 FU ALF SLP097=
CYYG;2007-06-20 21:00;METAR CYYG 202100Z 15004KT 15SM FEW100 FEW330 20/11 A2980 RMK AC1CI0 FU ALF SLP091=
CYYG;2007-06-20 22:00;METAR CYYG 202200Z 12002KT 15SM FEW035 FEW200 BKN330 20/11 A2979 RMK CU1CS2CI0 FU ALF SLP088=
CYYG;2007-06-20 23:00;METAR CYYG 202300Z 13004KT 15SM FEW200 BKN330 18/12 A2979 RMK CS2CI2 FU ALF SLP089=
CYYG;2007-06-21 00:00;METAR CYYG 210000Z 12006KT 15SM FEW120 BKN280 15/10 A2979 RMK AC2CI3 SLP090=
CYYG;2007-06-21 01:00;METAR CYYG 210100Z 12006KT 15SM FEW120 BKN280 13/09 A2979 RMK AC2CI3 SLP089=
CYYG;2007-06-21 02:00;METAR CYYG 210200Z 11007KT 15SM FEW120 BKN280 12/09 A2977 RMK AC2CI3 SLP082=
CYYG;2007-06-21 03:00;METAR CYYG 210300Z 11005KT 15SM BKN280 12/09 A2975 RMK CI3 SLP075=
CYYG;2007-06-21 04:00;METAR CYYG 210400Z 12006KT 15SM SCT280 12/09 A2974 RMK CI2 SLP073=
CYYG;2007-06-21 05:00;METAR CYYG 210500Z 14004KT 15SM SCT063 BKN280 12/10 A2972 RMK SC3CI1 SLP066=
CYYG;2007-06-21 06:00;METAR CYYG 210600Z 12005KT 15SM BKN063 12/10 A2970 RMK SC6 SLP059=
CYYG;2007-06-21 07:00;METAR CYYG 210700Z 15003KT 15SM BKN056 13/10 A2969 RMK SC6 SLP053=
CYYG;2007-06-21 08:00;METAR CYYG 210800Z 12003KT 15SM BKN062 13/10 A2968 RMK SC7 SLP050=
CYYG;2007-06-21 09:00;METAR CYYG 210900Z 16005KT 15SM SCT020 BKN062 14/10 A2967 RMK SC3SC4 SLP048=
CYYG;2007-06-21 09:40;SPECI CYYG 210940Z 18008KT 15SM SCT030 BKN060 14/ RMK SC4SC3=
CYYG;2007-06-21 10:00;METAR CYYG 211000Z 17006KT 12SM -SHRA FEW015 BKN030 OVC060 13/11 A2967 RMK SC2SC3SC2 SLP047=
CYYG;2007-06-21 11:00;METAR CYYG 211100Z 18008KT 10SM -SHRA SCT011 BKN020 OVC055 13/11 A2967 RMK SC3SC2SC2 SLP047=
CYYG;2007-06-21 11:13;SPECI CYYG 211113Z 19006KT 5SM -SHRA BR FEW005 OVC018 13/ RMK SF2SC6=
CYYG;2007-06-21 11:25;SPECI CYYG 211125Z 19006KT 5SM -SHRA BR BKN004 OVC018 13/ RMK SF7SC1=
CYYG;2007-06-21 12:00;METAR CYYG 211200Z 18008KT 1 1/2SM R03/4000VP6000FT/D -SHRA BR OVC004 13/11 A2967 RMK SF8 SLP049=
CYYG;2007-06-21 12:14;SPECI CYYG 211214Z 18006KT 1 1/2SM -SHRA BR OVC002 13/ RMK SF8=
CYYG;2007-06-21 13:00;METAR CYYG 211300Z 17006KT 2SM R03/4000VP6000FT/N -SHRA BR BKN002 OVC011 13/12 A2966 RMK SF7SC1 SLP045=
CYYG;2007-06-21 13:13;SPECI CYYG 211313Z 17007KT 3SM SHRA BR FEW002 OVC030 13/ RMK SF2SC6=
CYYG;2007-06-21 13:31;SPECI CYYG 211331Z 12010KT 2SM -SHRA BR OVC002 13/ RERA RMK SF8=
CYYG;2007-06-21 14:00;METAR CYYG 211400Z 14008KT 2 1/2SM -SHRA BR OVC002 13/12 A2964 RERA RMK SF8 SLP039=
CYYG;2007-06-21 15:00;METAR CYYG 211500Z 16008KT 3SM SHRA BR BKN003 OVC018 13/12 A2965 RMK SF7SC1 SLP041=
CYYG;2007-06-21 15:33;SPECI CYYG 211533Z 16009KT 6SM SHRA BR BKN004 OVC018 13/ RMK SF7SC1=
CYYG;2007-06-21 16:00;METAR CYYG 211600Z 17010KT 6SM SHRA BR BKN005 OVC018 13/12 A2965 RMK SF7SC1 SLP042=
CYYG;2007-06-21 16:41;SPECI CYYG 211641Z 16008KT 10SM -SHRA OVC003 13/ RERA RMK SF8=
CYYG;2007-06-21 17:00;METAR CYYG 211700Z 14007KT 15SM BKN005 OVC010 13/12 A2964 RERA RMK SF7SC1 SLP037=
CYYG;2007-06-21 17:19;SPECI CYYG 211719Z 10004KT 15SM VCSH BKN007 OVC040 13/ RMK SF6SC2=
CYYG;2007-06-21 17:38;SPECI CYYG 211738Z 16008KT 10SM -SHRA OVC005 13/ RMK SF8=
CYYG;2007-06-21 18:00;METAR CYYG 211800Z 17007KT 10SM -SHRA BKN005 OVC012 13/12 A2963 RMK SF7SC1 SLP036=
CYYG;2007-06-21 18:43;SPECI CYYG 211843Z 17006KT 15SM VCSH FEW003 BKN006 OVC012 13/ RMK SF1SF7SC1=
CYYG;2007-06-21 19:00;METAR CYYG 211900Z 18007KT 15SM VCSH FEW003 OVC006 13/12 A2964 RMK SF1SF8 SLP038=
CYYG;2007-06-21 19:10;SPECI CYYG 211910Z 14004KT 6SM -SHRA BR BKN005 OVC012 13/ RMK SF7SC1 VIS LWR S-SW=
CYYG;2007-06-21 19:42;SPECI CYYG 211942Z 17008KT 2 1/2SM -DZ BR OVC004 13/ RMK SF8=
CYYG;2007-06-21 19:52;SPECI CYYG 211952Z 16007KT 2SM -DZ BR OVC003 13/ RMK SF8=
CYYG;2007-06-21 20:00;METAR CYYG 212000Z 17007KT 2SM -DZ BR OVC003 13/12 A2963 RMK SF8 SLP034=
CYYG;2007-06-21 21:00;METAR CYYG 212100Z 17006KT 1 1/2SM -DZ BR OVC003 13/12 A2963 RMK SF8 SLP033=
CYYG;2007-06-21 22:00;METAR CYYG 212200Z 18006KT 1 1/2SM -DZ BR OVC002 13/12 A2962 RMK SF8 SLP031=
CYYG;2007-06-21 22:44;SPECI CYYG 212244Z 21006KT 2SM BR BKN002 OVC028 13/ RMK SF6SC2=
CYYG;2007-06-21 23:00;METAR CYYG 212300Z 20006KT 4SM BR SCT002 BKN008 OVC028 13/12 A2961 RMK SF3SF2SC2 SLP029=
CYYG;2007-06-22 00:00;METAR CYYG 220000Z 19006KT 8SM FEW002 OVC006 13/12 A2961 RMK SF2SF6 SLP028=
CYYG;2007-06-22 01:00;METAR CYYG 220100Z 22003KT 10SM OVC006 13/12 A2962 RMK SF8 SLP032=
CYYG;2007-06-22 02:00;METAR CYYG 220200Z 21005KT 12SM OVC006 13/12 A2961 RMK SF8 SLP028=
CYYG;2007-06-22 03:00;METAR CYYG 220300Z 23004KT 12SM OVC005 13/12 A2960 RMK SF8 SLP024=
CYYG;2007-06-22 03:37;SPECI CYYG 220337Z 21005KT 6SM BR OVC003 13/ RMK SF8=
CYYG;2007-06-22 04:00;METAR CYYG 220400Z 24007KT 6SM BR OVC003 13/12 A2958 RMK SF8 SLP017=
CYYG;2007-06-22 04:47;SPECI CYYG 220447Z 24004KT 10SM FEW003 OVC008 13/ RMK SF2SF6=
CYYG;2007-06-22 05:00;METAR CYYG 220500Z 25004KT 10SM FEW003 OVC007 13/12 A2957 RMK SF2SF6 SLP013=
CYYG;2007-06-22 06:00;METAR CYYG 220600Z 25004KT 12SM OVC006 13/12 A2956 RMK SF8 SLP012=
CYYG;2007-06-22 07:00;METAR CYYG 220700Z 26005KT 15SM BKN006 OVC030 12/12 A2955 RMK SF6SC2 SLP008=
CYYG;2007-06-22 08:00;METAR CYYG 220800Z 25004KT 15SM OVC006 12/11 A2955 RMK SF8 SLP009=
CYYG;2007-06-22 09:00;METAR CYYG 220900Z 24004KT 10SM OVC006 13/11 A2956 RMK SF8 SLP010=
CYYG;2007-06-22 09:52;SPECI CYYG 220952Z 24003KT 8SM -DZ BKN008 OVC014 13/ RMK SF6SC2=
CYYG;2007-06-22 10:00;METAR CYYG 221000Z 25004KT 8SM -DZ BKN007 OVC014 13/12 A2955 RMK SF6SC2 SLP007=
CYYG;2007-06-22 11:00;METAR CYYG 221100Z 28003KT 10SM -DZ BKN007 OVC015 13/12 A2955 RMK SF6SC2 SLP007=
CYYG;2007-06-22 12:00;METAR CYYG 221200Z 25005KT 15SM -DZ OVC006 13/12 A2955 RMK SF8 SLP008=
CYYG;2007-06-22 12:39;SPECI CYYG 221239Z 27006KT 15SM -DZ SCT009 OVC017 14/ RMK SF3SC5=
CYYG;2007-06-22 12:54;SPECI CYYG 221254Z 27005KT 15SM SCT010 OVC018 14/ RMK SC3SC5=
CYYG;2007-06-22 13:00;METAR CYYG 221300Z 27005KT 15SM SCT010 OVC017 14/12 A2955 RMK SC3SC5 SLP006=
CYYG;2007-06-22 14:00;METAR CYYG 221400Z 22005KT 15SM FEW012 SCT017 OVC024 15/12 A2954 RMK SC2SC2SC4 SLP005=
CYYG;2007-06-22 15:00;METAR CYYG 221500Z 24005KT 15SM FEW015 SCT020 OVC025 16/12 A2954 RMK SC1SC3SC4 SLP002=
CYYG;2007-06-22 16:00;METAR CYYG 221600Z 22004KT 15SM BKN012 OVC022 16/12 A2952 RMK SC6SC2 SLP998=
CYYG;2007-06-22 17:00;METAR CYYG 221700Z 16004KT 15SM SCT015 OVC030 17/13 A2951 RMK CU3SC5 SLP992=
CYYG;2007-06-22 18:00;METAR CYYG 221800Z 17008KT 15SM FEW015 BKN030 BKN200 18/13 A2951 RMK CU2SC4CI1 TCU ASOCTD SLP992=
CYYG;2007-06-22 19:00;METAR CYYG 221900Z 11005KT 15SM FEW015 FEW030 BKN200 18/13 A2950 RMK CU1SC2CI2 CB DSNT SE-W SLP988=
CYYG;2007-06-22 20:00;METAR CYYG 222000Z 15007KT 15SM FEW030 BKN070 BKN280 19/12 A2950 RMK CU2AC5CI0 CB DIST SE-S-W MOVG E OCNL LTGCG SE SLP989=
CYYG;2007-06-22 21:00;METAR CYYG 222100Z 16011KT 15SM VCSH FEW035 BKN070 BKN280 17/12 A2950 RMK CU2AC3CI1 CB DSNT SE AND NW QUADS OCNL LTGCG NW SLP988=
CYYG;2007-06-22 22:00;METAR CYYG 222200Z 18009KT 15SM FEW030 FEW070 BKN280 16/12 A2950 RMK CU1AC2CI2 TCU ASOCTD SLP989=
CYYG;2007-06-22 23:00;METAR CYYG 222300Z 18004KT 15SM FEW030 FEW070 BKN280 15/12 A2950 RMK SC2AC1CI2 SLP988=
CYYG;2007-06-23 00:00;METAR CYYG 230000Z 15004KT 15SM SCT090 BKN250 14/12 A2951 RMK AC2CI2 SLP993=
CYYG;2007-06-23 01:00;METAR CYYG 230100Z 13005KT 15SM SCT100 BKN250 13/12 A2951 RMK AC2CI2 SLP993=
CYYG;2007-06-23 02:00;METAR CYYG 230200Z 13005KT 15SM BKN076 BKN094 13/12 A2951 RMK AC5AC1 SLP993=
CYYG;2007-06-23 03:00;METAR CYYG 230300Z 12004KT 15SM OVC074 13/12 A2950 RMK AC8 SLP990=
CYYG;2007-06-23 04:00;METAR CYYG 230400Z 13002KT 15SM BKN069 13/12 A2949 RMK AC7 SLP987=
CYYG;2007-06-23 05:00;METAR CYYG 230500Z 00000KT 15SM SCT070 BKN100 12/11 A2948 RMK AC4AC2 SLP984=
CYYG;2007-06-23 06:00;METAR CYYG 230600Z 00000KT 15SM BKN087 11/11 A2948 RMK AC6 SLP983=
CYYG;2007-06-23 07:00;METAR CYYG 230700Z 14002KT 10SM BKN004 OVC080 12/11 A2948 RMK SF5AC3 SLP982=
CYYG;2007-06-23 08:00;METAR CYYG 230800Z 00000KT 3SM BR OVC003 12/12 A2948 RMK SF8 SLP984=
CYYG;2007-06-23 08:53;SPECI CYYG 230853Z 00000KT 3/4SM R03/P6000FT/N BR OVC002 13/ RMK SF8=
CYYG;2007-06-23 09:00;METAR CYYG 230900Z 00000KT 3/4SM R03/4500VP6000FT/D BR OVC002 13/13 A2949 RMK SF8 SLP985=
CYYG;2007-06-23 09:07;SPECI CYYG 230907Z 00000KT 1/2SM R03/3000V6000FT/D FG VV002 13/ RMK FG8=
CYYG;2007-06-23 09:33;SPECI CYYG 230933Z 14003KT 3/4SM R03/2200VP6000FT/U BR OVC002 13/ RMK SF8=
CYYG;2007-06-23 09:52;SPECI CYYG 230952Z 15004KT 1/4SM R03/2400VP6000FT/D FG VV001 13/ RMK FG8=
CYYG;2007-06-23 10:00;METAR CYYG 231000Z 16003KT 1/4SM R03/2400V6000FT/U FG VV001 13/12 A2950 RMK FG8 SLP991=
CYYG;2007-06-23 10:17;SPECI CYYG 231017Z 14003KT 1SM R03/P6000FT/D BR OVC002 13/ RMK ST8=
CYYG;2007-06-23 11:00;METAR CYYG 231100Z 12003KT 5/8SM R03/1800VP6000FT/U BR VV002 13/11 A2952 RMK FG8 SLP995=
CYYG;2007-06-23 11:11;SPECI CYYG 231111Z 11003KT 1 1/2SM BR OVC003 13/ RMK SF8=
CYYG;2007-06-23 11:45;SPECI CYYG 231145Z 13004KT 3SM BR OVC003 13/ RMK SF8=
CYYG;2007-06-23 12:00;METAR CYYG 231200Z 17002KT 3SM BR OVC004 13/12 A2952 RMK ST8 SLP999=
CYYG;2007-06-23 12:30;SPECI CYYG 231230Z 15003KT 10SM BKN006 OVC080 14/ RMK SF6AC2=
CYYG;2007-06-23 13:00;METAR CYYG 231300Z 11003KT 12SM BKN006 BKN060 OVC085 15/12 A2953 RMK SF5SC2AC2 SLP000=
CYYG;2007-06-23 13:11;SPECI CYYG 231311Z 00000KT 12SM SCT006 BKN060 OVC089 15/ RMK SF4SC2AC2=
CYYG;2007-06-23 13:19;SPECI CYYG 231319Z 00000KT 12SM BKN009 BKN060 OVC090 15/ RMK SC5SC2AC2=
CYYG;2007-06-23 13:30;SPECI CYYG 231330Z 12003KT 12SM BKN010 BKN065 OVC090 16/ RMK SC6SC1AC1=
CYYG;2007-06-23 14:00;METAR CYYG 231400Z 12002KT 12SM BKN010 BKN060 OVC090 16/12 A2953 RMK SC6SC1AC1 SLP002=
CYYG;2007-06-23 15:00;METAR CYYG 231500Z 18004KT 15SM SCT016TCU BKN070 17/13 A2954 RMK TCU3AC4 SLP002=
CYYG;2007-06-23 16:00;METAR CYYG 231600Z 26005KT 15SM VCSH SCT017TCU BKN070 BKN250 17/12 A2954 RMK TCU3AC2CI1 SLP003=
CYYG;2007-06-23 17:00;METAR CYYG 231700Z 04002KT 15SM VCSH SCT019TCU BKN075 BKN250 17/12 A2954 RMK TCU3AC2CI2 CB DSNT SE SLP002=
CYYG;2007-06-23 17:22;SPECI CYYG 231722Z 00000KT 15SM -SHRA SCT017TCU BKN070 BKN250 17/ RMK TCU4AC2CI1 CB DSNT SE-E=
CYYG;2007-06-23 18:00;METAR CYYG 231800Z 05009KT 15SM -SHRA BKN017TCU BKN070 BKN250 16/13 A2954 RMK TCU5AC1CI1 SLP005=
CYYG;2007-06-23 19:00;METAR CYYG 231900Z 01005KT 3SM SHRA BR FEW008 SCT015TCU BKN040 BKN250 14/13 A2955 RMK SF1TCU3SC2CI2 VIS SE-SW 10 SLP009=
CYYG;2007-06-23 19:48;SPECI CYYG 231948Z 01005KT 10SM -SHRA BKN004 BKN080 15/ RERA RMK SF5AC2 TCU EMBDD=
CYYG;2007-06-23 20:00;METAR CYYG 232000Z 36004KT 10SM -SHRA FEW004 BKN074 15/13 A2957 RERA RMK SF2ACC5 TCU EMBDD SLP015=
CYYG;2007-06-23 20:17;SPECI CYYG 232017Z 01004KT 10SM -SHRA BKN005 BKN075 15/ RMK SF5AC2 TCU EMBDD=
CYYG;2007-06-23 21:00;METAR CYYG 232100Z 34004KT 12SM VCSH FEW008 BKN013 BKN070 15/13 A2958 RMK SF2CU3AC2 TCU EMBDD SLP017=
CYYG;2007-06-23 22:00;METAR CYYG 232200Z 36004KT 15SM VCSH FEW010TCU FEW090 BKN250 15/13 A2959 RMK TCU1AC2CI2 SLP020=
CYYG;2007-06-23 23:00;METAR CYYG 232300Z 35005KT 15SM FEW015TCU SCT090 BKN250 14/13 A2960 RMK TCU2AC2CI2 SLP026=
CYYG;2007-06-23 23:41;SPECI CYYG 232341Z 35005KT 4SM BR BKN004 OVC015TCU 13/ RMK SF6TCU2=
CYYG;2007-06-24 00:00;METAR CYYG 240000Z 36004KT 4SM BR OVC003 13/13 A2962 RMK SF8 SLP031=
CYYG;2007-06-24 01:00;METAR CYYG 240100Z 35004KT 3SM BR OVC002 13/12 A2964 RMK SF8 SLP037=
CYYG;2007-06-24 01:40;SPECI CYYG 240140Z 36005KT 3/4SM R03/P6000FT/N BR OVC002 12/ RMK SF8=
CYYG;2007-06-24 02:00;METAR CYYG 240200Z 33004KT 3/4SM R03/P6000FT/U BR OVC002 12/12 A2964 RMK SF8 SLP039=
CYYG;2007-06-24 02:19;SPECI CYYG 240219Z 36003KT 1/2SM R03/P6000FT/D FG VV002 12/ RMK FG8=
CYYG;2007-06-24 03:00;METAR CYYG 240300Z 35003KT 1/2SM R03/5000FT/U FG VV002 12/12 A2964 RMK FG8 SLP039=
CYYG;2007-06-24 04:00;METAR CYYG 240400Z 00000KT 1/2SM R03/3000FT/N FG VV002 12/12 A2965 RMK FG8 SLP042=
CYYG;2007-06-24 04:09;SPECI CYYG 240409Z 00000KT 1SM R03/3000VP6000FT/U BR OVC003 12/ RMK SF8=
CYYG;2007-06-24 04:26;SPECI CYYG 240426Z 00000KT 2SM BR OVC005 12/ RMK SF8=
CYYG;2007-06-24 05:00;METAR CYYG 240500Z 00000KT 4SM BR OVC006 12/12 A2966 RMK SF8 SLP045=
CYYG;2007-06-24 05:33;SPECI CYYG 240533Z 28005KT 8SM OVC008 12/ RMK SF8=
CYYG;2007-06-24 06:00;METAR CYYG 240600Z 30003KT 10SM OVC007 12/12 A2967 RMK SF8 SLP049=
CYYG;2007-06-24 07:00;METAR CYYG 240700Z 34002KT 10SM BKN008 OVC015 12/12 A2969 RMK SF6SC2 SLP055=
CYYG;2007-06-24 08:00;METAR CYYG 240800Z 34002KT 10SM OVC007 12/12 A2971 RMK SF8 SLP060=
CYYG;2007-06-24 09:00;METAR CYYG 240900Z 00000KT 10SM OVC012 12/12 A2972 RMK SC8 SLP064=
CYYG;2007-06-24 10:00;METAR CYYG 241000Z 26003KT 10SM OVC011 13/12 A2974 RMK SC8 SLP072=
CYYG;2007-06-24 10:26;SPECI CYYG 241026Z 26002KT 15SM FEW005 OVC013 13/ RMK SF1SC7=
CYYG;2007-06-24 11:00;METAR CYYG 241100Z 25002KT 12SM FEW006 OVC016 14/12 A2976 RMK SF1SC7 SLP077=
CYYG;2007-06-24 12:00;METAR CYYG 241200Z 24003KT 12SM FEW008 OVC016 14/12 A2977 RMK SF2SC6 SLP081=
CYYG;2007-06-24 12:46;SPECI CYYG 241246Z 21006KT 15SM BKN010 OVC017 15/ RMK SC7SC1=
CYYG;2007-06-24 13:00;METAR CYYG 241300Z 20006KT 15SM VCSH BKN009 OVC015 15/13 A2977 RMK SF7SC1 TCU EMBDD SLP082=
CYYG;2007-06-24 13:35;SPECI CYYG 241335Z 19005KT 15SM VCSH FEW008 BKN011 OVC018 15/ RMK SF2SC5SC2 TCU EMBDD=
CYYG;2007-06-24 14:00;METAR CYYG 241400Z 20007KT 15SM BKN010 OVC017 16/14 A2978 RMK SC6SC2 TCU EMBDD SLP086=
CYYG;2007-06-24 16:00;METAR CYYG 241600Z 25010KT 12SM VCSH BKN013 OVC040 17/14 A2979 RMK CU6SC2 SLP089=
CYYG;2007-06-24 17:00;METAR CYYG 241700Z CCA 23009KT 15SM VCSH BKN011 BKN090 18/15 A2979 RMK CU6AC2 TCU EMBDD SLP090=
CYYG;2007-06-24 18:00;METAR CYYG 241800Z 26011G16KT 15SM VCSH FEW015TCU SCT045 BKN110 18/14 A2980 RMK TCU2SC2AC2 SLP092=
CYYG;2007-06-24 19:00;METAR CYYG 241900Z 23008KT 15SM VCSH FEW018TCU BKN071 19/14 A2981 RMK TCU2AC3 SLP094=
CYYG;2007-06-24 20:00;METAR CYYG 242000Z 22011G16KT 15SM VCSH SCT020TCU BKN072 BKN250 19/14 A2982 RMK TCU3AC2CI1 SLP097=
CYYG;2007-06-24 21:00;METAR CYYG 242100Z 25009KT 15SM VCSH FEW020TCU BKN052 BKN150 18/14 A2983 RMK TCU2SC3AC2 CB DSNT W SLP101=
CYYG;2007-06-24 21:30;SPECI CYYG 242130Z 26009G15KT 15SM -SHRA FEW022TCU BKN050 BKN150 17/ RMK TCU2SC4AC1 CB EMBDD DSNT NW=
CYYG;2007-06-24 22:00;METAR CYYG 242200Z 24005KT 15SM -SHRA FEW020TCU BKN070 BKN150 17/14 A2984 RMK TCU2AC3AC2 CB DSNT NW AND S SLP106=
CYYG;2007-06-24 22:50;SPECI CYYG 242250Z 24007KT 15SM VCSH FEW020TCU FEW060 SCT140 BKN300 17/ RMK TCU1SC2AC1CI1 CB S-SE=
CYYG;2007-06-24 23:00;METAR CYYG 242300Z 24008KT 15SM FEW020CB SCT060 BKN200 17/13 A2986 RMK CB2SC2CI1 CB ALQDS SLP111=
CYYG;2007-06-25 00:00;METAR CYYG 250000Z 25008KT 15SM VCSH SCT020TCU BKN055 BKN200 16/13 A2988 RMK TCU3SC3CI0 CB ASOCTD SE SLP118=
CYYG;2007-06-25 00:04;SPECI CYYG 250004Z 24008KT 15SM -SHRA SCT020TCU BKN055 BKN200 16/ RMK TCU4SC2CI0=
CYYG;2007-06-25 00:40;SPECI CYYG 250040Z 25005KT 15SM FEW020TCU BKN060 15/ RMK TCU2SC5=
CYYG;2007-06-25 01:00;METAR CYYG 250100Z 24005KT 15SM FEW012TCU BKN060 15/13 A2990 RMK TCU1SC6 SLP127=
CYYG;2007-06-25 02:00;METAR CYYG 250200Z 26006KT 15SM -SHRA FEW025TCU BKN051 15/13 A2992 RMK TCU1SC7 SLP132=
CYYG;2007-06-25 03:00;METAR CYYG 250300Z 26006KT 15SM -SHRA FEW050 BKN080 BKN250 14/13 A2993 RMK SC2AC3CI1 SLP136=
CYYG;2007-06-25 04:00;METAR CYYG 250400Z 25006KT 15SM -SHRA FEW025 OVC080 14/13 A2994 RMK SC1AC7 SLP138=
CYYG;2007-06-25 04:08;SPECI CYYG 250408Z 25007KT 15SM FEW015 BKN080 BKN250 14/ RMK SC1AC6CI0=
CYYG;2007-06-25 05:00;METAR CYYG 250500Z 25007KT 15SM SCT005 BKN080 OVC200 14/13 A2995 RMK SF3AC4CI1 SLP143=
CYYG;2007-06-25 06:00;METAR CYYG 250600Z 24008KT 15SM FEW005 OVC077 14/13 A2996 RMK SF2AC6 SLP147=
CYYG;2007-06-25 07:00;METAR CYYG 250700Z 25006KT 15SM FEW005 BKN077 13/13 A2998 RMK SF1AC6 SLP153=
CYYG;2007-06-25 08:00;METAR CYYG 250800Z 26007KT 15SM FEW005 FEW080 13/13 A3000 RMK SF1AC2 SLP160=
CYYG;2007-06-25 09:00;METAR CYYG 250900Z 26006KT 15SM FEW005 FEW080 FEW270 13/12 A3002 RMK SF1AC1CI1 SLP166=
CYYG;2007-06-25 10:00;METAR CYYG 251000Z 27008KT 15SM FEW040 FEW080 FEW270 14/13 A3004 RMK CF1AC1CI1 SLP171=
CYYG;2007-06-25 11:00;METAR CYYG 251100Z 27011KT 15SM FEW040 FEW080 FEW270 16/12 A3006 RMK CF1AC1CI0 SLP179=
CYYG;2007-06-25 12:00;METAR CYYG 251200Z 27011KT 15SM FEW040 FEW080 FEW270 17/13 A3007 RMK CF1AC1CI0 SLP182=
CYYG;2007-06-25 13:00;METAR CYYG 251300Z 27010KT 15SM FEW022 FEW040 FEW270 19/13 A3007 RMK CF1SC1CI0 SLP184=
CYYG;2007-06-25 14:00;METAR CYYG 251400Z 27009G15KT 15SM FEW028 FEW270 20/13 A3009 RMK CU1CI0 SLP189=
CYYG;2007-06-25 15:00;METAR CYYG 251500Z 27010KT 15SM FEW032 21/10 A3009 RMK CU2 SLP189=
CYYG;2007-06-25 16:00;METAR CYYG 251600Z 29010G17KT 15SM FEW036 22/08 A3009 RMK CU2 SLP189=
CYYG;2007-06-25 17:00;METAR CYYG 251700Z 26009KT 15SM FEW040 FEW280 22/10 A3009 RMK CU2CI0 SLP188=
CYYG;2007-06-25 18:00;METAR CYYG 251800Z 24009G17KT 15SM FEW044 SCT280 23/10 A3008 RMK CU2CI0 SLP187=
CYYG;2007-06-25 19:00;METAR CYYG 251900Z 25009KT 15SM FEW060 BKN280 23/08 A3008 RMK CU2CI0 SLP187=
CYYG;2007-06-25 20:00;METAR CYYG 252000Z 22009KT 15SM FEW060 SCT280 23/09 A3008 RMK CU2CI0 SLP186=
CYYG;2007-06-25 21:00;METAR CYYG 252100Z 25008KT 15SM FEW060 FEW280 23/09 A3007 RMK CU1CI0 SLP182=
CYYG;2007-06-25 22:00;METAR CYYG 252200Z 19007KT 15SM FEW280 21/10 A3007 RMK CI1 SLP184=
CYYG;2007-06-25 23:00;METAR CYYG 252300Z 18007KT 15SM FEW250 19/09 A3008 RMK CI1 SLP185=
CYYG;2007-06-26 00:00;METAR CYYG 260000Z 19006KT 15SM SCT250 16/09 A3009 RMK CI2 SLP188=
CYYG;2007-06-26 01:00;METAR CYYG 260100Z 22005KT 15SM BKN250 17/10 A3010 RMK CI3 SLP192=
CYYG;2007-06-26 02:00;METAR CYYG 260200Z 23007KT 15SM BKN270 18/09 A3009 RMK CI4 SLP191=
CYYG;2007-06-26 03:00;METAR CYYG 260300Z 22005KT 15SM SCT270 17/09 A3009 RMK CI2 SLP190=
CYYG;2007-06-26 04:00;METAR CYYG 260400Z 21006KT 15SM SCT270 16/09 A3009 RMK CI2 SLP190=
CYYG;2007-06-26 05:00;METAR CYYG 260500Z 21007KT 15SM FEW100 BKN200 16/10 A3008 RMK AC1CI2 SLP186=
CYYG;2007-06-26 06:00;METAR CYYG 260600Z 20008KT 15SM SCT090 BKN250 16/11 A3006 RMK AC2CI3 SLP181=
CYYG;2007-06-26 07:00;METAR CYYG 260700Z 21007KT 15SM FEW130 BKN250 16/12 A3006 RMK AC1CI2 SLP179=
CYYG;2007-06-26 08:00;METAR CYYG 260800Z 21008KT 15SM BKN120 16/12 A3005 RMK AC6 SLP177=
CYYG;2007-06-26 09:00;METAR CYYG 260900Z 21007KT 15SM OVC094 16/11 A3004 RMK AC8 SLP172=
CYYG;2007-06-26 09:18;SPECI CYYG 260918Z 22008KT 15SM -SHRA SCT042 OVC098 15/ RMK SC3AC5=
CYYG;2007-06-26 10:00;METAR CYYG 261000Z 20009KT 8SM -SHRA SCT036 OVC100 15/13 A3004 RMK SC3AC5 SLP172=
CYYG;2007-06-26 10:29;SPECI CYYG 261029Z 19009KT 4SM SHRA BR FEW007 BKN016 OVC080 14/ RMK SF2SC5AC2=
CYYG;2007-06-26 10:47;SPECI CYYG 261047Z 21004KT 2SM TSRA BR BKN007 OVC020CB 14/ RMK SF6CB2=
CYYG;2007-06-26 11:00;METAR CYYG 261100Z 18010KT 1 1/2SM R03/4500VP6000FT/D TSRA BR BKN006 OVC021CB 14/13 A3004 RMK SF6CB2 VIS S 1/2 SLP173=
CYYG;2007-06-26 11:42;SPECI CYYG 261142Z 13004KT 2SM -SHRA BKN003 OVC010 14/ RMK SF6SF2=
CYYG;2007-06-26 12:00;METAR CYYG 261200Z 13005KT 2 1/2SM -SHRA BR OVC002 14/14 A3002 RMK SF8 SLP167=
CYYG;2007-06-26 13:00;METAR CYYG 261300Z 17009KT 4SM BR BKN003 OVC032 16/15 A3001 RMK SF6SC2 SLP162=
CYYG;2007-06-26 13:15;SPECI CYYG 261315Z 17010KT 8SM BKN005 BKN018 OVC030 16/ RMK SF5SC2SC2=
CYYG;2007-06-26 13:26;SPECI CYYG 261326Z 17009KT 12SM SCT006 BKN028 OVC200 16/ RMK SF3SC2CI2=
CYYG;2007-06-26 14:00;METAR CYYG 261400Z 18007KT 12SM FEW006 BKN026 OVC200 17/15 A3001 RMK SF2SC3CI2 SLP162=
CYYG;2007-06-26 15:00;METAR CYYG 261500Z 23007KT 12SM FEW007 BKN022 OVC220 19/15 A2999 RMK SF1SC5CI2 SLP155=
CYYG;2007-06-26 16:00;METAR CYYG 261600Z 23007KT 15SM BKN015 OVC220 19/16 A2999 RMK SC6CI2 SLP156=
CYYG;2007-06-26 17:00;METAR CYYG 261700Z 27006KT 15SM BKN016 OVC220 21/17 A2998 RMK SC6CI2 SLP153=
CYYG;2007-06-26 18:00;METAR CYYG 261800Z 28006KT 15SM BKN019 BKN030 22/18 A2997 RMK SC5SC2 SLP150=
CYYG;2007-06-26 19:00;METAR CYYG 261900Z 33005KT 15SM SCT022 BKN140 23/18 A2997 RMK SC4AC3 SLP149=
CYYG;2007-06-26 20:00;METAR CYYG 262000Z 24010KT 15SM FEW020 SCT032 BKN140 21/17 A2998 RMK SC2SC2AC3 SLP154=
CYYG;2007-06-26 21:00;METAR CYYG 262100Z 25008KT 15SM FEW032 SCT140 OVC220 22/17 A2997 RMK SC1AC3CI3 SLP149=
CYYG;2007-06-26 22:00;METAR CYYG 262200Z 24005KT 15SM FEW140 BKN250 21/17 A2995 RMK AC2CI3 SLP143=
CYYG;2007-06-26 23:00;METAR CYYG 262300Z 22006KT 10SM BKN120 BKN250 20/17 A2994 RMK AC5CI1=
CYYG;2007-06-27 00:00;METAR CYYG 270000Z 24006KT 10SM BKN120 BKN250 20/16 A2993 RMK AC5CI1=
CYYG;2007-06-27 01:00;METAR CYYG 270100Z 22004KT 15SM BKN120 BKN250 19/16 A2992 RMK AC5CI1 SLP133=
CYYG;2007-06-27 02:00;METAR CYYG 270200Z 20006KT 15SM FEW070 BKN120 18/16 A2992 RMK AC2AC2 SLP131=
CYYG;2007-06-27 03:00;METAR CYYG 270300Z 22006KT 15SM BKN120 18/16 A2991 RMK AC5 SLP128=
CYYG;2007-06-27 04:00;METAR CYYG 270400Z 23007KT 15SM FEW090 BKN120 18/16 A2989 RMK AC2AC2 SLP121=
CYYG;2007-06-27 05:00;METAR CYYG 270500Z 25008KT 15SM FEW120 SCT190 17/15 A2987 RMK AC2AC2 SLP115=
CYYG;2007-06-27 06:00;METAR CYYG 270600Z 25009KT 15SM SCT210 17/15 A2986 RMK CI2 SLP112=
CYYG;2007-06-27 07:00;METAR CYYG 270700Z 24010KT 15SM BKN210 19/17 A2983 RMK CI6 SLP102=
CYYG;2007-06-27 08:00;METAR CYYG 270800Z 25007KT 10SM FEW120 BKN230 17/16 A2984 RMK AC2CI3=
CYYG;2007-06-27 09:00;METAR CYYG 270900Z 29008KT 10SM BKN160 20/17 A2984 RMK AC7 HAZY SLP105=
CYYG;2007-06-27 10:00;METAR CYYG 271000Z 30009G15KT 15SM BKN160 BKN240 20/16 A2987 RMK AC5CI2 SLP113=
CYYG;2007-06-27 11:00;METAR CYYG 271100Z 30009G16KT 15SM FEW110 BKN160 BKN220 21/15 A2988 RMK AC1AC5CC1 VIRGA ALQDS SLP119=
CYYG;2007-06-27 12:00;METAR CYYG 271200Z 33012G20KT 15SM FEW110 SCT160 BKN240 20/12 A2990 RMK AC1AC3CI0 SLP126=
CYYG;2007-06-27 13:00;METAR CYYG 271300Z 32012G19KT 15SM FEW100 SCT160 BKN240 20/11 A2991 RMK AC2AC2CI1 SLP128=
CYYG;2007-06-27 14:00;METAR CYYG 271400Z 33007G15KT 15SM SCT100 BKN140 BKN240 20/11 A2992 RMK AC3AC2CI2 SLP133=
CYYG;2007-06-27 15:00;METAR CYYG 271500Z 34007KT 15SM SCT090 BKN130 OVC260 20/11 A2993 RMK AC3AC2CI2 SLP136=
CYYG;2007-06-27 16:00;METAR CYYG 271600Z 35007KT 15SM FEW090 SCT130 OVC260 21/11 A2992 RMK AC1AC2CI1 SLP133=
CYYG;2007-06-27 17:00;METAR CYYG 271700Z 35008G16KT 15SM FEW090 FEW130 BKN260 21/11 A2994 RMK AC1AC2CI1 SLP138=
CYYG;2007-06-27 18:00;METAR CYYG 271800Z 34007KT 15SM FEW090 FEW130 BKN260 22/10 A2993 RMK AC1AC1CI1 SLP137=
CYYG;2007-06-27 19:00;METAR CYYG 271900Z 32008KT 15SM FEW090 FEW130 BKN260 22/12 A2993 RMK AC1AC1CI1 SLP135=
CYYG;2007-06-27 20:00;METAR CYYG 272000Z 35006KT 15SM FEW090 FEW130 BKN260 22/08 A2994 RMK AC1AC1CI1 SLP139=
CYYG;2007-06-27 21:00;METAR CYYG 272100Z 01007KT 15SM FEW090 FEW140 BKN260 21/06 A2994 RMK AC1AC2CI1 SLP139=
CYYG;2007-06-27 22:00;METAR CYYG 272200Z 03009KT 15SM FEW090 FEW140 BKN260 20/05 A2994 RMK AC1AC2CI1 SLP139=
CYYG;2007-06-27 23:00;METAR CYYG 272300Z 04004KT 15SM FEW090 FEW130 BKN260 17/05 A2996 RMK AC1AC2CI2 SLP144=
CYYG;2007-06-28 00:00;METAR CYYG 280000Z 05004KT 15SM BKN130 BKN260 16/08 A2995 RMK AC5CI1 SLP141=
CYYG;2007-06-28 01:00;METAR CYYG 280100Z 08005KT 15SM BKN120 16/08 A2998 RMK AC6 SLP151=
CYYG;2007-06-28 02:00;METAR CYYG 280200Z 09006KT 15SM BKN140 14/08 A2997 RMK AC5 SLP149=
CYYG;2007-06-28 03:00;METAR CYYG 280300Z 11008KT 15SM SCT130 13/09 A2996 RMK AC4 SLP145=
CYYG;2007-06-28 04:00;METAR CYYG 280400Z 13006KT 15SM SCT076 OVC260 13/09 A2993 RMK AC4CI4 SLP137=
CYYG;2007-06-28 05:00;METAR CYYG 280500Z 13008KT 15SM SCT066 OVC260 14/08 A2992 RMK AC4CI4 SLP133=
CYYG;2007-06-28 06:00;METAR CYYG 280600Z 14009KT 15SM SCT066 OVC260 15/07 A2988 RMK AC4CI4 DSNT LTGIC W-S SLP119=
CYYG;2007-06-28 06:07;SPECI CYYG 280607Z 13010KT 15SM -TSRA BKN060 OVC240 14/ RMK SC6CI2 CB EMBDD=
CYYG;2007-06-28 07:00;METAR CYYG 280700Z 12009KT 15SM -TSRA OVC049 12/10 A2986 RMK SC8 CB EMBDD SLP113=
CYYG;2007-06-28 08:00;METAR CYYG 280800Z 10010G15KT 15SM -TSRA OVC040 12/11 A2982 RMK SC8 CB EMBD LTGICCG SLP100=
CYYG;2007-06-28 08:27;SPECI CYYG 280827Z 10008KT 3SM TSRA OVC008 12/ RMK SF8 CB EMBD LTGICCG=
CYYG;2007-06-28 08:49;SPECI CYYG 280849Z 12013G18KT 4SM -SHRA BR FEW008 SCT040 OVC096 11/ RMK SF2SC2AC5 RETS RERA=
CYYG;2007-06-28 09:00;METAR CYYG 280900Z 12015G20KT 6SM -SHRA FEW040 OVC100 11/11 A2978 RMK SC2AC6 RETS RERA SLP085=
CYYG;2007-06-28 09:40;SPECI CYYG 280940Z 11011G16KT 10SM FEW040 OVC120 11/ RMK SC2AC6=
CYYG;2007-06-28 10:00;METAR CYYG 281000Z 13009KT 15SM BKN120 OVC240 12/11 A2977 RMK AC6CI2 SLP082=
CYYG;2007-06-28 11:00;METAR CYYG 281100Z 12006KT 15SM BKN020 OVC100 13/11 A2977 RMK SC6AC2 SLP080=
CYYG;2007-06-28 11:25;SPECI CYYG 281125Z 13006KT 10SM OVC014 13/ RMK SC8=
CYYG;2007-06-28 12:00;METAR CYYG 281200Z 14004KT 10SM OVC008 14/12 A2975 RMK SF8 SLP074=
CYYG;2007-06-28 12:32;SPECI CYYG 281232Z 09002KT 2 1/2SM BR OVC006 14/ RMK SF8=
CYYG;2007-06-28 13:00;METAR CYYG 281300Z 19005KT 1SM R03/P6000FT/N BR OVC004 16/15 A2973 RMK SF8 SLP068=
CYYG;2007-06-28 13:34;SPECI CYYG 281334Z 20003KT 3/4SM R03/P6000FT/N BR OVC003 16/ RMK SF8=
CYYG;2007-06-28 14:00;METAR CYYG 281400Z 22005KT 3/4SM R03/P6000FT/N BR OVC003 17/16 A2972 RMK SF8 SLP066=
CYYG;2007-06-28 15:00;METAR CYYG 281500Z 29005KT 2SM BR OVC005 18/17 A2973 RMK SF8 SLP069=
CYYG;2007-06-28 16:00;METAR CYYG 281600Z 28005KT 3SM BR OVC009 19/17 A2972 RMK SF8 SLP064=
CYYG;2007-06-28 16:24;SPECI CYYG 281624Z 27008KT 5SM BR OVC012 19/ RMK SF8=
CYYG;2007-06-28 17:00;METAR CYYG 281700Z 25006KT 5SM BR OVC011 19/17 A2972 RMK SF8 SLP066=
CYYG;2007-06-28 18:00;METAR CYYG 281800Z 29009KT 6SM BR OVC011 19/17 A2972 RMK SF8 SLP064=
CYYG;2007-06-28 19:00;METAR CYYG 281900Z 30007KT 8SM OVC014 20/17 A2971 RMK SC8 SLP062=
CYYG;2007-06-28 20:00;METAR CYYG 282000Z 29007KT 15SM OVC017 19/16 A2972 RMK SC8 SLP066=
CYYG;2007-06-28 21:00;METAR CYYG 282100Z 35007KT 12SM OVC019 17/15 A2972 RMK SC8 SLP066=
CYYG;2007-06-28 22:00;METAR CYYG 282200Z 34005KT 12SM SCT008 OVC022 17/15 A2973 RMK SF3SC5 SLP068=
CYYG;2007-06-28 22:32;SPECI CYYG 282232Z 34005KT 8SM BKN008 OVC021 16/ RMK SF6SC2=
CYYG;2007-06-28 23:00;METAR CYYG 282300Z 35005KT 8SM OVC011 15/13 A2974 RMK SC8 SLP071=
CYYG;2007-06-29 00:00;METAR CYYG 290000Z 35008KT 8SM BKN008 OVC100 14/13 A2974 RMK SF6AC2 SLP071=
CYYG;2007-06-29 01:00;METAR CYYG 290100Z 36005KT 10SM OVC005 13/12 A2976 RMK SF8 SLP077=
CYYG;2007-06-29 02:00;METAR CYYG 290200Z 01004KT 12SM OVC005 13/12 A2975 RMK SF8 SLP076=
CYYG;2007-06-29 02:42;SPECI CYYG 290242Z 00000KT 12SM -SHRA SCT004 OVC067 13/ RMK SF3AC5=
CYYG;2007-06-29 03:00;METAR CYYG 290300Z 07002KT 12SM -SHRA SCT006 OVC060 13/12 A2974 RMK SF3SC5 SLP073=
CYYG;2007-06-29 04:00;METAR CYYG 290400Z 00000KT 12SM -SHRA OVC006 13/12 A2975 RMK SF8 SLP076=
CYYG;2007-06-29 05:00;METAR CYYG 290500Z 31003KT 15SM -SHRA OVC005 13/12 A2975 RMK SF8 SLP076=
CYYG;2007-06-29 06:00;METAR CYYG 290600Z 31005KT 15SM OVC004 12/12 A2976 RMK SF8 SLP079=
CYYG;2007-06-29 07:00;METAR CYYG 290700Z 36004KT 15SM BKN005 OVC090 12/12 A2974 RMK SF6AC2 SLP073=
CYYG;2007-06-29 08:00;METAR CYYG 290800Z 31003KT 15SM SCT006 OVC066 12/12 A2976 RMK SF3SC5 SLP078=
CYYG;2007-06-29 09:00;METAR CYYG 290900Z 29004KT 10SM BKN012 OVC066 13/12 A2977 RMK SC6AC2 SLP082=
CYYG;2007-06-29 10:00;METAR CYYG 291000Z 32008KT 10SM SCT012 BKN060 14/13 A2978 RMK SC3SC2 SLP086=
CYYG;2007-06-29 11:00;METAR CYYG 291100Z 33010KT 15SM BKN065 OVC240 14/11 A2979 RMK SC5CS2 SLP087=
CYYG;2007-06-29 12:00;METAR CYYG 291200Z 32008G15KT 15SM SCT037 BKN065 BKN240 14/12 A2981 RMK SC3SC2CS1 SLP095=
CYYG;2007-06-29 13:00;METAR CYYG 291300Z 33010G15KT 15SM FEW038 BKN240 15/11 A2981 RMK SC2CI3 SLP096=
CYYG;2007-06-29 14:00;METAR CYYG 291400Z 31009KT 15SM SCT020 BKN270 16/12 A2982 RMK SC2CI4 SLP098=
CYYG;2007-06-29 15:00;METAR CYYG 291500Z 35008KT 15SM SCT022 BKN270 16/11 A2982 RMK SC3CI2 SLP099=
CYYG;2007-06-29 16:00;METAR CYYG 291600Z 34008KT 15SM SCT022 BKN270 16/11 A2982 RMK SC2CI2 SLP099=
CYYG;2007-06-29 17:00;METAR CYYG 291700Z 33009KT 15SM BKN034 BKN270 16/11 A2982 RMK SC3CI1 SLP097=
CYYG;2007-06-29 18:00;METAR CYYG 291800Z 34007KT 15SM FEW032 BKN270 17/11 A2982 RMK SC2CI2 SLP098=
CYYG;2007-06-29 19:00;METAR CYYG 291900Z 33006KT 15SM FEW030 SCT250 17/10 A2982 RMK SC1CI1 SLP097=
CYYG;2007-06-29 20:00;METAR CYYG 292000Z 32004KT 15SM FEW030 SCT250 18/11 A2981 RMK SC1CI1 SLP095=
CYYG;2007-06-29 21:00;METAR CYYG 292100Z 27002KT 15SM FEW030 SCT250 19/10 A2981 RMK SC1CI1 SLP094=
CYYG;2007-06-29 22:00;METAR CYYG 292200Z 26004KT 15SM FEW030 FEW250 19/10 A2980 RMK SC1CI1 SLP092=
CYYG;2007-06-29 23:00;METAR CYYG 292300Z 19008KT 15SM FEW030 FEW250 16/11 A2981 RMK SC1CI1 SLP095=
CYYG;2007-06-30 00:00;METAR CYYG 300000Z 20006KT 15SM FEW030 FEW250 15/10 A2981 RMK SC1CI1 SLP096=
CYYG;2007-06-30 01:00;METAR CYYG 300100Z 21005KT 15SM FEW030 FEW250 14/09 A2982 RMK SC1CI1 SLP099=
CYYG;2007-06-30 02:00;METAR CYYG 300200Z 21006KT 15SM FEW030 FEW250 14/10 A2982 RMK SC1CI1 SLP100=
CYYG;2007-06-30 03:00;METAR CYYG 300300Z 22004KT 15SM FEW070 FEW250 14/11 A2982 RMK AC1CI1 SLP099=
CYYG;2007-06-30 04:00;METAR CYYG 300400Z 23005KT 15SM FEW070 13/11 A2982 RMK AC1 SLP099=
CYYG;2007-06-30 05:00;METAR CYYG 300500Z 24007KT 15SM SKC 13/11 A2981 RMK SLP096=
CYYG;2007-06-30 06:00;METAR CYYG 300600Z 25007KT 15SM SKC 12/10 A2980 RMK SLP093=
CYYG;2007-06-30 07:00;METAR CYYG 300700Z 24009KT 15SM FEW040 12/10 A2981 RMK SC1 SLP094=
CYYG;2007-06-30 08:00;METAR CYYG 300800Z 25006KT 15SM FEW040 FEW070 12/10 A2980 RMK SC1AC1 SLP091=
CYYG;2007-06-30 09:00;METAR CYYG 300900Z 24007KT 15SM FEW070 FEW300 12/10 A2979 RMK AC1CI0 SLP089=
CYYG;2007-06-30 10:00;METAR CYYG 301000Z 23005KT 15SM FEW070 SCT300 13/11 A2979 RMK AC1CI1 SLP088=
CYYG;2007-06-30 11:00;METAR CYYG 301100Z 23005KT 15SM FEW070 FEW300 15/11 A2978 RMK AC1CI0 SLP086=
CYYG;2007-06-30 12:00;METAR CYYG 301200Z 23006KT 15SM BKN070 BKN300 16/12 A2979 RMK AC5CI1 SLP087=
CYYG;2007-06-30 13:00;METAR CYYG 301300Z 26009G16KT 15SM BKN070 BKN300 16/12 A2979 RMK AC5CI2 SLP089=
CYYG;2007-06-30 14:00;METAR CYYG 301400Z 24006KT 15SM FEW077 BKN100 OVC300 17/11 A2978 RMK AC2AC3CI2 SLP086=
CYYG;2007-06-30 15:00;METAR CYYG 301500Z 27007KT 15SM FEW030 BKN096 BKN300 19/12 A2978 RMK SC2AC3CI2 SLP084=
CYYG;2007-06-30 16:00;METAR CYYG 301600Z 26010KT 15SM FEW030 BKN089 17/10 A2978 RMK SC2AC3 SLP084=
CYYG;2007-06-30 17:00;METAR CYYG 301700Z 26007KT 15SM FEW038TCU FEW080 SCT120 19/12 A2976 RMK TCU2AC1AC1 SLP078=
CYYG;2007-06-30 17:22;SPECI CYYG 301722Z 24012KT 15SM -SHRA SCT038TCU SCT080 18/ RMK TCU3AC1=
CYYG;2007-06-30 18:00;METAR CYYG 301800Z 24009G17KT 15SM VCSH SCT034TCU SCT080 20/11 A2975 RMK TCU3AC1 SLP074=
CYYG;2007-06-30 18:34;SPECI CYYG 301834Z 26009KT 15SM TS BKN042CB BKN080 19/ RMK CB3AC2 LTGCG=
CYYG;2007-06-30 18:43;SPECI CYYG 301843Z 27013G19KT 15SM -TSRA BKN059CB BKN300 18/ RMK CB5CI0 VIS LWR W-NE=
CYYG;2007-06-30 19:00;METAR CYYG 301900Z 31013G19KT 12SM -TSRA SCT045CB BKN067CB BKN090 14/11 A2976 RMK CB3CB2AC2 VIS LWR W-NE SLP077=
CYYG;2007-06-30 19:23;SPECI CYYG 301923Z 28007KT 15SM -SHRA BKN058TCU 14/ RETS RMK TCU6 CB=
CYYG;2007-06-30 19:55;SPECI CYYG 301955Z 25007KT 15SM VCSH SCT058TCU 17/ RETS RMK TCU3=
CYYG;2007-06-30 20:00;METAR CYYG 302000Z 25007KT 15SM VCSH SCT054 17/11 A2975 RMK SC3 TCU EMBDD RETS SLP076=
CYYG;2007-06-30 21:00;METAR CYYG 302100Z 24007KT 15SM FEW060TCU 18/12 A2974 RMK TCU2 CB DIST SW SLP072=
CYYG;2007-06-30 21:43;SPECI CYYG 302143Z 28009KT 12SM -SHRA BKN048TCU BKN062 17/ RMK TCU3SC2 CB DIST SW=
CYYG;2007-06-30 22:00;METAR CYYG 302200Z 26008KT 15SM VCSH FEW045TCU 17/11 A2976 RMK TCU2 SLP077=
CYYG;2007-06-30 23:00;METAR CYYG 302300Z 26003KT 15SM FEW045TCU 18/11 A2977 RMK TCU2 SLP080=
CYYG;2007-07-01 00:00;METAR CYYG 010000Z 22006KT 15SM FEW045 16/11 A2977 RMK SC2 SLP083=
CYYG;2007-07-01 01:00;METAR CYYG 010100Z 23004KT 15SM FEW045 14/11 A2979 RMK SC2 SLP088=
CYYG;2007-07-01 02:00;METAR CYYG 010200Z 25006KT 15SM FEW045 14/11 A2979 RMK SC2 SLP087=
CYYG;2007-07-01 03:00;METAR CYYG 010300Z 25005KT 15SM FEW050 13/11 A2979 RMK SC2 SLP087=
CYYG;2007-07-01 04:00;METAR CYYG 010400Z 26006KT 15SM FEW050 13/11 A2979 RMK SC2 SLP088=
CYYG;2007-07-01 05:00;METAR CYYG 010500Z 28006KT 15SM FEW050 12/10 A2978 RMK SC2 SLP084=
CYYG;2007-07-01 06:00;METAR CYYG 010600Z 26005KT 15SM FEW050 12/09 A2977 RMK SC1 SLP083=
CYYG;2007-07-01 07:00;METAR CYYG 010700Z 27006KT 15SM FEW050 11/09 A2978 RMK SC1 SLP084=
CYYG;2007-07-01 08:00;METAR CYYG 010800Z 25006KT 15SM FEW050 11/09 A2979 RMK SC1 SLP089=
CYYG;2007-07-01 09:00;METAR CYYG 010900Z 25006KT 15SM FEW050 FEW300 11/09 A2979 RMK SC1CI1 SLP089=
CYYG;2007-07-01 10:00;METAR CYYG 011000Z 26004KT 15SM FEW050 SCT300 12/09 A2979 RMK SC1CI1 SLP089=
CYYG;2007-07-01 11:00;METAR CYYG 011100Z 25006KT 15SM FEW070 FEW220 14/10 A2980 RMK AC1CC1 SLP091=
CYYG;2007-07-01 12:00;METAR CYYG 011200Z 25005KT 15SM FEW030 BKN064 BKN220 15/10 A2980 RMK CU1SC5CC1 SLP091=
CYYG;2007-07-01 13:00;METAR CYYG 011300Z 25006KT 15SM FEW022 BKN064 BKN300 15/11 A2980 RMK CU1SC6CI1 SLP092=
CYYG;2007-07-01 14:00;METAR CYYG 011400Z 25009KT 15SM FEW020 BKN072 BKN300 16/11 A2980 RMK CU1AC5CI1 SLP093=
CYYG;2007-07-01 15:00;METAR CYYG 011500Z 25008G15KT 15SM FEW024 FEW070 BKN240 17/10 A2980 RMK CU2AC1CI3 SLP091=
CYYG;2007-07-01 16:00;METAR CYYG 011600Z 28012G20KT 15SM FEW035 BKN080 BKN240 17/09 A2980 RMK CU2AC5CI0 SLP091=
CYYG;2007-07-01 17:00;METAR CYYG 011700Z 25009KT 15SM FEW045 BKN088 BKN240 18/09 A2979 RMK CU2AC3CI1 TCU DIST N SH DIST E SLP090=
CYYG;2007-07-01 18:00;METAR CYYG 011800Z 25009G15KT 15SM FEW050 BKN085 BKN240 19/10 A2979 RMK CU2AC2CI1 SLP088=
CYYG;2007-07-01 19:00;METAR CYYG 011900Z 28011KT 15SM FEW057TCU BKN078 BKN240 20/08 A2979 RMK TCU2AC3CI1 SH DIST E SLP088=
CYYG;2007-07-01 20:00;METAR CYYG 012000Z 29008KT 15SM BKN055TCU BKN090 19/08 A2980 RMK TCU5AC2 SH ALQDS SLP091=
CYYG;2007-07-01 21:00;METAR CYYG 012100Z 34008KT 15SM VCSH BKN040TCU BKN090 17/10 A2981 RMK TCU5AC2 SH ALQDS SLP094=
CYYG;2007-07-01 21:51;SPECI CYYG 012151Z 35009KT 15SM -SHRA BKN040TCU BKN100 15/ RMK TCU5AC2 VIS N 3=
CYYG;2007-07-01 22:00;METAR CYYG 012200Z 35007KT 15SM -SHRA BKN040TCU BKN100 14/10 A2982 RMK TCU5AC2 VIS LWR N-NE SLP099=
CYYG;2007-07-01 22:37;SPECI CYYG 012237Z 36002KT 15SM VCSH SCT040TCU BKN064 14/ RERA RMK TCU3SC2 VIS LWR NE-E=
CYYG;2007-07-01 23:00;METAR CYYG 012300Z 36003KT 15SM VCSH SCT040TCU BKN065 14/12 A2983 RMK TCU3SC2 RERA SLP103=
CYYG;2007-07-02 00:00;METAR CYYG 020000Z 00000KT 15SM FEW040 BKN065 13/11 A2984 RMK SC2SC3 SLP106=
CYYG;2007-07-02 01:00;METAR CYYG 020100Z 00000KT 15SM BCFG FEW040 BKN065 12/11 A2986 RMK SC2SC3 SLP111=
CYYG;2007-07-02 02:00;METAR CYYG 020200Z 00000KT 15SM FEW040 SCT065 10/10 A2986 RMK SC2SC2 SLP113=
CYYG;2007-07-02 03:00;METAR CYYG 020300Z 28003KT 15SM SCT028 11/10 A2987 RMK SC4 SLP115=
CYYG;2007-07-02 04:00;METAR CYYG 020400Z 27003KT 15SM FEW028 BKN068 11/10 A2987 RMK SC2AC3 SLP117=
CYYG;2007-07-02 05:00;METAR CYYG 020500Z 29002KT 15SM FEW030 BKN086 11/10 A2987 RMK SC2AC4 SLP115=
CYYG;2007-07-02 06:00;METAR CYYG 020600Z 32002KT 15SM FEW030 BKN081 11/10 A2987 RMK SC2AC4 SLP116=
CYYG;2007-07-02 07:00;METAR CYYG 020700Z 34004KT 15SM BKN080 10/09 A2987 RMK AC5 SLP115=
CYYG;2007-07-02 08:00;METAR CYYG 020800Z 34003KT 15SM SCT080 10/09 A2987 RMK AC4 SLP114=
CYYG;2007-07-02 09:00;METAR CYYG 020900Z 31002KT 15SM SCT008 BKN080 10/10 A2988 RMK SF4AC2 SLP120=
CYYG;2007-07-02 10:00;METAR CYYG 021000Z 00000KT 15SM FEW008 BKN084 13/12 A2990 RMK SF2AC5 SLP124=
CYYG;2007-07-02 11:00;METAR CYYG 021100Z 35002KT 15SM FEW006 FEW048 BKN091 13/12 A2991 RMK SF2SC1AC4 TCU DIST W-NW SLP128=
CYYG;2007-07-02 12:00;METAR CYYG 021200Z 01002KT 15SM FEW009 BKN048 BKN062 15/12 A2991 RMK CU2SC2SC2 SLP130=
CYYG;2007-07-02 12:47;SPECI CYYG 021247Z 36007KT 15SM BKN013TCU BKN086 14/ RMK TCU5AC2 SH=
CYYG;2007-07-02 13:00;METAR CYYG 021300Z 35006KT 15SM VCSH BKN013TCU BKN038 BKN086 14/11 A2992 RMK TCU5SC2AC1 SH NW VIS 4 SLP132=
CYYG;2007-07-02 13:03;SPECI CYYG 021303Z 33005KT 15SM -SHRA BKN015TCU BKN056 14/ RMK TCU5SC2 VIS NW 3=
CYYG;2007-07-02 14:00;METAR CYYG 021400Z 36007KT 15SM -SHRA SCT015TCU BKN064 15/12 A2992 RMK TCU4SC3 SLP132=
CYYG;2007-07-02 15:00;METAR CYYG 021500Z 36008KT 10SM -SHRA SCT015TCU BKN059 14/12 A2992 RMK TCU3SC3 VIS S-SW 5 SLP133=
CYYG;2007-07-02 16:00;METAR CYYG 021600Z 36006KT 15SM -SHRA SCT015TCU BKN060 15/11 A2993 RMK TCU3SC4 SLP134=
CYYG;2007-07-02 16:26;SPECI CYYG 021626Z 36009KT 15SM VCSH SCT013TCU BKN046 15/ RMK TCU3SC3=
CYYG;2007-07-02 17:00;METAR CYYG 021700Z 02013KT 15SM SCT021TCU SCT085 BKN300 16/10 A2993 RMK TCU3AC1CI0 SH DIST SW SLP135=
CYYG;2007-07-02 18:00;METAR CYYG 021800Z 35010G15KT 15SM BKN020TCU BKN085 16/11 A2993 RMK TCU5AC1 SLP136=
CYYG;2007-07-02 19:00;METAR CYYG 021900Z 01009KT 15SM BKN020TCU BKN300 15/11 A2994 RMK TCU5CI1 SLP139=
CYYG;2007-07-02 20:00;METAR CYYG 022000Z 01009KT 15SM SCT020TCU SCT300 15/10 A2995 RMK TCU3CI1 SLP143=
CYYG;2007-07-02 21:00;METAR CYYG 022100Z 01008KT 15SM BKN020 BKN070 BKN300 15/10 A2996 RMK CU6AC1CI0 CB DIST SE SLP147=
CYYG;2007-07-02 22:00;METAR CYYG 022200Z 02009KT 15SM BKN018 BKN070 BKN300 14/10 A2997 RMK CU5AC1CI1 TCU DIST SE SLP151=
CYYG;2007-07-02 23:00;METAR CYYG 022300Z 02007KT 15SM FEW018 SCT023 BKN300 13/10 A2999 RMK CU2CU2CI1 SLP156=
CYYG;2007-07-03 00:00;METAR CYYG 030000Z 01005KT 15SM FEW018 FEW025TCU SCT250 11/09 A3000 RMK CU1TCU1CI1 TCU DSNT S SLP159=
CYYG;2007-07-03 01:00;METAR CYYG 030100Z 01004KT 15SM FEW020 FEW250 10/08 A3001 RMK SC1CI1 SLP165=
CYYG;2007-07-03 02:00;METAR CYYG 030200Z 35004KT 15SM FEW020 09/08 A3003 RMK SC1 SLP169=
CYYG;2007-07-03 03:00;METAR CYYG 030300Z 35005KT 15SM FEW020 08/07 A3003 RMK SC1 SLP170=
CYYG;2007-07-03 04:00;METAR CYYG 030400Z 33002KT 15SM FEW020 08/07 A3003 RMK SC1 SLP171=
CYYG;2007-07-03 05:00;METAR CYYG 030500Z 31003KT 15SM FEW020 07/06 A3003 RMK SC1 SLP171=
CYYG;2007-07-03 06:00;METAR CYYG 030600Z 34003KT 15SM FEW020 06/06 A3004 RMK SC1 SLP173=
CYYG;2007-07-03 07:00;METAR CYYG 030700Z 34003KT 15SM FEW020 07/07 A3004 RMK SC1 SLP173=
CYYG;2007-07-03 08:00;METAR CYYG 030800Z 34003KT 15SM FEW020 07/06 A3005 RMK SC1 SLP176=
CYYG;2007-07-03 09:00;METAR CYYG 030900Z 35003KT 15SM MIFG FEW020 07/07 A3006 RMK SC1 SLP179=
CYYG;2007-07-03 10:00;METAR CYYG 031000Z 33003KT 15SM FEW020 10/09 A3007 RMK SC1 SLP184=
CYYG;2007-07-03 11:00;METAR CYYG 031100Z 33003KT 15SM FEW020 13/10 A3008 RMK SC1 SLP188=
CYYG;2007-07-03 12:00;METAR CYYG 031200Z 02005KT 15SM FEW020 14/08 A3009 RMK SC2 SLP189=
CYYG;2007-07-03 13:00;METAR CYYG NIL=
CYYG;2007-07-03 14:00;METAR CYYG 031400Z 02004KT 15SM SCT038 16/08 A3008 RMK SC3 SLP188=
CYYG;2007-07-03 15:00;METAR CYYG 031500Z 06002KT 15SM SCT035 17/09 A3008 RMK SC2 SLP188=
CYYG;2007-07-03 16:00;METAR CYYG 031600Z 21005KT 15SM SCT030 16/10 A3009 RMK SC3 SLP189=
CYYG;2007-07-03 17:00;METAR CYYG 031700Z 22006KT 15SM VCSH FEW020 BKN030 16/10 A3008 RMK SC2SC3 SHWRS W SLP186=
CYYG;2007-07-03 17:32;SPECI CYYG 031732Z 27013KT 15SM -SHRA BKN024 14/ RMK SC6=
CYYG;2007-07-03 18:00;METAR CYYG 031800Z 23006KT 15SM VCSH BKN026 14/10 A3009 RMK SC5 SLP191=
CYYG;2007-07-03 19:00;METAR CYYG 031900Z 00000KT 15SM FEW030 16/11 A3008 RMK SC2 SLP187=
CYYG;2007-07-03 20:00;METAR CYYG 032000Z 28004KT 15SM SCT040 18/10 A3008 RMK SC2 SLP187=
CYYG;2007-07-03 21:00;METAR CYYG 032100Z CCA 22005KT 15SM FEW040 FEW070 SCT240 17/10 A3007 RMK SC2AC1CI0 SLP183=
CYYG;2007-07-03 22:00;METAR CYYG 032200Z 20006KT 15SM SCT050 17/09 A3007 RMK SC2 SLP185=
CYYG;2007-07-03 23:00;METAR CYYG 032300Z 24003KT 15SM FEW050 FEW070 FEW300 17/09 A3008 RMK CU1AC1CI0 TCU DIST SW SLP188=
CYYG;2007-07-04 00:00;METAR CYYG 040000Z 23002KT 15SM FEW045 FEW300 15/09 A3009 RMK SC1CI0 CB=
CYYG;2007-07-04 01:00;METAR CYYG 040100Z 21002KT 15SM FEW045 FEW300 14/09 A3011 RMK SC1CI0 SLP197=
CYYG;2007-07-04 02:00;METAR CYYG 040200Z 22002KT 15SM FEW035 FEW250 13/09 A3012 RMK SC1CI1 SLP199=
CYYG;2007-07-04 03:00;METAR CYYG 040300Z 26003KT 15SM SKC 12/10 A3012 RMK SLP200=
CYYG;2007-07-04 04:00;METAR CYYG 040400Z 21004KT 15SM SKC 12/10 A3012 RMK SLP201=
CYYG;2007-07-04 05:00;METAR CYYG 040500Z 22005KT 15SM SKC 12/11 A3012 RMK SLP202=
CYYG;2007-07-04 06:00;METAR CYYG 040600Z 22005KT 15SM SKC 12/11 A3012 RMK SLP200=
CYYG;2007-07-04 07:00;METAR CYYG 040700Z 22003KT 15SM SKC 10/09 A3012 RMK SLP201=
CYYG;2007-07-04 08:00;METAR CYYG 040800Z 22004KT 15SM MIFG FEW250 12/11 A3012 RMK CI0 SLP200=
CYYG;2007-07-04 09:00;METAR CYYG 040900Z 23005KT 15SM FEW015 FEW250 11/11 A3013 RMK CF1CI0 SLP203=
CYYG;2007-07-04 10:00;METAR CYYG 041000Z 23005KT 15SM FEW015 FEW250 13/11 A3014 RMK CF1CI1 SLP207=
CYYG;2007-07-04 11:00;METAR CYYG 041100Z 23006KT 15SM SKC 14/12 A3015 RMK SLP211=
CYYG;2007-07-04 12:00;METAR CYYG 041200Z 21007KT 15SM FEW250 16/12 A3016 RMK CI1 SLP214=
CYYG;2007-07-04 13:00;METAR CYYG 041300Z 20008KT 15SM FEW250 18/13 A3016 RMK CI1 SLP215=
CYYG;2007-07-04 14:00;METAR CYYG 041400Z 21009KT 15SM FEW250 19/12 A3016 RMK CI1 SLP213=
CYYG;2007-07-04 15:00;METAR CYYG 041500Z 19009KT 15SM FEW020 FEW250 20/12 A3015 RMK CU1CI1 SLP211=
CYYG;2007-07-04 16:00;METAR CYYG 041600Z 20010KT 15SM FEW020 FEW250 21/11 A3015 RMK CU1CI1 SLP210=
CYYG;2007-07-04 17:00;METAR CYYG 041700Z 22009KT 15SM FEW030 SCT250 21/11 A3014 RMK CU1CI1 SLP208=
CYYG;2007-07-04 18:00;METAR CYYG 041800Z 22008KT 15SM FEW030 FEW250 22/12 A3014 RMK CU1CI1 MDT CU S AND W SLP205=
CYYG;2007-07-04 19:00;METAR CYYG 041900Z 22009KT 15SM FEW030 22/11 A3013 RMK CU1 SLP204=
CYYG;2007-07-04 21:00;METAR CYYG 042100Z 18009KT 15SM FEW030 SCT250 22/11 A3012 RMK CU1CI0 SLP201=
CYYG;2007-07-04 22:00;METAR CYYG 042200Z 18009KT 15SM FEW030 SCT250 21/10 A3012 RMK CU1CI1 SLP201=
CYYG;2007-07-04 23:00;METAR CYYG 042300Z 21005KT 15SM FEW045TCU FEW130 BKN250 20/12 A3013 RMK TCU1AC1CI2 SLP203=
CYYG;2007-07-05 00:00;METAR CYYG 050000Z 22009KT 15SM FEW040 FEW130 BKN250 19/11 A3014 RMK SC1AC1CI2 SLP207=
CYYG;2007-07-05 01:00;METAR CYYG 050100Z 22007KT 15SM FEW030 FEW130 SCT250 18/11 A3016 RMK SC1AC1CI1 SLP212=
CYYG;2007-07-05 02:00;METAR CYYG 050200Z 22005KT 15SM FEW030 FEW130 FEW250 16/11 A3016 RMK SC1AC1CI1 SLP212=
CYYG;2007-07-05 03:00;METAR CYYG 050300Z 22006KT 15SM FEW030 FEW130 FEW250 16/11 A3016 RMK SC1AC1CI0 SLP212=
CYYG;2007-07-05 04:00;METAR CYYG 050400Z 21006KT 15SM BKN250 15/12 A3015 RMK CI2 SLP209=
CYYG;2007-07-05 05:00;METAR CYYG 050500Z 20007KT 15SM SCT250 15/12 A3015 RMK CI2 SLP209=
CYYG;2007-07-05 06:00;METAR CYYG 050600Z 20007KT 15SM BKN230 15/12 A3014 RMK CI5 SLP208=
CYYG;2007-07-05 07:00;METAR CYYG 050700Z 20008KT 15SM BKN230 15/11 A3014 RMK CI5 SLP208=
CYYG;2007-07-05 08:00;METAR CYYG 050800Z 20007KT 15SM SCT070 BKN170 BKN250 15/10 A3014 RMK AC3AC2CI1 ACC ASOCTD SLP207=
CYYG;2007-07-05 09:00;METAR CYYG 050900Z 20009KT 15SM SCT070 SCT100 BKN250 15/10 A3015 RMK AC3AC1CI1 SLP209=
CYYG;2007-07-05 10:00;METAR CYYG 051000Z 20010KT 15SM BKN080 OVC200 15/10 A3015 RMK AC6CI1 SLP210=
CYYG;2007-07-05 11:00;METAR CYYG 051100Z 19010KT 15SM BKN090 OVC300 16/11 A3016 RMK AC5CS2 SLP212=
CYYG;2007-07-05 12:00;METAR CYYG 051200Z 19010KT 15SM FEW090 OVC300 16/11 A3016 RMK AC2CS6 SLP214=
CYYG;2007-07-05 13:00;METAR CYYG 051300Z 18012G17KT 15SM FEW090 BKN170 OVC300 17/12 A3016 RMK AC1AS5CS2 SLP212=
CYYG;2007-07-05 14:00;METAR CYYG 051400Z 18016KT 15SM FEW090 BKN140 OVC300 18/13 A3015 RMK AC1AC5CI2 SLP210=
CYYG;2007-07-05 15:00;METAR CYYG 051500Z 19012G18KT 15SM FEW090 BKN140 OVC300 19/13 A3015 RMK AC1AC5CI2 SLP209=
CYYG;2007-07-05 16:00;METAR CYYG 051600Z 19015KT 15SM FEW090 BKN140 OVC300 18/11 A3013 RMK AC1AC5CI2 SLP203=
CYYG;2007-07-05 17:00;METAR CYYG 051700Z 18017G22KT 15SM FEW030 SCT090 OVC140 19/11 A3011 RMK CU1AC3AC5 SLP197=
CYYG;2007-07-05 17:35;SPECI CYYG 051735Z 18016KT 15SM -SHRA FEW030 BKN080 OVC140 18/ RMK CU1AC6AC2=
CYYG;2007-07-05 18:00;METAR CYYG 051800Z 17011G18KT 15SM -SHRA FEW030 BKN067 OVC100 18/13 A3010 RMK CU1AC5AC3 SLP192=
CYYG;2007-07-05 18:20;SPECI CYYG 051820Z 17013KT 15SM FEW030 BKN070 OVC100 17/ RMK CU1AC5AC3=
CYYG;2007-07-05 18:49;SPECI CYYG 051849Z 17011KT 15SM -SHRA FEW030 BKN060 OVC090 17/ RMK CU1SC6AC2=
CYYG;2007-07-05 19:00;METAR CYYG 051900Z 18014KT 15SM -SHRA FEW030 BKN065 OVC090 17/12 A3008 RMK CU1SC6AC2 SLP187=
CYYG;2007-07-05 20:00;METAR CYYG 052000Z 17012KT 4SM -SHRA BR FEW030 OVC065 15/13 A3006 RMK CU1SC8 SLP179=
CYYG;2007-07-05 20:14;SPECI CYYG 052014Z 15013KT 3SM -SHRA BR BKN014 OVC045 15/ RMK SC5SC3=
CYYG;2007-07-05 20:31;SPECI CYYG 052031Z 14013G19KT 10SM -SHRA FEW005 OVC025 14/ RMK SF1SC8=
CYYG;2007-07-05 21:00;METAR CYYG 052100Z 14018KT 15SM -SHRA OVC055 14/12 A3001 RMK SC8 SLP162=
CYYG;2007-07-05 22:00;METAR CYYG 052200Z 14015KT 3SM -SHRA BR OVC027 14/13 A2997 RMK SC8 SLP148=
CYYG;2007-07-05 23:00;METAR CYYG 052300Z 14016G22KT 4SM -SHRA BR BKN014 OVC027 14/13 A2994 RMK SC5SC3 SLP140=
CYYG;2007-07-05 23:27;SPECI CYYG 052327Z 15015KT 5SM -SHRA BR FEW007 OVC013 14/ RMK SF2SC6=
CYYG;2007-07-05 23:50;SPECI CYYG 052350Z 16016KT 3SM -SHRA BR BKN009 OVC014 14/ RMK SF5SC3=
CYYG;2007-07-06 00:00;METAR CYYG 060000Z 16013G19KT 3SM -SHRA BR BKN008 OVC014 14/13 A2992 RMK SF6SC2 SLP132=
CYYG;2007-07-06 01:00;METAR CYYG 060100Z 16014KT 6SM -SHRA BR BKN009 OVC015 15/14 A2990 RMK SF5SC3 SLP125=
CYYG;2007-07-06 01:26;SPECI CYYG 060126Z 17013KT 10SM SCT008 OVC014 15/ RMK SF3SC5=
CYYG;2007-07-06 02:00;METAR CYYG 060200Z 16011G16KT 12SM FEW008 OVC012 15/14 A2987 RMK SF2SC6 SLP117=
CYYG;2007-07-06 03:00;METAR CYYG 060300Z 18010KT 12SM FEW009 BKN012 OVC030 16/14 A2986 RMK SF2SC6SC1 SLP113=
CYYG;2007-07-06 03:45;SPECI CYYG 060345Z 19009KT 12SM BKN008 OVC012 16/ RMK SF6SC2=
CYYG;2007-07-06 04:00;METAR CYYG 060400Z 18008KT 12SM BKN008 OVC012 16/14 A2985 RMK SF6SC2 SLP110=
CYYG;2007-07-06 05:00;METAR CYYG 060500Z 19007KT 15SM BKN009 BKN015 OVC025 16/14 A2983 RMK SF6SC2SC1 SLP102=
CYYG;2007-07-06 06:00;METAR CYYG 060600Z 20008KT 15SM BKN007 OVC012 16/15 A2983 RMK SF6SC2 SLP103=
CYYG;2007-07-06 07:00;METAR CYYG 060700Z 21008KT 6SM BR OVC007 16/15 A2983 RMK SF8 SLP101=
CYYG;2007-07-06 07:37;SPECI CYYG 060737Z 21007KT 3SM -DZ BR OVC005 16/ RMK ST8=
CYYG;2007-07-06 08:00;METAR CYYG 060800Z 24006KT 3SM -DZ BR OVC006 16/15 A2983 RMK ST8 SLP101=
CYYG;2007-07-06 08:22;SPECI CYYG 060822Z 25008KT 2SM -DZ BR FEW003 OVC005 16/ RMK SF2SF6=
CYYG;2007-07-06 09:00;METAR CYYG 060900Z 25006KT 2 1/2SM -DZ BR BKN003 OVC005 15/14 A2983 RMK SF5SF3 SLP103=
CYYG;2007-07-06 09:32;SPECI CYYG 060932Z 23004KT 4SM -DZ BR FEW003 OVC005 15/ RMK SF2SF6=
CYYG;2007-07-06 09:53;SPECI CYYG 060953Z 22006KT 8SM FEW003 BKN005 OVC009 15/ RMK SF2SF6SC1 VIS LWR E=
CYYG;2007-07-06 10:00;METAR CYYG 061000Z 21006KT 8SM FEW003 BKN005 OVC008 15/14 A2983 RMK SF2SF6SC1 SLP101=
CYYG;2007-07-06 11:00;METAR CYYG 061100Z 23007KT 10SM OVC003 15/14 A2984 RMK SF8 SLP104=
CYYG;2007-07-06 11:35;SPECI CYYG 061135Z 23006KT 10SM OVC006 15/ RMK SF8=
CYYG;2007-07-06 12:00;METAR CYYG 061200Z 21007KT 10SM OVC005 16/14 A2982 RMK SF8 SLP099=
CYYG;2007-07-06 12:41;SPECI CYYG 061241Z 21006KT 15SM FEW005 OVC010 17/ RMK SF2SC6=
CYYG;2007-07-06 13:00;METAR CYYG 061300Z 22007KT 15SM BKN008 OVC110 17/15 A2981 RMK SC6AC2 SLP096=
CYYG;2007-07-06 14:00;METAR CYYG 061400Z 20005KT 15SM BKN008 OVC080 18/15 A2980 RMK SF6AC2 SLP093=
CYYG;2007-07-06 15:00;METAR CYYG 061500Z 18005KT 15SM OVC008 17/15 A2978 RMK SF8 SLP086=
CYYG;2007-07-06 16:00;METAR CYYG 061600Z 19005KT 15SM OVC009 18/15 A2977 RMK SC8 SLP081=
CYYG;2007-07-06 16:39;SPECI CYYG 061639Z 14005KT 15SM FEW009 BKN011 OVC080 17/ RMK SF1SC5AC3=
CYYG;2007-07-06 17:00;METAR CYYG 061700Z 16004KT 15SM -SHRA FEW008 FEW011 OVC080 17/15 A2974 RMK SF1SC2AC6 SLP073=
CYYG;2007-07-06 17:26;SPECI CYYG 061726Z 18003KT 15SM SCT008 OVC140 18/ RMK SF3AC5=
CYYG;2007-07-06 17:37;SPECI CYYG 061737Z 18002KT 15SM BKN010 OVC140 18/ RMK SC6AC2=
CYYG;2007-07-06 18:00;METAR CYYG 061800Z 23003KT 15SM BKN010 OVC130 19/15 A2973 RMK SC7AC1 SLP067=
CYYG;2007-07-06 19:00;METAR CYYG 061900Z 22003KT 15SM BKN013 BKN130 20/15 A2971 RMK SC6AC1 CU ASOCTD SLP062=
CYYG;2007-07-06 19:29;SPECI CYYG 061929Z 27002KT 15SM BKN016 BKN130 20/ RMK SC6AC1 CU ASOCTD=
CYYG;2007-07-06 20:00;METAR CYYG 062000Z 18003KT 15SM BKN016 BKN130 20/16 A2970 RMK SC6AC2 CU ASOCTD SLP059=
CYYG;2007-07-06 21:00;METAR CYYG 062100Z 19007KT 15SM FEW016 BKN130 20/16 A2969 RMK CU2AC3 SLP054=
CYYG;2007-07-06 22:00;METAR CYYG 062200Z 16005KT 15SM FEW016 FEW130 FEW210 20/16 A2968 RMK CU1AC2CC1 SLP051=
CYYG;2007-07-06 23:00;METAR CYYG 062300Z 19006KT 15SM FEW015 FEW140 SCT200 18/15 A2968 RMK CU1AC2CI1 SLP051=
CYYG;2007-07-06 23:26;SPECI CYYG 062326Z 19006KT 15SM BKN011 BKN200 18/ RMK SC5CI1=
CYYG;2007-07-06 23:42;SPECI CYYG 062342Z 18007KT 15SM BKN009 BKN200 17/ RMK SC6CI1=
CYYG;2007-07-07 00:00;METAR CYYG 070000Z 17005KT 15SM OVC009 17/15 A2968 RMK SC8 SLP051=
CYYG;2007-07-07 01:00;METAR CYYG 070100Z 19005KT 15SM BKN009 OVC015 18/16 A2968 RMK SC5SC3 SLP051=
CYYG;2007-07-07 02:00;METAR CYYG 070200Z 19006KT 12SM SCT009 BKN016 16/15 A2965 RMK SC4SC2 SLP041=
CYYG;2007-07-07 03:00;METAR CYYG 070300Z 21006KT 12SM FEW009 BKN015 17/15 A2964 RMK SC2SC5 SLP038=
CYYG;2007-07-07 04:00;METAR CYYG 070400Z 19004KT 12SM SCT006 BKN014 17/15 A2963 RMK SF4SC3 SLP032=
CYYG;2007-07-07 05:00;METAR CYYG 070500Z 22005KT 10SM SCT004 OVC011 17/16 A2961 RMK SF4SC4 SLP028=
CYYG;2007-07-07 06:00;METAR CYYG 070600Z 23003KT 10SM BKN006 OVC010 17/15 A2960 RMK SF6SC2 SLP023=
CYYG;2007-07-07 07:00;METAR CYYG 070700Z 25007KT 10SM OVC005 16/15 A2959 RMK SF8 SLP021=
CYYG;2007-07-07 08:00;METAR CYYG 070800Z 24010KT 5SM BR SCT002 OVC005 15/14 A2959 RMK SF3SF5 SLP019=
CYYG;2007-07-07 08:19;SPECI CYYG 070819Z 24008KT 1SM R03/P6000FT/D BR OVC002 15/ RMK SF8=
CYYG;2007-07-07 08:29;SPECI CYYG 070829Z 24008KT 1/2SM R03/3000VP6000FT/D FG VV001 15/ RMK FG8=
CYYG;2007-07-07 08:54;SPECI CYYG 070854Z 25006KT 3/4SM R03/3500VP6000FT/U BR VV002 16/ RMK FG8=
CYYG;2007-07-07 09:00;METAR CYYG 070900Z 24006KT 1SM R03/P6000FT/U BR OVC002 16/15 A2959 RMK SF8 SLP020=
CYYG;2007-07-07 10:00;METAR CYYG 071000Z 25006KT 1SM R03/4000VP6000FT/D BR OVC002 16/15 A2959 RMK SF8 SLP020=
CYYG;2007-07-07 10:22;SPECI CYYG 071022Z 26006KT 1 1/2SM BR OVC002 16/ RMK SF8=
CYYG;2007-07-07 11:00;METAR CYYG 071100Z 23005KT 1 1/2SM BR OVC003 16/15 A2959 RMK SF8 SLP020=
CYYG;2007-07-07 12:00;METAR CYYG 071200Z 26005KT 2 1/2SM BR OVC004 17/15 A2959 RMK SF8 SLP019=
CYYG;2007-07-07 12:29;SPECI CYYG 071229Z 25004KT 5SM BR BKN005 OVC015 17/ RMK SF6SC2=
CYYG;2007-07-07 13:00;METAR CYYG 071300Z 24006KT 6SM BR BKN007 OVC015 18/15 A2958 RMK SF6SC2 SLP018=
CYYG;2007-07-07 14:00;METAR CYYG 071400Z 26010KT 8SM BKN016 OVC021 19/15 A2958 RMK SC6SC2 SLP015=
CYYG;2007-07-07 15:00;METAR CYYG 071500Z 27008KT 10SM BKN018 OVC030 19/14 A2958 RMK SC6SC2 SLP017=
CYYG;2007-07-07 16:00;METAR CYYG 071600Z 28012G17KT 15SM SCT022 BKN031 19/14 A2958 RMK SC4SC3 SLP016=
CYYG;2007-07-07 17:00;METAR CYYG 071700Z 29009G18KT 15SM BKN026 BKN049 21/15 A2958 RMK SC4SC2 SLP016=
CYYG;2007-07-07 18:00;METAR CYYG 071800Z 31007KT 15SM SCT024 BKN044 20/14 A2958 RMK SC2SC2 SLP018=
CYYG;2007-07-07 19:00;METAR CYYG 071900Z 34006KT 15SM VCSH SCT028 BKN064 18/15 A2958 RMK SC2SC2 SLP018=
CYYG;2007-07-07 20:00;METAR CYYG 072000Z 34006KT 15SM VCSH FEW018 SCT022 SCT045 BKN071 18/15 A2960 RMK SC1SC2SC1AC2 SLP024=
CYYG;2007-07-07 21:00;METAR CYYG 072100Z 35004KT 15SM FEW025 SCT070 19/15 A2960 RMK SC2AC2 TCU S SLP024=
CYYG;2007-07-07 22:00;METAR CYYG 072200Z 05003KT 15SM FEW030 18/14 A2961 RMK SC2 TCU SE SLP028=
CYYG;2007-07-07 23:00;METAR CYYG 072300Z 00000KT 15SM FEW030 18/14 A2963 RMK SC2 SLP032=
CYYG;2007-07-08 00:00;METAR CYYG 080000Z 00000KT 15SM FEW030 SCT100 BKN250 17/14 A2963 RMK SC1AC2CI0 SLP035=
CYYG;2007-07-08 01:00;METAR CYYG 080100Z 00000KT 15SM FEW069 SCT090 16/14 A2965 RMK AC2AC2 SLP039=
CYYG;2007-07-08 02:00;METAR CYYG 080200Z 20003KT 15SM SCT072 16/14 A2965 RMK AC3 SLP040=
CYYG;2007-07-08 03:00;METAR CYYG 080300Z 22006KT 15SM FEW077 16/13 A2965 RMK AC1 SLP039=
CYYG;2007-07-08 04:00;METAR CYYG 080400Z 23006KT 15SM FEW240 15/12 A2965 RMK CI0 SLP041=
CYYG;2007-07-08 05:00;METAR CYYG 080500Z 24007KT 15SM SCT230 15/12 A2965 RMK CI1 SLP041=
CYYG;2007-07-08 06:00;METAR CYYG 080600Z 24004KT 15SM BKN210 14/11 A2964 RMK CI4 SLP036=
CYYG;2007-07-08 07:00;METAR CYYG 080700Z 24003KT 15SM BKN200 14/11 A2963 RMK CI5 SLP035=
CYYG;2007-07-08 08:00;METAR CYYG 080800Z 23005KT 15SM FEW100 FEW180 BKN210 14/11 A2962 RMK AC1AC2CI3 SLP030=
CYYG;2007-07-08 09:00;METAR CYYG 080900Z 22006KT 15SM FEW100 FEW180 BKN220 14/12 A2962 RMK AC1AC2CI2 SLP029=
CYYG;2007-07-08 10:00;METAR CYYG 081000Z 22008KT 15SM FEW110 SCT180 BKN230 15/12 A2963 RMK AC2AC2CI2 TCU TOPS DIST SW SLP032=
CYYG;2007-07-08 11:00;METAR CYYG 081100Z 22009KT 15SM FEW010 SCT050 BKN098 16/13 A2964 RMK SC2SC2AC4 SC INVDG RPDLY FM SW SLP038=
CYYG;2007-07-08 11:07;SPECI CYYG 081107Z 22009KT 15SM BKN010 BKN050 OVC100 16/ RMK SC5SC2AC2=
CYYG;2007-07-08 11:36;SPECI CYYG 081136Z 24010G15KT 12SM OVC009 15/ RMK SC8=
CYYG;2007-07-08 11:42;SPECI CYYG 081142Z 23009KT 12SM OVC007 15/ RMK SC8=
CYYG;2007-07-08 12:00;METAR CYYG 081200Z 24008KT 12SM OVC008 15/13 A2963 RMK SC8 SLP035=
CYYG;2007-07-08 12:16;SPECI CYYG 081216Z 25008KT 12SM OVC010 16/ RMK SC8 CIG RGD=
CYYG;2007-07-08 12:27;SPECI CYYG 081227Z 24010KT 6SM -SHRA OVC009 16/ RMK SF8 CIG RGD=
CYYG;2007-07-08 13:00;METAR CYYG 081300Z 24005KT 4SM -SHRA BR BKN009 OVC050 15/14 A2963 RMK SF6SC2 CIG RGD SLP034=
CYYG;2007-07-08 14:00;METAR CYYG 081400Z 23010KT 10SM -SHRA FEW009 BKN013 17/14 A2961 RMK SF2SC6 CIG RGD SLP028=
CYYG;2007-07-08 15:00;METAR CYYG 081500Z 25010G15KT 15SM BKN015 BKN023 17/13 A2963 RMK SC5SC2 SLP032=
CYYG;2007-07-08 16:00;METAR CYYG 081600Z 27009KT 15SM SCT020 BKN075 18/13 A2961 RMK SC3AC4 SLP028=
CYYG;2007-07-08 16:53;SPECI CYYG 081653Z 31010KT 4SM -SHRA SCT026 OVC060 17/ RMK SC3SC5=
CYYG;2007-07-08 17:00;METAR CYYG 081700Z 31015G20KT 4SM SHRA SCT020 OVC038 15/12 A2963 RMK SC3SC5 SLP033=
CYYG;2007-07-08 17:45;SPECI CYYG 081745Z 29005KT 15SM FEW009 SCT020 BKN090 15/ RMK SF2SC2AC4 RERA=
CYYG;2007-07-08 18:00;METAR CYYG 081800Z 28008KT 15SM FEW020 BKN090 BKN240 16/13 A2963 RMK SC2AC3CI1 RERA SLP033=
CYYG;2007-07-08 19:00;METAR CYYG 081900Z 20005KT 15SM SCT030 BKN090 18/13 A2963 RMK SC3AC2 SLP036=
CYYG;2007-07-08 20:00;METAR CYYG 082000Z 27007KT 15SM VCSH BKN034 BKN090 17/15 A2963 RMK SC5AC2 VIS W 6 SHRA LTGIC W SLP035=
CYYG;2007-07-08 20:17;SPECI CYYG 082017Z 26008KT 15SM -TSRA BKN030CB BKN080 17/ RMK CB5AC2 VIS S-N 5 LTGIC S-N=
CYYG;2007-07-08 20:26;SPECI CYYG 082026Z 26021G30KT 2SM TSRA BKN018CB OVC035 13/ RMK CB6SC2 LTGICCG ALL QUADS=
CYYG;2007-07-08 20:43;SPECI CYYG 082043Z 28004KT 12SM -SHRA BKN020TCU BKN075 12/ RETSRA RMK TCU5AC2 CB ASOCTD E=
CYYG;2007-07-08 21:00;METAR CYYG 082100Z 29004KT 15SM VCSH SCT020 BKN059 13/11 A2964 RMK SC3SC2 SLP039=
CYYG;2007-07-08 22:00;METAR CYYG 082200Z 28007KT 15SM FEW030 FEW120 15/11 A2967 RMK SC2AC1 SLP049=
CYYG;2007-07-08 23:00;METAR CYYG 082300Z 31005KT 15SM FEW030 FEW250 15/10 A2969 RMK SC2CI1 TCU NE SLP053=
CYYG;2007-07-09 00:00;METAR CYYG 090000Z 27004KT 15SM FEW030 FEW250 13/10 A2970 RMK SC1CI1 SLP058=
CYYG;2007-07-09 01:00;METAR CYYG 090100Z 30006KT 15SM BKN071 13/10 A2974 RMK AC5 SLP070=
CYYG;2007-07-09 02:00;METAR CYYG 090200Z 27005KT 15SM BKN064 12/10 A2975 RMK SC5 SLP074=
CYYG;2007-07-09 03:00;METAR CYYG 090300Z 29007KT 15SM FEW020 FEW060 13/10 A2976 RMK SC1SC2 SLP079=
CYYG;2007-07-09 04:00;METAR CYYG 090400Z 30007KT 15SM FEW020 SCT050 12/10 A2979 RMK SC2SC2 SLP089=
CYYG;2007-07-09 05:00;METAR CYYG 090500Z 30006KT 15SM FEW020 12/10 A2981 RMK SC2 SLP096=
CYYG;2007-07-09 06:00;METAR CYYG 090600Z 35008KT 15SM SCT025 13/11 A2982 RMK SC3 SLP098=
CYYG;2007-07-09 07:00;METAR CYYG 090700Z 35006KT 15SM BKN027 13/11 A2984 RMK SC5 SLP104=
CYYG;2007-07-09 08:00;METAR CYYG 090800Z CCA 34006KT 15SM BKN021 13/11 A2990 RMK SC7 SLP126=
CYYG;2007-07-09 08:44;SPECI CYYG 090844Z 34006KT 8SM -SHRA OVC014 13/ RMK SC8=
CYYG;2007-07-09 09:00;METAR CYYG 090900Z 34006KT 8SM -SHRA BKN014 OVC021 13/11 A2992 RMK SC6SC2 SLP133=
CYYG;2007-07-09 09:10;SPECI CYYG 090910Z 36008KT 4SM -SHRA BR BKN009 OVC014 13/ RMK SF6SC2=
CYYG;2007-07-09 09:54;SPECI CYYG 090954Z 36006KT 10SM SCT011 OVC028 13/ RMK SF3SC4=
CYYG;2007-07-09 10:00;METAR CYYG 091000Z 01008KT 10SM FEW010 OVC026 13/11 A2993 RMK SF2SC6 SLP136=
CYYG;2007-07-09 11:00;METAR CYYG 091100Z 36005KT 10SM FEW012 OVC029 13/11 A2996 RMK SF2SC6 SLP147=
CYYG;2007-07-09 12:00;METAR CYYG 091200Z 02015KT 15SM BKN023 14/10 A3000 RMK SC7 SLP160=
CYYG;2007-07-09 13:00;METAR CYYG 091300Z 02007KT 15SM BKN026 15/09 A3004 RMK SC7 SLP172=
CYYG;2007-07-09 14:00;METAR CYYG 091400Z 01008KT 15SM BKN025 15/11 A3003 RMK SC6 SLP170=
CYYG;2007-07-09 15:00;METAR CYYG 091500Z 36010KT 15SM SCT025 BKN240 16/10 A3005 RMK CU3CI0 SLP176=
CYYG;2007-07-09 16:00;METAR CYYG 091600Z 02009KT 15SM FEW030 BKN240 16/09 A3006 RMK CF2CI2 SLP181=
CYYG;2007-07-09 17:00;METAR CYYG 091700Z 06005KT 15SM FEW030 BKN240 16/10 A3006 RMK CF2CI3 SLP181=
CYYG;2007-07-09 18:00;METAR CYYG 091800Z 06004KT 15SM FEW030 BKN240 16/10 A3006 RMK CF2CI4 SLP181=
CYYG;2007-07-09 19:00;METAR CYYG 091900Z 06005KT 15SM FEW030 BKN240 16/09 A3005 RMK CF1CI5 SLP178=
CYYG;2007-07-09 20:00;METAR CYYG 092000Z 05005KT 15SM FEW030 OVC240 15/09 A3007 RMK CF1CI6 SLP184=
CYYG;2007-07-09 21:00;METAR CYYG 092100Z 04009KT 15SM FEW030 OVC240 14/10 A3006 RMK CF1CI6 SLP182=
CYYG;2007-07-09 22:00;METAR CYYG 092200Z 04006KT 15SM FEW030 OVC240 14/10 A3008 RMK SC1CI6 SLP187=
CYYG;2007-07-09 23:00;METAR CYYG 092300Z 06003KT 15SM FEW030 BKN250 14/10 A3008 RMK SC2CI5 SLP187=
CYYG;2007-07-10 00:00;METAR CYYG 100000Z 05003KT 15SM FEW017 OVC190 13/10 A3007 RMK SC2CI6 SLP183=
CYYG;2007-07-10 01:00;METAR CYYG 100100Z 08004KT 15SM OVC220 12/10 A3006 RMK CI8 SLP180=
CYYG;2007-07-10 02:00;METAR CYYG 100200Z 11002KT 15SM SCT200 12/10 A3006 RMK CI3 SLP182=
CYYG;2007-07-10 03:00;METAR CYYG 100300Z 15004KT 15SM BKN190 12/10 A3006 RMK CI6 SLP179=
CYYG;2007-07-10 04:00;METAR CYYG 100400Z 15006KT 15SM BKN110 BKN200 12/10 A3006 RMK AC5CI2 SLP180=
CYYG;2007-07-10 05:00;METAR CYYG 100500Z 14006KT 15SM FEW020 BKN095 OVC110 12/10 A3004 RMK SC2AC5AC2 SLP175=
CYYG;2007-07-10 06:00;METAR CYYG 100600Z 14005KT 15SM FEW040 OVC080 12/10 A3003 RMK SC2AC6 SLP169=
CYYG;2007-07-10 07:00;METAR CYYG 100700Z 13005KT 15SM OVC084 14/12 A3001 RMK AC8 SLP163=
CYYG;2007-07-10 08:00;METAR CYYG 100800Z CCA 14005KT 15SM OVC072 14/11 A3001 RMK AC8 SLP162=
CYYG;2007-07-10 09:00;METAR CYYG 100900Z 16006KT 15SM OVC069 14/12 A3001 RMK AC8 SLP162=
CYYG;2007-07-10 10:00;METAR CYYG 101000Z 16007KT 15SM OVC065 14/11 A3001 RMK SC8 SLP164=
CYYG;2007-07-10 11:00;METAR CYYG 101100Z 16004KT 15SM OVC061 15/11 A3002 RMK SC8 SLP167=
CYYG;2007-07-10 12:00;METAR CYYG 101200Z 16007KT 15SM BKN057 15/12 A3002 RMK SC7 SLP167=
CYYG;2007-07-10 13:00;METAR CYYG 101300Z 17009KT 15SM OVC059 16/11 A3002 RMK SC8 SLP165=
CYYG;2007-07-10 14:00;METAR CYYG 101400Z 16008KT 15SM OVC053 16/11 A3002 RMK SC8 SLP167=
CYYG;2007-07-10 15:00;METAR CYYG 101500Z 16010KT 15SM OVC052 16/12 A3001 RMK SC8 SLP162=
CYYG;2007-07-10 16:00;METAR CYYG 101600Z 16009KT 15SM BKN055 18/12 A3000 RMK SC7 SLP158=
CYYG;2007-07-10 17:00;METAR CYYG 101700Z 17011KT 15SM FEW030 BKN049 18/12 A2997 RMK CU1SC6 SLP150=
CYYG;2007-07-10 18:00;METAR CYYG 101800Z 18009KT 15SM FEW030 BKN044 18/12 A2998 RMK CU1SC6 SLP152=
CYYG;2007-07-10 19:00;METAR CYYG 101900Z 19009KT 15SM SCT030 OVC042 18/13 A2998 RMK SC3SC5 SLP154=
CYYG;2007-07-10 20:00;METAR CYYG 102000Z 18008KT 15SM BKN028 OVC040 18/13 A2996 RMK SC5SC3 SLP147=
CYYG;2007-07-10 21:00;METAR CYYG 102100Z 18007KT 15SM BKN019 OVC030 18/14 A2997 RMK SC6SC2 SLP148=
CYYG;2007-07-10 22:00;METAR CYYG 102200Z 20006KT 15SM BKN017 OVC030 18/15 A2998 RMK SC7SC1 SLP153=
CYYG;2007-07-10 23:00;METAR CYYG 102300Z 20004KT 15SM OVC023 18/15 A2999 RMK SC8 SLP156=
CYYG;2007-07-11 00:00;METAR CYYG 110000Z 00000KT 15SM OVC025 18/15 A3001 RMK SC8 SLP161=
CYYG;2007-07-11 00:53;SPECI CYYG 110053Z 00000KT 10SM -SHRA OVC025 17/ RMK SC8=
CYYG;2007-07-11 01:00;METAR CYYG 110100Z 00000KT 10SM VCSH BKN018 OVC025 17/15 A3002 RMK SC5SC3 SLP167=
CYYG;2007-07-11 02:00;METAR CYYG 110200Z 00000KT 10SM OVC035 17/15 A3003 RMK SC8 SLP168=
CYYG;2007-07-11 03:00;METAR CYYG 110300Z 16004KT 10SM FEW035 16/15 A3002 RMK SC2 SLP167=
CYYG;2007-07-11 04:00;METAR CYYG 110400Z 00000KT 10SM FEW035 14/14 A3002 RMK SC1 SLP167=
CYYG;2007-07-11 04:11;SPECI CYYG 110411Z 00000KT 10SM MIFG FEW035 14/ RMK SC1=
CYYG;2007-07-11 05:00;METAR CYYG 110500Z 23005KT 10SM MIFG SKC 15/14 A3003 RMK SLP169=
CYYG;2007-07-11 06:00;METAR CYYG 110600Z 20003KT 10SM FEW300 14/13 A3002 RMK CI1 SLP166=
CYYG;2007-07-11 07:00;METAR CYYG 110700Z 20003KT 3SM BR FEW300 14/14 A3002 RMK CI1 SLP167=
CYYG;2007-07-11 07:35;SPECI CYYG 110735Z 23003KT 1/4SM R03/1200V4000FT/D FG SKC 14/ RMK FG2=
CYYG;2007-07-11 07:43;SPECI CYYG 110743Z 22005KT 1/8SM R03/0900V1400FT/N FG SCT300 15/ RMK FG2CI0=
CYYG;2007-07-11 08:00;METAR CYYG 110800Z 24004KT 1/8SM R03/0900FT/N FG SCT300 14/14 A3004 RMK FG2CI0 SLP172=
CYYG;2007-07-11 09:00;METAR CYYG 110900Z 16002KT 1/4SM R03/1000FT/N FG BKN064 BKN300 14/14 A3003 RMK FG2SC5CI0 SLP169=
CYYG;2007-07-11 09:22;SPECI CYYG 110922Z 14003KT 3/8SM R03/1100V2800FT/U FG BKN064 BKN300 15/ RMK FG2SC5CI0=
CYYG;2007-07-11 10:00;METAR CYYG 111000Z 17006KT 1SM R03/2400VP6000FT/U BR OVC003 16/15 A3003 RMK SF8 SLP169=
CYYG;2007-07-11 10:04;SPECI CYYG 111004Z 18006KT 5SM BR OVC003 16/ RMK SF8 VIS LWR N=
CYYG;2007-07-11 10:20;SPECI CYYG 111020Z 18006KT 12SM BKN005 16/ RMK SF7=
CYYG;2007-07-11 10:36;SPECI CYYG 111036Z 18005KT 15SM BKN005 BKN300 16/ RMK SF5CI1=
CYYG;2007-07-11 10:45;SPECI CYYG 111045Z 18006KT 15SM FEW005 BKN300 16/ RMK SF2CI2=
CYYG;2007-07-11 11:00;METAR CYYG 111100Z 17005KT 15SM FEW005 BKN300 16/15 A3004 RMK SF2CI2 SLP172=
CYYG;2007-07-11 12:00;METAR CYYG 111200Z 17009KT 15SM FEW005 BKN300 18/15 A3002 RMK SF1CI2 SLP166=
CYYG;2007-07-11 13:00;METAR CYYG 111300Z 18009KT 15SM SCT070 BKN300 19/15 A3002 RMK AC3CI1 SLP166=
CYYG;2007-07-11 14:00;METAR CYYG 111400Z 17011KT 15SM FEW070 BKN300 20/16 A3001 RMK AC2CC1 SLP164=
CYYG;2007-07-11 15:00;METAR CYYG 111500Z 17011G16KT 15SM FEW070 BKN300 22/16 A3001 RMK AC2CC1 SLP164=
CYYG;2007-07-11 16:00;METAR CYYG 111600Z 19012KT 15SM FEW038 BKN300 22/16 A3000 RMK SC2CS4 SLP160=
CYYG;2007-07-11 17:00;METAR CYYG 111700Z 17010KT 15SM OVC021 23/17 A2998 RMK SC8 SLP152=
CYYG;2007-07-11 18:00;METAR CYYG 111800Z 18016G21KT 15SM SCT021 BKN300 24/18 A2996 RMK SC3CS2 SLP146=
CYYG;2007-07-11 19:00;METAR CYYG 111900Z 18013G20KT 15SM SCT021 BKN300 24/18 A2994 RMK SC3CS1 SLP140=
CYYG;2007-07-11 20:00;METAR CYYG 112000Z 18018KT 15SM FEW021 BKN300 24/18 A2992 RMK SC2CI2 SLP132=
CYYG;2007-07-11 21:00;METAR CYYG 112100Z 18015G20KT 15SM FEW026 BKN300 23/18 A2991 RMK CU1CI2 SLP130=
CYYG;2007-07-11 22:00;METAR CYYG 112200Z 18018KT 15SM FEW026 BKN300 22/17 A2991 RMK CU1CI3 SLP128=
CYYG;2007-07-11 23:00;METAR CYYG 112300Z 17014KT 15SM FEW150 SCT230 BKN300 21/17 A2993 RMK AC1CC3CI2 SLP134=
CYYG;2007-07-11 23:50;SPECI CYYG 112350Z 18014G19KT 15SM FEW007 SCT230 BKN300 20/ RMK SF1CC3CI2=
CYYG;2007-07-12 00:00;METAR CYYG 120000Z 18016KT 15SM FEW007 SCT230 BKN300 20/17 A2993 RMK SF1CC2CI2 SLP134=
CYYG;2007-07-12 00:28;SPECI CYYG 120028Z 17011G21KT 8SM BKN010 19/ RMK SC7=
CYYG;2007-07-12 00:52;SPECI CYYG 120052Z 17014KT 5SM BR OVC009 19/ RMK SC8=
CYYG;2007-07-12 01:00;METAR CYYG 120100Z 18015KT 5SM BR OVC009 19/17 A2993 RMK SC8 SLP136=
CYYG;2007-07-12 02:00;METAR CYYG 120200Z 18013G18KT 5SM BR FEW005 OVC009 19/17 A2992 RMK SF2SC6 SLP133=
CYYG;2007-07-12 02:12;SPECI CYYG 120212Z 17014KT 5SM BR OVC006 19/ RMK SF8=
CYYG;2007-07-12 02:49;SPECI CYYG 120249Z 18014G19KT 5SM BR FEW006 FEW050 19/ RMK SF2SC1=
CYYG;2007-07-12 03:00;METAR CYYG 120300Z 17013G19KT 5SM BR FEW006 BKN009 19/17 A2990 RMK SF1SF4 SLP127=
CYYG;2007-07-12 03:41;SPECI CYYG 120341Z 17013KT 5SM BR OVC004 19/ RMK SF8=
CYYG;2007-07-12 04:00;METAR CYYG 120400Z 17013KT 5SM BR OVC004 19/17 A2990 RMK SF8 SLP127=
CYYG;2007-07-12 05:00;METAR CYYG 120500Z 16011KT 4SM BR OVC004 19/17 A2989 RMK SF8 SLP121=
CYYG;2007-07-12 06:00;METAR CYYG 120600Z 17012KT 5SM BR OVC005 19/17 A2987 RMK SF8 SLP116=
CYYG;2007-07-12 07:00;METAR CYYG 120700Z 15008KT 5SM BR OVC006 19/17 A2985 RMK SF8 SLP109=
CYYG;2007-07-12 08:00;METAR CYYG 120800Z 16016KT 5SM BR FEW006 BKN009 19/17 A2984 RMK SF2SF5 SLP103=
CYYG;2007-07-12 09:00;METAR CYYG 120900Z 17012G18KT 6SM BR BKN005 OVC009 19/17 A2983 RMK SF5SF3 SLP100=
CYYG;2007-07-12 09:09;SPECI CYYG 120909Z 16013KT 6SM BR FEW005 BKN009 19/ RMK SF2SC6=
CYYG;2007-07-12 10:00;METAR CYYG 121000Z 17016KT 8SM FEW005 BKN009 BKN300 19/17 A2980 RMK SF2SC6CI1 SLP090=
CYYG;2007-07-12 11:00;METAR CYYG 121100Z 16017KT 10SM FEW005 SCT009 BKN300 21/18 A2977 RMK SF2SC2CI2 SLP082=
CYYG;2007-07-12 12:00;METAR CYYG 121200Z 16021G26KT 15SM FEW005 BKN015 OVC300 22/18 A2975 RMK SF2SC5CI1 SLP075=
CYYG;2007-07-12 12:49;SPECI CYYG 121249Z 16019G26KT 12SM FEW005 OVC012 21/ RMK SF2SC6=
CYYG;2007-07-12 13:00;METAR CYYG 121300Z 17019G24KT 12SM FEW005 OVC013 21/18 A2974 RMK SF2SC6 SLP072=
CYYG;2007-07-12 13:17;SPECI CYYG 121317Z 17018G24KT 12SM -SHRA FEW005 OVC013 21/ RMK SF2SC6=
CYYG;2007-07-12 14:00;METAR CYYG 121400Z 17017KT 10SM -SHRA FEW005 BKN014 OVC050 21/19 A2973 RMK SF2SC6SC1 SLP068=
CYYG;2007-07-12 15:00;METAR CYYG 121500Z 18016G22KT 3SM R03/4500VP6000FT/U SHRA BR FEW005 OVC013 20/19 A2972 RMK SF2SC6 SLP065=
CYYG;2007-07-12 15:11;SPECI CYYG 121511Z 18016KT 4SM R03/4000VP6000FT/D SHRA BR BKN004 OVC013 20/ RMK SF6SC2=
CYYG;2007-07-12 15:38;SPECI CYYG 121538Z 18019G25KT 10SM -SHRA SCT004 BKN017 OVC038 21/ RMK SF4SC2SC2=
CYYG;2007-07-12 16:00;METAR CYYG 121600Z 17017KT 12SM SCT006 BKN017 BKN038 22/20 A2972 RMK SF4SC1SC2 SLP063=
CYYG;2007-07-12 17:00;METAR CYYG 121700Z 18017KT 15SM FEW008 OVC013 23/19 A2971 RMK SF2SC6 SLP061=
CYYG;2007-07-12 17:31;SPECI CYYG 121731Z 17016KT 15SM FEW008 BKN017 23/ RMK SF2SC6=
CYYG;2007-07-12 18:00;METAR CYYG 121800Z 18018KT 15SM FEW008 BKN017 BKN060 23/19 A2970 RMK SF1SC6SC1 SLP056=
CYYG;2007-07-12 19:00;METAR CYYG 121900Z 18013KT 15SM FEW008 OVC017 23/19 A2969 RMK SF1SC7 SLP055=
CYYG;2007-07-12 20:00;METAR CYYG 122000Z 18009G15KT 15SM FEW010 OVC016 22/19 A2970 RMK CU1SC7 SLP058=
CYYG;2007-07-12 21:00;METAR CYYG 122100Z 21009KT 15SM FEW008 BKN016 OVC140 22/19 A2971 RMK SF2SC5AC2 SLP059=
CYYG;2007-07-12 21:03;SPECI CYYG 122103Z 22007KT 15SM -SHRA FEW008 BKN016 OVC140 22/ RMK SF2SC6AC1=
CYYG;2007-07-12 22:00;METAR CYYG 122200Z 18003KT 15SM FEW008 BKN018 BKN100 22/19 A2971 RMK SF2SC5AC1 SLP060=
CYYG;2007-07-12 22:19;SPECI CYYG 122219Z 19004KT 12SM -SHRA FEW008 BKN015 OVC030 22/ RMK SF1SC6SC2=
CYYG;2007-07-12 23:00;METAR CYYG 122300Z 14004KT 10SM -SHRA BKN015 OVC030 21/19 A2971 RMK SC6SC2 SLP060=
CYYG;2007-07-12 23:22;SPECI CYYG 122322Z 15004KT 6SM -SHRA BR OVC015 21/ RMK SC8=
CYYG;2007-07-12 23:37;SPECI CYYG 122337Z 15005KT 3SM -SHRA BR BKN015 OVC024 20/ RMK SC6SC2=
CYYG;2007-07-13 00:00;METAR CYYG 130000Z 15003KT 6SM -SHRA BR BKN021 OVC040 20/19 A2971 RMK SC6SC2 SLP060=
CYYG;2007-07-13 01:00;METAR CYYG 130100Z 21004KT 6SM -SHRA BR SCT003 OVC012 20/19 A2972 RMK SF4SC4 SLP064=
CYYG;2007-07-13 02:00;METAR CYYG 130200Z 25002KT 10SM -SHRA SCT005 OVC010 20/19 A2973 RMK SF4SC4 SLP066=
CYYG;2007-07-13 03:00;METAR CYYG 130300Z 23004KT 15SM SCT004 OVC015 20/19 A2972 RMK SF4SC4 SLP065=
CYYG;2007-07-13 04:00;METAR CYYG 130400Z 24006KT 15SM OVC004 20/18 A2972 RMK SF8 SLP065=
CYYG;2007-07-13 04:26;SPECI CYYG 130426Z 25007KT 2SM BR OVC002 19/ RMK SF8=
CYYG;2007-07-13 05:00;METAR CYYG 130500Z 26006KT 3/4SM R03/2200V4000FT/D BR OVC001 19/18 A2973 RMK SF8 SLP068=
CYYG;2007-07-13 06:00;METAR CYYG 130600Z 27003KT 3/4SM R03/1400FT/N BR OVC001 18/17 A2974 RMK SF8 SLP069=
CYYG;2007-07-13 07:00;METAR CYYG 130700Z 25003KT 3/4SM R03/2200FT/D BR OVC001 18/17 A2974 RMK SF8 SLP069=
CYYG;2007-07-13 08:00;METAR CYYG 130800Z 25004KT 1/2SM R03/1800V2800FT/D FG OVC001 18/17 A2974 RMK SF8 SLP071=
CYYG;2007-07-13 09:00;METAR CYYG 130900Z 27002KT 1/2SM R03/1600FT/N FG OVC001 18/17 A2976 RMK SF8 SLP076=
CYYG;2007-07-13 09:09;SPECI CYYG 130909Z 24002KT 1/4SM R03/1400V2200FT/N FG VV001 18/ RMK FG8=
CYYG;2007-07-13 10:00;METAR CYYG 131000Z 25004KT 1/4SM R03/1800FT/N FG VV001 18/17 A2977 RMK FG8 SLP082=
CYYG;2007-07-13 11:00;METAR CYYG 131100Z 22004KT 1/4SM R03/1200V2400FT/D FG VV001 18/17 A2979 RMK FG8 SLP087=
CYYG;2007-07-13 11:54;SPECI CYYG 131154Z 24004KT 3/8SM R03/2200FT/N FG VV001 18/ RMK FG8=
CYYG;2007-07-13 12:00;METAR CYYG 131200Z 23005KT 3/8SM R03/2200FT/N FG VV001 18/17 A2980 RMK FG8 SLP090=
CYYG;2007-07-13 12:25;SPECI CYYG 131225Z 24003KT 1/2SM R03/2600V4500FT/U FG VV002 18/ RMK FG8=
CYYG;2007-07-13 12:33;SPECI CYYG 131233Z 24005KT 1SM R03/3500VP6000FT/U BR OVC002 18/ RMK SF8=
CYYG;2007-07-13 13:00;METAR CYYG 131300Z 23003KT 1SM R03/P6000FT/N BR OVC002 18/17 A2980 RMK SF8 SLP092=
CYYG;2007-07-13 13:12;SPECI CYYG 131312Z 25002KT 3SM BR OVC003 18/ RMK SF8=
CYYG;2007-07-13 13:53;SPECI CYYG 131353Z 27003KT 8SM OVC004 19/ RMK SF8=
CYYG;2007-07-13 14:00;METAR CYYG 131400Z 23004KT 8SM OVC004 19/18 A2981 RMK SF8 SLP094=
CYYG;2007-07-13 14:29;SPECI CYYG 131429Z 24004KT 8SM OVC005 20/ RMK SF8=
CYYG;2007-07-13 15:00;METAR CYYG 131500Z 24005KT 10SM OVC004 20/18 A2982 RMK SF8 VIS S-SW 3 BR SLP096=
CYYG;2007-07-13 16:00;METAR CYYG 131600Z 19006KT 5SM BR OVC004 21/18 A2981 RMK SF8 VIS W 10 SLP093=
CYYG;2007-07-13 17:00;METAR CYYG 131700Z 26007KT 10SM SCT007 SCT020 22/19 A2981 RMK SF3CU1 SLP094=
CYYG;2007-07-13 18:00;METAR CYYG 131800Z 26007KT 15SM FEW022TCU 25/17 A2980 RMK TCU1 SLP090=
CYYG;2007-07-13 19:00;METAR CYYG 131900Z 24009KT 15SM FEW030 25/14 A2979 RMK CU1 SLP089=
CYYG;2007-07-13 20:00;METAR CYYG 132000Z 24013KT 15SM FEW030 25/13 A2980 RMK CU1 SLP090=
CYYG;2007-07-13 21:00;METAR CYYG 132100Z 24010KT 15SM FEW030 SCT280 24/15 A2980 RMK CU1CI1 SLP090=
CYYG;2007-07-13 22:00;METAR CYYG 132200Z 25009KT 15SM BKN280 23/13 A2981 RMK CI2 SLP094=
CYYG;2007-07-13 23:00;METAR CYYG 132300Z 25007KT 15SM BKN280 22/12 A2982 RMK CI2 SLP098=
CYYG;2007-07-14 00:00;METAR CYYG 140000Z 25007KT 15SM BKN280 20/12 A2984 RMK CI2 SLP106=
CYYG;2007-07-14 01:00;METAR CYYG 140100Z 24010KT 15SM BKN280 20/11 A2987 RMK CI2 SLP114=
CYYG;2007-07-14 02:00;METAR CYYG 140200Z 24006KT 15SM SCT280 18/10 A2987 RMK CI2 SLP114=
CYYG;2007-07-14 03:00;METAR CYYG 140300Z 25007KT 15SM SCT280 18/10 A2988 RMK CI2 SLP120=
CYYG;2007-07-14 04:00;METAR CYYG 140400Z 23005KT 15SM SCT280 17/11 A2987 RMK CI2 SLP116=
CYYG;2007-07-14 05:00;METAR CYYG 140500Z 22004KT 15SM FEW280 16/11 A2986 RMK CI1 SLP112=
CYYG;2007-07-14 06:00;METAR CYYG 140600Z 22005KT 15SM FEW280 16/12 A2986 RMK CI1 SLP112=
CYYG;2007-07-14 07:00;METAR CYYG 140700Z 22003KT 15SM SCT240 16/12 A2985 RMK CI2 SLP108=
CYYG;2007-07-14 08:00;METAR CYYG 140800Z 21005KT 15SM BKN240 16/12 A2986 RMK CI3 SLP111=
CYYG;2007-07-14 09:00;METAR CYYG 140900Z 21004KT 15SM FEW120 BKN240 16/13 A2987 RMK AC2CI2 SLP115=
CYYG;2007-07-14 10:00;METAR CYYG 141000Z 20005KT 15SM FEW140 OVC240 17/13 A2988 RMK AC2CS3 SLP119=
CYYG;2007-07-14 11:00;METAR CYYG 141100Z 24007KT 15SM SCT130 BKN250 17/13 A2991 RMK AC3CS2 SLP127=
CYYG;2007-07-14 12:00;METAR CYYG 141200Z 25008KT 15SM FEW130 SCT280 17/13 A2991 RMK AC2CS2 SLP130=
CYYG;2007-07-14 13:00;METAR CYYG 141300Z 24006KT 15SM FEW130 BKN280 18/14 A2992 RMK AC2CS3 SLP132=
CYYG;2007-07-14 14:00;METAR CYYG 141400Z 24007KT 15SM FEW130 BKN280 20/14 A2994 RMK AC1CS2 SLP138=
CYYG;2007-07-14 15:00;METAR CYYG 141500Z 23008KT 15SM FEW130 BKN280 20/13 A2995 RMK AC1CS2 SLP143=
CYYG;2007-07-14 16:00;METAR CYYG 141600Z 21005KT 15SM FEW130 BKN280 20/14 A2995 RMK AC1CS2 SLP143=
CYYG;2007-07-14 17:00;METAR CYYG 141700Z 23009KT 15SM FEW030 SCT280 23/14 A2994 RMK CU1CI2 SLP139=
CYYG;2007-07-14 18:00;METAR CYYG 141800Z 20007KT 15SM FEW030 FEW280 24/14 A2993 RMK CU1CI1 SLP135=
CYYG;2007-07-14 19:00;METAR CYYG 141900Z 20007KT 15SM FEW030 FEW280 24/13 A2993 RMK CU1CI1 SLP134=
CYYG;2007-07-14 20:00;METAR CYYG 142000Z 19010G16KT 15SM FEW030 FEW280 24/13 A2993 RMK CU1CI1 SLP135=
CYYG;2007-07-14 21:00;METAR CYYG 142100Z 22007KT 15SM FEW030 FEW280 24/12 A2992 RMK CU1CI2 SLP133=
CYYG;2007-07-14 22:00;METAR CYYG 142200Z 00000KT 15SM FEW030 FEW280 23/13 A2993 RMK CU1CI2 SLP135=
CYYG;2007-07-14 23:00;METAR CYYG 142300Z 23004KT 15SM FEW030 FEW140 SCT280 23/13 A2994 RMK CU1AC1CI1 SLP138=
CYYG;2007-07-15 00:00;METAR CYYG 150000Z 20003KT 15SM FEW030 FEW080 SCT280 20/12 A2995 RMK CU1AC1CI1 SLP142=
CYYG;2007-07-15 01:00;METAR CYYG 150100Z 18006KT 15SM FEW080 FEW280 18/12 A2996 RMK AC1CI1 SLP147=
CYYG;2007-07-15 02:00;METAR CYYG 150200Z 21006KT 15SM FEW070 FEW280 19/15 A2997 RMK AC1CI1 SLP150=
CYYG;2007-07-15 03:00;METAR CYYG 150300Z 21006KT 15SM FEW040 FEW280 19/14 A2998 RMK SC1CI1 SLP152=
CYYG;2007-07-15 04:00;METAR CYYG 150400Z 21006KT 15SM FEW040 FEW280 19/14 A2998 RMK SC1CI1 SLP153=
CYYG;2007-07-15 05:00;METAR CYYG 150500Z 16003KT 15SM FEW040 FEW260 17/14 A2998 RMK SC1CI0 SLP152=
CYYG;2007-07-15 06:00;METAR CYYG 150600Z 18009KT 15SM FEW040 FEW260 16/15 A2997 RMK SC1CI0 SLP149=
CYYG;2007-07-15 07:00;METAR CYYG 150700Z 18009KT 15SM BKN008 OVC011 17/15 A2997 RMK SF6SC2 SLP149=
CYYG;2007-07-15 08:00;METAR CYYG 150800Z 19008KT 12SM BKN008 16/15 A2997 RMK SF2 SLP149=
CYYG;2007-07-15 09:00;METAR CYYG 150900Z 18009KT 8SM FEW008 SCT240 16/15 A2998 RMK SF1CI1 HAZY SLP151=
CYYG;2007-07-15 10:00;METAR CYYG 151000Z 19012KT 8SM SCT240 17/15 A2998 RMK CI2 SLP153=
CYYG;2007-07-15 11:00;METAR CYYG 151100Z 18012KT 10SM FEW100 18/15 A2999 RMK AC2 SLP155=
CYYG;2007-07-15 12:00;METAR CYYG 151200Z 18009KT 10SM FEW100 FEW300 19/15 A2999 RMK AC1CI1 SLP157=
CYYG;2007-07-15 13:00;METAR CYYG 151300Z 18013KT 10SM FEW100 FEW300 20/16 A2998 RMK AC1CI1 SLP154=
CYYG;2007-07-15 14:00;METAR CYYG 151400Z 18015G20KT 15SM FEW300 21/16 A2998 RMK CI1 SLP153=
CYYG;2007-07-15 15:00;METAR CYYG 151500Z 18019G26KT 15SM FEW030 FEW300 23/17 A2998 RMK CU1CI1 SLP152=
CYYG;2007-07-15 16:00;METAR CYYG 151600Z 18016G22KT 15SM FEW030 24/17 A2996 RMK CU2 SLP147=
CYYG;2007-07-15 17:00;METAR CYYG 151700Z 18018KT 15SM FEW030 24/18 A2995 RMK CU2 TCU N SLP142=
CYYG;2007-07-15 18:00;METAR CYYG 151800Z 18015G21KT 15SM FEW038 25/18 A2994 RMK CU2 SLP138=
CYYG;2007-07-15 19:00;METAR CYYG 151900Z 18019KT 15SM SCT035 24/18 A2993 RMK CU3 SLP134=
CYYG;2007-07-15 20:00;METAR CYYG 152000Z 18019KT 15SM FEW038 FEW100 24/17 A2991 RMK CU2AC1 SLP129=
CYYG;2007-07-15 21:00;METAR CYYG 152100Z 18017KT 15SM FEW041 24/17 A2991 RMK SC2 SLP128=
CYYG;2007-07-15 22:00;METAR CYYG 152200Z 18013KT 15SM FEW037 BKN300 23/17 A2989 RMK CU2CI1 SLP123=
CYYG;2007-07-15 23:00;METAR CYYG 152300Z 18012KT 15SM FEW037 BKN300 23/17 A2989 RMK CU2CI1 SLP122=
CYYG;2007-07-16 00:00;METAR CYYG 160000Z 17011KT 15SM FEW037 BKN300 22/17 A2990 RMK CU2CI2 SLP124=
CYYG;2007-07-16 01:00;METAR CYYG 160100Z 17013KT 15SM FEW040 BKN300 21/17 A2990 RMK SC2CI5 SLP124=
CYYG;2007-07-16 02:00;METAR CYYG 160200Z 17011G20KT 15SM BKN300 20/17 A2989 RMK CI6 SLP121=
CYYG;2007-07-16 03:00;METAR CYYG 160300Z 18013KT 15SM BKN300 20/17 A2988 RMK CI6 SLP118=
CYYG;2007-07-16 03:21;SPECI CYYG 160321Z 17009G15KT 15SM SCT006 BKN300 19/ RMK SF3CI4=
CYYG;2007-07-16 04:00;METAR CYYG 160400Z 18011KT 15SM SCT006 OVC300 19/17 A2987 RMK SF3CI5 SLP114=
CYYG;2007-07-16 05:00;METAR CYYG 160500Z 18011KT 15SM FEW006 BKN300 19/17 A2986 RMK SF2CI5 SLP110=
CYYG;2007-07-16 06:00;METAR CYYG 160600Z 18013KT 15SM FEW006 BKN300 19/17 A2984 RMK SF2CI5 SLP105=
CYYG;2007-07-16 07:00;METAR CYYG 160700Z 20013KT 15SM FEW025 OVC300 19/16 A2984 RMK SC2CI6 SLP105=
CYYG;2007-07-16 08:00;METAR CYYG 160800Z 20011KT 15SM BKN018 OVC300 19/16 A2984 RMK SC6CI2 SLP103=
CYYG;2007-07-16 09:00;METAR CYYG 160900Z 19009KT 15SM BKN012 OVC300 19/17 A2983 RMK SC7CI1 SLP100=
CYYG;2007-07-16 10:00;METAR CYYG 161000Z 20010KT 15SM FEW008 OVC012 19/17 A2983 RMK SF2SC6 SLP102=
CYYG;2007-07-16 11:00;METAR CYYG 161100Z 20013KT 10SM BKN006 OVC012 20/17 A2985 RMK SF6SC2 SLP106=
CYYG;2007-07-16 12:00;METAR CYYG 161200Z 20011KT 15SM BKN006 OVC013 20/17 A2985 RMK SF6SC2 SLP107=
CYYG;2007-07-16 13:00;METAR CYYG 161300Z 20010G15KT 15SM -SHRA BKN007 OVC011 20/17 A2985 RMK SF6SF2 VIS W-NE 3 SLP108=
CYYG;2007-07-16 13:10;SPECI CYYG 161310Z 21011KT 5SM -DZ BR BKN006 OVC011 20/ RMK SF6SF2 VIS E-S 10=
CYYG;2007-07-16 13:36;SPECI CYYG 161336Z 24009KT 3SM -DZ BR OVC004 19/ RMK SF8=
CYYG;2007-07-16 13:42;SPECI CYYG 161342Z 25011KT 2SM -DZ BR OVC004 19/ RMK SF8=
CYYG;2007-07-16 14:00;METAR CYYG 161400Z 25008KT 2SM -DZ BR OVC003 18/17 A2986 RMK SF8 SLP111=
CYYG;2007-07-16 14:48;SPECI CYYG 161448Z 23009KT 15SM FEW003 BKN008 BKN033 20/ RMK SF1SF5SC2=
CYYG;2007-07-16 15:00;METAR CYYG 161500Z 24013KT 15SM SCT008 BKN016 BKN032 20/17 A2987 RMK SF3SC2SC2 SLP114=
CYYG;2007-07-16 15:24;SPECI CYYG 161524Z 23009G16KT 15SM BKN011 22/ RMK SC6=
CYYG;2007-07-16 16:00;METAR CYYG 161600Z 24008KT 15SM BKN013 21/17 A2987 RMK SC5 SLP116=
CYYG;2007-07-16 17:00;METAR CYYG 161700Z 25010KT 15SM FEW020 FEW300 23/17 A2987 RMK CU2CI0 SLP116=
CYYG;2007-07-16 18:00;METAR CYYG 161800Z 24007KT 15SM FEW022 FEW300 24/18 A2987 RMK CU2CI0 SLP114=
CYYG;2007-07-16 19:00;METAR CYYG 161900Z 24009KT 15SM FEW032 FEW300 25/17 A2987 RMK CU2CI1 SLP116=
CYYG;2007-07-16 20:00;METAR CYYG 162000Z 23010KT 15SM FEW035 FEW300 25/15 A2987 RMK CU1CI0 SLP115=
CYYG;2007-07-16 21:00;METAR CYYG 162100Z 25008KT 15SM FEW035 FEW300 25/15 A2987 RMK CU1CI0 TCU=
CYYG;2007-07-16 22:00;METAR CYYG 162200Z 25010KT 15SM FEW035TCU FEW300 25/14 A2988 RMK TCU1CI1 TCU DIST E-S SLP119=
CYYG;2007-07-16 23:00;METAR CYYG 162300Z 26005KT 15SM FEW035 FEW300 23/14 A2989 RMK CU1CI1 SLP122=
CYYG;2007-07-17 00:00;METAR CYYG 170000Z 26005KT 15SM FEW040 FEW300 21/13 A2991 RMK CU1CI1 SLP128=
CYYG;2007-07-17 01:00;METAR CYYG 170100Z 25007KT 15SM FEW040 20/13 A2993 RMK CU1 SLP134=
CYYG;2007-07-17 02:00;METAR CYYG 170200Z 24003KT 15SM FEW040 19/13 A2993 RMK CU1 SLP136=
CYYG;2007-07-17 03:00;METAR CYYG 170300Z 23006KT 15SM SKC 18/13 A2993 RMK SLP137=
CYYG;2007-07-17 04:00;METAR CYYG 170400Z 25007KT 15SM SKC 17/14 A2993 RMK SLP137=
CYYG;2007-07-17 05:00;METAR CYYG 170500Z 24005KT 15SM SKC 17/14 A2994 RMK SLP138=
CYYG;2007-07-17 06:00;METAR CYYG 170600Z 23007KT 15SM SKC 17/14 A2993 RMK SLP137=
CYYG;2007-07-17 07:00;METAR CYYG 170700Z 24005KT 15SM SCT100 17/14 A2993 RMK AC4 SLP136=
CYYG;2007-07-17 08:00;METAR CYYG 170800Z 23004KT 15SM SCT080 16/13 A2993 RMK AC4 SLP135=
CYYG;2007-07-17 09:00;METAR CYYG 170900Z 00000KT 15SM FEW080 BKN280 15/13 A2993 RMK AC2CS2 SLP136=
CYYG;2007-07-17 10:00;METAR CYYG 171000Z 22005KT 15SM FEW080 BKN280 17/13 A2994 RMK AC2CS2 SLP140=
CYYG;2007-07-17 11:00;METAR CYYG 171100Z 23006KT 15SM FEW100 BKN240 18/14 A2996 RMK AC2CS2 SLP145=
CYYG;2007-07-17 12:00;METAR CYYG 171200Z 23006KT 15SM FEW100 BKN240 19/14 A2996 RMK AC2CI2 SLP147=
CYYG;2007-07-17 13:00;METAR CYYG 171300Z 23003KT 15SM FEW070 FEW100 SCT240 22/15 A2996 RMK ACC1AC1CI1 SLP144=
CYYG;2007-07-17 14:00;METAR CYYG 171400Z 20007KT 15SM FEW070 FEW100 FEW240 23/16 A2996 RMK ACC1AC1CI0 SLP145=
CYYG;2007-07-17 15:00;METAR CYYG 171500Z 23007KT 15SM FEW030 FEW240 23/14 A2996 RMK CU1CI0 MDT CU SLP145=
CYYG;2007-07-17 16:00;METAR CYYG 171600Z 23007KT 15SM FEW030 FEW240 25/14 A2995 RMK CU1CI0 MDT CU SLP143=
CYYG;2007-07-17 17:00;METAR CYYG 171700Z 27007KT 15SM FEW030 FEW080 FEW240 25/14 A2995 RMK CU1AC1CI0 MDT CU SLP143=
CYYG;2007-07-17 18:00;METAR CYYG 171800Z 26008KT 15SM FEW040 FEW080 25/13 A2995 RMK CU1AC1 SLP141=
CYYG;2007-07-17 19:00;METAR CYYG 171900Z 25010G15KT 15SM FEW040 FEW080 26/14 A2995 RMK CU1AC1 SLP141=
CYYG;2007-07-17 20:00;METAR CYYG 172000Z 25009KT 15SM FEW040 26/13 A2995 RMK CU1 SLP142=
CYYG;2007-07-17 21:00;METAR CYYG 172100Z 24011KT 15SM FEW045 25/12 A2996 RMK CU1 SLP144=
CYYG;2007-07-17 22:00;METAR CYYG 172200Z 24010KT 15SM FEW045 25/12 A2996 RMK CU1 SLP144=
CYYG;2007-07-17 23:00;METAR CYYG 172300Z 25005KT 15SM FEW045 23/12 A2996 RMK CU1 SLP145=
CYYG;2007-07-18 00:00;METAR CYYG 180000Z 25006KT 15SM FEW045 21/11 A2997 RMK SC2 SLP149=
CYYG;2007-07-18 01:00;METAR CYYG 180100Z 24006KT 15SM FEW045 20/10 A2999 RMK SC2 SLP156=
CYYG;2007-07-18 02:00;METAR CYYG 180200Z 24007KT 15SM FEW045 19/12 A3000 RMK SC2 SLP158=
CYYG;2007-07-18 03:00;METAR CYYG 180300Z 25007KT 15SM FEW045 19/13 A3000 RMK SC2 SLP160=
CYYG;2007-07-18 04:00;METAR CYYG 180400Z 23006KT 15SM FEW045 18/14 A3001 RMK SC2 SLP162=
CYYG;2007-07-18 05:00;METAR CYYG 180500Z 23006KT 15SM FEW045 17/14 A3001 RMK SC2 SLP162=
CYYG;2007-07-18 06:00;METAR CYYG 180600Z 24008KT 15SM FEW045 17/13 A3001 RMK SC2 SLP164=
CYYG;2007-07-18 07:00;METAR CYYG 180700Z 22009KT 15SM FEW045 17/13 A3001 RMK SC2 SLP164=
CYYG;2007-07-18 08:00;METAR CYYG 180800Z 22008KT 15SM FEW045 FEW250 17/13 A3003 RMK SC1CI1 SLP168=
CYYG;2007-07-18 09:00;METAR CYYG 180900Z 22007KT 15SM FEW045 SCT250 16/13 A3003 RMK SC1CI1 SLP170=
CYYG;2007-07-18 10:00;METAR CYYG 181000Z 23008KT 15SM FEW030 BKN280 17/13 A3004 RMK CU1CI2 SLP173=
CYYG;2007-07-18 11:00;METAR CYYG 181100Z 21008KT 15SM FEW030 BKN280 18/14 A3005 RMK CU1CI2 SLP176=
CYYG;2007-07-18 12:00;METAR CYYG 181200Z 22007KT 15SM FEW080 BKN280 20/14 A3006 RMK AC2CI2 SLP179=
CYYG;2007-07-18 13:00;METAR CYYG 181300Z 19005KT 15SM FEW080 BKN280 21/15 A3006 RMK AC1CI2 SLP178=
CYYG;2007-07-18 14:00;METAR CYYG 181400Z 21009KT 15SM BKN280 22/15 A3006 RMK CI1 SLP179=
CYYG;2007-07-18 15:00;METAR CYYG 181500Z 22007KT 15SM SCT280 23/15 A3005 RMK CI1 SLP176=
CYYG;2007-07-18 16:00;METAR CYYG 181600Z 22008KT 15SM FEW030 BKN230 24/15 A3005 RMK CU1CI2 SLP175=
CYYG;2007-07-18 17:00;METAR CYYG 181700Z 23007KT 15SM FEW030 BKN230 25/15 A3003 RMK CU1CI2 SLP170=
CYYG;2007-07-18 18:00;METAR CYYG 181800Z 23006KT 15SM FEW030 BKN230 25/15 A3004 RMK CU1CI3 SLP171=
CYYG;2007-07-18 19:00;METAR CYYG 181900Z 21004KT 15SM FEW040 OVC230 26/13 A3003 RMK SC1CI6 SLP168=
CYYG;2007-07-18 20:00;METAR CYYG 182000Z 17004KT 15SM FEW080 SCT140 OVC230 24/16 A3002 RMK AC1AC3CI3 SLP167=
CYYG;2007-07-18 21:00;METAR CYYG 182100Z 00000KT 15SM FEW080 BKN140 OVC230 24/15 A3001 RMK AC1AC5CI2 SLP163=
CYYG;2007-07-18 22:00;METAR CYYG 182200Z 23007KT 15SM FEW060 BKN120 OVC230 23/16 A3001 RMK SC2AC5CI2 SLP163=
CYYG;2007-07-18 23:00;METAR CYYG 182300Z 00000KT 15SM BKN048 OVC120 22/15 A3000 RMK SC6AC2 SLP158=
CYYG;2007-07-19 00:00;METAR CYYG 190000Z 00000KT 15SM SCT045 OVC095 21/16 A2999 RMK SC3AC5 SLP156=
CYYG;2007-07-19 01:00;METAR CYYG 190100Z 17007KT 15SM BKN085 OVC120 20/14 A2999 RMK AC6AC2 SLP155=
CYYG;2007-07-19 02:00;METAR CYYG 190200Z 17006KT 15SM OVC100 20/14 A2998 RMK AC8 SLP152=
CYYG;2007-07-19 03:00;METAR CYYG 190300Z 18004KT 10SM OVC100 19/15 A2997 RMK AS8 SLP148=
CYYG;2007-07-19 03:53;SPECI CYYG 190353Z 18005KT 6SM -DZ BR SCT014 OVC100 19/ RMK SC4AS4=
CYYG;2007-07-19 04:00;METAR CYYG 190400Z 18006KT 6SM -DZ BR BKN014 OVC100 19/16 A2996 RMK SC6AS2 SLP145=
CYYG;2007-07-19 05:00;METAR CYYG 190500Z 00000KT 8SM SCT020 OVC120 18/16 A2992 RMK SC3AS5 SLP133=
CYYG;2007-07-19 05:36;SPECI CYYG 190536Z 00000KT 10SM -DZ FEW018 SCT045 OVC100 18/ RMK SC2SC2AS4=
CYYG;2007-07-19 06:00;METAR CYYG 190600Z 00000KT 5SM -DZ BR BKN018 OVC110 18/16 A2990 RMK SC6AS2 SLP125=
CYYG;2007-07-19 06:37;SPECI CYYG 190637Z 00000KT 5SM -DZ BR BKN006 OVC011 18/ RMK SF5SC3=
CYYG;2007-07-19 07:00;METAR CYYG 190700Z 00000KT 5SM -DZ BR BKN005 OVC015 19/17 A2988 RMK SF6SC2 SLP119=
CYYG;2007-07-19 07:34;SPECI CYYG 190734Z 00000KT 3SM -DZ BR BKN003 OVC010 19/ RMK SF6SC2=
CYYG;2007-07-19 08:00;METAR CYYG 190800Z 00000KT 3SM -DZ BR BKN004 OVC013 19/18 A2987 RMK SF5SC3 SLP113=
CYYG;2007-07-19 08:16;SPECI CYYG 190816Z 00000KT 2 1/2SM -DZ BR FEW003 BKN012 OVC047 19/ RMK SF2SC4SC2=
CYYG;2007-07-19 09:00;METAR CYYG 190900Z 00000KT 1 1/2SM -DZ BR BKN004 OVC010 19/17 A2985 RMK SF6SC2 SLP106=
CYYG;2007-07-19 09:06;SPECI CYYG 190906Z 00000KT 1 1/2SM BR BKN002 OVC010 19/ RMK SF7SC1 INTMT -DZ=
CYYG;2007-07-19 09:35;SPECI CYYG 190935Z 01004KT 3SM BR OVC004 18/ RMK SF8=
CYYG;2007-07-19 10:00;METAR CYYG 191000Z 04004KT 2 1/2SM -DZ BR OVC005 18/17 A2984 RMK SF8 -DZ INTMT SLP105=
CYYG;2007-07-19 10:27;SPECI CYYG 191027Z 36002KT 2SM -DZ BR BKN006 OVC013 18/ RMK SF7SC1=
CYYG;2007-07-19 11:00;METAR CYYG 191100Z 00000KT 2SM -DZ BR FEW003 BKN006 OVC013 18/17 A2984 RMK SF2SF4SC2 SLP103=
CYYG;2007-07-19 12:00;METAR CYYG 191200Z 00000KT 3SM -DZ BR OVC013 19/17 A2983 RMK SF8 SLP100=
CYYG;2007-07-19 13:00;METAR CYYG 191300Z 08003KT 4SM -DZ BR BKN008 OVC013 20/17 A2980 RMK SF6SC2 SLP090=
CYYG;2007-07-19 13:36;SPECI CYYG 191336Z 00000KT 3SM -DZ BR OVC005 19/ RMK SF8=
CYYG;2007-07-19 14:00;METAR CYYG 191400Z 36002KT 3SM -DZ BR OVC006 19/17 A2981 RMK SF8 SLP093=
CYYG;2007-07-19 14:23;SPECI CYYG 191423Z 02005KT 2SM -DZ BR BKN003 OVC006 19/ RMK SF5SF3=
CYYG;2007-07-19 15:00;METAR CYYG 191500Z 35007KT 1SM R03/P6000FT/D -DZ BR FEW003 OVC007 18/17 A2981 RMK SF2SF6 SLP094=
CYYG;2007-07-19 16:00;METAR CYYG 191600Z 36007KT 1 1/2SM -DZ BR FEW003 OVC007 18/17 A2981 RMK SF2SF6 SLP094=
CYYG;2007-07-19 17:00;METAR CYYG 191700Z 02006KT 4SM HZ OVC008 19/17 A2981 RMK SF8 SLP095=
CYYG;2007-07-19 17:26;SPECI CYYG 191726Z 03005KT 10SM OVC010 20/ RMK SC8=
CYYG;2007-07-19 18:00;METAR CYYG 191800Z 06005KT 10SM OVC011 20/16 A2979 RMK SC8 SLP087=
CYYG;2007-07-19 19:00;METAR CYYG 191900Z 11004KT 12SM BKN013 OVC080 21/17 A2979 RMK SC5AC2 SLP089=
CYYG;2007-07-19 20:00;METAR CYYG 192000Z 00000KT 15SM BKN014 OVC070 22/17 A2980 RMK SC5AC2 SLP090=
CYYG;2007-07-19 21:00;METAR CYYG 192100Z 15006KT 15SM BKN023 OVC070 22/18 A2979 RMK SC5AC2 SLP088=
CYYG;2007-07-19 22:00;METAR CYYG 192200Z CCA 00000KT 15SM BKN018 OVC060 22/18 A2980 RMK SC5SC2 SLP091=
CYYG;2007-07-19 23:00;METAR CYYG 192300Z 00000KT 12SM SCT018 OVC070 21/18 A2979 RMK SC3AC2 SLP089=
CYYG;2007-07-20 00:00;METAR CYYG 200000Z 00000KT 10SM SCT025 OVC041 21/18 A2979 RMK SC4SC4 SLP088=
CYYG;2007-07-20 01:00;METAR CYYG 200100Z 16005KT 10SM BKN018 OVC035 20/17 A2979 RMK SC6SC2 SLP086=
CYYG;2007-07-20 01:23;SPECI CYYG 200123Z 18007KT 10SM FEW008 OVC018 20/ RMK SF2SC6=
CYYG;2007-07-20 02:00;METAR CYYG 200200Z 19002KT 10SM FEW008 BKN016 OVC030 20/17 A2979 RMK SF2SC4SC2 SLP088=
CYYG;2007-07-20 02:33;SPECI CYYG 200233Z 00000KT 8SM BKN006 OVC015 20/ RMK SF5SC3=
CYYG;2007-07-20 03:00;METAR CYYG 200300Z 16002KT 10SM SCT006 BKN013 OVC065 20/17 A2979 RMK SF3SC2SC2 SLP086=
CYYG;2007-07-20 04:00;METAR CYYG 200400Z 14004KT 10SM FEW013 SCT050 BKN110 OVC180 20/17 A2977 RMK SC2SC2AC3AC1 SLP082=
CYYG;2007-07-20 05:00;METAR CYYG 200500Z 19004KT 10SM FEW012 BKN018 OVC032 20/18 A2978 RMK SC2SC4SC2 SLP083=
CYYG;2007-07-20 06:00;METAR CYYG 200600Z 20006KT 10SM SCT009 OVC018 20/17 A2977 RMK SF4SC4 SLP082=
CYYG;2007-07-20 06:13;SPECI CYYG 200613Z 20005KT 8SM -SHRA BKN007 OVC018 20/ RMK SF6SC2=
CYYG;2007-07-20 06:42;SPECI CYYG 200642Z 19006KT 6SM -SHRA BR BKN003 OVC008 20/ RMK SF5SF3=
CYYG;2007-07-20 07:00;METAR CYYG 200700Z 19006KT 5SM -SHRA BR BKN003 OVC008 20/18 A2977 RMK SF6SF2 SLP080=
CYYG;2007-07-20 08:00;METAR CYYG 200800Z 19007KT 5SM -SHRA BR OVC003 20/19 A2977 RMK SF8 SLP079=
CYYG;2007-07-20 08:29;SPECI CYYG 200829Z 18007KT 1 1/2SM -SHRA BR BKN002 OVC005 19/ RMK SF5SF3=
CYYG;2007-07-20 09:00;METAR CYYG 200900Z 18009KT 1 1/2SM -SHRA BR OVC002 19/18 A2977 RMK SF8 SLP079=
CYYG;2007-07-20 10:00;METAR CYYG 201000Z 17007KT 2SM -SHRA BR BKN002 OVC012 19/18 A2976 RMK SF7SC1 SLP077=
CYYG;2007-07-20 11:00;METAR CYYG 201100Z 15009KT 1 1/2SM -SHRA BR OVC002 20/19 A2975 RMK SF8 SLP074=
CYYG;2007-07-20 11:15;SPECI CYYG 201115Z 14009KT 1 1/2SM RA BR OVC002 20/ RMK SF8=
CYYG;2007-07-20 11:50;SPECI CYYG 201150Z 14013G19KT 6SM -RA BR OVC005 19/ RMK SF8 RERA=
CYYG;2007-07-20 12:00;METAR CYYG 201200Z 17010G17KT 4SM -RA BR OVC004 19/18 A2973 RMK SF8 RERA SLP066=
CYYG;2007-07-20 12:51;SPECI CYYG 201251Z 18013KT 5SM -RA BR OVC005 19/ RMK SF8=
CYYG;2007-07-20 13:00;METAR CYYG 201300Z 17016KT 7SM -RA OVC007 19/18 A2972 RMK SF8 SLP063=
CYYG;2007-07-20 13:54;SPECI CYYG 201354Z 20013KT 5SM -RA BR OVC004 20/ RMK SF8=
CYYG;2007-07-20 14:00;METAR CYYG 201400Z 20013KT 5SM -RA BR OVC005 20/19 A2973 RMK SF8 SLP066=
CYYG;2007-07-20 15:00;METAR CYYG 201500Z 18011KT 5SM -RA BR OVC005 20/19 A2972 RMK SF8 SLP065=
CYYG;2007-07-20 16:00;METAR CYYG 201600Z 17011KT 5SM -RA BR BKN005 OVC013 21/19 A2970 RMK SF7SC1 SLP058=
CYYG;2007-07-20 16:30;SPECI CYYG 201630Z 19005KT 8SM -RA BKN004 OVC012 21/ RMK SF7SC1=
CYYG;2007-07-20 16:40;SPECI CYYG 201640Z 20009G15KT 8SM -RA BKN007 OVC020 21/ RMK SF6SC2=
CYYG;2007-07-20 17:00;METAR CYYG 201700Z 20009KT 10SM -RA BKN009 OVC040 22/20 A2972 RMK SF5SC3 SLP063=
CYYG;2007-07-20 17:14;SPECI CYYG 201714Z 20008KT 10SM BKN010 OVC030 22/ RMK SF5SC3=
CYYG;2007-07-20 17:47;SPECI CYYG 201747Z 18008KT 3SM -DZ BR BKN009 OVC030 22/ RMK SF6SC2=
CYYG;2007-07-20 18:00;METAR CYYG 201800Z 18007KT 2 1/2SM -DZ BR BKN005 OVC012 21/20 A2972 RMK SF7SC1 SLP065=
CYYG;2007-07-20 18:24;SPECI CYYG 201824Z 19007KT 6SM -DZ BR BKN007 OVC015 22/ RMK SF6SC2=
CYYG;2007-07-20 18:33;SPECI CYYG 201833Z 19007KT 8SM SCT007 OVC016 22/ RMK SF4SC4=
CYYG;2007-07-20 19:00;METAR CYYG 201900Z 19009KT 6SM BR SCT007 OVC022 22/21 A2973 RMK SF4SC4 SLP067=
CYYG;2007-07-20 20:00;METAR CYYG 202000Z 18009KT 9SM FEW007 OVC020 23/21 A2973 RMK SF2SC6 SLP067=
CYYG;2007-07-20 20:47;SPECI CYYG 202047Z 18015KT 12SM BKN030 OVC083 22/ RMK SC6AC2=
CYYG;2007-07-20 21:00;METAR CYYG 202100Z 18013KT 12SM BKN030 OVC083 22/20 A2974 RMK SC5AC3 SLP069=
CYYG;2007-07-20 22:00;METAR CYYG 202200Z 18013G19KT 15SM BKN021 OVC070 22/20 A2974 RMK SC6AC2 SLP071=
CYYG;2007-07-20 22:35;SPECI CYYG 202235Z 18015KT 15SM -SHRA SCT021 OVC110 22/ RMK SC4AC4=
CYYG;2007-07-20 23:00;METAR CYYG 202300Z 16011KT 10SM -SHRA SCT022 BKN110 OVC140 21/20 A2974 RMK SC3AC2AC2 SLP071=
CYYG;2007-07-21 00:00;METAR CYYG 210000Z 18011G16KT 8SM -SHRA FEW010 OVC095 21/20 A2976 RMK SF2AC6 SLP077=
CYYG;2007-07-21 01:00;METAR CYYG 210100Z 18015KT 8SM -SHRA FEW010 SCT030 OVC100 21/19 A2977 RMK SF2SC2AC4 SLP082=
CYYG;2007-07-21 01:44;SPECI CYYG 210144Z 18010G16KT 10SM BKN008 BKN030 OVC110 21/ RMK SF5SC2AC2=
CYYG;2007-07-21 02:00;METAR CYYG 210200Z 18013G18KT 8SM BKN009 BKN030 OVC100 21/19 A2979 RMK SF6SC1AC2 SLP087=
CYYG;2007-07-21 03:00;METAR CYYG 210300Z 19011G17KT 8SM BKN008 BKN040 OVC098 20/19 A2980 RMK SF5SC1AC2 SLP091=
CYYG;2007-07-21 04:00;METAR CYYG 210400Z 18012KT 8SM BKN009 OVC029 20/19 A2981 RMK SF5SC3 SLP093=
CYYG;2007-07-21 05:00;METAR CYYG 210500Z 19012KT 8SM BKN009 BKN031 OVC120 20/18 A2982 RMK SF5SC2AC1 SLP096=
CYYG;2007-07-21 06:00;METAR CYYG 210600Z 19010G17KT 10SM BKN008 OVC016 20/18 A2982 RMK SF5SC3 SLP098=
CYYG;2007-07-21 07:00;METAR CYYG 210700Z 19010KT 6SM BR BKN009 BKN070 OVC150 20/18 A2983 RMK SF5AC2AC2 SLP100=
CYYG;2007-07-21 08:00;METAR CYYG 210800Z 19011KT 8SM BKN008 BKN080 OVC150 20/18 A2983 RMK SF5AC1AC2 SLP101=
CYYG;2007-07-21 09:00;METAR CYYG 210900Z 20008KT 8SM BKN009 BKN021 OVC084 20/18 A2985 RMK SF5SC1AC2 SLP106=
CYYG;2007-07-21 09:07;SPECI CYYG 210907Z 20009KT 8SM -SHRA SCT009 BKN022 OVC084 20/ RMK SF4SC2AC2=
CYYG;2007-07-21 10:00;METAR CYYG 211000Z 20010KT 10SM -SHRA FEW009 SCT024 BKN088 OVC140 20/18 A2987 RMK SF2SC2AC3AC2 ACC ASOCTD PCPN VRY LGT SLP113=
CYYG;2007-07-21 11:00;METAR CYYG 211100Z 21009G15KT 10SM -SHRA SCT050 BKN084 OVC260 20/18 A2987 RMK SC3AC3CI2 ACC ASOCTD PCPN VRY LGT SLP116=
CYYG;2007-07-21 12:00;METAR CYYG 211200Z 21009KT 12SM SCT050 BKN088 OVC260 20/18 A2990 RMK SC4AC2CI2 SLP124=
CYYG;2007-07-21 13:00;METAR CYYG 211300Z 21011KT 10SM FEW010 BKN080 OVC260 21/18 A2991 RMK SF2AC4CI2 SLP129=
CYYG;2007-07-21 14:00;METAR CYYG 211400Z 20012KT 8SM -SHRA FEW011 BKN043 OVC076 20/18 A2993 RMK SF2SC2AC3 SLP136=
CYYG;2007-07-21 15:00;METAR CYYG 211500Z 19008KT 4SM -SHRA BR SCT011 OVC026 20/18 A2993 RMK SF4SC4 VIS HIER W SLP136=
CYYG;2007-07-21 15:49;SPECI CYYG 211549Z 21008KT 10SM -SHRA FEW006 SCT026 OVC055 20/ RMK SF2SC2SC4=
CYYG;2007-07-21 16:00;METAR CYYG 211600Z 20012KT 10SM -SHRA FEW006 SCT026 OVC054 20/18 A2992 RMK SF2SC2SC4 SLP133=
CYYG;2007-07-21 17:00;METAR CYYG 211700Z 20008KT 7SM -SHRA SCT006 OVC026 19/18 A2993 RMK SF4SC4 SLP135=
CYYG;2007-07-21 17:48;SPECI CYYG 211748Z 20011G16KT 4SM -SHRA BR SCT006 OVC012 19/ RMK SF4SC4=
CYYG;2007-07-21 18:00;METAR CYYG 211800Z 18009KT 4SM -SHRA BR SCT006 OVC015 19/18 A2994 RMK SF4SC4 SLP138=
CYYG;2007-07-21 18:09;SPECI CYYG 211809Z 19008KT 15SM -SHRA FEW006 SCT015 OVC077 19/ RMK SF2SC2AC4=
CYYG;2007-07-21 18:33;SPECI CYYG 211833Z 20011KT 10SM -DZ BKN006 OVC012 19/ RMK SF5SC3=
CYYG;2007-07-21 19:00;METAR CYYG 211900Z 20008KT 10SM -DZ BKN008 OVC024 19/18 A2995 RMK SF5SC3 SLP143=
CYYG;2007-07-21 19:07;SPECI CYYG 211907Z 21008KT 15SM SCT009 OVC025 20/ RMK SF3SC5=
CYYG;2007-07-21 19:48;SPECI CYYG 211948Z 20008KT 15SM FEW010 SCT025 OVC260 20/ RMK SF1SC3CS4=
CYYG;2007-07-21 20:00;METAR CYYG 212000Z 20008KT 15SM FEW010 SCT025 OVC260 20/18 A2996 RMK SF1SC3CS4 SLP145=
CYYG;2007-07-21 21:00;METAR CYYG 212100Z 21003KT 15SM FEW010 BKN130 BKN260 20/18 A2995 RMK SF1AC4CS2 SLP143=
CYYG;2007-07-21 22:00;METAR CYYG 212200Z 18006KT 15SM FEW015 BKN086 BKN260 20/18 A2996 RMK SF2AC4CS2 SLP145=
CYYG;2007-07-21 22:10;SPECI CYYG 212210Z 18007KT 15SM BKN015 OVC086 20/ RMK SC6AC2=
CYYG;2007-07-21 22:31;SPECI CYYG 212231Z 18007KT 15SM SCT015 OVC088 19/ RMK SC3AC5=
CYYG;2007-07-21 23:00;METAR CYYG 212300Z 19003KT 12SM FEW014 BKN088 OVC170 19/18 A2998 RMK SC2AC5AS2 SLP152=
CYYG;2007-07-22 00:00;METAR CYYG 220000Z CCA 16005KT 12SM SCT016 BKN084 OVC130 19/18 A2999 RMK SC3AC3AS2 SLP157=
CYYG;2007-07-22 01:00;METAR CYYG 220100Z 00000KT 10SM -SHRA BKN018 OVC100 19/17 A3001 RMK SC5AC3 SLP161=
CYYG;2007-07-22 02:00;METAR CYYG 220200Z 18004KT 6SM -SHRA BR BKN018 OVC031 19/18 A3001 RMK SC6SC2 SLP161=
CYYG;2007-07-22 02:18;SPECI CYYG 220218Z 16004KT 5SM BR FEW003 BKN019 OVC036 19/ RMK SF2SC6SC1=
CYYG;2007-07-22 03:00;METAR CYYG 220300Z 21003KT 6SM BR FEW003 OVC018 19/17 A3001 RMK SF2SC6 SLP164=
CYYG;2007-07-22 04:00;METAR CYYG 220400Z 17003KT 6SM BR FEW006 OVC020 18/17 A3001 RMK SF2SC6 SLP163=
CYYG;2007-07-22 05:00;METAR CYYG 220500Z 00000KT 6SM BR FEW004 OVC016 19/17 A3001 RMK SF2SC6 SLP161=
CYYG;2007-07-22 05:26;SPECI CYYG 220526Z 00000KT 6SM BR FEW002 OVC006 18/ RMK SF2SF6=
CYYG;2007-07-22 06:00;METAR CYYG 220600Z 36006KT 4SM BR BKN002 OVC005 18/17 A3000 RMK SF5SF3 SLP160=
CYYG;2007-07-22 07:00;METAR CYYG 220700Z CCA 02006KT 6SM BR BKN003 OVC015 17/15 A3002 RMK SF6SC2 SLP165=
CYYG;2007-07-22 07:34;SPECI CYYG 220734Z 02004KT 8SM SCT003 OVC018 17/ RMK SF4SC4=
CYYG;2007-07-22 08:00;METAR CYYG 220800Z CCA 04007KT 10SM FEW002 OVC026 17/14 A3003 RMK SF2SC6 SLP170=
CYYG;2007-07-22 09:00;METAR CYYG 220900Z 03005KT 15SM FEW004 SCT025 BKN047 16/14 A3005 RMK SF1SC2SC4 SLP176=
CYYG;2007-07-22 10:00;METAR CYYG 221000Z 01003KT 15SM FEW028 BKN070 BKN260 16/15 A3007 RMK SC2AC5CI1 SLP182=
CYYG;2007-07-22 11:00;METAR CYYG 221100Z 36005KT 15SM FEW030 BKN075 BKN260 17/15 A3009 RMK SC1AC6CI1 SLP190=
CYYG;2007-07-22 12:00;METAR CYYG 221200Z 01004KT 15SM BKN085 BKN360 18/15 A3010 RMK AC6CI1 SLP194=
CYYG;2007-07-22 13:00;METAR CYYG 221300Z 36002KT 15SM SCT085 BKN260 19/15 A3012 RMK AC4CI2 SLP201=
CYYG;2007-07-22 14:00;METAR CYYG 221400Z 01006KT 15SM FEW020 SCT085 BKN260 21/15 A3013 RMK CU1AC3CI1 SLP204=
CYYG;2007-07-22 15:00;METAR CYYG 221500Z 31008KT 15SM FEW025 FEW260 21/15 A3015 RMK CU1CI0 SLP209=
CYYG;2007-07-22 16:00;METAR CYYG 221600Z 32010KT 15SM FEW025 SCT260 21/15 A3015 RMK CU2CI0 SLP211=
CYYG;2007-07-22 17:00;METAR CYYG 221700Z 34009KT 15SM FEW030 SCT260 22/14 A3017 RMK CU1CI0 SLP216=
CYYG;2007-07-22 18:00;METAR CYYG 221800Z 35007KT 15SM FEW030 SCT260 22/12 A3018 RMK CU1CI1 SLP221=
CYYG;2007-07-22 19:00;METAR CYYG 221900Z 33006KT 15SM FEW030 SCT260 22/12 A3020 RMK CU1CI1 SLP225=
CYYG;2007-07-22 20:00;METAR CYYG 222000Z 35004KT 15SM FEW030 FEW260 22/11 A3020 RMK CU1CI1 SLP225=
CYYG;2007-07-22 21:00;METAR CYYG 222100Z 34004KT 15SM SCT260 22/10 A3020 RMK CI1 SLP228=
CYYG;2007-07-22 22:00;METAR CYYG 222200Z 00000KT 15SM BKN260 22/11 A3021 RMK CI2 SLP230=
CYYG;2007-07-22 23:00;METAR CYYG 222300Z 00000KT 15SM BKN260 21/13 A3022 RMK CI2 SLP232=
CYYG;2007-07-23 00:00;METAR CYYG 230000Z 00000KT 15SM BKN260 18/10 A3023 RMK CI2 SLP235=
CYYG;2007-07-23 01:00;METAR CYYG 230100Z 20003KT 15SM BKN260 18/13 A3024 RMK CI2 SLP239=
CYYG;2007-07-23 02:00;METAR CYYG 230200Z 22005KT 15SM SCT260 17/13 A3026 RMK CI1 SLP246=
CYYG;2007-07-23 03:00;METAR CYYG 230300Z 23005KT 15SM SCT260 16/13 A3028 RMK CI1 SLP252=
CYYG;2007-07-23 04:00;METAR CYYG 230400Z 23005KT 15SM SCT260 17/13 A3027 RMK CI1 SLP251=
CYYG;2007-07-23 05:00;METAR CYYG 230500Z 23004KT 15SM SCT260 16/13 A3029 RMK CI1 SLP257=
CYYG;2007-07-23 06:00;METAR CYYG 230600Z 00000KT 15SM SCT260 17/14 A3028 RMK CI1 SLP253=
CYYG;2007-07-23 07:00;METAR CYYG 230700Z 22004KT 15SM SCT260 15/14 A3028 RMK CI1 SLP253=
CYYG;2007-07-23 08:00;METAR CYYG 230800Z 22005KT 15SM FEW260 16/15 A3028 RMK CI0 SLP253=
CYYG;2007-07-23 09:00;METAR CYYG 230900Z 21006KT 15SM BKN260 16/14 A3029 RMK CI1 SLP256=
CYYG;2007-07-23 10:00;METAR CYYG 231000Z 21005KT 15SM BKN260 17/15 A3030 RMK CI2 SLP259=
CYYG;2007-07-23 11:00;METAR CYYG 231100Z 21006KT 15SM BKN300 19/15 A3031 RMK CI2 SLP263=
CYYG;2007-07-23 12:00;METAR CYYG 231200Z 22007KT 15SM BKN300 21/15 A3031 RMK CI2 SLP264=
CYYG;2007-07-23 13:00;METAR CYYG 231300Z 21007KT 15SM BKN300 22/14 A3031 RMK CI2 SLP264=
CYYG;2007-07-23 14:00;METAR CYYG 231400Z 20010KT 15SM BKN300 22/12 A3031 RMK CI2 SLP263=
CYYG;2007-07-23 15:00;METAR CYYG 231500Z 20009KT 15SM BKN300 24/12 A3030 RMK CI2 CONTRAILS SLP260=
CYYG;2007-07-23 16:00;METAR CYYG 231600Z 21011KT 15SM BKN300 24/12 A3028 RMK CI3 SLP255=
CYYG;2007-07-23 17:00;METAR CYYG 231700Z 20011KT 15SM FEW150 BKN250 24/12 A3027 RMK AC1CI5 SLP250=
CYYG;2007-07-23 18:00;METAR CYYG 231800Z 19007KT 15SM BKN250 25/11 A3026 RMK CS6 SLP246=
CYYG;2007-07-23 19:00;METAR CYYG 231900Z 21008KT 15SM BKN250 25/11 A3024 RMK CS6 SLP240=
CYYG;2007-07-23 20:00;METAR CYYG 232000Z 19007KT 15SM BKN250 24/10 A3023 RMK CS6 SLP236=
CYYG;2007-07-23 21:00;METAR CYYG 232100Z 19006KT 15SM FEW150 BKN250 24/09 A3020 RMK AC2CS6 SLP228=
CYYG;2007-07-23 22:00;METAR CYYG 232200Z 18006KT 15SM FEW150 BKN250 23/11 A3019 RMK AC2CI4 SLP223=
CYYG;2007-07-23 23:00;METAR CYYG 232300Z 17007KT 15SM SCT160 BKN250 22/12 A3018 RMK AC3CI2 SLP220=
CYYG;2007-07-24 00:00;METAR CYYG 240000Z 17006KT 15SM SCT180 BKN250 21/11 A3017 RMK AC4CI2 SLP216=
CYYG;2007-07-24 01:00;METAR CYYG 240100Z 19006KT 15SM BKN180 BKN250 21/13 A3017 RMK AC5CI2 SLP218=
CYYG;2007-07-24 02:00;METAR CYYG 240200Z 21007KT 15SM -SHRA SCT075 BKN140 BKN250 21/15 A3017 RMK AC3AC2CI1 SLP217=
CYYG;2007-07-24 02:40;SPECI CYYG 240240Z 21007KT 15SM SCT067 BKN098 BKN140 21/ RMK AC3AC2AC2=
CYYG;2007-07-24 03:00;METAR CYYG 240300Z 20008KT 15SM SCT072 BKN100 BKN140 21/15 A3016 RMK AC3AC2AC2 SLP212=
CYYG;2007-07-24 04:00;METAR CYYG 240400Z 22005KT 15SM FEW038 BKN070 BKN100 21/14 A3015 RMK SC2AC4AC2 SLP210=
CYYG;2007-07-24 05:00;METAR CYYG 240500Z 23006KT 15SM FEW035 BKN070 BKN140 20/16 A3014 RMK SC2AC4AC2 SLP205=
CYYG;2007-07-24 06:00;METAR CYYG 240600Z 23004KT 15SM FEW035 BKN070 OVC140 20/17 A3013 RMK SC2AC2AC3 SLP202=
CYYG;2007-07-24 07:00;METAR CYYG 240700Z 21005KT 15SM SCT030 BKN045 OVC140 20/17 A3012 RMK SC4SC2AC2 SLP199=
CYYG;2007-07-24 08:00;METAR CYYG 240800Z 21006KT 15SM SCT032 BKN048 OVC160 19/18 A3012 RMK SC4SC2AC2 SLP198=
CYYG;2007-07-24 09:00;METAR CYYG 240900Z 21005KT 15SM FEW032 BKN068 BKN160 20/18 A3011 RMK SC2AC3AC2 SLP197=
CYYG;2007-07-24 10:00;METAR CYYG 241000Z 20008KT 15SM FEW007 SCT024 BKN042 20/19 A3011 RMK SF2SC2SC4 SLP196=
CYYG;2007-07-24 11:00;METAR CYYG 241100Z 22008KT 15SM SCT005 BKN040 BKN082 21/19 A3010 RMK SF3SC2AC2 SLP194=
CYYG;2007-07-24 12:00;METAR CYYG 241200Z 22008KT 15SM BKN007 OVC080 21/19 A3010 RMK SF7AC1 SLP193=
CYYG;2007-07-24 13:00;METAR CYYG 241300Z 22012KT 15SM BKN007 BKN080 22/20 A3008 RMK SF6AC1 SLP185=
CYYG;2007-07-24 13:38;SPECI CYYG 241338Z 22010KT 15SM SCT010 BKN080 23/ RMK SC4AC2=
CYYG;2007-07-24 14:00;METAR CYYG 241400Z 22010G15KT 15SM BKN010 BKN080 23/20 A3006 RMK SC6AC2 SLP181=
CYYG;2007-07-24 15:00;METAR CYYG 241500Z 22010KT 15SM BKN015 24/21 A3006 RMK SC6 SLP178=
CYYG;2007-07-24 16:00;METAR CYYG 241600Z 24008KT 15SM BKN021 25/21 A3004 RMK SC6 SLP172=
CYYG;2007-07-24 17:00;METAR CYYG 241700Z 23011G16KT 15SM BKN023 BKN240 26/21 A3002 RMK SC5CI1 SLP166=
CYYG;2007-07-24 18:00;METAR CYYG 241800Z 21013G18KT 15SM FEW025 BKN240 27/21 A3001 RMK SC2CI2 SLP160=
CYYG;2007-07-24 19:00;METAR CYYG 241900Z 22014KT 15SM FEW025 BKN240 27/21 A3000 RMK SC2CS2 SLP158=
CYYG;2007-07-24 20:00;METAR CYYG 242000Z 23011KT 15SM FEW025 BKN240 26/21 A2998 RMK SC2CI2 SLP151=
CYYG;2007-07-24 21:00;METAR CYYG 242100Z 24010G15KT 15SM FEW025 FEW090 BKN240 26/20 A2997 RMK CF1AC1CI1 SLP148=
CYYG;2007-07-24 22:00;METAR CYYG 242200Z 23010KT 15SM FEW025 FEW060 BKN240 26/20 A2996 RMK CF1SC1CI2 SLP146=
CYYG;2007-07-24 23:00;METAR CYYG 242300Z 24009KT 15SM FEW025 BKN240 25/20 A2996 RMK CF1CI2 SLP146=
CYYG;2007-07-25 00:00;METAR CYYG 250000Z 25009KT 15SM FEW025 BKN240 23/20 A2997 RMK CF1CI2 SLP147=
CYYG;2007-07-25 01:00;METAR CYYG 250100Z 25010KT 15SM BKN240 23/19 A2999 RMK CI2 SLP154=
CYYG;2007-07-25 02:00;METAR CYYG 250200Z 25010KT 15SM BKN240 22/19 A2999 RMK CI2 SLP155=
CYYG;2007-07-25 03:00;METAR CYYG 250300Z 25011KT 15SM BKN240 20/19 A2999 RMK CI2 SLP157=
CYYG;2007-07-25 03:29;SPECI CYYG 250329Z 25013G19KT 15SM SCT005 BKN240 20/ RMK SF3CI2=
CYYG;2007-07-25 03:43;SPECI CYYG 250343Z 25012G18KT 15SM BKN004 OVC240 20/ RMK SF6CI2=
CYYG;2007-07-25 04:00;METAR CYYG 250400Z 25013G20KT 15SM BKN005 20/19 A3000 RMK SF7 SLP158=
CYYG;2007-07-25 05:00;METAR CYYG 250500Z 25013G18KT 15SM SCT005 19/17 A2999 RMK SF4 SLP157=
CYYG;2007-07-25 06:00;METAR CYYG 250600Z 24013KT 15SM FEW005 18/16 A2999 RMK SF2 SLP157=
CYYG;2007-07-25 07:00;METAR CYYG 250700Z 24010KT 15SM SKC 18/16 A2999 RMK SLP157=
CYYG;2007-07-25 08:00;METAR CYYG 250800Z 24011KT 15SM SCT250 17/16 A3000 RMK CI1 SLP159=
CYYG;2007-07-25 09:00;METAR CYYG 250900Z 23011KT 15SM BKN220 17/15 A3000 RMK CI5 SLP158=
CYYG;2007-07-25 10:00;METAR CYYG 251000Z 24007KT 15SM BKN220 17/15 A3001 RMK CI5 SLP164=
CYYG;2007-07-25 11:00;METAR CYYG 251100Z 22005KT 15SM SCT250 19/16 A3002 RMK CI2 SLP167=
CYYG;2007-07-25 12:00;METAR CYYG 251200Z 26006KT 15SM FEW020 BKN250 20/17 A3004 RMK SF1CI2 SLP173=
CYYG;2007-07-25 12:33;SPECI CYYG 251233Z 24005KT 15SM FEW010 BKN250 20/ RMK SC1CI2=
CYYG;2007-07-25 13:00;METAR CYYG 251300Z 23007KT 15SM FEW010 BKN250 20/17 A3004 RMK SC1CI2 SLP171=
CYYG;2007-07-25 14:00;METAR CYYG 251400Z 26005KT 15SM FEW010 BKN250 22/19 A3003 RMK SC1CI2 SLP169=
CYYG;2007-07-25 15:00;METAR CYYG 251500Z 23003KT 15SM FEW010 BKN250 23/19 A3002 RMK SC1CI2 SLP166=
CYYG;2007-07-25 16:00;METAR CYYG 251600Z 19005KT 15SM FEW025 BKN250 25/20 A3001 RMK CU1CI2 SLP164=
CYYG;2007-07-25 17:00;METAR CYYG 251700Z 22005KT 15SM FEW035 BKN250 26/20 A3001 RMK CU2CI2 SLP164=
CYYG;2007-07-25 18:00;METAR CYYG 251800Z 25004KT 15SM FEW025 SCT250 26/20 A3001 RMK CU2CI1 MDT CU ASOCTD SLP164=
CYYG;2007-07-25 19:00;METAR CYYG 251900Z 28005KT 15SM FEW030 BKN250 27/21 A3001 RMK CU2CS2 SLP162=
CYYG;2007-07-25 20:00;METAR CYYG 252000Z 02003KT 15SM FEW030 BKN250 27/21 A3001 RMK CU2CS2 SLP162=
CYYG;2007-07-25 21:00;METAR CYYG 252100Z 30005KT 15SM FEW040 BKN250 27/19 A3000 RMK CU1CI4 SLP158=
CYYG;2007-07-25 22:00;METAR CYYG 252200Z 00000KT 15SM FEW040 BKN250 26/19 A2999 RMK CU1CI5 SLP155=
CYYG;2007-07-25 23:00;METAR CYYG 252300Z 00000KT 15SM FEW040 OVC250 25/18 A3000 RMK CU1CI4 SLP159=
CYYG;2007-07-26 00:00;METAR CYYG 260000Z 24005KT 15SM BKN250 23/19 A3000 RMK CI5 SLP158=
CYYG;2007-07-26 01:00;METAR CYYG 260100Z 25008KT 10SM BKN250 23/19 A3001 RMK CI5 HAZY SLP161=
CYYG;2007-07-26 02:00;METAR CYYG 260200Z 25007KT 10SM BKN250 23/19 A3000 RMK CI6 HAZY SLP158=
CYYG;2007-07-26 03:00;METAR CYYG 260300Z 24007KT 15SM OVC250 22/19 A3000 RMK CI7 SLP158=
CYYG;2007-07-26 04:00;METAR CYYG 260400Z 24005KT 15SM OVC250 21/18 A2999 RMK CI8 SLP155=
CYYG;2007-07-26 05:00;METAR CYYG 260500Z 24008KT 15SM SCT250 20/18 A2998 RMK CI2 SLP151=
CYYG;2007-07-26 06:00;METAR CYYG 260600Z 25007KT 15SM FEW250 20/18 A2997 RMK CI1 SLP148=
CYYG;2007-07-26 07:00;METAR CYYG 260700Z 25008KT 15SM FEW250 20/18 A2996 RMK CI2 SLP146=
CYYG;2007-07-26 08:00;METAR CYYG 260800Z 26007KT 15SM FEW250 20/18 A2996 RMK CI2 SLP146=
CYYG;2007-07-26 09:00;METAR CYYG 260900Z 25008KT 15SM BKN250 20/18 A2995 RMK CI6 SLP142=
CYYG;2007-07-26 10:00;METAR CYYG 261000Z 24008KT 15SM BKN250 20/18 A2995 RMK CI6 SLP141=
CYYG;2007-07-26 11:00;METAR CYYG 261100Z 26008KT 15SM BKN250 21/18 A2996 RMK CI3 SLP143=
CYYG;2007-07-26 12:00;METAR CYYG 261200Z 27012KT 15SM SCT250 23/19 A2996 RMK CI2 SLP144=
CYYG;2007-07-26 13:00;METAR CYYG 261300Z 27010KT 15SM SCT250 24/20 A2995 RMK CI2 SLP141=
CYYG;2007-07-26 14:00;METAR CYYG 261400Z 27009KT 15SM FEW280 26/20 A2994 RMK CI2 SLP139=
CYYG;2007-07-26 15:00;METAR CYYG 261500Z 26010KT 15SM FEW280 27/21 A2992 RMK CI2 SLP132=
CYYG;2007-07-26 16:00;METAR CYYG 261600Z 29008KT 15SM FEW280 28/21 A2991 RMK CI1 SLP129=
CYYG;2007-07-26 17:00;METAR CYYG 261700Z 27011KT 15SM FEW280 29/21 A2990 RMK CI1 SLP124=
CYYG;2007-07-26 18:00;METAR CYYG 261800Z 26010KT 15SM BKN280 30/21 A2989 RMK CI4 SLP121=
CYYG;2007-07-26 19:00;METAR CYYG 261900Z 27010G16KT 15SM BKN280 30/21 A2987 RMK CI4 SLP114=
CYYG;2007-07-26 20:00;METAR CYYG 262000Z 25007KT 15SM BKN280 29/22 A2986 RMK CI5 SLP111=
CYYG;2007-07-26 21:00;METAR CYYG 262100Z 24009KT 15SM BKN280 28/21 A2985 RMK CI5 SLP106=
CYYG;2007-07-26 22:00;METAR CYYG 262200Z 25009KT 15SM OVC280 26/19 A2985 RMK CI5 SLP107=
CYYG;2007-07-26 23:00;METAR CYYG 262300Z 25008KT 15SM OVC280 25/19 A2985 RMK CI5 SLP107=
CYYG;2007-07-27 00:00;METAR CYYG 270000Z 25008KT 15SM BKN280 24/18 A2986 RMK CI4 SLP110=
CYYG;2007-07-27 01:00;METAR CYYG 270100Z 24008KT 15SM BKN280 23/18 A2987 RMK CI3 SLP113=
CYYG;2007-07-27 02:00;METAR CYYG 270200Z 24008KT 15SM BKN280 23/18 A2986 RMK CI2 SLP111=
CYYG;2007-07-27 03:00;METAR CYYG 270300Z 25009KT 15SM SCT280 22/18 A2986 RMK CI1 SLP110=
CYYG;2007-07-27 04:00;METAR CYYG 270400Z 25008KT 15SM FEW280 21/17 A2985 RMK CI1 SLP107=
CYYG;2007-07-27 05:00;METAR CYYG 270500Z 26007KT 15SM FEW280 21/17 A2985 RMK CI0 SLP107=
CYYG;2007-07-27 06:00;METAR CYYG 270600Z 26007KT 15SM FEW280 22/17 A2984 RMK CI0 SLP105=
CYYG;2007-07-27 07:00;METAR CYYG 270700Z 27007KT 15SM FEW280 21/16 A2983 RMK CI0 SLP102=
CYYG;2007-07-27 08:00;METAR CYYG 270800Z 25008KT 15SM FEW280 21/16 A2983 RMK CI1 SLP101=
CYYG;2007-07-27 09:00;METAR CYYG 270900Z 26007KT 15SM FEW280 20/16 A2985 RMK CI1 SLP106=
CYYG;2007-07-27 10:00;METAR CYYG 271000Z 25008KT 15SM FEW280 21/16 A2985 RMK CI1 SLP108=
CYYG;2007-07-27 11:00;METAR CYYG 271100Z 25008KT 15SM FEW280 22/17 A2986 RMK CI1 SLP110=
CYYG;2007-07-27 12:00;METAR CYYG 271200Z 25007KT 15SM FEW250 23/18 A2986 RMK CI1 SLP111=
CYYG;2007-07-27 13:00;METAR CYYG 271300Z 26008KT 15SM FEW280 25/19 A2986 RMK CI1 SLP110=
CYYG;2007-07-27 14:00;METAR CYYG 271400Z 27008KT 15SM FEW280 26/20 A2985 RMK CI1 SLP108=
CYYG;2007-07-27 15:00;METAR CYYG 271500Z 27010KT 15SM FEW270 27/20 A2985 RMK CI1 SLP107=
CYYG;2007-07-27 16:00;METAR CYYG 271600Z 26007KT 15SM FEW270 28/20 A2985 RMK CI1 SLP106=
CYYG;2007-07-27 17:00;METAR CYYG 271700Z 25010G16KT 15SM SCT280 29/19 A2983 RMK CI2 SLP102=
CYYG;2007-07-27 18:00;METAR CYYG 271800Z 24012KT 15SM FEW260 30/20 A2983 RMK CI1 SLP100=
CYYG;2007-07-27 19:00;METAR CYYG 271900Z 24010KT 15SM FEW250 30/18 A2983 RMK CI1 SLP100=
CYYG;2007-07-27 20:00;METAR CYYG 272000Z 23010KT 15SM FEW280 30/19 A2982 RMK CI1 SLP099=
CYYG;2007-07-27 21:00;METAR CYYG 272100Z 24010KT 15SM FEW300 30/20 A2982 RMK CI1 SLP099=
CYYG;2007-07-27 22:00;METAR CYYG 272200Z 25006KT 15SM FEW290 29/20 A2982 RMK CI1 SLP099=
CYYG;2007-07-27 23:00;METAR CYYG 272300Z 25009KT 12SM FEW290 27/19 A2982 RMK CI1 HAZE SLP099=
CYYG;2007-07-28 00:00;METAR CYYG 280000Z 24007KT 10SM FEW290 25/18 A2984 RMK HZ1CI0 HAZE SLP103=
CYYG;2007-07-28 01:00;METAR CYYG 280100Z 24006KT 10SM SKC 24/18 A2985 RMK HAZE SLP108=
CYYG;2007-07-28 02:00;METAR CYYG 280200Z 24010KT 10SM FEW290 24/18 A2986 RMK CI0 HAZE SLP110=
CYYG;2007-07-28 03:00;METAR CYYG 280300Z 24006KT 10SM FEW290 23/17 A2986 RMK CI0 HAZE SLP112=
CYYG;2007-07-28 04:00;METAR CYYG 280400Z 24007KT 10SM FEW290 22/17 A2987 RMK CI0 HAZE SLP113=
CYYG;2007-07-28 05:00;METAR CYYG 280500Z 24007KT 10SM FEW290 22/17 A2987 RMK CI0 HAZE SLP113=
CYYG;2007-07-28 06:00;METAR CYYG 280600Z 25005KT 10SM SKC 21/18 A2987 RMK HAZE SLP113=
CYYG;2007-07-28 07:00;METAR CYYG 280700Z CCA 25007KT 10SM SKC 21/17 A2987 RMK HAZE SLP114=
CYYG;2007-07-28 08:00;METAR CYYG 280800Z 23006KT 10SM SKC 21/18 A2987 RMK HAZE SLP116=
CYYG;2007-07-28 09:00;METAR CYYG 280900Z 23008KT 6SM HZ SKC 21/18 A2988 RMK HZ1 SLP118=
CYYG;2007-07-28 10:00;METAR CYYG 281000Z 22006KT 6SM HZ FEW300 21/18 A2989 RMK HZ1CI0 SLP121=
CYYG;2007-07-28 11:00;METAR CYYG 281100Z 23007KT 10SM FEW300 22/19 A2990 RMK CI1 HAZY SLP124=
CYYG;2007-07-28 12:00;METAR CYYG 281200Z 25010KT 15SM FEW300 23/19 A2990 RMK CI1 HAZY SLP125=
CYYG;2007-07-28 13:00;METAR CYYG 281300Z 24009KT 15SM FEW300 24/19 A2991 RMK CI1 SLP127=
CYYG;2007-07-28 14:00;METAR CYYG 281400Z 24010G16KT 15SM FEW300 26/19 A2992 RMK CI1 SLP130=
CYYG;2007-07-28 15:00;METAR CYYG 281500Z 23010G15KT 15SM FEW300 25/19 A2992 RMK CI1 SLP131=
CYYG;2007-07-28 16:00;METAR CYYG 281600Z 21011KT 15SM SCT300 27/20 A2992 RMK CI1 SLP130=
CYYG;2007-07-28 17:00;METAR CYYG 281700Z 22010G15KT 15SM SCT300 28/21 A2991 RMK CI1 SLP127=
CYYG;2007-07-28 18:00;METAR CYYG 281800Z 23013G18KT 15SM FEW050 SCT300 28/21 A2990 RMK SC1CI1 SLP125=
CYYG;2007-07-28 19:00;METAR CYYG 281900Z 22014G20KT 15SM FEW050 SCT300 28/21 A2989 RMK SC1CI1 SLP121=
CYYG;2007-07-28 20:00;METAR CYYG 282000Z 21013G20KT 15SM FEW045 BKN300 29/20 A2987 RMK SC1CI1 SLP116=
CYYG;2007-07-28 21:00;METAR CYYG 282100Z 21010G17KT 15SM FEW045 FEW100 BKN300 29/20 A2987 RMK SC1AC1CI1 SLP115=
CYYG;2007-07-28 22:00;METAR CYYG 282200Z 21009KT 15SM FEW045 FEW100 BKN300 27/21 A2987 RMK SC1AC1CI1 SLP116=
CYYG;2007-07-28 23:00;METAR CYYG 282300Z 24008KT 15SM FEW045 SCT100 BKN300 25/21 A2988 RMK SC1AC2CI2 SLP119=
CYYG;2007-07-29 00:00;METAR CYYG 290000Z 23006KT 15SM FEW032 FEW100 BKN270 24/21 A2990 RMK CU2ACC1CI2 SLP125=
CYYG;2007-07-29 01:00;METAR CYYG 290100Z 23006KT 15SM FEW030 BKN055 BKN270 24/21 A2992 RMK CU2SC3CI1 SLP131=
CYYG;2007-07-29 02:00;METAR CYYG 290200Z 20008KT 15SM SCT030 BKN055 BKN270 23/20 A2992 RMK SC3SC2CI1 SLP132=
CYYG;2007-07-29 03:00;METAR CYYG 290300Z 20009KT 15SM FEW030 SCT270 23/20 A2992 RMK SC1CI2 SLP132=
CYYG;2007-07-29 04:00;METAR CYYG 290400Z 21008KT 15SM FEW030 SCT075 23/20 A2992 RMK SC1AC2 SLP130=
CYYG;2007-07-29 05:00;METAR CYYG 290500Z 21009KT 15SM FEW030CB FEW070 22/20 A2990 RMK CB1AC2 CB W OCNL LTGIC SLP126=
CYYG;2007-07-29 06:00;METAR CYYG 290600Z 19011G16KT 15SM FEW030CB FEW060 22/20 A2990 RMK CB1SC2 CB DIST NW MOVG NE OCNL LTGIC SLP123=
CYYG;2007-07-29 07:00;METAR CYYG 290700Z 20008KT 15SM FEW030 SCT080 22/20 A2989 RMK CU1AC2 SLP120=
CYYG;2007-07-29 08:00;METAR CYYG 290800Z 20009KT 15SM FEW080 22/20 A2988 RMK AC2 ACC ASOCTD SLP119=
CYYG;2007-07-29 08:50;SPECI CYYG 290850Z 20009KT 15SM -SHRA FEW020 BKN070 22/ RMK SC2AC6=
CYYG;2007-07-29 09:00;METAR CYYG 290900Z 20009KT 15SM -SHRA SCT012 BKN060 22/20 A2990 RMK SC3SC4 SLP123=
CYYG;2007-07-29 09:22;SPECI CYYG 290922Z 22008KT 15SM -SHRA FEW007 OVC012 22/ RMK SF2SC6=
CYYG;2007-07-29 09:35;SPECI CYYG 290935Z 24008G17KT 1 1/2SM R03/4500VP6000FT/D SHRA BR FEW007 OVC025 21/ RMK SF2SC6=
CYYG;2007-07-29 10:00;METAR CYYG 291000Z 20008KT 15SM -SHRA FEW007 FEW025 OVC090 21/19 A2992 RERA RMK SF1SC1AC6 SLP130=
CYYG;2007-07-29 10:15;SPECI CYYG 291015Z 21006KT 15SM -TSRA FEW007 FEW030CB OVC085 21/ RMK SF1CB2AC6 CB W MOVG E OCNL LTGCG=
CYYG;2007-07-29 10:35;SPECI CYYG 291035Z 18010KT 5SM -SHRA BR FEW007 FEW030CB OVC100 21/ RETS RMK SF1CB2AC6 CB W=
CYYG;2007-07-29 11:00;METAR CYYG 291100Z 20011KT 5SM -SHRA BR SCT006 OVC100 21/20 A2992 RETS RMK SF3AC5 SLP132=
CYYG;2007-07-29 12:00;METAR CYYG 291200Z 19009KT 6SM -SHRA BR FEW005 BKN045 BKN100 19/18 A2992 RERA RMK SF2SC4AC1 VIS S-SW 3 SLP131=
CYYG;2007-07-29 12:27;SPECI CYYG 291227Z 19010KT 6SM BR BKN004 BKN045 BKN120 20/ RMK SF5SC1AC2=
CYYG;2007-07-29 13:00;METAR CYYG 291300Z 19010KT 8SM BKN004 BKN045 BKN140 20/19 A2993 RMK SF5SC1AC2 SLP136=
CYYG;2007-07-29 14:00;METAR CYYG 291400Z 20011KT 8SM BKN005 BKN047 BKN140 22/20 A2993 RMK SF5SC1AC1 SLP134=
CYYG;2007-07-29 14:39;SPECI CYYG 291439Z 19012KT 8SM SCT005 BKN036 BKN120 23/ RMK SF4SC1AC2=
CYYG;2007-07-29 15:00;METAR CYYG 291500Z 19011G16KT 12SM FEW005 BKN030 23/20 A2993 RMK SF2SC3 SLP133=
CYYG;2007-07-29 16:00;METAR CYYG 291600Z 22010KT 15SM BKN010 BKN030 OVC260 24/21 A2992 RMK CF5SC2CI1 SLP131=
CYYG;2007-07-29 17:00;METAR CYYG 291700Z 19009KT 15SM BKN012 BKN030 OVC260 26/23 A2993 RMK CU5SC2CI1 SLP135=
CYYG;2007-07-29 18:00;METAR CYYG 291800Z 19010KT 15SM BKN014 BKN040 OVC260 25/22 A2993 RMK CU5SC2CI1 MDT CU ASOCTD SLP135=
CYYG;2007-07-29 19:00;METAR CYYG 291900Z 21006KT 15SM BKN016 OVC260 26/22 A2992 RMK CU5CI1 MDT CU ASOCTD SLP131=
CYYG;2007-07-29 20:00;METAR CYYG 292000Z 23008KT 15SM SCT020 BKN260 27/21 A2992 RMK CU3CI1 MDT CU ASOCTD SLP131=
CYYG;2007-07-29 21:00;METAR CYYG 292100Z 24009KT 15SM SCT024TCU BKN260 27/21 A2992 RMK TCU3CI1 CB TOPS DIST S SLP132=
CYYG;2007-07-29 22:00;METAR CYYG 292200Z 24006KT 15SM FEW028TCU BKN260 26/20 A2994 RMK TCU2CI1 CB ASOCTD ESE SLP137=
CYYG;2007-07-29 23:00;METAR CYYG 292300Z 23007KT 15SM FEW028TCU SCT260 25/20 A2995 RMK TCU2CI1 SLP140=
CYYG;2007-07-30 00:00;METAR CYYG 300000Z 00000KT 15SM FEW028TCU SCT260 23/20 A2996 RMK TCU2CI1 SLP146=
CYYG;2007-07-30 01:00;METAR CYYG 300100Z 00000KT 15SM FEW030 BKN260 22/20 A2998 RMK SC2CI1 SLP151=
CYYG;2007-07-30 02:00;METAR CYYG 300200Z 23004KT 15SM FEW030 BKN260 22/19 A2999 RMK SC2CI1 SLP155=
CYYG;2007-07-30 03:00;METAR CYYG 300300Z 23003KT 15SM SCT260 21/19 A2999 RMK CI2 SLP155=
CYYG;2007-07-30 04:00;METAR CYYG 300400Z 26005KT 15SM FEW260 21/19 A2998 RMK CI1 SLP154=
CYYG;2007-07-30 05:00;METAR CYYG 300500Z 36004KT 15SM SCT240 20/19 A2999 RMK CI2 SLP156=
CYYG;2007-07-30 05:36;SPECI CYYG 300536Z 21006KT 15SM BKN003 BKN240 20/ RMK SF6CI0=
CYYG;2007-07-30 05:51;SPECI CYYG 300551Z 24004KT 4SM BR OVC002 20/ RMK SF8=
CYYG;2007-07-30 06:00;METAR CYYG 300600Z 22004KT 3SM BR OVC002 20/19 A2999 RMK SF8 SLP156=
CYYG;2007-07-30 07:00;METAR CYYG 300700Z 23006KT 4SM BR OVC003 20/19 A2998 RMK SF8 SLP154=
CYYG;2007-07-30 08:00;METAR CYYG 300800Z 23008KT 2SM BR OVC002 20/19 A2998 RMK SF8 SLP154=
CYYG;2007-07-30 08:40;SPECI CYYG 300840Z 23007KT 1SM R03/P6000FT/N BR OVC001 20/ RMK SF8=
CYYG;2007-07-30 09:00;METAR CYYG 300900Z 23006KT 1SM R03/P6000FT/U BR OVC001 20/19 A2999 RMK SF8 SLP155=
CYYG;2007-07-30 10:00;METAR CYYG 301000Z 21006KT 1 1/2SM BR OVC002 20/19 A2999 RMK SF8 SLP155=
CYYG;2007-07-30 10:24;SPECI CYYG 301024Z 22006KT 3SM BR OVC006 20/ RMK SF8=
CYYG;2007-07-30 11:00;METAR CYYG 301100Z 22008KT 5SM BR OVC006 20/19 A3001 RMK SF8 SLP160=
CYYG;2007-07-30 12:00;METAR CYYG 301200Z 22009KT 6SM BR OVC006 21/19 A3001 RMK SF8 SLP162=
CYYG;2007-07-30 12:24;SPECI CYYG 301224Z 20009KT 6SM BR OVC010 21/ RMK SF8=
CYYG;2007-07-30 12:39;SPECI CYYG 301239Z 21008KT 6SM BR OVC008 22/ RMK SF8=
CYYG;2007-07-30 13:00;METAR CYYG 301300Z 21008KT 8SM OVC010 22/19 A3001 RMK SF8 SLP161=
CYYG;2007-07-30 13:13;SPECI CYYG 301313Z 24007KT 6SM BR OVC009 22/ RMK SF8=
CYYG;2007-07-30 14:00;METAR CYYG 301400Z 22007KT 6SM BR BKN009 OVC014 22/19 A3000 RMK SF6SC2 SLP159=
CYYG;2007-07-30 15:00;METAR CYYG 301500Z 22007KT 8SM BKN010 OVC029 23/19 A2999 RMK SF5SC3 SLP157=
CYYG;2007-07-30 16:00;METAR CYYG 301600Z 19006KT 10SM BKN014 OVC029 24/19 A2999 RMK SC5SC3 SLP155=
CYYG;2007-07-30 17:00;METAR CYYG 301700Z 18008KT 10SM SCT014 OVC041 24/20 A2997 RMK SC3SC5 SLP150=
CYYG;2007-07-30 18:00;METAR CYYG 301800Z 19010KT 10SM OVC021 25/20 A2996 RMK SC7 SLP144=
CYYG;2007-07-30 19:00;METAR CYYG 301900Z 19010KT 10SM SCT007 OVC019 22/20 A2996 RMK SF3SC5 VSBY 3 S SLP143=
CYYG;2007-07-30 19:06;SPECI CYYG 301906Z 19009KT 4SM -SHRA BR BKN007 BKN020 OVC063 22/ RMK SF5SC2SC2=
CYYG;2007-07-30 19:17;SPECI CYYG 301917Z 20010KT 2 1/2SM -SHRA BR BKN007 BKN021 OVC041 22/ RMK SF5SC2SC1=
CYYG;2007-07-30 19:37;SPECI CYYG 301937Z 20007KT 5SM -SHRA BR SCT009 BKN023 OVC062 22/ RMK SF3SC2SC2=
CYYG;2007-07-30 20:00;METAR CYYG 302000Z 18007KT 4SM -SHRA BR FEW006 SCT010 BKN032 OVC042 22/20 A2995 RMK SF2SF2SC3SC2 SLP141=
CYYG;2007-07-30 21:00;METAR CYYG 302100Z 18009KT 12SM -SHRA FEW008 SCT016 BKN056 OVC260 22/19 A2993 RMK SF1SC2SC3CI1 SLP137=
CYYG;2007-07-30 21:17;SPECI CYYG 302117Z 17007KT 12SM VCSH FEW009 SCT015 BKN058 BKN260 22/ RMK SF1SC2SC3CI1=
CYYG;2007-07-30 22:00;METAR CYYG 302200Z 18009KT 15SM SCT016 BKN030 BKN036 BKN260 22/19 A2993 RMK SC3SC2SC1CI1 SLP134=
CYYG;2007-07-30 23:00;METAR CYYG 302300Z 16009KT 15SM BKN011 BKN022 BKN260 21/18 A2991 RMK SC5SC2CI0 SLP129=
CYYG;2007-07-30 23:38;SPECI CYYG 302338Z 17009KT 15SM BKN006 OVC012 21/ RMK SF6SC2=
CYYG;2007-07-31 00:00;METAR CYYG 310000Z 18009KT 15SM OVC005 21/19 A2990 RMK SF8 SLP127=
CYYG;2007-07-31 01:00;METAR CYYG 310100Z 20007KT 15SM OVC003 21/19 A2991 RMK SF8 SLP128=
CYYG;2007-07-31 01:27;SPECI CYYG 310127Z 22005KT 15SM SCT003 BKN260 21/ RMK SF3CI1=
CYYG;2007-07-31 02:00;METAR CYYG 310200Z 22004KT 15SM FEW003 BKN260 21/18 A2990 RMK SF2CI1 SLP126=
CYYG;2007-07-31 03:00;METAR CYYG 310300Z 21005KT 15SM FEW015 BKN260 21/18 A2990 RMK SC2CI1 SLP125=
CYYG;2007-07-31 04:00;METAR CYYG 310400Z 23005KT 15SM FEW015 SCT260 20/18 A2990 RMK SC2CI0 SLP123=
CYYG;2007-07-31 05:00;METAR CYYG 310500Z 25006KT 15SM FEW030 BKN190 20/18 A2989 RMK SC2AC1 SLP120=
CYYG;2007-07-31 06:00;METAR CYYG 310600Z 24007KT 15SM FEW033 BKN180 20/18 A2989 RMK SC2AC5 SLP121=
CYYG;2007-07-31 07:00;METAR CYYG 310700Z 24007KT 15SM OVC180 20/17 A2988 RMK AC8 SLP118=
CYYG;2007-07-31 08:00;METAR CYYG 310800Z 24006KT 15SM BKN180 19/17 A2988 RMK AC6 SLP117=
CYYG;2007-07-31 09:00;METAR CYYG 310900Z 25007KT 8SM FEW003 BKN180 OVC260 19/17 A2988 RMK SF2AC2CI2 SLP119=
CYYG;2007-07-31 10:00;METAR CYYG 311000Z 23005KT 8SM SCT180 OVC260 19/17 A2988 RMK AC3CI2 SLP118=
CYYG;2007-07-31 10:41;SPECI CYYG 311041Z 24007KT 4SM BR BKN004 OVC140 20/ RMK SF6AC2=
CYYG;2007-07-31 11:00;METAR CYYG 311100Z 24006KT 4SM BR BKN004 OVC039 20/17 A2988 RMK SF5SC2 SLP120=
CYYG;2007-07-31 12:00;METAR CYYG 311200Z 23004KT 8SM BKN004 OVC140 20/17 A2989 RMK SF6AC2 SLP121=
CYYG;2007-07-31 13:00;METAR CYYG 311300Z 27005KT 8SM OVC005 20/17 A2988 RMK SF8 SLP120=
CYYG;2007-07-31 13:36;SPECI CYYG 311336Z 22004KT 15SM BKN007 21/ RMK SF7=
CYYG;2007-07-31 14:00;METAR CYYG 311400Z 00000KT 12SM BKN007 BKN250 22/18 A2987 RMK SF5CI1 SLP116=
CYYG;2007-07-31 14:13;SPECI CYYG 311413Z 23004KT 12SM BKN010 BKN250 22/ RMK SF5CI1=
CYYG;2007-07-31 15:00;METAR CYYG 311500Z 22006KT 15SM SCT012 BKN300 23/19 A2987 RMK CF3CI1 SLP114=
CYYG;2007-07-31 16:00;METAR CYYG 311600Z 23005KT 15SM FEW015 BKN300 25/19 A2987 RMK CF2CI1 SLP114=
CYYG;2007-07-31 17:00;METAR CYYG 311700Z 27003KT 15SM FEW015 FEW048 BKN250 24/17 A2985 RMK CF1CU2CI1 SLP108=
CYYG;2007-07-31 18:00;METAR CYYG 311800Z 27003KT 15SM SCT024 BKN250 26/16 A2984 RMK SC2CI2 SLP103=
CYYG;2007-07-31 19:00;METAR CYYG 311900Z 30002KT 15SM FEW020 SCT040 BKN250 27/16 A2983 RMK CF1SC1CI2 SLP100=
CYYG;2007-07-31 20:00;METAR CYYG 312000Z 01002KT 15SM FEW040 BKN250 26/17 A2982 RMK CU2CI2 SLP096=
CYYG;2007-07-31 21:00;METAR CYYG 312100Z 35003KT 15SM FEW040 BKN250 26/16 A2981 RMK CU2CI2 SLP094=
CYYG;2007-07-31 22:00;METAR CYYG 312200Z 00000KT 15SM FEW040 BKN250 24/14 A2980 RMK CU1CI2 SLP092=
CYYG;2007-07-31 23:00;METAR CYYG 312300Z 00000KT 15SM FEW040 BKN250 23/15 A2980 RMK CU1CI2 SLP090=
CYYG;2007-08-01 00:00;METAR CYYG 010000Z 00000KT 15SM FEW040 SCT250 21/16 A2981 RMK SC1CI2 SLP093=
CYYG;2007-08-01 01:00;METAR CYYG 010100Z 00000KT 15SM FEW250 19/16 A2982 RMK CI1 SLP096=
CYYG;2007-08-01 02:00;METAR CYYG 010200Z 00000KT 15SM SCT110 BKN280 18/16 A2981 RMK AC3CI2 SLP094=
CYYG;2007-08-01 03:00;METAR CYYG NIL=
CYYG;2007-08-01 04:00;METAR CYYG 010400Z 36005KT 15SM BKN065 BKN280 20/17 A2981 RMK SC5CI2 SLP094=
CYYG;2007-08-01 05:00;METAR CYYG 010500Z 36004KT 15SM FEW012 BKN065 BKN280 19/17 A2981 RMK SF1SC5CI1 SLP093=
CYYG;2007-08-01 06:00;METAR CYYG 010600Z 36004KT 15SM FEW012 BKN074 BKN280 19/16 A2981 RMK SF1SC5CI1 SLP095=
CYYG;2007-08-01 07:00;METAR CYYG 010700Z 36003KT 15SM BKN074 BKN280 18/16 A2982 RMK AC5CI1 SLP097=
CYYG;2007-08-01 08:00;METAR CYYG 010800Z 33004KT 15SM FEW070 SCT280 17/14 A2984 RMK AC2CI2 SLP103=
CYYG;2007-08-01 09:00;METAR CYYG 010900Z 34005KT 15SM FEW070 FEW280 17/14 A2986 RMK AC2CI1 SLP110=
CYYG;2007-08-01 10:00;METAR CYYG 011000Z 34005KT 15SM FEW070 18/15 A2987 RMK AC2 SLP113=
CYYG;2007-08-01 11:00;METAR CYYG 011100Z 36005KT 15SM FEW070 20/15 A2989 RMK AC2 SLP120=
CYYG;2007-08-01 12:00;METAR CYYG 011200Z 36008KT 15SM FEW070 21/14 A2991 RMK AC1 SLP128=
CYYG;2007-08-01 13:00;METAR CYYG 011300Z 35009KT 15SM FEW022 FEW070 21/14 A2992 RMK SC1AC1 SLP133=
CYYG;2007-08-01 14:00;METAR CYYG 011400Z 36010KT 15SM FEW025 FEW070 22/13 A2993 RMK SC1AC1 SLP136=
CYYG;2007-08-01 15:00;METAR CYYG 011500Z CCA 36008KT 15SM FEW028 22/14 A2993 RMK CU1 SLP137=
CYYG;2007-08-01 16:00;METAR CYYG 011600Z 36007KT 15SM FEW030 22/12 A2993 RMK CU1 SLP137=
CYYG;2007-08-01 17:00;METAR CYYG 011700Z 36007KT 15SM FEW032 22/12 A2993 RMK CU1 SLP134=
CYYG;2007-08-01 18:00;METAR CYYG 011800Z 02009KT 15SM FEW030 23/13 A2993 RMK CU1 SLP136=
CYYG;2007-08-01 19:00;METAR CYYG 011900Z 03007KT 15SM FEW030 23/12 A2995 RMK CU1 SLP141=
CYYG;2007-08-01 20:00;METAR CYYG 012000Z 02007KT 15SM FEW030 SCT080 22/12 A2996 RMK CU1AC2 SLP144=
CYYG;2007-08-01 21:00;METAR CYYG 012100Z 03006KT 15SM FEW030 SCT080 22/12 A2995 RMK CU1AC2 SLP142=
CYYG;2007-08-01 22:00;METAR CYYG 012200Z 07005KT 15SM FEW030 FEW080 BKN300 21/10 A2994 RMK CU1AC1CI1 SLP140=
CYYG;2007-08-01 23:00;METAR CYYG 012300Z 00000KT 15SM FEW080 SCT300 20/12 A2995 RMK AC2CI1 SLP143=
CYYG;2007-08-02 00:00;METAR CYYG 020000Z 00000KT 15SM FEW080 SCT300 18/12 A2996 RMK AC2CI1 SLP145=
CYYG;2007-08-02 01:00;METAR CYYG 020100Z 00000KT 15SM FEW300 18/13 A2998 RMK CI2 SLP151=
CYYG;2007-08-02 02:00;METAR CYYG 020200Z 00000KT 15SM FEW300 17/13 A2998 RMK CI2 SLP151=
CYYG;2007-08-02 03:00;METAR CYYG 020300Z 00000KT 15SM FEW300 17/13 A2997 RMK CI2 SLP148=
CYYG;2007-08-02 04:00;METAR CYYG 020400Z 00000KT 15SM BKN130 17/14 A2997 RMK AC5 SLP150=
CYYG;2007-08-02 05:00;METAR CYYG 020500Z 00000KT 15SM BKN110 17/13 A2997 RMK AC6 SLP149=
CYYG;2007-08-02 06:00;METAR CYYG 020600Z 00000KT 15SM BKN110 18/14 A2997 RMK AC6 SLP149=
CYYG;2007-08-02 07:00;METAR CYYG 020700Z 19005KT 15SM BKN110 17/12 A2996 RMK AC6 SLP146=
CYYG;2007-08-02 08:00;METAR CYYG 020800Z 18002KT 15SM BKN110 16/13 A2996 RMK AC6 SLP146=
CYYG;2007-08-02 09:00;METAR CYYG 020900Z 00000KT 15SM BKN081 18/14 A2998 RMK AC6 SLP151=
CYYG;2007-08-02 10:00;METAR CYYG 021000Z 17005KT 15SM BKN078 18/15 A2998 RMK AC6 SLP153=
CYYG;2007-08-02 11:00;METAR CYYG 021100Z 18006KT 15SM BKN075 19/15 A2998 RMK AC7 SLP154=
CYYG;2007-08-02 12:00;METAR CYYG 021200Z 18008KT 15SM BKN082 21/15 A2999 RMK AC7 SLP156=
CYYG;2007-08-02 13:00;METAR CYYG 021300Z 17010KT 15SM FEW082 21/15 A2998 RMK AC2 SLP153=
CYYG;2007-08-02 14:00;METAR CYYG 021400Z 18010KT 15SM FEW080 BKN140 22/14 A2999 RMK AC2AC5 SLP156=
CYYG;2007-08-02 15:00;METAR CYYG 021500Z 17009KT 15SM FEW080 OVC100 21/14 A2999 RMK AC1AC7 SLP156=
CYYG;2007-08-02 16:00;METAR CYYG 021600Z 17009KT 15SM OVC090 22/14 A2997 RMK AC8 SLP149=
CYYG;2007-08-02 17:00;METAR CYYG 021700Z 18012KT 15SM BKN075 24/14 A2996 RMK AC5 SLP146=
CYYG;2007-08-02 18:00;METAR CYYG 021800Z 18014KT 15SM FEW080 25/15 A2995 RMK AC1 SLP141=
CYYG;2007-08-02 19:00;METAR CYYG 021900Z 18013KT 15SM FEW040 FEW080 25/16 A2994 RMK CF1AC1 SLP139=
CYYG;2007-08-02 20:00;METAR CYYG 022000Z 19012KT 15SM FEW040 FEW080 26/16 A2993 RMK CF1AC1 SLP134=
CYYG;2007-08-02 21:00;METAR CYYG 022100Z 20010G15KT 15SM SCT060 26/16 A2991 RMK SC4 SLP128=
CYYG;2007-08-02 22:00;METAR CYYG 022200Z 19009KT 15SM BKN060 25/16 A2991 RMK SC7 SLP127=
CYYG;2007-08-02 23:00;METAR CYYG 022300Z 20013G18KT 15SM SCT060 BKN100 24/15 A2991 RMK SC4AC1 SLP128=
CYYG;2007-08-03 00:00;METAR CYYG 030000Z 19013KT 15SM FEW060 FEW110 22/15 A2993 RMK SC1ACC1 SLP135=
CYYG;2007-08-03 01:00;METAR CYYG 030100Z 18015G21KT 15SM FEW060 FEW110 21/14 A2995 RMK SC1ACC1 SLP143=
CYYG;2007-08-03 02:00;METAR CYYG 030200Z 18013G19KT 15SM SKC 20/14 A2995 RMK SLP141=
CYYG;2007-08-03 03:00;METAR CYYG 030300Z 19014KT 15SM SKC 20/14 A2994 RMK SLP138=
CYYG;2007-08-03 04:00;METAR CYYG 030400Z 19013KT 15SM FEW060 20/14 A2992 RMK SC2 CB LTNG DIST N-NE SLP133=
CYYG;2007-08-03 05:00;METAR CYYG 030500Z 20008KT 15SM FEW060 19/15 A2993 RMK SC2 SLP136=
CYYG;2007-08-03 06:00;METAR CYYG 030600Z 18010KT 15SM SKC 19/16 A2993 RMK SLP134=
CYYG;2007-08-03 07:00;METAR CYYG 030700Z 21012KT 15SM SKC 20/15 A2991 RMK SLP128=
CYYG;2007-08-03 08:00;METAR CYYG 030800Z 22011G16KT 15SM FEW120 20/15 A2992 RMK AC1 SLP131=
CYYG;2007-08-03 09:00;METAR CYYG 030900Z 22009KT 15SM FEW180 20/15 A2993 RMK AC2 SLP134=
CYYG;2007-08-03 10:00;METAR CYYG 031000Z 23009KT 15SM FEW180 20/15 A2994 RMK AC1 SLP138=
CYYG;2007-08-03 11:00;METAR CYYG 031100Z 25010KT 15SM FEW300 20/16 A2995 RMK CI0 SLP141=
CYYG;2007-08-03 12:00;METAR CYYG 031200Z 23009KT 12SM FEW016 FEW300 21/17 A2994 RMK CF1CI0=
CYYG;2007-08-03 13:00;METAR CYYG 031300Z 21013G18KT 10SM FEW018 FEW140 SCT300 22/18 A2993 RMK CF1AC2CI0 HAZE SLP137=
CYYG;2007-08-03 14:00;METAR CYYG 031400Z 22009KT 10SM FEW140 SCT300 24/20 A2995 RMK AC2CI0=
CYYG;2007-08-03 15:00;METAR CYYG 031500Z 20009KT 10SM FEW300 25/20 A2996 RMK CI0 HAZE SLP143=
CYYG;2007-08-03 16:00;METAR CYYG 031600Z 20010KT 10SM SCT300 26/21 A2995 RMK CI1 HAZE SLP142=
CYYG;2007-08-03 17:00;METAR CYYG 031700Z 21008KT 10SM SCT300 27/21 A2995 RMK CI1 HAZE TCU TOPS=
CYYG;2007-08-03 18:00;METAR CYYG 031800Z 20007KT 10SM FEW030 SCT300 28/21 A2995 RMK CU1CI1=
CYYG;2007-08-03 19:00;METAR CYYG 031900Z 18008KT 10SM FEW025 29/22 A2993 RMK CF1 HAZE SLP136=
CYYG;2007-08-03 21:00;METAR CYYG 032100Z 22002KT 10SM VCSH FEW020 SCT074 BKN280 28/21 A2995 RMK CU1AC3CI1 HAZE CB TOPS DIST N SLP140=
CYYG;2007-08-03 21:06;SPECI CYYG 032106Z 33017G25KT 10SM VCSH FEW027 BKN070 BKN280 23/ RMK CU2AC3CI1 WNDSHFT 2104/HAZE/CB TOPS W-N=
CYYG;2007-08-03 21:16;SPECI CYYG 032116Z 32015G25KT 15SM TS VCSH FEW027 BKN038CB BKN070 BKN280 21/ RMK CU2CB3AC2CI0=
CYYG;2007-08-03 22:00;METAR CYYG 032200Z 36007KT 15SM -TSRA FEW027 SCT038CB BKN280 20/18 A2996 RMK CU1CB2CI2 CB NE-SW MOVG E SLP144=
CYYG;2007-08-03 22:17;SPECI CYYG 032217Z 02006KT 15SM FEW028 SCT040CB BKN280 21/ RETS RMK CU1CB2CI1 CB SE-SW MOVG E / VIS LWR E=
CYYG;2007-08-03 23:00;METAR CYYG 032300Z 14005KT 12SM BKN050 OVC280 21/18 A2999 RETS RMK CU6CI2 CB ASOCTD LTGIC DIST SE SLP156=
CYYG;2007-08-04 00:00;METAR CYYG 040000Z 15004KT 15SM SCT050 BKN090 OVC250 20/18 A2999 RMK CU4AC2CI1 CB ASOCTD LTGIC DIST E SLP156=
CYYG;2007-08-04 01:00;METAR CYYG 040100Z 20008KT 15SM BKN063 BKN150 OVC250 21/18 A2999 RMK CU5AC2CI1 CB ASOCTD LTGCG DIST W-NW SLP157=
CYYG;2007-08-04 01:20;SPECI CYYG 040120Z 18008KT 15SM TS SCT062CB BKN150 OVC250 21/ RMK CB3AC2CI1 LTGICCG S QUAD=
CYYG;2007-08-04 01:44;SPECI CYYG 040144Z 19008KT 12SM BKN060 BKN100 OVC250 21/ RETS RMK CU5AC2CI1 CB ASOCTD LTGCG DIST SE=
CYYG;2007-08-04 02:00;METAR CYYG 040200Z 21006KT 12SM SCT043 BKN060 BKN100 21/19 A2999 RETS RMK CU3SC2AC2 CB DIST SE GVG LTGCG SLP157=
CYYG;2007-08-04 03:00;METAR CYYG 040300Z 18004KT 8SM FEW035 BKN150 20/18 A2998 RMK CU2AC2 SLP152=
CYYG;2007-08-04 04:00;METAR CYYG 040400Z 17010KT 15SM FEW035 20/18 A2996 RMK SC2 SLP144=
CYYG;2007-08-04 05:00;METAR CYYG 040500Z 18007KT 12SM FEW250 20/17 A2996 RMK CI1 SLP144=
CYYG;2007-08-04 06:00;METAR CYYG 040600Z 18010KT 12SM FEW030 20/18 A2996 RMK SC2 SLP143=
CYYG;2007-08-04 07:00;METAR CYYG 040700Z 17008KT 12SM FEW030 20/17 A2994 RMK SC1 SLP137=
CYYG;2007-08-04 08:00;METAR CYYG 040800Z 18012KT 12SM FEW030 FEW250 19/17 A2992 RMK SC1CI0 SLP130=
CYYG;2007-08-04 09:00;METAR CYYG 040900Z 20008KT 8SM BKN280 19/17 A2992 RMK CI3 SLP130=
CYYG;2007-08-04 09:42;SPECI CYYG 040942Z 18011KT 10SM SCT009 OVC280 20/ RMK CF3CI2=
CYYG;2007-08-04 10:00;METAR CYYG 041000Z 20011KT 10SM BKN008 OVC280 20/17 A2991 RMK SF6CI2=
CYYG;2007-08-04 11:00;METAR CYYG 041100Z 21011KT 3SM BR OVC008 20/18 A2992 RMK SF8 SLP130=
CYYG;2007-08-04 12:00;METAR CYYG 041200Z 19011KT 4SM BR OVC009 21/18 A2993 RMK SF8 SLP135=
CYYG;2007-08-04 13:00;METAR CYYG 041300Z 20013KT 4SM BR BKN010 OVC017 21/18 A2992 RMK SF6SC2 SLP132=
CYYG;2007-08-04 14:00;METAR CYYG 041400Z 20014KT 5SM BR OVC013 23/19 A2992 RMK SC8 SLP132=
CYYG;2007-08-04 15:00;METAR CYYG 041500Z 21010KT 6SM BR OVC017 23/19 A2992 RMK SC7 SLP130=
CYYG;2007-08-04 16:00;METAR CYYG 041600Z 19013G20KT 8SM OVC017 24/19 A2991 RMK SC7 SLP127=
CYYG;2007-08-04 17:00;METAR CYYG 041700Z 19011G16KT 8SM SCT020 BKN300 25/20 A2990 RMK SC2CI4 SLP123=
CYYG;2007-08-04 18:00;METAR CYYG 041800Z 19013KT 10SM FEW020CB BKN270 26/20 A2987 RMK CB2CI5 CB SW-W MOVG NE HAZE SLP115=
CYYG;2007-08-04 18:21;SPECI CYYG 041821Z 19009KT 10SM TS SCT020CB OVC270 24/ RMK CB3CI5 CB SE-SW MOVG NE FQT LTGICCG=
CYYG;2007-08-04 18:41;SPECI CYYG 041841Z 19020G29KT 2 1/2SM TSRA SCT020CB BKN034CB OVC220 21/ RMK CB4CB2CI2 LTGCG/CC/IC CONT. THUNDER=
CYYG;2007-08-04 19:00;METAR CYYG 041900Z 18009G25KT 5SM -TSRA SCT020CB BKN033CB OVC220 19/15 A2987 RMK CB3CB3CI2 LTGCG/CC/IC SLP116=
CYYG;2007-08-04 19:13;SPECI CYYG 041913Z 24008KT 10SM TS FEW020 BKN038CB OVC220 21/ RMK SC2CB3CI2=
CYYG;2007-08-04 19:25;SPECI CYYG 041925Z 19006KT 8SM -SHRA SCT035 BKN051 OVC220 21/ RMK SC3SC2CI2 CB EMBDD=
CYYG;2007-08-04 19:47;SPECI CYYG 041947Z 19004KT 8SM -TSRA BKN035CB OVC220 22/ RMK CB6CI2 LTGCG/CC/IC=
CYYG;2007-08-04 20:00;METAR CYYG 042000Z 27006KT 5SM +TSRA BKN029CB OVC220 22/19 A2986 RMK CB6CI2 LTGIC/CC/CG SLP110=
CYYG;2007-08-04 20:07;SPECI CYYG 042007Z 26011G17KT 1SM R03/3000VP6000FT/D +TSRA OVC020CB 20/ RMK CB8 LTGIC/CC/CG=
CYYG;2007-08-04 20:12;SPECI CYYG 042012Z 09005G19KT 1/4SM R03/1800V4500FT/D +TSRAGR OVC015CB 17/ RMK CB8 HAIL DIAM 10MM LTGIC/CC/CG=
CYYG;2007-08-04 20:39;SPECI CYYG 042039Z 00000KT 12SM TS FEW002 BKN020CB OVC100 18/ RETSGRRA RMK SF1CB5AC3 CB NW-SE FQT LTGICCCCG=
CYYG;2007-08-04 21:00;METAR CYYG 042100Z 15006KT 15SM TS BKN020 OVC100 20/19 A2982 RETSGRRA RMK SC6AC2 CB ASOCT N-SE OCNL LTGCG PRES UNSTDY SLP097=
CYYG;2007-08-04 21:14;SPECI CYYG 042114Z 14008KT 15SM FEW020 BKN070 21/ RETS RMK SC2AC5 CB MOVD NE=
CYYG;2007-08-04 21:26;SPECI CYYG 042126Z 16006KT 15SM SCT020CB SCT070 BKN270 21/ RETS RMK CB3AC1CI2 CB ALQDS=
CYYG;2007-08-04 22:47;SPECI CYYG 042247Z 25008KT 5SM TS BR OVC020CB 19/ RMK CB7 LTGCG E=
CYYG;2007-08-04 23:00;METAR CYYG 042300Z 27013KT 10SM SCT030TCU BKN300 20/18 A2984 RETSRA RMK TCU4CI2 CB MOVD E /R35/ SLP105=
CYYG;2007-08-04 23:36;SPECI CYYG 042336Z 28005KT 10SM TS BKN030CB BKN300 20/ RMK CB5CI2 LTGCG=
CYYG;2007-08-04 23:50;SPECI CYYG 042350Z 31011G17KT 1/2SM R03/2600VP6000FT/D +TSRA OVC030CB 18/ RMK CB8 LTGCG ALQDS=
CYYG;2007-08-05 00:00;METAR CYYG 050000Z 33006KT 5SM R03/2200VP6000FT/U TSRA BKN030CB 18/16 A2988 RMK CB7 LTGCG NE-E SLP118=
CYYG;2007-08-05 00:28;SPECI CYYG 050028Z 08003KT 10SM -SHRA BKN030 17/ RETSRA RMK SC7 LTNG=
CYYG;2007-08-05 01:00;METAR CYYG 050100Z 13007KT 10SM -SHRA BKN030 17/16 A2983 RETSRA RMK SC7=
CYYG;2007-08-05 01:36;SPECI CYYG 050136Z 00000KT 10SM BKN030 17/ RMK SC7 LTNG DIST SE=
CYYG;2007-08-05 02:00;METAR CYYG 050200Z 00000KT 15SM BKN030 18/17 A2987 RMK SC7 SLP114=
CYYG;2007-08-05 03:00;METAR CYYG 050300Z 00000KT 10SM -SHRA OVC010 18/17 A2986 RMK SC8 SLP110=
CYYG;2007-08-05 03:31;SPECI CYYG 050331Z 00000KT 10SM -DZ OVC005 18/ RMK ST8=
CYYG;2007-08-05 04:00;METAR CYYG 050400Z 12002KT 6SM -DZ BR OVC004 18/17 A2985 RMK ST8 SLP109=
CYYG;2007-08-05 05:00;METAR CYYG 050500Z 00000KT 10SM OVC004 18/18 A2984 RMK ST8 SLP105=
CYYG;2007-08-05 06:00;METAR CYYG 050600Z 25007KT 5SM BR OVC003 18/18 A2985 RMK ST8 SLP106=
CYYG;2007-08-05 07:00;METAR CYYG 050700Z 29005KT 3SM BR OVC003 18/18 A2984 RMK ST8 SLP104=
CYYG;2007-08-05 08:00;METAR CYYG 050800Z 28004KT 10SM FEW003 BKN070 18/18 A2984 RMK SF2AC5 SLP103=
CYYG;2007-08-05 08:37;SPECI CYYG 050837Z 28004KT 2SM BR SCT070 18/ RMK AC4=
CYYG;2007-08-05 09:00;METAR CYYG 050900Z 29005KT 2SM BR SCT070 17/17 A2983 RMK AC3 SLP103=
CYYG;2007-08-05 09:23;SPECI CYYG 050923Z 28006KT 5SM BR SCT070 17/ RMK AC3=
CYYG;2007-08-05 10:00;METAR CYYG 051000Z 30005KT 10SM SCT072 17/16 A2984 RMK AC4 SLP106=
CYYG;2007-08-05 11:00;METAR CYYG 051100Z 31003KT 15SM SCT040 BKN070 18/17 A2985 RMK CU4AC2 SLP110=
CYYG;2007-08-05 12:00;METAR CYYG 051200Z 34005KT 15SM FEW040 BKN070 19/17 A2985 RMK CU2AC2 SLP109=
CYYG;2007-08-05 13:00;METAR CYYG 051300Z 33009KT 15SM SCT012 BKN070 21/18 A2986 RMK CU4AC2 SLP112=
CYYG;2007-08-05 14:00;METAR CYYG 051400Z 32009KT 15SM SCT012 BKN070 20/16 A2986 RMK CU4AC2 SLP112=
CYYG;2007-08-05 15:00;METAR CYYG 051500Z 31009KT 15SM BKN020 21/17 A2987 RMK SC6 SLP114=
CYYG;2007-08-05 16:00;METAR CYYG 051600Z 32008KT 15SM BKN020 21/16 A2987 RMK CU6 TCU ASOCTD SLP114=
CYYG;2007-08-05 17:00;METAR CYYG 051700Z 33010G15KT 15SM SCT020 21/14 A2987 RMK CU3 SLP114=
CYYG;2007-08-05 18:00;METAR CYYG 051800Z 33010G16KT 15SM SCT045 20/15 A2988 RMK CU4 SLP118=
CYYG;2007-08-05 19:00;METAR CYYG 051900Z 33007KT 15SM FEW050 SCT250 21/14 A2988 RMK SC2CI1 SLP119=
CYYG;2007-08-05 20:00;METAR CYYG 052000Z 34008G15KT 15SM FEW050 SCT250 21/13 A2989 RMK SC2CI1 SLP123=
CYYG;2007-08-05 21:00;METAR CYYG 052100Z 36010KT 15SM FEW050 FEW250 20/13 A2990 RMK SC1CI1 SLP125=
CYYG;2007-08-05 22:00;METAR CYYG 052200Z 34007KT 15SM FEW050 FEW250 20/13 A2990 RMK SC1CI0 SLP127=
CYYG;2007-08-05 23:00;METAR CYYG 052300Z 00000KT 15SM FEW050 FEW300 18/14 A2992 RMK SC1CI0 SLP131=
CYYG;2007-08-06 00:00;METAR CYYG 060000Z 00000KT 15SM FEW050 FEW300 17/14 A2992 RMK SC1CI0 SLP132=
CYYG;2007-08-06 01:00;METAR CYYG 060100Z 00000KT 15SM SKC 15/14 A2993 RMK SLP137=
CYYG;2007-08-06 02:00;METAR CYYG 060200Z 00000KT 15SM SKC 13/13 A2994 RMK SLP139=
CYYG;2007-08-06 03:00;METAR CYYG 060300Z 00000KT 15SM SKC 15/13 A2994 RMK SLP139=
CYYG;2007-08-06 04:00;METAR CYYG 060400Z 25005KT 15SM SKC 16/13 A2994 RMK SLP139=
CYYG;2007-08-06 05:00;METAR CYYG 060500Z 27005KT 15SM SKC 14/12 A2995 RMK SLP142=
CYYG;2007-08-06 06:00;METAR CYYG 060600Z 27005KT 15SM SKC 15/11 A2997 RMK SLP148=
CYYG;2007-08-06 07:00;METAR CYYG 060700Z 26004KT 15SM SKC 15/11 A2997 RMK SLP149=
CYYG;2007-08-06 08:00;METAR CYYG 060800Z 25004KT 15SM SKC 14/11 A2997 RMK SLP149=
CYYG;2007-08-06 09:00;METAR CYYG 060900Z 00000KT 15SM FEW030 BKN300 13/11 A2998 RMK SC1CI1 SLP154=
CYYG;2007-08-06 10:00;METAR CYYG 061000Z 00000KT 15SM FEW030 BKN300 14/12 A2999 RMK CU1CI1 SLP156=
CYYG;2007-08-06 11:00;METAR CYYG 061100Z 00000KT 15SM SCT300 17/13 A3000 RMK CI1 SLP159=
CYYG;2007-08-06 12:00;METAR CYYG 061200Z 00000KT 15SM FEW030 BKN300 19/12 A3001 RMK CU1CI1 SLP161=
CYYG;2007-08-06 13:00;METAR CYYG 061300Z 16004KT 15SM FEW030 BKN300 20/15 A3000 RMK CU1CI1 SLP160=
CYYG;2007-08-06 14:00;METAR CYYG 061400Z 19006KT 15SM FEW030 SCT300 21/16 A3000 RMK CU1CI1 SLP159=
CYYG;2007-08-06 15:00;METAR CYYG 061500Z 20009KT 15SM FEW030 SCT300 22/15 A3000 RMK CU1CI1 SLP158=
CYYG;2007-08-06 16:00;METAR CYYG 061600Z 20010KT 15SM FEW030 SCT300 22/13 A2998 RMK CU1CI1 SLP152=
CYYG;2007-08-06 17:00;METAR CYYG 061700Z 20006KT 15SM FEW300 23/14 A2996 RMK CI2 SLP144=
CYYG;2007-08-06 18:00;METAR CYYG 061800Z 17011KT 15SM FEW300 23/13 A2994 RMK CI2 SLP140=
CYYG;2007-08-06 19:00;METAR CYYG 061900Z 20010KT 15SM FEW300 23/13 A2993 RMK CI1 SLP136=
CYYG;2007-08-06 20:00;METAR CYYG 062000Z 20007KT 15SM FEW030 SCT300 24/14 A2992 RMK CU1CI2 SLP133=
CYYG;2007-08-06 21:00;METAR CYYG 062100Z 17009KT 15SM FEW030 BKN300 23/15 A2990 RMK CU1CI2 SLP125=
CYYG;2007-08-06 22:00;METAR CYYG 062200Z 18009G15KT 15SM BKN300 22/16 A2989 RMK CI5 SLP121=
CYYG;2007-08-06 23:00;METAR CYYG 062300Z 18016KT 15SM SCT040 BKN250 21/15 A2986 RMK SC3CI2 SLP113=
CYYG;2007-08-07 00:00;METAR CYYG 070000Z 17012KT 15SM FEW140 BKN300 20/15 A2987 RMK AC1CI2 SLP116=
CYYG;2007-08-07 01:00;METAR CYYG 070100Z 18015KT 15SM FEW140 BKN300 20/14 A2988 RMK AC1CI2 SLP120=
CYYG;2007-08-07 02:00;METAR CYYG 070200Z 17015KT 15SM SCT140 OVC300 19/15 A2986 RMK AC3CI2 SLP113=
CYYG;2007-08-07 03:00;METAR CYYG 070300Z 16016KT 15SM FEW140 BKN300 19/16 A2985 RMK AC2CI2 SLP106=
CYYG;2007-08-07 03:50;SPECI CYYG 070350Z 16012KT 15SM -SHRA SCT025 OVC100 19/ RMK SC3AC5=
CYYG;2007-08-07 04:00;METAR CYYG 070400Z 17012KT 15SM -SHRA SCT025 OVC100 18/17 A2985 RMK SC3AC5 SLP108=
CYYG;2007-08-07 05:00;METAR CYYG 070500Z 20008KT 10SM -SHRA OVC025 15/14 A2987 RMK SC8 SLP113=
CYYG;2007-08-07 06:00;METAR CYYG 070600Z 19007KT 15SM OVC020 15/14 A2985 RMK SC8 SLP110=
CYYG;2007-08-07 07:00;METAR CYYG 070700Z 19010KT 15SM OVC020 16/14 A2984 RMK SC8 SLP104=
CYYG;2007-08-07 08:00;METAR CYYG 070800Z 19009KT 15SM OVC020 16/14 A2983 RMK SC8 SLP102=
CYYG;2007-08-07 09:00;METAR CYYG 070900Z 21011KT 15SM BKN020 OVC040 16/14 A2983 RMK SC6SC2 SLP102=
CYYG;2007-08-07 09:06;SPECI CYYG 070906Z 21011KT 15SM BKN012 OVC100 16/ RMK SC6AC2=
CYYG;2007-08-07 10:00;METAR CYYG 071000Z 23007KT 15SM FEW010 BKN060 16/14 A2984 RMK SC2SC5 SLP104=
CYYG;2007-08-07 11:00;METAR CYYG 071100Z 21007KT 15SM FEW011 BKN060 17/15 A2983 RMK SC2SC6 SLP102=
CYYG;2007-08-07 12:00;METAR CYYG 071200Z 23006KT 15SM SCT009 BKN035 18/16 A2985 RMK SC3SC4 SLP107=
CYYG;2007-08-07 12:09;SPECI CYYG 071209Z 22008KT 15SM BKN008 BKN035 18/ RMK SC6SC2=
CYYG;2007-08-07 13:00;METAR CYYG 071300Z 22008KT 15SM FEW006 OVC008 18/16 A2985 RMK SF1SC7 SLP109=
CYYG;2007-08-07 14:00;METAR CYYG 071400Z 24006KT 15SM FEW006 OVC010 18/16 A2985 RMK SF1SC7 SLP110=
CYYG;2007-08-07 15:00;METAR CYYG 071500Z 23007KT 15SM OVC011 18/16 A2985 RMK SC8 SLP110=
CYYG;2007-08-07 16:00;METAR CYYG 071600Z 23007KT 15SM FEW008 BKN015 BKN280 19/17 A2985 RMK SF1SC6CI1 SLP107=
CYYG;2007-08-07 17:00;METAR CYYG 071700Z 23007KT 15SM FEW009 BKN014 BKN280 21/17 A2984 RMK SF1SC5CI1 SLP106=
CYYG;2007-08-07 18:00;METAR CYYG 071800Z 27005KT 15SM FEW009 BKN014 BKN280 21/17 A2985 RMK SF1SC5CI1 SLP109=
CYYG;2007-08-07 19:00;METAR CYYG 071900Z 35005KT 15SM SCT015 BKN280 23/16 A2985 RMK SC3CI1 SLP108=
CYYG;2007-08-07 20:00;METAR CYYG 072000Z 32004KT 15SM SCT018 SCT280 23/17 A2985 RMK SC3CI1 SLP110=
CYYG;2007-08-07 21:00;METAR CYYG 072100Z 00000KT 15SM FEW019 SCT280 23/16 A2986 RMK SC2CI2 SLP112=
CYYG;2007-08-07 22:00;METAR CYYG 072200Z 10005KT 15SM FEW025 FEW280 22/17 A2986 RMK SC1CI2 SLP112=
CYYG;2007-08-07 23:00;METAR CYYG 072300Z 17004KT 15SM FEW030 FEW280 20/17 A2988 RMK SC1CI1 SLP119=
CYYG;2007-08-08 00:00;METAR CYYG 080000Z 00000KT 15SM FEW030 SCT280 19/17 A2990 RMK SC1CI1 SLP124=
CYYG;2007-08-08 01:00;METAR CYYG 080100Z 00000KT 15SM FEW030 SCT280 17/16 A2990 RMK SC1CI1 SLP125=
CYYG;2007-08-08 02:00;METAR CYYG 080200Z 00000KT 15SM FEW030 SCT280 17/16 A2992 RMK SC1CI1 SLP131=
CYYG;2007-08-08 03:00;METAR CYYG 080300Z 00000KT 15SM FEW040 SCT280 17/16 A2990 RMK SC1CI1 SLP127=
CYYG;2007-08-08 04:00;METAR CYYG 080400Z 00000KT 15SM FEW030 16/16 A2991 RMK SC2 SLP129=
CYYG;2007-08-08 05:00;METAR CYYG 080500Z 00000KT 15SM FEW050 16/16 A2990 RMK SC2 SLP124=
CYYG;2007-08-08 06:00;METAR CYYG 080600Z 00000KT 15SM FEW050 16/16 A2990 RMK SC2 SLP124=
CYYG;2007-08-08 07:00;METAR CYYG 080700Z 00000KT 15SM FEW050 16/16 A2989 RMK SC2 SLP122=
CYYG;2007-08-08 08:00;METAR CYYG 080800Z 00000KT 15SM FEW050 SCT220 17/16 A2989 RMK SC2CI1 SLP121=
CYYG;2007-08-08 09:00;METAR CYYG 080900Z 00000KT 10SM SCT006 BKN220 16/15 A2989 RMK SF3CI1 SLP122=
CYYG;2007-08-08 09:16;SPECI CYYG 080916Z 24004KT 6SM BR BKN006 BKN220 16/ RMK SF6CI1=
CYYG;2007-08-08 09:21;SPECI CYYG 080921Z 23005KT 1SM R03/4000VP6000FT/D BR OVC003 16/ RMK SF8=
CYYG;2007-08-08 09:53;SPECI CYYG 080953Z 00000KT 1SM R03/P6000FT/N BR OVC004 16/ RMK SF8=
CYYG;2007-08-08 10:00;METAR CYYG 081000Z 22005KT 1SM R03/P6000FT/N BR OVC004 17/16 A2988 RMK SF8 SLP119=
CYYG;2007-08-08 10:17;SPECI CYYG 081017Z 20006KT 4SM BR OVC006 17/ RMK SF8=
CYYG;2007-08-08 11:00;METAR CYYG 081100Z 22006KT 10SM OVC004 17/17 A2988 RMK SF8 SLP119=
CYYG;2007-08-08 11:35;SPECI CYYG 081135Z 18004KT 15SM SCT004 BKN280 18/ RMK SF4CI1=
CYYG;2007-08-08 12:00;METAR CYYG 081200Z 18006KT 15SM FEW005 SCT280 19/18 A2987 RMK SF2CI2 SLP114=
CYYG;2007-08-08 13:00;METAR CYYG 081300Z 18005KT 15SM FEW015 SCT280 21/18 A2985 RMK SC2CI2 SLP110=
CYYG;2007-08-08 14:00;METAR CYYG 081400Z 17009KT 15SM FEW030 FEW280 21/17 A2984 RMK SC1CI2 SLP105=
CYYG;2007-08-08 15:00;METAR CYYG 081500Z 14009KT 15SM FEW030 FEW280 22/19 A2982 RMK SC1CI1 SLP097=
CYYG;2007-08-08 16:00;METAR CYYG 081600Z 16011KT 15SM FEW030 BKN280 23/17 A2979 RMK SC2CI2 SLP087=
CYYG;2007-08-08 17:00;METAR CYYG 081700Z 18012KT 15SM FEW030 BKN280 23/19 A2975 RMK SC2CI4 SLP075=
CYYG;2007-08-08 18:00;METAR CYYG 081800Z 18013KT 15SM FEW030 OVC220 22/18 A2971 RMK SC2CS6 SLP062=
CYYG;2007-08-08 19:00;METAR CYYG 081900Z 18011KT 15SM FEW030 OVC200 22/18 A2969 RMK SC2CS6 SLP053=
CYYG;2007-08-08 20:00;METAR CYYG 082000Z 17012KT 15SM FEW030 BKN140 OVC200 22/18 A2965 RMK SC2AC4CS2 SLP041=
CYYG;2007-08-08 20:15;SPECI CYYG 082015Z 18015G20KT 15SM -SHRA BKN051 OVC077 21/ RMK SC5AC3=
CYYG;2007-08-08 21:00;METAR CYYG 082100Z 14015KT 15SM -SHRA BKN053 OVC070 20/18 A2960 RMK SC5AC3 SLP023=
CYYG;2007-08-08 22:00;METAR CYYG 082200Z 15015G20KT 15SM -SHRA SCT017 OVC051 20/18 A2956 RMK SC3SC5 SLP011=
CYYG;2007-08-08 22:49;SPECI CYYG 082249Z 16014KT 4SM -SHRA BR SCT009 OVC034 19/ RMK SF4SC4=
CYYG;2007-08-08 23:00;METAR CYYG 082300Z 16017KT 4SM -SHRA BR BKN007 OVC032 19/18 A2952 RMK SF5SC3 SLP998=
CYYG;2007-08-08 23:33;SPECI CYYG 082333Z 16014G20KT 2SM SHRA BR OVC005 19/ RMK SF8=
CYYG;2007-08-09 00:00;METAR CYYG 090000Z 14016G21KT 2SM SHRA BR BKN005 OVC030 18/18 A2944 RMK SF6SC2 PRESFR SLP971=
CYYG;2007-08-09 01:00;METAR CYYG 090100Z 15016G25KT 2SM SHRA BR BKN005 OVC020 18/18 A2941 RMK SF6SC2 SLP958=
CYYG;2007-08-09 02:00;METAR CYYG 090200Z 18012G20KT 3SM -SHRA BR BKN004 OVC022 19/19 A2937 RMK SF7SC1 SLP946=
CYYG;2007-08-09 03:00;METAR CYYG 090300Z 24010G15KT 4SM -SHRA BR BKN005 OVC020 19/19 A2933 RMK SF6SC2 SLP933=
CYYG;2007-08-09 03:42;SPECI CYYG 090342Z 25011G16KT 8SM -SHRA SCT006 OVC019 19/ RMK SF4SC4=
CYYG;2007-08-09 04:00;METAR CYYG 090400Z 25010KT 12SM -SHRA SCT007 OVC019 19/18 A2932 RMK SF4SC4 SLP927=
CYYG;2007-08-09 05:00;METAR CYYG 090500Z 26010G15KT 15SM SCT007 OVC020 18/17 A2931 RMK SF3SC5 SLP924=
CYYG;2007-08-09 06:00;METAR CYYG 090600Z 27009KT 15SM -SHRA BKN010 OVC030 18/17 A2929 RMK SF5SC3 SLP918=
CYYG;2007-08-09 07:00;METAR CYYG 090700Z 27016G21KT 15SM BKN008 OVC022 15/14 A2930 RMK SF5SC3 SLP922=
CYYG;2007-08-09 08:00;METAR CYYG 090800Z 27012G18KT 15SM BKN009 OVC020 14/12 A2930 RMK SF6SC2 SLP921=
CYYG;2007-08-09 09:00;METAR CYYG 090900Z 24006KT 15SM BKN007 OVC026 13/13 A2928 RMK SF6SC2 SLP915=
CYYG;2007-08-09 10:00;METAR CYYG 091000Z 26008KT 10SM -DZ OVC006 14/14 A2928 RMK SF8 SLP914=
CYYG;2007-08-09 10:25;SPECI CYYG 091025Z 27007KT 10SM OVC005 15/ RMK SF8=
CYYG;2007-08-09 10:41;SPECI CYYG 091041Z 28009KT 6SM -DZ BR OVC005 16/ RMK SF8=
CYYG;2007-08-09 11:00;METAR CYYG 091100Z 29008KT 4SM -DZ BR BKN003 OVC009 16/15 A2928 RMK SF6SF2 SLP917=
CYYG;2007-08-09 11:20;SPECI CYYG 091120Z 33008KT 2 1/2SM -DZ BR BKN005 OVC011 17/ RMK SF6SF2 CIG RAG=
CYYG;2007-08-09 11:23;SPECI CYYG 091123Z 33010KT 2 1/2SM -RA BR BKN005 OVC010 17/ RMK SF6SC2 CIG RAG=
CYYG;2007-08-09 11:48;SPECI CYYG 091148Z 35012G21KT 4SM -RA BR BKN006 OVC020 17/ RMK SF6SC2=
CYYG;2007-08-09 12:00;METAR CYYG 091200Z 35016G25KT 1SM R03/4500VP6000FT/N -RA BR BKN006 OVC020 17/17 A2934 RMK SF7SC1 SLP937=
CYYG;2007-08-09 12:16;SPECI CYYG 091216Z 35022G32KT 3SM -RA BR BKN006 OVC012 16/ RMK SF6SC2=
CYYG;2007-08-09 12:29;SPECI CYYG 091229Z 34018G31KT 6SM -RA BR BKN009 OVC015 16/ RMK SF7SC1=
CYYG;2007-08-09 13:00;METAR CYYG 091300Z 33019G31KT 5SM -RA BR OVC009 15/14 A2944 RMK SF8 SLP968=
CYYG;2007-08-09 14:00;METAR CYYG 091400Z CCA 34021G36KT 10SM -DZ BKN007 OVC012 14/13 A2950 RMK SF6SC2 PRESRR SLP989=
CYYG;2007-08-09 14:12;SPECI CYYG 091412Z 34020G32KT 2 1/2SM -RADZ BR BKN007 OVC015 14/ RMK SF6SC2=
CYYG;2007-08-09 14:30;SPECI CYYG 091430Z 34024G36KT 10SM -RADZ BKN007 OVC012 14/ RMK SF6SC2=
CYYG;2007-08-09 14:51;SPECI CYYG 091451Z 34020G34KT 10SM -DZ BKN009 OVC016 14/ RMK SF7SC1=
CYYG;2007-08-09 15:00;METAR CYYG 091500Z 34019G31KT 12SM -DZ BKN012 OVC018 14/13 A2955 RMK SF6SC2 SLP006=
CYYG;2007-08-09 16:00;METAR CYYG 091600Z 34019G29KT 12SM BKN014 OVC020 15/12 A2959 RMK SC6SC2 VIS LWR NE SLP019=
CYYG;2007-08-09 17:00;METAR CYYG 091700Z 34019G31KT 15SM FEW025 FEW080 16/12 A2962 RMK SC1AC1 SLP031=
CYYG;2007-08-09 18:00;METAR CYYG 091800Z 34022G32KT 15SM FEW030 FEW050 BKN250 17/11 A2966 RMK CU1SC1CC1 SLP044=
CYYG;2007-08-09 19:00;METAR CYYG 091900Z 34023G31KT 15SM FEW030 FEW050 SCT250 18/09 A2970 RMK CU1SC1CI1 SLP056=
CYYG;2007-08-09 20:00;METAR CYYG 092000Z 35020G29KT 15SM FEW040 SCT250 18/08 A2972 RMK SC1CI1 SLP064=
CYYG;2007-08-09 21:00;METAR CYYG 092100Z 33013G21KT 15SM FEW035 FEW250 18/09 A2973 RMK SC1CI0 SLP069=
CYYG;2007-08-09 22:00;METAR CYYG 092200Z 34005G15KT 15SM FEW030 FEW250 17/09 A2975 RMK SC1CI0 SLP075=
CYYG;2007-08-09 23:00;METAR CYYG 092300Z 30005KT 15SM FEW250 16/08 A2978 RMK CI1 SLP084=
CYYG;2007-08-10 00:00;METAR CYYG 100000Z 28006KT 15SM FEW250 15/09 A2979 RMK CI1 SLP089=
CYYG;2007-08-10 01:00;METAR CYYG 100100Z 28008KT 15SM SKC 14/10 A2981 RMK SLP095=
CYYG;2007-08-10 02:00;METAR CYYG 100200Z 26007KT 15SM SKC 14/10 A2981 RMK SLP095=
CYYG;2007-08-10 03:00;METAR CYYG 100300Z 29009KT 15SM SKC 15/09 A2981 RMK SLP095=
CYYG;2007-08-10 04:00;METAR CYYG 100400Z 29008KT 15SM SKC 15/10 A2982 RMK SLP098=
CYYG;2007-08-10 05:00;METAR CYYG 100500Z 29007KT 15SM SKC 15/10 A2982 RMK SLP099=
CYYG;2007-08-10 06:00;METAR CYYG 100600Z 30008KT 15SM SKC 14/10 A2983 RMK SLP103=
CYYG;2007-08-10 07:00;METAR CYYG 100700Z 30005KT 15SM SKC 14/10 A2985 RMK SLP107=
CYYG;2007-08-10 08:00;METAR CYYG 100800Z 32003KT 15SM SKC 12/10 A2986 RMK SLP111=
CYYG;2007-08-10 09:00;METAR CYYG 100900Z 34002KT 15SM SKC 12/11 A2986 RMK SLP112=
CYYG;2007-08-10 10:00;METAR CYYG 101000Z 29004KT 15SM SKC 14/11 A2988 RMK SLP119=
CYYG;2007-08-10 11:00;METAR CYYG 101100Z 31003KT 15SM FEW300 16/13 A2990 RMK CI0 SLP127=
CYYG;2007-08-10 12:00;METAR CYYG 101200Z 28007KT 15SM FEW300 18/12 A2992 RMK CI0 SLP131=
CYYG;2007-08-10 13:00;METAR CYYG 101300Z 32004KT 15SM FEW300 20/12 A2992 RMK CI0 SLP131=
CYYG;2007-08-10 14:00;METAR CYYG 101400Z 31003KT 15SM SCT300 21/11 A2992 RMK CI1 SLP132=
CYYG;2007-08-10 15:00;METAR CYYG 101500Z 27002KT 15SM FEW024 SCT300 22/11 A2991 RMK CF1CI1 SLP130=
CYYG;2007-08-10 16:00;METAR CYYG 101600Z 32005KT 15SM FEW026 SCT300 22/11 A2990 RMK CF1CI1 SLP126=
CYYG;2007-08-10 17:00;METAR CYYG 101700Z 28003KT 15SM FEW048 SCT300 23/12 A2990 RMK CU1CI1 SLP124=
CYYG;2007-08-10 18:00;METAR CYYG 101800Z 00000KT 15SM FEW055 FEW300 23/10 A2989 RMK CU1CI1 SLP122=
CYYG;2007-08-10 19:00;METAR CYYG 101900Z 21007KT 15SM FEW055 FEW300 23/11 A2988 RMK CU1CI1 SLP120=
CYYG;2007-08-10 20:00;METAR CYYG 102000Z 23007KT 15SM FEW055 FEW300 23/10 A2988 RMK SC1CI1 SLP120=
CYYG;2007-08-10 21:00;METAR CYYG 102100Z 23005KT 15SM FEW050 BKN300 23/11 A2987 RMK SC1CI2 SLP117=
CYYG;2007-08-10 22:00;METAR CYYG 102200Z 18004KT 15SM FEW100 BKN300 22/12 A2987 RMK AC1CI3 SLP114=
CYYG;2007-08-10 23:00;METAR CYYG 102300Z 19004KT 15SM BKN300 20/13 A2987 RMK CI5 SLP116=
CYYG;2007-08-11 00:00;METAR CYYG 110000Z 21004KT 15SM SCT300 18/13 A2988 RMK CI3 SLP119=
CYYG;2007-08-11 01:00;METAR CYYG 110100Z 21005KT 15SM FEW300 18/12 A2989 RMK CI2 SLP121=
CYYG;2007-08-11 02:00;METAR CYYG 110200Z 22007KT 15SM FEW300 19/13 A2988 RMK CI1 SLP118=
CYYG;2007-08-11 03:00;METAR CYYG 110300Z 22004KT 15SM FEW300 18/13 A2987 RMK CI1 SLP114=
CYYG;2007-08-11 04:00;METAR CYYG 110400Z 21006KT 15SM SKC 17/15 A2987 RMK SLP114=
CYYG;2007-08-11 05:00;METAR CYYG 110500Z 21007KT 15SM SKC 17/13 A2985 RMK SLP108=
CYYG;2007-08-11 06:00;METAR CYYG 110600Z 21006KT 15SM SKC 16/13 A2984 RMK SLP104=
CYYG;2007-08-11 07:00;METAR CYYG 110700Z 22005KT 15SM SKC 16/12 A2984 RMK SLP103=
CYYG;2007-08-11 08:00;METAR CYYG 110800Z 22006KT 15SM FEW300 16/12 A2983 RMK CI1 SLP102=
CYYG;2007-08-11 09:00;METAR CYYG 110900Z 23008KT 15SM FEW250 16/13 A2984 RMK CI2 SLP105=
CYYG;2007-08-11 10:00;METAR CYYG 111000Z 24008KT 15SM BKN250 16/13 A2984 RMK CI3 SLP106=
CYYG;2007-08-11 11:00;METAR CYYG 111100Z 25009KT 15SM BKN250 17/14 A2985 RMK CC3 SLP108=
CYYG;2007-08-11 12:00;METAR CYYG 111200Z 26009KT 15SM SCT280 19/14 A2985 RMK CC2 SLP107=
CYYG;2007-08-11 13:00;METAR CYYG 111300Z 24009KT 15SM SCT280 20/15 A2983 RMK CC2 SLP103=
CYYG;2007-08-11 14:00;METAR CYYG 111400Z 25008KT 15SM FEW280 21/14 A2982 RMK CC1 SLP099=
CYYG;2007-08-11 15:00;METAR CYYG 111500Z 22007KT 15SM FEW280 23/15 A2981 RMK CI2 SLP095=
CYYG;2007-08-11 16:00;METAR CYYG 111600Z 25005KT 15SM FEW030 FEW280 24/16 A2980 RMK CU1CI1 SLP091=
CYYG;2007-08-11 17:00;METAR CYYG 111700Z 26007KT 15SM FEW030 FEW280 25/16 A2980 RMK CU1CI1 SLP090=
CYYG;2007-08-11 18:00;METAR CYYG 111800Z 27009KT 15SM FEW030 FEW280 25/14 A2979 RMK CU1CI1 SLP088=
CYYG;2007-08-11 19:00;METAR CYYG 111900Z 24006KT 15SM FEW030 FEW280 26/16 A2978 RMK CU1CI1 SLP085=
CYYG;2007-08-11 20:00;METAR CYYG 112000Z 23009KT 15SM FEW030 FEW280 26/15 A2978 RMK CU1CI1 SLP085=
CYYG;2007-08-11 21:00;METAR CYYG 112100Z 25008KT 15SM FEW030 FEW160 25/15 A2979 RMK CU1AC1 SLP088=
CYYG;2007-08-11 22:00;METAR CYYG 112200Z 25007KT 15SM BKN062 24/14 A2981 RMK SC5 SLP093=
CYYG;2007-08-11 23:00;METAR CYYG 112300Z 25006KT 15SM FEW060 FEW200 22/14 A2981 RMK SC1CI2 SLP093=
CYYG;2007-08-12 00:00;METAR CYYG 120000Z 25008KT 15SM FEW250 21/12 A2982 RMK CI1 SLP096=
CYYG;2007-08-12 01:00;METAR CYYG 120100Z 25009KT 15SM FEW250 20/12 A2982 RMK CI1 SLP099=
CYYG;2007-08-12 02:00;METAR CYYG 120200Z 24009KT 15SM FEW250 19/13 A2981 RMK CI1 SLP094=
CYYG;2007-08-12 03:00;METAR CYYG 120300Z 25009KT 15SM SKC 18/14 A2981 RMK SLP093=
CYYG;2007-08-12 04:00;METAR CYYG 120400Z 36007KT 15SM BKN060 17/14 A2982 RMK SC4 SLP096=
CYYG;2007-08-12 05:00;METAR CYYG 120500Z 34002KT 15SM SCT060 BKN095 17/14 A2982 RMK SC2AC2 SLP096=
CYYG;2007-08-12 06:00;METAR CYYG 120600Z 36005KT 15SM SCT077 17/15 A2983 RMK AC4 SLP100=
CYYG;2007-08-12 07:00;METAR CYYG 120700Z 35005KT 15SM BKN048 16/14 A2985 RMK SC5 SLP109=
CYYG;2007-08-12 08:00;METAR CYYG 120800Z 36005KT 15SM BKN042 16/14 A2986 RMK SC6 SLP110=
CYYG;2007-08-12 09:00;METAR CYYG 120900Z 35007KT 15SM BKN081 17/14 A2987 RMK AC6 SLP114=
CYYG;2007-08-12 10:00;METAR CYYG 121000Z 36004KT 15SM BKN060 16/14 A2988 RMK SC6 SLP119=
CYYG;2007-08-12 11:00;METAR CYYG 121100Z 36006KT 15SM FEW060 FEW080 SCT300 17/14 A2990 RMK SC1AC1CC2 SLP124=
CYYG;2007-08-12 12:00;METAR CYYG 121200Z 01005KT 15SM FEW080 18/14 A2990 RMK AC1 SLP127=
CYYG;2007-08-12 13:00;METAR CYYG 121300Z 02005KT 15SM FEW080 19/15 A2991 RMK AC1 SLP129=
CYYG;2007-08-12 14:00;METAR CYYG 121400Z 35002KT 15SM FEW080 21/15 A2992 RMK AC1 SLP131=
CYYG;2007-08-12 15:00;METAR CYYG 121500Z 00000KT 15SM FEW030 FEW300 22/12 A2991 RMK CU1CI0 SLP128=
CYYG;2007-08-12 16:00;METAR CYYG 121600Z 00000KT 15SM FEW030 SCT300 23/12 A2990 RMK CU1CI0 SLP125=
CYYG;2007-08-12 17:00;METAR CYYG 121700Z 00000KT 15SM FEW040 BKN300 23/12 A2989 RMK CU1CI0 SLP121=
CYYG;2007-08-12 18:00;METAR CYYG 121800Z 20009KT 15SM FEW056 BKN300 24/15 A2988 RMK CU2CI1 SLP118=
CYYG;2007-08-12 19:00;METAR CYYG 121900Z 20010KT 15SM FEW050 BKN300 23/12 A2987 RMK CU2CI1 SLP115=
CYYG;2007-08-12 20:00;METAR CYYG 122000Z 21005KT 15SM FEW050 BKN300 23/12 A2987 RMK CU2CI1 SLP115=
CYYG;2007-08-12 21:00;METAR CYYG 122100Z 18006KT 15SM FEW050 FEW140 BKN300 23/13 A2986 RMK CU1AC1CI0 SLP111=
CYYG;2007-08-12 22:00;METAR CYYG 122200Z 00000KT 15SM FEW050 FEW230 BKN300 22/12 A2985 RMK CU1CC2CI0 SLP107=
CYYG;2007-08-12 23:00;METAR CYYG 122300Z 19005KT 15SM FEW050 FEW120 BKN300 20/13 A2985 RMK SC1AC2CI1 SLP109=
CYYG;2007-08-13 00:00;METAR CYYG 130000Z 18006KT 15SM FEW050 FEW120 BKN300 18/12 A2985 RMK SC1AC1CI1 SLP109=
CYYG;2007-08-13 01:00;METAR CYYG 130100Z 18006KT 15SM FEW120 FEW300 17/13 A2986 RMK AC1CI0 SLP111=
CYYG;2007-08-13 02:00;METAR CYYG 130200Z 17008KT 15SM FEW080 18/14 A2983 RMK AC1 SLP103=
CYYG;2007-08-13 03:00;METAR CYYG 130300Z 18005KT 15SM SKC 18/15 A2983 RMK SLP101=
CYYG;2007-08-13 04:00;METAR CYYG 130400Z 17006KT 15SM FEW230 18/15 A2982 RMK CI0 SLP096=
CYYG;2007-08-13 05:00;METAR CYYG 130500Z 20006KT 15SM SCT200 BKN240 18/14 A2980 RMK CI1CI1 SLP092=
CYYG;2007-08-13 06:00;METAR CYYG 130600Z CCA 19009KT 15SM BKN240 18/14 A2977 RMK CI2 SLP081=
CYYG;2007-08-13 07:00;METAR CYYG 130700Z 19008KT 15SM BKN240 18/14 A2976 RMK CI2 SLP078=
CYYG;2007-08-13 08:00;METAR CYYG 130800Z 20009KT 15SM FEW140 BKN240 18/14 A2975 RMK AC2CI2 SLP075=
CYYG;2007-08-13 09:00;METAR CYYG 130900Z 20010KT 15SM FEW045 BKN100 BKN140 BKN240 19/15 A2974 RMK SC1AC4AC2CI0 SLP072=
CYYG;2007-08-13 10:00;METAR CYYG 131000Z 20009KT 15SM FEW045 BKN085 BKN150 BKN240 19/15 A2974 RMK SC1AC4AC2CI0 SLP070=
CYYG;2007-08-13 11:00;METAR CYYG 131100Z 21010KT 15SM FEW058 BKN084 BKN150 BKN240 20/15 A2974 RMK SC2AC3AC2CI0 SLP071=
CYYG;2007-08-13 12:00;METAR CYYG 131200Z 21014KT 15SM FEW055 BKN130 BKN240 20/14 A2974 RMK SC2AC5CI1 SLP071=
CYYG;2007-08-13 12:22;SPECI CYYG 131222Z 22010G15KT 15SM -SHRA SCT048 OVC073 20/ RMK SC3AC5=
CYYG;2007-08-13 13:00;METAR CYYG 131300Z 24012KT 15SM -SHRA SCT048 OVC094 19/15 A2976 RMK SC3AC5 SLP077=
CYYG;2007-08-13 14:00;METAR CYYG 131400Z 22009KT 15SM -SHRA SCT047 OVC070 19/15 A2976 RMK SC3AC5 SLP076=
CYYG;2007-08-13 15:00;METAR CYYG 131500Z 20009KT 15SM -SHRA SCT047 OVC080 19/16 A2975 RMK SC3AC5 SLP074=
CYYG;2007-08-13 16:00;METAR CYYG 131600Z 22008KT 15SM FEW008 FEW045 OVC090 20/17 A2975 RMK SF1SC2AC6 SLP073=
CYYG;2007-08-13 17:00;METAR CYYG 131700Z 22008KT 15SM SCT010 OVC100 21/17 A2974 RMK SC4AC4 SLP071=
CYYG;2007-08-13 17:32;SPECI CYYG 131732Z 21010KT 15SM BKN012 OVC100 20/ RMK SC6AC2=
CYYG;2007-08-13 18:00;METAR CYYG 131800Z 23011KT 15SM OVC010 20/17 A2974 RMK SC8 SLP071=
CYYG;2007-08-13 19:00;METAR CYYG 131900Z 23009KT 15SM BKN012 OVC085 20/16 A2974 RMK SC6AC2 SLP070=
CYYG;2007-08-13 20:00;METAR CYYG 132000Z 22009KT 15SM -SHRA BKN011 OVC080 20/16 A2975 RMK SC6AC2 SLP074=
CYYG;2007-08-13 20:18;SPECI CYYG 132018Z 21009KT 6SM -SHRA BR FEW008 OVC012 19/ RMK SF2SC6=
CYYG;2007-08-13 21:00;METAR CYYG 132100Z 23008KT 12SM -SHRA FEW008 SCT012 OVC100 19/16 A2975 RMK SF2SC2AC4 SLP074=
CYYG;2007-08-13 22:00;METAR CYYG 132200Z 20006KT 12SM -SHRA FEW008 BKN037 OVC100 19/17 A2974 RMK SF2SC3AC2 SLP072=
CYYG;2007-08-13 22:18;SPECI CYYG 132218Z 20009KT 10SM -SHRA BKN008 OVC035 19/ RMK SF6SC2=
CYYG;2007-08-13 23:00;METAR CYYG 132300Z 24004KT 10SM -SHRA FEW004 BKN008 OVC031 19/17 A2975 RMK SF2SC5SC2 SLP073=
CYYG;2007-08-14 00:00;METAR CYYG 140000Z 23005KT 8SM -SHRA BKN004 OVC011 19/16 A2975 RMK SF5SC3 SLP075=
CYYG;2007-08-14 01:00;METAR CYYG 140100Z 24004KT 6SM -SHRA BR SCT004 OVC052 18/17 A2976 RMK SF4SC4 SLP078=
CYYG;2007-08-14 02:00;METAR CYYG 140200Z 25002KT 8SM -SHRA FEW004 OVC061 18/16 A2976 RMK SF2SC6 SLP077=
CYYG;2007-08-14 02:49;SPECI CYYG 140249Z 00000KT 10SM FEW004 BKN060 OVC096 RMK SF1SC4AC3=
CYYG;2007-08-14 03:00;METAR CYYG 140300Z 00000KT 10SM FEW004 BKN062 OVC096 17/15 A2976 RMK SF1SC4AC3 SLP077=
CYYG;2007-08-14 04:00;METAR CYYG 140400Z 00000KT 8SM R03/2800V6000FT/D MIFG FEW003 SCT070 OVC110 17/15 A2977 RMK SF2AC2AC5 SLP081=
CYYG;2007-08-14 05:00;METAR CYYG 140500Z 09003KT 10SM SCT006 OVC140 16/15 A2976 RMK SF4AC4 SLP079=
CYYG;2007-08-14 06:00;METAR CYYG 140600Z 11006KT 8SM FEW007 SCT100 OVC150 16/14 A2976 RMK SF2AC2AC4 SLP078=
CYYG;2007-08-14 07:00;METAR CYYG 140700Z 13004KT 6SM BR FEW003 OVC090 16/15 A2976 RMK SF2AC6 SLP078=
CYYG;2007-08-14 07:07;SPECI CYYG 140707Z 13004KT 6SM BR BKN003 OVC090 16/ RMK SF5AC3=
CYYG;2007-08-14 07:46;SPECI CYYG 140746Z 11006KT 4SM BR OVC002 16/ RMK SF8=
CYYG;2007-08-14 08:00;METAR CYYG 140800Z 10006KT 2 1/2SM BR OVC002 16/15 A2976 RMK SF8 SLP079=
CYYG;2007-08-14 08:37;SPECI CYYG 140837Z 14006KT 1/2SM R03/2600V4000FT/U FG VV002 16/ RMK FG8=
CYYG;2007-08-14 08:54;SPECI CYYG 140854Z 14006KT 1SM R03/P6000FT/U BR OVC001 16/ RMK ST8=
CYYG;2007-08-14 09:00;METAR CYYG 140900Z 14007KT 1SM R03/P6000FT/N BR OVC001 16/15 A2977 RMK ST8 SLP081=
CYYG;2007-08-14 09:39;SPECI CYYG 140939Z 14005KT 3SM BR OVC002 16/ RMK ST8 VIS LWR W=
CYYG;2007-08-14 10:00;METAR CYYG 141000Z 13004KT 4SM BR OVC002 17/15 A2978 RMK ST8 VIS LWR W-N SLP084=
CYYG;2007-08-14 10:21;SPECI CYYG 141021Z 00000KT 6SM BR BKN003 OVC011 17/ RMK SF6SC2 VIS LWR W-N=
CYYG;2007-08-14 10:51;SPECI CYYG 141051Z 16003KT 8SM FEW002 BKN006 OVC012 17/ RMK SF1SF6SC1=
CYYG;2007-08-14 11:00;METAR CYYG 141100Z 15005KT 10SM FEW002 BKN005 OVC017 17/15 A2980 RMK SF2SF5SC1 SLP091=
CYYG;2007-08-14 11:48;SPECI CYYG 141148Z 16006KT 12SM FEW005 BKN019 18/ RMK SF2SC5=
CYYG;2007-08-14 12:00;METAR CYYG 141200Z 17006KT 12SM FEW005 BKN019 BKN150 18/16 A2980 RMK SF2SC5AC1 SLP092=
CYYG;2007-08-14 13:00;METAR CYYG 141300Z 16008KT 12SM BKN010 BKN065 BKN100 20/16 A2981 RMK SC5SC1AC2 SLP094=
CYYG;2007-08-14 14:00;METAR CYYG 141400Z 18006KT 12SM BKN010 BKN100 20/15 A2981 RMK SC5AC2 SLP095=
CYYG;2007-08-14 15:00;METAR CYYG 141500Z 18007KT 15SM BKN011 BKN100 20/16 A2982 RMK SC6AC1 SLP097=
CYYG;2007-08-14 16:00;METAR CYYG 141600Z CCA 23004KT 15SM BKN014 BKN095 21/16 A2982 RMK SC6AC1 TCU ASOCTD SLP097=
CYYG;2007-08-14 17:00;METAR CYYG 141700Z 24008KT 15SM BKN015 BKN095 20/16 A2982 RMK SC5AC2 SLP099=
CYYG;2007-08-14 18:00;METAR CYYG 141800Z 27004KT 15SM SCT018 BKN120 21/16 A2982 RMK CU4AC2 SLP099=
CYYG;2007-08-14 19:00;METAR CYYG 141900Z 33007KT 15SM VCSH BKN025 BKN120 BKN250 22/17 A2981 RMK SC5AC1CI1 TCU ASOCTD SLP096=
CYYG;2007-08-14 20:00;METAR CYYG 142000Z 35007KT 15SM VCSH FEW015 BKN027 BKN250 19/15 A2983 RMK CU1SC5CI1 TCU ASOCTD SLP102=
CYYG;2007-08-14 21:00;METAR CYYG 142100Z 02007KT 15SM FEW030 SCT052 BKN160 19/15 A2983 RMK SC2SC2AC2 TCU ASOCTD SLP101=
CYYG;2007-08-14 22:00;METAR CYYG 142200Z 00000KT 15SM FEW030 SCT060 BKN160 18/15 A2982 RMK SC2SC2AC2 SLP100=
CYYG;2007-08-14 23:00;METAR CYYG 142300Z 35002KT 15SM FEW089 SCT240 18/15 A2983 RMK AC2CI1 SLP102=
CYYG;2007-08-14 23:54;SPECI CYYG 142354Z 35004KT 2SM BR BKN002 OVC090 16/ RMK SF5AC3=
CYYG;2007-08-15 00:00;METAR CYYG 150000Z 35004KT 1SM R03/P6000FT/D BR BKN002 OVC004 16/15 A2984 RMK SF6SF2 SLP104=
CYYG;2007-08-15 00:46;SPECI CYYG 150046Z 00000KT 12SM SCT002 15/ RMK SF3=
CYYG;2007-08-15 01:00;METAR CYYG 150100Z 00000KT 10SM FEW002 SCT090 15/14 A2985 RMK SF2AC2 SLP108=
CYYG;2007-08-15 01:18;SPECI CYYG 150118Z 04005KT 1SM R03/4500VP6000FT/U BR BKN001 OVC005 15/ RMK SF6SF2=
CYYG;2007-08-15 01:42;SPECI CYYG 150142Z 00000KT 1/2SM R03/3000VP6000FT/D FG OVC001 16/ RMK SF8=
CYYG;2007-08-15 02:00;METAR CYYG 150200Z 00000KT 1/2SM R03/2600V5000FT/U FG OVC001 16/15 A2984 RMK SF8 SLP106=
CYYG;2007-08-15 03:00;METAR CYYG 150300Z 00000KT 1/2SM R03/1200V1800FT/N FG OVC001 15/15 A2985 RMK SF8 SLP107=
CYYG;2007-08-15 03:22;SPECI CYYG 150322Z 00000KT 1/4SM R03/1100FT/N FG VV001 15/ RMK FG8=
CYYG;2007-08-15 04:00;METAR CYYG 150400Z 00000KT 1/4SM R03/1600FT/N FG VV001 15/14 A2985 RMK FG8 SLP107=
CYYG;2007-08-15 05:00;METAR CYYG 150500Z 00000KT 1/4SM R03/0900FT/N FG VV001 14/14 A2984 RMK FG8 SLP105=
CYYG;2007-08-15 06:00;METAR CYYG 150600Z 00000KT 1/2SM R03/2800FT/N FG VV001 14/13 A2984 RMK FG8 SLP104=
CYYG;2007-08-15 06:13;SPECI CYYG 150613Z 00000KT 4SM R03/2800V6000FT/D BR SCT002 13/ RMK SF2=
CYYG;2007-08-15 07:00;METAR CYYG 150700Z 00000KT 15SM MIFG SKC 12/12 A2984 RMK SLP105=
CYYG;2007-08-15 08:00;METAR CYYG 150800Z 00000KT 15SM SKC 11/11 A2984 RMK SLP104=
CYYG;2007-08-15 09:00;METAR CYYG 150900Z 00000KT 15SM R03/3000VP6000FT/U MIFG FEW002 10/10 A2985 RMK SF1 SLP107=
CYYG;2007-08-15 10:00;METAR CYYG 151000Z 00000KT 15SM FEW120 SCT240 12/12 A2986 RMK AC2CI1 SLP111=
CYYG;2007-08-15 11:00;METAR CYYG 151100Z 00000KT 15SM SCT150 15/14 A2987 RMK AC2 SLP115=
CYYG;2007-08-15 12:00;METAR CYYG 151200Z 24004KT 15SM FEW080 FEW150 17/15 A2987 RMK AC1AC1 SLP115=
CYYG;2007-08-15 13:00;METAR CYYG 151300Z 00000KT 15SM FEW030 FEW150 SCT250 19/14 A2985 RMK CU1AC1CI1 SLP110=
CYYG;2007-08-15 14:00;METAR CYYG 151400Z 19008KT 15SM FEW030 BKN240 19/13 A2986 RMK SC1CI2 SLP111=
CYYG;2007-08-15 15:00;METAR CYYG 151500Z 23008KT 15SM FEW030 BKN240 20/12 A2986 RMK SC1CI2 SLP112=
CYYG;2007-08-15 16:00;METAR CYYG 151600Z 23008KT 15SM FEW030 SCT110 BKN240 21/12 A2986 RMK SC2AC1CI1 SLP111=
CYYG;2007-08-15 17:00;METAR CYYG 151700Z 23009KT 15SM FEW030 BKN140 BKN240 21/12 A2985 RMK SC1AC2CI2 SLP108=
CYYG;2007-08-15 18:00;METAR CYYG 151800Z 23008KT 15SM FEW030 BKN130 BKN240 21/12 A2984 RMK SC1AC4CI1 SLP106=
CYYG;2007-08-15 19:00;METAR CYYG 151900Z 22009KT 15SM BKN120 21/11 A2984 RMK AC6 SLP105=
CYYG;2007-08-15 20:00;METAR CYYG 152000Z 22006KT 15SM BKN120 20/11 A2985 RMK AC6 SLP110=
CYYG;2007-08-15 21:00;METAR CYYG 152100Z 24006KT 15SM BKN110 19/12 A2986 RMK AC6 SLP111=
CYYG;2007-08-15 22:00;METAR CYYG 152200Z 25007KT 15SM -SHRA OVC100 18/12 A2986 RMK AC7 SLP112=
CYYG;2007-08-15 23:00;METAR CYYG 152300Z 23004KT 15SM -SHRA OVC097 17/12 A2986 RMK AC7 SLP111=
CYYG;2007-08-16 00:00;METAR CYYG 160000Z 23005KT 15SM FEW053 OVC086 17/12 A2987 RMK SC2AC6 SLP114=
CYYG;2007-08-16 00:11;SPECI CYYG 160011Z 20007KT 15SM -SHRA SCT040 OVC075 17/ RMK SC3AC5=
CYYG;2007-08-16 01:00;METAR CYYG 160100Z 19009KT 15SM -SHRA OVC073 17/14 A2985 RMK AC8 SLP109=
CYYG;2007-08-16 02:00;METAR CYYG 160200Z 17007KT 15SM -SHRA OVC072 17/15 A2983 RMK AC8 DST LTGCG SOUTH SLP103=
CYYG;2007-08-16 03:00;METAR CYYG 160300Z 19012KT 15SM -SHRA BKN036 OVC060 18/14 A2983 RMK SC5SC3 SLP103=
CYYG;2007-08-16 03:27;SPECI CYYG 160327Z 21009KT 15SM OVC032 18/ RMK SC8=
CYYG;2007-08-16 04:00;METAR CYYG 160400Z 22009G16KT 15SM OVC026 18/14 A2984 RMK SC8 SLP106=
CYYG;2007-08-16 05:00;METAR CYYG 160500Z 24010G16KT 15SM OVC022 17/14 A2985 RMK SC8 SLP107=
CYYG;2007-08-16 06:00;METAR CYYG 160600Z 23008G15KT 15SM OVC017 17/14 A2984 RMK SC8 SLP106=
CYYG;2007-08-16 07:00;METAR CYYG 160700Z 25007KT 15SM OVC015 16/14 A2985 RMK SC8 SLP108=
CYYG;2007-08-16 08:00;METAR CYYG 160800Z 24005KT 15SM OVC011 16/14 A2986 RMK SC8 SLP111=
CYYG;2007-08-16 09:00;METAR CYYG 160900Z 24007KT 15SM OVC011 16/14 A2987 RMK SC8 SLP116=
CYYG;2007-08-16 10:00;METAR CYYG 161000Z 24007KT 15SM BKN010 16/14 A2989 RMK SC5 SLP121=
CYYG;2007-08-16 11:00;METAR CYYG 161100Z 25008KT 15SM BKN009 16/14 A2990 RMK SC6 SLP127=
CYYG;2007-08-16 12:00;METAR CYYG 161200Z 27010KT 15SM BKN012 BKN080 17/14 A2991 RMK SC5AC2 SLP130=
CYYG;2007-08-16 12:37;SPECI CYYG 161237Z 24009KT 15SM SCT012 BKN080 17/ RMK SC4AC2=
CYYG;2007-08-16 13:00;METAR CYYG 161300Z 23008KT 15SM FEW013 SCT062 18/14 A2992 RMK SC2SC2 SLP133=
CYYG;2007-08-16 14:00;METAR CYYG 161400Z 24010KT 15SM FEW013 SCT070 19/14 A2992 RMK SC2AC1 SLP132=
CYYG;2007-08-16 15:00;METAR CYYG 161500Z 23010KT 15SM FEW018 FEW070 19/14 A2992 RMK SC1AC1 SLP133=
CYYG;2007-08-16 16:00;METAR CYYG 161600Z 22011KT 15SM FEW018 20/13 A2991 RMK SC1 SLP129=
CYYG;2007-08-16 17:00;METAR CYYG 161700Z 25012G19KT 15SM FEW030 21/12 A2990 RMK CU1 SLP126=
CYYG;2007-08-16 18:00;METAR CYYG 161800Z 23013G18KT 15SM FEW030 FEW250 22/11 A2990 RMK CU1CI0 SLP126=
CYYG;2007-08-16 19:00;METAR CYYG 161900Z 22015KT 15SM FEW030 FEW250 23/09 A2989 RMK CU1CI0 SLP123=
CYYG;2007-08-16 20:00;METAR CYYG 162000Z 24014KT 15SM FEW070 FEW250 23/09 A2988 RMK AC1CI1 SLP119=
CYYG;2007-08-16 21:00;METAR CYYG 162100Z 21010G15KT 15SM FEW070 SCT160 BKN250 22/10 A2987 RMK AC2AC2CI1 SLP115=
CYYG;2007-08-16 22:00;METAR CYYG 162200Z 20009KT 15SM FEW070 BKN140 21/11 A2986 RMK AC2AC2 SLP111=
CYYG;2007-08-16 23:00;METAR CYYG 162300Z 20007KT 15SM OVC150 21/11 A2985 RMK AC7 SLP110=
CYYG;2007-08-17 00:00;METAR CYYG 170000Z 19005KT 15SM OVC150 20/12 A2985 RMK AC7 SLP108=
CYYG;2007-08-17 01:00;METAR CYYG 170100Z 16008KT 15SM FEW070 OVC170 20/13 A2982 RMK AC2AC6 SLP097=
CYYG;2007-08-17 02:00;METAR CYYG 170200Z 18010G16KT 15SM BKN130 OVC170 20/13 A2979 RMK AC5AC3 SLP089=
CYYG;2007-08-17 03:00;METAR CYYG 170300Z 19012KT 15SM FEW090 BKN170 20/14 A2979 RMK AC2AC4 SLP086=
CYYG;2007-08-17 04:00;METAR CYYG 170400Z 20011KT 15SM BKN180 20/16 A2977 RMK AC6 SLP082=
CYYG;2007-08-17 05:00;METAR CYYG 170500Z 21012KT 15SM FEW080 OVC170 20/16 A2977 RMK AC2AC6 SLP079=
CYYG;2007-08-17 05:50;SPECI CYYG 170550Z 21010KT 10SM -RA SCT029 OVC080 19/ RMK SC3AC5=
CYYG;2007-08-17 06:00;METAR CYYG 170600Z 22007KT 10SM -RA FEW010 SCT030 OVC080 19/17 A2975 RMK SC2SC2AC4 SLP074=
CYYG;2007-08-17 07:00;METAR CYYG 170700Z 19007KT 6SM -RA OVC005 19/17 A2973 RMK SF8 SLP066=
CYYG;2007-08-17 07:49;SPECI CYYG 170749Z 22006KT 4SM BR OVC004 19/ RMK SF8=
CYYG;2007-08-17 08:00;METAR CYYG 170800Z 22006KT 4SM BR OVC003 19/17 A2974 RMK SF8 SLP071=
CYYG;2007-08-17 09:00;METAR CYYG 170900Z 25005KT 3SM BR OVC006 19/17 A2977 RMK SF8 SLP080=
CYYG;2007-08-17 09:34;SPECI CYYG 170934Z 26005KT 4SM BR SCT006 OVC031 19/ RMK SF3SC5=
CYYG;2007-08-17 10:00;METAR CYYG 171000Z 27004KT 4SM BR FEW006 OVC044 18/16 A2979 RMK SF2SC6 SLP086=
CYYG;2007-08-17 11:00;METAR CYYG 171100Z 27003KT 4SM BR FEW007 OVC031 18/16 A2980 RMK SF2SC6 SLP091=
CYYG;2007-08-17 12:00;METAR CYYG 171200Z 30005KT 8SM SCT009 OVC029 18/16 A2981 RMK SF3SC5 SLP094=
CYYG;2007-08-17 13:00;METAR CYYG 171300Z 35006KT 10SM SCT009 BKN014 OVC030 18/14 A2981 RMK SF3SC2SC2 SLP094=
CYYG;2007-08-17 14:00;METAR CYYG 171400Z 36007KT 15SM FEW010 SCT022 OVC047 18/13 A2981 RMK ST2SC2SC4 SLP095=
CYYG;2007-08-17 15:00;METAR CYYG 171500Z 35008KT 15SM BKN032 OVC051 19/13 A2982 RMK SC5SC3 SLP099=
CYYG;2007-08-17 16:00;METAR CYYG 171600Z 36007KT 15SM OVC029 18/10 A2983 RMK SC8 SLP101=
CYYG;2007-08-17 17:00;METAR CYYG 171700Z 35003KT 15SM BKN032 18/10 A2983 RMK SC7 SLP101=
CYYG;2007-08-17 18:00;METAR CYYG 171800Z 36008KT 15SM FEW030 SCT140 BKN230 18/10 A2981 RMK SC2AC2CC2 SLP096=
CYYG;2007-08-17 19:00;METAR CYYG 171900Z 03007KT 15SM FEW140 BKN240 18/10 A2980 RMK AC2CC4 SLP093=
CYYG;2007-08-17 20:00;METAR CYYG 172000Z 36005KT 15SM FEW130 BKN230 18/09 A2981 RMK AC2CI4 SLP096=
CYYG;2007-08-17 21:00;METAR CYYG 172100Z 05006KT 15SM FEW120 SCT230 18/08 A2981 RMK AC1CI2 SLP094=
CYYG;2007-08-17 22:00;METAR CYYG 172200Z 09004KT 15SM FEW120 SCT230 18/09 A2981 RMK AC1CI2 SLP096=
CYYG;2007-08-17 23:00;METAR CYYG 172300Z 00000KT 15SM FEW120 FEW230 16/08 A2982 RMK AC1CI1 SLP099=
CYYG;2007-08-18 00:00;METAR CYYG 180000Z 00000KT 15SM FEW120 FEW230 15/08 A2983 RMK AC1CI0 SLP101=
CYYG;2007-08-18 01:00;METAR CYYG 180100Z 00000KT 15SM FEW110 13/09 A2983 RMK AC2 SLP101=
CYYG;2007-08-18 02:00;METAR CYYG 180200Z 00000KT 15SM FEW100 12/09 A2983 RMK AC2 SLP101=
CYYG;2007-08-18 03:00;METAR CYYG 180300Z 00000KT 15SM SCT085 13/10 A2982 RMK AC4 SLP097=
CYYG;2007-08-18 04:00;METAR CYYG 180400Z 00000KT 15SM FEW082 FEW100 13/10 A2980 RMK AC1AC1 SLP093=
CYYG;2007-08-18 05:00;METAR CYYG 180500Z 00000KT 15SM FEW084 12/10 A2979 RMK AC1 SLP087=
CYYG;2007-08-18 06:00;METAR CYYG 180600Z 00000KT 15SM FEW090 13/10 A2976 RMK AC2 SLP079=
CYYG;2007-08-18 07:00;METAR CYYG 180700Z 00000KT 15SM BKN090 BKN200 14/11 A2976 RMK AC6CC1 SLP079=
CYYG;2007-08-18 08:00;METAR CYYG 180800Z 13005KT 15SM FEW032 BKN086 OVC120 14/11 A2974 RMK SC2AC4AC2 SLP073=
CYYG;2007-08-18 08:39;SPECI CYYG 180839Z 00000KT 15SM TS BKN029 BKN080 14/ RMK SC6AC2 CB EMBD=
CYYG;2007-08-18 09:00;METAR CYYG 180900Z 08003KT 15SM BKN031 BKN071 14/12 A2972 RETS RMK SC5AC2 CB ASOCTD SLP066=
CYYG;2007-08-18 09:11;SPECI CYYG 180911Z 08004KT 15SM -SHRA SCT030 BKN073 14/ RMK SC4AC3 ACC ASOCTD=
CYYG;2007-08-18 10:00;METAR CYYG 181000Z 01003KT 4SM -SHRA BR SCT024 OVC056 14/11 A2972 RMK SC4SC4 VIS HIER N SLP065=
CYYG;2007-08-18 11:00;METAR CYYG 181100Z 07010G16KT 3SM SHRA BR BKN040 OVC080 13/11 A2971 RMK SC6AC2 VIS W-NW 10 SLP063=
CYYG;2007-08-18 11:39;SPECI CYYG 181139Z 05004KT 10SM -SHRA FEW005 OVC019 14/ RERA RMK SF1SC7=
CYYG;2007-08-18 12:00;METAR CYYG 181200Z 04008KT 6SM -SHRA BR FEW005 OVC017 14/12 A2971 RERA RMK SF1SC7 /R10/ SLP062=
CYYG;2007-08-18 12:48;SPECI CYYG 181248Z 07006G16KT 6SM SHRA BR BKN003 BKN009 OVC017 14/ RMK SF6SF1SC2=
CYYG;2007-08-18 13:00;METAR CYYG 181300Z 05006KT 6SM SHRA BR BKN003 BKN009 OVC062 14/13 A2968 RMK SF5SF2SC2 SLP051=
CYYG;2007-08-18 13:48;SPECI CYYG 181348Z 06007KT 15SM OVC003 15/ RERA RMK SF8=
CYYG;2007-08-18 14:00;METAR CYYG 181400Z 06008KT 15SM OVC003 15/13 A2967 RERA RMK SF8 SLP049=
CYYG;2007-08-18 14:36;SPECI CYYG 181436Z 07006KT 15SM -SHRA BKN004 OVC068 15/ RMK SF6AC2=
CYYG;2007-08-18 15:00;METAR CYYG 181500Z 05006KT 10SM -SHRA BKN003 OVC068 15/13 A2965 RMK SF7AC1 SLP042=
CYYG;2007-08-18 15:12;SPECI CYYG 181512Z 08002KT 10SM -SHRA SCT005 BKN012 OVC060 15/ RMK SF4SC2SC2=
CYYG;2007-08-18 15:48;SPECI CYYG 181548Z 00000KT 10SM -SHRA BKN004 OVC060 16/ RMK SF5SC3=
CYYG;2007-08-18 16:00;METAR CYYG 181600Z 00000KT 8SM -SHRA BKN004 OVC055 16/14 A2963 RMK SF5SC3 SLP034=
CYYG;2007-08-18 17:00;METAR CYYG 181700Z 00000KT 15SM FEW008 BKN014TCU BKN055 18/14 A2959 RMK SF2TCU3SC2 SLP022=
CYYG;2007-08-18 17:41;SPECI CYYG 181741Z 28005KT 15SM -SHRA FEW008 BKN014TCU OVC040 17/ RMK SF1TCU4SC3 VIS SW-N 3=
CYYG;2007-08-18 18:00;METAR CYYG 181800Z 31006KT 4SM -SHRA BR FEW008 BKN014TCU OVC038 16/14 A2958 RMK SF1TCU4SC3 SLP018=
CYYG;2007-08-18 18:36;SPECI CYYG 181836Z 34007KT 5SM -SHRA BR BKN004 OVC030 16/ RMK SF6SC2=
CYYG;2007-08-18 19:00;METAR CYYG 181900Z 34008KT 10SM -SHRA BKN003 BKN009 OVC030 15/13 A2955 RMK SF5SF2SC2 SLP009=
CYYG;2007-08-18 20:00;METAR CYYG 182000Z 36008G18KT 5SM -SHRA BR OVC005 14/11 A2957 RMK SF8 SLP013=
CYYG;2007-08-18 20:13;SPECI CYYG 182013Z 35014G20KT 5SM SHRA BR SCT005 OVC044 13/ RMK SF3SC5=
CYYG;2007-08-18 20:35;SPECI CYYG 182035Z 36013G20KT 4SM SHRA BR BKN007 OVC027 13/ RMK SF6SC2=
CYYG;2007-08-18 21:00;METAR CYYG 182100Z 01017KT 5SM SHRA BR OVC006 13/11 A2958 RMK SF8 SLP016=
CYYG;2007-08-18 21:39;SPECI CYYG 182139Z 35014G22KT 6SM SHRA BR FEW006 OVC026 12/ RMK SF2SC6=
CYYG;2007-08-18 22:00;METAR CYYG 182200Z 36014G21KT 10SM SHRA FEW006 SCT026 BKN069 12/10 A2960 RMK SF2SC2AC4 /R10/ SLP026=
CYYG;2007-08-18 22:09;SPECI CYYG 182209Z 36015KT 10SM -SHRA BKN013 BKN069 12/ RERA RMK SC6AC2=
CYYG;2007-08-18 23:00;METAR CYYG 182300Z 34009G17KT 10SM -SHRA SCT011 BKN021 BKN062 12/10 A2964 RMK SC3SC3SC1 SLP037=
CYYG;2007-08-18 23:24;SPECI CYYG 182324Z 34009KT 15SM FEW014 SCT028 BKN048 BKN080 13/ RMK SC2SC2SC2AC2=
CYYG;2007-08-19 00:00;METAR CYYG 190000Z 33010KT 15SM FEW014 BKN028 BKN080 13/11 A2968 RMK SC2SC2AC2 SLP051=
CYYG;2007-08-19 01:00;METAR CYYG 190100Z 28007KT 15SM SCT030 BKN055 13/10 A2972 RMK SC3SC4 SLP064=
CYYG;2007-08-19 01:44;SPECI CYYG 190144Z 28006KT 10SM -SHRA SCT018 BKN028 OVC062 13/ RMK SC3SC2SC2=
CYYG;2007-08-19 02:00;METAR CYYG 190200Z 28006KT 15SM -SHRA SCT020 BKN032 OVC081 13/10 A2974 RMK SC3SC2AC2 SLP071=
CYYG;2007-08-19 03:00;METAR CYYG 190300Z 27005KT 15SM BKN028 BKN084 13/10 A2974 RMK SC5AC2 SLP073=
CYYG;2007-08-19 04:00;METAR CYYG 190400Z 26004KT 15SM SCT049 BKN120 13/10 A2975 RMK SC3AC2 SLP075=
CYYG;2007-08-19 05:00;METAR CYYG 190500Z 27006KT 15SM FEW090 SCT140 13/11 A2975 RMK AC2AC2 SLP076=
CYYG;2007-08-19 06:00;METAR CYYG 190600Z 28010KT 15SM FEW087 13/10 A2976 RMK AC2 SLP078=
CYYG;2007-08-19 07:00;METAR CYYG 190700Z 27009KT 15SM FEW090 12/09 A2979 RMK AC1 SLP087=
CYYG;2007-08-19 08:00;METAR CYYG 190800Z 27008KT 15SM FEW090 12/07 A2981 RMK AC1 SLP095=
CYYG;2007-08-19 09:00;METAR CYYG 190900Z 28010KT 15SM SCT090 BKN190 12/09 A2982 RMK AC3CI2 SLP100=
CYYG;2007-08-19 10:00;METAR CYYG 191000Z 27010G18KT 15SM FEW030 SCT081 BKN210 12/08 A2984 RMK SC1AC2CI2 SLP106=
CYYG;2007-08-19 11:00;METAR CYYG 191100Z 27010KT 15SM FEW010 FEW080 BKN210 12/09 A2986 RMK SC2AC1CI4 SLP112=
CYYG;2007-08-19 12:00;METAR CYYG 191200Z 27011KT 15SM BKN019 BKN210 13/09 A2986 RMK SC6CI1 SLP113=
CYYG;2007-08-19 13:00;METAR CYYG 191300Z 28013KT 15SM BKN022 13/08 A2987 RMK SC7 SLP114=
CYYG;2007-08-19 14:00;METAR CYYG 191400Z 26009G16KT 15SM BKN024 14/08 A2988 RMK SC7 SLP119=
CYYG;2007-08-19 15:00;METAR CYYG 191500Z 25012KT 15SM BKN025 14/08 A2988 RMK SC6 SLP120=
CYYG;2007-08-19 16:00;METAR CYYG 191600Z 27012KT 15SM SCT030 15/08 A2988 RMK SC3 SLP119=
CYYG;2007-08-19 17:00;METAR CYYG 191700Z 27013KT 15SM SCT037 15/07 A2988 RMK CU3 SLP118=
CYYG;2007-08-19 18:00;METAR CYYG 191800Z 28012G19KT 15SM BKN045 16/06 A2988 RMK CU6 MDT CU ASOCTD SLP120=
CYYG;2007-08-19 19:00;METAR CYYG 191900Z 26010G15KT 15SM VCSH SCT055TCU BKN300 16/06 A2988 RMK TCU4CI0 CB DIST W SLP119=
CYYG;2007-08-19 19:47;SPECI CYYG 191947Z 27012G17KT 15SM -TSRA BKN045CB BKN300 15/ RMK CB5CI2 LTGCG W=
CYYG;2007-08-19 20:00;METAR CYYG 192000Z 28010G17KT 15SM -TSRA BKN045CB BKN210 14/08 A2989 RMK CB6CI1 CB ALQDS OCNL LTGIC SW SLP122=
CYYG;2007-08-19 20:29;SPECI CYYG 192029Z 24010KT 15SM -TSRA +FC BKN045CB BKN210 13/ RMK CB5CI2 CB ALQDS WATERSPOUT 15 W=
CYYG;2007-08-19 20:39;SPECI CYYG 192039Z 24006KT 15SM -TSRA BKN045CB BKN210 13/ REFC RMK CB5CI2=
CYYG;2007-08-19 21:07;SPECI CYYG 192107Z 34006G22KT 15SM TS BKN045CB BKN210 09/ RERAGR RMK CB5CI2 CB N-SE OCNL LTGCC=
CYYG;2007-08-19 21:30;SPECI CYYG 192130Z 32005KT 15SM FEW045CB BKN210 12/ RETSRAGR RMK CB2CI1 CB DIST NE-S MOVG E=
CYYG;2007-08-19 22:00;METAR CYYG 192200Z CCA 00000KT 15SM FEW030 FEW045CB SCT210 12/09 A2992 RETSRAGR RMK SC1CB2CI0 CB DIST NE-S MOVG E SLP133=
CYYG;2007-08-19 23:00;METAR CYYG 192300Z CCA 26006KT 15SM VCSH FEW030 BKN045 BKN200 12/07 A2993 RMK SC1SC5CI1 CB ASOCTD LTGCG DIST SE VIS W 10 SLP136=
CYYG;2007-08-20 00:00;METAR CYYG 200000Z 25005KT 15SM VCSH FEW030 BKN045 BKN200 11/07 A2993 RMK SC1SC5CI1 CB DIST SE GVG LTGCG SLP137=
CYYG;2007-08-20 01:00;METAR CYYG 200100Z 25004KT 15SM OVC045 11/07 A2994 RMK SC7 SLP141=
CYYG;2007-08-20 02:00;METAR CYYG 200200Z 26004KT 15SM OVC045 11/08 A2994 RMK SC8 SLP140=
CYYG;2007-08-20 02:08;SPECI CYYG 200208Z 26006KT 15SM -SHRA OVC045 11/ RMK SC8=
CYYG;2007-08-20 03:00;METAR CYYG 200300Z 27008KT 15SM BKN045 12/08 A2994 RMK SC7 SLP139=
CYYG;2007-08-20 04:00;METAR CYYG 200400Z 27008KT 15SM BKN045 12/08 A2995 RMK SC7 SLP142=
CYYG;2007-08-20 05:00;METAR CYYG 200500Z 27009KT 15SM FEW045 12/08 A2995 RMK SC2 SLP141=
CYYG;2007-08-20 06:00;METAR CYYG 200600Z 28007KT 15SM SKC 12/09 A2995 RMK SLP141=
CYYG;2007-08-20 07:00;METAR CYYG 200700Z 28005KT 15SM SKC 11/09 A2996 RMK SLP145=
CYYG;2007-08-20 08:00;METAR CYYG 200800Z 24007KT 15SM FEW250 11/09 A2997 RMK CI1 SLP150=
CYYG;2007-08-20 09:00;METAR CYYG 200900Z 25008KT 15SM FEW025 FEW250 11/09 A2999 RMK SC1CI1 SLP158=
CYYG;2007-08-20 10:00;METAR CYYG 201000Z 25007KT 15SM FEW025 FEW250 11/09 A3001 RMK SC1CI1 SLP165=
CYYG;2007-08-20 11:00;METAR CYYG 201100Z 27007KT 15SM FEW025 FEW250 12/10 A3003 RMK SC1CI1 SLP171=
CYYG;2007-08-20 12:00;METAR CYYG 201200Z 29009G16KT 15SM FEW018 14/11 A3004 RMK CF2 SLP175=
CYYG;2007-08-20 13:00;METAR CYYG 201300Z 28009KT 15SM BKN020 14/10 A3007 RMK SC6 SLP183=
CYYG;2007-08-20 14:00;METAR CYYG 201400Z 32013KT 15SM BKN020 14/08 A3008 RMK SC6 SLP187=
CYYG;2007-08-20 15:00;METAR CYYG 201500Z 32011G18KT 15SM BKN040 15/08 A3009 RMK SC6 SLP191=
CYYG;2007-08-20 16:00;METAR CYYG 201600Z 32010KT 15SM SCT040 16/09 A3010 RMK SC4 SLP194=
CYYG;2007-08-20 17:00;METAR CYYG 201700Z 32009G15KT 15SM SCT030 17/11 A3011 RMK SC3 SLP197=
CYYG;2007-08-20 18:00;METAR CYYG 201800Z 35010G15KT 15SM FEW030 16/10 A3012 RMK SC2 SLP201=
CYYG;2007-08-20 19:00;METAR CYYG 201900Z 31007KT 15SM FEW030 16/10 A3013 RMK SC2 SLP205=
CYYG;2007-08-20 20:00;METAR CYYG 202000Z 35007KT 15SM FEW030 17/09 A3014 RMK SC1 SLP206=
CYYG;2007-08-20 21:00;METAR CYYG 202100Z 34005KT 15SM FEW030 17/09 A3015 RMK CU1 SLP210=
CYYG;2007-08-20 22:00;METAR CYYG 202200Z 00000KT 15SM FEW030 FEW250 16/09 A3015 RMK CU1CI1 TR CU/CI SLP212=
CYYG;2007-08-20 23:00;METAR CYYG 202300Z 00000KT 15SM FEW030 FEW250 16/09 A3016 RMK SC1CI1 SLP214=
CYYG;2007-08-21 00:00;METAR CYYG NIL=
CYYG;2007-08-21 01:00;METAR CYYG 210100Z 23004KT 15SM FEW030 SCT070 14/11 A3018 RMK SC1AC3 SLP220=
CYYG;2007-08-21 02:00;METAR CYYG 210200Z 00000KT 15SM FEW090 FEW140 SCT250 13/11 A3018 RMK AC2AC1CI0 SLP221=
CYYG;2007-08-21 03:00;METAR CYYG 210300Z 22004KT 15SM SCT088 BKN250 13/11 A3018 RMK AC4CI0 SLP221=
CYYG;2007-08-21 04:00;METAR CYYG 210400Z 00000KT 15SM BKN090 13/11 A3018 RMK AC5 SLP222=
CYYG;2007-08-21 05:00;METAR CYYG 210500Z 00000KT 15SM SCT090 13/11 A3018 RMK AC3 SLP221=
CYYG;2007-08-21 06:00;METAR CYYG 210600Z 25005KT 15SM SKC 13/11 A3018 RMK SLP221=
CYYG;2007-08-21 07:00;METAR CYYG 210700Z 25005KT 15SM FEW120 13/11 A3017 RMK AC2 SLP218=
CYYG;2007-08-21 08:00;METAR CYYG 210800Z 28004KT 15SM FEW120 11/10 A3018 RMK AC1 SLP220=
CYYG;2007-08-21 09:00;METAR CYYG 210900Z 28002KT 15SM FEW120 FEW250 11/09 A3018 RMK AC1CI1 SLP221=
CYYG;2007-08-21 10:00;METAR CYYG 211000Z 27005KT 15SM FEW025 FEW250 12/10 A3019 RMK SC1CI1 SLP225=
CYYG;2007-08-21 11:00;METAR CYYG 211100Z 28006KT 15SM FEW030 14/12 A3020 RMK SC1 SLP228=
CYYG;2007-08-21 12:00;METAR CYYG 211200Z 29004KT 15SM FEW030 FEW300 16/12 A3020 RMK SC1CI1 SLP228=
CYYG;2007-08-21 13:00;METAR CYYG 211300Z 29007KT 15SM FEW030 FEW300 18/10 A3020 RMK SC1CI1 SLP228=
CYYG;2007-08-21 14:00;METAR CYYG 211400Z 26008KT 15SM FEW030 19/09 A3020 RMK CU2 SLP229=
CYYG;2007-08-21 15:00;METAR CYYG 211500Z 28008KT 15SM SCT045 18/09 A3021 RMK SC4 SLP230=
CYYG;2007-08-21 16:00;METAR CYYG 211600Z 32010KT 15SM SCT050 20/09 A3020 RMK SC3 SLP227=
CYYG;2007-08-21 17:00;METAR CYYG 211700Z 32015KT 15SM SCT050 20/08 A3019 RMK SC3 SLP225=
CYYG;2007-08-21 18:00;METAR CYYG 211800Z 28012KT 15SM SCT050 20/09 A3019 RMK SC4 SLP224=
CYYG;2007-08-21 19:00;METAR CYYG 211900Z 33010KT 15SM SCT050 20/08 A3018 RMK SC3 SLP222=
CYYG;2007-08-21 20:00;METAR CYYG 212000Z 31008KT 15SM FEW056 FEW250 20/09 A3019 RMK SC2CI1 CU ASOCTD SLP223=
CYYG;2007-08-21 21:00;METAR CYYG 212100Z 01007KT 15SM FEW055 FEW250 19/09 A3019 RMK SC1CI1 SLP223=
CYYG;2007-08-21 22:00;METAR CYYG 212200Z 02005KT 15SM FEW050 18/10 A3019 RMK SC1 SLP223=
CYYG;2007-08-21 23:00;METAR CYYG 212300Z 03004KT 15SM FEW050 FEW250 15/10 A3020 RMK SC1CI0 SLP226=
CYYG;2007-08-22 00:00;METAR CYYG 220000Z 10002KT 15SM FEW050 13/09 A3021 RMK SC1 SLP231=
CYYG;2007-08-22 01:00;METAR CYYG 220100Z 00000KT 15SM FEW068 12/10 A3022 RMK AC2 SLP234=
CYYG;2007-08-22 02:00;METAR CYYG 220200Z 00000KT 15SM BKN072 12/10 A3022 RMK AC6 SLP235=
CYYG;2007-08-22 03:00;METAR CYYG 220300Z 20002KT 15SM BKN074 14/10 A3023 RMK AC5 SLP236=
CYYG;2007-08-22 04:00;METAR CYYG 220400Z 00000KT 15SM BKN072 10/10 A3022 RMK AC5 SLP235=
CYYG;2007-08-22 05:00;METAR CYYG 220500Z 35002KT 15SM FEW070 10/09 A3023 RMK AC2 SLP237=
CYYG;2007-08-22 06:00;METAR CYYG 220600Z 36002KT 15SM BKN068 09/08 A3022 RMK AC6 SLP235=
CYYG;2007-08-22 07:00;METAR CYYG 220700Z 18002KT 15SM BKN066 11/09 A3023 RMK AC6 SLP236=
CYYG;2007-08-22 08:00;METAR CYYG 220800Z 18002KT 15SM BKN063 08/08 A3023 RMK SC6 SLP236=
CYYG;2007-08-22 09:00;METAR CYYG 220900Z 00000KT 15SM SCT059 08/08 A3023 RMK SC4 SLP237=
CYYG;2007-08-22 10:00;METAR CYYG 221000Z 33004KT 15SM BKN064 10/09 A3024 RMK SC6 SLP242=
CYYG;2007-08-22 11:00;METAR CYYG 221100Z 36002KT 15SM FEW060 BKN300 14/11 A3025 RMK SC1CI0 CONTRAILS SLP245=
CYYG;2007-08-22 12:00;METAR CYYG 221200Z 34002KT 15SM FEW015 FEW060 SCT300 16/10 A3025 RMK CU1SC1CI1 SLP245=
CYYG;2007-08-22 13:00;METAR CYYG 221300Z 01003KT 15SM FEW015 FEW060 BKN270 18/08 A3026 RMK CU1SC1CI1 CU OVR WTR SLP249=
CYYG;2007-08-22 14:00;METAR CYYG 221400Z 36006KT 15SM FEW020 BKN270 18/08 A3028 RMK CU1CI2 SLP256=
CYYG;2007-08-22 15:00;METAR CYYG 221500Z 36005KT 15SM FEW025 BKN270 19/08 A3029 RMK CU1CI1 SLP258=
CYYG;2007-08-22 16:00;METAR CYYG 221600Z 02008KT 15SM FEW035 BKN270 19/07 A3028 RMK CU1CI2 SLP255=
CYYG;2007-08-22 17:00;METAR CYYG 221700Z 03008KT 15SM FEW040 BKN270 20/11 A3028 RMK CU2CI1 SLP253=
CYYG;2007-08-22 18:00;METAR CYYG 221800Z 03008KT 15SM FEW040 BKN270 19/08 A3027 RMK CU1CI2 SLP251=
CYYG;2007-08-22 19:00;METAR CYYG 221900Z 02008KT 15SM FEW045 SCT270 19/08 A3026 RMK CU1CI1 SLP247=
CYYG;2007-08-22 20:00;METAR CYYG 222000Z 01008KT 15SM FEW045 SCT270 18/09 A3026 RMK CU1CI1 SLP248=
CYYG;2007-08-22 21:00;METAR CYYG 222100Z 02008KT 15SM FEW045 FEW270 17/08 A3026 RMK CU1CI0 SLP247=
CYYG;2007-08-22 22:00;METAR CYYG 222200Z 02007KT 15SM FEW040 FEW270 16/09 A3027 RMK CU1CI1 SLP251=
CYYG;2007-08-22 23:00;METAR CYYG 222300Z 02004KT 15SM FEW100 FEW270 14/10 A3027 RMK AC1CI1 SLP252=
CYYG;2007-08-23 00:00;METAR CYYG 230000Z 05003KT 15SM FEW270 12/10 A3028 RMK CI0 SLP254=
CYYG;2007-08-23 01:00;METAR CYYG 230100Z 04003KT 15SM SKC 10/09 A3028 RMK SLP253=
CYYG;2007-08-23 02:00;METAR CYYG 230200Z 00000KT 15SM FEW300 11/09 A3028 RMK CI0 SLP256=
CYYG;2007-08-23 03:00;METAR CYYG 230300Z 00000KT 15SM FEW300 09/08 A3029 RMK CI0 SLP259=
CYYG;2007-08-23 04:00;METAR CYYG 230400Z 08002KT 15SM FEW300 08/07 A3029 RMK CI0 SLP259=
CYYG;2007-08-23 05:00;METAR CYYG 230500Z 00000KT 15SM FEW300 07/07 A3029 RMK CI0 SLP259=
CYYG;2007-08-23 06:00;METAR CYYG 230600Z 04002KT 15SM MIFG SKC 06/05 A3028 RMK SLP256=
CYYG;2007-08-23 07:00;METAR CYYG 230700Z 00000KT 15SM MIFG SKC 06/06 A3028 RMK SLP254=
CYYG;2007-08-23 07:53;SPECI CYYG 230753Z 17003KT 1/4SM R03/1400VP6000FT/D FG SKC 08/ RMK FG2=
CYYG;2007-08-23 08:00;METAR CYYG 230800Z 17004KT 1/8SM R03/1200VP6000FT/D FG VV001 09/07 A3028 RMK FG8 SLP255=
CYYG;2007-08-23 08:06;SPECI CYYG 230806Z 00000KT 1/4SM R03/0900V1400FT/N FG SKC 08/ RMK FG4=
CYYG;2007-08-23 08:20;SPECI CYYG 230820Z 00000KT 15SM MIFG SKC 07/=
CYYG;2007-08-23 09:00;METAR CYYG 230900Z 00000KT 15SM MIFG FEW300 06/05 A3028 RMK CI0 SLP255=
CYYG;2007-08-23 10:00;METAR CYYG 231000Z 00000KT 15SM MIFG FEW015 SCT300 08/07 A3030 RMK SC1CI2 SLP260=
CYYG;2007-08-23 11:00;METAR CYYG 231100Z 00000KT 15SM MIFG SCT300 13/12 A3031 RMK CI2 SLP263=
CYYG;2007-08-23 12:00;METAR CYYG 231200Z 16003KT 15SM SCT300 15/13 A3030 RMK CI2 SLP262=
CYYG;2007-08-23 13:00;METAR CYYG 231300Z 16004KT 15SM FEW030 BKN300 17/12 A3031 RMK SC1CI2 SLP263=
CYYG;2007-08-23 14:00;METAR CYYG 231400Z 15006KT 15SM FEW030 BKN300 18/08 A3030 RMK SC1CI1 SLP261=
CYYG;2007-08-23 15:00;METAR CYYG 231500Z 17005KT 15SM FEW030 BKN300 19/09 A3029 RMK SC1CI1 SLP259=
CYYG;2007-08-23 16:00;METAR CYYG 231600Z 19007KT 15SM FEW030 BKN300 20/09 A3028 RMK SC1CI2 SLP254=
CYYG;2007-08-23 17:00;METAR CYYG 231700Z 20007KT 15SM FEW030 BKN300 20/05 A3026 RMK SC1CI2 SLP247=
CYYG;2007-08-23 18:00;METAR CYYG 231800Z 20009KT 15SM FEW030 BKN300 19/09 A3024 RMK SC1CI3 SLP240=
CYYG;2007-08-23 19:00;METAR CYYG 231900Z 19004KT 15SM SCT200 BKN300 20/10 A3023 RMK CC2CS3 SLP236=
CYYG;2007-08-23 20:00;METAR CYYG 232000Z 18005KT 15SM SCT200 BKN300 20/09 A3021 RMK CC2CS3 SLP231=
CYYG;2007-08-23 21:00;METAR CYYG 232100Z 16007KT 15SM FEW220 BKN300 19/10 A3019 RMK CI1CS3 SLP225=
CYYG;2007-08-23 22:00;METAR CYYG 232200Z 17005KT 15SM SCT220 BKN300 19/11 A3020 RMK CC2CS2 SLP227=
CYYG;2007-08-23 23:00;METAR CYYG 232300Z 16006KT 15SM BKN190 OVC300 18/11 A3019 RMK AC6CI2 SLP224=
CYYG;2007-08-24 00:00;METAR CYYG 240000Z 15004KT 15SM BKN190 OVC300 17/11 A3020 RMK AC6CI1 SLP228=
CYYG;2007-08-24 01:00;METAR CYYG 240100Z 17003KT 15SM BKN110 OVC190 17/13 A3020 RMK AC6AC2 SLP226=
CYYG;2007-08-24 02:00;METAR CYYG 240200Z 21009G15KT 15SM OVC100 18/11 A3020 RMK AC8 SLP226=
CYYG;2007-08-24 03:00;METAR CYYG 240300Z 21008KT 15SM OVC094 17/11 A3020 RMK AC8 SLP225=
CYYG;2007-08-24 04:00;METAR CYYG 240400Z 21010KT 15SM BKN094 OVC120 17/11 A3019 RMK AC6AC2 SLP224=
CYYG;2007-08-24 05:00;METAR CYYG 240500Z 20009KT 15SM BKN068 OVC090 17/09 A3018 RMK AC6AC2 SLP221=
CYYG;2007-08-24 06:00;METAR CYYG 240600Z 21009KT 15SM OVC065 17/12 A3017 RMK SC8 SLP216=
CYYG;2007-08-24 07:00;METAR CYYG 240700Z 20011KT 15SM BKN060 OVC180 16/12 A3014 RMK SC6AC2 SLP205=
CYYG;2007-08-24 08:00;METAR CYYG 240800Z 20009G15KT 15SM SCT060 OVC083 16/12 A3013 RMK SC3AC5 SLP203=
CYYG;2007-08-24 09:00;METAR CYYG 240900Z 20010KT 15SM BKN044 BKN060 17/13 A3013 RMK SC6SC2 SLP202=
CYYG;2007-08-24 10:00;METAR CYYG 241000Z 20011KT 15SM BKN031 OVC058 16/13 A3013 RMK SC5SC3 VIS LWR SW-NW SLP202=
CYYG;2007-08-24 10:07;SPECI CYYG 241007Z 21012KT 15SM -RA BKN017 BKN031 16/ RMK SC6SC2 VIS LWR SW-NW=
CYYG;2007-08-24 10:50;SPECI CYYG 241050Z 19011G16KT 2 1/2SM -RA BR SCT005 OVC031 15/ RMK SF3SC5=
CYYG;2007-08-24 11:00;METAR CYYG 241100Z 19011KT 2 1/2SM -RA BR SCT005 OVC031 15/14 A3013 RMK SF3SC5 SLP203=
CYYG;2007-08-24 11:18;SPECI CYYG 241118Z 19011KT 2 1/2SM -RA BR BKN005 OVC035 15/ RMK SF5SC3=
CYYG;2007-08-24 12:00;METAR CYYG 241200Z 18014KT 2 1/2SM -RA BR BKN004 OVC023 16/14 A3012 RMK SF6SC2 SLP199=
CYYG;2007-08-24 13:00;METAR CYYG 241300Z 19012G17KT 2 1/2SM -RA BR BKN004 OVC017 16/15 A3011 RMK SF7SC1 SLP196=
CYYG;2007-08-24 14:00;METAR CYYG 241400Z 20013KT 6SM -RA BR BKN004 BKN015 OVC040 16/15 A3009 RMK SF5SC1SC2 SLP191=
CYYG;2007-08-24 15:00;METAR CYYG 241500Z 18013KT 15SM -RA FEW005 BKN009 OVC020 17/15 A3008 RMK SF2SC4SC2 SLP185=
CYYG;2007-08-24 15:20;SPECI CYYG 241520Z 18011KT 15SM -RA FEW009 BKN015 OVC055 17/ RMK SF1SC5SC2=
CYYG;2007-08-24 16:00;METAR CYYG 241600Z 19015KT 12SM -RA FEW008 BKN025 OVC060 18/15 A3005 RMK SF1SC5SC3 SLP177=
CYYG;2007-08-24 17:00;METAR CYYG 241700Z 19013G18KT 8SM -RA FEW008 OVC020 18/16 A3004 RMK SF2SC6 SLP171=
CYYG;2007-08-24 18:00;METAR CYYG 241800Z 19013KT 5SM -RA BR BKN006 OVC014 18/16 A3001 RMK SF6SC2 SLP164=
CYYG;2007-08-24 18:25;SPECI CYYG 241825Z 18015KT 2 1/2SM RA BR BKN004 OVC020 18/ RMK SF6SC2=
CYYG;2007-08-24 19:00;METAR CYYG 241900Z 18014KT 3SM -RA BR BKN004 OVC020 18/16 A3000 RERA RMK SF7SC1 SLP160=
CYYG;2007-08-24 20:00;METAR CYYG 242000Z 17016KT 3SM -RA BR BKN004 OVC010 18/16 A2997 RERA RMK SF7SC1 SLP150=
CYYG;2007-08-24 20:12;SPECI CYYG 242012Z 18016KT 4SM RA BR BKN003 OVC009 18/ RMK SF7SC1=
CYYG;2007-08-24 21:00;METAR CYYG 242100Z 17015KT 2 1/2SM RA BR BKN003 OVC009 18/16 A2994 RMK SF7SC1 SLP139=
CYYG;2007-08-24 22:00;METAR CYYG 242200Z 17018G25KT 2 1/2SM RA BR BKN004 OVC009 18/16 A2992 RMK SF7SC1 SLP132=
CYYG;2007-08-24 23:00;METAR CYYG 242300Z 18018G25KT 6SM -RA BR BKN004 OVC016 18/16 A2990 RMK SF6SC2 SLP124=
CYYG;2007-08-25 00:00;METAR CYYG 250000Z 17017KT 10SM -RA BKN006 BKN016 OVC033 18/16 A2988 RMK SF5SC2SC2 SLP120=
CYYG;2007-08-25 01:00;METAR CYYG 250100Z 18014G20KT 10SM -RA BKN006 BKN015 OVC030 18/16 A2987 RMK SF5SC2SC2 SLP117=
CYYG;2007-08-25 02:00;METAR CYYG 250200Z 18015KT 4SM RA BR BKN005 OVC015 18/15 A2985 RMK SF6SC2 SLP109=
CYYG;2007-08-25 02:37;SPECI CYYG 250237Z 17013KT 4SM RA BR BKN004 OVC018 18/ RMK SF6SC2=
CYYG;2007-08-25 03:00;METAR CYYG 250300Z 16015KT 4SM -RA BR BKN004 OVC018 18/16 A2983 RMK SF6SC2 SLP101=
CYYG;2007-08-25 04:00;METAR CYYG 250400Z 18011KT 4SM -RA BR BKN004 OVC015 18/16 A2981 RMK SF6SC2 SLP095=
CYYG;2007-08-25 05:00;METAR CYYG 250500Z 19012KT 3SM -RA BR OVC004 18/16 A2979 RMK SF8 SLP090=
CYYG;2007-08-25 06:00;METAR CYYG 250600Z 24009KT 3SM -RA BR OVC004 19/17 A2979 RMK SF8 SLP087=
CYYG;2007-08-25 07:00;METAR CYYG 250700Z 23006KT 1 1/2SM -RA BR OVC002 19/17 A2978 RMK SF8 SLP085=
CYYG;2007-08-25 08:00;METAR CYYG 250800Z 24008KT 4SM -RA BR OVC002 19/17 A2978 RMK SF8 SLP086=
CYYG;2007-08-25 09:00;METAR CYYG 250900Z 23008KT 4SM -RA BR OVC002 19/17 A2977 RMK SF8 SLP082=
CYYG;2007-08-25 10:00;METAR CYYG 251000Z 25004KT 4SM -RA BR OVC003 19/17 A2978 RMK SF8 SLP086=
CYYG;2007-08-25 10:35;SPECI CYYG 251035Z 24008KT 6SM BR OVC004 19/ RMK SF8=
CYYG;2007-08-25 11:00;METAR CYYG 251100Z 23006KT 4SM BR OVC002 19/17 A2980 RMK SF8 SLP091=
CYYG;2007-08-25 12:00;METAR CYYG 251200Z 23008KT 6SM BR OVC004 20/17 A2979 RMK SF8 SLP089=
CYYG;2007-08-25 13:00;METAR CYYG 251300Z 23007KT 6SM BR OVC004 20/17 A2979 RMK SF8 SLP088=
CYYG;2007-08-25 14:00;METAR CYYG 251400Z 23009KT 6SM BR OVC004 20/17 A2979 RMK SF8 SLP088=
CYYG;2007-08-25 14:33;SPECI CYYG 251433Z 25007KT 8SM OVC008 21/ RMK SF8=
CYYG;2007-08-25 15:00;METAR CYYG 251500Z 23008KT 10SM OVC008 21/18 A2978 RMK SF6 SLP085=
CYYG;2007-08-25 15:27;SPECI CYYG 251527Z 23006KT 10SM BKN011 22/ RMK SC6=
CYYG;2007-08-25 16:00;METAR CYYG 251600Z 23009KT 12SM OVC012 23/18 A2977 RMK SC7 SLP079=
CYYG;2007-08-25 17:00;METAR CYYG 251700Z 25007KT 12SM FEW012 BKN240 24/19 A2976 RMK SC2CI2=
CYYG;2007-08-25 17:32;SPECI CYYG 251732Z 26008KT 10SM OVC013 24/ RMK SC6=
CYYG;2007-08-25 18:00;METAR CYYG 251800Z 28008KT 12SM BKN015 BKN240 24/19 A2977 RMK SC5CI1 SLP080=
CYYG;2007-08-25 19:00;METAR CYYG 251900Z 29006KT 15SM FEW015 BKN029 OVC240 25/20 A2977 RMK SC2SC5CI1 SLP079=
CYYG;2007-08-25 20:00;METAR CYYG 252000Z 31004KT 15SM FEW020 BKN030 BKN240 25/20 A2977 RMK SC2SC3CI1 SLP079=
CYYG;2007-08-25 21:00;METAR CYYG 252100Z 31004KT 15SM BKN037 BKN240 25/20 A2977 RMK SC5CI1 SLP079=
CYYG;2007-08-25 22:00;METAR CYYG 252200Z 02005KT 15SM SCT027 BKN240 24/19 A2976 RMK SC3CI2 SLP078=
CYYG;2007-08-25 22:48;SPECI CYYG 252248Z 35006KT 4SM BR SCT027 BKN240 20/ RMK SC3CI2=
CYYG;2007-08-25 23:00;METAR CYYG 252300Z 36003KT 4SM BR SCT027 BKN240 19/17 A2979 RMK SC3CI2 SLP086=
CYYG;2007-08-25 23:25;SPECI CYYG 252325Z 36003KT 3SM BR SCT002 BKN027 BKN240 19/ RMK SF3SC2CI2=
CYYG;2007-08-26 00:00;METAR CYYG 260000Z 01002KT 6SM BR FEW025 BKN200 19/16 A2979 RMK SC2CI3 SLP086=
CYYG;2007-08-26 01:00;METAR CYYG 260100Z 00000KT 10SM FEW025 BKN200 18/17 A2978 RMK SC2CI2 SLP085=
CYYG;2007-08-26 02:00;METAR CYYG 260200Z 21002KT 8SM FEW025 SCT070 BKN200 19/17 A2979 RMK SC1AC3CI2 SLP086=
CYYG;2007-08-26 03:00;METAR CYYG 260300Z 00000KT 15SM BKN080 BKN200 19/16 A2978 RMK AC5CI2 SLP083=
CYYG;2007-08-26 04:00;METAR CYYG 260400Z 17004KT 10SM SCT080 BKN180 19/17 A2976 RMK AC4CI2 SLP078=
CYYG;2007-08-26 05:00;METAR CYYG 260500Z 18006KT 15SM FEW080 BKN180 20/18 A2974 RMK AC2AC2 SLP071=
CYYG;2007-08-26 06:00;METAR CYYG 260600Z 17007KT 15SM FEW080 BKN180 20/17 A2972 RMK AC2AC2 SLP063=
CYYG;2007-08-26 07:00;METAR CYYG 260700Z 18007KT 15SM FEW040 SCT140 BKN220 21/18 A2971 RMK SC2AC2CI1 SLP060=
CYYG;2007-08-26 08:00;METAR CYYG 260800Z 23005KT 15SM SCT009 SCT040 BKN140 21/18 A2973 RMK SF3SC1AC2 SLP067=
CYYG;2007-08-26 08:52;SPECI CYYG 260852Z 23009KT 12SM BKN007 BKN040 21/ RMK SF6SC2=
CYYG;2007-08-26 09:00;METAR CYYG 260900Z 23007KT 8SM OVC008 21/17 A2972 RMK SF8 SLP065=
CYYG;2007-08-26 09:45;SPECI CYYG 260945Z 23011KT 3SM BR OVC005 21/ RMK SF8=
CYYG;2007-08-26 10:00;METAR CYYG 261000Z 24010G16KT 3SM BR OVC004 21/18 A2974 RMK SF8 SLP071=
CYYG;2007-08-26 11:00;METAR CYYG 261100Z 22008KT 3SM BR OVC004 21/19 A2975 RMK SF8 SLP075=
CYYG;2007-08-26 12:00;METAR CYYG 261200Z 23010G15KT 3SM BR BKN005 OVC140 22/19 A2977 RMK SF6AC2 SLP079=
CYYG;2007-08-26 13:00;METAR CYYG 261300Z 24010KT 3SM HZ BKN005 BKN250 22/19 A2977 RMK SF5CI1 SLP079=
CYYG;2007-08-26 13:25;SPECI CYYG 261325Z 23010KT 3SM HZ SCT006 BKN190 22/ RMK SF4CI2 CC ASOCTD=
CYYG;2007-08-26 13:50;SPECI CYYG 261350Z 23011KT 3SM HZ BKN007 BKN200 23/ RMK SF5CI1=
CYYG;2007-08-26 14:00;METAR CYYG 261400Z 24011KT 3SM HZ SCT008 BKN200 23/19 A2977 RMK SF4CI2 SLP079=
CYYG;2007-08-26 15:00;METAR CYYG 261500Z 24012KT 5SM HZ FEW008 SCT140 BKN250 24/19 A2975 RMK SF2AC2CI2 SLP075=
CYYG;2007-08-26 16:00;METAR CYYG 261600Z 23009G15KT 6SM HZ FEW140 BKN200 25/20 A2975 RMK AC2CI2 SLP074=
CYYG;2007-08-26 17:00;METAR CYYG 261700Z 26011KT 10SM FEW040 SCT200 25/19 A2975 RMK CU1CI2=
CYYG;2007-08-26 18:00;METAR CYYG 261800Z 23011KT 10SM FEW040 SCT200 26/20 A2975 RMK CU1CI2=
CYYG;2007-08-26 19:00;METAR CYYG 261900Z 24009KT 12SM FEW040 SCT200 26/20 A2976 RMK CU1CI2=
CYYG;2007-08-26 20:00;METAR CYYG 262000Z 24009KT 15SM FEW040 SCT200 26/19 A2976 RMK CU1CI2 SLP078=
CYYG;2007-08-26 21:00;METAR CYYG 262100Z 23009KT 15SM FEW040TCU SCT200 26/19 A2977 RMK TCU1CI2 SLP080=
CYYG;2007-08-26 22:00;METAR CYYG 262200Z 26007KT 12SM VCSH FEW045TCU FEW140 SCT250 25/19 A2978 RMK TCU1AC1CI1 SLP085=
CYYG;2007-08-26 22:46;SPECI CYYG 262246Z 35007KT 15SM VCSH BKN020 BKN050TCU OVC250 21/ RMK SC5TCU2CI1=
CYYG;2007-08-26 23:00;METAR CYYG 262300Z 34007KT 15SM BKN020 BKN050TCU OVC200 21/16 A2983 RMK SC5TCU1CI2 SLP101=
CYYG;2007-08-27 00:00;METAR CYYG 270000Z 35005KT 15SM FEW020 SCT045 BKN200 20/16 A2986 RMK SC2SC2CI1 SLP112=
CYYG;2007-08-27 01:00;METAR CYYG 270100Z 36002KT 15SM FEW200 19/15 A2987 RMK CI2 SLP116=
CYYG;2007-08-27 02:00;METAR CYYG 270200Z 30005KT 15SM SCT200 19/15 A2989 RMK CI3 SLP121=
CYYG;2007-08-27 03:00;METAR CYYG 270300Z 28005KT 15SM BKN220 19/15 A2991 RMK CI4 SLP127=
CYYG;2007-08-27 04:00;METAR CYYG 270400Z 28005KT 15SM BKN220 19/15 A2992 RMK CI4 SLP131=
CYYG;2007-08-27 05:00;METAR CYYG 270500Z 30008KT 15SM BKN240 19/14 A2993 RMK CI4 SLP133=
CYYG;2007-08-27 06:00;METAR CYYG 270600Z 29006KT 15SM BKN240 18/14 A2994 RMK CI3 SLP139=
CYYG;2007-08-27 07:00;METAR CYYG 270700Z 31006KT 15SM BKN240 17/14 A2995 RMK CI3 SLP142=
CYYG;2007-08-27 08:00;METAR CYYG 270800Z 31006KT 15SM FEW100 BKN240 17/14 A2998 RMK AC1CI2 SLP150=
CYYG;2007-08-27 09:00;METAR CYYG 270900Z 32004KT 15SM BKN240 16/13 A2999 RMK CI2 SLP156=
CYYG;2007-08-27 10:00;METAR CYYG 271000Z 30004KT 15SM SCT240 16/13 A3002 RMK CI2 SLP165=
CYYG;2007-08-27 11:00;METAR CYYG 271100Z 31005KT 15SM FEW240 17/14 A3004 RMK CI2 SLP174=
CYYG;2007-08-27 12:00;METAR CYYG 271200Z 32006KT 15SM FEW240 19/15 A3006 RMK CI2 SLP179=
CYYG;2007-08-27 13:00;METAR CYYG 271300Z 35010KT 15SM FEW030 FEW240 20/13 A3007 RMK CU1CI1 SLP183=
CYYG;2007-08-27 14:00;METAR CYYG 271400Z 34011G16KT 15SM FEW030 FEW240 20/14 A3008 RMK CU1CI1 SLP185=
CYYG;2007-08-27 15:00;METAR CYYG 271500Z 34010G16KT 15SM FEW240 20/12 A3010 RMK CI1 SLP194=
CYYG;2007-08-27 16:00;METAR CYYG 271600Z 34008KT 15SM FEW030 FEW240 20/11 A3011 RMK CU1CI1 SLP197=
CYYG;2007-08-27 17:00;METAR CYYG 271700Z 35009KT 15SM FEW240 20/13 A3011 RMK CI0 SLP197=
CYYG;2007-08-27 18:00;METAR CYYG 271800Z 34007KT 15SM FEW240 21/12 A3010 RMK CI1 SLP192=
CYYG;2007-08-27 19:00;METAR CYYG 271900Z 34006KT 15SM FEW240 21/12 A3009 RMK CI2 SLP190=
CYYG;2007-08-27 20:00;METAR CYYG 272000Z 36005KT 15SM FEW030 FEW240 21/11 A3009 RMK CU1CI1 SLP190=
CYYG;2007-08-27 21:00;METAR CYYG 272100Z 02007KT 15SM FEW030 FEW240 20/11 A3010 RMK CU1CI1 SLP194=
CYYG;2007-08-27 22:00;METAR CYYG 272200Z 00000KT 15SM FEW070 FEW240 19/12 A3010 RMK AC1CI0 SLP194=
CYYG;2007-08-27 23:00;METAR CYYG 272300Z 00000KT 15SM FEW050 SCT300 17/12 A3012 RMK SC1CI1 SLP199=
CYYG;2007-08-28 00:00;METAR CYYG 280000Z 09002KT 15SM FEW050 FEW300 15/11 A3012 RMK SC1CI0 SLP201=
CYYG;2007-08-28 01:00;METAR CYYG 280100Z 00000KT 15SM FEW050 FEW300 13/11 A3012 RMK SC1CI1 SLP201=
CYYG;2007-08-28 02:00;METAR CYYG 280200Z 09002KT 15SM FEW300 13/11 A3012 RMK CI0 SLP200=
CYYG;2007-08-28 03:00;METAR CYYG 280300Z 17002KT 15SM FEW300 15/13 A3012 RMK CI0 SLP201=
CYYG;2007-08-28 04:00;METAR CYYG 280400Z 00000KT 15SM FEW050 FEW300 13/11 A3013 RMK SC1CI0 SLP204=
CYYG;2007-08-28 05:00;METAR CYYG 280500Z 00000KT 15SM FEW050 12/11 A3013 RMK SC2 SLP204=
CYYG;2007-08-28 06:00;METAR CYYG 280600Z 20002KT 15SM FEW058 14/13 A3013 RMK SC2 SLP203=
CYYG;2007-08-28 07:00;METAR CYYG 280700Z 00000KT 15SM FEW058 14/13 A3012 RMK SC1 SLP200=
CYYG;2007-08-28 08:00;METAR CYYG 280800Z 21003KT 15SM MIFG FEW055 SCT300 15/14 A3011 RMK SC1CI1 SLP197=
CYYG;2007-08-28 09:00;METAR CYYG 280900Z 00000KT 15SM MIFG FEW055 SCT300 13/12 A3013 RMK SC1CI1 SLP202=
CYYG;2007-08-28 10:00;METAR CYYG 281000Z 23002KT 15SM MIFG FEW055 BKN300 11/11 A3015 RMK SC1CI1 SLP210=
CYYG;2007-08-28 11:00;METAR CYYG 281100Z 00000KT 15SM FEW055 SCT300 17/16 A3016 RMK SC1CI1 SLP213=
CYYG;2007-08-28 12:00;METAR CYYG 281200Z 32003KT 15SM FEW055 FEW300 19/15 A3017 RMK SC1CI1 SLP217=
CYYG;2007-08-28 13:00;METAR CYYG 281300Z 32004KT 15SM FEW030 FEW300 21/14 A3017 RMK SC1CI1 SLP215=
CYYG;2007-08-28 14:00;METAR CYYG 281400Z 27004KT 15SM FEW030 SCT300 21/11 A3015 RMK SC1CI1 SLP209=
CYYG;2007-08-28 15:00;METAR CYYG 281500Z 29007KT 15SM FEW030 SCT300 23/11 A3014 RMK SC1CI1 SLP206=
CYYG;2007-08-28 16:00;METAR CYYG 281600Z 27006KT 15SM FEW030 SCT300 23/09 A3014 RMK SC1CI1 SLP205=
CYYG;2007-08-28 17:00;METAR CYYG 281700Z 32006KT 15SM FEW030 FEW300 24/12 A3013 RMK SC1CI1 SLP204=
CYYG;2007-08-28 18:00;METAR CYYG 281800Z 19006KT 15SM FEW030 FEW300 24/13 A3011 RMK SC1CI1 SLP197=
CYYG;2007-08-28 19:00;METAR CYYG 281900Z 25006KT 15SM FEW030 FEW300 24/12 A3011 RMK SC1CI1 SLP197=
CYYG;2007-08-28 20:00;METAR CYYG 282000Z 30005KT 15SM FEW300 24/11 A3012 RMK CI1 SLP198=
CYYG;2007-08-28 21:00;METAR CYYG 282100Z 28004KT 15SM FEW300 24/10 A3011 RMK CI1 SLP197=
CYYG;2007-08-28 22:00;METAR CYYG 282200Z 28002KT 15SM SCT300 23/10 A3012 RMK CI1 SLP200=
CYYG;2007-08-28 23:00;METAR CYYG 282300Z 00000KT 15SM SCT300 18/11 A3012 RMK CI1 SLP199=
CYYG;2007-08-29 00:00;METAR CYYG 290000Z 00000KT 15SM SCT300 18/13 A3014 RMK CI1 SLP205=
CYYG;2007-08-29 01:00;METAR CYYG 290100Z 23002KT 15SM BKN300 18/12 A3013 RMK CI1 SLP203=
CYYG;2007-08-29 02:00;METAR CYYG 290200Z 20003KT 15SM OVC300 17/13 A3014 RMK CS7 HALO SLP205=
CYYG;2007-08-29 03:00;METAR CYYG 290300Z 20005KT 15SM BKN300 16/13 A3011 RMK CI2 SLP197=
CYYG;2007-08-29 04:00;METAR CYYG 290400Z 23004KT 15SM BKN300 17/14 A3013 RMK CI3 SLP203=
CYYG;2007-08-29 05:00;METAR CYYG 290500Z 23005KT 15SM BKN300 17/13 A3012 RMK CI2 SLP201=
CYYG;2007-08-29 06:00;METAR CYYG 290600Z 24006KT 15SM BKN300 17/11 A3012 RMK CI2 SLP200=
CYYG;2007-08-29 07:00;METAR CYYG 290700Z 24005KT 15SM BKN300 16/11 A3012 RMK CI2 SLP200=
CYYG;2007-08-29 08:00;METAR CYYG 290800Z 23007KT 15SM BKN300 16/11 A3012 RMK CI2 SLP198=
CYYG;2007-08-29 09:00;METAR CYYG 290900Z 23005KT 15SM FEW210 BKN300 16/11 A3012 RMK CC2CI0 SLP200=
CYYG;2007-08-29 10:00;METAR CYYG 291000Z 23006KT 15SM BKN210 BKN300 16/11 A3012 RMK CC6CI1 SLP201=
CYYG;2007-08-29 11:00;METAR CYYG 291100Z 23007KT 15SM BKN210 BKN300 17/12 A3012 RMK CC5CI2 SLP201=
CYYG;2007-08-29 12:00;METAR CYYG 291200Z 22008KT 15SM FEW210 BKN300 18/12 A3012 RMK CC2CI1 SLP200=
CYYG;2007-08-29 13:00;METAR CYYG 291300Z 23010KT 15SM FEW210 BKN300 19/12 A3012 RMK CC2CI1 SLP198=
CYYG;2007-08-29 14:00;METAR CYYG 291400Z 24008KT 15SM FEW210 SCT300 21/13 A3012 RMK CC1CI1 SLP199=
CYYG;2007-08-29 15:00;METAR CYYG 291500Z 23009KT 15SM SCT300 22/15 A3012 RMK CI2 SLP199=
CYYG;2007-08-29 16:00;METAR CYYG 291600Z 25012KT 15SM FEW030 BKN300 23/14 A3010 RMK CU1CI1 SLP194=
CYYG;2007-08-29 17:00;METAR CYYG 291700Z 24013G19KT 15SM FEW030 SCT300 24/12 A3008 RMK CU1CI1 SLP186=
CYYG;2007-08-29 18:00;METAR CYYG 291800Z 23013G18KT 15SM FEW030 FEW120 SCT300 24/12 A3007 RMK SC1AC1CI1 SLP183=
CYYG;2007-08-29 19:00;METAR CYYG 291900Z 23015KT 15SM FEW030 FEW120 SCT300 24/09 A3005 RMK SC1AC1CI1 SLP177=
CYYG;2007-08-29 20:00;METAR CYYG 292000Z 24015G21KT 15SM FEW030 FEW120 BKN300 24/09 A3004 RMK CU1AC1CI1 SLP174=
CYYG;2007-08-29 21:00;METAR CYYG 292100Z 23011G20KT 15SM FEW030 SCT300 24/10 A3003 RMK CU1CI1 SLP170=
CYYG;2007-08-29 22:00;METAR CYYG 292200Z 24007KT 15SM FEW030 SCT300 23/12 A3003 RMK CU1CI1 SLP168=
CYYG;2007-08-29 23:00;METAR CYYG 292300Z 23006KT 15SM SCT300 21/12 A3003 RMK CI1 SLP168=
CYYG;2007-08-30 00:00;METAR CYYG 300000Z 21008KT 15SM FEW300 20/14 A3004 RMK CI1 SLP171=
CYYG;2007-08-30 01:00;METAR CYYG 300100Z 21012KT 15SM FEW300 20/14 A3004 RMK CI0 SLP173=
CYYG;2007-08-30 02:00;METAR CYYG 300200Z 22010KT 15SM SKC 19/13 A3004 RMK SLP174=
CYYG;2007-08-30 03:00;METAR CYYG 300300Z 21011KT 15SM SKC 18/12 A3004 RMK SLP172=
CYYG;2007-08-30 04:00;METAR CYYG 300400Z 21009KT 15SM SKC 18/13 A3003 RMK SLP170=
CYYG;2007-08-30 05:00;METAR CYYG 300500Z 21010KT 15SM SKC 18/13 A3003 RMK SLP169=
CYYG;2007-08-30 06:00;METAR CYYG 300600Z 21009KT 15SM SKC 18/14 A3002 RMK SLP165=
CYYG;2007-08-30 07:00;METAR CYYG 300700Z 22008KT 15SM SKC 18/14 A3002 RMK SLP165=
CYYG;2007-08-30 08:00;METAR CYYG 300800Z 21007KT 15SM SKC 18/14 A3000 RMK SLP160=
CYYG;2007-08-30 09:00;METAR CYYG 300900Z 21008KT 15SM FEW100 18/14 A3000 RMK AC1 SLP158=
CYYG;2007-08-30 10:00;METAR CYYG 301000Z 22010KT 15SM FEW140 FEW300 18/13 A2999 RMK AC1CI0 SLP157=
CYYG;2007-08-30 11:00;METAR CYYG 301100Z 22011KT 15SM FEW300 19/14 A3000 RMK CI0 SLP160=
CYYG;2007-08-30 12:00;METAR CYYG 301200Z 23011G18KT 15SM FEW012 FEW100 SCT300 19/15 A3000 RMK SC1AC2CI0 SLP159=
CYYG;2007-08-30 12:36;SPECI CYYG 301236Z 22015KT 15SM FEW008 SCT100 BKN300 19/ RMK SF2AC2CI0=
CYYG;2007-08-30 13:00;METAR CYYG 301300Z 22012G18KT 15SM FEW008 SCT300 20/16 A2999 RMK CF2CI1 SLP157=
CYYG;2007-08-30 14:00;METAR CYYG 301400Z CCA 23013G20KT 15SM FEW010 SCT300 22/16 A2999 RMK CU1CI1 SLP157=
CYYG;2007-08-30 15:00;METAR CYYG 301500Z 22015KT 15SM FEW120 SCT300 23/16 A2998 RMK AC1CI1 SLP153=
CYYG;2007-08-30 16:00;METAR CYYG 301600Z 22015KT 15SM FEW100 BKN300 24/16 A2999 RMK AC2CI2 SLP156=
CYYG;2007-08-30 17:00;METAR CYYG 301700Z 23010G17KT 15SM FEW010 BKN080 BKN300 25/16 A2999 RMK CF1AC5CI1 SLP155=
CYYG;2007-08-30 18:00;METAR CYYG 301800Z 23012KT 15SM FEW050TCU SCT080 BKN250 24/15 A2998 RMK TCU2AC2CI1 TCU N-NE SLP153=
CYYG;2007-08-30 19:00;METAR CYYG 301900Z 23011KT 15SM FEW050 SCT100 BKN250 25/14 A2998 RMK SC1AC2CI2 SLP152=
CYYG;2007-08-30 20:00;METAR CYYG 302000Z 25008KT 15SM FEW050 SCT100 BKN250 25/15 A2998 RMK SC1AC2CI1 SLP152=
CYYG;2007-08-30 21:00;METAR CYYG 302100Z 28004KT 15SM FEW040 BKN100 BKN220 24/15 A3000 RMK SC2AC3CI2 SLP158=
CYYG;2007-08-30 22:00;METAR CYYG 302200Z 30005KT 15SM FEW040 BKN100 BKN220 23/14 A3000 RMK SC2AC3CI1 SLP158=
CYYG;2007-08-30 23:00;METAR CYYG 302300Z 27005KT 15SM FEW040 BKN100 BKN220 22/12 A3001 RMK SC2AC3CI2 SLP162=
CYYG;2007-08-31 00:00;METAR CYYG 310000Z 08005KT 15SM FEW060 OVC160 20/16 A3000 RMK SC2AC6 SLP160=
CYYG;2007-08-31 01:00;METAR CYYG 310100Z 14004KT 15SM FEW060 OVC160 19/17 A3000 RMK SC2AC6 SLP158=
CYYG;2007-08-31 02:00;METAR CYYG 310200Z 35003KT 15SM FEW060 BKN160 18/16 A3001 RMK SC2AC2 SLP164=
CYYG;2007-08-31 04:00;METAR CYYG 310400Z 33003KT 15SM SCT070 BKN160 17/15 A3004 RMK AC3AC2 SLP172=
CYYG;2007-08-31 05:00;METAR CYYG 310500Z 00000KT 15SM SCT070 BKN100 BKN160 17/15 A3003 RMK AC3AC2AC2 SLP170=
CYYG;2007-08-31 06:00;METAR CYYG 310600Z 00000KT 15SM OVC092 17/15 A3003 RMK AC8 SLP168=
CYYG;2007-08-31 07:00;METAR CYYG 310700Z 29002KT 15SM FEW034 OVC089 18/15 A3002 RMK SC2AC6 SLP166=
CYYG;2007-08-31 08:00;METAR CYYG 310800Z 14006KT 15SM SCT088 OVC170 17/15 A2998 RMK AC3AC5 SLP153=
CYYG;2007-08-31 09:00;METAR CYYG 310900Z 17008KT 15SM FEW077 BKN100 18/15 A3000 RMK AC2AC5 LTGIC DST N SLP158=
CYYG;2007-08-31 09:42;SPECI CYYG 310942Z 20003KT 15SM -SHRA BKN083 19/ RMK AC7=
CYYG;2007-08-31 10:00;METAR CYYG 311000Z 26005KT 15SM -SHRA BKN080 OVC120 19/15 A3004 RMK AC6AC2 SLP172=
CYYG;2007-08-31 11:00;METAR CYYG 311100Z 00000KT 15SM FEW007 BKN075 OVC140 18/15 A3004 RMK SF2AC3AC2 SLP171=
CYYG;2007-08-31 12:00;METAR CYYG 311200Z 34002KT 15SM FEW008 SCT065 BKN250 19/16 A3004 RMK SF1SC2CI2 SLP173=
CYYG;2007-08-31 13:00;METAR CYYG 311300Z 19006KT 15SM FEW010 SCT075 BKN250 22/16 A3005 RMK CF2AC2CI2 SLP175=
CYYG;2007-08-31 14:00;METAR CYYG 311400Z 24005KT 15SM SCT026 BKN080 BKN250 23/16 A3004 RMK SC3AC2CI2 SLP172=
CYYG;2007-08-31 15:00;METAR CYYG 311500Z 27004KT 15SM SCT032 BKN100 OVC250 23/15 A3003 RMK SC4AC2CI2 SLP170=
CYYG;2007-08-31 16:00;METAR CYYG 311600Z 21006KT 15SM FEW025 SCT150 OVC220 24/17 A3001 RMK SC1AC3CI3 SLP163=
CYYG;2007-08-31 17:00;METAR CYYG 311700Z 23004KT 15SM FEW025 SCT150 OVC250 23/15 A3001 RMK SC1AC3CI3 SLP162=
CYYG;2007-08-31 18:00;METAR CYYG 311800Z 20006KT 15SM FEW050 SCT160 OVC240 23/17 A3001 RMK SC1AC2CS4 SLP161=
CYYG;2007-08-31 19:00;METAR CYYG 311900Z 20004KT 15SM SCT050 BKN150 OVC240 23/17 A3000 RMK SC4AS3CS1 SLP159=
CYYG;2007-08-31 20:00;METAR CYYG 312000Z 20006KT 15SM SCT050 BKN150 OVC240 23/17 A3000 RMK SC3AS3CS2 SLP160=
CYYG;2007-08-31 21:00;METAR CYYG 312100Z 19005KT 15SM FEW050 SCT088 BKN150 OVC240 23/17 A2999 RMK SC2AC2AS2CS2 SLP157=
CYYG;2007-08-31 22:00;METAR CYYG 312200Z 17007KT 15SM FEW030 SCT100 BKN160 OVC250 22/18 A2998 RMK SC2AC2AS2CS2 SLP153=
CYYG;2007-08-31 23:00;METAR CYYG 312300Z 19009KT 15SM FEW030 SCT060 BKN150 BKN220 21/18 A2994 RMK SC1SC2AS2CS1 SLP138=
CYYG;2007-09-01 00:00;METAR CYYG 010000Z 20007KT 15SM FEW030 BKN160 20/18 A2994 RMK SC2AC4 SLP138=
CYYG;2007-09-01 01:00;METAR CYYG 010100Z 18009KT 15SM BKN004 OVC030 20/19 A2994 RMK SF6SC2 CIG RGD SLP140=
CYYG;2007-09-01 02:00;METAR CYYG 010200Z 18009KT 15SM SCT004 OVC021 20/18 A2993 RMK SF4SC4 SLP134=
CYYG;2007-09-01 02:17;SPECI CYYG 010217Z 18011G16KT 15SM -SHRA BKN005 OVC022 20/ RMK SF5SC3=
CYYG;2007-09-01 03:00;METAR CYYG 010300Z 19011G17KT 15SM -SHRA BKN005 OVC060 20/18 A2990 RMK SF6SC2 SLP125=
CYYG;2007-09-01 03:30;SPECI CYYG 010330Z 18007KT 15SM -SHRA SCT005 OVC050 19/ RMK SF3SC5=
CYYG;2007-09-01 04:00;METAR CYYG 010400Z 18005KT 15SM -RA OVC047 19/18 A2988 RMK SC8 SLP118=
CYYG;2007-09-01 05:00;METAR CYYG 010500Z 14006KT 15SM -SHRA SCT006 BKN020 OVC040 19/17 A2984 RMK SF3SC2SC2 SLP103=
CYYG;2007-09-01 06:00;METAR CYYG 010600Z 12004KT 15SM FEW002 SCT007 OVC080 19/18 A2980 RMK SF2SF2AC4 SLP091=
CYYG;2007-09-01 07:00;METAR CYYG 010700Z 32006KT 15SM BKN003 OVC040 18/18 A2977 RMK SF6SC2 SLP082=
CYYG;2007-09-01 08:00;METAR CYYG 010800Z 35010KT 15SM -RA BKN004 OVC020 17/16 A2975 RMK SF6SC2 SLP073=
CYYG;2007-09-01 08:30;SPECI CYYG 010830Z 36013G19KT 8SM -RA OVC003 17/ RMK SF8=
CYYG;2007-09-01 09:00;METAR CYYG 010900Z 01013G20KT 10SM -SHRA OVC004 16/15 A2976 RMK SF8 SLP076=
CYYG;2007-09-01 09:53;SPECI CYYG 010953Z 36015G25KT 3SM -SHRA BR OVC006 15/ RMK SF8=
CYYG;2007-09-01 10:00;METAR CYYG 011000Z 36016G25KT 2SM -RA BR OVC007 15/14 A2977 RMK SF8 SLP082=
CYYG;2007-09-01 10:19;SPECI CYYG 011019Z 36014G21KT 4SM -DZ BR OVC006 15/ RMK SF8=
CYYG;2007-09-01 11:00;METAR CYYG 011100Z 36018G25KT 5SM -DZ BR OVC007 15/13 A2978 RMK SF8 SLP085=
CYYG;2007-09-01 11:13;SPECI CYYG 011113Z 36016G21KT 10SM SCT007 OVC012 15/ RMK SF4SC4=
CYYG;2007-09-01 11:25;SPECI CYYG 011125Z 36013G20KT 10SM -RA BKN010 OVC023 15/ RMK SF6SC2=
CYYG;2007-09-01 11:45;SPECI CYYG 011145Z 36013G20KT 10SM -DZ BKN008 OVC012 15/ RMK SF6SF2=
CYYG;2007-09-01 12:00;METAR CYYG 011200Z 36012G21KT 10SM -DZ BKN008 OVC013 15/13 A2979 RMK SF6SC2 SLP090=
CYYG;2007-09-01 12:43;SPECI CYYG 011243Z 35015G21KT 15SM BKN010 OVC018 15/ RMK SC6SC2 VIS LWR E-SE=
CYYG;2007-09-01 13:00;METAR CYYG 011300Z 35011G20KT 15SM BKN012 OVC023 15/13 A2981 RMK SC6SC2 SLP095=
CYYG;2007-09-01 14:00;METAR CYYG 011400Z 34013G20KT 15SM BKN013 BKN032 16/13 A2982 RMK SC6SC2 SLP100=
CYYG;2007-09-01 15:00;METAR CYYG 011500Z 35015G21KT 15SM OVC011 15/12 A2984 RMK SC8 SLP104=
CYYG;2007-09-01 16:00;METAR CYYG 011600Z 35010G21KT 15SM OVC015 15/12 A2985 RMK SC8 SLP107=
CYYG;2007-09-01 17:00;METAR CYYG 011700Z 35015G22KT 15SM BKN019 15/11 A2987 RMK SC7 SLP115=
CYYG;2007-09-01 18:00;METAR CYYG 011800Z 34015G21KT 15SM BKN018 17/12 A2988 RMK SC6 SLP118=
CYYG;2007-09-01 19:00;METAR CYYG 011900Z 34018G25KT 15SM BKN017 16/12 A2989 RMK SC6 SLP123=
CYYG;2007-09-01 20:00;METAR CYYG 012000Z 36016G21KT 15SM SCT020 16/11 A2990 RMK CU4 SLP127=
CYYG;2007-09-01 21:00;METAR CYYG 012100Z 35015G20KT 15SM FEW020 FEW140 16/11 A2992 RMK CU2AC1 TCU DIST NW SLP131=
CYYG;2007-09-01 22:00;METAR CYYG 012200Z 35009G16KT 15SM FEW020TCU FEW140 16/11 A2993 RMK TCU1AC1 CB DIST SW SLP135=
CYYG;2007-09-01 23:00;METAR CYYG 012300Z 34008KT 15SM FEW140 15/11 A2995 RMK AC2 SLP141=
CYYG;2007-09-02 00:00;METAR CYYG 020000Z 34008KT 15SM FEW140 15/11 A2996 RMK AC2 SLP147=
CYYG;2007-09-02 01:00;METAR CYYG 020100Z 34007KT 15SM FEW088 15/11 A2997 RMK AC2 SLP148=
CYYG;2007-09-02 02:00;METAR CYYG 020200Z 35008KT 15SM SCT080 15/09 A2997 RMK AC3 SLP150=
CYYG;2007-09-02 03:00;METAR CYYG 020300Z 34008KT 15SM SCT080 15/08 A2999 RMK AC3 SLP155=
CYYG;2007-09-02 04:00;METAR CYYG 020400Z 34007KT 15SM SCT071 14/07 A3000 RMK AC4 SLP160=
CYYG;2007-09-02 05:00;METAR CYYG 020500Z 34007KT 15SM SCT074 14/09 A3000 RMK AC3 SLP160=
CYYG;2007-09-02 06:00;METAR CYYG 020600Z 34007KT 15SM FEW075 14/08 A3001 RMK AC2 SLP161=
CYYG;2007-09-02 07:00;METAR CYYG 020700Z 34005KT 15SM FEW075 14/09 A3001 RMK AC2 SLP162=
CYYG;2007-09-02 08:00;METAR CYYG 020800Z 34006KT 15SM SKC 13/10 A3002 RMK SLP166=
CYYG;2007-09-02 09:00;METAR CYYG 020900Z 34006KT 15SM SKC 13/10 A3005 RMK SLP175=
CYYG;2007-09-02 10:00;METAR CYYG 021000Z 34005KT 15SM SKC 13/10 A3007 RMK SLP183=
CYYG;2007-09-02 11:00;METAR CYYG 021100Z 34006KT 15SM FEW300 14/10 A3010 RMK CI1 SLP192=
CYYG;2007-09-02 12:00;METAR CYYG 021200Z 35008G15KT 15SM FEW030 FEW300 16/11 A3011 RMK CF1CI1 SLP195=
CYYG;2007-09-02 13:00;METAR CYYG 021300Z 36010G15KT 15SM FEW030 FEW300 16/11 A3011 RMK CU1CI1 SLP197=
CYYG;2007-09-02 14:00;METAR CYYG 021400Z 33011KT 15SM FEW030 FEW300 16/10 A3013 RMK CU1CI1 SLP203=
CYYG;2007-09-02 15:00;METAR CYYG 021500Z 33009KT 15SM FEW025 FEW300 17/10 A3012 RMK CU1CI0 SLP201=
CYYG;2007-09-02 16:00;METAR CYYG 021600Z 36008KT 15SM FEW030 FEW300 17/09 A3012 RMK CU1CI0 SLP200=
CYYG;2007-09-02 17:00;METAR CYYG 021700Z 35008KT 15SM FEW035 17/09 A3012 RMK CU2 SLP200=
CYYG;2007-09-02 18:00;METAR CYYG 021800Z 36007KT 15SM FEW035 17/10 A3013 RMK SC2 SLP202=
CYYG;2007-09-02 19:00;METAR CYYG 021900Z 36005KT 15SM FEW035 18/10 A3012 RMK SC1 SLP198=
CYYG;2007-09-02 20:00;METAR CYYG 022000Z 02003KT 15SM FEW040 18/10 A3010 RMK SC2 SLP192=
CYYG;2007-09-02 21:00;METAR CYYG 022100Z 09003KT 15SM FEW038 17/10 A3009 RMK SC2 SLP191=
CYYG;2007-09-02 22:00;METAR CYYG 022200Z 08003KT 15SM FEW038 FEW300 16/10 A3009 RMK SC1CI1 SLP188=
CYYG;2007-09-02 23:00;METAR CYYG 022300Z 00000KT 15SM FEW300 14/10 A3009 RMK CI1 SLP188=
CYYG;2007-09-03 00:00;METAR CYYG 030000Z 18002KT 15SM FEW300 14/10 A3008 RMK CI1 SLP186=
CYYG;2007-09-03 01:00;METAR CYYG 030100Z 21007KT 15SM SKC 14/10 A3007 RMK SLP184=
CYYG;2007-09-03 02:00;METAR CYYG 030200Z 22007KT 15SM SKC 14/09 A3006 RMK SLP181=
CYYG;2007-09-03 03:00;METAR CYYG 030300Z 23007KT 15SM FEW180 15/10 A3003 RMK AC1 SLP169=
CYYG;2007-09-03 04:00;METAR CYYG 030400Z 24009KT 15SM FEW180 15/10 A3002 RMK AC1 SLP167=
CYYG;2007-09-03 05:00;METAR CYYG 030500Z 23009KT 15SM FEW220 15/09 A3001 RMK CI2 SLP161=
CYYG;2007-09-03 06:00;METAR CYYG 030600Z 24010KT 15SM SCT230 15/09 A3000 RMK CI4 SLP159=
CYYG;2007-09-03 07:00;METAR CYYG 030700Z 23008KT 15SM FEW230 14/11 A2999 RMK CI2 SLP157=
CYYG;2007-09-03 08:00;METAR CYYG 030800Z 23010KT 15SM FEW230 14/10 A2998 RMK CI2 SLP151=
CYYG;2007-09-03 09:00;METAR CYYG 030900Z 22010KT 15SM FEW230 14/10 A2995 RMK CI2 SLP142=
CYYG;2007-09-03 10:00;METAR CYYG 031000Z 23012KT 15SM FEW140 BKN230 15/10 A2993 RMK AC2CI2 SLP137=
CYYG;2007-09-03 11:00;METAR CYYG 031100Z 23013KT 15SM FEW140 BKN230 15/10 A2993 RMK AC2CI3 SLP134=
CYYG;2007-09-03 12:00;METAR CYYG 031200Z 23012G17KT 15SM FEW180 BKN250 16/11 A2990 RMK AC2CI5 SLP124=
CYYG;2007-09-03 13:00;METAR CYYG 031300Z 22015G20KT 15SM SCT180 BKN250 17/12 A2987 RMK AC3CI3 SLP115=
CYYG;2007-09-03 14:00;METAR CYYG 031400Z 23013G19KT 15SM SCT140 BKN250 19/13 A2987 RMK AC4CI2 SLP116=
CYYG;2007-09-03 15:00;METAR CYYG 031500Z 23013G25KT 15SM BKN140 BKN250 19/13 A2985 RMK AC6CI1 VIRGA ACC ASOCTD SLP110=
CYYG;2007-09-03 16:00;METAR CYYG 031600Z 23017G24KT 15SM BKN130 BKN250 19/13 A2984 RMK AC5CI2 ACC ASOCTD SLP104=
CYYG;2007-09-03 17:00;METAR CYYG 031700Z 23018G27KT 15SM BKN120 BKN250 20/13 A2981 RMK AC5CI2 SLP096=
CYYG;2007-09-03 18:00;METAR CYYG 031800Z 22023G30KT 15SM SCT120 21/13 A2978 RMK AC3 SLP085=
CYYG;2007-09-03 19:00;METAR CYYG 031900Z 23019G28KT 15SM SCT120 21/12 A2976 RMK AC3 ACC ASOCTD SLP079=
CYYG;2007-09-03 20:00;METAR CYYG 032000Z 24015G28KT 15SM BKN070 BKN120 21/13 A2974 RMK AC5AC1 SLP072=
CYYG;2007-09-03 21:00;METAR CYYG 032100Z 24014G27KT 15SM FEW070 SCT120 20/13 A2973 RMK AC2AC1 SLP067=
CYYG;2007-09-03 22:00;METAR CYYG 032200Z 24013G21KT 15SM BKN070 BKN120 20/11 A2973 RMK AC5AC2 SLP068=
CYYG;2007-09-03 23:00;METAR CYYG 032300Z 25013G21KT 15SM SCT070 BKN140 19/11 A2973 RMK AC3AC2 SLP069=
CYYG;2007-09-04 00:00;METAR CYYG 040000Z 25010KT 15SM FEW070 SCT170 18/12 A2974 RMK AC2AC2 SLP072=
CYYG;2007-09-04 01:00;METAR CYYG 040100Z 24010G15KT 15SM FEW170 18/12 A2974 RMK AC2 SLP070=
CYYG;2007-09-04 02:00;METAR CYYG 040200Z 25009G16KT 15SM FEW120 17/13 A2973 RMK AC2 SLP067=
CYYG;2007-09-04 03:00;METAR CYYG 040300Z 23011KT 15SM FEW080 17/13 A2972 RMK AC2 SLP064=
CYYG;2007-09-04 04:00;METAR CYYG 040400Z 23009KT 15SM FEW080 16/14 A2971 RMK AC2 SLP059=
CYYG;2007-09-04 05:00;METAR CYYG 040500Z 23008KT 15SM FEW080 16/14 A2969 RMK AC2 SLP053=
CYYG;2007-09-04 06:00;METAR CYYG 040600Z 24006KT 15SM FEW080 16/14 A2969 RMK AC2 SLP052=
CYYG;2007-09-04 07:00;METAR CYYG 040700Z 25006KT 15SM FEW080 16/14 A2968 RMK AC1 SLP051=
CYYG;2007-09-04 08:00;METAR CYYG 040800Z 25007KT 15SM FEW100 15/14 A2967 RMK AC2 SLP047=
CYYG;2007-09-04 09:00;METAR CYYG 040900Z 25005KT 15SM BKN093 15/14 A2967 RMK AC5 SLP047=
CYYG;2007-09-04 10:00;METAR CYYG 041000Z 27007KT 15SM BKN096 15/14 A2968 RMK AC6 SLP049=
CYYG;2007-09-04 11:00;METAR CYYG 041100Z 28008KT 15SM FEW075 BKN096 16/12 A2969 RMK AC2AC3 SLP052=
CYYG;2007-09-04 12:00;METAR CYYG 041200Z 29010G18KT 15SM FEW050 BKN068 BKN150 16/10 A2969 RMK SC2AC3AC2 SLP053=
CYYG;2007-09-04 13:00;METAR CYYG 041300Z 30011G18KT 15SM FEW050 BKN070 BKN250 16/09 A2970 RMK SC2AC3CI0 SLP056=
CYYG;2007-09-04 14:00;METAR CYYG 041400Z 29011G17KT 15SM FEW015 FEW070 SCT250 17/06 A2970 RMK CF1AC2CI0 SLP056=
CYYG;2007-09-04 15:00;METAR CYYG 041500Z 30014KT 15SM FEW030 FEW050 BKN220 17/07 A2969 RMK CF1SC2CI1 SLP053=
CYYG;2007-09-04 16:00;METAR CYYG 041600Z 29016G21KT 15SM FEW050 SCT220 18/07 A2968 RMK SC2CI1 SLP049=
CYYG;2007-09-04 17:00;METAR CYYG 041700Z 29016G25KT 15SM FEW050 SCT220 18/07 A2968 RMK SC2CI1 SLP050=
CYYG;2007-09-04 18:00;METAR CYYG 041800Z 29017G22KT 15SM FEW050 SCT220 17/06 A2968 RMK SC2CI1 SLP051=
CYYG;2007-09-04 19:00;METAR CYYG 041900Z 29010G16KT 15SM BKN050 BKN220 17/07 A2969 RMK SC6CI1 SLP054=
CYYG;2007-09-04 20:00;METAR CYYG 042000Z 29012G19KT 15SM BKN055 BKN220 17/07 A2970 RMK SC6CI1 SLP059=
CYYG;2007-09-04 21:00;METAR CYYG 042100Z 30011G17KT 15SM BKN060 15/06 A2972 RMK SC7 SLP064=
CYYG;2007-09-04 22:00;METAR CYYG 042200Z 29007KT 15SM BKN062 15/07 A2973 RMK SC7 SLP068=
CYYG;2007-09-04 23:00;METAR CYYG 042300Z 31012G19KT 15SM BKN060 BKN070 14/07 A2975 RMK SC5AC2 SLP076=
CYYG;2007-09-05 00:00;METAR CYYG 050000Z 29011G16KT 15SM BKN057 BKN083 14/07 A2977 RMK SC5AC2 SLP081=
CYYG;2007-09-05 01:00;METAR CYYG 050100Z 29009KT 15SM BKN062 BKN088 13/07 A2977 RMK SC5AC2 SLP082=
CYYG;2007-09-05 02:00;METAR CYYG 050200Z 29010G15KT 15SM BKN060 13/07 A2977 RMK SC7 SLP083=
CYYG;2007-09-05 03:00;METAR CYYG 050300Z 29009KT 15SM BKN055 13/06 A2977 RMK SC7 SLP082=
CYYG;2007-09-05 04:00;METAR CYYG 050400Z 29006KT 15SM FEW055 FEW150 12/05 A2977 RMK SC1AC1 SLP082=
CYYG;2007-09-05 05:00;METAR CYYG 050500Z 27006KT 15SM FEW055 FEW150 11/05 A2977 RMK SC1AC1 SLP082=
CYYG;2007-09-05 06:00;METAR CYYG 050600Z 27008KT 15SM FEW055 11/05 A2977 RMK SC1 SLP083=
CYYG;2007-09-05 07:00;METAR CYYG 050700Z 27007KT 15SM FEW060 10/05 A2977 RMK SC1 SLP083=
CYYG;2007-09-05 08:00;METAR CYYG 050800Z 27008KT 15SM BKN037 10/05 A2978 RMK SC7 SLP086=
CYYG;2007-09-05 09:00;METAR CYYG 050900Z 27008KT 15SM BKN035 10/05 A2978 RMK SC7 SLP086=
CYYG;2007-09-05 10:00;METAR CYYG 051000Z 28011KT 15SM BKN028 10/06 A2981 RMK SC7 SLP095=
CYYG;2007-09-05 10:52;SPECI CYYG 051052Z 29008KT 15SM -SHRA OVC032 10/ RMK SC8=
CYYG;2007-09-05 11:00;METAR CYYG 051100Z 29008KT 15SM -SHRA OVC037 10/06 A2983 RMK SC8 SLP102=
CYYG;2007-09-05 12:00;METAR CYYG 051200Z 29014KT 15SM -DZ SCT002 BKN030 11/07 A2985 RMK SF4SC3 VIS NW-SE 1-2F SLP107=
CYYG;2007-09-05 12:12;SPECI CYYG 051212Z 31007KT 1SM R03/P6000FT/D -DZ BR SCT002 BKN016 10/ RMK SF4SC3 VIS 6 S=
CYYG;2007-09-05 12:42;SPECI CYYG 051242Z 29008KT 2SM -DZ BR SCT008 OVC016 10/ RMK SF3SC5 VIS 5 S=
CYYG;2007-09-05 13:00;METAR CYYG 051300Z 31010KT 2SM -DZ BR SCT008 OVC016 10/09 A2987 RMK SF3SC5 SLP117=
CYYG;2007-09-05 13:45;SPECI CYYG 051345Z 33010G15KT 1 1/2SM -SHRA BR SCT008 BKN016 OVC030 10/ RMK SF3SC4SC1=
CYYG;2007-09-05 14:00;METAR CYYG NIL=
CYYG;2007-09-05 15:00;METAR CYYG 051500Z 35011KT 10SM VCSH FEW009 SCT019 BKN046 12/09 A2992 RMK SF2SC2SC3 SLP133=
CYYG;2007-09-05 15:35;SPECI CYYG 051535Z 35011G19KT 10SM -SHRA FEW009 BKN021 BKN048 11/ RMK SF1SC4SC2 VIS LWR NW=
CYYG;2007-09-05 16:00;METAR CYYG 051600Z 34014KT 12SM -SHRA FEW009 BKN025 BKN040 11/07 A2995 RMK SF1SC4SC2 SLP141=
CYYG;2007-09-05 16:29;SPECI CYYG 051629Z 34011G24KT 15SM FEW009 BKN025 BKN041 12/ RMK SF1SC4SC2=
CYYG;2007-09-05 17:00;METAR CYYG 051700Z 35014G25KT 15SM SCT025 BKN041 12/07 A2996 RMK SC4SC3 SLP147=
CYYG;2007-09-05 17:40;SPECI CYYG 051740Z 34010G16KT 15SM -SHRA BKN023 OVC045 11/ RMK SC6SC2=
CYYG;2007-09-05 18:00;METAR CYYG 051800Z 34009G18KT 15SM -SHRA SCT023 OVC035 11/07 A2999 RMK SC4SC4 SLP156=
CYYG;2007-09-05 19:00;METAR CYYG 051900Z 34016KT 15SM -SHRA BKN028 BKN045 12/06 A3001 RMK SC5SC2 SLP164=
CYYG;2007-09-05 20:00;METAR CYYG 052000Z 35007KT 15SM -SHRA SCT028 BKN046 11/07 A3004 RMK SC4SC3 SLP173=
CYYG;2007-09-05 21:00;METAR CYYG 052100Z 35012KT 15SM FEW028 BKN057 12/06 A3006 RMK SC2SC6 SLP179=
CYYG;2007-09-05 22:00;METAR CYYG 052200Z 35009KT 15SM FEW030 BKN044 11/07 A3008 RMK SC2SC5 SLP187=
CYYG;2007-09-05 23:00;METAR CYYG 052300Z 34008KT 15SM FEW030 SCT045 11/06 A3011 RMK SC2SC2 SLP197=
CYYG;2007-09-06 00:00;METAR CYYG 060000Z 34005KT 15SM SCT035 10/05 A3014 RMK SC4 SLP206=
CYYG;2007-09-06 01:00;METAR CYYG 060100Z 30005KT 15SM FEW035 09/05 A3015 RMK SC2 SLP212=
CYYG;2007-09-06 02:00;METAR CYYG 060200Z 27005KT 15SM FEW040 09/05 A3017 RMK SC1 SLP218=
CYYG;2007-09-06 03:00;METAR CYYG 060300Z 29005KT 15SM FEW045 08/05 A3019 RMK SC1 SLP224=
CYYG;2007-09-06 04:00;METAR CYYG 060400Z 27004KT 15SM FEW044 FEW120 08/05 A3020 RMK SC1AC2 SLP226=
CYYG;2007-09-06 05:00;METAR CYYG 060500Z 30004KT 15SM FEW044 FEW120 08/05 A3020 RMK SC1AC1 SLP227=
CYYG;2007-09-06 06:00;METAR CYYG 060600Z 30004KT 15SM FEW038 FEW120 08/06 A3021 RMK SC2AC1 SLP230=
CYYG;2007-09-06 07:00;METAR CYYG 060700Z 29007KT 15SM FEW035 FEW120 09/06 A3023 RMK SC1AC1 SLP237=
CYYG;2007-09-06 08:00;METAR CYYG 060800Z 29007KT 15SM FEW035 09/07 A3025 RMK SC1 SLP244=
CYYG;2007-09-06 09:00;METAR CYYG 060900Z 30004KT 15SM FEW035 FEW120 09/06 A3027 RMK SC1AC1 SLP251=
CYYG;2007-09-06 10:00;METAR CYYG 061000Z 29003KT 15SM FEW035 FEW250 07/06 A3028 RMK SC1CI1 SLP256=
CYYG;2007-09-06 11:00;METAR CYYG 061100Z 30003KT 15SM FEW035 SCT250 11/08 A3030 RMK SC1CI1 SLP261=
CYYG;2007-09-06 12:00;METAR CYYG 061200Z 25004KT 15SM FEW035 SCT250 13/09 A3031 RMK SC1CI1 SLP266=
CYYG;2007-09-06 13:00;METAR CYYG 061300Z 28004KT 15SM FEW030 FEW040 BKN250 14/05 A3033 RMK CF2SC1CI1 SLP271=
CYYG;2007-09-06 14:00;METAR CYYG 061400Z 27002KT 15SM FEW035 BKN250 15/07 A3033 RMK SC2CI1 OBS TAKEN +14 SLP272=
CYYG;2007-09-06 15:00;METAR CYYG 061500Z 23008KT 15SM SCT035 BKN250 16/09 A3032 RMK SC3CI1 SLP267=
CYYG;2007-09-06 16:00;METAR CYYG 061600Z 22006KT 15SM FEW030 SCT250 16/07 A3030 RMK SC1CI1 SLP261=
CYYG;2007-09-06 17:00;METAR CYYG 061700Z 25007KT 15SM FEW034 BKN250 17/08 A3029 RMK SC1CI2 SLP257=
CYYG;2007-09-06 18:00;METAR CYYG 061800Z 22007KT 15SM FEW220 BKN270 17/16 A3026 RMK CS2CI1 SLP249=
CYYG;2007-09-06 19:00;METAR CYYG 061900Z 24008KT 15SM SCT220 BKN270 17/06 A3025 RMK CS3CI2 SLP244=
CYYG;2007-09-06 20:00;METAR CYYG 062000Z 19006KT 15SM BKN250 16/07 A3023 RMK CI6 SLP239=
CYYG;2007-09-06 21:00;METAR CYYG 062100Z 20007KT 15SM OVC240 15/07 A3022 RMK CI6 SLP234=
CYYG;2007-09-06 22:00;METAR CYYG 062200Z 19010KT 15SM FEW170 OVC260 15/09 A3019 RMK AC2CI6 SLP225=
CYYG;2007-09-06 23:00;METAR CYYG 062300Z 23008KT 15SM BKN130 OVC260 15/07 A3018 RMK AC5CI2 SLP222=
CYYG;2007-09-07 00:00;METAR CYYG 070000Z 24009KT 15SM BKN081 BKN120 OVC260 15/07 A3017 RMK AC5AC2CI1 SLP219=
CYYG;2007-09-07 01:00;METAR CYYG 070100Z 23011G18KT 15SM FEW070 BKN100 OVC140 15/07 A3017 RMK AC2AC4AC2 SLP218=
CYYG;2007-09-07 01:46;SPECI CYYG 070146Z 23015KT 15SM -SHRA SCT075 BKN087 OVC098 15/ RMK AC3AC3AC2 LTNG DIST NW=
CYYG;2007-09-07 02:00;METAR CYYG 070200Z 23014KT 15SM -SHRA BKN080 OVC120 15/09 A3016 RMK AC6AC2 SLP213=
CYYG;2007-09-07 03:00;METAR CYYG 070300Z 25009G16KT 15SM -SHRA BKN064 OVC080 14/10 A3018 RMK SC5AC3 LTNG DIST W SLP220=
CYYG;2007-09-07 03:48;SPECI CYYG 070348Z 22007G21KT 15SM TS OVC062CB 13/ RERA RMK CB8 LTGCG NE=
CYYG;2007-09-07 04:00;METAR CYYG 070400Z 23008KT 15SM TS OVC062 13/10 A3014 RERA RMK SC8 CB EMBDD LTGCG NE SLP207=
CYYG;2007-09-07 04:21;SPECI CYYG 070421Z 20009KT 15SM OVC049 13/ RETS RMK SC8=
CYYG;2007-09-07 04:32;SPECI CYYG 070432Z 21012KT 15SM -SHRA OVC053 14/ RETS RMK SC8=
CYYG;2007-09-07 05:00;METAR CYYG 070500Z 22015G21KT 15SM FEW053 OVC071 14/10 A3009 RETS RMK SC2AC6 SLP190=
CYYG;2007-09-07 06:00;METAR CYYG 070600Z 23011G19KT 15SM FEW071 OVC096 14/10 A3007 RMK AC2AC6 SLP184=
CYYG;2007-09-07 07:00;METAR CYYG 070700Z 23011KT 15SM BKN045 OVC110 14/10 A3006 RMK SC6AC2 SLP181=
CYYG;2007-09-07 08:00;METAR CYYG 070800Z 23011G16KT 15SM FEW045 OVC100 14/11 A3004 RMK SC2AC6 SLP172=
CYYG;2007-09-07 09:00;METAR CYYG 070900Z 24012G17KT 15SM OVC110 15/12 A3002 RMK AC8 SLP167=
CYYG;2007-09-07 10:00;METAR CYYG 071000Z 24012G19KT 15SM FEW030 OVC100 15/12 A3001 RMK SC1AC7 SLP164=
CYYG;2007-09-07 11:00;METAR CYYG 071100Z 24012G18KT 15SM FEW030 OVC077 15/12 A3001 RMK SC1AC7 SLP164=
CYYG;2007-09-07 12:00;METAR CYYG 071200Z 24010G16KT 15SM FEW015 OVC090 16/13 A3000 RMK SC1AC7 SLP160=
CYYG;2007-09-07 13:00;METAR CYYG 071300Z 25009KT 15SM FEW015 OVC065 16/14 A3001 RMK SC2AC6 SLP163=
CYYG;2007-09-07 14:00;METAR CYYG 071400Z 23010KT 15SM FEW015 OVC070 17/14 A3001 RMK SC1AC7 SLP161=
CYYG;2007-09-07 15:00;METAR CYYG 071500Z 23009KT 15SM FEW015 OVC100 18/14 A3000 RMK SC1AC7 SLP158=
CYYG;2007-09-07 16:00;METAR CYYG 071600Z 25013KT 15SM OVC150 19/15 A2998 RMK AC8 SLP153=
CYYG;2007-09-07 17:00;METAR CYYG 071700Z 27012G18KT 15SM OVC110 21/16 A2998 RMK AC8 SLP151=
CYYG;2007-09-07 18:00;METAR CYYG 071800Z 25014KT 15SM BKN110 22/16 A2996 RMK AC6 SLP147=
CYYG;2007-09-07 19:00;METAR CYYG 071900Z 27008G15KT 15SM FEW110 SCT280 23/17 A2996 RMK AC2CI1 SLP144=
CYYG;2007-09-07 20:00;METAR CYYG 072000Z 27009KT 15SM FEW110 SCT280 23/17 A2996 RMK AC2CI2 SLP144=
CYYG;2007-09-07 21:00;METAR CYYG 072100Z 25005KT 15SM FEW280 23/17 A2997 RMK CI1 SLP148=
CYYG;2007-09-07 22:00;METAR CYYG 072200Z 25008KT 15SM FEW280 21/16 A2998 RMK CI1 HZ ALF SLP151=
CYYG;2007-09-07 23:00;METAR CYYG 072300Z 25007KT 10SM FEW110 FEW280 20/16 A2998 RMK AC1CI0 SLP152=
CYYG;2007-09-08 00:00;METAR CYYG 080000Z 24006KT 10SM FEW100 FEW280 19/15 A2998 RMK AC1CI0 SLP154=
CYYG;2007-09-08 01:00;METAR CYYG 080100Z 25006KT 15SM FEW160 19/15 A2999 RMK AC2 SLP156=
CYYG;2007-09-08 02:00;METAR CYYG 080200Z 23008KT 15SM BKN160 19/16 A2999 RMK AC5 SLP157=
CYYG;2007-09-08 03:00;METAR CYYG 080300Z 22008KT 15SM FEW150 FEW160 19/16 A2999 RMK AC1AC2 SLP156=
CYYG;2007-09-08 04:00;METAR CYYG 080400Z 21008KT 15SM FEW150 18/15 A2998 RMK AC2 SLP152=
CYYG;2007-09-08 05:00;METAR CYYG 080500Z 22008KT 15SM BKN180 18/15 A2998 RMK AC6 SLP151=
CYYG;2007-09-08 06:00;METAR CYYG 080600Z 21008KT 15SM FEW180 BKN200 18/15 A2997 RMK AC2CC5 SLP149=
CYYG;2007-09-08 07:00;METAR CYYG 080700Z 18006KT 15SM BKN190 17/15 A2996 RMK AC6 SLP145=
CYYG;2007-09-08 08:00;METAR CYYG 080800Z 20007KT 15SM SCT180 17/15 A2995 RMK AC4 SLP143=
CYYG;2007-09-08 09:00;METAR CYYG 080900Z 19008KT 15SM FEW180 17/15 A2995 RMK AC2 SLP142=
CYYG;2007-09-08 10:00;METAR CYYG 081000Z 20008KT 6SM BR FEW180 17/15 A2995 RMK AC2 SLP142=
CYYG;2007-09-08 11:00;METAR CYYG 081100Z 19008KT 4SM HZ FEW240 18/16 A2994 RMK CC2 SLP140=
CYYG;2007-09-08 12:00;METAR CYYG 081200Z 20009KT 5SM HZ FEW240 19/16 A2994 RMK CC2 SLP140=
CYYG;2007-09-08 13:00;METAR CYYG 081300Z 19010KT 5SM HZ FEW240 21/17 A2994 RMK CC2 SLP139=
CYYG;2007-09-08 14:00;METAR CYYG 081400Z 19009KT 5SM HZ FEW250 22/17 A2993 RMK CC2 SLP135=
CYYG;2007-09-08 15:00;METAR CYYG 081500Z 21011KT 6SM HZ FEW250 23/18 A2992 RMK CC1 SLP131=
CYYG;2007-09-08 16:00;METAR CYYG 081600Z 19012KT 8SM FEW250 25/18 A2989 RMK CI1 HZ SLP123=
CYYG;2007-09-08 17:00;METAR CYYG 081700Z 20010KT 8SM FEW250 26/18 A2988 RMK CC2 HZ SLP120=
CYYG;2007-09-08 18:00;METAR CYYG 081800Z 22013G18KT 8SM FEW170 SCT250 26/19 A2987 RMK AC1CC2 HZ SLP113=
CYYG;2007-09-08 19:00;METAR CYYG 081900Z 23010G16KT 10SM BKN250 27/20 A2986 RMK CC5 HZ SLP110=
CYYG;2007-09-08 20:00;METAR CYYG 082000Z 23009G18KT 8SM FEW210 BKN300 27/20 A2986 RMK CC1CI1 HZ SLP110=
CYYG;2007-09-08 21:00;METAR CYYG 082100Z 24008G15KT 8SM FEW210 SCT300 26/20 A2986 RMK CC1CI1 HZ SLP112=
CYYG;2007-09-08 22:00;METAR CYYG 082200Z 25007KT 8SM FEW210 SCT300 25/18 A2987 RMK CC1CI0 HZ SLP114=
CYYG;2007-09-09 00:00;METAR CYYG 090000Z 24006KT 15SM FEW087 FEW210 SCT310 22/19 A2990 RMK AC2CC1CI0 SLP126=
CYYG;2007-09-09 01:00;METAR CYYG 090100Z 25009KT 15SM FEW080 SCT210 21/18 A2991 RMK AC2CI1 SLP128=
CYYG;2007-09-09 02:00;METAR CYYG 090200Z 30007G17KT 15SM FEW060 SCT210 20/17 A2994 RMK SC2CI1 SLP139=
CYYG;2007-09-09 03:00;METAR CYYG 090300Z 31004KT 15SM FEW060 SCT210 20/17 A2995 RMK SC2CI1 SLP141=
CYYG;2007-09-09 04:00;METAR CYYG 090400Z 32006KT 10SM FEW060 SCT180 18/17 A2996 RMK SC2CI1 SLP147=
CYYG;2007-09-09 05:00;METAR CYYG 090500Z 34010G19KT 15SM FEW070 SCT180 18/13 A2999 RMK AC2AC1 SLP156=
CYYG;2007-09-09 06:00;METAR CYYG 090600Z 36006KT 15SM FEW070 SCT180 16/13 A3001 RMK AC2AC1 SLP164=
CYYG;2007-09-09 07:00;METAR CYYG 090700Z 03006KT 15SM FEW052 FEW070 15/11 A3006 RMK SC1AC1 SLP178=
CYYG;2007-09-09 08:00;METAR CYYG 090800Z 02003KT 15SM SCT056 14/11 A3008 RMK SC3 SLP185=
CYYG;2007-09-09 09:00;METAR CYYG 090900Z 01006KT 15SM SCT056 14/11 A3009 RMK SC3 SLP189=
CYYG;2007-09-09 10:00;METAR CYYG 091000Z 02010KT 15SM FEW056 BKN300 14/09 A3010 RMK SC2CI2 SLP193=
CYYG;2007-09-09 11:00;METAR CYYG 091100Z 01011G16KT 15SM FEW030 BKN300 15/09 A3012 RMK SC1CI1 SLP198=
CYYG;2007-09-09 12:00;METAR CYYG 091200Z 02015KT 15SM FEW030 FEW160 BKN300 15/10 A3013 RMK SC1AC1CI0 SLP202=
CYYG;2007-09-09 13:00;METAR CYYG 091300Z 02017KT 15SM BKN300 16/10 A3014 RMK CI2 SLP206=
CYYG;2007-09-09 14:00;METAR CYYG 091400Z 02012G18KT 15SM FEW030 BKN300 16/10 A3016 RMK CF1CI3 SLP212=
CYYG;2007-09-09 15:00;METAR CYYG 091500Z 02013KT 15SM BKN300 16/10 A3016 RMK CI3 SLP213=
CYYG;2007-09-09 16:00;METAR CYYG 091600Z 01010G18KT 15SM FEW030 BKN340 16/10 A3015 RMK CF1CI2 SLP209=
CYYG;2007-09-09 17:00;METAR CYYG 091700Z 02010G16KT 15SM FEW030 SCT340 17/10 A3014 RMK CU1CI2 SLP208=
CYYG;2007-09-09 18:00;METAR CYYG 091800Z 02009G16KT 15SM FEW030 BKN340 16/09 A3014 RMK CU1CI1 SLP208=
CYYG;2007-09-09 19:00;METAR CYYG 091900Z 03012KT 15SM FEW024 BKN340 15/09 A3014 RMK CU1CI2 SLP205=
CYYG;2007-09-09 20:00;METAR CYYG 092000Z 02010KT 15SM FEW020 BKN340 16/10 A3013 RMK CU1CI2 SLP202=
CYYG;2007-09-09 21:00;METAR CYYG 092100Z 05010KT 15SM FEW020 BKN340 14/09 A3013 RMK CU1CI2 SLP204=
CYYG;2007-09-09 22:00;METAR CYYG 092200Z 03009KT 15SM FEW018 BKN340 14/10 A3014 RMK CU2CI2 SLP208=
CYYG;2007-09-09 23:00;METAR CYYG 092300Z 05005KT 15SM FEW018 FEW110 BKN250 12/08 A3014 RMK CU1AC2CI2 SLP207=
CYYG;2007-09-10 00:00;METAR CYYG 100000Z 06002KT 15SM FEW110 BKN240 10/07 A3014 RMK AC2CI2 SLP208=
CYYG;2007-09-10 01:00;METAR CYYG 100100Z 34002KT 15SM FEW110 BKN230 10/09 A3015 RMK AC2CI2 SLP212=
CYYG;2007-09-10 02:00;METAR CYYG 100200Z 07002KT 15SM FEW110 BKN200 10/09 A3013 RMK AC2CI2 SLP204=
CYYG;2007-09-10 03:00;METAR CYYG 100300Z 34003KT 15SM BKN160 10/09 A3012 RMK AC4 SLP202=
CYYG;2007-09-10 04:00;METAR CYYG 100400Z 32003KT 15SM BKN140 11/09 A3013 RMK AC5 SLP203=
CYYG;2007-09-10 05:00;METAR CYYG 100500Z 36003KT 15SM BKN130 11/08 A3011 RMK AC6 SLP196=
CYYG;2007-09-10 06:00;METAR CYYG 100600Z 03003KT 15SM OVC110 11/09 A3010 RMK AC8 SLP194=
CYYG;2007-09-10 07:00;METAR CYYG 100700Z 01003KT 15SM OVC110 11/09 A3010 RMK AC8 SLP193=
CYYG;2007-09-10 08:00;METAR CYYG 100800Z 07004KT 15SM OVC085 11/09 A3008 RMK AC8 SLP186=
CYYG;2007-09-10 09:00;METAR CYYG 100900Z 06002KT 15SM BKN085 BKN220 10/09 A3009 RMK AC5CI1 SLP189=
CYYG;2007-09-10 10:00;METAR CYYG 101000Z 32002KT 15SM FEW085 FEW170 SCT220 08/08 A3010 RMK AC1AC1CI2 SLP193=
CYYG;2007-09-10 11:00;METAR CYYG 101100Z 35002KT 15SM FEW085 FEW170 11/10 A3010 RMK AC1AC1 SLP194=
CYYG;2007-09-10 12:00;METAR CYYG 101200Z 04003KT 15SM FEW080 FEW170 14/09 A3010 RMK AC1AC1 SLP193=
CYYG;2007-09-10 13:00;METAR CYYG 101300Z 00000KT 15SM FEW030 FEW080 15/10 A3009 RMK CU1AC1 SLP190=
CYYG;2007-09-10 14:00;METAR CYYG 101400Z 00000KT 15SM FEW030 FEW080 16/09 A3009 RMK CU1AC1 SLP192=
CYYG;2007-09-10 15:00;METAR CYYG 101500Z 02003KT 15SM FEW030 FEW080 16/09 A3010 RMK SC1AC1 SLP193=
CYYG;2007-09-10 16:00;METAR CYYG 101600Z 26002KT 15SM FEW040 17/11 A3008 RMK SC1 SLP188=
CYYG;2007-09-10 17:00;METAR CYYG 101700Z 36005KT 15SM FEW050 18/10 A3008 RMK SC2 SLP187=
CYYG;2007-09-10 18:00;METAR CYYG 101800Z 02007KT 15SM FEW050 17/09 A3006 RMK SC2 SLP182=
CYYG;2007-09-10 19:00;METAR CYYG 101900Z 04007KT 15SM FEW050 FEW140 17/09 A3005 RMK SC1AC2 SLP176=
CYYG;2007-09-10 20:00;METAR CYYG 102000Z 02008KT 15SM FEW050 SCT100 16/09 A3005 RMK SC1AC3 SLP178=
CYYG;2007-09-10 21:00;METAR CYYG 102100Z 02004KT 15SM SCT100 16/09 A3006 RMK AC4 SLP181=
CYYG;2007-09-10 22:00;METAR CYYG 102200Z 03006KT 15SM BKN099 14/09 A3006 RMK AC6 SLP180=
CYYG;2007-09-10 23:00;METAR CYYG 102300Z 05003KT 15SM BKN088 13/09 A3006 RMK AC6 SLP181=
CYYG;2007-09-11 00:00;METAR CYYG 110000Z 07004KT 15SM BKN070 BKN130 13/09 A3006 RMK AC5AC2 SLP181=
CYYG;2007-09-11 01:00;METAR CYYG 110100Z 08002KT 15SM FEW045 BKN063 BKN130 13/09 A3006 RMK SC2SC4AC2 SLP180=
CYYG;2007-09-11 02:00;METAR CYYG 110200Z 06002KT 15SM BKN048 OVC078 13/10 A3007 RMK SC6AC2 SLP184=
CYYG;2007-09-11 03:00;METAR CYYG 110300Z 10003KT 15SM OVC048 13/10 A3005 RMK SC8 SLP177=
CYYG;2007-09-11 04:00;METAR CYYG 110400Z 14004KT 15SM OVC048 14/10 A3004 RMK SC8 SLP172=
CYYG;2007-09-11 05:00;METAR CYYG 110500Z 00000KT 15SM BKN040 OVC065 13/00 A3005 RMK SC6SC2 SLP176=
CYYG;2007-09-11 06:00;METAR CYYG 110600Z 12005KT 15SM BKN030 OVC057 13/10 A3004 RMK SC6SC2 SLP172=
CYYG;2007-09-11 07:00;METAR CYYG 110700Z 12004KT 15SM SCT030 BKN051 14/10 A3004 RMK SC3SC4 SLP171=
CYYG;2007-09-11 08:00;METAR CYYG 110800Z 14006KT 15SM BKN033 OVC050 14/10 A3003 RMK SC6SC2 SLP170=
CYYG;2007-09-11 09:00;METAR CYYG 110900Z CCA 12005KT 15SM -SHRA OVC029 13/11 A3002 RMK SC8 SLP166=
CYYG;2007-09-11 10:00;METAR CYYG 111000Z 12005KT 3SM -SHRA OVC028 13/11 A3002 RMK SC8 SLP166=
CYYG;2007-09-11 10:24;SPECI CYYG 111024Z 11006KT 2SM -SHRA BR FEW002 OVC025 13/ RMK SF2SC6=
CYYG;2007-09-11 11:00;METAR CYYG 111100Z 11004KT 5SM -DZ BR BKN002 BKN007 OVC022 13/12 A3003 RMK SF5SF2SC2 VIS W-NE 2 SLP169=
CYYG;2007-09-11 11:03;SPECI CYYG 111103Z 11005KT 5SM -DZ BR FEW002 BKN007 OVC022 13/ RMK SF2SF4SC2 VIS W-NE 2=
CYYG;2007-09-11 11:19;SPECI CYYG 111119Z 09004KT 15SM FEW002 BKN018 OVC024 13/ RMK SF1SC5SC2 VIS W-NE 3=
CYYG;2007-09-11 12:00;METAR CYYG 111200Z 05005KT 15SM FEW008 FEW014 OVC022 13/11 A3003 RMK SF2SC1SC6 SLP169=
CYYG;2007-09-11 13:00;METAR CYYG 111300Z 10004KT 15SM OVC023 13/11 A3003 RMK SC8 VIS LWR W-NW SLP169=
CYYG;2007-09-11 13:34;SPECI CYYG 111334Z 10006KT 15SM FEW008 BKN023 OVC034 13/ RMK SF1SC6SC2 VIS LWR NW-NE=
CYYG;2007-09-11 14:00;METAR CYYG 111400Z 09005KT 15SM BKN022 OVC039 14/11 A3001 RMK SC6SC2 SLP165=
CYYG;2007-09-11 15:00;METAR CYYG 111500Z 09002KT 15SM FEW020 OVC040 14/12 A2999 RMK SC2SC6 SLP157=
CYYG;2007-09-11 16:00;METAR CYYG 111600Z 11006KT 15SM SCT015 OVC042 15/13 A2997 RMK CF3SC5 SLP148=
CYYG;2007-09-11 17:00;METAR CYYG 111700Z 14012KT 15SM FEW018 BKN042 OVC060 16/11 A2993 RMK CU2SC4SC2 SLP134=
CYYG;2007-09-11 17:47;SPECI CYYG 111747Z 12008KT 15SM -SHRA FEW018 OVC031 16/ RMK SC1SC7=
CYYG;2007-09-11 18:00;METAR CYYG 111800Z 12011KT 15SM -SHRA FEW018 OVC030 16/11 A2989 RMK SC1SC7 VIS LWR W SLP123=
CYYG;2007-09-11 19:00;METAR CYYG 111900Z 12011G16KT 15SM -SHRA FEW010 OVC030 16/13 A2986 RMK SF2SC6 VIS LWR W SLP113=
CYYG;2007-09-11 19:09;SPECI CYYG 111909Z 12013KT 4SM -DZ BR BKN014 OVC025 16/ RMK SC5SC3=
CYYG;2007-09-11 19:15;SPECI CYYG 111915Z 12010KT 3SM -SHRA BR BKN013 OVC024 16/ RMK SC5SC3=
CYYG;2007-09-11 20:00;METAR CYYG 112000Z 13010KT 3SM -RA BR FEW007 BKN012 OVC032 15/13 A2985 RMK SF2SF2SC3 SLP108=
CYYG;2007-09-11 20:24;SPECI CYYG 112024Z 15012G17KT 2SM -RA BR SCT007 OVC024 14/ RMK SF3SC5=
CYYG;2007-09-11 20:39;SPECI CYYG 112039Z 12012KT 1 1/2SM R03/5000FT/U RA BR BKN003 OVC024 14/ RMK SF6SC2=
CYYG;2007-09-11 21:00;METAR CYYG 112100Z 11010KT 2SM -RA BR SCT003 BKN018 OVC026 13/11 A2982 RERA RMK SF3SC2SC2 VIS SE-SW 5 SLP099=
CYYG;2007-09-11 21:19;SPECI CYYG 112119Z 13008KT 15SM -RA BKN007 OVC014 13/ RMK SF6SC2 VIS W-NE 2=
CYYG;2007-09-11 22:00;METAR CYYG 112200Z 11008KT 2SM -RA BR BKN005 OVC011 14/12 A2980 RMK SF6SF2 SLP092=
CYYG;2007-09-11 22:19;SPECI CYYG 112219Z 11009KT 2SM -RA BR BKN002 OVC007 14/ RMK SF6SF2=
CYYG;2007-09-11 22:40;SPECI CYYG 112240Z 12009G15KT 10SM -RA OVC005 14/ RMK SF8=
CYYG;2007-09-11 23:00;METAR CYYG 112300Z 12012G17KT 8SM -DZ OVC005 14/12 A2977 RMK SF8 SLP081=
CYYG;2007-09-12 00:00;METAR CYYG 120000Z 13012G17KT 10SM -DZ OVC005 14/12 A2973 RMK SF8 SLP069=
CYYG;2007-09-12 00:35;SPECI CYYG 120035Z 12010G15KT 8SM -RA BKN005 OVC012 15/ RMK SF7SC1=
CYYG;2007-09-12 01:00;METAR CYYG 120100Z 12009G15KT 8SM -RA BKN005 OVC012 15/13 A2967 RMK SF6SC2 SLP049=
CYYG;2007-09-12 02:00;METAR CYYG 120200Z 13013KT 5SM +RA BKN005 OVC013 15/12 A2962 RMK SF6SC2 SLP032=
CYYG;2007-09-12 03:00;METAR CYYG 120300Z 14004KT 8SM RA BKN004 OVC008 15/13 A2957 RERA RMK SF6SF2 /R16/ SLP014=
CYYG;2007-09-12 04:00;METAR CYYG 120400Z CCA 13008KT 3SM RA BR OVC003 16/14 A2950 RMK SF8 PRESFR SLP988=
CYYG;2007-09-12 05:00;METAR CYYG 120500Z 17017G22KT 8SM -RA BKN003 OVC009 19/16 A2942 RERA RMK SF6SF2 PRESFR SLP963=
CYYG;2007-09-12 06:00;METAR CYYG 120600Z 18014G19KT 10SM SCT005 OVC013 19/17 A2940 RMK SF3SC5 /R24/ SLP956=
CYYG;2007-09-12 07:00;METAR CYYG 120700Z 20015KT 10SM FEW012 BKN044 20/18 A2938 RMK SC2SC6 SLP948=
CYYG;2007-09-12 07:47;SPECI CYYG 120747Z 21017G24KT 8SM -DZ OVC016 20/ RMK SC8=
CYYG;2007-09-12 08:00;METAR CYYG 120800Z 25018G25KT 8SM -RA BKN007 OVC012 19/17 A2940 RMK SF5SC3 SLP957=
CYYG;2007-09-12 08:43;SPECI CYYG 120843Z 25015G20KT 8SM -RADZ OVC005 18/ RMK SF8=
CYYG;2007-09-12 09:00;METAR CYYG 120900Z 25013G18KT 8SM -RADZ OVC005 17/16 A2942 RMK SF8 SLP961=
CYYG;2007-09-12 09:51;SPECI CYYG 120951Z 23010G15KT 12SM BKN008 OVC012 18/ RMK SF6SC2=
CYYG;2007-09-12 10:00;METAR CYYG 121000Z 23010G15KT 12SM BKN008 OVC012 18/15 A2943 RMK SF6SC2 SLP965=
CYYG;2007-09-12 11:00;METAR CYYG 121100Z 24013G19KT 15SM BKN009 OVC013 18/15 A2943 RMK SF6SC2 SLP965=
CYYG;2007-09-12 11:32;SPECI CYYG 121132Z 23017G28KT 15SM BKN011 18/ RMK SC7=
CYYG;2007-09-12 12:00;METAR CYYG 121200Z 24012G17KT 15SM OVC010 18/15 A2944 RMK SC8 SLP969=
CYYG;2007-09-12 13:00;METAR CYYG 121300Z 23016G28KT 15SM BKN012 BKN032 18/15 A2944 RMK SC6SC2 SLP971=
CYYG;2007-09-12 14:00;METAR CYYG 121400Z 24015G21KT 15SM BKN012 BKN032 18/16 A2946 RMK SC6SC2 SLP975=
CYYG;2007-09-12 15:00;METAR CYYG 121500Z 23014G28KT 15SM BKN019 BKN034 19/15 A2946 RMK SC5SC1 SLP976=
CYYG;2007-09-12 16:00;METAR CYYG 121600Z 23018G25KT 15SM BKN018 19/14 A2947 RMK CU5 SLP979=
CYYG;2007-09-12 17:00;METAR CYYG 121700Z 23021G29KT 15SM FEW020 19/13 A2947 RMK CU2 SLP981=
CYYG;2007-09-12 18:00;METAR CYYG 121800Z 22020G26KT 15SM FEW020 20/14 A2949 RMK SC2 SLP986=
CYYG;2007-09-12 19:00;METAR CYYG 121900Z 23021G27KT 15SM SCT030 20/13 A2950 RMK SC3 SLP991=
CYYG;2007-09-12 20:00;METAR CYYG 122000Z 23016G26KT 15SM FEW025 FEW080 FEW300 20/13 A2953 RMK CU1AC1CI1 SLP999=
CYYG;2007-09-12 21:00;METAR CYYG 122100Z 24015G27KT 15SM SCT073 19/11 A2955 RMK AC3 SLP006=
CYYG;2007-09-12 22:00;METAR CYYG 122200Z 25017G25KT 15SM FEW030 SCT070 17/11 A2959 RMK SC2AC2 SLP020=
CYYG;2007-09-12 23:00;METAR CYYG 122300Z 27017G26KT 15SM FEW050 SCT070 17/07 A2965 RMK CU2AC2 SLP039=
CYYG;2007-09-13 00:00;METAR CYYG 130000Z 28017G27KT 15SM FEW050 FEW070 16/05 A2971 RMK CU1AC1 PRESRR SLP063=
CYYG;2007-09-13 01:00;METAR CYYG 130100Z 27021G30KT 15SM FEW050 15/05 A2975 RMK SC1 SLP074=
CYYG;2007-09-13 02:00;METAR CYYG 130200Z 28014G22KT 15SM FEW050 14/06 A2979 RMK SC1 SLP089=
CYYG;2007-09-13 03:00;METAR CYYG 130300Z 27012KT 15SM FEW045 14/06 A2984 RMK SC1 SLP104=
CYYG;2007-09-13 04:00;METAR CYYG 130400Z 27012G20KT 15SM FEW045 13/06 A2987 RMK SC1 SLP114=
CYYG;2007-09-13 05:00;METAR CYYG 130500Z 28012G19KT 15SM FEW045 13/06 A2988 RMK SC1 SLP119=
CYYG;2007-09-13 06:00;METAR CYYG 130600Z 27008G15KT 15SM FEW045 13/06 A2991 RMK SC1 SLP128=
CYYG;2007-09-13 07:00;METAR CYYG 130700Z 27006KT 15SM SKC 12/07 A2992 RMK SLP133=
CYYG;2007-09-13 08:00;METAR CYYG 130800Z 25006KT 15SM SKC 11/06 A2994 RMK SLP138=
CYYG;2007-09-13 09:00;METAR CYYG 130900Z 27006KT 15SM FEW020 11/06 A2996 RMK SC1 SLP144=
CYYG;2007-09-13 10:00;METAR CYYG 131000Z 27006KT 15SM FEW020 11/06 A2997 RMK SC1 SLP150=
CYYG;2007-09-13 11:00;METAR CYYG 131100Z 26006KT 15SM FEW020 11/07 A3001 RMK SC1 SLP162=
CYYG;2007-09-13 12:00;METAR CYYG 131200Z 26010KT 15SM FEW030 13/08 A3003 RMK SC2 SLP169=
CYYG;2007-09-13 13:00;METAR CYYG 131300Z 26012G18KT 15SM FEW030 13/07 A3005 RMK SC2 SLP176=
CYYG;2007-09-13 14:00;METAR CYYG 131400Z 28014G19KT 15SM FEW030 14/05 A3006 RMK SC1 SLP179=
CYYG;2007-09-13 15:00;METAR CYYG 131500Z 27014G21KT 15SM FEW030 15/04 A3008 RMK CF1 SLP186=
CYYG;2007-09-13 16:00;METAR CYYG 131600Z 27015G22KT 15SM FEW030 15/03 A3009 RMK SC1 SLP189=
CYYG;2007-09-13 17:00;METAR CYYG 131700Z 28014KT 15SM FEW030 16/03 A3008 RMK SC1 SLP187=
CYYG;2007-09-13 18:00;METAR CYYG 131800Z 28015G20KT 15SM FEW030 16/03 A3008 RMK SC1 SLP188=
CYYG;2007-09-13 19:00;METAR CYYG 131900Z 28012G17KT 15SM FEW030 16/02 A3009 RMK SC1 SLP191=
CYYG;2007-09-13 20:00;METAR CYYG 132000Z 29011KT 15SM FEW030 16/03 A3009 RMK SC1 SLP190=
CYYG;2007-09-13 21:00;METAR CYYG 132100Z 28009KT 15SM FEW030 15/02 A3009 RMK SC1 SLP190=
CYYG;2007-09-13 22:00;METAR CYYG 132200Z 30004KT 15SM FEW030 13/02 A3011 RMK SC1 SLP197=
CYYG;2007-09-13 23:00;METAR CYYG 132300Z 29003KT 15SM FEW050 11/03 A3012 RMK SC1 SLP200=
CYYG;2007-09-14 00:00;METAR CYYG 140000Z 28005KT 15SM SKC 10/02 A3013 RMK SLP205=
CYYG;2007-09-14 01:00;METAR CYYG 140100Z 29005KT 15SM SKC 10/02 A3015 RMK SLP211=
CYYG;2007-09-14 02:00;METAR CYYG 140200Z 30004KT 15SM SKC 09/02 A3017 RMK SLP218=
CYYG;2007-09-14 03:00;METAR CYYG 140300Z 32005KT 15SM SKC 09/02 A3017 RMK SLP219=
CYYG;2007-09-14 04:00;METAR CYYG 140400Z 27004KT 15SM SKC 09/02 A3020 RMK SLP226=
CYYG;2007-09-14 05:00;METAR CYYG 140500Z 29004KT 15SM SKC 07/03 A3021 RMK SLP231=
CYYG;2007-09-14 06:00;METAR CYYG 140600Z 26003KT 15SM SKC 08/02 A3023 RMK SLP236=
CYYG;2007-09-14 07:00;METAR CYYG 140700Z 27003KT 15SM SKC 07/02 A3023 RMK SLP238=
CYYG;2007-09-14 08:00;METAR CYYG 140800Z 26004KT 15SM SKC 07/02 A3025 RMK SLP243=
CYYG;2007-09-14 09:00;METAR CYYG 140900Z 27004KT 15SM SKC 07/02 A3026 RMK SLP248=
CYYG;2007-09-14 10:00;METAR CYYG 141000Z 27004KT 15SM SKC 07/02 A3027 RMK SLP252=
CYYG;2007-09-14 11:00;METAR CYYG 141100Z 27004KT 15SM SKC 09/03 A3029 RMK SLP257=
CYYG;2007-09-14 12:00;METAR CYYG 141200Z 27003KT 15SM SKC 12/04 A3030 RMK SLP260=
CYYG;2007-09-14 13:00;METAR CYYG 141300Z 26005KT 15SM FEW250 14/03 A3031 RMK CI1 SLP264=
CYYG;2007-09-14 14:00;METAR CYYG 141400Z 23002KT 15SM FEW250 15/02 A3030 RMK CI1 SLP262=
CYYG;2007-09-14 15:00;METAR CYYG 141500Z 21006KT 15SM FEW250 15/02 A3030 RMK CI1 SLP260=
CYYG;2007-09-14 16:00;METAR CYYG 141600Z 19007KT 15SM FEW250 16/05 A3028 RMK CI1 SLP256=
CYYG;2007-09-14 17:00;METAR CYYG 141700Z 19008KT 15SM FEW250 17/03 A3027 RMK CI1 SLP251=
CYYG;2007-09-14 18:00;METAR CYYG 141800Z 19006KT 15SM FEW250 17/04 A3026 RMK CI1 SLP247=
CYYG;2007-09-14 19:00;METAR CYYG 141900Z 19008KT 15SM FEW250 17/04 A3025 RMK CI1 SLP243=
CYYG;2007-09-14 20:00;METAR CYYG 142000Z 17008KT 15SM FEW250 18/06 A3023 RMK CI1 SLP237=
CYYG;2007-09-14 21:00;METAR CYYG 142100Z 16010KT 15SM FEW250 18/06 A3021 RMK CI1 SLP231=
CYYG;2007-09-14 22:00;METAR CYYG 142200Z 16007KT 15SM FEW250 16/07 A3021 RMK CI1 SLP232=
CYYG;2007-09-14 23:00;METAR CYYG 142300Z 14007KT 15SM SKC 14/06 A3022 RMK SLP234=
CYYG;2007-09-15 00:00;METAR CYYG 150000Z 15006KT 15SM SKC 13/07 A3022 RMK SLP235=
CYYG;2007-09-15 01:00;METAR CYYG 150100Z 19012G17KT 15SM SKC 15/08 A3022 RMK SLP233=
CYYG;2007-09-15 02:00;METAR CYYG 150200Z 19013KT 15SM SKC 14/09 A3021 RMK SLP232=
CYYG;2007-09-15 03:00;METAR CYYG 150300Z 20011KT 15SM FEW090 SCT120 13/08 A3021 RMK AC1AC1 SLP232=
CYYG;2007-09-15 04:00;METAR CYYG 150400Z 19010KT 15SM SCT100 13/09 A3019 RMK AC2 SLP225=
CYYG;2007-09-15 05:00;METAR CYYG 150500Z 18013KT 15SM FEW100 13/09 A3017 RMK AC1 SLP219=
CYYG;2007-09-15 06:00;METAR CYYG 150600Z 18010KT 15SM FEW090 13/10 A3018 RMK AC1 SLP220=
CYYG;2007-09-15 07:00;METAR CYYG 150700Z 17008KT 15SM SCT100 13/10 A3017 RMK AC2 SLP216=
CYYG;2007-09-15 08:00;METAR CYYG 150800Z 16007KT 15SM FEW240 13/09 A3015 RMK CI1 SLP211=
CYYG;2007-09-15 09:00;METAR CYYG 150900Z 13006KT 15SM FEW050 FEW230 12/09 A3014 RMK SC1CI1 SLP208=
CYYG;2007-09-15 10:00;METAR CYYG 151000Z 12007KT 15SM BKN040 BKN230 12/09 A3014 RMK SC5CI1 SLP206=
CYYG;2007-09-15 11:00;METAR CYYG 151100Z 14006KT 15SM BKN036 BKN100 BKN230 13/10 A3011 RMK SC5AC1CI1 SLP198=
CYYG;2007-09-15 12:00;METAR CYYG 151200Z 15010G15KT 15SM BKN029 BKN100 BKN230 15/11 A3009 RMK SC6AC1CI1 SLP192=
CYYG;2007-09-15 12:14;SPECI CYYG 151214Z 16012KT 15SM -SHRA FEW010 BKN024 15/ RMK SF1SC7=
CYYG;2007-09-15 13:00;METAR CYYG 151300Z 15006KT 15SM -SHRA FEW010 OVC021 15/12 A3008 RMK SF1SC7 VIS LWR N-NE SLP186=
CYYG;2007-09-15 13:29;SPECI CYYG 151329Z 15012G17KT 15SM VCSH FEW010 BKN023 OVC230 16/ RMK SF1SC6CI0=
CYYG;2007-09-15 14:00;METAR CYYG 151400Z 16012G19KT 15SM FEW011 BKN027 OVC230 17/13 A3003 RMK SF1SC6CI1 SLP171=
CYYG;2007-09-15 15:00;METAR CYYG 151500Z 17016KT 15SM FEW012 BKN029 OVC051 18/15 A3000 RMK SF1SC5SC2 SLP158=
CYYG;2007-09-15 16:00;METAR CYYG 151600Z 16019G26KT 15SM FEW014 SCT031 BKN053 OVC096 19/15 A2997 RMK SF1SC3SC2AC2 SLP148=
CYYG;2007-09-15 16:26;SPECI CYYG 151626Z 15015G24KT 15SM -SHRA FEW014 SCT030 OVC054 18/ RMK SF1SC3SC4=
CYYG;2007-09-15 17:00;METAR CYYG 151700Z 15017G25KT 12SM -SHRA FEW012 BKN021 OVC038 18/16 A2993 RMK SF2SC5SC2 VIS LWR SE-SW SLP135=
CYYG;2007-09-15 18:00;METAR CYYG 151800Z 14014G24KT 15SM -SHRA FEW012 SCT025 OVC047 17/16 A2986 RERA RMK SF2SC2SC4 SLP113=
CYYG;2007-09-15 19:00;METAR CYYG 151900Z 14014G24KT 15SM -SHRA FEW012 BKN021 OVC050 18/15 A2980 RMK SF1SC5SC2 VIS LWR NW PRESFR SLP092=
CYYG;2007-09-15 20:00;METAR CYYG 152000Z 14014G21KT 12SM -SHRA FEW010 BKN016 OVC040 18/17 A2972 RMK SF2SC5SC1 PRESFR SLP065=
CYYG;2007-09-15 20:37;SPECI CYYG 152037Z 15014G20KT 3SM SHRA BR SCT008 OVC014 18/ RMK SF3SC5=
CYYG;2007-09-15 20:51;SPECI CYYG 152051Z 14016G21KT 2SM SHRA BR BKN006 OVC012 18/ RMK SF6SC2=
CYYG;2007-09-15 21:00;METAR CYYG 152100Z 14018KT 2 1/2SM SHRA BR BKN006 OVC012 19/18 A2961 RMK SF6SC2 PRESFR SLP029=
CYYG;2007-09-15 21:13;SPECI CYYG 152113Z 15019G29KT 1 1/2SM +SHRA BR OVC005 19/ RMK SF8=
CYYG;2007-09-15 21:44;SPECI CYYG 152144Z 16023G32KT 3SM -SHRA BR BKN006 OVC025 19/ RMK SF6SC2=
CYYG;2007-09-15 22:00;METAR CYYG 152200Z 16028G38KT 6SM -SHRA BR BKN008 OVC024 19/18 A2956 RMK SF6SC2 /R10/ SLP010=
CYYG;2007-09-15 22:42;SPECI CYYG 152242Z 17024G31KT 8SM -SHRA SCT008 OVC019 19/ RMK SF4SC4=
CYYG;2007-09-15 23:00;METAR CYYG 152300Z 18021G30KT 8SM -SHRA FEW008 BKN024 OVC120 20/17 A2955 RMK SF2SC5AC1 SLP009=
CYYG;2007-09-16 00:00;METAR CYYG 160000Z 20019G27KT 12SM -SHRA OVC023 20/18 A2957 RMK SC8 SLP014=
CYYG;2007-09-16 01:00;METAR CYYG 160100Z 25019G29KT 15SM OVC011 18/16 A2963 RMK SC8 SLP033=
CYYG;2007-09-16 02:00;METAR CYYG 160200Z 26010G16KT 15SM OVC016 16/14 A2968 RMK SC8 SLP051=
CYYG;2007-09-16 03:00;METAR CYYG 160300Z 25013G18KT 15SM OVC014 16/14 A2972 RMK SC8 SLP065=
CYYG;2007-09-16 04:00;METAR CYYG 160400Z 26011G16KT 15SM SCT014 OVC026 15/13 A2975 RMK SC3SC5 SLP074=
CYYG;2007-09-16 05:00;METAR CYYG 160500Z 27010KT 15SM SCT022 OVC034 15/12 A2979 RMK SC3SC5 SLP090=
CYYG;2007-09-16 06:00;METAR CYYG 160600Z 27012KT 15SM OVC031 14/11 A2982 RMK SC8 SLP098=
CYYG;2007-09-16 07:00;METAR CYYG 160700Z 30010KT 12SM -DZ OVC015 13/11 A2986 RMK SC8 SLP112=
CYYG;2007-09-16 08:00;METAR CYYG 160800Z 30010G18KT 12SM -DZ OVC024 11/08 A2990 RMK SC8 SLP125=
CYYG;2007-09-16 08:32;SPECI CYYG 160832Z 28010KT 15SM OVC025 11/ RMK SC8=
CYYG;2007-09-16 09:00;METAR CYYG 160900Z 29012G18KT 15SM OVC026 11/08 A2994 RMK SC8 SLP138=
CYYG;2007-09-16 10:00;METAR CYYG 161000Z 29008KT 15SM BKN022 10/07 A2998 RMK SC7 SLP154=
CYYG;2007-09-16 11:00;METAR CYYG 161100Z 29006KT 15SM BKN022 10/06 A3003 RMK SC7 SLP170=
CYYG;2007-09-16 12:00;METAR CYYG 161200Z 30008KT 15SM BKN025 11/06 A3006 RMK SC7 SLP178=
CYYG;2007-09-16 13:00;METAR CYYG 161300Z 29008KT 15SM BKN029 11/07 A3009 RMK SC7 SLP188=
CYYG;2007-09-16 14:00;METAR CYYG 161400Z 30008KT 15SM BKN029 12/07 A3012 RMK SC7 SLP198=
CYYG;2007-09-16 15:00;METAR CYYG 161500Z 31009KT 15SM BKN031 12/07 A3014 RMK SC7 SLP206=
CYYG;2007-09-16 16:00;METAR CYYG 161600Z 34009KT 15SM BKN027 12/06 A3015 RMK SC7 SLP212=
CYYG;2007-09-16 17:00;METAR CYYG 161700Z 34005KT 15SM BKN029 BKN300 13/07 A3017 RMK SC6CI0 SLP218=
CYYG;2007-09-16 18:00;METAR CYYG 161800Z 34007KT 15SM SCT038 BKN300 14/07 A3017 RMK SC4CI0 SLP219=
CYYG;2007-09-16 19:00;METAR CYYG 161900Z 34006KT 15SM FEW034 BKN300 14/08 A3018 RMK SC2CI0 SLP220=
CYYG;2007-09-16 20:00;METAR CYYG 162000Z 36004KT 15SM FEW036 BKN300 13/07 A3019 RMK SC2CI1 SLP223=
CYYG;2007-09-16 21:00;METAR CYYG 162100Z 02003KT 15SM FEW042 SCT300 12/07 A3020 RMK SC2CI0 SLP227=
CYYG;2007-09-16 22:00;METAR CYYG 162200Z 02002KT 15SM FEW040 FEW300 11/07 A3021 RMK SC2CI0 SLP232=
CYYG;2007-09-16 23:00;METAR CYYG 162300Z 09004KT 15SM FEW040 10/07 A3023 RMK SC1 SLP239=
CYYG;2007-09-17 00:00;METAR CYYG 170000Z 00000KT 15SM FEW040 08/06 A3026 RMK SC1 SLP247=
CYYG;2007-09-17 01:00;METAR CYYG 170100Z 17004KT 15SM SKC 09/07 A3027 RMK SLP250=
CYYG;2007-09-17 02:00;METAR CYYG 170200Z 20002KT 15SM SKC 10/07 A3029 RMK SLP257=
CYYG;2007-09-17 03:00;METAR CYYG 170300Z 19002KT 15SM SKC 07/05 A3030 RMK SLP261=
CYYG;2007-09-17 04:00;METAR CYYG 170400Z 22003KT 15SM SKC 07/05 A3031 RMK SLP264=
CYYG;2007-09-17 05:00;METAR CYYG 170500Z 24004KT 15SM SKC 09/06 A3031 RMK SLP267=
CYYG;2007-09-17 06:00;METAR CYYG 170600Z 00000KT 15SM SKC 06/05 A3032 RMK SLP270=
CYYG;2007-09-17 07:00;METAR CYYG 170700Z 26002KT 15SM SKC 07/06 A3033 RMK SLP273=
CYYG;2007-09-17 08:00;METAR CYYG 170800Z 27004KT 15SM SKC 07/06 A3034 RMK SLP277=
CYYG;2007-09-17 09:00;METAR CYYG 170900Z 29004KT 15SM FEW120 07/06 A3036 RMK AC1 SLP282=
CYYG;2007-09-17 10:00;METAR CYYG 171000Z 27003KT 15SM FEW120 07/05 A3037 RMK AC1 SLP287=
CYYG;2007-09-17 11:00;METAR CYYG 171100Z 30003KT 15SM FEW012 FEW280 10/07 A3039 RMK CF1CI1 SLP292=
CYYG;2007-09-17 12:00;METAR CYYG 171200Z 29007KT 15SM FEW012 FEW280 12/08 A3040 RMK CF1CI1 SLP296=
CYYG;2007-09-17 13:00;METAR CYYG 171300Z 32005KT 15SM FEW012 FEW280 14/09 A3042 RMK CF1CI1 SLP303=
CYYG;2007-09-17 14:00;METAR CYYG 171400Z 34006KT 15SM FEW015 FEW280 15/05 A3043 RMK CF1CI1 SLP306=
CYYG;2007-09-17 15:00;METAR CYYG 171500Z 30006KT 15SM FEW020 FEW280 16/05 A3044 RMK CU1CI1 SLP309=
CYYG;2007-09-17 16:00;METAR CYYG 171600Z 32002KT 15SM FEW030 FEW280 16/04 A3042 RMK CU1CI1 SLP304=
CYYG;2007-09-17 17:00;METAR CYYG 171700Z 32005KT 15SM FEW030 FEW280 17/04 A3042 RMK CU1CI1 SLP303=
CYYG;2007-09-17 18:00;METAR CYYG 171800Z 10008KT 15SM FEW040 FEW280 17/07 A3041 RMK SC1CI1 SLP300=
CYYG;2007-09-17 19:00;METAR CYYG 171900Z 09005KT 15SM FEW040 FEW280 16/07 A3041 RMK SC1CI1 SLP300=
CYYG;2007-09-17 20:00;METAR CYYG 172000Z 18005KT 15SM FEW040 FEW280 16/06 A3041 RMK SC1CI1 SLP301=
CYYG;2007-09-17 21:00;METAR CYYG 172100Z 17006KT 15SM FEW045 FEW280 15/06 A3042 RMK SC1CI1 SLP302=
CYYG;2007-09-17 22:00;METAR CYYG 172200Z 00000KT 15SM FEW045 13/07 A3043 RMK SC1 SLP305=
CYYG;2007-09-17 23:00;METAR CYYG 172300Z 10004KT 15SM FEW045 12/06 A3043 RMK SC1 SLP306=
CYYG;2007-09-18 00:00;METAR CYYG 180000Z 11003KT 15SM SKC 09/06 A3043 RMK SLP306=
CYYG;2007-09-18 01:00;METAR CYYG 180100Z 17002KT 15SM FEW110 10/06 A3042 RMK AC2 SLP304=
CYYG;2007-09-18 02:00;METAR CYYG 180200Z 16003KT 15SM FEW110 09/06 A3043 RMK AC2 SLP307=
CYYG;2007-09-18 03:00;METAR CYYG 180300Z 17003KT 15SM SCT085 09/06 A3044 RMK AC4 SLP307=
CYYG;2007-09-18 04:00;METAR CYYG 180400Z 18002KT 15SM SCT100 08/06 A3043 RMK AC4 SLP306=
CYYG;2007-09-18 05:00;METAR CYYG 180500Z 25005KT 15SM FEW100 07/06 A3043 RMK AC2 SLP304=
CYYG;2007-09-18 06:00;METAR CYYG 180600Z 24003KT 15SM FEW100 08/06 A3042 RMK AC2 SLP301=
CYYG;2007-09-18 07:00;METAR CYYG 180700Z 24002KT 15SM FEW100 07/06 A3042 RMK AC2 SLP302=
CYYG;2007-09-18 08:00;METAR CYYG 180800Z 24004KT 15SM FEW100 05/04 A3042 RMK AC2 SLP303=
CYYG;2007-09-18 09:00;METAR CYYG 180900Z 26003KT 15SM SKC 09/08 A3044 RMK SLP309=
CYYG;2007-09-18 10:00;METAR CYYG 181000Z 25006KT 15SM FEW100 09/08 A3045 RMK AC1 SLP314=
CYYG;2007-09-18 11:00;METAR CYYG 181100Z 27005KT 15SM FEW250 10/08 A3045 RMK CI0 SLP313=
CYYG;2007-09-18 12:00;METAR CYYG 181200Z 27005KT 15SM FEW250 12/09 A3046 RMK CI0 SLP315=
CYYG;2007-09-18 13:00;METAR CYYG 181300Z 23005KT 15SM FEW250 15/09 A3046 RMK CI1 SLP315=
CYYG;2007-09-18 14:00;METAR CYYG 181400Z 20005KT 15SM FEW250 17/08 A3046 RMK CI0 SLP315=
CYYG;2007-09-18 15:00;METAR CYYG 181500Z 21004KT 15SM FEW250 17/07 A3045 RMK CI1 SLP311=
CYYG;2007-09-18 16:00;METAR CYYG 181600Z 19005KT 15SM FEW250 18/08 A3043 RMK CI1 SLP305=
CYYG;2007-09-18 17:00;METAR CYYG 181700Z 23005KT 15SM FEW250 19/07 A3043 RMK CI1 SLP306=
CYYG;2007-09-18 18:00;METAR CYYG 181800Z 22007KT 15SM FEW250 18/08 A3043 RMK CI1 SLP306=
CYYG;2007-09-18 19:00;METAR CYYG 181900Z 19006KT 15SM FEW250 19/07 A3041 RMK CI1 SLP300=
CYYG;2007-09-18 20:00;METAR CYYG 182000Z 20004KT 15SM FEW250 19/05 A3040 RMK CI1 SLP296=
CYYG;2007-09-18 21:00;METAR CYYG 182100Z 18002KT 15SM FEW250 18/04 A3039 RMK CI1 SLP291=
CYYG;2007-09-18 22:00;METAR CYYG 182200Z 14005KT 15SM FEW250 16/06 A3038 RMK CI1 SLP289=
CYYG;2007-09-18 23:00;METAR CYYG 182300Z 00000KT 15SM FEW250 11/07 A3039 RMK CI1 SLP291=
CYYG;2007-09-19 00:00;METAR CYYG 190000Z 16002KT 15SM SKC 10/08 A3039 RMK SLP294=
CYYG;2007-09-19 01:00;METAR CYYG 190100Z 19004KT 15SM SKC 13/09 A3039 RMK SLP291=
CYYG;2007-09-19 02:00;METAR CYYG NIL=
CYYG;2007-09-19 03:00;METAR CYYG 190300Z 20003KT 15SM SKC 12/10 A3037 RMK SLP284=
CYYG;2007-09-19 04:00;METAR CYYG 190400Z 22004KT 15SM SKC 12/09 A3036 RMK SLP281=
CYYG;2007-09-19 05:00;METAR CYYG 190500Z 20005KT 15SM SKC 11/09 A3035 RMK SLP277=
CYYG;2007-09-19 06:00;METAR CYYG 190600Z 23006KT 15SM SKC 12/09 A3033 RMK SLP272=
CYYG;2007-09-19 07:00;METAR CYYG 190700Z 23006KT 15SM FEW100 11/09 A3032 RMK AC1 SLP268=
CYYG;2007-09-19 08:00;METAR CYYG 190800Z 23004KT 15SM FEW100 11/09 A3031 RMK AC1 SLP265=
CYYG;2007-09-19 09:00;METAR CYYG 190900Z 22005KT 15SM FEW100 11/09 A3031 RMK AC1 SLP263=
CYYG;2007-09-19 10:00;METAR CYYG 191000Z 23004KT 15SM FEW160 10/09 A3031 RMK AC2 SLP266=
CYYG;2007-09-19 11:00;METAR CYYG 191100Z 22006KT 15SM FEW240 12/10 A3031 RMK CI1 SLP264=
CYYG;2007-09-19 12:00;METAR CYYG 191200Z 25007KT 15SM FEW240 14/11 A3031 RMK CI1 SLP264=
CYYG;2007-09-19 13:00;METAR CYYG 191300Z 24007KT 15SM FEW240 16/11 A3030 RMK CI1 SLP260=
CYYG;2007-09-19 14:00;METAR CYYG 191400Z 24009KT 15SM FEW240 17/10 A3028 RMK CI1 SLP253=
CYYG;2007-09-19 15:00;METAR CYYG 191500Z 22015KT 15SM FEW140 SCT240 17/09 A3025 RMK AC1CI1 SLP244=
CYYG;2007-09-19 16:00;METAR CYYG 191600Z 22015KT 15SM FEW140 BKN240 17/08 A3023 RMK AC1CI2 SLP237=
CYYG;2007-09-19 17:00;METAR CYYG 191700Z 21017KT 15SM FEW140 BKN240 19/08 A3020 RMK AC1CI2 SLP227=
CYYG;2007-09-19 18:00;METAR CYYG 191800Z 22014KT 15SM FEW140 SCT240 19/08 A3017 RMK AC2CI1 SLP219=
CYYG;2007-09-19 19:00;METAR CYYG 191900Z 22017KT 15SM FEW140 SCT240 19/09 A3015 RMK AC2CI1 SLP210=
CYYG;2007-09-19 20:00;METAR CYYG 192000Z 23011KT 15SM FEW140 BKN220 19/10 A3014 RMK AC2CI3 SLP207=
CYYG;2007-09-19 21:00;METAR CYYG 192100Z 22013KT 15SM FEW120 BKN190 18/10 A3012 RMK AC2AC2 SLP200=
CYYG;2007-09-19 22:00;METAR CYYG 192200Z 22012KT 15SM FEW120 BKN220 17/10 A3011 RMK AC2CI2 SLP197=
CYYG;2007-09-19 23:00;METAR CYYG 192300Z 22010KT 15SM FEW110 BKN220 16/10 A3012 RMK AC2CI2 SLP200=
CYYG;2007-09-20 00:00;METAR CYYG 200000Z 23009KT 15SM FEW110 BKN220 16/10 A3012 RMK AC2CI2 SLP199=
CYYG;2007-09-20 01:00;METAR CYYG 200100Z 25010G16KT 15SM FEW110 BKN250 15/10 A3012 RMK AC2CI2 SLP200=
CYYG;2007-09-20 02:00;METAR CYYG 200200Z 23007KT 15SM FEW100 FEW250 14/10 A3012 RMK AC1CI1 SLP200=
CYYG;2007-09-20 03:00;METAR CYYG 200300Z 24009G15KT 15SM FEW250 14/10 A3011 RMK CI1 SLP196=
CYYG;2007-09-20 04:00;METAR CYYG 200400Z 25010KT 15SM FEW150 FEW250 14/11 A3010 RMK AC1CI1 SLP194=
CYYG;2007-09-20 05:00;METAR CYYG 200500Z 24009G16KT 15SM FEW250 14/11 A3010 RMK CI1 SLP193=
CYYG;2007-09-20 06:00;METAR CYYG 200600Z 24011G16KT 15SM FEW150 FEW250 14/11 A3009 RMK AC1CI1 SLP189=
CYYG;2007-09-20 07:00;METAR CYYG 200700Z 23010G15KT 15SM FEW250 14/11 A3008 RMK CI1 SLP186=
CYYG;2007-09-20 08:00;METAR CYYG 200800Z 23010KT 15SM FEW110 FEW250 13/11 A3007 RMK AC1CI1 SLP184=
CYYG;2007-09-20 08:45;SPECI CYYG 200845Z 23013KT 15SM FEW008 SCT250 13/ RMK SF2CI1=
CYYG;2007-09-20 09:00;METAR CYYG 200900Z 23008G15KT 15SM BKN008 14/12 A3006 RMK SF5 SLP181=
CYYG;2007-09-20 10:00;METAR CYYG 201000Z 23008KT 15SM BKN008 BKN250 14/12 A3007 RMK SF5CI1 SLP182=
CYYG;2007-09-20 10:14;SPECI CYYG 201014Z 23008KT 15SM BKN010 BKN250 14/ RMK SF5CI1=
CYYG;2007-09-20 10:24;SPECI CYYG 201024Z 24008KT 15SM SCT010 BKN250 14/ RMK SF2CI1=
CYYG;2007-09-20 11:00;METAR CYYG 201100Z 25011G16KT 15SM FEW010 SCT250 15/12 A3006 RMK SF1CI1 SLP180=
CYYG;2007-09-20 12:00;METAR CYYG 201200Z 23011G16KT 15SM FEW015 FEW250 16/13 A3005 RMK SC1CI1 SLP177=
CYYG;2007-09-20 13:00;METAR CYYG 201300Z 23013KT 15SM FEW020 FEW250 17/13 A3004 RMK SC1CI0 SLP174=
CYYG;2007-09-20 14:00;METAR CYYG 201400Z 24016KT 15SM FEW250 18/12 A3002 RMK CI1 SLP167=
CYYG;2007-09-20 15:00;METAR CYYG 201500Z 23018G24KT 15SM FEW250 19/12 A3001 RMK CI1 SLP164=
CYYG;2007-09-20 16:00;METAR CYYG 201600Z 23016G21KT 15SM FEW250 20/13 A3000 RMK CI1 SLP158=
CYYG;2007-09-20 17:00;METAR CYYG 201700Z 24014G22KT 15SM FEW250 21/13 A2998 RMK CI1 SLP154=
CYYG;2007-09-20 18:00;METAR CYYG 201800Z 24018G25KT 15SM FEW250 21/12 A2997 RMK CI1 SLP150=
CYYG;2007-09-20 19:00;METAR CYYG 201900Z 25015G20KT 15SM FEW250 21/12 A2998 RMK CI1 SLP152=
CYYG;2007-09-20 20:00;METAR CYYG 202000Z 24009G17KT 15SM SCT250 20/12 A2998 RMK CI1 SLP153=
CYYG;2007-09-20 21:00;METAR CYYG 202100Z 25010G16KT 15SM SCT250 19/12 A2999 RMK CI1 SLP157=
CYYG;2007-09-20 22:00;METAR CYYG 202200Z 25012KT 15SM SCT250 17/12 A3000 RMK CI2 SLP160=
CYYG;2007-09-20 23:00;METAR CYYG 202300Z 25009KT 15SM FEW250 16/13 A3002 RMK CI1 SLP166=
CYYG;2007-09-21 00:00;METAR CYYG 210000Z 25010KT 15SM FEW250 15/13 A3004 RMK CI1 SLP173=
CYYG;2007-09-21 01:00;METAR CYYG 210100Z 25009KT 15SM FEW250 15/13 A3005 RMK CI1 SLP176=
CYYG;2007-09-21 02:00;METAR CYYG 210200Z 28005KT 15SM FEW250 14/12 A3007 RMK CI1 SLP184=
CYYG;2007-09-21 03:00;METAR CYYG 210300Z 31005KT 15SM FEW250 14/12 A3010 RMK CI1 SLP192=
CYYG;2007-09-21 04:00;METAR CYYG 210400Z 32004KT 15SM FEW250 14/11 A3011 RMK CI1 SLP196=
CYYG;2007-09-21 05:00;METAR CYYG 210500Z 34005KT 15SM SKC 14/10 A3013 RMK SLP204=
CYYG;2007-09-21 06:00;METAR CYYG 210600Z 33004KT 15SM SKC 13/10 A3013 RMK SLP204=
CYYG;2007-09-21 07:00;METAR CYYG 210700Z 33005KT 15SM SKC 12/09 A3014 RMK SLP207=
CYYG;2007-09-21 08:00;METAR CYYG 210800Z 32003KT 15SM SKC 11/09 A3015 RMK SLP209=
CYYG;2007-09-21 09:00;METAR CYYG 210900Z 27004KT 15SM SKC 09/07 A3016 RMK SLP214=
CYYG;2007-09-21 10:00;METAR CYYG 211000Z 35003KT 15SM FEW250 08/08 A3018 RMK CI1 SLP222=
CYYG;2007-09-21 11:00;METAR CYYG 211100Z 36005KT 15SM FEW250 11/09 A3020 RMK CI0 SLP226=
CYYG;2007-09-21 12:00;METAR CYYG 211200Z 34003KT 15SM FEW250 14/11 A3021 RMK CI1 SLP230=
CYYG;2007-09-21 13:00;METAR CYYG 211300Z 08003KT 15SM BKN250 17/09 A3021 RMK CI2 SLP232=
CYYG;2007-09-21 14:00;METAR CYYG 211400Z 07005KT 15SM FEW030 SCT080 BKN250 18/08 A3021 RMK SC1AC1CI1 SLP231=
CYYG;2007-09-21 15:00;METAR CYYG 211500Z 12003KT 15SM FEW030 FEW080 BKN250 18/10 A3021 RMK SC1AC1CI1 SLP231=
CYYG;2007-09-21 16:00;METAR CYYG 211600Z 00000KT 15SM FEW032 FEW080 BKN250 18/11 A3020 RMK SC2AC1CI2 SLP227=
CYYG;2007-09-21 17:00;METAR CYYG 211700Z 20005KT 15SM FEW030 BKN250 19/11 A3019 RMK SC2CI3 SLP223=
CYYG;2007-09-21 18:00;METAR CYYG 211800Z 21008KT 15SM BKN035 BKN250 18/12 A3017 RMK SC5CI2 SLP219=
CYYG;2007-09-21 19:00;METAR CYYG 211900Z 23006KT 15SM FEW030 BKN250 19/11 A3017 RMK SC2CI1 SLP219=
CYYG;2007-09-21 20:00;METAR CYYG 212000Z 30007KT 15SM FEW030 BKN250 19/11 A3017 RMK SC2CI2 SLP217=
CYYG;2007-09-21 21:00;METAR CYYG 212100Z 01005KT 15SM FEW030 SCT250 17/10 A3017 RMK SC1CI1 SLP219=
CYYG;2007-09-21 22:00;METAR CYYG 212200Z 03005KT 15SM FEW030 SCT250 14/09 A3018 RMK SC1CI1 SLP221=
CYYG;2007-09-21 23:00;METAR CYYG 212300Z 07003KT 15SM FEW030 FEW250 11/08 A3020 RMK SC1CI0 SLP226=
CYYG;2007-09-22 00:00;METAR CYYG 220000Z 13003KT 15SM FEW030 FEW250 13/09 A3020 RMK SC1CI0 SLP227=
CYYG;2007-09-22 01:00;METAR CYYG 220100Z 10002KT 15SM SCT250 11/08 A3021 RMK CI1 SLP230=
CYYG;2007-09-22 02:00;METAR CYYG 220200Z 12003KT 15SM SCT250 11/09 A3021 RMK CI1 SLP230=
CYYG;2007-09-22 03:00;METAR CYYG 220300Z 00000KT 15SM FEW250 10/08 A3020 RMK CI0 SLP228=
CYYG;2007-09-22 04:00;METAR CYYG 220400Z 18003KT 15SM BKN250 11/09 A3019 RMK CI2 SLP225=
CYYG;2007-09-22 05:00;METAR CYYG 220500Z 00000KT 15SM BKN250 09/08 A3018 RMK CI2 SLP222=
CYYG;2007-09-22 06:00;METAR CYYG 220600Z 00000KT 15SM BKN250 10/09 A3017 RMK CI2 SLP217=
CYYG;2007-09-22 07:00;METAR CYYG 220700Z 16002KT 15SM BKN250 11/10 A3016 RMK CI2 SLP215=
CYYG;2007-09-22 08:00;METAR CYYG 220800Z 17003KT 15SM MIFG BKN250 10/10 A3016 RMK CI2 SLP215=
CYYG;2007-09-22 09:00;METAR CYYG 220900Z 16002KT 15SM MIFG BKN250 11/11 A3017 RMK CI2 SLP218=
CYYG;2007-09-22 10:00;METAR CYYG 221000Z 15003KT 15SM MIFG BKN360 11/11 A3017 RMK CI2 SLP218=
CYYG;2007-09-22 11:00;METAR CYYG 221100Z 18004KT 15SM MIFG SCT050 BKN300 13/12 A3018 RMK SC2CI2 SLP221=
CYYG;2007-09-22 12:00;METAR CYYG 221200Z 18006KT 15SM FEW050 BKN300 15/14 A3017 RMK SC2CI2 SLP219=
CYYG;2007-09-22 13:00;METAR CYYG 221300Z 19008KT 15SM FEW052 BKN300 17/14 A3017 RMK SC2CI2 SLP217=
CYYG;2007-09-22 14:00;METAR CYYG 221400Z 18010KT 15SM FEW050 BKN250 18/12 A3016 RMK SC1CI2 SLP213=
CYYG;2007-09-22 15:00;METAR CYYG 221500Z 18010KT 15SM FEW046 SCT250 19/14 A3014 RMK SC1CI1 SLP206=
CYYG;2007-09-22 16:00;METAR CYYG 221600Z 18015KT 15SM FEW045 SCT250 19/14 A3012 RMK SC1CI1 SLP202=
CYYG;2007-09-22 17:00;METAR CYYG 221700Z 20014KT 15SM FEW040 SCT250 19/13 A3010 RMK SC1CI1 SLP194=
CYYG;2007-09-22 18:00;METAR CYYG 221800Z 21017KT 15SM FEW025 SCT250 19/13 A3008 RMK SC1CI1 SLP188=
CYYG;2007-09-22 19:00;METAR CYYG 221900Z 19015KT 15SM FEW025 SCT250 19/14 A3006 RMK SC1CI1 SLP179=
CYYG;2007-09-22 20:00;METAR CYYG 222000Z 19013KT 15SM FEW025 FEW250 19/14 A3004 RMK SC1CI1 SLP173=
CYYG;2007-09-22 21:00;METAR CYYG 222100Z 19018KT 15SM FEW025 FEW250 18/15 A3001 RMK SC1CI1 SLP164=
CYYG;2007-09-22 22:00;METAR CYYG 222200Z 21012KT 15SM BKN029 BKN250 18/14 A3000 RMK SC3CI2 SLP160=
CYYG;2007-09-22 23:00;METAR CYYG 222300Z 19013G18KT 15SM BKN026 18/13 A2999 RMK SC6 SLP155=
CYYG;2007-09-23 00:00;METAR CYYG 230000Z 21011KT 15SM BKN028 17/13 A3000 RMK SC6 SLP160=
CYYG;2007-09-23 01:00;METAR CYYG 230100Z 21014G19KT 15SM FEW025 17/14 A2999 RMK SC2 SLP156=
CYYG;2007-09-23 03:00;METAR CYYG 230300Z 20014KT 15SM BKN028 17/14 A2996 RMK SC5 SLP147=
CYYG;2007-09-23 04:00;METAR CYYG 230400Z 19011G18KT 15SM BKN029 17/14 A2995 RMK SC6 SLP142=
CYYG;2007-09-23 05:00;METAR CYYG 230500Z 20017G22KT 15SM FEW017 BKN028 17/14 A2993 RMK SC2SC5 SLP134=
CYYG;2007-09-23 06:00;METAR CYYG 230600Z 20012KT 15SM BKN020 BKN120 17/14 A2990 RMK SC5AC2 SLP126=
CYYG;2007-09-23 07:00;METAR CYYG 230700Z 22011G16KT 15SM BKN017 OVC029 17/14 A2988 RMK SC6SC2 SLP120=
CYYG;2007-09-23 08:00;METAR CYYG 230800Z 22008KT 15SM BKN013 OVC027 17/14 A2988 RMK SC6SC2 SLP120=
CYYG;2007-09-23 09:00;METAR CYYG 230900Z 24008KT 15SM BKN010 OVC016 17/14 A2988 RMK SC6SC2 SLP118=
CYYG;2007-09-23 09:43;SPECI CYYG 230943Z 24011G16KT 15SM OVC009 16/ RMK SC8=
CYYG;2007-09-23 10:00;METAR CYYG 231000Z 25016KT 15SM OVC008 16/14 A2988 RMK SF8 SLP118=
CYYG;2007-09-23 10:03;SPECI CYYG 231003Z 25011G18KT 15SM -DZ OVC008 16/ RMK SF8=
CYYG;2007-09-23 11:00;METAR CYYG 231100Z 24012KT 7SM -DZ OVC006 16/14 A2986 RMK SF8 SLP112=
CYYG;2007-09-23 12:00;METAR CYYG 231200Z 25012KT 7SM -DZ OVC005 16/15 A2985 RMK SF8 SLP110=
CYYG;2007-09-23 13:00;METAR CYYG 231300Z 25011G16KT 7SM -DZ OVC005 16/15 A2985 RMK SF8 SLP110=
CYYG;2007-09-23 13:21;SPECI CYYG 231321Z 25010KT 10SM BKN007 OVC012 16/ RMK SF6SC2=
CYYG;2007-09-23 13:47;SPECI CYYG 231347Z 26011KT 12SM BKN010 OVC015 16/ RMK SC6SC2=
CYYG;2007-09-23 14:00;METAR CYYG 231400Z 26011KT 12SM BKN012 OVC019 17/14 A2985 RMK SC6SC2 SLP108=
CYYG;2007-09-23 15:00;METAR CYYG 231500Z 24008KT 12SM BKN013 OVC021 17/14 A2982 RMK SC5SC3 SLP097=
CYYG;2007-09-23 16:00;METAR CYYG 231600Z 26011KT 15SM BKN015 19/15 A2979 RMK CU6 SLP088=
CYYG;2007-09-23 17:00;METAR CYYG 231700Z 25013KT 15SM SCT020 20/15 A2977 RMK CU4 SLP082=
CYYG;2007-09-23 18:00;METAR CYYG 231800Z 24013G18KT 15SM SCT035 20/13 A2973 RMK CU4 SLP068=
CYYG;2007-09-23 19:00;METAR CYYG 231900Z 25014KT 15SM BKN045 21/13 A2973 RMK SC6 SLP066=
CYYG;2007-09-23 20:00;METAR CYYG 232000Z 29013G20KT 15SM SCT055 21/10 A2973 RMK SC3 SLP066=
CYYG;2007-09-23 21:00;METAR CYYG 232100Z 29010G15KT 15SM SCT058 BKN072 19/09 A2973 RMK SC4AC1 SLP067=
CYYG;2007-09-23 22:00;METAR CYYG 232200Z 31009G16KT 15SM BKN060 18/08 A2976 RMK SC6 SLP076=
CYYG;2007-09-23 23:00;METAR CYYG 232300Z 35006KT 15SM FEW065 15/09 A2978 RMK SC1 SLP083=
CYYG;2007-09-24 00:00;METAR CYYG 240000Z 32007KT 15SM FEW060 FEW085 15/08 A2979 RMK SC1AC1 SLP088=
CYYG;2007-09-24 01:00;METAR CYYG 240100Z 32011G19KT 15SM FEW060 BKN085 15/05 A2980 RMK SC1AC4 SLP092=
CYYG;2007-09-24 02:00;METAR CYYG 240200Z 31012G19KT 15SM FEW060 BKN085 14/03 A2981 RMK SC1AC4 SLP095=
CYYG;2007-09-24 03:00;METAR CYYG 240300Z 30011G16KT 15SM SCT085 13/02 A2981 RMK AC3 SLP096=
CYYG;2007-09-24 04:00;METAR CYYG 240400Z 30010KT 15SM SCT070 13/02 A2980 RMK AC4 SLP092=
CYYG;2007-09-24 05:00;METAR CYYG 240500Z 30009KT 15SM SCT076 12/03 A2980 RMK AC4 SLP093=
CYYG;2007-09-24 06:00;METAR CYYG 240600Z 31010G25KT 15SM BKN065 12/02 A2980 RMK SC6 SLP093=
CYYG;2007-09-24 07:00;METAR CYYG 240700Z 33013KT 15SM -SHRA SCT040 OVC062 10/05 A2981 RMK SC3SC5 SLP096=
CYYG;2007-09-24 08:00;METAR CYYG 240800Z 32009KT 15SM -SHRA SCT030 OVC054 09/06 A2982 RMK SC3SC5 SLP100=
CYYG;2007-09-24 09:00;METAR CYYG 240900Z 30012G18KT 15SM SCT030 OVC052 09/03 A2982 RMK SC3SC5 SLP099=
CYYG;2007-09-24 09:23;SPECI CYYG 240923Z 30011G20KT 15SM FEW030 SCT052 09/ RMK SC2SC2=
CYYG;2007-09-24 10:00;METAR CYYG 241000Z 30010G16KT 15SM FEW050 BKN200 09/02 A2984 RMK SC2CI2 SLP105=
CYYG;2007-09-24 11:00;METAR CYYG 241100Z 29013G20KT 15SM FEW044 BKN250 09/03 A2985 RMK SC2CI2 SLP110=
CYYG;2007-09-24 12:00;METAR CYYG 241200Z 31016G22KT 15SM FEW045 BKN250 10/03 A2987 RMK SC2CI1 SLP114=
CYYG;2007-09-24 13:00;METAR CYYG 241300Z 31012G21KT 15SM BKN042 BKN250 11/04 A2988 RMK SC5CI1 SLP119=
CYYG;2007-09-24 14:00;METAR CYYG 241400Z 32016G24KT 15SM SCT038 BKN250 11/04 A2987 RMK SC4CI1 SLP114=
CYYG;2007-09-24 15:00;METAR CYYG 241500Z 31017G22KT 15SM BKN041 BKN250 12/04 A2986 RMK SC5CI1 SLP111=
CYYG;2007-09-24 16:00;METAR CYYG 241600Z 31018G25KT 15SM BKN038 11/03 A2986 RMK SC7 SLP112=
CYYG;2007-09-24 17:00;METAR CYYG 241700Z 30014G25KT 15SM BKN037 BKN250 11/03 A2985 RMK SC6CI1 SLP107=
CYYG;2007-09-24 18:00;METAR CYYG 241800Z 33013G24KT 15SM BKN046 BKN250 12/03 A2985 RMK SC5CI1 SLP107=
CYYG;2007-09-24 19:00;METAR CYYG 241900Z 32018G26KT 15SM SCT044 BKN250 13/03 A2985 RMK SC4CI1 SLP109=
CYYG;2007-09-24 20:00;METAR CYYG 242000Z 32015G22KT 15SM BKN050 BKN250 12/03 A2987 RMK SC5CI1 SLP115=
CYYG;2007-09-24 21:00;METAR CYYG 242100Z 33010G20KT 15SM SCT050 BKN250 12/03 A2987 RMK SC3CI2 SLP116=
CYYG;2007-09-24 22:00;METAR CYYG 242200Z 32011G19KT 15SM FEW050 SCT140 BKN250 11/03 A2989 RMK SC2AC1CI2 SLP122=
CYYG;2007-09-24 23:00;METAR CYYG 242300Z 31008KT 15SM FEW055 FEW140 BKN250 10/03 A2991 RMK SC2AC1CI1 SLP130=
CYYG;2007-09-25 00:00;METAR CYYG 250000Z 32008KT 15SM SCT055 SCT140 BKN250 10/03 A2993 RMK SC3AC1CI1 SLP136=
CYYG;2007-09-25 01:00;METAR CYYG 250100Z 29008KT 15SM FEW055 SCT140 BKN250 10/04 A2994 RMK SC2AC1CI1 SLP140=
CYYG;2007-09-25 02:00;METAR CYYG 250200Z 30008KT 15SM FEW055 SCT140 09/04 A2996 RMK SC2AC1 SLP146=
CYYG;2007-09-25 03:00;METAR CYYG 250300Z 27005KT 15SM SCT050 BKN140 08/04 A2996 RMK SC4AC1 SLP147=
CYYG;2007-09-25 04:00;METAR CYYG 250400Z 29008KT 15SM SCT050 09/04 A2996 RMK SC3 SLP146=
CYYG;2007-09-25 05:00;METAR CYYG 250500Z 27006KT 15SM SCT048 08/04 A2996 RMK SC3 SLP146=
CYYG;2007-09-25 06:00;METAR CYYG 250600Z 28007KT 15SM FEW048 08/04 A2997 RMK SC2 SLP150=
CYYG;2007-09-25 07:00;METAR CYYG 250700Z 28007KT 15SM FEW048 07/04 A2996 RMK SC2 SLP148=
CYYG;2007-09-25 08:00;METAR CYYG 250800Z 28006KT 15SM FEW048 SCT110 BKN170 07/05 A2998 RMK SC1AC3AC2 SLP152=
CYYG;2007-09-25 09:00;METAR CYYG 250900Z 27004KT 15SM FEW040 BKN120 BKN170 08/05 A2998 RMK SC1AC5AC2 SLP152=
CYYG;2007-09-25 10:00;METAR CYYG 251000Z 27004KT 15SM FEW040 SCT075 BKN110 BKN160 08/05 A2998 RMK SC1AC2AC2AC2 SLP154=
CYYG;2007-09-25 11:00;METAR CYYG 251100Z 27006KT 15SM FEW040 OVC060 09/06 A3000 RMK SC1SC7 SLP160=
CYYG;2007-09-25 12:00;METAR CYYG 251200Z 27004KT 15SM FEW040 OVC060 09/06 A2999 RMK SC1SC6 SLP157=
CYYG;2007-09-25 13:00;METAR CYYG 251300Z 27005KT 15SM FEW040 OVC061 10/06 A3000 RMK SC1SC6 SLP159=
CYYG;2007-09-25 14:00;METAR CYYG 251400Z 30004KT 15SM FEW030 OVC055 11/05 A2999 RMK SC2SC6 SLP157=
CYYG;2007-09-25 14:39;SPECI CYYG 251439Z 34003KT 15SM -SHRA OVC052 11/ RMK SC8=
CYYG;2007-09-25 15:00;METAR CYYG 251500Z 36002KT 15SM -SHRA OVC059 11/06 A2998 RMK SC8 SLP155=
CYYG;2007-09-25 15:11;SPECI CYYG 251511Z 27002KT 15SM OVC058 11/ RMK SC8=
CYYG;2007-09-25 16:00;METAR CYYG 251600Z 23003KT 15SM OVC056 12/07 A2996 RMK SC8 SLP146=
CYYG;2007-09-25 17:00;METAR CYYG 251700Z 18005KT 15SM OVC052 13/08 A2994 RMK SC8 SLP139=
CYYG;2007-09-25 18:00;METAR CYYG 251800Z 20008G15KT 15SM BKN056 14/06 A2990 RMK SC5 SLP125=
CYYG;2007-09-25 19:00;METAR CYYG 251900Z 18011KT 15SM FEW056 BKN140 14/07 A2985 RMK SC2AC3 SLP111=
CYYG;2007-09-25 20:00;METAR CYYG 252000Z 18010KT 15SM OVC120 14/09 A2982 RMK AC6 SLP099=
CYYG;2007-09-25 20:32;SPECI CYYG 252032Z 16009KT 15SM -SHRA FEW080 OVC120 14/ RMK AC2AC5=
CYYG;2007-09-25 21:00;METAR CYYG 252100Z 18008KT 15SM -SHRA SCT062 OVC150 14/10 A2979 RMK SC3AC2 SLP090=
CYYG;2007-09-25 21:28;SPECI CYYG 252128Z 17007KT 15SM SCT060 BKN130 14/ RMK SC3AC2=
CYYG;2007-09-25 22:00;METAR CYYG 252200Z 17010KT 15SM FEW060 BKN130 14/10 A2977 RMK SC2AC2 SLP080=
CYYG;2007-09-25 23:00;METAR CYYG 252300Z 20010KT 15SM SCT093 BKN100 16/12 A2974 RMK AC3AC3 SLP071=
CYYG;2007-09-25 23:24;SPECI CYYG 252324Z 20011KT 15SM -SHRA FEW054 BKN092 16/ RMK SC2AC6=
CYYG;2007-09-26 00:00;METAR CYYG 260000Z 22012KT 15SM -SHRA FEW056 OVC087 17/11 A2972 RMK SC2AC6 SLP064=
CYYG;2007-09-26 01:00;METAR CYYG 260100Z 23010G16KT 15SM OVC064 18/11 A2971 RMK SC8 SLP062=
CYYG;2007-09-26 02:00;METAR CYYG 260200Z 25013G18KT 15SM SCT060 BKN120 19/10 A2971 RMK SC3AC3 SLP060=
CYYG;2007-09-26 03:00;METAR CYYG 260300Z 25013G20KT 15SM SCT120 18/10 A2970 RMK AC2 SLP059=
CYYG;2007-09-26 04:00;METAR CYYG 260400Z 26011KT 15SM SCT120 18/11 A2971 RMK AC2 SLP061=
CYYG;2007-09-26 05:00;METAR CYYG 260500Z 25012KT 15SM SCT100 17/12 A2971 RMK AC2 SLP060=
CYYG;2007-09-26 06:00;METAR CYYG 260600Z 26008KT 15SM FEW100 17/12 A2971 RMK AC1 SLP060=
CYYG;2007-09-26 07:00;METAR CYYG 260700Z 25009KT 15SM FEW100 16/13 A2971 RMK AC1 SLP061=
CYYG;2007-09-26 08:00;METAR CYYG 260800Z 25009KT 15SM FEW100 16/13 A2972 RMK AC1 SLP065=
CYYG;2007-09-26 09:00;METAR CYYG 260900Z 27010KT 15SM SCT100 18/13 A2974 RMK AC2 SLP071=
CYYG;2007-09-26 10:00;METAR CYYG 261000Z 26008KT 15SM FEW100 SCT300 18/13 A2976 RMK AC2CI1 SLP079=
CYYG;2007-09-26 11:00;METAR CYYG 261100Z 26007KT 15SM BKN087 19/14 A2978 RMK AC7 SLP084=
CYYG;2007-09-26 12:00;METAR CYYG 261200Z 25008KT 15SM BKN092 19/15 A2979 RMK AC6 SLP087=
CYYG;2007-09-26 13:00;METAR CYYG 261300Z 25007KT 15SM FEW092 FEW170 21/15 A2979 RMK AC1AC1 SLP089=
CYYG;2007-09-26 14:00;METAR CYYG 261400Z 25005KT 15SM FEW170 SCT300 23/16 A2980 RMK AC1CI1 SLP091=
CYYG;2007-09-26 15:00;METAR CYYG 261500Z 23007KT 15SM FEW170 FEW300 23/17 A2979 RMK AC1CI1 SLP088=
CYYG;2007-09-26 16:00;METAR CYYG 261600Z 23009KT 15SM FEW140 SCT300 24/17 A2978 RMK AC2CI0 SLP085=
CYYG;2007-09-26 17:00;METAR CYYG 261700Z 21008KT 15SM FEW140 SCT300 25/17 A2975 RMK AC2CI0 SLP075=
CYYG;2007-09-26 18:00;METAR CYYG 261800Z 20009KT 15SM SCT140 25/18 A2974 RMK AC3 SLP071=
CYYG;2007-09-26 19:00;METAR CYYG 261900Z 19008KT 15SM FEW060 SCT082 BKN100 26/18 A2972 RMK SC1AC2AC2 SLP064=
CYYG;2007-09-26 20:00;METAR CYYG 262000Z 20008KT 10SM FEW090 25/18 A2970 RMK AC2 SLP058=
CYYG;2007-09-26 21:00;METAR CYYG 262100Z 22007KT 15SM FEW050TCU FEW150 24/18 A2969 RMK TCU1AC2 TCU NW SLP055=
CYYG;2007-09-26 22:00;METAR CYYG 262200Z 24006KT 15SM FEW120 23/17 A2971 RMK AC2 SLP059=
CYYG;2007-09-26 23:00;METAR CYYG 262300Z 25009KT 15SM FEW120 22/16 A2974 RMK AC2 SLP070=
CYYG;2007-09-27 00:00;METAR CYYG 270000Z 26011KT 15SM FEW100 21/16 A2975 RMK AC1 SLP074=
CYYG;2007-09-27 01:00;METAR CYYG 270100Z 25010G16KT 15SM FEW040 SCT070 19/16 A2979 RMK SC1AC2 SLP089=
CYYG;2007-09-27 02:00;METAR CYYG 270200Z 27008KT 15SM FEW080 18/15 A2983 RMK AC2 SLP100=
CYYG;2007-09-27 03:00;METAR CYYG 270300Z 28007KT 15SM FEW100 18/15 A2986 RMK AC1 SLP110=
CYYG;2007-09-27 04:00;METAR CYYG 270400Z 31006KT 15SM BKN071 19/16 A2989 RMK AC6 SLP121=
CYYG;2007-09-27 05:00;METAR CYYG 270500Z 34008KT 15SM BKN078 17/12 A2991 RMK AC4 SLP129=
CYYG;2007-09-27 06:00;METAR CYYG 270600Z 34010KT 15SM SCT080 15/11 A2995 RMK AC3 SLP141=
CYYG;2007-09-27 07:00;METAR CYYG 270700Z 35005KT 15SM SCT080 14/11 A2998 RMK AC3 SLP152=
CYYG;2007-09-27 08:00;METAR CYYG 270800Z 36003KT 15SM SCT100 13/11 A3003 RMK AC3 SLP169=
CYYG;2007-09-27 09:00;METAR CYYG 270900Z 00000KT 15SM FEW100 12/10 A3004 RMK AC2 SLP171=
CYYG;2007-09-27 09:38;SPECI CYYG 270938Z 04004KT 12SM BKN009 BKN100 11/ RMK SF5AC1=
CYYG;2007-09-27 10:00;METAR CYYG 271000Z 03003KT 12SM BKN010 12/11 A3006 RMK SF7 SLP180=
CYYG;2007-09-27 10:48;SPECI CYYG 271048Z 00000KT 12SM SCT006 BKN100 12/ RMK SF2AC2=
CYYG;2007-09-27 11:00;METAR CYYG 271100Z 00000KT 15SM SCT006 BKN100 13/12 A3009 RMK SF3AC1 SLP189=
CYYG;2007-09-27 12:00;METAR CYYG 271200Z 15003KT 15SM SCT006 15/13 A3011 RMK SF4 SLP197=
CYYG;2007-09-27 13:00;METAR CYYG 271300Z 12006KT 15SM FEW010 SCT280 15/12 A3012 RMK SC2CI1 SLP200=
CYYG;2007-09-27 14:00;METAR CYYG 271400Z 11006KT 15SM FEW020 SCT280 16/10 A3013 RMK SC2CI1 SLP203=
CYYG;2007-09-27 15:00;METAR CYYG 271500Z 09004KT 15SM FEW025 FEW280 17/11 A3013 RMK SC2CC1 SLP204=
CYYG;2007-09-27 16:00;METAR CYYG 271600Z 12004KT 15SM FEW025 BKN066 17/10 A3012 RMK CU1AC4 SLP200=
CYYG;2007-09-27 17:00;METAR CYYG 271700Z 17006KT 15SM FEW025 FEW066 BKN150 18/12 A3011 RMK SC1AC1AC4 SLP195=
CYYG;2007-09-27 18:00;METAR CYYG 271800Z 20005KT 15SM FEW066 BKN160 18/13 A3010 RMK AC2AC4 SLP193=
CYYG;2007-09-27 19:00;METAR CYYG 271900Z 20007KT 15SM BKN160 17/12 A3010 RMK AC6 SLP192=
CYYG;2007-09-27 20:00;METAR CYYG 272000Z 18004KT 15SM SCT160 BKN280 18/13 A3009 RMK AC4CC2 SLP191=
CYYG;2007-09-27 21:00;METAR CYYG 272100Z 11008KT 15SM FEW090 BKN120 BKN280 16/11 A3008 RMK AC2AC3CC2 SLP188=
CYYG;2007-09-27 22:00;METAR CYYG 272200Z 12008KT 15SM BKN092 BKN140 15/11 A3008 RMK AC5AC2 SLP186=
CYYG;2007-09-27 23:00;METAR CYYG 272300Z 12005KT 15SM SCT100 BKN140 14/10 A3007 RMK AC4AC3 SLP185=
CYYG;2007-09-28 00:00;METAR CYYG 280000Z 15009KT 15SM FEW065 BKN120 15/11 A3006 RMK SC2AC6 SLP180=
CYYG;2007-09-28 01:00;METAR CYYG 280100Z 14008KT 15SM BKN080 BKN130 15/12 A3006 RMK AC5AC2 SLP178=
CYYG;2007-09-28 01:45;SPECI CYYG 280145Z 14008KT 15SM -SHRA FEW018 BKN055 OVC080 15/ RMK SC2SC3AC2=
CYYG;2007-09-28 02:00;METAR CYYG 280200Z 14007KT 15SM -SHRA FEW020 OVC055 15/13 A3003 RMK SC2SC6 SLP170=
CYYG;2007-09-28 03:00;METAR CYYG 280300Z 16014KT 15SM BKN014 OVC052 16/13 A3000 RMK SC6SC2 SLP158=
CYYG;2007-09-28 03:42;SPECI CYYG 280342Z 17014KT 15SM SCT008 OVC011 16/ RMK SF3SC5=
CYYG;2007-09-28 04:00;METAR CYYG 280400Z 17014KT 12SM OVC008 16/14 A3000 RMK SF8 SLP158=
CYYG;2007-09-28 05:00;METAR CYYG 280500Z 18012KT 10SM OVC007 16/15 A3000 RMK SF8 SLP159=
CYYG;2007-09-28 06:00;METAR CYYG 280600Z 18011KT 10SM OVC008 17/15 A2998 RMK SF8 SLP152=
CYYG;2007-09-28 07:00;METAR CYYG 280700Z 18014G19KT 8SM OVC009 17/15 A2996 RMK SF8 SLP145=
CYYG;2007-09-28 08:00;METAR CYYG 280800Z 19012KT 8SM OVC006 17/15 A2995 RMK SF8 SLP142=
CYYG;2007-09-28 08:51;SPECI CYYG 280851Z 20012KT 4SM BR OVC005 17/ RMK SF8=
CYYG;2007-09-28 09:00;METAR CYYG 280900Z 20012KT 3SM BR OVC004 17/16 A2993 RMK SF8 SLP137=
CYYG;2007-09-28 10:00;METAR CYYG 281000Z 18013KT 4SM BR OVC004 18/16 A2992 RMK SF8 SLP131=
CYYG;2007-09-28 11:00;METAR CYYG 281100Z 17010KT 4SM -RA BR OVC004 18/16 A2991 RMK SF8 SLP129=
CYYG;2007-09-28 11:11;SPECI CYYG 281111Z 18010KT 3SM -RA BR OVC003 18/ RMK SF8=
CYYG;2007-09-28 12:00;METAR CYYG 281200Z 18010G15KT 4SM -RA BR OVC003 18/17 A2989 RMK SF8 SLP122=
CYYG;2007-09-28 12:13;SPECI CYYG 281213Z 17014KT 5SM -RA BR FEW003 OVC110 18/ RMK SF2AC6=
CYYG;2007-09-28 12:33;SPECI CYYG 281233Z 18016KT 3SM RA BR BKN004 OVC038 18/ RMK SF6SC2=
CYYG;2007-09-28 13:00;METAR CYYG 281300Z 17013KT 4SM -RA BR BKN004 OVC027 19/17 A2987 RERA RMK SF6SC2 SLP115=
CYYG;2007-09-28 14:00;METAR CYYG 281400Z 15011KT 5SM -RA BR BKN004 OVC033 19/17 A2981 RMK SF5SC3 SLP096=
CYYG;2007-09-28 14:35;SPECI CYYG 281435Z 14009KT 1 1/2SM +RA BR OVC005 19/ RMK SF8=
CYYG;2007-09-28 15:00;METAR CYYG 281500Z 13010KT 3SM +RA BR FEW003 OVC008 19/18 A2975 RMK SF2SF6 /R15/ PRESFR SLP074=
CYYG;2007-09-28 16:00;METAR CYYG 281600Z 15018G27KT 2SM +RA BR OVC008 18/17 A2967 RMK SF8 PRESFR SLP047=
CYYG;2007-09-28 16:23;SPECI CYYG 281623Z 14017G24KT 10SM -RA OVC007 18/ RERA RMK SF8 VIS LWR NW-NE=
CYYG;2007-09-28 17:00;METAR CYYG 281700Z 16016G24KT 10SM -RA OVC009 17/16 A2960 RMK SF8 PRESFR SLP025=
CYYG;2007-09-28 17:41;SPECI CYYG 281741Z 16015KT 15SM BKN007 OVC014 19/ RMK SF5SC3=
CYYG;2007-09-28 18:00;METAR CYYG 281800Z 16015G20KT 15SM BKN006 OVC014 19/17 A2955 RMK SF6SC2 /R23/ SLP006=
CYYG;2007-09-28 18:13;SPECI CYYG 281813Z 17014G19KT 15SM FEW006 OVC013 19/ RMK SF2SC6=
CYYG;2007-09-28 19:00;METAR CYYG 281900Z 19013G18KT 15SM BKN004 OVC010 20/18 A2952 RMK SF6SF2 SLP997=
CYYG;2007-09-28 19:36;SPECI CYYG 281936Z 21013KT 3SM -SHRA BR FEW004 OVC015 21/ RMK SF2SC6=
CYYG;2007-09-28 19:43;SPECI CYYG 281943Z 21013KT 2SM -DZ BR FEW004 OVC014 21/ RMK SF2SC6=
CYYG;2007-09-28 20:00;METAR CYYG 282000Z 21012KT 3SM -DZ BR BKN003 OVC007 20/19 A2952 RMK SF6SF2 SLP998=
CYYG;2007-09-28 20:14;SPECI CYYG 282014Z 24012G19KT 15SM BKN003 BKN008 21/ RMK SF6SF2 VIS E-S 3=
CYYG;2007-09-28 20:30;SPECI CYYG 282030Z 24015KT 15SM BKN005 BKN009 BKN300 21/ RMK SF5SF1CI1=
CYYG;2007-09-28 21:00;METAR CYYG 282100Z 25013G18KT 15SM BKN006 BKN015 BKN300 20/18 A2954 RMK SF5SC1CI1 SLP003=
CYYG;2007-09-28 22:00;METAR CYYG 282200Z 28013G18KT 15SM BKN006 18/17 A2959 RMK SF7 SLP020=
CYYG;2007-09-28 22:31;SPECI CYYG 282231Z 27008KT 15SM FEW006 SCT022 BKN300 19/ RMK SF2SC2CI0=
CYYG;2007-09-28 22:49;SPECI CYYG 282249Z 25008KT 15SM BKN007 19/ RMK SF6=
CYYG;2007-09-28 23:00;METAR CYYG 282300Z 24008KT 15SM BKN006 19/17 A2961 RMK SF6 SLP028=
CYYG;2007-09-28 23:22;SPECI CYYG 282322Z 25011G18KT 12SM BKN005 19/ RMK SF7=
CYYG;2007-09-28 23:43;SPECI CYYG 282343Z 25011G16KT 8SM OVC004 18/ RMK SF8=
CYYG;2007-09-29 00:00;METAR CYYG 290000Z 25013KT 8SM OVC005 19/17 A2963 RMK SF8 SLP034=
CYYG;2007-09-29 00:27;SPECI CYYG 290027Z 25011G19KT 10SM OVC006 19/ RMK SF8=
CYYG;2007-09-29 01:00;METAR CYYG 290100Z 24011G18KT 10SM OVC006 19/17 A2964 RMK SF8 SLP037=
CYYG;2007-09-29 02:00;METAR CYYG 290200Z 23009KT 12SM OVC009 18/17 A2966 RMK SF8 SLP043=
CYYG;2007-09-29 03:00;METAR CYYG 290300Z 24009G15KT 10SM BKN008 OVC016 19/17 A2966 RMK SF7SC1 SLP044=
CYYG;2007-09-29 04:00;METAR CYYG 290400Z 33008G15KT 6SM BR OVC007 15/14 A2969 RMK SF8 SLP054=
CYYG;2007-09-29 05:00;METAR CYYG 290500Z 33007KT 6SM BR BKN006 OVC012 14/13 A2972 RMK SF7SC1 SLP063=
CYYG;2007-09-29 06:00;METAR CYYG 290600Z 34008KT 4SM BR OVC005 12/11 A2974 RMK SF8 SLP072=
CYYG;2007-09-29 07:00;METAR CYYG 290700Z 31006KT 5SM BR OVC005 12/11 A2975 RMK SF8 SLP076=
CYYG;2007-09-29 07:19;SPECI CYYG 290719Z 31009KT 4SM -DZ BR OVC006 12/ RMK ST8=
CYYG;2007-09-29 08:00;METAR CYYG 290800Z 33008KT 4SM -DZ BR OVC005 11/10 A2978 RMK ST8 SLP085=
CYYG;2007-09-29 09:00;METAR CYYG 290900Z 31007KT 8SM BKN005 OVC013 11/10 A2979 RMK SF7SC1 SLP089=
CYYG;2007-09-29 10:00;METAR CYYG 291000Z 31009KT 12SM BKN007 OVC017 11/10 A2980 RMK SF6SC2 SLP091=
CYYG;2007-09-29 10:22;SPECI CYYG 291022Z 29006KT 15SM SCT007 OVC022 11/ RMK SF3SC5=
CYYG;2007-09-29 11:00;METAR CYYG 291100Z 32007KT 15SM SCT010 OVC025 11/09 A2982 RMK SF3SC5 SLP097=
CYYG;2007-09-29 12:00;METAR CYYG 291200Z 31009KT 15SM FEW010 OVC022 11/08 A2985 RMK SF2SC6 SLP108=
CYYG;2007-09-29 13:00;METAR CYYG 291300Z 32008KT 15SM FEW010 OVC021 11/08 A2987 RMK SF1SC7 SLP117=
CYYG;2007-09-29 14:00;METAR CYYG 291400Z 33010KT 15SM FEW010 OVC024 12/07 A2989 RMK SF1SC7 SLP121=
CYYG;2007-09-29 15:00;METAR CYYG 291500Z 34011G19KT 15SM FEW010 OVC024 12/07 A2990 RMK SF1SC7 SLP124=
CYYG;2007-09-29 16:00;METAR CYYG 291600Z 33013KT 15SM FEW010 OVC024 12/07 A2992 RMK SF1SC7 SLP132=
CYYG;2007-09-29 17:00;METAR CYYG 291700Z 34011G17KT 15SM FEW010 OVC024 12/06 A2994 RMK SF1SC7 SLP138=
CYYG;2007-09-29 18:00;METAR CYYG 291800Z 33013G19KT 15SM BKN024 12/07 A2995 RMK SC7 SLP144=
CYYG;2007-09-29 19:00;METAR CYYG 291900Z 34014G26KT 15SM BKN030 12/07 A2997 RMK SC6 SLP151=
CYYG;2007-09-29 20:00;METAR CYYG 292000Z 32015G21KT 15SM FEW030 13/06 A2999 RMK SC2 SLP158=
CYYG;2007-09-29 21:00;METAR CYYG 292100Z 32009G15KT 15SM FEW030 13/07 A3001 RMK SC2 SLP163=
CYYG;2007-09-29 22:00;METAR CYYG 292200Z 31007KT 15SM FEW030 12/07 A3004 RMK SC2 SLP173=
CYYG;2007-09-29 23:00;METAR CYYG 292300Z 32008KT 15SM FEW030 12/06 A3006 RMK SC2 SLP179=
CYYG;2007-09-30 00:00;METAR CYYG 300000Z 32010G18KT 15SM FEW030 11/06 A3008 RMK SC1 SLP186=
CYYG;2007-09-30 01:00;METAR CYYG 300100Z 32012G17KT 15SM FEW030 SCT080 11/06 A3010 RMK SC1AC3 SLP195=
CYYG;2007-09-30 01:11;SPECI CYYG 300111Z 31012G21KT 15SM -SHRA FEW030 FEW054 BKN078 11/ RMK SC1SC1AC3=
CYYG;2007-09-30 01:38;SPECI CYYG 300138Z 32013KT 15SM FEW030 FEW050 BKN078 11/ RMK SC1SC1AC3=
CYYG;2007-09-30 02:00;METAR CYYG 300200Z 31012KT 15SM FEW034 FEW052 SCT080 11/06 A3014 RMK SC2SC1AC2 SLP206=
CYYG;2007-09-30 03:00;METAR CYYG 300300Z 32012G17KT 15SM FEW032 FEW070 10/05 A3016 RMK SC1AC1 SLP214=
CYYG;2007-09-30 04:00;METAR CYYG 300400Z 33009G16KT 15SM FEW034 FEW070 09/03 A3019 RMK SC1AC1 SLP224=
CYYG;2007-09-30 05:00;METAR CYYG 300500Z 32008KT 15SM FEW060 09/02 A3023 RMK SC2 SLP237=
CYYG;2007-09-30 06:00;METAR CYYG 300600Z 33006KT 15SM BKN053 09/02 A3025 RMK SC5 SLP243=
CYYG;2007-09-30 07:00;METAR CYYG 300700Z 34006KT 15SM BKN041 09/02 A3027 RMK SC6 SLP252=
CYYG;2007-09-30 08:00;METAR CYYG 300800Z 32007KT 15SM BKN039 09/03 A3030 RMK SC7 SLP261=
CYYG;2007-09-30 09:00;METAR CYYG 300900Z 32008KT 15SM BKN040 08/02 A3032 RMK SC7 SLP269=
CYYG;2007-09-30 10:00;METAR CYYG 301000Z 34006KT 15SM BKN036 08/02 A3034 RMK SC6 SLP276=
CYYG;2007-09-30 11:00;METAR CYYG 301100Z 34008KT 15SM BKN034 08/03 A3036 RMK SC6 SLP283=
CYYG;2007-09-30 12:00;METAR CYYG 301200Z 35006KT 15SM BKN035 09/03 A3039 RMK SC6 SLP293=
CYYG;2007-09-30 13:00;METAR CYYG 301300Z 36010G16KT 15SM BKN037 10/04 A3041 RMK SC6 SLP299=
CYYG;2007-09-30 14:00;METAR CYYG 301400Z 35006KT 15SM BKN035 10/04 A3044 RMK SC7 SLP308=
CYYG;2007-09-30 15:00;METAR CYYG 301500Z 36010G15KT 15SM BKN032 10/03 A3046 RMK SC6 SLP315=
CYYG;2007-09-30 16:00;METAR CYYG 301600Z 34009G15KT 15SM BKN034 10/03 A3046 RMK SC6 SLP317=
CYYG;2007-09-30 17:00;METAR CYYG 301700Z 34010G15KT 15SM BKN034 11/04 A3047 RMK SC6 SLP318=
CYYG;2007-09-30 18:00;METAR CYYG 301800Z 33011KT 15SM SCT035 11/04 A3048 RMK SC4 SLP322=
CYYG;2007-09-30 19:00;METAR CYYG 301900Z 36008KT 15SM SCT035 10/03 A3049 RMK SC3 SLP326=
CYYG;2007-09-30 20:00;METAR CYYG 302000Z 35009KT 15SM FEW035 10/04 A3050 RMK SC2 SLP330=
CYYG;2007-09-30 21:00;METAR CYYG 302100Z 33006KT 15SM FEW035 10/03 A3051 RMK SC2 SLP332=
CYYG;2007-09-30 22:00;METAR CYYG 302200Z 36002KT 15SM FEW035 FEW250 08/03 A3051 RMK SC1CI0 SLP334=
CYYG;2007-09-30 23:00;METAR CYYG 302300Z 35003KT 15SM FEW035 FEW250 04/02 A3052 RMK SC1CI0 SLP337=
CYYG;2007-10-01 00:00;METAR CYYG 010000Z 34004KT 15SM SCT100 05/03 A3054 RMK AC2 SLP342=
CYYG;2007-10-01 01:00;METAR CYYG 010100Z 00000KT 15SM SKC 04/02 A3055 RMK SLP345=
CYYG;2007-10-01 02:00;METAR CYYG 010200Z 19002KT 15SM SKC 04/02 A3055 RMK SLP345=
CYYG;2007-10-01 03:00;METAR CYYG 010300Z 26003KT 15SM SKC 03/01 A3055 RMK SLP347=
CYYG;2007-10-01 04:00;METAR CYYG 010400Z 19003KT 15SM SKC 04/03 A3056 RMK SLP350=
CYYG;2007-10-01 05:00;METAR CYYG 010500Z 00000KT 15SM SKC 02/02 A3058 RMK SLP355=
CYYG;2007-10-01 06:00;METAR CYYG 010600Z 13003KT 15SM SKC 04/03 A3057 RMK SLP353=
CYYG;2007-10-01 07:00;METAR CYYG 010700Z 15004KT 15SM SKC 05/03 A3056 RMK SLP350=
CYYG;2007-10-01 08:00;METAR CYYG 010800Z 21006KT 15SM SKC 07/04 A3056 RMK SLP349=
CYYG;2007-10-01 09:00;METAR CYYG 010900Z 21006KT 15SM SKC 07/05 A3056 RMK SLP351=
CYYG;2007-10-01 10:00;METAR CYYG 011000Z 21003KT 15SM SCT140 07/05 A3058 RMK AC2 SLP355=
CYYG;2007-10-01 11:00;METAR CYYG 011100Z 23006KT 15SM SCT300 08/05 A3059 RMK CI2 SLP361=
CYYG;2007-10-01 12:00;METAR CYYG 011200Z 20007KT 15SM SCT300 10/06 A3059 RMK CI2 SLP361=
CYYG;2007-10-01 13:00;METAR CYYG 011300Z 22010KT 15SM SCT300 12/05 A3059 RMK CI2 SLP359=
CYYG;2007-10-01 14:00;METAR CYYG 011400Z 20010G15KT 15SM SCT300 13/06 A3057 RMK CI2 SLP353=
CYYG;2007-10-01 15:00;METAR CYYG 011500Z 22012G18KT 15SM BKN300 13/04 A3056 RMK CI2 SLP349=
CYYG;2007-10-01 16:00;METAR CYYG 011600Z 22012G17KT 15SM BKN300 14/05 A3053 RMK CI2 SLP340=
CYYG;2007-10-01 17:00;METAR CYYG 011700Z 22013G20KT 15SM BKN300 14/04 A3050 RMK CI3 SLP331=
CYYG;2007-10-01 18:00;METAR CYYG 011800Z 21013KT 15SM BKN300 15/04 A3048 RMK CI2 SLP323=
CYYG;2007-10-01 19:00;METAR CYYG 011900Z 22015G20KT 15SM FEW230 BKN300 15/04 A3047 RMK CI2CI2 CC ASOCTD SLP318=
CYYG;2007-10-01 20:00;METAR CYYG 012000Z 21012KT 15SM SCT200 BKN300 15/06 A3045 RMK CI2CI2 SLP312=
CYYG;2007-10-01 21:00;METAR CYYG 012100Z 22013KT 15SM BKN220 BKN300 15/07 A3043 RMK CI5CI2 SLP306=
CYYG;2007-10-01 22:00;METAR CYYG 012200Z 24007KT 15SM BKN200 14/08 A3042 RMK CI6 SLP304=
CYYG;2007-10-01 23:00;METAR CYYG 012300Z 24006KT 15SM BKN200 13/08 A3042 RMK CI6 SLP304=
CYYG;2007-10-02 00:00;METAR CYYG 020000Z 22007KT 15SM FEW120 BKN200 12/08 A3041 RMK AC2CI4 SLP301=
CYYG;2007-10-02 01:00;METAR CYYG 020100Z 23012G18KT 15SM FEW120 BKN200 12/04 A3040 RMK AC2CI3 SLP297=
CYYG;2007-10-02 02:00;METAR CYYG 020200Z 23009KT 15SM BKN200 11/05 A3041 RMK CI3 SLP299=
CYYG;2007-10-02 03:00;METAR CYYG 020300Z 23010KT 15SM SCT220 11/05 A3041 RMK CI2 SLP297=
CYYG;2007-10-02 04:00;METAR CYYG 020400Z 23012KT 15SM SCT220 11/05 A3039 RMK CI2 SLP290=
CYYG;2007-10-02 05:00;METAR CYYG 020500Z 23011KT 15SM FEW220 11/05 A3039 RMK CI1 SLP290=
CYYG;2007-10-02 06:00;METAR CYYG 020600Z 24010KT 15SM SKC 11/06 A3038 RMK SLP288=
CYYG;2007-10-02 07:00;METAR CYYG 020700Z 24010KT 15SM SKC 11/08 A3037 RMK SLP286=
CYYG;2007-10-02 08:00;METAR CYYG 020800Z 24011G16KT 15SM SKC 11/08 A3037 RMK SLP284=
CYYG;2007-10-02 09:00;METAR CYYG 020900Z 25013KT 15SM SKC 11/09 A3036 RMK SLP282=
CYYG;2007-10-02 10:00;METAR CYYG 021000Z 25013G18KT 15SM SCT220 11/09 A3036 RMK CI2 SLP283=
CYYG;2007-10-02 11:00;METAR CYYG 021100Z 25010G15KT 15SM FEW010 BKN300 11/10 A3037 RMK SF1CI1 SLP286=
CYYG;2007-10-02 12:00;METAR CYYG 021200Z 25011G17KT 15SM FEW010 BKN300 13/11 A3038 RMK SF1CI2 SLP287=
CYYG;2007-10-02 13:00;METAR CYYG 021300Z 26010G17KT 15SM FEW012 BKN300 14/11 A3039 RMK SC2CS2 SLP292=
CYYG;2007-10-02 14:00;METAR CYYG 021400Z 25013KT 15SM FEW012 BKN300 14/11 A3039 RMK SC2CI2 SLP293=
CYYG;2007-10-02 15:00;METAR CYYG 021500Z 23010G15KT 15SM SCT015 BKN300 16/12 A3038 RMK SC2CI2 SLP289=
CYYG;2007-10-02 16:00;METAR CYYG 021600Z 23012G17KT 15SM FEW015 OVC300 16/12 A3038 RMK CU1CS2 SLP287=
CYYG;2007-10-02 17:00;METAR CYYG 021700Z 25010KT 15SM FEW015 BKN300 17/12 A3036 RMK CU1CS3 SLP282=
CYYG;2007-10-02 18:00;METAR CYYG 021800Z 23010KT 15SM BKN300 18/13 A3036 RMK CS3 SLP280=
CYYG;2007-10-02 19:00;METAR CYYG 021900Z 24009KT 15SM OVC300 18/13 A3035 RMK CS4 SLP278=
CYYG;2007-10-02 20:00;METAR CYYG 022000Z 25010KT 15SM OVC300 18/11 A3035 RMK CS6 SLP278=
CYYG;2007-10-02 21:00;METAR CYYG 022100Z 24009G15KT 15SM OVC240 17/12 A3035 RMK CI7 SLP277=
CYYG;2007-10-02 22:00;METAR CYYG 022200Z 24006KT 15SM OVC240 16/11 A3035 RMK CI8 SLP279=
CYYG;2007-10-02 23:00;METAR CYYG 022300Z 25006KT 15SM BKN220 15/11 A3035 RMK CI7 SLP278=
CYYG;2007-10-03 00:00;METAR CYYG 030000Z 22006KT 15SM OVC220 14/09 A3035 RMK CI8 SLP277=
CYYG;2007-10-03 01:00;METAR CYYG 030100Z 23007KT 15SM OVC170 14/08 A3035 RMK AC8 SLP278=
CYYG;2007-10-03 02:00;METAR CYYG 030200Z 23005KT 15SM OVC170 13/09 A3034 RMK AC8 SLP276=
CYYG;2007-10-03 03:00;METAR CYYG 030300Z 25007KT 15SM OVC170 13/11 A3034 RMK AC8 SLP274=
CYYG;2007-10-03 04:00;METAR CYYG 030400Z 25007KT 15SM OVC180 13/11 A3033 RMK AC8 SLP272=
CYYG;2007-10-03 05:00;METAR CYYG 030500Z 25004KT 15SM OVC170 13/12 A3033 RMK AC8 SLP273=
CYYG;2007-10-03 06:00;METAR CYYG 030600Z 24004KT 15SM OVC160 13/12 A3032 RMK AC8 SLP268=
CYYG;2007-10-03 07:00;METAR CYYG 030700Z 24003KT 15SM OVC160 13/11 A3031 RMK AC8 SLP265=
CYYG;2007-10-03 08:00;METAR CYYG 030800Z 22004KT 15SM OVC180 13/11 A3030 RMK AC8 SLP262=
CYYG;2007-10-03 09:00;METAR CYYG 030900Z 23007KT 15SM BKN180 13/12 A3029 RMK AC3 SLP259=
CYYG;2007-10-03 10:00;METAR CYYG 031000Z 22005KT 15SM SCT180 13/12 A3029 RMK AC3 SLP258=
CYYG;2007-10-03 11:00;METAR CYYG 031100Z 18004KT 15SM FEW130 SCT200 12/11 A3029 RMK AC2CI2 SLP257=
CYYG;2007-10-03 12:00;METAR CYYG 031200Z 22006KT 15SM FEW130 SCT250 14/12 A3029 RMK AC1CI2 SLP259=
CYYG;2007-10-03 13:00;METAR CYYG 031300Z 22008KT 15SM SCT040 SCT250 15/12 A3029 RMK SC2CI1 SLP257=
CYYG;2007-10-03 14:00;METAR CYYG 031400Z 22009KT 15SM FEW040 FEW250 17/13 A3027 RMK SC1CI1 SLP252=
CYYG;2007-10-03 15:00;METAR CYYG 031500Z 22008KT 15SM FEW040 FEW250 18/13 A3025 RMK SC1CI1 SLP246=
CYYG;2007-10-03 16:00;METAR CYYG 031600Z 20010KT 15SM FEW040 SCT300 19/14 A3024 RMK SC2CI1 SLP240=
CYYG;2007-10-03 17:00;METAR CYYG 031700Z 20012KT 15SM FEW040 SCT300 20/15 A3021 RMK SC2CI2 SLP231=
CYYG;2007-10-03 18:00;METAR CYYG 031800Z 19011KT 15SM FEW040 SCT300 20/15 A3019 RMK SC1CI1 SLP223=
CYYG;2007-10-03 19:00;METAR CYYG 031900Z 19008KT 15SM FEW040 BKN300 20/15 A3017 RMK SC1CI2 SLP216=
CYYG;2007-10-03 20:00;METAR CYYG 032000Z 19007KT 15SM FEW040 BKN300 20/15 A3016 RMK SC1CI3 SLP213=
CYYG;2007-10-03 21:00;METAR CYYG 032100Z 19006KT 15SM FEW040 BKN300 19/15 A3014 RMK SC1CI3 SLP206=
CYYG;2007-10-03 22:00;METAR CYYG 032200Z 17005KT 15SM FEW040 BKN300 17/14 A3014 RMK SC1CI3 SLP205=
CYYG;2007-10-03 23:00;METAR CYYG 032300Z 19006KT 15SM FEW030 BKN300 16/15 A3013 RMK SC2CI2 SLP203=
CYYG;2007-10-04 00:00;METAR CYYG 040000Z 20007KT 15SM FEW030 BKN300 17/15 A3012 RMK SC2CI2 SLP199=
CYYG;2007-10-04 01:00;METAR CYYG 040100Z 20010KT 15SM FEW025 BKN230 18/16 A3011 RMK SC2CI3 SLP197=
CYYG;2007-10-04 02:00;METAR CYYG 040200Z 20009KT 15SM FEW025 BKN230 17/16 A3009 RMK SC2CI3 SLP191=
CYYG;2007-10-04 03:00;METAR CYYG 040300Z 20007KT 15SM FEW025 BKN230 17/15 A3009 RMK SC2CI4 SLP188=
CYYG;2007-10-04 04:00;METAR CYYG 040400Z 20009KT 15SM FEW025 BKN230 17/15 A3007 RMK SC1CI5 SLP184=
CYYG;2007-10-04 05:00;METAR CYYG 040500Z 20009KT 15SM FEW015 BKN230 17/15 A3006 RMK SC1CI5 SLP178=
CYYG;2007-10-04 06:00;METAR CYYG 040600Z 20009KT 15SM FEW015 BKN230 17/16 A3003 RMK SC1CI6 SLP168=
CYYG;2007-10-04 07:00;METAR CYYG 040700Z 21010KT 15SM BKN015 OVC230 17/16 A3001 RMK SC5CI3 SLP162=
CYYG;2007-10-04 08:00;METAR CYYG 040800Z 21011KT 15SM OVC013 17/16 A3001 RMK SC8 SLP161=
CYYG;2007-10-04 09:00;METAR CYYG 040900Z 22007KT 15SM OVC018 17/16 A2999 RMK SC8 SLP157=
CYYG;2007-10-04 09:21;SPECI CYYG 040921Z 22006KT 15SM OVC013 17/ RMK SC8=
CYYG;2007-10-04 10:00;METAR CYYG 041000Z 23009KT 15SM OVC013 17/15 A2998 RMK SC8 SLP153=
CYYG;2007-10-04 11:00;METAR CYYG 041100Z 26008KT 15SM SCT010 BKN067 17/15 A3000 RMK SF4AC2 SLP159=
CYYG;2007-10-04 11:18;SPECI CYYG 041118Z 25012KT 15SM SCT008 BKN067 17/ RMK SF4AC2=
CYYG;2007-10-04 11:24;SPECI CYYG 041124Z 25010G15KT 15SM BKN008 BKN018 BKN067 17/ RMK SF6SC1AC1=
CYYG;2007-10-04 12:00;METAR CYYG 041200Z 25010G15KT 15SM BKN009 OVC018 17/14 A3000 RMK SF7SC1 SLP159=
CYYG;2007-10-04 13:00;METAR CYYG 041300Z 25010KT 15SM BKN010 18/14 A3000 RMK SF6 SLP159=
CYYG;2007-10-04 14:00;METAR CYYG 041400Z 26011KT 15SM BKN013 19/15 A3000 RMK SC5 SLP159=
CYYG;2007-10-04 15:00;METAR CYYG 041500Z 27012G17KT 15SM SCT020 20/15 A3000 RMK CU4 SLP159=
CYYG;2007-10-04 16:00;METAR CYYG 041600Z 27010G17KT 15SM SCT024 21/15 A2999 RMK CU3 SLP156=
CYYG;2007-10-04 17:00;METAR CYYG 041700Z 28011G18KT 15SM SCT035 22/14 A2998 RMK CU4 SLP153=
CYYG;2007-10-04 18:00;METAR CYYG 041800Z 29012G19KT 15SM SCT035 21/12 A2998 RMK CU3 SLP151=
CYYG;2007-10-04 19:00;METAR CYYG 041900Z 28011G17KT 15SM SCT042 22/12 A2996 RMK SC3 SLP146=
CYYG;2007-10-04 20:00;METAR CYYG 042000Z 25008KT 15SM FEW040 FEW250 21/13 A2997 RMK CU1CI1 SLP148=
CYYG;2007-10-04 21:00;METAR CYYG 042100Z 26005KT 15SM FEW250 20/12 A2998 RMK CI1 SLP153=
CYYG;2007-10-04 22:00;METAR CYYG 042200Z 27004KT 15SM FEW250 18/11 A2999 RMK CI1 SLP156=
CYYG;2007-10-04 23:00;METAR CYYG 042300Z 26004KT 15SM FEW250 17/13 A3001 RMK CI1 SLP163=
CYYG;2007-10-05 00:00;METAR CYYG 050000Z 26006KT 15SM FEW250 16/13 A3003 RMK CI1 SLP168=
CYYG;2007-10-05 01:00;METAR CYYG 050100Z 28006KT 15SM FEW250 15/12 A3006 RMK CI1 SLP178=
CYYG;2007-10-05 02:00;METAR CYYG 050200Z 30003KT 15SM SKC 14/10 A3007 RMK SLP183=
CYYG;2007-10-05 03:00;METAR CYYG 050300Z 30006KT 15SM SKC 13/08 A3009 RMK SLP188=
CYYG;2007-10-05 04:00;METAR CYYG 050400Z 32005KT 15SM SKC 12/05 A3009 RMK SLP188=
CYYG;2007-10-05 05:00;METAR CYYG 050500Z 31008KT 15SM SKC 12/03 A3010 RMK SLP192=
CYYG;2007-10-05 06:00;METAR CYYG 050600Z 31008KT 15SM SKC 12/02 A3011 RMK SLP197=
CYYG;2007-10-05 07:00;METAR CYYG 050700Z 31007KT 15SM SKC 11/03 A3012 RMK SLP198=
CYYG;2007-10-05 08:00;METAR CYYG 050800Z 30005KT 15SM SKC 11/03 A3013 RMK SLP202=
CYYG;2007-10-05 09:00;METAR CYYG 050900Z 32006KT 15SM SKC 10/04 A3015 RMK SLP210=
CYYG;2007-10-05 10:00;METAR CYYG 051000Z 29006KT 15SM FEW250 10/04 A3016 RMK CI1 SLP213=
CYYG;2007-10-05 11:00;METAR CYYG 051100Z 26006KT 15SM FEW250 11/05 A3017 RMK CI1 SLP217=
CYYG;2007-10-05 12:00;METAR CYYG 051200Z 27008KT 15SM FEW030 FEW250 13/08 A3018 RMK SC1CI1 SLP221=
CYYG;2007-10-05 13:00;METAR CYYG 051300Z 27009KT 15SM FEW030 FEW250 15/08 A3017 RMK SC1CI1 SLP219=
CYYG;2007-10-05 14:00;METAR CYYG 051400Z 25009KT 15SM FEW250 17/09 A3015 RMK CI1 SLP210=
CYYG;2007-10-05 15:00;METAR CYYG 051500Z 23009KT 15SM FEW250 FEW380 18/08 A3013 RMK CI1CI1 CONTRAILS SLP205=
CYYG;2007-10-05 16:00;METAR CYYG 051600Z 23015KT 15SM FEW250 SCT380 19/08 A3010 RMK CI1CI1 CONTRAILS SLP194=
CYYG;2007-10-05 17:00;METAR CYYG 051700Z 25016KT 15SM FEW250 BKN380 20/08 A3006 RMK CI1CI2 CONTRAILS SLP182=
CYYG;2007-10-05 18:00;METAR CYYG 051800Z 25018G24KT 15SM FEW250 BKN380 21/07 A3004 RMK CI1CI2 CONTRAILS SLP171=
CYYG;2007-10-05 19:00;METAR CYYG 051900Z 26012G17KT 15SM FEW250 BKN380 21/09 A3002 RMK CI1CI1 CONTRAILS SLP166=
CYYG;2007-10-05 20:00;METAR CYYG 052000Z 25017G24KT 15SM FEW250 BKN380 20/09 A3001 RMK CI1CI1 CONTRAILS SLP162=
CYYG;2007-10-05 21:00;METAR CYYG 052100Z 26013G21KT 15SM FEW250 BKN380 19/09 A3001 RMK CI1CI1 CONTRAILS SLP162=
CYYG;2007-10-05 22:00;METAR CYYG 052200Z 26011G16KT 15SM FEW250 BKN380 17/09 A3001 RMK CI1CI1 CONTRAILS SLP161=
CYYG;2007-10-05 23:00;METAR CYYG 052300Z 26011KT 15SM FEW250 17/10 A3003 RMK CI1 SLP168=
CYYG;2007-10-06 00:00;METAR CYYG 060000Z 25011KT 15SM SKC 16/10 A3001 RMK SLP164=
CYYG;2007-10-06 01:00;METAR CYYG 060100Z 27010KT 15SM SKC 15/10 A3002 RMK SLP166=
CYYG;2007-10-06 02:00;METAR CYYG 060200Z 28009KT 15SM SKC 16/10 A3002 RMK SLP167=
CYYG;2007-10-06 03:00;METAR CYYG 060300Z 28008KT 15SM SKC 15/10 A3002 RMK SLP167=
CYYG;2007-10-06 04:00;METAR CYYG 060400Z 30008KT 15SM SKC 16/09 A3002 RMK SLP165=
CYYG;2007-10-06 05:00;METAR CYYG 060500Z 29009KT 15SM SKC 16/09 A3002 RMK SLP167=
CYYG;2007-10-06 06:00;METAR CYYG 060600Z 30009KT 15SM FEW110 BKN250 15/08 A3001 RMK AC2CI2 SLP163=
CYYG;2007-10-06 07:00;METAR CYYG 060700Z 31008KT 15SM FEW110 BKN230 15/07 A3003 RMK AC2CI3 SLP168=
CYYG;2007-10-06 08:00;METAR CYYG 060800Z 32008KT 15SM BKN200 14/06 A3004 RMK CS6 SLP173=
CYYG;2007-10-06 09:00;METAR CYYG 060900Z 32008KT 15SM FEW110 BKN200 13/05 A3006 RMK AC1CS4 SLP179=
CYYG;2007-10-06 10:00;METAR CYYG 061000Z 01005KT 15SM FEW200 BKN300 12/05 A3007 RMK CI2CI2 SLP183=
CYYG;2007-10-06 11:00;METAR CYYG 061100Z 01005KT 15SM FEW200 BKN300 12/06 A3009 RMK CS2CS2 SLP188=
CYYG;2007-10-06 12:00;METAR CYYG 061200Z 01005KT 15SM FEW200 SCT300 13/05 A3009 RMK CS1CS2 SLP189=
CYYG;2007-10-06 13:00;METAR CYYG 061300Z 35007KT 15SM FEW160 BKN240 13/06 A3008 RMK AC2CS2 SLP188=
CYYG;2007-10-06 14:00;METAR CYYG 061400Z 02012KT 15SM FEW160 BKN240 14/06 A3008 RMK AC2CI1 SLP188=
CYYG;2007-10-06 15:00;METAR CYYG 061500Z 35009G15KT 15SM FEW160 BKN240 13/05 A3007 RMK AC2CI2 SLP183=
CYYG;2007-10-06 16:00;METAR CYYG 061600Z 01010KT 15SM FEW030 BKN130 BKN240 14/06 A3005 RMK SC1AC4CI0 SLP177=
CYYG;2007-10-06 17:00;METAR CYYG 061700Z 35009KT 15SM FEW030 FEW130 SCT240 13/06 A3004 RMK SC1AC2CI1 SLP172=
CYYG;2007-10-06 18:00;METAR CYYG 061800Z 34013KT 15SM FEW030 BKN130 BKN240 14/06 A3003 RMK SC1AC4CI1 SLP169=
CYYG;2007-10-06 19:00;METAR CYYG 061900Z 32011G16KT 15SM FEW030 FEW240 13/04 A3001 RMK SC1CI1 TR SC SLP162=
CYYG;2007-10-06 20:00;METAR CYYG 062000Z 34013KT 15SM FEW130 SCT240 12/02 A3003 RMK AC1CI1 SLP170=
CYYG;2007-10-06 21:00;METAR CYYG 062100Z 32008KT 15SM BKN240 12/02 A3001 RMK CS5 SLP164=
CYYG;2007-10-06 22:00;METAR CYYG 062200Z 31003KT 15SM BKN240 10/03 A3001 RMK CS5 SLP163=
CYYG;2007-10-06 23:00;METAR CYYG 062300Z 30002KT 15SM BKN250 09/03 A3000 RMK CS4 SLP159=
CYYG;2007-10-07 00:00;METAR CYYG 070000Z 29005KT 15SM SCT250 08/03 A2999 RMK CI2 SLP157=
CYYG;2007-10-07 01:00;METAR CYYG 070100Z 29007KT 15SM BKN170 09/03 A2997 RMK AC6 SLP150=
CYYG;2007-10-07 02:00;METAR CYYG 070200Z 28005KT 15SM FEW130 BKN170 09/04 A2995 RMK AC2AC6 SLP142=
CYYG;2007-10-07 03:00;METAR CYYG 070300Z 34004KT 15SM FEW130 BKN160 09/04 A2993 RMK AC2AC5 SLP138=
CYYG;2007-10-07 04:00;METAR CYYG 070400Z 31007KT 15SM SCT095 OVC130 10/04 A2994 RMK AC4AC4 SLP139=
CYYG;2007-10-07 05:00;METAR CYYG 070500Z 33005KT 15SM FEW090 OVC120 10/05 A2992 RMK AC2AC6 SLP132=
CYYG;2007-10-07 06:00;METAR CYYG 070600Z 32004KT 15SM SCT030 OVC120 10/05 A2991 RMK SC4AC4 SLP130=
CYYG;2007-10-07 07:00;METAR CYYG 070700Z 29005KT 15SM FEW030 BKN140 09/04 A2990 RMK SC2AC6 SLP125=
CYYG;2007-10-07 08:00;METAR CYYG 070800Z 31006KT 15SM FEW050 BKN140 08/04 A2989 RMK SC2AC4 SLP124=
CYYG;2007-10-07 09:00;METAR CYYG 070900Z 34008KT 15SM FEW030 BKN050 BKN130 09/03 A2989 RMK SC2SC2AC2 SLP124=
CYYG;2007-10-07 10:00;METAR CYYG 071000Z 34007KT 15SM FEW030 BKN050 08/02 A2989 RMK SC1SC6 SLP124=
CYYG;2007-10-07 11:00;METAR CYYG 071100Z 32012G17KT 15SM BKN037 08/01 A2990 RMK SC7 SLP126=
CYYG;2007-10-07 12:00;METAR CYYG 071200Z 33012G18KT 15SM BKN033 08/01 A2990 RMK SC7 SLP126=
CYYG;2007-10-07 13:00;METAR CYYG 071300Z 34015KT 15SM BKN037 08/01 A2990 RMK SC7 SLP125=
CYYG;2007-10-07 14:00;METAR CYYG 071400Z 34014G19KT 15SM BKN037 08/01 A2989 RMK SC7 SLP123=
CYYG;2007-10-07 15:00;METAR CYYG 071500Z 34013G21KT 15SM VCSH BKN039 08/02 A2989 RMK SC7 SLP123=
CYYG;2007-10-07 16:00;METAR CYYG 071600Z 33013G20KT 15SM VCSH OVC035 08/01 A2989 RMK SC8 SLP124=
CYYG;2007-10-07 17:00;METAR CYYG 071700Z 33015G20KT 15SM VCSH OVC038 08/01 A2988 RMK SC8 VCSH SLP119=
CYYG;2007-10-07 18:00;METAR CYYG 071800Z 34017G22KT 15SM OVC037 09/01 A2987 RMK SC8 SLP116=
CYYG;2007-10-07 19:00;METAR CYYG 071900Z 34016G24KT 15SM OVC037 09/01 A2987 RMK SC8 SLP116=
CYYG;2007-10-07 20:00;METAR CYYG 072000Z 34015G21KT 15SM OVC037 09/02 A2988 RMK SC8 SLP120=
CYYG;2007-10-07 21:00;METAR CYYG 072100Z 34014G21KT 15SM OVC042 09/01 A2988 RMK SC8 SLP120=
CYYG;2007-10-07 22:00;METAR CYYG 072200Z 34012G20KT 15SM BKN044 09/01 A2989 RMK SC6 SLP124=
CYYG;2007-10-07 23:00;METAR CYYG 072300Z 35013G21KT 15SM BKN042 10/01 A2990 RMK SC7 SLP126=
CYYG;2007-10-08 00:00;METAR CYYG 080000Z 36015G22KT 15SM BKN046 10/02 A2990 RMK SC7 SLP126=
CYYG;2007-10-08 01:00;METAR CYYG 080100Z 36017G24KT 15SM BKN049 10/02 A2989 RMK SC7 SLP123=
CYYG;2007-10-08 02:00;METAR CYYG 080200Z 34013G25KT 15SM BKN046 10/02 A2988 RMK SC7 SLP120=
CYYG;2007-10-08 03:00;METAR CYYG 080300Z 34012G20KT 15SM BKN049 10/02 A2987 RMK SC7 SLP118=
CYYG;2007-10-08 04:00;METAR CYYG 080400Z 35010G17KT 15SM OVC038 09/02 A2985 RMK SC8 SLP111=
CYYG;2007-10-08 05:00;METAR CYYG 080500Z 34007KT 15SM OVC040 09/02 A2985 RMK SC8 SLP109=
CYYG;2007-10-08 06:00;METAR CYYG 080600Z 35010G15KT 15SM OVC036 09/02 A2983 RMK SC8 SLP104=
CYYG;2007-10-08 07:00;METAR CYYG 080700Z 35012G19KT 15SM OVC034 09/02 A2984 RMK SC8 SLP106=
CYYG;2007-10-08 08:00;METAR CYYG 080800Z 34010G15KT 15SM OVC030 08/02 A2983 RMK SC8 SLP104=
CYYG;2007-10-08 09:00;METAR CYYG 080900Z CCA 32008G15KT 15SM BKN031 08/02 A2983 RMK SC7 SLP104=
CYYG;2007-10-08 10:00;METAR CYYG 081000Z 34007KT 15SM BKN033 08/03 A2982 RMK SC7 SLP101=
CYYG;2007-10-08 11:00;METAR CYYG 081100Z 33008KT 15SM BKN030 08/03 A2982 RMK SC7 SLP101=
CYYG;2007-10-08 12:00;METAR CYYG 081200Z 32009G18KT 15SM BKN029 BKN280 08/03 A2982 RMK SC6CI1 SLP100=
CYYG;2007-10-08 13:00;METAR CYYG 081300Z 32011G18KT 15SM BKN025 09/03 A2982 RMK SC7 SLP100=
CYYG;2007-10-08 14:00;METAR CYYG 081400Z 33011G18KT 15SM BKN022 09/04 A2982 RMK SC7 SLP099=
CYYG;2007-10-08 15:00;METAR CYYG 081500Z 33012G17KT 15SM BKN023 09/04 A2980 RMK SC7 SLP094=
CYYG;2007-10-08 16:00;METAR CYYG 081600Z 34009G15KT 15SM BKN024 10/04 A2979 RMK SC7 SLP088=
CYYG;2007-10-08 17:00;METAR CYYG 081700Z 33008KT 15SM BKN023 10/05 A2977 RMK SC7 SLP082=
CYYG;2007-10-08 18:00;METAR CYYG 081800Z 32010KT 15SM BKN025 10/04 A2974 RMK SC6 SLP072=
CYYG;2007-10-08 19:00;METAR CYYG 081900Z 34007KT 15SM FEW025 FEW250 11/05 A2974 RMK SC1CI1 SLP070=
CYYG;2007-10-08 20:00;METAR CYYG 082000Z 34009KT 15SM FEW025 FEW250 10/05 A2974 RMK SC1CI1 SLP071=
CYYG;2007-10-08 21:00;METAR CYYG 082100Z 34006KT 15SM FEW025 09/05 A2975 RMK SC1 SLP075=
CYYG;2007-10-08 22:00;METAR CYYG 082200Z 36002KT 15SM FEW025 FEW300 08/05 A2974 RMK SC1CI1 SLP071=
CYYG;2007-10-08 23:00;METAR CYYG 082300Z 00000KT 15SM FEW025 FEW300 06/04 A2972 RMK SC1CI1 SLP067=
CYYG;2007-10-09 00:00;METAR CYYG 090000Z 30003KT 15SM FEW025 FEW170 05/04 A2973 RMK SC1AC1 SLP068=
CYYG;2007-10-09 01:00;METAR CYYG 090100Z 29004KT 15SM FEW025 SCT170 06/04 A2971 RMK SC1AC2 SLP064=
CYYG;2007-10-09 02:00;METAR CYYG 090200Z 30003KT 15SM FEW025 FEW170 04/03 A2972 RMK SC1AC1 SLP065=
CYYG;2007-10-09 03:00;METAR CYYG 090300Z 33003KT 15SM FEW025 FEW170 04/03 A2971 RMK SC1AC1 SLP062=
CYYG;2007-10-09 04:00;METAR CYYG 090400Z 34004KT 15SM FEW025 SCT180 05/04 A2971 RMK SC1AC2 SLP061=
CYYG;2007-10-09 05:00;METAR CYYG 090500Z 35003KT 15SM FEW025 BKN180 05/04 A2972 RMK SC1AC5 SLP065=
CYYG;2007-10-09 06:00;METAR CYYG 090600Z 32004KT 15SM FEW039 OVC170 06/05 A2972 RMK SC2AC5 SLP067=
CYYG;2007-10-09 07:00;METAR CYYG 090700Z 36004KT 15SM FEW014 BKN037 OVC080 07/06 A2973 RMK SC1SC6AC2 SLP068=
CYYG;2007-10-09 08:00;METAR CYYG 090800Z 02006KT 15SM FEW016 SCT038 OVC092 08/07 A2973 RMK SC1SC3AC4 SLP069=
CYYG;2007-10-09 08:24;SPECI CYYG 090824Z 02006KT 15SM -SHRA FEW015 SCT038 OVC065 09/ RMK SC2SC2SC4=
CYYG;2007-10-09 09:00;METAR CYYG 090900Z 02008KT 15SM -SHRA FEW016 SCT040 OVC084 09/07 A2974 RMK SC2SC2AC4 SLP073=
CYYG;2007-10-09 10:00;METAR CYYG 091000Z 01007KT 15SM BKN018 BKN040 OVC110 09/07 A2976 RMK SC5SC2AC1 SLP077=
CYYG;2007-10-09 10:44;SPECI CYYG 091044Z 01006KT 15SM FEW012 BKN026 09/ RMK SF1SC6=
CYYG;2007-10-09 11:00;METAR CYYG 091100Z 02009KT 15SM FEW012 BKN022 09/08 A2978 RMK SF2SC6 SLP085=
CYYG;2007-10-09 12:00;METAR CYYG 091200Z 04012KT 15SM BKN017 09/07 A2981 RMK SC7 SLP095=
CYYG;2007-10-09 12:36;SPECI CYYG 091236Z 03014G20KT 12SM -DZ OVC019 09/ RMK SC8=
CYYG;2007-10-09 13:00;METAR CYYG 091300Z 03011KT 15SM OVC018 10/07 A2983 RMK SC8 SLP104=
CYYG;2007-10-09 14:00;METAR CYYG 091400Z 02015KT 15SM OVC019 10/07 A2985 RMK SC8 SLP109=
CYYG;2007-10-09 15:00;METAR CYYG 091500Z 04010G16KT 15SM OVC020 10/06 A2986 RMK SC8 SLP114=
CYYG;2007-10-09 16:00;METAR CYYG 091600Z 04016KT 15SM OVC024 11/06 A2986 RMK SC8 SLP114=
CYYG;2007-10-09 17:00;METAR CYYG 091700Z 02011G18KT 15SM BKN024 11/06 A2986 RMK SC7 SLP114=
CYYG;2007-10-09 18:00;METAR CYYG 091800Z 02012KT 15SM OVC024 10/06 A2987 RMK SC8 SLP116=
CYYG;2007-10-09 19:00;METAR CYYG 091900Z 01010KT 15SM OVC022 10/05 A2988 RMK SC8 SLP120=
CYYG;2007-10-09 20:00;METAR CYYG 092000Z 36009KT 15SM BKN020 09/05 A2989 RMK SC7 SLP123=
CYYG;2007-10-09 21:00;METAR CYYG 092100Z CCA 30006KT 15SM BKN019 09/06 A2989 RMK SC5 SLP123=
CYYG;2007-10-09 22:00;METAR CYYG 092200Z 36004KT 15SM SCT021 07/05 A2990 RMK SC4 SLP126=
CYYG;2007-10-09 23:00;METAR CYYG 092300Z 32003KT 15SM FEW020 SCT140 06/04 A2991 RMK SC2AC2 SLP129=
CYYG;2007-10-10 00:00;METAR CYYG 100000Z 28002KT 15SM FEW020 SCT140 05/04 A2992 RMK SC2AC2 SLP134=
CYYG;2007-10-10 01:00;METAR CYYG 100100Z 30002KT 15SM SKC 04/02 A2993 RMK SLP136=
CYYG;2007-10-10 02:00;METAR CYYG 100200Z 32002KT 15SM SKC 03/02 A2993 RMK SLP138=
CYYG;2007-10-10 03:00;METAR CYYG 100300Z 27003KT 15SM SKC 04/04 A2993 RMK SLP137=
CYYG;2007-10-10 04:00;METAR CYYG 100400Z 00000KT 15SM SKC 03/02 A2992 RMK SLP134=
CYYG;2007-10-10 05:00;METAR CYYG 100500Z 00000KT 15SM SKC 03/03 A2993 RMK SLP135=
CYYG;2007-10-10 06:00;METAR CYYG 100600Z 27004KT 15SM SKC 03/02 A2993 RMK SLP135=
CYYG;2007-10-10 07:00;METAR CYYG 100700Z 26003KT 15SM SKC 06/04 A2992 RMK SLP134=
CYYG;2007-10-10 08:00;METAR CYYG 100800Z 27005KT 15SM SKC 06/04 A2993 RMK SLP135=
CYYG;2007-10-10 09:00;METAR CYYG 100900Z 28003KT 15SM SKC 04/03 A2993 RMK SLP138=
CYYG;2007-10-10 10:00;METAR CYYG 101000Z 29002KT 15SM FEW010 FEW120 03/02 A2993 RMK SC1AC2 SLP137=
CYYG;2007-10-10 11:00;METAR CYYG 101100Z 00000KT 15SM MIFG FEW010 BKN220 BKN300 05/04 A2995 RMK SC1CS5CI1 SLP143=
CYYG;2007-10-10 12:00;METAR CYYG 101200Z 28003KT 15SM FEW010 BKN200 BKN300 08/07 A2996 RMK SC1CS6CI1 SLP145=
CYYG;2007-10-10 13:00;METAR CYYG 101300Z 27004KT 15SM FEW010 BKN160 OVC250 09/08 A2996 RMK SC1AC6CI1 SLP148=
CYYG;2007-10-10 14:00;METAR CYYG 101400Z 23003KT 15SM FEW010 BKN140 OVC250 10/07 A2995 RMK SC1AC6CI1 SLP144=
CYYG;2007-10-10 15:00;METAR CYYG 101500Z 22003KT 15SM FEW012 BKN140 OVC250 11/08 A2994 RMK SC2AC5CI1 SLP141=
CYYG;2007-10-10 16:00;METAR CYYG 101600Z 20004KT 15SM FEW018 BKN160 BKN250 12/08 A2993 RMK SC2AC4CI1 SLP136=
CYYG;2007-10-10 17:00;METAR CYYG 101700Z 19007KT 15SM FEW018 BKN160 BKN250 12/06 A2992 RMK SC2AC4CI1 SLP132=
CYYG;2007-10-10 18:00;METAR CYYG 101800Z 18008KT 15SM FEW020 BKN110 OVC200 11/07 A2991 RMK SC1AC6CI1 SLP130=
CYYG;2007-10-10 19:00;METAR CYYG NIL=
CYYG;2007-10-10 20:00;METAR CYYG 102000Z 21005KT 15SM FEW020 BKN032 OVC100 11/07 A2989 RMK SC1SC6AC2 SLP124=
CYYG;2007-10-10 21:00;METAR CYYG 102100Z 18004KT 15SM FEW020 SCT032 OVC090 11/07 A2988 RMK SC1SC3AC4 SLP121=
CYYG;2007-10-10 22:00;METAR CYYG 102200Z 14002KT 15SM FEW035 SCT042 OVC073 11/07 A2989 RMK SC2SC2AC4 SLP122=
CYYG;2007-10-10 23:00;METAR CYYG 102300Z 13003KT 15SM FEW035 BKN055 OVC080 11/08 A2989 RMK SC2SC5AC2 SLP123=
CYYG;2007-10-11 00:00;METAR CYYG 110000Z 18002KT 15SM SCT018 BKN035 OVC080 10/08 A2989 RMK SC3SC3AC2 SLP124=
CYYG;2007-10-11 01:00;METAR CYYG 110100Z 22003KT 15SM SCT022 OVC044 11/09 A2989 RMK SC3SC5 SLP124=
CYYG;2007-10-11 02:00;METAR CYYG 110200Z 23003KT 15SM SCT022 OVC040 11/09 A2989 RMK SC3SC5 SLP124=
CYYG;2007-10-11 03:00;METAR CYYG 110300Z 22002KT 15SM FEW022 BKN036 OVC058 11/09 A2988 RMK SC2SC5SC2 SLP120=
CYYG;2007-10-11 04:00;METAR CYYG 110400Z 00000KT 15SM SCT030 OVC056 10/09 A2988 RMK SC3SC5 SLP119=
CYYG;2007-10-11 05:00;METAR CYYG 110500Z 00000KT 15SM SCT035 OVC060 10/09 A2988 RMK SC3SC5 SLP121=
CYYG;2007-10-11 06:00;METAR CYYG NIL=
CYYG;2007-10-11 07:00;METAR CYYG NIL=
CYYG;2007-10-11 08:00;METAR CYYG 110800Z 00000KT 15SM OVC032 10/09 A2987 RMK SC8 SLP118=
CYYG;2007-10-11 09:00;METAR CYYG 110900Z 08005KT 15SM OVC033 10/09 A2987 RMK SC8 SLP116=
CYYG;2007-10-11 10:00;METAR CYYG 111000Z 00000KT 15SM BKN032 10/09 A2987 RMK SC7 SLP116=
CYYG;2007-10-11 11:00;METAR CYYG 111100Z 04003KT 15SM BKN032 09/09 A2987 RMK SC7 SLP118=
CYYG;2007-10-11 12:00;METAR CYYG 111200Z 09004KT 15SM BKN031 11/09 A2989 RMK SC7 SLP123=
CYYG;2007-10-11 13:00;METAR CYYG 111300Z 10006KT 15SM SCT031 BKN120 12/09 A2990 RMK SC4AC2 SLP128=
CYYG;2007-10-11 14:00;METAR CYYG 111400Z 09007KT 15SM FEW020 SCT060 BKN120 13/09 A2990 RMK SC2SC2AC2 SLP128=
CYYG;2007-10-11 15:00;METAR CYYG 111500Z 04008KT 15SM BKN020 OVC120 14/10 A2990 RMK SC6AC1 SLP125=
CYYG;2007-10-11 16:00;METAR CYYG 111600Z 04005KT 15SM BKN034 14/10 A2990 RMK SC7 SLP124=
CYYG;2007-10-11 17:00;METAR CYYG 111700Z 04009KT 15SM FEW018 BKN030 OVC120 14/10 A2989 RMK SC2SC5AC1 SLP122=
CYYG;2007-10-11 18:00;METAR CYYG 111800Z 06010KT 15SM BKN030 14/10 A2987 RMK SC7 SLP117=
CYYG;2007-10-11 19:00;METAR CYYG 111900Z 04009KT 15SM SCT030 BKN074 14/09 A2988 RMK SC3AC2 SLP120=
CYYG;2007-10-11 20:00;METAR CYYG 112000Z 05008KT 15SM SCT032 OVC073 13/10 A2988 RMK SC3AC3 SLP118=
CYYG;2007-10-11 21:00;METAR CYYG 112100Z 05008KT 15SM FEW032 OVC073 13/09 A2990 RMK SC2AC5 SLP125=
CYYG;2007-10-11 22:00;METAR CYYG 112200Z 06008KT 15SM FEW030 OVC075 12/09 A2990 RMK SC1AC7 SLP127=
CYYG;2007-10-11 23:00;METAR CYYG 112300Z 06006KT 15SM FEW030 OVC080 12/10 A2991 RMK SC2AC6 SLP131=
CYYG;2007-10-12 00:00;METAR CYYG 120000Z 06006KT 15SM FEW032 BKN060 OVC080 12/10 A2992 RMK SC2SC4AC2 SLP133=
CYYG;2007-10-12 01:00;METAR CYYG 120100Z 08006KT 15SM SCT025 OVC052 12/10 A2992 RMK SC4SC4 SLP134=
CYYG;2007-10-12 02:00;METAR CYYG 120200Z 09006KT 15SM SCT026 OVC045 12/10 A2992 RMK SC4SC4 SLP133=
CYYG;2007-10-12 03:00;METAR CYYG 120300Z 06005KT 6SM -SHRA BR FEW010 BKN025 OVC042 12/10 A2992 RMK SC2SC4SC2 SLP133=
CYYG;2007-10-12 04:00;METAR CYYG 120400Z 05008KT 10SM -SHRA FEW010 BKN020 OVC042 11/10 A2992 RMK SC2SC4SC2 SLP131=
CYYG;2007-10-12 05:00;METAR CYYG 120500Z 07010KT 10SM FEW010 SCT020 OVC035 11/10 A2991 RMK SC2SC2SC5 SLP130=
CYYG;2007-10-12 06:00;METAR CYYG 120600Z 07008G15KT 10SM SCT010 OVC020 11/10 A2991 RMK SC4SC4 SLP129=
CYYG;2007-10-12 06:15;SPECI CYYG 120615Z 07009KT 10SM -SHRA BKN007 OVC018 11/ RMK SF6SC2=
CYYG;2007-10-12 07:00;METAR CYYG 120700Z 08011KT 10SM -SHRA OVC006 11/10 A2990 RMK SF8 SLP126=
CYYG;2007-10-12 08:00;METAR CYYG 120800Z 08009G15KT 10SM -SHRA OVC006 11/10 A2990 RMK SF8 SLP125=
CYYG;2007-10-12 09:00;METAR CYYG 120900Z 08009KT 6SM -SHRA BR OVC006 11/10 A2989 RMK SF8 SLP121=
CYYG;2007-10-12 09:20;SPECI CYYG 120920Z 08009KT 6SM -SHRA OVC005 11/ RMK SF8=
CYYG;2007-10-12 10:00;METAR CYYG 121000Z 09009KT 8SM -DZ OVC005 10/10 A2989 RMK SF8 SLP122=
CYYG;2007-10-12 11:00;METAR CYYG 121100Z 07010KT 12SM -DZ OVC005 11/10 A2988 RMK SF8 SLP119=
CYYG;2007-10-12 12:00;METAR CYYG 121200Z 09009KT 12SM -DZ OVC007 11/10 A2988 RMK SF8 SLP118=
CYYG;2007-10-12 13:00;METAR CYYG 121300Z 10009KT 12SM OVC009 12/11 A2988 RMK SF8 SLP118=
CYYG;2007-10-12 14:00;METAR CYYG 121400Z 10014KT 12SM OVC009 12/10 A2985 RMK SF8 SLP110=
CYYG;2007-10-12 15:00;METAR CYYG 121500Z 10011G19KT 15SM OVC009 13/11 A2984 RMK SC8 SLP106=
CYYG;2007-10-12 16:00;METAR CYYG 121600Z 11013G19KT 15SM OVC010 13/11 A2981 RMK SC8 SLP094=
CYYG;2007-10-12 17:00;METAR CYYG 121700Z 10015G22KT 15SM OVC010 13/11 A2977 RMK SC8 SLP083=
CYYG;2007-10-12 18:00;METAR CYYG 121800Z 09015G22KT 15SM OVC011 13/11 A2974 RMK SC8 SLP073=
CYYG;2007-10-12 19:05;SPECI CYYG 121905Z 10015G21KT 15SM -SHRA OVC011 13/ RMK SC8 VIS LWR=
CYYG;2007-10-12 20:00;METAR CYYG 122000Z 10020G26KT 15SM -SHRA OVC011 13/11 A2968 RMK SC8 VIS LWR W SLP052=
CYYG;2007-10-12 21:00;METAR CYYG 122100Z 10018G31KT 15SM -SHRA OVC011 13/11 A2964 RMK SC8 SLP037=
CYYG;2007-10-12 22:00;METAR CYYG 122200Z 10019G27KT 15SM -SHRA OVC009 13/11 A2962 RMK SF8 SLP031=
CYYG;2007-10-12 23:00;METAR CYYG 122300Z 11021G28KT 15SM SHRA OVC009 12/11 A2958 RMK SF8 SLP019=
CYYG;2007-10-13 00:00;METAR CYYG 130000Z 11018G26KT 10SM -SHRA OVC007 13/11 A2955 RMK SF8 SLP006=
CYYG;2007-10-13 01:00;METAR CYYG 130100Z 11018G32KT 10SM -SHRA OVC008 12/11 A2951 RMK SF8 SLP995=
CYYG;2007-10-13 02:00;METAR CYYG 130200Z 14017G25KT 5SM -SHRA BR OVC007 13/12 A2954 RMK SF8 SLP003=
CYYG;2007-10-13 03:00;METAR CYYG 130300Z 16006KT 8SM -SHRA OVC006 13/12 A2953 RMK SF8 SLP001=
CYYG;2007-10-13 03:52;SPECI CYYG 130352Z 18008KT 10SM BKN009 OVC021 13/ RMK SF5SC3=
CYYG;2007-10-13 04:00;METAR CYYG 130400Z 18008KT 10SM BKN009 BKN020 13/12 A2955 RMK SF5SC2 SLP006=
CYYG;2007-10-13 05:00;METAR CYYG 130500Z 18007KT 15SM FEW010 BKN250 12/11 A2956 RMK SF2CI2 SLP010=
CYYG;2007-10-13 06:00;METAR CYYG 130600Z 16006KT 10SM BKN022 13/12 A2955 RMK SC6 SLP008=
CYYG;2007-10-13 07:00;METAR CYYG 130700Z 16007KT 10SM BKN020 12/11 A2955 RMK SC6 SLP009=
CYYG;2007-10-13 08:00;METAR CYYG 130800Z 17009KT 10SM BKN022 BKN035 13/11 A2957 RMK SC5SC2 SLP014=
CYYG;2007-10-13 09:00;METAR CYYG 130900Z 19009KT 15SM SCT026 BKN040 13/11 A2958 RMK SC2SC3 SLP017=
CYYG;2007-10-13 10:00;METAR CYYG 131000Z 20006KT 15SM FEW040 FEW250 12/10 A2958 RMK SC1CI1 SLP019=
CYYG;2007-10-13 11:00;METAR CYYG 131100Z 21006KT 15SM VCSH BKN058 13/11 A2961 RMK SC6 SLP029=
CYYG;2007-10-13 12:00;METAR CYYG 131200Z 21010KT 12SM VCSH BKN021 BKN058 14/12 A2963 RMK SC5SC2 SLP036=
CYYG;2007-10-13 13:00;METAR CYYG 131300Z 25010KT 15SM SCT030 13/10 A2966 RMK SC3 SLP043=
CYYG;2007-10-13 14:00;METAR CYYG 131400Z 24010G15KT 15SM BKN015 13/08 A2966 RMK SC6 SLP045=
CYYG;2007-10-13 15:00;METAR CYYG 131500Z 23007KT 15SM OVC015 13/10 A2969 RMK SC8 SLP053=
CYYG;2007-10-13 16:00;METAR CYYG 131600Z 24007KT 15SM OVC013 13/10 A2969 RMK SC8 SLP053=
CYYG;2007-10-13 17:00;METAR CYYG 131700Z 24008KT 15SM OVC015 14/10 A2969 RMK SC8 SLP053=
CYYG;2007-10-13 18:00;METAR CYYG 131800Z 25009KT 15SM OVC015 14/10 A2970 RMK SC8 SLP058=
CYYG;2007-10-13 19:00;METAR CYYG 131900Z 25005KT 15SM SCT015 OVC047 14/10 A2971 RMK SC3SC5 SLP061=
CYYG;2007-10-13 20:00;METAR CYYG 132000Z 25005KT 15SM FEW015 OVC035 13/10 A2972 RMK SC2SC6 SLP064=
CYYG;2007-10-13 21:00;METAR CYYG 132100Z 26011KT 10SM BKN012 OVC052 13/10 A2973 RMK SC6SC2 SLP067=
CYYG;2007-10-13 22:00;METAR CYYG 132200Z 27006KT 10SM SCT012 OVC026 11/09 A2976 RMK SC3SC5 SLP078=
CYYG;2007-10-13 23:00;METAR CYYG 132300Z 29003KT 12SM SCT012 OVC031 11/08 A2978 RMK SC3SC5 INTMT SLP084=
CYYG;2007-10-13 23:13;SPECI CYYG 132313Z 29003KT 12SM FEW012 OVC030 11/ RMK SC2SC6=
CYYG;2007-10-14 00:00;METAR CYYG 140000Z 29003KT 12SM FEW012 OVC030 10/07 A2979 RMK SC2SC6 SLP087=
CYYG;2007-10-14 01:00;METAR CYYG 140100Z 28005KT 12SM FEW012 OVC033 10/04 A2980 RMK SC1SC7 SLP091=
CYYG;2007-10-14 02:00;METAR CYYG 140200Z 27006KT 15SM FEW011 OVC032 10/06 A2980 RMK SC1SC7 SLP092=
CYYG;2007-10-14 03:00;METAR CYYG 140300Z 27004KT 15SM OVC023 10/07 A2980 RMK SC8 SLP091=
CYYG;2007-10-14 05:00;METAR CYYG 140500Z CCA 25005KT 15SM OVC028 10/07 A2981 RMK SC8 SLP096=
CYYG;2007-10-14 06:00;METAR CYYG 140600Z 28003KT 15SM OVC033 09/05 A2980 RMK SC8 SLP093=
CYYG;2007-10-14 07:00;METAR CYYG 140700Z 26003KT 15SM BKN038 OVC240 09/04 A2980 RMK SC7CI1 SLP091=
CYYG;2007-10-14 08:00;METAR CYYG 140800Z 28005KT 15SM BKN038 BKN240 08/04 A2980 RMK SC6CI0 SLP092=
CYYG;2007-10-14 09:00;METAR CYYG 140900Z 27006KT 15SM BKN033 BKN240 08/03 A2980 RMK SC6CI0 SLP092=
CYYG;2007-10-14 10:00;METAR CYYG 141000Z 26004KT 15SM FEW030 SCT120 BKN240 07/03 A2980 RMK SC2AC2CI0 SLP093=
CYYG;2007-10-14 11:00;METAR CYYG 141100Z 22002KT 15SM SCT035 BKN120 BKN240 06/03 A2982 RMK SC4AC1CI1 SLP097=
CYYG;2007-10-14 12:00;METAR CYYG 141200Z 23003KT 15SM BKN038 BKN120 08/04 A2982 RMK SC5AC1 SLP100=
CYYG;2007-10-14 13:00;METAR CYYG 141300Z 27006KT 15SM SCT035 BKN100 09/04 A2982 RMK SC3AC4 SLP099=
CYYG;2007-10-14 14:00;METAR CYYG 141400Z 27005KT 15SM FEW035 SCT100 10/04 A2981 RMK SC2AC2 SLP097=
CYYG;2007-10-14 15:00;METAR CYYG 141500Z 23005KT 15SM SCT035 BKN100 11/03 A2980 RMK SC3AC3 SLP092=
CYYG;2007-10-14 16:00;METAR CYYG 141600Z 26006KT 15SM SCT035 BKN070 11/03 A2979 RMK SC3AC3 SLP087=
CYYG;2007-10-14 17:00;METAR CYYG 141700Z 25002KT 15SM SCT035 BKN070 11/03 A2977 RMK SC3AC3 SLP081=
CYYG;2007-10-14 18:00;METAR CYYG 141800Z 19005KT 15SM BKN042 BKN120 11/04 A2977 RMK SC5AC2 SLP080=
CYYG;2007-10-14 18:13;SPECI CYYG 141813Z 21004KT 12SM -SHRA BKN053 11/ RMK SC7=
CYYG;2007-10-14 19:00;METAR CYYG 141900Z 27005KT 15SM -SHRA OVC028 09/06 A2977 RMK SC8 SLP081=
CYYG;2007-10-14 20:00;METAR CYYG 142000Z 31004KT 12SM -SHRA OVC028 08/06 A2977 RMK SC8 SLP082=
CYYG;2007-10-14 21:00;METAR CYYG 142100Z 31007KT 12SM -SHRA BKN028 OVC056 08/06 A2977 RMK SC6SC2 SLP082=
CYYG;2007-10-14 21:49;SPECI CYYG 142149Z 02002KT 15SM BKN026 OVC040 07/ RMK SC6SC2=
CYYG;2007-10-14 22:00;METAR CYYG 142200Z 34004KT 15SM OVC030 07/06 A2977 RMK SC8 SLP084=
CYYG;2007-10-14 23:00;METAR CYYG 142300Z 33002KT 15SM VCSH BKN030 BKN060 07/05 A2977 RMK SC6SC2 SLP084=
CYYG;2007-10-15 00:00;METAR CYYG 150000Z 36002KT 15SM FEW060 BKN150 06/05 A2977 RMK SC2AC6 SLP084=
CYYG;2007-10-15 01:00;METAR CYYG 150100Z 27003KT 15SM BKN045 OVC075 06/05 A2978 RMK SC6AC2 SLP086=
CYYG;2007-10-15 02:00;METAR CYYG 150200Z 27006KT 15SM FEW012 SCT040 OVC070 06/05 A2979 RMK SC1SC2AC5 SLP088=
CYYG;2007-10-15 02:21;SPECI CYYG 150221Z 29008KT 12SM -SHRA FEW012 OVC040 07/ RMK SC2SC6=
CYYG;2007-10-15 03:00;METAR CYYG 150300Z 29007KT 15SM FEW040 BKN080 06/04 A2978 RMK SC2AC5 SLP086=
CYYG;2007-10-15 06:00;METAR CYYG 150600Z 29008KT 15SM BKN031 05/03 A2977 RMK SC7 SLP082=
CYYG;2007-10-15 07:00;METAR CYYG 150700Z 28007KT 15SM OVC031 06/03 A2976 RMK SC8 SLP080=
CYYG;2007-10-15 08:00;METAR CYYG 150800Z 27007KT 15SM BKN034 BKN095 05/03 A2977 RMK SC5AC2 SLP081=
CYYG;2007-10-15 09:00;METAR CYYG 150900Z 29008KT 15SM BKN034 BKN063 06/03 A2977 RMK SC6SC2 SLP082=
CYYG;2007-10-15 10:00;METAR CYYG 151000Z 29009KT 15SM -SHRA FEW035 OVC070 06/03 A2978 RMK SC2AC6 SLP086=
CYYG;2007-10-15 11:00;METAR CYYG 151100Z 29010G15KT 15SM -SHRA SCT023 OVC075 06/03 A2980 RMK SC4AC4 SLP092=
CYYG;2007-10-15 11:40;SPECI CYYG 151140Z 28010KT 15SM BKN020 OVC075 06/ RMK SC5AC3=
CYYG;2007-10-15 12:00;METAR CYYG 151200Z 28008KT 15SM BKN019 OVC075 06/04 A2981 RMK SC6AC2 SLP095=
CYYG;2007-10-15 12:18;SPECI CYYG 151218Z 28011G17KT 12SM -DZ BKN020 OVC075 06/ RMK SC7AC1=
CYYG;2007-10-15 13:00;METAR CYYG 151300Z 28010G15KT 15SM FEW010 BKN020 BKN065 07/05 A2981 RMK SC2SC2SC2 SLP096=
CYYG;2007-10-15 14:00;METAR CYYG 151400Z 28012KT 15SM BKN018 BKN065 08/05 A2980 RMK SC5SC2 SLP093=
CYYG;2007-10-15 15:00;METAR CYYG 151500Z 30012KT 15SM BKN028 08/03 A2979 RMK SC7 SLP090=
CYYG;2007-10-15 15:37;SPECI CYYG 151537Z 34011KT 12SM -SHRA OVC024 07/ RMK SC8=
CYYG;2007-10-15 16:00;METAR CYYG 151600Z 30010G15KT 15SM BKN024 BKN049 08/05 A2979 RMK SC5SC2 SLP091=
CYYG;2007-10-15 17:00;METAR CYYG 151700Z 30014G19KT 15SM -SHRA SCT021 BKN044 08/04 A2979 RMK SC4SC3 SLP091=
CYYG;2007-10-15 18:00;METAR CYYG 151800Z 30010KT 15SM VCSH FEW020 BKN035 08/03 A2980 RMK SC2SC5 SLP092=
CYYG;2007-10-15 19:00;METAR CYYG 151900Z 29012KT 15SM FEW020 BKN035 08/04 A2980 RMK SC2SC5 SLP094=
CYYG;2007-10-15 19:46;SPECI CYYG 151946Z 32013KT 15SM -SHRA BKN018 BKN035 08/ RMK SC5SC2=
CYYG;2007-10-15 20:00;METAR CYYG 152000Z 31008KT 15SM -SHRA SCT017 BKN031 07/04 A2981 RMK SC4SC3 SLP096=
CYYG;2007-10-15 21:00;METAR CYYG 152100Z 31006KT 15SM -SHRA SCT014TCU BKN031 BKN250 07/05 A2982 RMK TCU3SC2CI1 VIS LWR W-NW SLP099=
CYYG;2007-10-15 21:30;SPECI CYYG 152130Z 30006KT 15SM FEW014 FEW031 SCT250 06/ RMK CU1SC1CI1=
CYYG;2007-10-15 22:00;METAR CYYG 152200Z 30006KT 15SM FEW014 FEW031 SCT250 06/04 A2982 RMK CU1SC1CI1 SLP099=
CYYG;2007-10-15 23:00;METAR CYYG 152300Z 30008KT 15SM FEW020 BKN038 BKN090 06/04 A2982 RMK CU1SC4AC2 SLP099=
CYYG;2007-10-15 23:17;SPECI CYYG 152317Z 30008KT 10SM -SHRA FEW020 BKN028 06/ RMK CU2SC6=
CYYG;2007-10-16 00:00;METAR CYYG 160000Z 31007KT 15SM BKN017 07/05 A2982 RMK SC6 SLP101=
CYYG;2007-10-16 01:00;METAR CYYG 160100Z 33004KT 15SM -SHRA FEW020 BKN035 07/04 A2982 RMK SC2SC6 SLP101=
CYYG;2007-10-16 01:39;SPECI CYYG 160139Z 28003KT 12SM -SHRA BKN009 OVC016 06/ RMK SF6SC2=
CYYG;2007-10-16 02:00;METAR CYYG 160200Z 32004KT 12SM FEW009 BKN014 OVC040 06/05 A2982 RMK SF2SC5SC2 OCNL -SHRA SLP099=
CYYG;2007-10-16 03:00;METAR CYYG 160300Z 29005KT 12SM -SHRA BKN016 OVC028 07/05 A2981 RMK SC6SC2 SLP097=
CYYG;2007-10-16 04:00;METAR CYYG 160400Z 31008KT 12SM -SHRA FEW015 OVC028 06/05 A2981 RMK SC2SC6 SLP095=
CYYG;2007-10-16 05:00;METAR CYYG 160500Z 31005KT 15SM BKN025 OVC070 06/05 A2980 RMK SC6AC2 OCNL -SHRA SLP094=
CYYG;2007-10-16 06:00;METAR CYYG 160600Z 32003KT 15SM BKN025 OVC075 06/05 A2980 RMK SC6AC2 SLP092=
CYYG;2007-10-16 06:28;SPECI CYYG 160628Z 30002KT 12SM -SHRA OVC025 06/ RMK SC8=
CYYG;2007-10-16 07:00;METAR CYYG 160700Z 27004KT 15SM SCT022 OVC046 06/04 A2979 RMK SC4SC4 OCNL -SHRA SLP091=
CYYG;2007-10-16 07:54;SPECI CYYG 160754Z 27004KT 15SM SCT022 OVC050 06/ RMK SC3SC5=
CYYG;2007-10-16 08:00;METAR CYYG 160800Z 27005KT 15SM SCT022 OVC050 06/04 A2980 RMK SC4SC4 SLP092=
CYYG;2007-10-16 08:35;SPECI CYYG 160835Z 27007KT 12SM -SHRA BKN022 OVC051 06/ RMK SC6SC2=
CYYG;2007-10-16 09:00;METAR CYYG 160900Z 29008KT 8SM -SHRA BKN022 OVC040 06/05 A2981 RMK SC6SC2 SLP096=
CYYG;2007-10-16 10:00;METAR CYYG 161000Z 30006KT 8SM -SHRA BKN025 OVC047 06/04 A2981 RMK SC6SC2 SLP097=
CYYG;2007-10-16 10:44;SPECI CYYG 161044Z 30006KT 15SM VCSH SCT025 BKN065 OVC130 06/ RMK SC3SC2AC2=
CYYG;2007-10-16 11:00;METAR CYYG 161100Z 29007KT 15SM VCSH FEW025 BKN034 BKN130 06/04 A2981 RMK SC2SC4AC1 SLP095=
CYYG;2007-10-16 12:00;METAR CYYG 161200Z 30009KT 15SM VCSH FEW025 BKN034 BKN070 07/04 A2981 RMK SC2SC2AC2 SLP096=
CYYG;2007-10-16 12:42;SPECI CYYG 161242Z 31009KT 15SM -SHRA FEW020 BKN032 BKN068 07/ RMK SC2SC3AC2=
CYYG;2007-10-16 13:00;METAR CYYG 161300Z 32012KT 12SM -SHRA FEW020 BKN032 OVC068 07/05 A2982 RMK SC2SC3AC2 SLP101=
CYYG;2007-10-16 14:00;METAR CYYG 161400Z 31010KT 15SM -SHRA FEW020 BKN032 08/05 A2982 RMK SC2SC5 SLP100=
CYYG;2007-10-16 15:00;METAR CYYG 161500Z 34012G17KT 15SM FEW018 BKN029 OVC044 08/03 A2982 RMK SC2SC3SC3 SLP101=
CYYG;2007-10-16 16:00;METAR CYYG 161600Z 32011G21KT 15SM SCT025 BKN041 08/03 A2982 RMK SC4SC3 SLP100=
CYYG;2007-10-16 17:00;METAR CYYG 161700Z 34015G22KT 15SM FEW030 BKN043 08/01 A2982 RMK SC2SC5 SLP101=
CYYG;2007-10-16 18:00;METAR CYYG 161800Z 34013G18KT 15SM FEW028 BKN043 09/03 A2982 RMK SC2SC6 SLP100=
CYYG;2007-10-16 19:00;METAR CYYG 161900Z 33011G19KT 15SM BKN033 BKN260 08/02 A2982 RMK SC6CI1 SLP100=
CYYG;2007-10-16 20:00;METAR CYYG 162000Z 32010G16KT 15SM FEW035 SCT260 09/02 A2982 RMK SC2CI1 SLP101=
CYYG;2007-10-16 21:00;METAR CYYG 162100Z 30006KT 15SM FEW028 FEW260 09/02 A2983 RMK SC1CI0 SLP102=
CYYG;2007-10-16 22:00;METAR CYYG 162200Z 29006KT 15SM FEW025 FEW260 07/02 A2983 RMK SC1CI0 SLP102=
CYYG;2007-10-16 23:00;METAR CYYG 162300Z 29008KT 15SM FEW140 07/02 A2984 RMK AC1 SLP106=
CYYG;2007-10-17 00:00;METAR CYYG 170000Z 30007KT 15SM SKC 07/03 A2985 RMK SLP111=
CYYG;2007-10-17 01:00;METAR CYYG 170100Z 33008KT 15SM SKC 09/04 A2986 RMK SLP114=
CYYG;2007-10-17 02:00;METAR CYYG 170200Z 32010KT 15SM FEW140 09/03 A2987 RMK AC1 SLP116=
CYYG;2007-10-17 03:00;METAR CYYG 170300Z 32009KT 15SM FEW140 09/03 A2987 RMK AC1 SLP116=
CYYG;2007-10-17 04:00;METAR CYYG 170400Z 32007KT 15SM FEW120 08/03 A2987 RMK AC1 SLP117=
CYYG;2007-10-17 05:00;METAR CYYG 170500Z 31006KT 15SM FEW120 08/03 A2988 RMK AC1 SLP121=
CYYG;2007-10-17 06:00;METAR CYYG 170600Z 31005KT 15SM FEW120 05/02 A2990 RMK AC1 SLP125=
CYYG;2007-10-17 07:00;METAR CYYG 170700Z 29004KT 15SM FEW120 04/02 A2990 RMK AC1 SLP127=
CYYG;2007-10-17 08:00;METAR CYYG 170800Z 31005KT 15SM FEW030 05/02 A2991 RMK SC1 SLP130=
CYYG;2007-10-17 09:00;METAR CYYG 170900Z 31005KT 15SM SCT034 06/02 A2992 RMK SC2 SLP134=
CYYG;2007-10-17 10:00;METAR CYYG 171000Z 34006KT 15SM SCT035 08/02 A2993 RMK SC2 SLP136=
CYYG;2007-10-17 11:00;METAR CYYG 171100Z 35006KT 15SM BKN035 08/03 A2995 RMK SC6 SLP143=
CYYG;2007-10-17 12:00;METAR CYYG 171200Z 30004KT 15SM BKN045 07/03 A2997 RMK SC6 SLP149=
CYYG;2007-10-17 14:00;METAR CYYG 171400Z 33009KT 15SM BKN039 09/02 A2998 RMK SC6 SLP152=
CYYG;2007-10-17 15:00;METAR CYYG 171500Z 34010G15KT 15SM BKN041 09/01 A2997 RMK SC6 SLP151=
CYYG;2007-10-17 16:00;METAR CYYG 171600Z 34007KT 15SM BKN033 10/02 A2995 RMK SC6 SLP144=
CYYG;2007-10-17 17:00;METAR CYYG 171700Z 35008KT 15SM BKN035 09/01 A2995 RMK SC6 SLP142=
CYYG;2007-10-17 18:00;METAR CYYG 171800Z 36009KT 15SM BKN036 09/01 A2993 RMK SC5 SLP138=
CYYG;2007-10-17 19:00;METAR CYYG 171900Z 34006KT 15SM FEW035 09/02 A2993 RMK SC2 SLP135=
CYYG;2007-10-17 20:00;METAR CYYG 172000Z 34005KT 15SM FEW035 FEW300 09/02 A2993 RMK SC1CI1 SLP135=
CYYG;2007-10-17 21:00;METAR CYYG 172100Z 28003KT 15SM FEW035 FEW300 09/02 A2992 RMK SC1CI1 SLP132=
CYYG;2007-10-17 22:00;METAR CYYG 172200Z 00000KT 15SM FEW300 06/01 A2991 RMK CI0 SLP131=
CYYG;2007-10-17 23:00;METAR CYYG 172300Z 28002KT 15SM FEW300 04/01 A2990 RMK CI0 SLP128=
CYYG;2007-10-18 00:00;METAR CYYG 180000Z 26002KT 15SM FEW300 04/01 A2990 RMK CI0 SLP126=
CYYG;2007-10-18 01:00;METAR CYYG 180100Z 25004KT 15SM FEW300 06/01 A2989 RMK CI1 SLP124=
CYYG;2007-10-18 02:00;METAR CYYG 180200Z 28003KT 15SM FEW300 03/01 A2989 RMK CI1 SLP123=
CYYG;2007-10-18 03:00;METAR CYYG 180300Z 30005KT 15SM FEW300 05/03 A2989 RMK CI1 SLP123=
CYYG;2007-10-18 04:00;METAR CYYG 180400Z 29006KT 15SM FEW300 06/02 A2990 RMK CI1 SLP125=
CYYG;2007-10-18 05:00;METAR CYYG 180500Z 26003KT 15SM FEW300 04/01 A2990 RMK CI1 SLP126=
CYYG;2007-10-18 06:00;METAR CYYG 180600Z 28004KT 15SM SKC 04/02 A2990 RMK SLP126=
CYYG;2007-10-18 07:00;METAR CYYG 180700Z 27005KT 15SM SKC 04/02 A2989 RMK SLP122=
CYYG;2007-10-18 08:00;METAR CYYG 180800Z 28007KT 15SM SKC 04/02 A2989 RMK SLP124=
CYYG;2007-10-18 09:00;METAR CYYG 180900Z 27005KT 15SM SKC 04/02 A2990 RMK SLP126=
CYYG;2007-10-18 10:00;METAR CYYG 181000Z 30006KT 15SM FEW280 05/03 A2989 RMK CI1 SLP122=
CYYG;2007-10-18 11:00;METAR CYYG 181100Z 31004KT 15SM FEW030 FEW280 05/02 A2989 RMK CU1CI1 SLP124=
CYYG;2007-10-18 12:00;METAR CYYG 181200Z 28007KT 15SM FEW030 FEW280 06/03 A2990 RMK SC1CI1 SLP127=
CYYG;2007-10-18 13:00;METAR CYYG 181300Z 31008KT 15SM FEW030 FEW280 09/05 A2991 RMK SC1CI1 SLP131=
CYYG;2007-10-18 14:00;METAR CYYG 181400Z 29010KT 15SM FEW030 FEW280 10/03 A2991 RMK SC1CI1 SLP129=
CYYG;2007-10-18 15:00;METAR CYYG 181500Z 30007KT 15SM FEW030 FEW120 FEW280 12/03 A2990 RMK CU1AC1CI0 SLP127=
CYYG;2007-10-18 16:00;METAR CYYG 181600Z 33008KT 15SM FEW030 FEW120 FEW280 12/03 A2989 RMK CU1AC1CI0 SLP123=
CYYG;2007-10-18 17:00;METAR CYYG 181700Z 33010KT 15SM FEW030 FEW280 12/03 A2988 RMK CU1CI1 SLP120=
CYYG;2007-10-18 18:00;METAR CYYG 181800Z 33010G15KT 15SM FEW030 FEW280 12/04 A2989 RMK CU1CI0 SLP122=
CYYG;2007-10-18 19:00;METAR CYYG 181900Z 34006KT 15SM FEW030 12/02 A2990 RMK CU1 SLP127=
CYYG;2007-10-18 20:00;METAR CYYG 182000Z 33008KT 15SM FEW030 11/02 A2991 RMK CU1 SLP131=
CYYG;2007-10-18 21:00;METAR CYYG 182100Z 36004KT 15SM FEW030 09/01 A2992 RMK SC1 SLP134=
CYYG;2007-10-18 22:00;METAR CYYG 182200Z 35003KT 15SM SKC 07/01 A2994 RMK SLP141=
CYYG;2007-10-18 23:00;METAR CYYG 182300Z 36002KT 15SM SKC 04/01 A2996 RMK SLP146=
CYYG;2007-10-19 00:00;METAR CYYG 190000Z 00000KT 15SM SKC 03/00 A2997 RMK SLP150=
CYYG;2007-10-19 01:00;METAR CYYG 190100Z 07003KT 15SM SKC 02/M00 A2998 RMK SLP152=
CYYG;2007-10-19 02:00;METAR CYYG 190200Z 13002KT 15SM SKC 03/M00 A2999 RMK SLP157=
CYYG;2007-10-19 03:00;METAR CYYG 190300Z 09003KT 15SM SKC 02/M00 A3000 RMK SLP160=
CYYG;2007-10-19 04:00;METAR CYYG 190400Z 11002KT 15SM SKC 02/01 A3001 RMK SLP163=
CYYG;2007-10-19 05:00;METAR CYYG 190500Z 11003KT 15SM SKC 02/M00 A3001 RMK SLP163=
CYYG;2007-10-19 06:00;METAR CYYG 190600Z 12002KT 15SM SKC 02/00 A3001 RMK SLP165=
CYYG;2007-10-19 07:00;METAR CYYG 190700Z 00000KT 15SM SKC 01/00 A3002 RMK SLP167=
CYYG;2007-10-19 08:00;METAR CYYG 190800Z 00000KT 15SM SKC 02/M00 A3003 RMK SLP170=
CYYG;2007-10-19 09:00;METAR CYYG 190900Z 12002KT 15SM SKC 03/01 A3003 RMK SLP171=
CYYG;2007-10-19 10:00;METAR CYYG 191000Z 14004KT 15SM FEW150 SCT250 03/01 A3005 RMK AC1CI1 SLP176=
CYYG;2007-10-19 11:00;METAR CYYG 191100Z 15005KT 15SM FEW150 BKN250 05/03 A3006 RMK AC2CI2 SLP182=
CYYG;2007-10-19 12:00;METAR CYYG 191200Z 14005KT 15SM FEW150 BKN250 07/05 A3007 RMK AC2CI2 SLP184=
CYYG;2007-10-19 13:00;METAR CYYG 191300Z 19010KT 15SM FEW150 BKN240 11/06 A3007 RMK AC2CI2 SLP185=
CYYG;2007-10-19 14:00;METAR CYYG 191400Z 20008KT 15SM BKN230 12/07 A3007 RMK CI4 SLP185=
CYYG;2007-10-19 15:00;METAR CYYG 191500Z 18006KT 15SM BKN230 13/07 A3007 RMK CI3 SLP183=
CYYG;2007-10-19 16:00;METAR CYYG 191600Z 18010KT 15SM BKN230 14/07 A3004 RMK CI2 SLP175=
CYYG;2007-10-19 17:00;METAR CYYG 191700Z 19009KT 15SM BKN230 14/07 A3003 RMK CI2 SLP169=
CYYG;2007-10-19 18:00;METAR CYYG 191800Z 18009KT 15SM FEW150 BKN240 15/07 A3001 RMK AC2CI2 SLP164=
CYYG;2007-10-19 19:00;METAR CYYG 191900Z 18009KT 15SM SCT150 BKN240 16/07 A3001 RMK AC3CI1 SLP163=
CYYG;2007-10-19 20:00;METAR CYYG 192000Z 18009KT 15SM FEW150 BKN240 16/07 A3000 RMK AC2CI2 SLP161=
CYYG;2007-10-19 21:00;METAR CYYG 192100Z 16006KT 15SM FEW150 BKN240 14/08 A3000 RMK AC1CI2 SLP160=
CYYG;2007-10-19 22:00;METAR CYYG 192200Z 18013KT 15SM SCT240 14/08 A2999 RMK CI2 SLP158=
CYYG;2007-10-19 23:00;METAR CYYG 192300Z 17014KT 15SM FEW240 14/08 A2998 RMK CI2 SLP153=
CYYG;2007-10-20 00:00;METAR CYYG 200000Z 16015KT 15SM BKN120 13/08 A2997 RMK AC5 SLP149=
CYYG;2007-10-20 01:00;METAR CYYG 200100Z 17013KT 15SM BKN027 BKN120 13/08 A2996 RMK SC5AC2 SLP145=
CYYG;2007-10-20 01:19;SPECI CYYG 200119Z 17014KT 12SM -SHRA OVC022 13/ RMK SC8=
CYYG;2007-10-20 02:00;METAR CYYG 200200Z 17013KT 15SM -SHRA SCT015 OVC024 12/10 A2994 RMK SC3SC5 SLP141=
CYYG;2007-10-20 03:00;METAR CYYG 200300Z 17010KT 12SM -SHRA SCT015 OVC021 12/10 A2992 RMK SC3SC5 SLP133=
CYYG;2007-10-20 04:00;METAR CYYG 200400Z 18010KT 12SM -SHRA BKN011 OVC020 13/11 A2991 RMK SC6SC2 SLP128=
CYYG;2007-10-20 05:00;METAR CYYG 200500Z 18014KT 15SM -SHRA OVC010 14/12 A2987 RMK SC8 SLP116=
CYYG;2007-10-20 06:00;METAR CYYG 200600Z 17015KT 10SM -SHRA OVC008 14/12 A2984 RMK SF8 SLP106=
CYYG;2007-10-20 07:00;METAR CYYG 200700Z 17015KT 10SM -SHRA OVC010 15/13 A2980 RMK SF8 SLP093=
CYYG;2007-10-20 09:00;METAR CYYG 200900Z 18016KT 10SM -SHRA OVC012 16/13 A2975 RMK SC8 SLP076=
CYYG;2007-10-20 10:00;METAR CYYG 201000Z 17018KT 10SM -SHRA OVC011 16/14 A2971 RMK SC8 SLP062=
CYYG;2007-10-20 11:00;METAR CYYG 201100Z 17020G26KT 5SM -RA BR FEW011 OVC080 17/15 A2966 RMK SC2AC6 SLP043=
CYYG;2007-10-20 11:24;SPECI CYYG 201124Z 17022G28KT 3SM +RA BR BKN012 OVC080 17/ RMK SC6AC2=
CYYG;2007-10-20 11:38;SPECI CYYG 201138Z 17019G28KT 3SM +RA BR FEW007 OVC012 17/ RMK SF2SC6=
CYYG;2007-10-20 12:00;METAR CYYG 201200Z 17022G28KT 3SM +RA BR FEW005 BKN012 OVC022 17/15 A2963 RMK SF2SC5NS1 SLP034=
CYYG;2007-10-20 12:22;SPECI CYYG 201222Z 17021G30KT 1 1/2SM +RA BR SCT005 OVC012 17/ RMK SF3SC5=
CYYG;2007-10-20 13:00;METAR CYYG 201300Z 18019G29KT 4SM RA BR FEW005 BKN012 OVC030 17/15 A2958 RERA RMK SF2SC6NS1 SLP016=
CYYG;2007-10-20 14:00;METAR CYYG 201400Z 18020G31KT 15SM SCT005 BKN013 OVC025 17/15 A2955 RERA RMK SF3SC4SC1 INTMT -RA SLP008=
CYYG;2007-10-20 14:05;SPECI CYYG 201405Z 18023G29KT 15SM SCT005 BKN013 OVC025 17/ RMK SF3SC4SC1=
CYYG;2007-10-20 14:20;SPECI CYYG 201420Z 18018G30KT 15SM FEW005 OVC020 18/ RMK SF1SC7=
CYYG;2007-10-20 15:00;METAR CYYG 201500Z 18017G28KT 15SM FEW007 OVC020 18/15 A2951 RMK SF1SC7 SLP994=
CYYG;2007-10-20 16:00;METAR CYYG 201600Z 20017G26KT 15SM -SHRA FEW007 OVC018 19/15 A2950 RMK SF1SC7 SLP989=
CYYG;2007-10-20 16:17;SPECI CYYG 201617Z 21019G25KT 15SM OVC016 19/ RMK SC8=
CYYG;2007-10-20 17:00;METAR CYYG 201700Z 22016G24KT 15SM FEW008 OVC015 19/15 A2950 RMK SF1SC7 SLP989=
CYYG;2007-10-20 17:31;SPECI CYYG 201731Z 25010G18KT 15SM BKN010 OVC020 19/ RMK SC6SC2=
CYYG;2007-10-20 17:54;SPECI CYYG 201754Z 25010G15KT 15SM OVC007 18/ RMK SF8=
CYYG;2007-10-20 18:00;METAR CYYG 201800Z 25009KT 15SM OVC006 18/15 A2953 RMK SF8 SLP999=
CYYG;2007-10-20 18:43;SPECI CYYG 201843Z 24009G16KT 15SM SCT007 OVC028 18/ RMK SF3SC5=
CYYG;2007-10-20 19:00;METAR CYYG 201900Z 25012KT 15SM FEW007 BKN025 OVC150 18/15 A2953 RMK SF1SC5AC3 SLP001=
CYYG;2007-10-20 20:00;METAR CYYG 202000Z 24010G15KT 15SM FEW025 FEW100 OVC150 18/14 A2954 RMK SC1AC1AC7 SLP004=
CYYG;2007-10-20 21:00;METAR CYYG 202100Z 23008KT 15SM FEW025 FEW050 BKN150 18/14 A2955 RMK SC1SC2AC6 SLP007=
CYYG;2007-10-20 22:00;METAR CYYG 202200Z 23008KT 15SM BKN048 BKN150 17/14 A2955 RMK SC6AC2 SLP007=
CYYG;2007-10-20 23:00;METAR CYYG 202300Z 23010G16KT 15SM BKN048 BKN150 17/14 A2957 RMK SC5AC2 SLP012=
CYYG;2007-10-21 00:00;METAR CYYG 210000Z 23005KT 15SM BKN048 OVC120 16/13 A2955 RMK SC6AC2 SLP007=
CYYG;2007-10-21 01:00;METAR CYYG 210100Z 23008KT 15SM OVC031 16/13 A2954 RMK SC8 SLP002=
CYYG;2007-10-21 02:00;METAR CYYG 210200Z 24005KT 15SM SCT030 OVC130 15/12 A2953 RMK SC4AC4 SLP001=
CYYG;2007-10-21 03:00;METAR CYYG 210300Z 25006KT 15SM FEW030 OVC070 15/13 A2953 RMK SC2AC6 SLP001=
CYYG;2007-10-21 04:00;METAR CYYG 210400Z 22009KT 15SM FEW030 OVC110 14/13 A2952 RMK SC2AC6 SLP995=
CYYG;2007-10-21 05:00;METAR CYYG 210500Z 26008KT 15SM FEW070 OVC160 14/12 A2951 RMK AC2AC6 SLP994=
CYYG;2007-10-21 06:00;METAR CYYG 210600Z 25009KT 15SM FEW003 OVC070 13/12 A2951 RMK SF2AC6 SLP992=
CYYG;2007-10-21 06:06;SPECI CYYG 210606Z 25009KT 8SM BKN003 OVC070 13/ RMK SF5AC3=
CYYG;2007-10-21 07:00;METAR CYYG 210700Z 26008KT 10SM SCT003 OVC085 13/12 A2952 RMK SF3AC5 SLP998=
CYYG;2007-10-21 07:21;SPECI CYYG 210721Z 28010KT 8SM -SHRA FEW003 OVC048 13/ RMK SF2SC6=
CYYG;2007-10-21 08:00;METAR CYYG 210800Z 27006KT 12SM -SHRA FEW003 OVC085 13/11 A2952 RMK SF2AC6 SLP997=
CYYG;2007-10-21 08:13;SPECI CYYG 210813Z 25006KT 15SM BKN110 13/ RMK AC5=
CYYG;2007-10-21 09:00;METAR CYYG 210900Z 27008KT 15SM SCT110 12/09 A2954 RMK AC4 SLP002=
CYYG;2007-10-21 10:00;METAR CYYG 211000Z 27009KT 15SM BKN080 13/09 A2957 RMK AC6 SLP012=
CYYG;2007-10-21 11:00;METAR CYYG 211100Z 27011KT 15SM SCT080 12/08 A2958 RMK AC4 SLP017=
CYYG;2007-10-21 12:00;METAR CYYG 211200Z 27011G17KT 15SM FEW080 BKN180 13/08 A2961 RMK AC2AC2 SLP027=
CYYG;2007-10-21 13:00;METAR CYYG 211300Z 29017G24KT 15SM FEW018 BKN070 BKN180 13/08 A2963 RMK SC2AC4AC2 SLP036=
CYYG;2007-10-21 13:45;SPECI CYYG 211345Z 29016KT 15SM -SHRA FEW018 BKN060 BKN180 13/ RMK SC2SC4AC2=
CYYG;2007-10-21 14:00;METAR CYYG 211400Z 29013G20KT 15SM FEW018 SCT060 BKN180 13/09 A2966 RMK SC1SC3AC1 SLP043=
CYYG;2007-10-21 15:00;METAR CYYG 211500Z 29017G28KT 15SM FEW022 BKN038 BKN180 14/08 A2969 RMK SC2SC3AC1 SLP054=
CYYG;2007-10-21 16:00;METAR CYYG 211600Z 29017G30KT 15SM FEW030 BKN044 BKN180 15/08 A2971 RMK SC2SC4AC1 SLP061=
CYYG;2007-10-21 17:00;METAR CYYG 211700Z 30020G28KT 15SM SCT038 SCT180 16/07 A2973 RMK SC3AC1 SLP067=
CYYG;2007-10-21 18:00;METAR CYYG 211800Z 30016G24KT 15SM FEW040 17/06 A2975 RMK SC1 SLP075=
CYYG;2007-10-21 19:00;METAR CYYG 211900Z 28016G21KT 15SM FEW040 17/06 A2978 RMK SC1 SLP086=
CYYG;2007-10-21 20:00;METAR CYYG 212000Z 27012G20KT 15SM FEW040 16/07 A2982 RMK SC1 SLP097=
CYYG;2007-10-21 21:00;METAR CYYG 212100Z 27011KT 15SM FEW040 16/06 A2983 RMK SC1 SLP103=
CYYG;2007-10-21 22:00;METAR CYYG 212200Z 25008KT 15SM FEW100 FEW250 14/06 A2984 RMK AC1CI1 SLP106=
CYYG;2007-10-21 23:00;METAR CYYG 212300Z 25008KT 15SM FEW250 13/08 A2985 RMK CI0 SLP109=
CYYG;2007-10-22 00:00;METAR CYYG 220000Z 25010G15KT 15SM FEW250 14/07 A2987 RMK CI0 SLP115=
CYYG;2007-10-22 01:00;METAR CYYG 220100Z 26010G15KT 15SM FEW120 FEW140 13/08 A2989 RMK AC1AC2 SLP123=
CYYG;2007-10-22 02:00;METAR CYYG 220200Z 25011KT 15SM FEW120 FEW140 13/08 A2991 RMK AC1AC2 SLP128=
CYYG;2007-10-22 03:00;METAR CYYG 220300Z 25009KT 15SM BKN080 14/08 A2991 RMK AC6 SLP130=
CYYG;2007-10-22 04:00;METAR CYYG 220400Z 27006KT 15SM FEW077 14/07 A2992 RMK AC2 SLP131=
CYYG;2007-10-22 05:00;METAR CYYG 220500Z 27008KT 15SM FEW077 14/07 A2992 RMK AC1 SLP131=
CYYG;2007-10-22 06:00;METAR CYYG 220600Z 27009KT 15SM SKC 14/07 A2993 RMK SLP137=
CYYG;2007-10-22 07:00;METAR CYYG 220700Z 27008KT 15SM SKC 13/07 A2995 RMK SLP143=
CYYG;2007-10-22 08:00;METAR CYYG 220800Z 29009KT 15SM SKC 13/07 A2998 RMK SLP152=
CYYG;2007-10-22 09:00;METAR CYYG 220900Z 29005KT 15SM SKC 12/06 A2999 RMK SLP157=
CYYG;2007-10-22 10:00;METAR CYYG 221000Z 30003KT 15SM FEW030 11/06 A3001 RMK SC1 SLP163=
CYYG;2007-10-22 11:00;METAR CYYG 221100Z 30005KT 15SM FEW300 11/06 A3004 RMK CI0 SLP172=
CYYG;2007-10-22 12:00;METAR CYYG 221200Z 28005KT 15SM FEW300 13/07 A3006 RMK CI0 SLP180=
CYYG;2007-10-22 13:00;METAR CYYG 221300Z 30003KT 15SM FEW300 15/08 A3006 RMK CI0 SLP179=
CYYG;2007-10-22 14:00;METAR CYYG 221400Z 21003KT 15SM FEW120 FEW300 17/09 A3007 RMK AC1CI0 SLP184=
CYYG;2007-10-22 15:00;METAR CYYG 221500Z 33004KT 15SM FEW120 FEW300 19/08 A3007 RMK AC2CI0 SLP184=
CYYG;2007-10-22 16:00;METAR CYYG 221600Z 27005KT 15SM FEW120 FEW300 19/09 A3005 RMK AC1CI0 SLP176=
CYYG;2007-10-22 17:00;METAR CYYG 221700Z 18006KT 15SM FEW140 FEW300 19/10 A3005 RMK AC1CI0 SLP175=
CYYG;2007-10-22 18:00;METAR CYYG 221800Z 23007KT 15SM FEW080 FEW300 20/08 A3004 RMK AC1CI0 SLP172=
CYYG;2007-10-22 19:00;METAR CYYG 221900Z 20006KT 15SM FEW080 SCT300 20/09 A3003 RMK AC1CI1 SLP169=
CYYG;2007-10-22 20:00;METAR CYYG 222000Z 17005KT 15SM FEW080 FEW300 18/09 A3002 RMK AC1CI1 SLP167=
CYYG;2007-10-22 21:00;METAR CYYG 222100Z 20006KT 15SM FEW080 FEW300 16/08 A3002 RMK AC1CI0 SLP165=
CYYG;2007-10-22 22:00;METAR CYYG 222200Z 21006KT 15SM FEW080 FEW300 15/08 A3002 RMK AC1CI0 SLP165=
CYYG;2007-10-22 23:00;METAR CYYG 222300Z 16004KT 15SM SKC 14/08 A3002 RMK SLP166=
CYYG;2007-10-23 00:00;METAR CYYG 230000Z 15004KT 15SM SKC 13/08 A3002 RMK SLP168=
CYYG;2007-10-23 01:00;METAR CYYG 230100Z 17005KT 15SM SKC 12/08 A3001 RMK SLP164=
CYYG;2007-10-23 02:00;METAR CYYG 230200Z 20008KT 15SM SCT250 13/08 A2999 RMK CI2 SLP158=
CYYG;2007-10-23 03:00;METAR CYYG 230300Z 21009KT 15SM SCT250 14/07 A2997 RMK CI2 SLP150=
CYYG;2007-10-23 04:00;METAR CYYG 230400Z 23009KT 15SM BKN250 14/07 A2997 RMK CI3 SLP148=
CYYG;2007-10-23 05:00;METAR CYYG 230500Z 23008KT 15SM BKN250 14/07 A2995 RMK CI3 SLP143=
CYYG;2007-10-23 06:00;METAR CYYG 230600Z 22009KT 15SM BKN250 13/07 A2994 RMK CI4 SLP139=
CYYG;2007-10-23 07:00;METAR CYYG 230700Z 20008KT 15SM BKN200 12/07 A2991 RMK CI4 SLP130=
CYYG;2007-10-23 08:00;METAR CYYG 230800Z 22009KT 15SM FEW220 13/07 A2989 RMK CI1 SLP121=
CYYG;2007-10-23 09:00;METAR CYYG 230900Z 22008KT 15SM FEW120 FEW250 12/08 A2988 RMK AC1CI1 SLP119=
CYYG;2007-10-23 10:00;METAR CYYG 231000Z 21009KT 15SM FEW130 BKN250 12/08 A2985 RMK AC2CI2 SLP110=
CYYG;2007-10-23 11:00;METAR CYYG 231100Z 21008KT 15SM FEW130 BKN230 12/08 A2985 RMK AC1CI6 SLP108=
CYYG;2007-10-23 12:00;METAR CYYG 231200Z 22009G15KT 15SM FEW130 OVC240 13/09 A2984 RMK AC2CI6 SLP105=
CYYG;2007-10-23 13:00;METAR CYYG 231300Z 22013KT 15SM FEW130 OVC220 14/09 A2981 RMK AC2CI6 SLP094=
CYYG;2007-10-23 14:00;METAR CYYG 231400Z 23014KT 15SM FEW120 BKN190 OVC250 14/10 A2980 RMK AC2AS4CI2 SLP092=
CYYG;2007-10-23 15:00;METAR CYYG 231500Z 22015G21KT 15SM FEW015 OVC180 14/10 A2977 RMK SF1AS8 SLP082=
CYYG;2007-10-23 16:00;METAR CYYG 231600Z 22011G16KT 12SM FEW015 OVC170 15/11 A2974 RMK SF2AS6 HZ ALF SLP071=
CYYG;2007-10-23 17:00;METAR CYYG 231700Z 22016G24KT 12SM FEW014 BKN160 17/12 A2972 RMK SF1AC6 HZ ALF SLP064=
CYYG;2007-10-23 18:00;METAR CYYG 231800Z 23013G22KT 12SM FEW020 OVC160 17/13 A2970 RMK SC2AC5 HZ ALF SLP058=
CYYG;2007-10-23 19:00;METAR CYYG 231900Z 25013G20KT 10SM FEW025 OVC160 18/13 A2969 RMK SC2AC6 HZ ALF SLP054=
CYYG;2007-10-23 20:00;METAR CYYG 232000Z 23010KT 12SM FEW026 BKN170 17/14 A2966 RMK SC2AC6 SLP046=
CYYG;2007-10-23 21:00;METAR CYYG 232100Z 23016G26KT 12SM BKN032 OVC170 19/14 A2963 RMK SC5AC3 SLP033=
CYYG;2007-10-23 22:00;METAR CYYG 232200Z 23016G26KT 15SM BKN031 OVC130 19/14 A2960 RMK SC6AC2 SLP025=
CYYG;2007-10-23 23:00;METAR CYYG 232300Z 23014G21KT 15SM OVC031 19/13 A2958 RMK SC8 SLP019=
CYYG;2007-10-24 00:00;METAR CYYG 240000Z 23015G28KT 15SM OVC032 20/12 A2956 RMK SC8 SLP011=
CYYG;2007-10-24 01:00;METAR CYYG 240100Z 22017G22KT 15SM OVC034 19/12 A2953 RMK SC8 SLP999=
CYYG;2007-10-24 02:00;METAR CYYG 240200Z 22016G25KT 15SM BKN033 OVC055 19/12 A2951 RMK SC6SC2 SLP992=
CYYG;2007-10-24 02:42;SPECI CYYG 240242Z 23022G29KT 15SM -RA OVC029 20/ RMK SC8=
CYYG;2007-10-24 03:00;METAR CYYG 240300Z 23023G30KT 10SM -RA BKN029 OVC085 19/13 A2950 RMK SC6AC2 SLP990=
CYYG;2007-10-24 04:00;METAR CYYG 240400Z CCA 23025KT 15SM -RA OVC020 19/15 A2948 RMK SC8 WND=
CYYG;2007-10-24 05:00;METAR CYYG 240500Z 23025KT 6SM -RA BR FEW012 OVC025 18/16 A2948 RMK SF2SC6 RERA WND ESTD SLP820=
CYYG;2007-10-24 06:00;METAR CYYG 240600Z 23025KT 10SM FEW010 OVC020 17/16 A2950 RMK SF2SC6 WND=
CYYG;2007-10-24 07:00;METAR CYYG 240700Z 23014KT 8SM -SHRA OVC010 16/15 A2954 RMK SF8 WND=
CYYG;2007-10-24 08:00;METAR CYYG 240800Z 23009KT 8SM -SHRA OVC010 16/15 A2956 RMK SF8 WND=
CYYG;2007-10-24 09:00;METAR CYYG 240900Z 31009G16KT 10SM -SHRA SCT010 OVC030 15/12 A2963 RMK SF4SC4 PRESRR SLP032=
CYYG;2007-10-24 09:50;SPECI CYYG 240950Z 34011KT 15SM FEW005 BKN039 12/ RMK SF2SC6=
CYYG;2007-10-24 10:00;METAR CYYG 241000Z 34012KT 15SM FEW005 BKN039 12/08 A2966 RMK SF2SC6 SLP043=
CYYG;2007-10-24 11:00;METAR CYYG 241100Z 32007KT 15SM FEW012 OVC045 11/07 A2970 RMK SC1SC7 SLP058=
CYYG;2007-10-24 12:00;METAR CYYG 241200Z 33007KT 15SM FEW012 FEW045 OVC070 10/06 A2975 RMK SC2SC1AC6 SLP074=
CYYG;2007-10-24 13:00;METAR CYYG 241300Z 32010KT 15SM -SHRA BKN015 OVC073 10/06 A2978 RMK SC5AC3 SLP085=
CYYG;2007-10-24 13:41;SPECI CYYG 241341Z 33010G15KT 15SM BKN016 BKN075 BKN120 10/ RMK SC5AC1AC2=
CYYG;2007-10-24 14:00;METAR CYYG 241400Z 32009KT 15SM BKN018 BKN120 10/05 A2980 RMK SC7AC1 SLP092=
CYYG;2007-10-24 15:00;METAR CYYG 241500Z 33008KT 15SM BKN021 OVC110 10/06 A2984 RMK SC7AC1 SLP105=
CYYG;2007-10-24 16:00;METAR CYYG 241600Z 35009KT 15SM BKN020 BKN110 10/05 A2985 RMK SC7AC1 SLP107=
CYYG;2007-10-24 17:00;METAR CYYG 241700Z 35009KT 15SM OVC022 10/05 A2987 RMK SC8 SLP117=
CYYG;2007-10-24 18:00;METAR CYYG 241800Z 01007KT 15SM BKN023 BKN110 10/04 A2989 RMK SC6AC1 SLP122=
CYYG;2007-10-24 19:00;METAR CYYG 241900Z 36008KT 15SM OVC025 10/04 A2992 RMK SC8 SLP132=
CYYG;2007-10-24 20:00;METAR CYYG 242000Z 35005KT 15SM SCT030 OVC120 10/04 A2995 RMK SC3AC5 SLP142=
CYYG;2007-10-24 21:00;METAR CYYG 242100Z 35003KT 15SM FEW030 OVC130 09/04 A2997 RMK SC2AC6 SLP149=
CYYG;2007-10-24 22:00;METAR CYYG 242200Z 36003KT 15SM FEW030 OVC120 09/05 A2999 RMK SC1AC7 SLP157=
CYYG;2007-10-24 23:00;METAR CYYG 242300Z 00000KT 15SM FEW020 OVC130 08/05 A3003 RMK SC2AC6 SLP170=
CYYG;2007-10-25 00:00;METAR CYYG 250000Z 03002KT 15SM FEW020 BKN140 08/05 A3005 RMK SC1AC6 SLP176=
CYYG;2007-10-25 01:00;METAR CYYG 250100Z 07002KT 15SM OVC140 08/05 A3007 RMK AC7 SLP185=
CYYG;2007-10-25 02:00;METAR CYYG 250200Z 00000KT 15SM SCT150 BKN180 07/05 A3009 RMK AC3AC4 SLP191=
CYYG;2007-10-25 03:00;METAR CYYG 250300Z 00000KT 15SM OVC170 07/05 A3010 RMK AC8 SLP193=
CYYG;2007-10-25 04:00;METAR CYYG 250400Z 00000KT 15SM OVC170 07/05 A3012 RMK AC8 SLP199=
CYYG;2007-10-25 05:00;METAR CYYG 250500Z 29002KT 15SM BKN170 05/04 A3012 RMK AC7 SLP200=
CYYG;2007-10-25 06:00;METAR CYYG 250600Z 00000KT 15SM BKN150 OVC160 06/05 A3013 RMK AC6AC2 SLP204=
CYYG;2007-10-25 07:00;METAR CYYG 250700Z 00000KT 15SM OVC140 07/05 A3012 RMK AC8 SLP202=
CYYG;2007-10-25 08:00;METAR CYYG 250800Z 27003KT 15SM BKN018 OVC140 07/05 A3015 RMK SC5AC3 SLP211=
CYYG;2007-10-25 09:00;METAR CYYG 250900Z 27003KT 15SM FEW018 BKN150 OVC170 07/05 A3018 RMK SC2AC4AC2 SLP220=
CYYG;2007-10-25 10:00;METAR CYYG 251000Z 32004KT 15SM FEW039 BKN150 07/05 A3019 RMK SC2AC6 SLP223=
CYYG;2007-10-25 11:00;METAR CYYG 251100Z 29004KT 15SM FEW020 OVC150 07/05 A3020 RMK SC1AC7 SLP228=
CYYG;2007-10-25 12:00;METAR CYYG 251200Z 29003KT 15SM FEW020 OVC110 08/05 A3023 RMK SC1AS8 SLP237=
CYYG;2007-10-25 13:00;METAR CYYG 251300Z 28003KT 15SM FEW020 OVC160 08/05 A3023 RMK SC1AC8 SLP238=
CYYG;2007-10-25 14:00;METAR CYYG 251400Z 27005KT 15SM FEW020 OVC160 08/05 A3024 RMK SC1AC8 SLP243=
CYYG;2007-10-25 15:00;METAR CYYG 251500Z 28004KT 15SM FEW020 OVC150 08/04 A3023 RMK SC1AC8 SLP238=
CYYG;2007-10-25 16:00;METAR CYYG 251600Z 31009KT 15SM FEW020 BKN160 09/04 A3024 RMK SC1AC7 SLP242=
CYYG;2007-10-25 17:00;METAR CYYG 251700Z 31006KT 15SM FEW020 BKN160 09/04 A3025 RMK SC1AC7 SLP244=
CYYG;2007-10-25 18:00;METAR CYYG 251800Z 31006KT 15SM FEW020 BKN180 10/04 A3025 RMK SC1AC5 SLP246=
CYYG;2007-10-25 19:00;METAR CYYG 251900Z 30007KT 15SM FEW025 FEW200 11/03 A3027 RMK SC1CC2 SLP251=
CYYG;2007-10-25 20:00;METAR CYYG 252000Z 34010G15KT 15SM FEW025 FEW200 10/04 A3029 RMK SC1CC2 SLP259=
CYYG;2007-10-25 22:00;METAR CYYG 252200Z 32004KT 15SM FEW025 FEW200 07/02 A3035 RMK SC1CC1 SLP278=
CYYG;2007-10-25 23:00;METAR CYYG 252300Z 33004KT 15SM FEW030 06/01 A3037 RMK SC1 SLP285=
CYYG;2007-10-26 00:00;METAR CYYG 260000Z 33005KT 15SM FEW030 06/M00 A3040 RMK SC1 SLP295=
CYYG;2007-10-26 01:00;METAR CYYG 260100Z 32004KT 15SM FEW030 06/M00 A3043 RMK CU1 SLP305=
CYYG;2007-10-26 02:00;METAR CYYG 260200Z 33003KT 15SM FEW040 06/00 A3045 RMK CU2 SLP312=
CYYG;2007-10-26 03:00;METAR CYYG NIL=
CYYG;2007-10-26 04:00;METAR CYYG 260400Z 01002KT 15SM FEW034 06/02 A3047 RMK CU2 SLP318=
CYYG;2007-10-26 05:00;METAR CYYG NIL=
CYYG;2007-10-26 06:00;METAR CYYG 260600Z 27004KT 15SM FEW034 04/01 A3050 RMK SC2 SLP329=
CYYG;2007-10-26 07:00;METAR CYYG 260700Z 30003KT 15SM FEW034 02/M00 A3050 RMK SC1 SLP331=
CYYG;2007-10-26 08:00;METAR CYYG 260800Z 28005KT 15SM FEW034 03/M00 A3051 RMK SC1 SLP334=
CYYG;2007-10-26 09:00;METAR CYYG 260900Z 31004KT 15SM SKC 03/M00 A3052 RMK SLP336=
CYYG;2007-10-26 10:00;METAR CYYG 261000Z 32004KT 15SM FEW035 02/M00 A3052 RMK SC1 SLP337=
CYYG;2007-10-26 12:00;METAR CYYG 261200Z 27005KT 15SM FEW030 05/01 A3054 RMK SC1 SLP344=
CYYG;2007-10-26 13:00;METAR CYYG 261300Z 27004KT 15SM FEW030 07/02 A3056 RMK SC1 SLP351=
CYYG;2007-10-26 14:00;METAR CYYG 261400Z 26007KT 15SM FEW030 09/02 A3055 RMK SC1 SLP348=
CYYG;2007-10-26 15:00;METAR CYYG 261500Z 26008KT 15SM FEW030 10/03 A3055 RMK SC1 SLP345=
CYYG;2007-10-26 16:00;METAR CYYG 261600Z 25007KT 15SM FEW030 10/02 A3053 RMK SC1 SLP340=
CYYG;2007-10-26 17:00;METAR CYYG 261700Z 27008KT 15SM SKC 11/01 A3052 RMK SLP335=
CYYG;2007-10-26 18:00;METAR CYYG 261800Z 25008KT 15SM SKC 11/01 A3050 RMK SLP330=
CYYG;2007-10-26 19:00;METAR CYYG 261900Z 27007KT 15SM SKC 11/01 A3049 RMK SLP325=
CYYG;2007-10-26 22:00;METAR CYYG 262200Z 21006KT 15SM SKC 08/02 A3044 RMK SLP310=
CYYG;2007-10-26 23:00;METAR CYYG 262300Z 21007KT 15SM SKC 08/02 A3044 RMK SLP310=
CYYG;2007-10-27 00:00;METAR CYYG 270000Z 23009KT 15SM SKC 09/05 A3043 RMK SLP307=
CYYG;2007-10-27 02:00;METAR CYYG 270200Z 24006KT 15SM SKC 08/03 A3043 RMK SLP307=
CYYG;2007-10-27 03:00;METAR CYYG 270300Z 25009KT 15SM FEW100 08/04 A3043 RMK AC2 SLP307=
CYYG;2007-10-27 04:00;METAR CYYG 270400Z 23005KT 15SM FEW100 08/03 A3042 RMK AC2 SLP303=
CYYG;2007-10-27 05:00;METAR CYYG 270500Z 22006KT 15SM SKC 07/04 A3041 RMK SLP300=
CYYG;2007-10-27 06:00;METAR CYYG 270600Z 23006KT 15SM SKC 08/04 A3039 RMK SLP294=
CYYG;2007-10-27 07:00;METAR CYYG 270700Z CCA 23005KT 15SM SKC 07/04 A3038 RMK SLP290=
CYYG;2007-10-27 08:00;METAR CYYG 270800Z 23003KT 15SM SKC 07/04 A3039 RMK SLP292=
CYYG;2007-10-27 09:00;METAR CYYG 270900Z 22008KT 15SM FEW100 08/05 A3038 RMK AC2 SLP289=
CYYG;2007-10-27 10:00;METAR CYYG 271000Z 21006KT 15SM FEW100 BKN220 08/05 A3037 RMK AC2CI5 SLP285=
CYYG;2007-10-27 11:00;METAR CYYG 271100Z 21009KT 15SM BKN210 OVC250 08/05 A3036 RMK CI6CI1 SLP283=
CYYG;2007-10-27 12:00;METAR CYYG 271200Z 21009KT 15SM OVC190 09/06 A3034 RMK CI7 SLP277=
CYYG;2007-10-27 13:00;METAR CYYG 271300Z 21010KT 15SM BKN090 OVC190 09/06 A3034 RMK AC6CI1 SLP276=
CYYG;2007-10-27 14:00;METAR CYYG 271400Z 21010KT 15SM SCT090 OVC170 10/06 A3032 RMK AC2AC4 SLP269=
CYYG;2007-10-27 16:00;METAR CYYG 271600Z 20010G16KT 15SM BKN120 OVC170 11/08 A3027 RMK AC5AC2 SLP253=
CYYG;2007-10-27 17:00;METAR CYYG 271700Z 19014KT 15SM FEW090 BKN110 OVC170 12/08 A3025 RMK AC2AC5AC2 SLP244=
CYYG;2007-10-27 18:00;METAR CYYG 271800Z 19014G19KT 15SM SCT080 OVC110 12/08 A3022 RMK AC4AC4 SLP234=
CYYG;2007-10-27 19:00;METAR CYYG 271900Z 18014G19KT 15SM BKN070 OVC110 13/09 A3020 RMK AC5AC3 SLP226=
CYYG;2007-10-27 20:00;METAR CYYG 272000Z 18015KT 15SM -SHRA BKN053 OVC070 13/09 A3016 RMK SC5AC3 SLP214=
CYYG;2007-10-27 21:00;METAR CYYG 272100Z 18013G18KT 15SM -SHRA SCT060 BKN100 OVC170 13/10 A3014 RMK SC4AC2AC2 SLP206=
CYYG;2007-10-27 22:00;METAR CYYG 272200Z 18018KT 15SM -SHRA FEW060 OVC100 13/10 A3010 RMK SC2AC6 SLP195=
CYYG;2007-10-27 23:00;METAR CYYG 272300Z 18015G21KT 15SM SCT060 OVC100 14/10 A3007 RMK SC4AC4 SLP184=
CYYG;2007-10-28 00:00;METAR CYYG 280000Z 18023KT 15SM BKN052 OVC100 14/10 A3003 RMK SC6AC2 SLP169=
CYYG;2007-10-28 01:00;METAR CYYG 280100Z 18017G22KT 15SM SCT020 OVC045 14/10 A3000 RMK SC3SC5 SLP160=
CYYG;2007-10-28 02:00;METAR CYYG 280200Z 18016G25KT 15SM BKN019 OVC040 15/11 A2996 RMK SC6SC2 SLP145=
CYYG;2007-10-28 03:00;METAR CYYG 280300Z 18015KT 15SM OVC016 15/11 A2994 RMK SC8 SLP139=
CYYG;2007-10-28 04:00;METAR CYYG 280400Z 18020G27KT 15SM FEW010 OVC017 15/12 A2990 RMK SC2SC6 SLP125=
CYYG;2007-10-28 04:50;SPECI CYYG 280450Z 18023G28KT 12SM -SHRA OVC008 15/ RMK SF8=
CYYG;2007-10-28 05:00;METAR CYYG 280500Z 18023G28KT 12SM -SHRA OVC006 15/13 A2985 RMK SF8 SLP110=
CYYG;2007-10-28 06:00;METAR CYYG 280600Z 18021G26KT 15SM -SHRA BKN006 OVC015 16/13 A2982 RMK SF5SC3 SLP100=
CYYG;2007-10-28 07:00;METAR CYYG 280700Z 19020G25KT 15SM -SHRA SCT006 OVC016 16/14 A2979 RMK SF4SC4 SLP090=
CYYG;2007-10-28 08:00;METAR CYYG 280800Z 19019G25KT 15SM -SHRA FEW006 BKN016 OVC050 16/14 A2978 RMK SF2SC5SC2 SLP086=
CYYG;2007-10-28 08:36;SPECI CYYG 280836Z 19016G21KT 15SM -SHRA SCT005 BKN009 OVC020 16/ RMK SF3SF4SC1=
CYYG;2007-10-28 09:00;METAR CYYG 280900Z 20017G22KT 15SM -SHRA SCT005 BKN009 OVC020 17/14 A2977 RMK SF3SF4SC1 SLP083=
CYYG;2007-10-28 10:00;METAR CYYG 281000Z 23010G15KT 15SM -SHRA BKN005 OVC011 16/14 A2980 RMK SF6SC2 SLP091=
CYYG;2007-10-28 11:00;METAR CYYG 281100Z 24010KT 15SM FEW005 BKN011 OVC019 16/13 A2980 RMK SF2SC4SC2 SLP092=
CYYG;2007-10-28 11:26;SPECI CYYG 281126Z 23013G18KT 15SM SCT010 BKN250 16/ RMK SC3CI1=
CYYG;2007-10-28 13:00;METAR CYYG 281300Z 24013G20KT 15SM FEW015 SCT060 BKN250 16/12 A2982 RMK SC2SC2CI1 SLP099=
CYYG;2007-10-28 14:00;METAR CYYG 281400Z 23012G22KT 15SM FEW015 FEW030 BKN250 15/11 A2983 RMK SC1SC2CI1 SLP102=
CYYG;2007-10-28 15:00;METAR CYYG 281500Z 23014G20KT 15SM FEW015 SCT250 16/11 A2983 RMK SC2CI1 SLP101=
CYYG;2007-10-28 16:00;METAR CYYG 281600Z 23014G21KT 15SM FEW018 FEW050 SCT250 16/10 A2982 RMK CU1SC1CI1 SLP098=
CYYG;2007-10-28 17:00;METAR CYYG 281700Z 24012G19KT 15SM FEW025 BKN054 BKN250 15/10 A2983 RMK SC2SC4CI1 SLP101=
CYYG;2007-10-28 18:00;METAR CYYG 281800Z 26011G17KT 15SM FEW050 BKN060 BKN250 16/07 A2983 RMK SC1SC5CI1 SLP101=
CYYG;2007-10-28 19:00;METAR CYYG 281900Z 27013KT 15SM FEW035 BKN072 14/04 A2985 RMK SC1AC6 SLP107=
CYYG;2007-10-28 20:00;METAR CYYG 282000Z 29015G20KT 15SM FEW035 FEW070 13/02 A2987 RMK SC1AC2 SLP115=
CYYG;2007-10-28 21:00;METAR CYYG 282100Z 29012G19KT 15SM FEW070 10/01 A2990 RMK AC1 SLP125=
CYYG;2007-10-28 22:00;METAR CYYG 282200Z 28008KT 15SM FEW070 08/M01 A2993 RMK AC1 SLP136=
CYYG;2007-10-28 23:00;METAR CYYG 282300Z 27006KT 15SM FEW050 FEW070 07/M01 A2995 RMK SC1AC1 SLP143=
CYYG;2007-10-29 00:00;METAR CYYG 290000Z 28004KT 15SM SCT053 06/M03 A2996 RMK SC2 SLP147=
CYYG;2007-10-29 01:00;METAR CYYG 290100Z 29010G15KT 15SM FEW054 06/M04 A2997 RMK SC2 SLP150=
CYYG;2007-10-29 02:00;METAR CYYG 290200Z 29011G17KT 15SM FEW052 06/M04 A2999 RMK SC1 SLP156=
CYYG;2007-10-29 03:00;METAR CYYG 290300Z 28009G15KT 15SM FEW050 05/M04 A2999 RMK SC1 SLP157=
CYYG;2007-10-29 04:00;METAR CYYG 290400Z 28012G18KT 15SM SKC 04/M04 A2999 RMK SLP156=
CYYG;2007-10-29 05:00;METAR CYYG 290500Z 28008G15KT 15SM SKC 04/M04 A2999 RMK SLP158=
CYYG;2007-10-29 06:00;METAR CYYG 290600Z 29013G19KT 15SM FEW160 04/M05 A3001 RMK AC2 SLP162=
CYYG;2007-10-29 07:00;METAR CYYG 290700Z 29011G18KT 15SM FEW040 FEW140 03/M04 A3001 RMK SC1AC1 SLP165=
CYYG;2007-10-29 08:00;METAR CYYG 290800Z 29008KT 15SM SCT040 03/M04 A3003 RMK SC2 SLP171=
CYYG;2007-10-29 10:00;METAR CYYG 291000Z 30011KT 15SM BKN038 03/M04 A3006 RMK SC6 SLP179=
CYYG;2007-10-29 11:00;METAR CYYG 291100Z 29012G17KT 15SM BKN038 03/M05 A3007 RMK SC7 SLP184=
CYYG;2007-10-29 12:00;METAR CYYG 291200Z 30014G19KT 15SM BKN032 03/M05 A3010 RMK SC7 SLP195=
CYYG;2007-10-29 13:00;METAR CYYG 291300Z 31014G22KT 15SM BKN032 03/M04 A3012 RMK SC7 SH DIST=
CYYG;2007-10-29 14:00;METAR CYYG 291400Z 31015G20KT 15SM BKN030 03/M04 A3013 RMK SC7 SH DIST E SLP206=
CYYG;2007-10-29 16:00;METAR CYYG 291600Z 30014G19KT 15SM BKN031 04/M04 A3014 RMK SC7 -SHSN=
CYYG;2007-10-29 17:00;METAR CYYG 291700Z 31015G21KT 15SM BKN033 04/M03 A3015 RMK SC7 -SHSN=
CYYG;2007-10-29 18:00;METAR CYYG 291800Z 32012G18KT 15SM FEW030 BKN039 04/M03 A3015 RMK CU1SC6 SH DIST NE-E SLP212=
CYYG;2007-10-29 19:00;METAR CYYG 291900Z 30009G16KT 15SM BKN037 04/M04 A3016 RMK SC7 SH DIST=
CYYG;2007-10-29 20:00;METAR CYYG 292000Z 29010KT 15SM BKN032 04/M04 A3017 RMK SC7 SH DIST E SLP217=
CYYG;2007-10-29 21:00;METAR CYYG 292100Z 29006KT 15SM BKN038 04/M03 A3018 RMK SC7 SLP222=
CYYG;2007-10-29 22:00;METAR CYYG 292200Z 29005KT 15SM BKN040 03/M03 A3019 RMK SC7 SLP225=
CYYG;2007-10-29 23:00;METAR CYYG 292300Z 27005KT 15SM BKN042 03/M04 A3020 RMK SC7 SLP228=
CYYG;2007-10-30 00:00;METAR CYYG 300000Z 29005KT 15SM FEW043 02/M04 A3020 RMK SC2 SLP230=
CYYG;2007-10-30 01:00;METAR CYYG 300100Z 27004KT 15SM SCT048 02/M05 A3020 RMK SC2 SLP229=
CYYG;2007-10-30 02:00;METAR CYYG 300200Z 25004KT 15SM BKN053 02/M04 A3019 RMK SC6 SLP226=
CYYG;2007-10-30 03:00;METAR CYYG 300300Z 26003KT 15SM BKN052 02/M04 A3018 RMK SC6 SLP222=
CYYG;2007-10-30 04:00;METAR CYYG 300400Z 27003KT 15SM BKN049 03/M04 A3017 RMK SC7 SLP218=
CYYG;2007-10-30 05:00;METAR CYYG 300500Z 28004KT 15SM BKN049 03/M04 A3016 RMK SC7 SLP216=
CYYG;2007-10-30 06:00;METAR CYYG 300600Z 29005KT 15SM BKN047 OVC120 02/M04 A3016 RMK SC5AC3 SLP216=
CYYG;2007-10-30 07:00;METAR CYYG 300700Z 29004KT 15SM FEW044 BKN140 01/M04 A3015 RMK SC2AC3 SLP212=
CYYG;2007-10-30 08:00;METAR CYYG 300800Z 27003KT 15SM BKN120 01/M04 A3014 RMK AC6 SLP208=
CYYG;2007-10-30 10:00;METAR CYYG 301000Z 25005KT 15SM BKN130 01/M05 A3013 RMK AS2 SLP206=
CYYG;2007-10-30 11:00;METAR CYYG 301100Z 28004KT 15SM FEW045 FEW130 SCT300 M00/M06 A3015 RMK SC1AC2CI0 SLP212=
CYYG;2007-10-30 12:00;METAR CYYG 301200Z 28003KT 15SM FEW045 SCT068 BKN160 01/M05 A3016 RMK SC1AC2AC2 SLP215=
CYYG;2007-10-30 12:37;SPECI CYYG 301237Z 25007KT 15SM -SHSN BKN041 BKN070 BKN160 02/ RMK SC5AC2AC1=
CYYG;2007-10-30 15:00;METAR CYYG 301500Z 27010KT 15SM -SHSN OVC011 02/M01 A3014 RMK SC8 SLP210=
CYYG;2007-10-30 16:00;METAR CYYG 301600Z 26005KT 15SM OVC012 03/M00 A3013 RMK SC8 OCNL -SHSN SLP204=
CYYG;2007-10-30 17:00;METAR CYYG 301700Z 27009KT 15SM BKN012 04/00 A3012 RMK SC7 SLP200=
CYYG;2007-10-30 18:00;METAR CYYG 301800Z 29010G15KT 15SM BKN018 BKN054 04/M00 A3012 RMK SC6SC1 SLP200=
CYYG;2007-10-30 19:00;METAR CYYG 301900Z 29009KT 15SM BKN020 BKN092 05/M00 A3013 RMK SC5AC2 SLP204=
CYYG;2007-10-30 20:00;METAR CYYG 302000Z 31007KT 15SM SCT023 BKN085 05/M00 A3013 RMK SC3AC4 SLP206=
CYYG;2007-10-30 21:00;METAR CYYG 302100Z 29007KT 15SM FEW024 BKN082 05/M01 A3015 RMK SC2AC4 SLP212=
CYYG;2007-10-30 22:00;METAR CYYG 302200Z 29006KT 15SM FEW024 FEW044 BKN084 04/M01 A3016 RMK SC1SC1AC5 SLP216=
CYYG;2007-10-30 22:42;SPECI CYYG 302242Z 30007KT 15SM -SHRA SCT023 BKN040 BKN080 04/ RMK SC3SC2AC2=
CYYG;2007-10-30 23:00;METAR CYYG 302300Z 29010G19KT 15SM -SHRA BKN040 OVC075 04/00 A3018 RMK SC6AC2 SLP223=
CYYG;2007-10-30 23:35;SPECI CYYG 302335Z 29008KT 15SM BKN040 BKN080 04/ RMK SC6AC2=
CYYG;2007-10-31 00:00;METAR CYYG 310000Z 30009KT 15SM FEW035 BKN050 BKN080 04/M01 A3020 RMK CU2SC4AC1 SLP228=
CYYG;2007-10-31 01:00;METAR CYYG 310100Z 29010KT 15SM FEW035 SCT080 04/M01 A3022 RMK CU1AC2 SLP234=
CYYG;2007-10-31 02:00;METAR CYYG 310200Z 29010G16KT 15SM BKN037 04/M02 A3023 RMK SC6 SLP239=
CYYG;2007-10-31 03:00;METAR CYYG 310300Z 32008G17KT 15SM BKN035 OVC050 05/M02 A3025 RMK SC5SC3 SLP246=
CYYG;2007-10-31 04:00;METAR CYYG 310400Z 35010KT 15SM FEW025 OVC055 05/M03 A3026 RMK SC2SC6 SLP250=
CYYG;2007-10-31 05:00;METAR CYYG 310500Z 33006KT 15SM BKN038 OVC050 05/M04 A3028 RMK SC6SC2 SLP256=
CYYG;2007-10-31 06:00;METAR CYYG 310600Z 33006KT 15SM BKN045 04/M04 A3030 RMK SC7 SLP262=
CYYG;2007-10-31 07:00;METAR CYYG 310700Z 27006KT 15SM BKN055 03/M03 A3032 RMK SC6 SLP268=
CYYG;2007-10-31 08:00;METAR CYYG 310800Z 29007KT 15SM OVC045 04/M02 A3033 RMK SC8 SLP271=
CYYG;2007-10-31 09:00;METAR CYYG 310900Z 29007KT 15SM BKN045 03/M02 A3034 RMK SC6 SLP276=
CYYG;2007-10-31 11:00;METAR CYYG 311100Z 30006KT 15SM FEW045 02/M01 A3038 RMK SC2 SLP289=
CYYG;2007-10-31 12:00;METAR CYYG 311200Z 29008KT 15SM FEW045 03/M01 A3040 RMK SC2 SLP295=
CYYG;2007-10-31 13:00;METAR CYYG 311300Z 29007KT 15SM FEW045 SCT300 05/M01 A3041 RMK SC1CI0 SLP298=
CYYG;2007-10-31 16:00;METAR CYYG NIL=
CYYG;2007-10-31 17:00;METAR CYYG 311700Z 26009KT 15SM FEW035 FEW120 SCT300 07/M04 A3036 RMK SC1AC1CI0 SLP282=
CYYG;2007-10-31 18:00;METAR CYYG 311800Z 26008KT 15SM FEW130 07/M02 A3035 RMK AC1 SLP278=
CYYG;2007-10-31 22:00;METAR CYYG 312200Z 20008KT 15SM FEW260 06/00 A3028 RMK CI1 SLP255=
CYYG;2007-10-31 23:00;METAR CYYG 312300Z 21010KT 15SM FEW260 07/M00 A3027 RMK CI1 SLP251=
CYYG;2007-11-01 00:00;METAR CYYG 010000Z 19012KT 15SM SKC 08/00 A3025 RMK SLP246=
CYYG;2007-11-01 01:00;METAR CYYG 010100Z 20012KT 15SM SKC 08/02 A3024 RMK SLP241=
CYYG;2007-11-01 02:00;METAR CYYG 010200Z 21014G19KT 15SM BKN023 08/03 A3021 RMK SC6 SLP232=
CYYG;2007-11-01 03:00;METAR CYYG 010300Z 20017G24KT 15SM FEW023 SCT250 08/04 A3019 RMK SC2CI1 SLP225=
CYYG;2007-11-01 04:00;METAR CYYG 010400Z 19015KT 15SM BKN250 08/05 A3017 RMK CI2 SLP217=
CYYG;2007-11-01 05:00;METAR CYYG NIL=
CYYG;2007-11-01 06:00;METAR CYYG 010600Z 21019G26KT 15SM FEW033 BKN250 09/05 A3012 RMK SC2CI2 SLP201=
CYYG;2007-11-01 07:00;METAR CYYG 010700Z 20018G28KT 15SM FEW034 SCT250 09/05 A3009 RMK SC2CI0 SLP190=
CYYG;2007-11-01 08:00;METAR CYYG 010800Z 20018KT 15SM FEW036 FEW190 10/05 A3006 RMK SC1AC1 SLP181=
CYYG;2007-11-01 09:00;METAR CYYG 010900Z 20021G26KT 15SM FEW036 FEW190 BKN250 10/05 A3003 RMK SC1AC1CI0 SLP171=
CYYG;2007-11-01 11:00;METAR CYYG 011100Z 20021G27KT 15SM FEW028 BKN220 11/07 A2999 RMK SC1CI4 SLP156=
CYYG;2007-11-01 13:00;METAR CYYG 011300Z 20019G28KT 15SM BKN030 OVC220 13/08 A2997 RMK SC6CI2 SLP149=
CYYG;2007-11-01 15:00;METAR CYYG 011500Z 21021G28KT 15SM FEW030 OVC220 15/10 A2993 RMK SC2CI4 SLP137=
CYYG;2007-11-01 17:00;METAR CYYG 011700Z 20022G29KT 15SM FEW030 BKN250 17/10 A2989 RMK SC2CI5 SLP122=
CYYG;2007-11-01 18:00;METAR CYYG 011800Z 20022G29KT 15SM FEW030 BKN250 17/10 A2985 RMK SC2CI5 SLP109=
CYYG;2007-11-01 19:00;METAR CYYG 011900Z 22020KT 15SM SCT045 OVC250 18/10 A2985 RMK SC3CI3 SLP108=
CYYG;2007-11-01 20:00;METAR CYYG 012000Z 21019KT 15SM BKN045 OVC250 16/10 A2986 RMK SC6CI2 SLP111=
CYYG;2007-11-01 22:00;METAR CYYG 012200Z 22013G19KT 15SM BKN025 OVC060 15/11 A2987 RMK SC6SC2 SLP115=
CYYG;2007-11-01 23:00;METAR CYYG 012300Z 23009G16KT 15SM BKN025 BKN060 OVC250 14/09 A2987 RMK SC6SC2CI0 SLP117=
CYYG;2007-11-02 00:00;METAR CYYG 020000Z 24013G18KT 15SM FEW025 BKN065 OVC250 15/09 A2988 RMK SC2SC6CI1 SLP119=
CYYG;2007-11-02 00:42;SPECI CYYG 020042Z 29017KT 12SM -SHRA BKN016 OVC060 13/ RMK SC7SC1 PRESRR=
CYYG;2007-11-02 01:00;METAR CYYG 020100Z 32012G18KT 10SM -SHRA FEW016 OVC023 10/06 A2993 RMK SC2SC6 WSHFT 0040 PRESRR SLP136=
CYYG;2007-11-02 02:00;METAR CYYG 020200Z 31009G16KT 15SM -SHRA OVC030 09/03 A2995 RMK SC8 SLP143=
CYYG;2007-11-02 02:40;SPECI CYYG 020240Z 29011G16KT 15SM OVC035 09/ RMK SC8=
CYYG;2007-11-02 03:00;METAR CYYG 020300Z 28007KT 15SM OVC038 08/03 A2996 RMK SC8 SLP148=
CYYG;2007-11-02 04:00;METAR CYYG 020400Z 28010G16KT 15SM OVC048 08/03 A2998 RMK SC8 SLP152=
CYYG;2007-11-02 04:38;SPECI CYYG 020438Z 27010G15KT 15SM -SHRA OVC055 08/ RMK SC8=
CYYG;2007-11-02 05:00;METAR CYYG 020500Z 27011KT 12SM -SHRA OVC060 08/03 A2999 RMK SC8 SLP156=
CYYG;2007-11-02 06:00;METAR CYYG 020600Z 25005KT 15SM FEW032 OVC060 07/02 A3000 RMK SC2SC6 SLP159=
CYYG;2007-11-02 08:00;METAR CYYG 020800Z 29009KT 15SM FEW100 05/M01 A3002 RMK AC1 SLP166=
CYYG;2007-11-02 09:00;METAR CYYG 020900Z 30008KT 15SM FEW100 04/M03 A3006 RMK AC1 SLP181=
CYYG;2007-11-02 10:00;METAR CYYG 021000Z 29007KT 15SM FEW100 03/M03 A3010 RMK AC1 SLP193=
CYYG;2007-11-02 11:00;METAR CYYG 021100Z 29007KT 15SM FEW020 FEW100 03/M03 A3013 RMK SC1AC1 SLP205=
CYYG;2007-11-02 13:00;METAR CYYG 021300Z 29013KT 15SM FEW020 FEW090 05/M03 A3021 RMK SC1AC1 SLP231=
CYYG;2007-11-02 14:00;METAR CYYG 021400Z 30012G18KT 15SM FEW020 FEW090 05/M03 A3023 RMK SC1AC1 SLP236=
CYYG;2007-11-02 15:00;METAR CYYG 021500Z 31012KT 15SM FEW030 06/M02 A3026 RMK SC1 SLP248=
CYYG;2007-11-02 16:00;METAR CYYG 021600Z 31011G16KT 15SM FEW035 07/M02 A3026 RMK SC1 SLP250=
CYYG;2007-11-02 17:00;METAR CYYG 021700Z 30010G15KT 15SM FEW035 07/M03 A3028 RMK SC2 SLP254=
CYYG;2007-11-02 18:00;METAR CYYG 021800Z 34010G15KT 15SM FEW035 07/M02 A3030 RMK SC2 SLP262=
CYYG;2007-11-02 19:00;METAR CYYG 021900Z CCA 33008KT 15SM SCT040 06/M02 A3034 RMK SC3 SLP275=
CYYG;2007-11-02 20:00;METAR CYYG 022000Z 34009KT 15SM SCT040 07/M03 A3036 RMK SC4 SLP282=
CYYG;2007-11-02 21:00;METAR CYYG 022100Z 31005KT 15SM BKN044 05/M03 A3040 RMK SC5 SLP297=
CYYG;2007-11-02 22:00;METAR CYYG 022200Z 29004KT 15SM SCT044 04/M03 A3044 RMK SC3 SLP311=
CYYG;2007-11-02 23:00;METAR CYYG 022300Z 28004KT 15SM SCT044 03/M04 A3047 RMK SC3 SLP319=
CYYG;2007-11-03 00:00;METAR CYYG 030000Z 00000KT 15SM SKC 01/M03 A3049 RMK SLP326=
CYYG;2007-11-03 01:00;METAR CYYG 030100Z 00000KT 15SM SKC M00/M04 A3050 RMK SLP330=
CYYG;2007-11-03 02:00;METAR CYYG 030200Z 35004KT 15SM SKC M02/M04 A3050 RMK SLP329=
CYYG;2007-11-03 03:00;METAR CYYG 030300Z 33004KT 15SM FEW100 M02/M04 A3050 RMK AC2 SLP331=
CYYG;2007-11-03 04:00;METAR CYYG 030400Z 00000KT 15SM FEW100 M00/M03 A3050 RMK AC2 SLP332=
CYYG;2007-11-03 05:00;METAR CYYG 030500Z 14002KT 15SM SKC 01/M03 A3051 RMK SLP335=
CYYG;2007-11-03 06:00;METAR CYYG 030600Z 00000KT 15SM SCT100 M01/M03 A3052 RMK AC2 SLP337=
CYYG;2007-11-03 07:00;METAR CYYG 030700Z 11003KT 15SM SCT100 M01/M03 A3051 RMK AC2 SLP335=
CYYG;2007-11-03 08:00;METAR CYYG 030800Z 12004KT 15SM SCT100 01/M02 A3052 RMK AC2 SLP337=
CYYG;2007-11-03 09:00;METAR CYYG 030900Z 00000KT 15SM SCT100 01/M02 A3051 RMK AC2 SLP335=
CYYG;2007-11-03 10:00;METAR CYYG 031000Z 07005KT 15SM SCT120 BKN240 01/M02 A3049 RMK AS2CS1 SLP328=
CYYG;2007-11-03 11:00;METAR CYYG 031100Z 09005KT 15SM BKN031 02/M00 A3051 RMK SC6 SLP334=
CYYG;2007-11-03 12:00;METAR CYYG 031200Z 10003KT 15SM OVC028 03/M00 A3049 RMK SC7 SLP327=
CYYG;2007-11-03 13:00;METAR CYYG 031300Z 09004KT 15SM BKN028 OVC240 04/01 A3047 RMK SC5CI2 SLP319=
CYYG;2007-11-03 14:00;METAR CYYG 031400Z 09007KT 15SM SCT030 OVC240 05/01 A3042 RMK SC2CI5 SLP304=
CYYG;2007-11-03 15:00;METAR CYYG 031500Z 08005KT 15SM OVC023 06/02 A3040 RMK SC8 SLP298=
CYYG;2007-11-03 16:00;METAR CYYG 031600Z 12008KT 15SM OVC019 07/02 A3036 RMK SC8 SLP285=
CYYG;2007-11-03 17:00;METAR CYYG 031700Z 11009KT 15SM OVC024 08/03 A3030 RMK SC8 PRESFR SLP263=
CYYG;2007-11-03 18:00;METAR CYYG 031800Z 13012G17KT 15SM OVC026 08/02 A3027 RMK SC8 SLP251=
CYYG;2007-11-03 19:00;METAR CYYG 031900Z 12011KT 15SM BKN024 OVC029 08/03 A3023 RMK SC6SC2 SLP237=
CYYG;2007-11-03 19:26;SPECI CYYG 031926Z 12014KT 10SM -SHRA BKN023 OVC059 08/ RMK SC6SC2 VSBY 4 S=
CYYG;2007-11-03 20:00;METAR CYYG 032000Z 10011G17KT 5SM -SHRA BR BKN024 OVC053 07/04 A3014 RMK SC6SC2 PRESFR SLP207=
CYYG;2007-11-03 21:00;METAR CYYG 032100Z 09012G17KT 4SM -SHRA BR BKN018 OVC037 07/05 A3010 RMK SC6SC2 SLP194=
CYYG;2007-11-03 22:00;METAR CYYG 032200Z 09014G19KT 5SM -SHRA BR OVC013 07/05 A3004 RMK SC8 SLP176=
CYYG;2007-11-03 23:00;METAR CYYG 032300Z 09015KT 4SM RA BR FEW008 OVC012 07/05 A2996 RMK SF2SC6 PRESFR /R12/ SLP149=
CYYG;2007-11-04 00:00;METAR CYYG 040000Z 09024G29KT 5SM RA BR FEW007 BKN012 OVC030 07/06 A2984 RMK SF2SC6SC1 PRESFR SLP106=
CYYG;2007-11-04 01:00;METAR CYYG 040100Z 09020G33KT 8SM -RA FEW007 OVC014 08/06 A2971 RERA RMK SF2SC6 PRESFR SLP064=
CYYG;2007-11-04 02:00;METAR CYYG 040200Z 10029G36KT 8SM -SHRA FEW008 OVC014 09/07 A2960 RMK SF2SC6 PRESFR SLP024=
CYYG;2007-11-04 03:00;METAR CYYG 040300Z 12026G37KT 6SM -SHRA BR OVC010 10/08 A2947 RMK SC8 PRESFR SLP979=
CYYG;2007-11-04 04:00;METAR CYYG 040400Z 12024G35KT 5SM -SHRA BR OVC010 11/10 A2935 RMK SC8 PRESFR SLP941=
CYYG;2007-11-04 05:00;METAR CYYG 040500Z 12017G27KT 4SM -RA BR OVC009 13/12 A2924 RMK NS8 PRESFR SLP902=
CYYG;2007-11-04 06:00;METAR CYYG 040600Z 14022G31KT 4SM -RA BR FEW007 OVC014 16/14 A2912 RMK SF2SC6 PRESFR SLP862=
CYYG;2007-11-04 07:00;METAR CYYG 040700Z 14028G37KT 6SM -RA BR FEW008 OVC019 17/15 A2898 RMK SF2SC6 PRESFR SLP814=
CYYG;2007-11-04 08:00;METAR CYYG 040800Z 15030G37KT 8SM -SHRA FEW009 OVC023 18/17 A2887 RMK SF2SC6 PRESFR SLP776=
CYYG;2007-11-04 09:00;METAR CYYG 040900Z 17031G43KT 8SM -SHRA FEW010 OVC022 16/15 A2879 RMK SF1SC7 SLP750=
CYYG;2007-11-04 10:00;METAR CYYG 041000Z 17031G48KT 8SM -SHRA FEW010 OVC023 13/12 A2873 RMK SF1SC7 PRESFR SLP728=
CYYG;2007-11-04 11:00;METAR CYYG 041100Z 18036G43KT 8SM -SHRA BKN011 OVC017 12/09 A2870 RMK SF6SC2 SLP720=
CYYG;2007-11-04 12:00;METAR CYYG 041200Z 20042G52KT 5SM -RA BR OVC012 12/09 A2880 RMK SF8 PRESRR SLP754=
CYYG;2007-11-04 13:00;METAR CYYG 041300Z 25034G46KT 10SM -RA FEW010 BKN018 BKN032 07/04 A2897 RMK SF2SC2SC2 PRESRR SLP812=
CYYG;2007-11-04 13:06;SPECI CYYG 041306Z 25029G42KT 15SM BKN018 BKN300 07/ RMK SC6CI1=
CYYG;2007-11-04 14:00;METAR CYYG 041400Z 25026G35KT 15SM BKN019 07/03 A2910 RMK SC7 PRESRR SLP856=
CYYG;2007-11-04 15:00;METAR CYYG 041500Z 25028G37KT 15SM BKN022 06/01 A2924 RMK SC7 PRESRR SLP902=
CYYG;2007-11-04 16:00;METAR CYYG 041600Z 25024G35KT 15SM BKN023 06/01 A2932 RMK SC7 PRESRR SLP929=
CYYG;2007-11-04 17:00;METAR CYYG 041700Z 25020G30KT 15SM BKN025 07/01 A2941 RMK SC7 SLP960=
CYYG;2007-11-04 18:00;METAR CYYG 041800Z 25022G28KT 15SM BKN028 08/01 A2947 RMK CU6 PRESRR SLP982=
CYYG;2007-11-04 19:00;METAR CYYG 041900Z 26016G24KT 15SM BKN030 08/01 A2953 RMK SC6 PRESRR SLP002=
CYYG;2007-11-04 20:00;METAR CYYG 042000Z 26010G24KT 15SM SCT030 07/01 A2959 RMK SC4 SLP021=
CYYG;2007-11-04 21:00;METAR CYYG 042100Z 27012G18KT 15SM FEW032 07/01 A2964 RMK SC2 SLP037=
CYYG;2007-11-04 22:00;METAR CYYG 042200Z 25011G16KT 15SM FEW034 07/00 A2969 RMK SC2 SLP055=
CYYG;2007-11-04 23:00;METAR CYYG 042300Z 26010G16KT 15SM FEW035 07/01 A2973 RMK SC2 SLP068=
CYYG;2007-11-05 00:00;METAR CYYG 050000Z 26010KT 15SM SCT034 07/01 A2977 RMK SC4 SLP080=
CYYG;2007-11-05 01:00;METAR CYYG 050100Z 29008KT 15SM SCT032 06/01 A2981 RMK SC4 SLP094=
CYYG;2007-11-05 02:00;METAR CYYG 050200Z 30004KT 15SM FEW033 04/M01 A2982 RMK SC2 SLP100=
CYYG;2007-11-05 03:00;METAR CYYG 050300Z 28004KT 15SM FEW035 04/M02 A2984 RMK SC2 SLP105=
CYYG;2007-11-05 04:00;METAR CYYG 050400Z 27004KT 15SM FEW035 03/M03 A2986 RMK SC2 SLP114=
CYYG;2007-11-05 05:00;METAR CYYG 050500Z 29005KT 15SM SKC 01/M03 A2987 RMK SLP115=
CYYG;2007-11-05 06:00;METAR CYYG 050600Z 33002KT 15SM SKC 02/M02 A2988 RMK SLP119=
CYYG;2007-11-05 07:00;METAR CYYG 050700Z 27002KT 15SM SKC 00/M03 A2989 RMK SLP122=
CYYG;2007-11-05 08:00;METAR CYYG 050800Z 00000KT 15SM SKC 00/M03 A2990 RMK SLP127=
CYYG;2007-11-05 09:00;METAR CYYG 050900Z 29002KT 15SM SKC M03/M05 A2991 RMK SLP132=
CYYG;2007-11-05 10:00;METAR CYYG 051000Z 18002KT 15SM SKC M01/M04 A2992 RMK SLP134=
CYYG;2007-11-05 11:00;METAR CYYG 051100Z 32003KT 15SM FEW080 M03/M05 A2995 RMK AC1 SLP143=
CYYG;2007-11-05 12:00;METAR CYYG 051200Z 34003KT 15SM FEW030 FEW080 FEW250 M02/M03 A2997 RMK SC1AC1CI0 SLP150=
CYYG;2007-11-05 13:00;METAR CYYG 051300Z 01002KT 15SM FEW030 FEW080 SCT250 04/01 A2997 RMK SC1AC1CI2 SLP152=
CYYG;2007-11-05 14:00;METAR CYYG 051400Z 07003KT 15SM FEW030 FEW080 SCT250 06/02 A2998 RMK CU1AC2CI0 SLP155=
CYYG;2007-11-05 15:00;METAR CYYG 051500Z 00000KT 15SM FEW030 BKN050 06/00 A2998 RMK CU1SC7 SLP153=
CYYG;2007-11-05 16:00;METAR CYYG 051600Z 00000KT 15SM FEW030 BKN050 07/01 A2997 RMK CU1SC7 SLP151=
CYYG;2007-11-05 17:00;METAR CYYG 051700Z 32004KT 15SM FEW044 BKN053 08/01 A2997 RMK CU2SC6 SLP149=
CYYG;2007-11-05 18:00;METAR CYYG 051800Z 03006KT 15SM FEW030 BKN058 08/02 A2997 RMK CU1SC6 SLP149=
CYYG;2007-11-05 19:00;METAR CYYG 051900Z 36007KT 15SM FEW030 BKN061 BKN250 07/01 A2998 RMK CU1SC6CI0 SLP154=
CYYG;2007-11-05 20:00;METAR CYYG 052000Z 01005KT 15SM FEW030 BKN063 BKN250 07/01 A2999 RMK CU1SC6CI0 SLP157=
CYYG;2007-11-05 21:00;METAR CYYG 052100Z 03004KT 15SM FEW025 FEW063 FEW250 04/00 A3000 RMK SC1SC2CI1 SLP161=
CYYG;2007-11-05 22:00;METAR CYYG 052200Z 32004KT 15SM FEW025 FEW060 03/00 A3001 RMK SC1SC1 SLP165=
CYYG;2007-11-05 23:00;METAR CYYG 052300Z 32004KT 15SM FEW022 FEW060 03/00 A3003 RMK SC1SC1 SLP172=
CYYG;2007-11-06 00:00;METAR CYYG 060000Z 32004KT 15SM FEW020 FEW060 02/M00 A3004 RMK SC1SC1 SLP174=
CYYG;2007-11-06 01:00;METAR CYYG 060100Z 33004KT 15SM FEW020 SCT060 01/M01 A3005 RMK SC1SC3 SLP178=
CYYG;2007-11-06 02:00;METAR CYYG 060200Z 32005KT 15SM FEW020 SCT060 02/M01 A3006 RMK SC1SC3 SLP181=
CYYG;2007-11-06 03:00;METAR CYYG 060300Z 34002KT 15SM FEW060 SCT120 01/M01 A3006 RMK SC2AC2 SLP180=
CYYG;2007-11-06 04:00;METAR CYYG 060400Z 32004KT 15SM SCT120 01/M00 A3006 RMK AC4 SLP182=
CYYG;2007-11-06 05:00;METAR CYYG 060500Z 32004KT 15SM FEW120 02/M00 A3007 RMK AC2 SLP184=
CYYG;2007-11-06 06:00;METAR CYYG 060600Z 33004KT 15SM FEW120 00/M01 A3008 RMK AC2 SLP187=
CYYG;2007-11-06 07:00;METAR CYYG 060700Z 31004KT 15SM FEW120 01/M01 A3009 RMK AC2 SLP192=
CYYG;2007-11-06 08:00;METAR CYYG 060800Z 31004KT 15SM FEW100 02/M00 A3012 RMK AC2 SLP200=
CYYG;2007-11-06 09:00;METAR CYYG 060900Z 30003KT 15SM FEW100 01/M01 A3013 RMK AC2 SLP206=
CYYG;2007-11-06 10:00;METAR CYYG 061000Z 31003KT 15SM FEW100 00/M01 A3013 RMK AC2 SLP206=
CYYG;2007-11-06 11:00;METAR CYYG 061100Z 30003KT 15SM FEW060 FEW260 M01/M02 A3015 RMK SC2CI1 SLP211=
CYYG;2007-11-06 12:00;METAR CYYG 061200Z 15002KT 15SM FEW020 FEW060 SCT260 00/M01 A3016 RMK SC2SC1CI1 SLP214=
CYYG;2007-11-06 13:00;METAR CYYG 061300Z 00000KT 15SM FEW020 FEW060 BKN260 05/03 A3015 RMK SC1SC1CS2 SLP213=
CYYG;2007-11-06 14:00;METAR CYYG 061400Z 14003KT 15SM FEW020 FEW060 BKN220 06/02 A3016 RMK SC1SC1CS3 SLP214=
CYYG;2007-11-06 15:00;METAR CYYG 061500Z 14004KT 15SM FEW018 BKN220 06/02 A3017 RMK CU2CS4=
CYYG;2007-11-06 16:00;METAR CYYG 061600Z 14006KT 15SM FEW018 BKN220 07/01 A3014 RMK CU2CS3 SLP207=
CYYG;2007-11-06 17:00;METAR CYYG 061700Z 18008KT 15SM FEW025 BKN200 08/00 A3013 RMK CU2CS4 SLP204=
CYYG;2007-11-06 18:00;METAR CYYG 061800Z 16009KT 15SM FEW025 BKN170 07/M01 A3011 RMK SC1AS6 SLP197=
CYYG;2007-11-06 19:00;METAR CYYG 061900Z 14007KT 15SM FEW025 BKN130 07/00 A3009 RMK SC1AS6 SLP190=
CYYG;2007-11-06 20:00;METAR CYYG 062000Z 13005KT 15SM FEW025 OVC130 07/M01 A3009 RMK SC1AS6 SLP191=
CYYG;2007-11-06 21:00;METAR CYYG 062100Z 12007KT 15SM OVC110 06/00 A3007 RMK AS7 SLP186=
CYYG;2007-11-06 22:00;METAR CYYG 062200Z 14009KT 15SM OVC120 07/01 A3006 RMK AS7 SLP183=
CYYG;2007-11-06 23:00;METAR CYYG 062300Z 13006KT 15SM SCT026 OVC140 06/02 A3005 RMK SC4AS4 SLP177=
CYYG;2007-11-07 00:00;METAR CYYG 070000Z 14013KT 15SM SCT023 SCT090 OVC200 08/04 A3000 RMK SC3AC1CI4 SLP162=
CYYG;2007-11-07 01:00;METAR CYYG 070100Z 14015G21KT 15SM OVC020 08/05 A2998 RMK SC8 SLP154=
CYYG;2007-11-07 02:00;METAR CYYG 070200Z 16017G22KT 15SM OVC020 09/05 A2997 RMK SC8 SLP152=
CYYG;2007-11-07 03:00;METAR CYYG 070300Z 16018G25KT 15SM SCT020 OVC120 09/05 A2993 RMK SC4AC4 SLP137=
CYYG;2007-11-07 04:00;METAR CYYG 070400Z 15020G29KT 15SM FEW020 OVC100 09/05 A2989 RMK SC2AC6 SLP122=
CYYG;2007-11-07 05:00;METAR CYYG 070500Z 16025G31KT 15SM BKN031 OVC079 09/05 A2985 RMK SC6AC2 SLP110=
CYYG;2007-11-07 05:45;SPECI CYYG 070545Z 16022G29KT 15SM -SHRA OVC017 10/ RMK SC8=
CYYG;2007-11-07 06:00;METAR CYYG 070600Z 15022G33KT 15SM -SHRA OVC017 09/06 A2982 RMK SC8 SLP100=
CYYG;2007-11-07 07:00;METAR CYYG 070700Z 16020G27KT 15SM -SHRA OVC021 10/07 A2978 RMK SC8 SLP087=
CYYG;2007-11-07 07:32;SPECI CYYG 070732Z 15023G29KT 15SM OVC020 10/ RMK SC8=
CYYG;2007-11-07 07:47;SPECI CYYG 070747Z 15019G27KT 15SM -SHRA OVC018 10/ RMK SC8=
CYYG;2007-11-07 08:00;METAR CYYG 070800Z 15021G31KT 10SM -SHRA OVC017 10/07 A2976 RMK SC8 SLP078=
CYYG;2007-11-07 09:00;METAR CYYG 070900Z 16020G28KT 10SM -SHRA OVC020 11/08 A2972 RMK SC8 SLP066=
CYYG;2007-11-07 10:00;METAR CYYG 071000Z 16022G29KT 6SM -SHRA BR OVC011 11/09 A2971 RMK SF8 SLP062=
CYYG;2007-11-07 10:39;SPECI CYYG 071039Z 20016G26KT 4SM SHRA BR BKN006 OVC009 11/ RMK SF6SF2=
CYYG;2007-11-07 11:00;METAR CYYG 071100Z 25007KT 2 1/2SM -SHRA BR BKN008 OVC016 10/08 A2975 RMK SF6SC2 /R13/ SLP076=
CYYG;2007-11-07 11:26;SPECI CYYG 071126Z 23006KT 6SM -SHRA BR BKN007 OVC021 09/ RMK SF5SC3=
CYYG;2007-11-07 11:46;SPECI CYYG 071146Z 25007KT 8SM -SHRA SCT010 OVC029 09/ RMK SF3SC5=
CYYG;2007-11-07 12:00;METAR CYYG 071200Z 23010KT 6SM -SHRA SCT010 OVC040 10/08 A2980 RMK SF3SC5 SLP093=
CYYG;2007-11-07 13:00;METAR CYYG 071300Z 25010KT 8SM -SHRA BKN010 OVC038 10/08 A2980 RMK SF5SC3 SLP094=
CYYG;2007-11-07 13:29;SPECI CYYG 071329Z 25007KT 12SM SCT010 OVC052 10/ RMK SF3SC5=
CYYG;2007-11-07 14:00;METAR CYYG 071400Z 24007KT 12SM SCT011 OVC052 10/08 A2982 RMK SF3SC5 SLP100=
CYYG;2007-11-07 15:00;METAR CYYG 071500Z 28007KT 15SM FEW011 SCT050 BKN120 09/06 A2985 RMK SF2SC2AC2 SLP110=
CYYG;2007-11-07 16:00;METAR CYYG 071600Z 28004KT 15SM FEW010 BKN120 BKN240 10/05 A2985 RMK SC1AC2CI1 SLP109=
CYYG;2007-11-07 17:00;METAR CYYG 071700Z 26006KT 15SM FEW010 SCT120 BKN240 10/04 A2987 RMK SC1AC2CI0 SLP117=
CYYG;2007-11-07 18:00;METAR CYYG 071800Z 27006KT 15SM FEW010 FEW120 FEW240 10/01 A2987 RMK SC1AC1CI1 TR SC TR AC SLP118=
CYYG;2007-11-07 19:00;METAR CYYG 071900Z 28005KT 15SM FEW010 FEW240 10/M01 A2989 RMK SC1CI1 TR SC/AC SLP124=
CYYG;2007-11-07 20:00;METAR CYYG 072000Z 24003KT 15SM SKC 09/01 A2990 RMK SLP128=
CYYG;2007-11-07 21:00;METAR CYYG 072100Z 17003KT 15SM FEW240 07/01 A2992 RMK CI1 TR CI SLP134=
CYYG;2007-11-07 22:00;METAR CYYG 072200Z 18002KT 15SM SKC 04/M00 A2994 RMK SLP139=
CYYG;2007-11-07 23:00;METAR CYYG 072300Z 25003KT 15SM SKC 04/M00 A2995 RMK SLP142=
CYYG;2007-11-08 00:00;METAR CYYG 080000Z 25002KT 15SM SKC 04/00 A2996 RMK SLP147=
CYYG;2007-11-08 01:00;METAR CYYG 080100Z 14002KT 15SM SKC 03/00 A2997 RMK SLP151=
CYYG;2007-11-08 02:00;METAR CYYG 080200Z 00000KT 15SM SKC 01/M01 A2997 RMK SLP151=
CYYG;2007-11-08 03:00;METAR CYYG 080300Z 00000KT 15SM SKC 01/M01 A2998 RMK SLP153=
CYYG;2007-11-08 04:00;METAR CYYG 080400Z 22003KT 15SM SKC 04/01 A2998 RMK SLP153=
CYYG;2007-11-08 05:00;METAR CYYG 080500Z 18003KT 15SM SKC 04/01 A2998 RMK SLP153=
CYYG;2007-11-08 06:00;METAR CYYG 080600Z 18002KT 15SM FEW030 SCT050 BKN210 03/01 A2999 RMK SC1SC2CI1 SLP156=
CYYG;2007-11-08 07:00;METAR CYYG 080700Z 28002KT 15SM SCT050 OVC200 01/00 A2998 RMK SC4CI4 SLP155=
CYYG;2007-11-08 08:00;METAR CYYG 080800Z 34002KT 15SM SCT050 OVC200 01/M00 A2998 RMK SC4CI4 SLP153=
CYYG;2007-11-08 09:00;METAR CYYG 080900Z 31003KT 15SM FEW040 BKN240 03/01 A2999 RMK SC2CI4 SLP157=
CYYG;2007-11-08 10:00;METAR CYYG 081000Z 30003KT 15SM FEW050 BKN210 03/01 A2999 RMK SC2CI4 SLP158=
CYYG;2007-11-08 11:00;METAR CYYG 081100Z 32003KT 15SM FEW055 BKN160 OVC200 03/01 A3001 RMK SC2AC5CI2 SLP162=
CYYG;2007-11-08 12:00;METAR CYYG 081200Z 31003KT 15SM FEW050 BKN170 BKN200 04/02 A3002 RMK SC1AC5CI1 SLP168=
CYYG;2007-11-08 13:00;METAR CYYG 081300Z 34003KT 15SM SCT047 BKN190 05/03 A3002 RMK SC2CI4 SLP167=
CYYG;2007-11-08 14:00;METAR CYYG 081400Z 32005KT 15SM SCT014 BKN180 06/04 A3003 RMK SC4CI3 SLP170=
CYYG;2007-11-08 15:00;METAR CYYG 081500Z 33007KT 15SM FEW015 SCT200 08/05 A3002 RMK SC2CI2 SLP168=
CYYG;2007-11-08 16:00;METAR CYYG 081600Z 34009G15KT 15SM BKN017 BKN066 07/03 A3001 RMK SC5SC2 SLP166=
CYYG;2007-11-08 17:00;METAR CYYG 081700Z 32007KT 15SM BKN019 BKN062 07/03 A3002 RMK SC5SC2 SLP168=
CYYG;2007-11-08 18:00;METAR CYYG 081800Z 33008KT 15SM FEW020 BKN038 07/01 A3003 RMK SC2SC4 SLP171=
CYYG;2007-11-08 19:00;METAR CYYG 081900Z 34009KT 15SM SCT024 BKN064 07/01 A3004 RMK SC3SC2 SLP174=
CYYG;2007-11-08 20:00;METAR CYYG 082000Z 34008KT 15SM SCT028 06/M00 A3006 RMK SC2 SLP180=
CYYG;2007-11-08 21:00;METAR CYYG 082100Z 34006KT 15SM FEW030 04/M00 A3006 RMK SC2 SLP182=
CYYG;2007-11-08 22:00;METAR CYYG 082200Z 34004KT 15SM FEW030 03/M01 A3007 RMK SC2 SLP185=
CYYG;2007-11-08 23:00;METAR CYYG 082300Z 27004KT 15SM SCT030 02/M01 A3009 RMK SC3 SLP193=
CYYG;2007-11-09 00:00;METAR CYYG 090000Z 28005KT 15SM -SHRA BKN023 02/M01 A3011 RMK SC5 SLP198=
CYYG;2007-11-09 01:00;METAR CYYG 090100Z 31005KT 8SM -SHRA OVC020 03/01 A3012 RMK SC8 SLP201=
CYYG;2007-11-09 02:00;METAR CYYG 090200Z 31006KT 15SM BKN023 BKN047 03/01 A3013 RMK SC5SC2 SLP204=
CYYG;2007-11-09 03:00;METAR CYYG 090300Z 34004KT 15SM FEW023 BKN050 03/00 A3013 RMK SC2SC3 SLP205=
CYYG;2007-11-09 04:00;METAR CYYG 090400Z 34005KT 15SM FEW030 BKN045 03/M00 A3014 RMK SC2SC6 SLP208=
CYYG;2007-11-09 05:00;METAR CYYG 090500Z 34007KT 15SM OVC040 04/M01 A3014 RMK SC8 SLP208=
CYYG;2007-11-09 06:00;METAR CYYG 090600Z 32005KT 15SM FEW040 02/M02 A3014 RMK SC2 SLP208=
CYYG;2007-11-09 07:00;METAR CYYG 090700Z 31006KT 15SM FEW045 01/M02 A3014 RMK SC2 SLP210=
CYYG;2007-11-09 08:00;METAR CYYG 090800Z 31008KT 15SM FEW045 01/M03 A3015 RMK SC2 SLP212=
CYYG;2007-11-09 09:00;METAR CYYG 090900Z 30008KT 15SM BKN043 01/M03 A3016 RMK SC6 SLP216=
CYYG;2007-11-09 10:00;METAR CYYG 091000Z 30007KT 15SM OVC043 02/M02 A3016 RMK SC8 SLP216=
CYYG;2007-11-09 11:00;METAR CYYG 091100Z 31006KT 15SM BKN046 OVC250 02/M02 A3017 RMK SC6CI1 SLP220=
CYYG;2007-11-09 12:00;METAR CYYG 091200Z 30005KT 15SM BKN047 02/M01 A3018 RMK SC6 SLP223=
CYYG;2007-11-09 13:00;METAR CYYG 091300Z 32006KT 15SM BKN046 03/M01 A3019 RMK SC6 SLP225=
CYYG;2007-11-09 14:00;METAR CYYG 091400Z 32006KT 15SM FEW037 BKN046 04/00 A3019 RMK SC2SC6 SLP224=
CYYG;2007-11-09 15:00;METAR CYYG 091500Z 31007KT 15SM BKN041 05/01 A3017 RMK SC7 SLP220=
CYYG;2007-11-09 16:00;METAR CYYG 091600Z 34007KT 15SM SCT024 BKN049 05/01 A3015 RMK SC4SC3 SLP213=
CYYG;2007-11-09 17:37;SPECI CYYG 091737Z 35007KT 15SM -SHRA BKN020 OVC039 05/ RMK SC5SC3=
CYYG;2007-11-09 18:00;METAR CYYG 091800Z 33006KT 15SM -SHRA BKN020 OVC039 05/M00 A3014 RMK SC5SC3 SLP209=
CYYG;2007-11-09 19:00;METAR CYYG 091900Z 36004KT 15SM -SHRA BKN030 OVC056 05/00 A3014 RMK SC5SC3 SLP209=
CYYG;2007-11-09 20:00;METAR CYYG 092000Z 30004KT 15SM -SHRA BKN020 OVC038 04/01 A3015 RMK SC6SC2 SLP213=
CYYG;2007-11-09 21:00;METAR CYYG 092100Z 30002KT 15SM -SHRA BKN020 OVC028 03/01 A3015 RMK SC6SC2 SLP212=
CYYG;2007-11-09 22:00;METAR CYYG 092200Z 29003KT 15SM -SHRA BKN023 OVC031 03/01 A3016 RMK SC6SC2 SLP215=
CYYG;2007-11-09 23:00;METAR CYYG 092300Z 00000KT 15SM -SHRA FEW023 OVC056 03/01 A3016 RMK SC2SC6 SLP215=
CYYG;2007-11-10 00:00;METAR CYYG 100000Z 33004KT 15SM FEW023 OVC046 03/01 A3016 RMK SC2SC6 SLP216=
CYYG;2007-11-10 01:00;METAR CYYG 100100Z 03006KT 15SM OVC046 04/01 A3017 RMK SC8 SLP217=
CYYG;2007-11-10 02:00;METAR CYYG 100200Z 04005KT 15SM BKN050 03/00 A3016 RMK SC7 SLP216=
CYYG;2007-11-10 03:00;METAR CYYG 100300Z 05003KT 15SM BKN051 02/M01 A3016 RMK SC7 SLP214=
CYYG;2007-11-10 04:00;METAR CYYG 100400Z 01006KT 15SM FEW019 SCT049 SCT140 02/M02 A3017 RMK SC1SC2AC1 SLP217=
CYYG;2007-11-10 05:00;METAR CYYG 100500Z 35003KT 15SM FEW019 SCT049 SCT130 01/M01 A3015 RMK SC2SC2AC1 SLP213=
CYYG;2007-11-10 06:00;METAR CYYG 100600Z 32003KT 15SM FEW018 BKN045 02/M00 A3016 RMK SC2SC4 SLP216=
CYYG;2007-11-10 07:00;METAR CYYG 100700Z 33003KT 15SM FEW022 SCT045 02/M00 A3016 RMK SC2SC2 SLP216=
CYYG;2007-11-10 08:00;METAR CYYG 100800Z 01002KT 15SM FEW022 SCT044 01/M01 A3016 RMK SC2SC2 SLP215=
CYYG;2007-11-10 08:52;SPECI CYYG 100852Z 35003KT 15SM -SHRA OVC038 01/ RMK SC8=
CYYG;2007-11-10 09:00;METAR CYYG 100900Z 35003KT 15SM -SHRA OVC038 01/M00 A3015 RMK SC8 SLP212=
CYYG;2007-11-10 10:00;METAR CYYG 101000Z 05002KT 15SM FEW018 FEW050 02/00 A3013 RMK SC1SC2 SLP206=
CYYG;2007-11-10 11:00;METAR CYYG 101100Z 33002KT 15SM FEW020 BKN052 02/00 A3015 RMK SC2SC6 SLP211=
CYYG;2007-11-10 11:39;SPECI CYYG 101139Z 36003KT 10SM -SHRA BKN016 BKN052 02/ RMK SC6SC1=
CYYG;2007-11-10 12:00;METAR CYYG 101200Z 04006KT 15SM -SHRA BKN011 OVC045 02/01 A3015 RMK SC6SC2 SLP213=
CYYG;2007-11-10 12:26;SPECI CYYG 101226Z 04007KT 10SM -SHRA BKN009 OVC030 02/ RMK SC7SC1=
CYYG;2007-11-10 13:00;METAR CYYG 101300Z 04011G16KT 10SM -SHRA SCT009 OVC030 03/01 A3019 RMK SC4SC4 SLP224=
CYYG;2007-11-10 13:08;SPECI CYYG 101308Z 06007KT 8SM -SHSN SCT009 OVC022 02/ RMK SC4SC4=
CYYG;2007-11-10 13:25;SPECI CYYG 101325Z 07006KT 10SM -SHRA SCT009 OVC021 02/ RMK SC3SC5=
CYYG;2007-11-10 14:00;METAR CYYG 101400Z 05004KT 15SM -SHRA FEW009 OVC021 03/01 A3019 RMK SC2SC6 SLP224=
CYYG;2007-11-10 15:00;METAR CYYG 101500Z 04012G19KT 15SM FEW010 OVC024 04/M00 A3016 RMK SF2SC6 SLP215=
CYYG;2007-11-10 16:00;METAR CYYG 101600Z 04012G17KT 15SM FEW010 BKN028 04/M02 A3015 RMK SF1SC6 SLP211=
CYYG;2007-11-10 17:00;METAR CYYG 101700Z 04012KT 15SM FEW010 BKN030 04/M02 A3014 RMK SF1SC6 SLP208=
CYYG;2007-11-10 18:00;METAR CYYG 101800Z 03012G19KT 15SM FEW010 BKN032 OVC250 04/M02 A3011 RMK SF1SC6CI1 SLP197=
CYYG;2007-11-10 19:00;METAR CYYG 101900Z 03012G18KT 15SM FEW010 BKN035 OVC250 04/M02 A3008 RMK SF1SC6CI1 SLP188=
CYYG;2007-11-10 20:00;METAR CYYG 102000Z 05012G18KT 15SM OVC034 04/M02 A3006 RMK SC8 SLP182=
CYYG;2007-11-10 20:53;SPECI CYYG 102053Z 05017G22KT 15SM -SHRA OVC038 03/ RMK SC8=
CYYG;2007-11-10 21:00;METAR CYYG 102100Z 05015G22KT 15SM -SHRA OVC030 03/M01 A3003 RMK SC8 SLP171=
CYYG;2007-11-10 21:54;SPECI CYYG 102154Z 04023G29KT 15SM OVC030 03/ RMK SC8=
CYYG;2007-11-10 22:00;METAR CYYG 102200Z 04024G29KT 15SM OVC030 03/M02 A2999 RMK SC8 SLP157=
CYYG;2007-11-10 23:09;SPECI CYYG 102309Z 04021G28KT 8SM -SHRASN SCT011 OVC024 02/ RMK SF4SC4=
CYYG;2007-11-10 23:35;SPECI CYYG 102335Z 04020G28KT 3SM -SN OVC012 01/ RMK SC8=
CYYG;2007-11-11 00:00;METAR CYYG 110000Z 04019G27KT 3SM -SN OVC008 01/M00 A2996 RMK SF8 SLP148=
CYYG;2007-11-11 00:15;SPECI CYYG 110015Z 04021G26KT 1 1/2SM -SN BKN006 OVC010 01/ RMK SN2SF3SF2=
CYYG;2007-11-11 01:00;METAR CYYG 110100Z 04019G26KT 1 1/2SM -SN OVC005 01/M00 A2992 RMK SN4SF4 /S01/ SLP135=
CYYG;2007-11-11 02:00;METAR CYYG 110200Z 04017G22KT 1 1/2SM -SN OVC005 00/M00 A2990 RMK SN4SF4 /S02/ SLP129=
CYYG;2007-11-11 02:35;SPECI CYYG 110235Z 04018KT 3SM -SN BKN004 OVC010 00/ RMK SF6SF2=
CYYG;2007-11-11 03:00;METAR CYYG 110300Z 04016G21KT 2SM -SN BKN004 OVC010 00/M01 A2988 RMK SF5SF3 /S03/ SLP122=
CYYG;2007-11-11 04:00;METAR CYYG 110400Z 04015G24KT 1 1/2SM -SN BKN005 OVC010 00/M00 A2987 RMK SN3SF2SF2 /S04/ SLP116=
CYYG;2007-11-11 05:00;METAR CYYG 110500Z 03017G25KT 1 1/2SM -SN VV004 00/M01 A2984 RMK SN8 /S05/ SLP108=
CYYG;2007-11-11 06:00;METAR CYYG 110600Z 03021G26KT 5SM -SN BKN004 OVC010 01/M00 A2979 RMK SF5SF3 /S06/ SLP090=
CYYG;2007-11-11 06:15;SPECI CYYG 110615Z 02019G24KT 15SM -RA BKN005 OVC011 01/ RMK SF6SF2=
CYYG;2007-11-11 07:00;METAR CYYG 110700Z 02024G30KT 15SM -RA BKN007 OVC015 02/M00 A2976 RMK SF6SC2 SLP079=
CYYG;2007-11-11 08:00;METAR CYYG 110800Z 02023G30KT 15SM -RA FEW007 OVC010 02/01 A2974 RMK SF2SF6 SLP074=
CYYG;2007-11-11 09:00;METAR CYYG 110900Z 02028G35KT 10SM -RA BKN009 OVC022 02/01 A2974 RMK SF6SC2 SLP071=
CYYG;2007-11-11 10:00;METAR CYYG 111000Z 02026G33KT 10SM -RA OVC009 02/01 A2972 RMK SF8 SLP065=
CYYG;2007-11-11 11:00;METAR CYYG 111100Z 02022G40KT 6SM -RA BR BKN009 OVC015 02/01 A2970 RMK SF6SC2 SLP060=
CYYG;2007-11-11 11:42;SPECI CYYG 111142Z 02026G37KT 15SM -RA BKN011 OVC017 03/ RMK SF6SC2=
CYYG;2007-11-11 12:00;METAR CYYG 111200Z 03021G31KT 15SM -RA BKN011 OVC043 03/01 A2972 RMK SC7SC1 SLP065=
CYYG;2007-11-11 12:27;SPECI CYYG 111227Z 03019G29KT 5SM -RASN BKN012 OVC043 03/ RMK SC7SC1=
CYYG;2007-11-11 13:00;METAR CYYG 111300Z 02020G30KT 3SM RASN BR OVC009 02/01 A2973 RMK SC8 SLP068=
CYYG;2007-11-11 13:47;SPECI CYYG 111347Z 02022G28KT 2 1/2SM -RA BR OVC009 02/ RERA RMK SC8=
CYYG;2007-11-11 14:00;METAR CYYG 111400Z 02018G25KT 3SM RA BR OVC009 03/01 A2972 RMK SC8 SLP065=
CYYG;2007-11-11 15:00;METAR CYYG 111500Z 02020G29KT 3SM RA BR OVC009 02/01 A2971 RMK SC8 SLP064=
CYYG;2007-11-11 15:11;SPECI CYYG 111511Z 01018G32KT 2 1/2SM -RASN BR OVC008 02/ RERA RMK SC8=
CYYG;2007-11-11 16:00;METAR CYYG 111600Z 01016G26KT 4SM -RA BR OVC008 03/02 A2970 RERA RMK SC8 SLP060=
CYYG;2007-11-11 17:00;METAR CYYG 111700Z 36021G31KT 5SM -RA BR OVC009 03/02 A2970 RMK SC8 /R14/ SLP060=
CYYG;2007-11-11 18:00;METAR CYYG 111800Z 36021G33KT 7SM -RA OVC009 03/02 A2971 RMK SC8 SLP062=
CYYG;2007-11-11 19:00;METAR CYYG 111900Z 36020G34KT 7SM -RA OVC011 03/02 A2973 RMK SC8 SLP070=
CYYG;2007-11-11 19:33;SPECI CYYG 111933Z 36023G34KT 4SM -SHRASN OVC012 03/ RMK SC8=
CYYG;2007-11-11 20:00;METAR CYYG 112000Z 36018G31KT 5SM -SHRASN BKN011 OVC040 03/01 A2976 RMK SC7SC1 SLP080=
CYYG;2007-11-11 21:00;METAR CYYG 112100Z 35020G29KT 6SM -SHRA BR BKN012 OVC040 03/01 A2979 RMK SC7SC1 SLP088=
CYYG;2007-11-11 22:00;METAR CYYG 112200Z 36024G39KT 6SM -SHRA BR BKN012 OVC090 03/01 A2981 RMK SC7AC1 SLP095=
CYYG;2007-11-11 23:00;METAR CYYG 112300Z 34015G30KT 6SM -SHRA BR BKN012 OVC042 03/01 A2984 RMK SC7SC1 SLP106=
CYYG;2007-11-11 23:52;SPECI CYYG 112352Z 35019G27KT 6SM -SHRASN BKN014 OVC042 02/ RMK SC6SC2=
CYYG;2007-11-12 00:00;METAR CYYG 120000Z 34018G26KT 6SM -SHRASN BKN014 OVC042 02/M00 A2986 RMK SC6SC2 SLP113=
CYYG;2007-11-12 01:00;METAR CYYG 120100Z 34019G28KT 10SM -SHRASN BKN014 OVC045 02/M00 A2987 RMK SC6SC2 SLP116=
CYYG;2007-11-12 02:00;METAR CYYG 120200Z 34017G31KT 12SM -SHRASN BKN014 BKN034 OVC050 02/M01 A2988 RMK SC5SC2SC2 SLP119=
CYYG;2007-11-12 02:52;SPECI CYYG 120252Z 33017G31KT 15SM -SHSN SCT014 BKN025 OVC050 02/ RMK SC3SC3SC2=
CYYG;2007-11-12 03:00;METAR CYYG 120300Z 33016G30KT 15SM -SHSN FEW012 BKN024 OVC048 02/M01 A2988 RMK SC2SC5SC2 SLP120=
CYYG;2007-11-12 04:00;METAR CYYG 120400Z 34019G26KT 6SM -SHSN DRSN FEW012 OVC025 02/M02 A2990 RMK SC2SC6 SLP126=
CYYG;2007-11-12 05:00;METAR CYYG 120500Z 33019G25KT 12SM -SHSN OVC027 02/M03 A2991 RMK SC8 SLP131=
CYYG;2007-11-12 06:00;METAR CYYG 120600Z 33017G27KT 15SM -SHSN OVC027 02/M03 A2993 RMK SC8 SLP139=
CYYG;2007-11-12 07:00;METAR CYYG 120700Z 32018G24KT 15SM -SHSN OVC026 02/M03 A2994 RMK SC8 SLP142=
CYYG;2007-11-12 08:00;METAR CYYG 120800Z 30012G22KT 15SM -SHSN OVC026 01/M03 A2996 RMK SC8 SLP146=
CYYG;2007-11-12 09:00;METAR CYYG 120900Z 32012G17KT 15SM -SHSN OVC024 01/M03 A2997 RMK SC8 SLP152=
CYYG;2007-11-12 10:00;METAR CYYG 121000Z 32015KT 15SM -SHSN OVC024 01/M03 A2998 RMK SC8 SLP156=
CYYG;2007-11-12 11:00;METAR CYYG 121100Z 32012G21KT 15SM -SHSN OVC023 01/M03 A3000 RMK SC8 SLP162=
CYYG;2007-11-12 12:00;METAR CYYG 121200Z 32011KT 3SM -SHSN BKN018 OVC035 00/M02 A3003 RMK SC6SC2 SLP170=
CYYG;2007-11-12 13:00;METAR CYYG 121300Z 31011G17KT 12SM -SHSN OVC026 01/M03 A3003 RMK SC8 SLP172=
CYYG;2007-11-12 14:00;METAR CYYG 121400Z 31011KT 15SM OVC025 01/M03 A3003 RMK SC8 OCNL -SHSN SLP172=
CYYG;2007-11-12 15:00;METAR CYYG 121500Z 32016KT 12SM -SHSN OVC025 02/M03 A3004 RMK SC8 SLP176=
CYYG;2007-11-12 16:00;METAR CYYG 121600Z 31011G19KT 12SM -SHSN OVC025 02/M03 A3004 RMK SC8 SLP173=
CYYG;2007-11-12 17:00;METAR CYYG 121700Z 32014G19KT 15SM -SHSN OVC026 02/M03 A3004 RMK SC8 SLP174=
CYYG;2007-11-12 17:27;SPECI CYYG 121727Z 31013G20KT 15SM OVC026 02/ RMK SC8=
CYYG;2007-11-12 18:00;METAR CYYG 121800Z 32012KT 15SM OVC028 02/M04 A3004 RMK SC8 SLP174=
CYYG;2007-11-12 19:00;METAR CYYG 121900Z 31012KT 15SM OVC028 01/M04 A3004 RMK SC8 SLP175=
CYYG;2007-11-12 20:00;METAR CYYG 122000Z 31010G16KT 15SM OVC028 01/M04 A3005 RMK SC8 SLP179=
CYYG;2007-11-12 21:00;METAR CYYG 122100Z 29007KT 15SM BKN030 01/M04 A3006 RMK SC7 SLP183=
CYYG;2007-11-12 22:00;METAR CYYG 122200Z 30011KT 15SM BKN031 01/M05 A3007 RMK SC7 SLP185=
CYYG;2007-11-12 23:00;METAR CYYG 122300Z 28007KT 15SM OVC033 00/M05 A3007 RMK SC8 SLP184=
CYYG;2007-11-13 00:00;METAR CYYG 130000Z 28010KT 15SM OVC032 00/M05 A3007 RMK SC8 SLP186=
CYYG;2007-11-13 01:00;METAR CYYG 130100Z 28008KT 15SM OVC032 M00/M05 A3006 RMK SC8 SLP183=
CYYG;2007-11-13 02:00;METAR CYYG 130200Z 27006KT 15SM BKN032 M01/M06 A3006 RMK SC7 SLP180=
CYYG;2007-11-13 03:00;METAR CYYG 130300Z 27006KT 15SM BKN032 M02/M06 A3004 RMK SC5 SLP175=
CYYG;2007-11-13 04:00;METAR CYYG 130400Z 27005KT 15SM BKN034 M01/M06 A3004 RMK SC5 SLP175=
CYYG;2007-11-13 05:00;METAR CYYG 130500Z 27005KT 15SM SCT034 M02/M07 A3004 RMK SC4 SLP173=
CYYG;2007-11-13 06:00;METAR CYYG 130600Z 00000KT 15SM BKN030 M01/M06 A3001 RMK SC6 SLP166=
CYYG;2007-11-13 07:00;METAR CYYG 130700Z 27002KT 15SM SCT030 M03/M06 A3000 RMK SC4 SLP162=
CYYG;2007-11-13 08:00;METAR CYYG 130800Z 22003KT 15SM SCT030 M01/M06 A2998 RMK SC3 SLP154=
CYYG;2007-11-13 09:00;METAR CYYG 130900Z 22003KT 15SM FEW030 M01/M06 A2997 RMK SC2 SLP152=
CYYG;2007-11-13 10:00;METAR CYYG 131000Z 21004KT 15SM FEW030 SCT170 M01/M05 A2996 RMK SC1AC1 SLP146=
CYYG;2007-11-13 11:00;METAR CYYG 131100Z 21005KT 15SM FEW020 BKN120 BKN200 M01/M05 A2994 RMK SC1AC5CI1 SLP140=
CYYG;2007-11-13 12:00;METAR CYYG 131200Z 21005KT 15SM BKN100 OVC200 00/M03 A2993 RMK AC6CI2 SLP139=
CYYG;2007-11-13 13:00;METAR CYYG 131300Z 21004KT 15SM SCT037 OVC060 02/M03 A2991 RMK SC3SC5 SLP131=
CYYG;2007-11-13 13:10;SPECI CYYG 131310Z 23007KT 10SM -SHSN SCT023 OVC035 02/ RMK SC3SC5=
CYYG;2007-11-13 14:00;METAR CYYG 131400Z 23007KT 3SM -SN SCT011 OVC022 02/M01 A2989 RMK SC4SC4 SLP123=
CYYG;2007-11-13 14:20;SPECI CYYG 131420Z 21007KT 1SM R03/P6000FT/N -SN OVC006 01/ RMK SF8=
CYYG;2007-11-13 14:48;SPECI CYYG 131448Z 19008KT 3/4SM R03/P6000FT/D -SN OVC004 01/ RMK SN3SF5=
CYYG;2007-11-13 15:00;METAR CYYG 131500Z 19008KT 3/4SM R03/6000FT/U -SN OVC003 01/M00 A2986 RMK SN3SF5 SLP114=
CYYG;2007-11-13 16:00;METAR CYYG 131600Z 19009KT 3/4SM R03/P6000FT/D -SN OVC005 01/M00 A2981 RMK SF8 SLP096=
CYYG;2007-11-13 17:00;METAR CYYG 131700Z 19009KT 3/4SM R03/6000FT/U -SN OVC004 01/M00 A2977 RMK SF8 SLP085=
CYYG;2007-11-13 18:00;METAR CYYG 131800Z 18011KT 1SM R03/P6000FT/N -SN OVC004 01/M00 A2974 RMK SF8 SLP075=
CYYG;2007-11-13 18:25;SPECI CYYG 131825Z 18012KT 3SM -RASN OVC007 01/ RMK SF8=
CYYG;2007-11-13 19:00;METAR CYYG 131900Z 18010KT 4SM -RA SCT007 OVC012 02/01 A2972 RMK SF4SF4 SLP068=
CYYG;2007-11-13 20:00;METAR CYYG 132000Z 20009KT 6SM -RA OVC010 03/02 A2971 RMK SC8 SLP063=
CYYG;2007-11-13 21:00;METAR CYYG 132100Z 21005KT 4SM -RA OVC004 04/02 A2969 RMK SF8 SLP057=
CYYG;2007-11-13 21:36;SPECI CYYG 132136Z 24005KT 6SM -DZ BR OVC005 04/ RMK SF8=
CYYG;2007-11-13 22:00;METAR CYYG 132200Z 27004KT 4SM -DZ BR OVC003 04/03 A2969 RMK SF8 SLP055=
CYYG;2007-11-13 23:00;METAR CYYG 132300Z 31007KT 15SM OVC005 03/01 A2971 RMK SF8 SLP062=
CYYG;2007-11-14 00:00;METAR CYYG 140000Z 29009KT 15SM OVC009 01/M00 A2974 RMK SF8 SLP072=
CYYG;2007-11-14 01:00;METAR CYYG 140100Z 30010KT 15SM BKN010 BKN074 01/M01 A2976 RMK SF5AC2 SLP078=
CYYG;2007-11-14 02:00;METAR CYYG 140200Z 29011KT 15SM SCT017 BKN074 01/M01 A2977 RMK SC3AC3 SLP084=
CYYG;2007-11-14 03:00;METAR CYYG 140300Z 29008KT 15SM FEW075 SCT110 01/M01 A2979 RMK AC2AC2 SLP089=
CYYG;2007-11-14 04:00;METAR CYYG 140400Z 29011KT 15SM FEW075 SCT110 02/M00 A2979 RMK AC2AC2 SLP091=
CYYG;2007-11-14 05:00;METAR CYYG 140500Z 27005KT 15SM SCT100 01/M01 A2980 RMK AC2 SLP095=
CYYG;2007-11-14 06:00;METAR CYYG 140600Z 27007KT 15SM BKN043 01/M00 A2982 RMK SC5 SLP100=
CYYG;2007-11-14 07:00;METAR CYYG 140700Z 29007KT 15SM SCT045 01/M00 A2983 RMK SC2 SLP104=
CYYG;2007-11-14 08:00;METAR CYYG 140800Z 29010KT 15SM BKN090 02/M00 A2985 RMK AS4 SLP110=
CYYG;2007-11-14 09:00;METAR CYYG 140900Z 29008KT 15SM FEW090 02/M00 A2986 RMK AS2 SLP113=
CYYG;2007-11-14 10:00;METAR CYYG 141000Z 27005KT 15SM FEW090 02/M01 A2986 RMK AS2 SLP113=
CYYG;2007-11-14 11:00;METAR CYYG 141100Z 23007KT 15SM BKN090 01/M01 A2988 RMK AS3 SLP120=
CYYG;2007-11-14 12:00;METAR CYYG 141200Z 24005KT 15SM FEW030 BKN250 02/M00 A2992 RMK SC1CI1 SLP133=
CYYG;2007-11-14 13:00;METAR CYYG 141300Z 23007KT 15SM BKN250 04/01 A2992 RMK CI2 SLP134=
CYYG;2007-11-14 14:00;METAR CYYG 141400Z 24007KT 15SM FEW250 06/02 A2991 RMK CI1 SLP131=
CYYG;2007-11-14 15:00;METAR CYYG 141500Z 24008G15KT 15SM FEW030 BKN250 07/03 A2992 RMK CU1CS2 SLP132=
CYYG;2007-11-14 16:00;METAR CYYG 141600Z 22010KT 15SM FEW013 BKN250 07/04 A2990 RMK SC2CS3 SLP127=
CYYG;2007-11-14 17:00;METAR CYYG 141700Z 20013KT 15SM FEW013 BKN250 08/04 A2987 RMK SC2CI2 SLP118=
CYYG;2007-11-14 18:00;METAR CYYG 141800Z 20016KT 15SM FEW012 SCT250 08/04 A2987 RMK SF1CI2 SLP116=
CYYG;2007-11-14 19:00;METAR CYYG 141900Z 22012G18KT 15SM FEW140 BKN250 09/02 A2987 RMK AC1CI1 SLP115=
CYYG;2007-11-14 20:00;METAR CYYG 142000Z 22014G20KT 15SM SCT230 BKN300 08/01 A2987 RMK CC2CI1 SLP118=
CYYG;2007-11-14 21:00;METAR CYYG 142100Z 20012KT 15SM FEW230 BKN300 07/01 A2988 RMK CC2CI0 SLP121=
CYYG;2007-11-14 22:00;METAR CYYG 142200Z 19015KT 15SM SCT220 BKN250 07/02 A2987 RMK CC3CI2 SLP117=
CYYG;2007-11-14 23:00;METAR CYYG 142300Z 20015KT 15SM FEW220 OVC250 07/02 A2987 RMK CC2CC3 SLP117=
CYYG;2007-11-15 00:00;METAR CYYG 150000Z 20012KT 15SM BKN230 07/02 A2986 RMK CC6 SLP114=
CYYG;2007-11-15 01:00;METAR CYYG 150100Z 21011KT 15SM OVC240 07/02 A2988 RMK CI7 SLP121=
CYYG;2007-11-15 02:00;METAR CYYG 150200Z 22018G24KT 15SM OVC240 07/02 A2988 RMK CI8 SLP120=
CYYG;2007-11-15 03:00;METAR CYYG 150300Z 21020G25KT 15SM OVC240 07/03 A2988 RMK CI7 SLP121=
CYYG;2007-11-15 04:00;METAR CYYG 150400Z 20016G25KT 15SM BKN240 08/05 A2987 RMK CI7 SLP115=
CYYG;2007-11-15 05:00;METAR CYYG 150500Z 20015KT 15SM BKN019 OVC230 07/05 A2986 RMK SC6CI2 SLP114=
CYYG;2007-11-15 06:00;METAR CYYG 150600Z 20014KT 15SM BKN020 OVC230 08/06 A2986 RMK SC5CI3 SLP112=
CYYG;2007-11-15 07:00;METAR CYYG 150700Z 20016KT 15SM SCT020 BKN090 BKN240 08/06 A2985 RMK SC3AC2CI2 SLP110=
CYYG;2007-11-15 08:00;METAR CYYG 150800Z 19012KT 15SM FEW080 BKN120 08/06 A2985 RMK AC2AC6 SLP109=
CYYG;2007-11-15 09:00;METAR CYYG 150900Z 20011G17KT 15SM OVC120 09/07 A2985 RMK AC8 SLP109=
CYYG;2007-11-15 10:00;METAR CYYG 151000Z 21009G15KT 15SM BKN010 OVC120 09/07 A2983 RMK SF6AC2 SLP104=
CYYG;2007-11-15 10:20;SPECI CYYG 151020Z 20009KT 10SM OVC008 09/ RMK SF8=
CYYG;2007-11-15 11:00;METAR CYYG 151100Z 20011KT 8SM BKN007 OVC051 09/08 A2982 RMK SF6SC2 SLP101=
CYYG;2007-11-15 12:00;METAR CYYG 151200Z 20015KT 12SM BKN007 OVC036 10/08 A2982 RMK SF6SC2 SLP101=
CYYG;2007-11-15 12:38;SPECI CYYG 151238Z 18012KT 12SM SCT007 OVC039 10/ RMK SF4SC4=
CYYG;2007-11-15 13:00;METAR CYYG 151300Z 17013KT 10SM SCT007 BKN015 OVC039 11/09 A2981 RMK SF3SC3SC2 SLP095=
CYYG;2007-11-15 13:37;SPECI CYYG 151337Z 17010KT 12SM BKN008 OVC014 11/ RMK SF5SC3=
CYYG;2007-11-15 14:00;METAR CYYG 151400Z 18011KT 12SM BKN008 OVC013 11/09 A2980 RMK SF6SC2 SLP094=
CYYG;2007-11-15 14:02;SPECI CYYG 151402Z 18013KT 3SM -SHRA BR OVC006 11/ RMK SF8=
CYYG;2007-11-15 14:53;SPECI CYYG 151453Z 18012G17KT 2SM -RA BR BKN003 OVC009 11/ RERA RMK SF6SF2=
CYYG;2007-11-15 15:00;METAR CYYG 151500Z 18011KT 10SM -RA BKN003 OVC012 11/10 A2978 RERA RMK SF6SC2 VIS NW-E 2 SLP086=
CYYG;2007-11-15 15:08;SPECI CYYG 151508Z 18013KT 10SM FEW003 OVC012 11/ RMK SF1SC7=
CYYG;2007-11-15 15:34;SPECI CYYG 151534Z 18011KT 10SM -SHRA FEW004 OVC013 12/ RMK SF2SC6=
CYYG;2007-11-15 16:00;METAR CYYG 151600Z 18009KT 15SM -SHRA FEW004 OVC013 12/10 A2974 RMK SF2SC6 SLP073=
CYYG;2007-11-15 17:00;METAR CYYG 151700Z 18010G17KT 15SM -SHRA FEW004 OVC011 13/11 A2971 RMK SF2SC6 SLP064=
CYYG;2007-11-15 17:45;SPECI CYYG 151745Z 18013G18KT 15SM OVC008 13/ RMK SF8=
CYYG;2007-11-15 18:00;METAR CYYG 151800Z 18016KT 15SM OVC008 13/11 A2969 RMK SF8 SLP055=
CYYG;2007-11-15 18:16;SPECI CYYG 151816Z 18017G22KT 15SM OVC010 13/ RMK SC8=
CYYG;2007-11-15 18:33;SPECI CYYG 151833Z 18017KT 15SM OVC008 14/ RMK SF8=
CYYG;2007-11-15 19:00;METAR CYYG 151900Z 18017G22KT 15SM OVC006 13/11 A2968 RMK SF8 VIS LWR NW SLP051=
CYYG;2007-11-15 19:39;SPECI CYYG 151939Z 18017KT 15SM FEW006 BKN080 13/ RMK SF2AC5=
CYYG;2007-11-15 20:00;METAR CYYG 152000Z 18016KT 15SM FEW006 BKN075 13/11 A2968 RMK SF2AC6 SLP051=
CYYG;2007-11-15 21:00;METAR CYYG 152100Z 18017KT 15SM BKN072 13/10 A2968 RMK AC6 SLP052=
CYYG;2007-11-15 22:00;METAR CYYG 152200Z 18014G19KT 15SM BKN012 OVC070 14/11 A2968 RMK SC6AC2 SLP052=
CYYG;2007-11-15 23:00;METAR CYYG 152300Z 16013KT 15SM OVC011 14/12 A2966 RMK SC8 SLP046=
CYYG;2007-11-16 00:00;METAR CYYG 160000Z 17011KT 12SM BKN005 OVC010 14/12 A2963 RMK SF5SC3 SLP036=
CYYG;2007-11-16 01:00;METAR CYYG 160100Z 17015KT 15SM SCT008 OVC017 14/12 A2963 RMK SF3SC5 SLP035=
CYYG;2007-11-16 02:00;METAR CYYG 160200Z 17015G22KT 15SM BKN014 OVC100 15/12 A2962 RMK SC6AC2 SLP030=
CYYG;2007-11-16 03:00;METAR CYYG 160300Z 17019G24KT 15SM BKN018 BKN058 OVC110 15/12 A2960 RMK SC6SC1AC2 SLP025=
CYYG;2007-11-16 03:38;SPECI CYYG 160338Z 17015KT 10SM -SHRA OVC016 15/ RMK SC8=
CYYG;2007-11-16 04:00;METAR CYYG 160400Z 17016KT 10SM -SHRA SCT011 OVC016 15/12 A2960 RMK SC3SC5 SLP026=
CYYG;2007-11-16 05:00;METAR CYYG 160500Z 17015KT 15SM -SHRA OVC017 15/13 A2958 RMK SC8 SLP019=
CYYG;2007-11-16 06:00;METAR CYYG 160600Z 17014KT 10SM -SHRA OVC016 15/12 A2957 RMK SC8 SLP015=
CYYG;2007-11-16 06:25;SPECI CYYG 160625Z 17015KT 4SM BR OVC016 15/ RMK SC8=
CYYG;2007-11-16 07:00;METAR CYYG 160700Z 17015G21KT 12SM BKN020 OVC120 15/12 A2956 RMK SC6AC2 SLP010=
CYYG;2007-11-16 08:00;METAR CYYG 160800Z 17017KT 15SM BKN022 15/12 A2954 RMK SC6 SLP003=
CYYG;2007-11-16 09:00;METAR CYYG 160900Z 16016G21KT 15SM BKN017 15/12 A2952 RMK SC7 SLP997=
CYYG;2007-11-16 10:00;METAR CYYG 161000Z 17016G21KT 15SM OVC018 15/12 A2950 RMK SC8 SLP988=
CYYG;2007-11-16 11:00;METAR CYYG 161100Z 16014G21KT 15SM BKN014 15/12 A2947 RMK SC6 SLP981=
CYYG;2007-11-16 12:00;METAR CYYG 161200Z 16016KT 15SM FEW007 BKN016 15/12 A2946 RMK SF1SC6 SLP976=
CYYG;2007-11-16 12:13;SPECI CYYG 161213Z 16016G24KT 15SM BKN007 BKN014 15/ RMK SF6SC2=
CYYG;2007-11-16 12:39;SPECI CYYG 161239Z 16019G25KT 15SM FEW007 FEW014 BKN250 15/ RMK SF1SC2CI1=
CYYG;2007-11-16 13:00;METAR CYYG 161300Z 16020G26KT 15SM FEW007 SCT023 BKN250 16/13 A2942 RMK SF1SC2CI1 SLP962=
CYYG;2007-11-16 14:00;METAR CYYG 161400Z 16021G32KT 15SM SCT020 BKN250 17/13 A2936 RMK SC3CI1 SLP943=
CYYG;2007-11-16 15:00;METAR CYYG 161500Z 17027G36KT 15SM FEW020 FEW100 BKN250 17/13 A2932 RMK SC1AC2CI3 SLP929=
CYYG;2007-11-16 16:00;METAR CYYG 161600Z 16027G37KT 15SM BKN028 OVC120 17/12 A2928 RMK SC6AC2 SLP916=
CYYG;2007-11-16 17:00;METAR CYYG 161700Z 16030G37KT 15SM BKN028 BKN120 18/12 A2921 RMK SC5AC2 PRESFR SLP891=
CYYG;2007-11-16 17:24;SPECI CYYG 161724Z 16024G35KT 15SM -RA BKN031 OVC250 18/ RMK SC6CI2=
CYYG;2007-11-16 18:00;METAR CYYG 161800Z 15023G34KT 8SM RA OVC020 16/12 A2916 RMK SC8 SLP875=
CYYG;2007-11-16 18:23;SPECI CYYG 161823Z 20019G34KT 2SM -RA BR OVC011 16/ RERA RMK SF8=
CYYG;2007-11-16 18:31;SPECI CYYG 161831Z 17015G26KT 1 1/2SM -RA BR OVC008 15/ RERA RMK SF8=
CYYG;2007-11-16 19:00;METAR CYYG 161900Z 16022G30KT 15SM -RA FEW008 OVC086 15/13 A2914 RMK SF2AS6 SLP868=
CYYG;2007-11-16 19:53;SPECI CYYG 161953Z 17019G28KT 15SM BKN015 OVC025 14/ RMK SC6SC2=
CYYG;2007-11-16 20:00;METAR CYYG 162000Z 17018G28KT 15SM BKN014 OVC023 14/11 A2915 RMK SC6SC2 SLP871=
CYYG;2007-11-16 20:53;SPECI CYYG 162053Z 19017G26KT 15SM FEW014 BKN061 13/ RMK SC2SC6=
CYYG;2007-11-16 21:00;METAR CYYG 162100Z 19016G26KT 15SM FEW014 BKN061 12/09 A2917 RMK SC2SC6 SLP878=
CYYG;2007-11-16 22:00;METAR CYYG 162200Z 18019G24KT 15SM SCT019 BKN074 11/08 A2917 RMK SC3AC4 SLP877=
CYYG;2007-11-16 22:49;SPECI CYYG 162249Z 18017G22KT 15SM -SHRA BKN020 OVC074 10/ RMK SC6AC2=
CYYG;2007-11-16 23:00;METAR CYYG 162300Z 18017G24KT 15SM -SHRA OVC017 10/07 A2917 RMK SC8 SLP877=
CYYG;2007-11-17 00:00;METAR CYYG 170000Z 19022G29KT 15SM FEW028 OVC120 09/03 A2919 RMK SC2AC6 SLP885=
CYYG;2007-11-17 01:00;METAR CYYG 170100Z 20023G33KT 15SM BKN028 OVC120 08/02 A2918 RMK SC6AC2 SLP883=
CYYG;2007-11-17 02:00;METAR CYYG 170200Z 22024G35KT 15SM BKN035 07/00 A2920 RMK SC7 SLP889=
CYYG;2007-11-17 03:00;METAR CYYG 170300Z 22026G35KT 15SM -SHRA OVC025 06/01 A2925 RMK SC8 SLP904=
CYYG;2007-11-17 03:23;SPECI CYYG 170323Z 24021G29KT 15SM OVC028 06/ RMK SC8=
CYYG;2007-11-17 03:54;SPECI CYYG 170354Z 23017G24KT 12SM -SHRA OVC023 05/ RMK SC8=
CYYG;2007-11-17 04:00;METAR CYYG 170400Z 24018G25KT 12SM -SHRA OVC022 05/01 A2929 RMK SC8 SLP919=
CYYG;2007-11-17 05:00;METAR CYYG 170500Z 23017KT 15SM SCT020 04/M00 A2933 RMK SC3 SLP931=
CYYG;2007-11-17 06:00;METAR CYYG 170600Z 24012G26KT 15SM BKN025 04/M00 A2936 RMK SC6 SLP945=
CYYG;2007-11-17 07:00;METAR CYYG 170700Z 23017G22KT 15SM BKN025 03/M01 A2941 RMK SC7 SLP960=
CYYG;2007-11-17 07:27;SPECI CYYG 170727Z 25014G22KT 12SM -SHRA OVC020 02/ RMK SC8=
CYYG;2007-11-17 08:00;METAR CYYG 170800Z 25013KT 12SM -SHRA OVC020 02/M00 A2945 RMK SC8 SLP974=
CYYG;2007-11-17 09:00;METAR CYYG 170900Z 23018G24KT 15SM OVC025 03/M02 A2948 RMK SC8 SLP984=
CYYG;2007-11-17 10:00;METAR CYYG 171000Z 25014G31KT 15SM BKN025 03/M03 A2950 RMK SC6 SLP991=
CYYG;2007-11-17 11:00;METAR CYYG 171100Z 25012G20KT 15SM BKN023 02/M03 A2954 RMK SC5 SLP004=
CYYG;2007-11-17 12:00;METAR CYYG 171200Z 25014KT 15SM BKN026 02/M03 A2957 RMK SC6 SLP016=
CYYG;2007-11-17 13:00;METAR CYYG 171300Z 26011G18KT 15SM BKN026 02/M03 A2960 RMK SC7 SLP025=
CYYG;2007-11-17 14:00;METAR CYYG 171400Z 26016KT 15SM BKN030 02/M03 A2963 RMK SC6 SLP035=
CYYG;2007-11-17 15:00;METAR CYYG 171500Z 23019KT 15SM BKN030 02/M05 A2964 RMK SC6 SLP039=
CYYG;2007-11-17 16:00;METAR CYYG 171600Z 24014G26KT 15SM BKN030 03/M05 A2965 RMK SC5 SLP042=
CYYG;2007-11-17 17:00;METAR CYYG 171700Z 24018G26KT 15SM BKN030 03/M05 A2966 RMK SC6 SLP047=
CYYG;2007-11-17 18:00;METAR CYYG 171800Z 25015G25KT 15SM BKN030 03/M04 A2969 RMK SC6 SLP054=
CYYG;2007-11-17 19:00;METAR CYYG 171900Z 25015G25KT 15SM BKN034 03/M05 A2971 RMK SC7 SLP064=
CYYG;2007-11-17 20:00;METAR CYYG 172000Z 26012G19KT 15SM BKN035 03/M05 A2974 RMK SC7 SLP073=
CYYG;2007-11-17 21:00;METAR CYYG 172100Z 26009G17KT 15SM BKN035 02/M06 A2977 RMK SC5 SLP083=
CYYG;2007-11-17 22:00;METAR CYYG 172200Z 27007KT 15SM SCT038 01/M06 A2980 RMK SC4 SLP093=
CYYG;2007-11-17 23:00;METAR CYYG 172300Z 26005KT 15SM FEW038 01/M06 A2982 RMK SC2 SLP100=
CYYG;2007-11-18 00:00;METAR CYYG 180000Z 26013G18KT 15SM FEW040 02/M06 A2984 RMK SC2 SLP108=
CYYG;2007-11-18 01:00;METAR CYYG 180100Z 26013KT 15SM FEW040 02/M06 A2987 RMK SC2 SLP117=
CYYG;2007-11-18 02:00;METAR CYYG 180200Z 27012KT 15SM FEW040 01/M07 A2989 RMK SC1 SLP123=
CYYG;2007-11-18 03:00;METAR CYYG 180300Z 25008KT 15SM FEW030 01/M06 A2990 RMK SC1 SLP127=
CYYG;2007-11-18 04:00;METAR CYYG 180400Z 25007KT 15SM FEW030 M01/M06 A2992 RMK SC1 SLP133=
CYYG;2007-11-18 05:00;METAR CYYG 180500Z 26009KT 15SM FEW030 M00/M06 A2993 RMK SC1 SLP138=
CYYG;2007-11-18 06:00;METAR CYYG 180600Z 26007KT 15SM SKC M01/M06 A2996 RMK SLP148=
CYYG;2007-11-18 07:00;METAR CYYG 180700Z 26007KT 15SM SKC M01/M06 A2999 RMK SLP157=
CYYG;2007-11-18 08:00;METAR CYYG 180800Z 25006KT 15SM SKC M01/M06 A3002 RMK SLP167=
CYYG;2007-11-18 09:00;METAR CYYG 180900Z 27004KT 15SM FEW025 M02/M06 A3005 RMK SC2 SLP177=
CYYG;2007-11-18 10:00;METAR CYYG 181000Z 26004KT 15SM FEW025 M02/M05 A3007 RMK SC1 FROIN SLP185=
CYYG;2007-11-18 11:00;METAR CYYG 181100Z 25005KT 15SM FEW025 M02/M06 A3010 RMK SC1 FROIN SLP196=
CYYG;2007-11-18 12:00;METAR CYYG 181200Z 24005KT 15SM FEW025 M02/M05 A3014 RMK SC1 SLP210=
CYYG;2007-11-18 13:00;METAR CYYG 181300Z 27007KT 15SM FEW025 M00/M04 A3018 RMK SC1 SLP223=
CYYG;2007-11-18 14:00;METAR CYYG 181400Z 30013KT 15SM FEW030 01/M04 A3021 RMK SC1 SLP231=
CYYG;2007-11-18 15:00;METAR CYYG 181500Z 30011KT 15SM FEW030 02/M05 A3024 RMK SC2 SLP242=
CYYG;2007-11-18 16:00;METAR CYYG 181600Z 31009G15KT 15SM VCSH BKN030 03/M05 A3026 RMK SC6 SLP248=
CYYG;2007-11-18 16:13;SPECI CYYG 181613Z 29011G16KT 15SM -SHSN BKN030 03/ RMK SC6=
CYYG;2007-11-18 17:00;METAR CYYG 181700Z 33012G19KT 15SM -SHSN BKN015 BKN025 01/M04 A3029 RMK SC6SC2 SLP259=
CYYG;2007-11-18 18:00;METAR CYYG 181800Z 35011G21KT 15SM -SHSN FEW015 BKN025 BKN070 00/M04 A3033 RMK SC2SC4AC2 SLP274=
CYYG;2007-11-18 19:00;METAR CYYG 181900Z 35012G18KT 15SM VCSH FEW035 SCT040 00/M07 A3036 RMK SC2SC2 SLP285=
CYYG;2007-11-18 20:00;METAR CYYG 182000Z 36011G16KT 15SM VCSH FEW030 BKN042 M01/M08 A3041 RMK SC2SC3 SLP300=
CYYG;2007-11-18 20:20;SPECI CYYG 182020Z 36010G15KT 15SM -SHSN FEW030 BKN044 M01/ RMK SC2SC3=
CYYG;2007-11-18 21:00;METAR CYYG 182100Z 01010G16KT 15SM -SHSN FEW032 BKN042 M01/M08 A3045 RMK SC1SC6 SLP314=
CYYG;2007-11-18 22:00;METAR CYYG 182200Z 36006KT 15SM -SHSN BKN040 M02/M08 A3048 RMK SC6 SLP324=
CYYG;2007-11-18 23:00;METAR CYYG 182300Z 36009G15KT 15SM -SHSN BKN040 M02/M09 A3050 RMK SC7 SLP331=
CYYG;2007-11-19 00:00;METAR CYYG 190000Z 36009KT 15SM -SHSN OVC035 M02/M09 A3052 RMK SC8 SLP338=
CYYG;2007-11-19 01:00;METAR CYYG 190100Z 02009KT 15SM -SHSN OVC039 M02/M09 A3054 RMK SC8 SLP343=
CYYG;2007-11-19 02:00;METAR CYYG 190200Z 01006KT 15SM -SHSN OVC027 M01/M09 A3054 RMK SC8 SLP345=
CYYG;2007-11-19 03:00;METAR CYYG 190300Z 02008KT 15SM -SHSN OVC038 M01/M09 A3055 RMK SC8 SLP347=
CYYG;2007-11-19 04:00;METAR CYYG 190400Z 01008KT 15SM OVC039 M01/M09 A3055 RMK SC8 SLP349=
CYYG;2007-11-19 05:00;METAR CYYG 190500Z 01006KT 15SM OVC034 M01/M08 A3056 RMK SC8 SLP350=
CYYG;2007-11-19 06:00;METAR CYYG 190600Z 04006KT 15SM OVC036 M01/M08 A3057 RMK SC8 SLP353=
CYYG;2007-11-19 07:00;METAR CYYG 190700Z 04008KT 15SM OVC034 M01/M08 A3058 RMK SC8 SLP357=
CYYG;2007-11-19 08:00;METAR CYYG 190800Z 05007KT 15SM OVC038 M01/M09 A3059 RMK SC8 SLP360=
CYYG;2007-11-19 09:00;METAR CYYG 190900Z 04007KT 15SM OVC035 M01/M09 A3060 RMK SC8 SLP366=
CYYG;2007-11-19 10:00;METAR CYYG 191000Z 04007KT 15SM OVC037 M01/M09 A3060 RMK SC8 SLP367=
CYYG;2007-11-19 14:00;METAR CYYG 191400Z 04011KT 15SM OVC032 M00/M07 A3063 RMK SC7 SLP375=
CYYG;2007-11-19 15:00;METAR CYYG 191500Z 06011KT 15SM BKN033 00/M08 A3062 RMK SC7 SLP371=
CYYG;2007-11-19 16:00;METAR CYYG 191600Z 05009G16KT 15SM BKN034 01/M07 A3060 RMK SC6 SLP363=
CYYG;2007-11-19 17:00;METAR CYYG 191700Z 04010KT 15SM BKN034 01/M07 A3058 RMK SC6 SLP359=
CYYG;2007-11-19 18:00;METAR CYYG 191800Z 05009KT 15SM BKN036 00/M07 A3057 RMK SC6 SLP354=
CYYG;2007-11-19 19:00;METAR CYYG 191900Z 07011KT 15SM BKN033 00/M07 A3055 RMK SC7 SLP348=
CYYG;2007-11-19 20:00;METAR CYYG 192000Z 06006KT 15SM BKN032 09/M07 A3054 RMK SC7 SLP345=
CYYG;2007-11-19 21:00;METAR CYYG 192100Z 06007KT 15SM BKN033 M00/M07 A3055 RMK SC7 SLP346=
CYYG;2007-11-19 22:00;METAR CYYG 192200Z 07004KT 15SM BKN032 M00/M07 A3055 RMK SC7 SLP348=
CYYG;2007-11-19 23:00;METAR CYYG 192300Z 08004KT 15SM BKN031 M01/M07 A3054 RMK SC7 SLP345=
CYYG;2007-11-20 00:00;METAR CYYG 200000Z 08005KT 15SM OVC032 M00/M07 A3052 RMK SC8 SLP338=
CYYG;2007-11-20 01:00;METAR CYYG 200100Z 07009KT 15SM OVC031 M00/M07 A3051 RMK SC8 SLP334=
CYYG;2007-11-20 02:00;METAR CYYG 200200Z 07007KT 15SM BKN031 M01/M07 A3050 RMK SC7 SLP329=
CYYG;2007-11-20 03:00;METAR CYYG 200300Z 07003KT 15SM BKN031 M01/M07 A3048 RMK SC5 SLP324=
CYYG;2007-11-20 04:00;METAR CYYG 200400Z 06004KT 15SM BKN031 M02/M07 A3046 RMK SC5 SLP318=
CYYG;2007-11-20 05:00;METAR CYYG 200500Z 06003KT 15SM BKN030 M04/M08 A3043 RMK SC2 SLP308=
CYYG;2007-11-20 06:00;METAR CYYG 200600Z 07004KT 15SM BKN030 M04/M08 A3042 RMK SC3 SLP304=
CYYG;2007-11-20 07:00;METAR CYYG 200700Z 06004KT 15SM SCT030 M03/M07 A3040 RMK SC2 SLP296=
CYYG;2007-11-20 08:00;METAR CYYG 200800Z 05003KT 15SM SCT030 04/M07 A3038 RMK SC2 SLP289=
CYYG;2007-11-20 09:00;METAR CYYG 200900Z 03002KT 15SM SCT030 M05/M07 A3039 RMK SC2 SLP292=
CYYG;2007-11-20 10:00;METAR CYYG 201000Z 01003KT 15SM FEW032 M06/M08 A3037 RMK SC2 SLP288=
CYYG;2007-11-20 11:00;METAR CYYG 201100Z 06003KT 15SM FEW032 M05/M08 A3036 RMK SC2 SLP282=
CYYG;2007-11-20 12:00;METAR CYYG 201200Z 10003KT 15SM BKN035 M04/M07 A3035 RMK SC5 SLP281=
CYYG;2007-11-20 13:00;METAR CYYG 201300Z 09005KT 15SM BKN033 M01/M05 A3031 RMK SC6 SLP265=
CYYG;2007-11-20 14:00;METAR CYYG 201400Z 09006KT 15SM FEW020 BKN031 01/M04 A3027 RMK SC1SC6 SLP254=
CYYG;2007-11-20 15:00;METAR CYYG 201500Z 09007KT 15SM BKN028 BKN250 02/M04 A3025 RMK SC6CI1 SLP247=
CYYG;2007-11-20 16:00;METAR CYYG 201600Z 10008KT 15SM BKN028 02/M05 A3023 RMK SC7 SLP241=
CYYG;2007-11-20 17:00;METAR CYYG 201700Z 14010KT 15SM BKN030 02/M05 A3020 RMK SC7 SLP231=
CYYG;2007-11-20 18:00;METAR CYYG 201800Z 14007KT 15SM BKN028 02/M04 A3018 RMK SC7 SLP222=
CYYG;2007-11-20 19:00;METAR CYYG 201900Z 12005KT 15SM BKN029 03/M04 A3017 RMK SC7 SLP218=
CYYG;2007-11-20 20:00;METAR CYYG 202000Z 09005KT 15SM BKN031 03/M03 A3015 RMK SC7 SLP212=
CYYG;2007-11-20 21:00;METAR CYYG 202100Z 09002KT 15SM BKN033 02/M03 A3013 RMK SC7 SLP207=
CYYG;2007-11-20 22:00;METAR CYYG 202200Z 12002KT 15SM BKN034 02/M03 A3012 RMK SC7 SLP202=
CYYG;2007-11-20 23:00;METAR CYYG 202300Z 03002KT 15SM OVC036 02/M03 A3012 RMK SC8 SLP201=
CYYG;2007-11-21 00:00;METAR CYYG 210000Z 36002KT 15SM OVC030 01/M03 A3010 RMK SC8 SLP196=
CYYG;2007-11-21 01:00;METAR CYYG 210100Z 00000KT 15SM OVC025 01/M02 A3009 RMK SC8 SLP191=
CYYG;2007-11-21 02:00;METAR CYYG 210200Z 36002KT 15SM BKN025 OVC140 01/M02 A3010 RMK SC7AC1 SLP194=
CYYG;2007-11-21 03:00;METAR CYYG 210300Z 00000KT 15SM OVC027 01/M02 A3008 RMK SC8 SLP189=
CYYG;2007-11-21 04:00;METAR CYYG 210400Z 32003KT 15SM OVC031 01/M02 A3007 RMK SC8 SLP184=
CYYG;2007-11-21 05:00;METAR CYYG 210500Z 32003KT 15SM BKN034 OVC110 01/M03 A3005 RMK SC6AC2 SLP177=
CYYG;2007-11-21 06:00;METAR CYYG 210600Z 32004KT 15SM BKN035 OVC090 01/M03 A3005 RMK SC6AC2 SLP179=
CYYG;2007-11-21 07:00;METAR CYYG 210700Z 32003KT 15SM BKN038 BKN075 00/M03 A3005 RMK SC5AC2 SLP178=
CYYG;2007-11-21 08:00;METAR CYYG 210800Z 33003KT 15SM BKN038 OVC070 01/M03 A3004 RMK SC5AC3 SLP176=
CYYG;2007-11-21 09:00;METAR CYYG 210900Z 34002KT 15SM SCT038 OVC069 01/M03 A3004 RMK SC4AC4 SLP175=
CYYG;2007-11-21 10:00;METAR CYYG 211000Z 32004KT 15SM FEW038 BKN069 M01/M04 A3004 RMK SC2AC3 SLP173=
CYYG;2007-11-21 11:00;METAR CYYG 211100Z 32007KT 15SM SCT065 M01/M04 A3004 RMK SC3 SLP175=
CYYG;2007-11-21 12:00;METAR CYYG 211200Z 31007KT 15SM FEW045 FEW070 M01/M03 A3006 RMK SC1AC1 SLP180=
CYYG;2007-11-21 13:00;METAR CYYG 211300Z 31005KT 15SM FEW028 FEW045 FEW070 01/M02 A3006 RMK SC1SC1AC1 SLP181=
CYYG;2007-11-21 14:00;METAR CYYG 211400Z 32004KT 15SM BKN020 BKN045 03/M01 A3006 RMK SC5SC1 SLP181=
CYYG;2007-11-21 15:00;METAR CYYG 211500Z 34006KT 15SM BKN020 BKN045 04/M02 A3006 RMK SC6SC1 SLP180=
CYYG;2007-11-21 16:00;METAR CYYG 211600Z 34008KT 15SM BKN026 03/M02 A3004 RMK SC7 SLP173=
CYYG;2007-11-21 17:00;METAR CYYG 211700Z 32007KT 15SM FEW023 OVC028 04/M02 A3002 RMK SC2SC6 SLP167=
CYYG;2007-11-21 18:00;METAR CYYG 211800Z 32006KT 15SM SCT015 OVC032 03/M01 A3002 RMK SC3SC5 SLP169=
CYYG;2007-11-21 19:35;SPECI CYYG 211935Z 32005KT 15SM -SHRA FEW010 SCT018 OVC031 02/ RMK SF1SC2SC5=
CYYG;2007-11-21 20:00;METAR CYYG 212000Z 32003KT 15SM FEW010 FEW018 OVC030 02/M00 A3003 RMK SF1SC1SC6 SLP170=
CYYG;2007-11-21 20:07;SPECI CYYG 212007Z 36005KT 15SM -SHRA FEW010 SCT019 OVC028 02/ RMK SF2SC2SC5=
CYYG;2007-11-21 20:49;SPECI CYYG 212049Z 32003KT 15SM FEW019 OVC030 02/ RMK SC1SC7=
CYYG;2007-11-21 21:00;METAR CYYG 212100Z 30005KT 15SM FEW019 OVC030 02/M01 A3005 RMK SC1SC7 SLP179=
CYYG;2007-11-21 22:00;METAR CYYG 212200Z 28004KT 15SM FEW015 OVC029 02/M01 A3005 RMK SC1SC7 SLP178=
CYYG;2007-11-21 23:00;METAR CYYG 212300Z 27004KT 15SM OVC030 02/M02 A3006 RMK SC8 SLP180=
CYYG;2007-11-22 00:00;METAR CYYG 220000Z 29005KT 15SM OVC030 02/M02 A3006 RMK SC8 SLP183=
CYYG;2007-11-22 01:00;METAR CYYG 220100Z 29007KT 15SM OVC027 02/M02 A3007 RMK SC8 SLP186=
CYYG;2007-11-22 02:00;METAR CYYG 220200Z 31004KT 15SM OVC025 02/M02 A3007 RMK SC8 SLP185=
CYYG;2007-11-22 03:00;METAR CYYG 220300Z 33004KT 15SM OVC025 02/M03 A3007 RMK SC8 SLP186=
CYYG;2007-11-22 04:00;METAR CYYG 220400Z 31004KT 15SM OVC026 02/M03 A3007 RMK SC8 SLP186=
CYYG;2007-11-22 05:00;METAR CYYG 220500Z 00000KT 15SM OVC027 01/M03 A3007 RMK SC8 SLP186=
CYYG;2007-11-22 06:00;METAR CYYG 220600Z 31002KT 15SM OVC026 01/M03 A3009 RMK SC8 SLP191=
CYYG;2007-11-22 07:00;METAR CYYG 220700Z 32002KT 15SM OVC027 01/M03 A3009 RMK SC8 SLP191=
CYYG;2007-11-22 08:00;METAR CYYG 220800Z 00000KT 15SM BKN027 OVC062 01/M03 A3009 RMK SC7SC1 SLP191=
CYYG;2007-11-22 09:00;METAR CYYG 220900Z 00000KT 15SM BKN029 OVC057 01/M03 A3009 RMK SC6SC2 SLP193=
CYYG;2007-11-22 10:00;METAR CYYG 221000Z 35002KT 15SM OVC029 01/M03 A3009 RMK SC8 SLP190=
CYYG;2007-11-22 11:00;METAR CYYG 221100Z 00000KT 15SM BKN025 OVC049 01/M02 A3008 RMK SC7SC1 SLP188=
CYYG;2007-11-22 12:00;METAR CYYG 221200Z 00000KT 15SM BKN025 OVC040 01/M02 A3010 RMK SC6SC2 SLP194=
CYYG;2007-11-22 13:00;METAR CYYG 221300Z 09002KT 15SM OVC025 02/M02 A3009 RMK SC8 SLP192=
CYYG;2007-11-22 14:00;METAR CYYG 221400Z 00000KT 15SM OVC028 02/M02 A3010 RMK SC8 SLP194=
CYYG;2007-11-22 14:25;SPECI CYYG 221425Z 07003KT 10SM -SHRA OVC028 02/ RMK SC8=
CYYG;2007-11-22 15:00;METAR CYYG 221500Z 09004KT 12SM -SHRA FEW018 OVC035 02/M01 A3008 RMK SC2SC6 SLP188=
CYYG;2007-11-22 16:00;METAR CYYG 221600Z 09006KT 8SM -SHRA BKN015 OVC032 02/M01 A3004 RMK SC5SC3 SLP174=
CYYG;2007-11-22 17:00;METAR CYYG 221700Z 11007KT 10SM -SHRA OVC012 02/M00 A3000 RMK SC8 SLP162=
CYYG;2007-11-22 18:00;METAR CYYG 221800Z 10006KT 6SM -DZ BR OVC012 02/00 A2999 RMK SC8 SLP158=
CYYG;2007-11-22 18:52;SPECI CYYG 221852Z 11007KT 4SM -RA BR FEW008 OVC020 02/ RMK SF2SC6=
CYYG;2007-11-22 19:00;METAR CYYG 221900Z 11007KT 2SM -RA BR SCT008 OVC016 02/01 A2996 RMK SF4SC4 SLP149=
CYYG;2007-11-22 19:15;SPECI CYYG 221915Z 10005KT 1SM R03/P6000FT/D -RA BR BKN008 OVC016 02/ RMK SF6SC2=
CYYG;2007-11-22 19:29;SPECI CYYG 221929Z 11006KT 1 1/2SM -RA BR OVC004 02/ RMK SF8=
CYYG;2007-11-22 19:50;SPECI CYYG 221950Z 12007KT 1SM R03/6000FT/D -RA BR OVC002 03/ RMK SF8=
CYYG;2007-11-22 20:00;METAR CYYG 222000Z 13008KT 1SM R03/5500FT/N -RA BR OVC002 03/01 A2994 RMK SF8 SLP140=
CYYG;2007-11-22 20:23;SPECI CYYG 222023Z 13009KT 3SM -RA BR BKN003 OVC020 03/ RMK SF6SC2=
CYYG;2007-11-22 20:37;SPECI CYYG 222037Z 12008KT 10SM SCT004 OVC019 03/ RMK SF3SC5=
CYYG;2007-11-22 21:00;METAR CYYG 222100Z 13009KT 12SM FEW004 OVC018 03/02 A2990 RMK SF2SC6 SLP128=
CYYG;2007-11-22 22:00;METAR CYYG 222200Z 13007KT 15SM OVC016 04/02 A2987 RMK SC8 SLP118=
CYYG;2007-11-22 23:00;METAR CYYG 222300Z 16014KT 15SM OVC015 05/03 A2984 RMK SC8 SLP106=
CYYG;2007-11-22 23:19;SPECI CYYG 222319Z 16014G21KT 15SM OVC013 06/ RMK SC8=
CYYG;2007-11-23 00:00;METAR CYYG 230000Z 17018KT 15SM OVC011 06/04 A2979 RMK SC8 SLP091=
CYYG;2007-11-23 01:00;METAR CYYG 230100Z 17018G25KT 15SM OVC009 07/04 A2977 RMK SC8 SLP082=
CYYG;2007-11-23 02:00;METAR CYYG 230200Z 17020G30KT 15SM OVC008 07/05 A2973 RMK SF8 SLP068=
CYYG;2007-11-23 03:00;METAR CYYG 230300Z 17024G33KT 15SM OVC006 07/05 A2968 RMK SF8 SLP052=
CYYG;2007-11-23 04:00;METAR CYYG 230400Z 17021G28KT 15SM OVC006 08/06 A2966 RMK SF8 SLP045=
CYYG;2007-11-23 04:37;SPECI CYYG 230437Z 16017G24KT 15SM OVC004 08/ RMK SF8=
CYYG;2007-11-23 05:00;METAR CYYG 230500Z 16015G20KT 15SM OVC004 09/07 A2963 RMK SF8 SLP035=
CYYG;2007-11-23 06:00;METAR CYYG 230600Z 17013KT 15SM OVC004 09/08 A2960 RMK SF8 SLP027=
CYYG;2007-11-23 07:00;METAR CYYG 230700Z 18018G23KT 15SM OVC005 11/09 A2958 RMK SF8 SLP020=
CYYG;2007-11-23 08:00;METAR CYYG 230800Z 18017G24KT 15SM OVC004 11/09 A2956 RMK SF8 SLP011=
CYYG;2007-11-23 08:36;SPECI CYYG 230836Z 18015KT 15SM -SHRA OVC004 11/ RMK SF8=
CYYG;2007-11-23 09:00;METAR CYYG 230900Z 18015G20KT 15SM -SHRA BKN003 OVC008 11/09 A2955 RMK SF6SF2 SLP006=
CYYG;2007-11-23 09:41;SPECI CYYG 230941Z 18019G25KT 10SM BKN003 OVC009 11/ RMK SF6SF2=
CYYG;2007-11-23 10:00;METAR CYYG 231000Z 18015G22KT 10SM BKN003 OVC009 11/10 A2954 RMK SF6SF2 SLP004=
CYYG;2007-11-23 10:40;SPECI CYYG 231040Z 18014KT 10SM -DZ BKN003 OVC009 12/ RMK SF6SF2=
CYYG;2007-11-23 11:00;METAR CYYG 231100Z 18014KT 5SM -DZ BR OVC002 12/10 A2954 RMK SF8 SLP003=
CYYG;2007-11-23 11:23;SPECI CYYG 231123Z 18012G17KT 2SM -DZ BR BKN003 OVC011 11/ RMK SF6SC2=
CYYG;2007-11-23 12:00;METAR CYYG 231200Z 19010G15KT 2 1/2SM -DZ BR OVC003 11/10 A2956 RMK SF8 SLP011=
CYYG;2007-11-23 13:00;METAR CYYG 231300Z 23009KT 3SM BR BKN003 OVC009 11/09 A2956 RMK SF7SC1 SLP012=
CYYG;2007-11-23 13:30;SPECI CYYG 231330Z 27012KT 2SM BR OVC002 10/ RMK SF8=
CYYG;2007-11-23 13:42;SPECI CYYG 231342Z 27010KT 4SM BR OVC003 10/ RMK SF8=
CYYG;2007-11-23 14:00;METAR CYYG 231400Z 27011G16KT 4SM BR OVC004 09/08 A2959 RMK SF8 SLP021=
CYYG;2007-11-23 14:36;SPECI CYYG 231436Z 29008KT 10SM -SHRA OVC004 07/ RMK SF8=
CYYG;2007-11-23 15:00;METAR CYYG 231500Z 28009G18KT 15SM FEW006 OVC011 06/04 A2961 RMK SF2SC6 SLP027=
CYYG;2007-11-23 15:13;SPECI CYYG 231513Z 29013KT 15SM FEW006 OVC008 06/ RMK SF1SC7=
CYYG;2007-11-23 16:00;METAR CYYG 231600Z 29014G21KT 15SM OVC006 04/02 A2962 RMK SF8 SLP030=
CYYG;2007-11-23 16:31;SPECI CYYG 231631Z 29016KT 15SM BKN008 BKN220 04/ RMK SC7CI1=
CYYG;2007-11-23 17:00;METAR CYYG 231700Z 28014G19KT 15SM BKN012 BKN250 03/00 A2965 RMK SC6CS2 SLP040=
CYYG;2007-11-23 17:35;SPECI CYYG 231735Z 27014KT 15SM OVC018 03/ RMK SC8=
CYYG;2007-11-23 18:00;METAR CYYG 231800Z 26009G15KT 15SM OVC018 03/M01 A2967 RMK SC8 SLP048=
CYYG;2007-11-23 19:00;METAR CYYG 231900Z 27009G16KT 15SM OVC020 03/M01 A2970 RMK SC8 SLP058=
CYYG;2007-11-23 19:43;SPECI CYYG 231943Z 29014G19KT 15SM -SHRA OVC020 03/ RMK SC8 VIS LWR W=
CYYG;2007-11-23 20:00;METAR CYYG 232000Z 28010G16KT 15SM -SHRA OVC020 03/M01 A2972 RMK SC8 SLP067=
CYYG;2007-11-23 20:11;SPECI CYYG 232011Z 29009G16KT 12SM -SHRASN BKN020 OVC035 03/ RMK SC7SC1=
CYYG;2007-11-23 21:00;METAR CYYG 232100Z 29009G16KT 15SM VCSH FEW020 BKN035 02/M02 A2975 RMK SC2SC5 SLP075=
CYYG;2007-11-23 21:13;SPECI CYYG 232113Z 29012KT 10SM -SHSN BKN017 OVC035 02/ RMK SC6SC2=
CYYG;2007-11-23 22:00;METAR CYYG 232200Z 30011G18KT 10SM -SHSN BKN018 OVC035 01/M02 A2978 RMK SC6SC2 SLP085=
CYYG;2007-11-23 22:40;SPECI CYYG 232240Z 29009KT 15SM BKN022 OVC035 01/ RMK SC6SC2=
CYYG;2007-11-23 23:00;METAR CYYG 232300Z 28007KT 15SM FEW020 OVC026 01/M02 A2980 RMK CF1SC7 SLP093=
CYYG;2007-11-24 00:00;METAR CYYG 240000Z 31014KT 15SM FEW018 OVC021 00/M04 A2981 RMK SC1SC7 SLP097=
CYYG;2007-11-24 01:00;METAR CYYG 240100Z 30011G16KT 15SM OVC021 M01/M05 A2983 RMK SC8 SLP103=
CYYG;2007-11-24 02:00;METAR CYYG 240200Z 30010G15KT 15SM OVC023 M01/M06 A2985 RMK SC8 SLP109=
CYYG;2007-11-24 03:00;METAR CYYG 240300Z 29010G16KT 15SM OVC035 M01/M06 A2987 RMK SC8 SLP118=
CYYG;2007-11-24 04:00;METAR CYYG 240400Z 29011G19KT 15SM -SHSN OVC034 M02/M07 A2987 RMK SC8 SLP119=
CYYG;2007-11-24 05:00;METAR CYYG 240500Z 29009G17KT 15SM -SHSN OVC031 M02/M07 A2989 RMK SC8 SLP125=
CYYG;2007-11-24 06:00;METAR CYYG 240600Z 29012KT 15SM -SHSN OVC030 M03/M07 A2991 RMK SC8 SLP130=
CYYG;2007-11-24 07:00;METAR CYYG 240700Z 29014KT 15SM -SHSN OVC033 M03/M07 A2992 RMK SC8 SLP135=
CYYG;2007-11-24 08:00;METAR CYYG 240800Z 29014G19KT 15SM -SHSN OVC034 M04/M07 A2994 RMK SC8 SLP140=
CYYG;2007-11-24 09:00;METAR CYYG 240900Z CCA 29014G20KT 12SM -SHSN FEW018 OVC040 M04/M08 A2996 RMK CF1SC7 SLP147=
CYYG;2007-11-24 10:00;METAR CYYG 241000Z 29014G20KT 12SM -SHSN OVC032 M05/M09 A2998 RMK SC8 SLP156=
CYYG;2007-11-24 11:00;METAR CYYG 241100Z 29012G19KT 12SM -SHSN OVC033 M05/M09 A3001 RMK SC8 SLP164=
CYYG;2007-11-24 12:00;METAR CYYG 241200Z 31015G21KT 8SM -SHSN OVC026 M05/M11 A3004 RMK SC8 SLP176=
CYYG;2007-11-24 13:00;METAR CYYG 241300Z 29016G21KT 6SM -SHSN OVC030 M06/M11 A3006 RMK SC8 SLP184=
CYYG;2007-11-24 14:00;METAR CYYG 241400Z 31015G21KT 3SM -SN OVC029 M06/M10 A3009 RMK SC8 SLP194=
CYYG;2007-11-24 15:00;METAR CYYG 241500Z 29017KT 4SM -SN OVC029 M06/M11 A3010 RMK SC8 SLP195=
CYYG;2007-11-24 16:00;METAR CYYG 241600Z 29014G21KT 4SM -SN OVC027 M06/M12 A3011 RMK SC8 SLP198=
CYYG;2007-11-24 17:00;METAR CYYG 241700Z 29016G22KT 8SM -SN OVC030 M06/M12 A3010 RMK SC8 SLP197=
CYYG;2007-11-24 18:00;METAR CYYG 241800Z 29013G18KT 8SM -SN OVC033 M05/M12 A3011 RMK SC8 SLP198=
CYYG;2007-11-24 19:00;METAR CYYG 241900Z 31014G19KT 12SM -SHSN BKN033 M05/M13 A3012 RMK SC7 SLP202=
CYYG;2007-11-24 20:00;METAR CYYG 242000Z 31013G18KT 15SM BKN035 M05/M13 A3014 RMK SC7 SLP209=
CYYG;2007-11-24 21:00;METAR CYYG 242100Z 30012G17KT 15SM VCSH BKN038 M05/M13 A3016 RMK SC7 SLP216=
CYYG;2007-11-24 22:00;METAR CYYG 242200Z 32011G17KT 15SM -SHSN BKN036 M05/M12 A3016 RMK SC7 SLP217=
CYYG;2007-11-24 22:47;SPECI CYYG 242247Z 31009KT 15SM BKN033 M06/M12 RMK SC3=
CYYG;2007-11-24 23:00;METAR CYYG 242300Z 32010KT 15SM BKN035 M06/M12 A3017 RMK SC3 SLP221=
CYYG;2007-11-25 00:00;METAR CYYG 250000Z 30009KT 15SM BKN034 M06/M13 A3019 RMK SC6 SLP226=
CYYG;2007-11-25 01:00;METAR CYYG 250100Z 28014KT 15SM BKN032 M06/M13 A3020 RMK SC7 SLP231=
CYYG;2007-11-25 01:04;SPECI CYYG 250104Z 28016KT 15SM -SHSN BKN032 M06/ RMK SC7=
CYYG;2007-11-25 02:00;METAR CYYG 250200Z CCA 29013G19KT 15SM -SHSN BKN029 M06/M12 A3021 RMK SC7 SLP232=
CYYG;2007-11-25 03:00;METAR CYYG 250300Z 28010G19KT 15SM -SHSN BKN027 M07/M12 A3022 RMK SC7 SLP237=
CYYG;2007-11-25 03:51;SPECI CYYG 250351Z 29006KT 15SM BKN024 M07/ RMK SC6=
CYYG;2007-11-25 04:00;METAR CYYG 250400Z 28007KT 15SM BKN024 M07/M12 A3023 RMK SC7 SLP241=
CYYG;2007-11-25 05:00;METAR CYYG 250500Z 29008KT 15SM -SHSN BKN018 M08/M12 A3022 RMK SC6 SLP237=
CYYG;2007-11-25 06:00;METAR CYYG 250600Z 27006KT 15SM -SHSN OVC018 M07/M11 A3022 RMK SC8 SLP236=
CYYG;2007-11-25 07:00;METAR CYYG 250700Z 27004KT 15SM -SHSN OVC013 M07/M11 A3022 RMK SC8 SLP236=
CYYG;2007-11-25 08:00;METAR CYYG 250800Z 25007KT 15SM SCT012 BKN100 M07/M10 A3022 RMK SC3AC2 SLP235=
CYYG;2007-11-25 09:00;METAR CYYG 250900Z 25009KT 15SM FEW012 OVC070 M07/M11 A3021 RMK SC2AS6 SLP233=
CYYG;2007-11-25 10:00;METAR CYYG 251000Z 26008KT 15SM OVC070 M07/M11 A3021 RMK AS6 SLP232=
CYYG;2007-11-25 11:00;METAR CYYG 251100Z 25006KT 15SM FEW012 OVC075 M06/M11 A3020 RMK SC1AS6 SLP228=
CYYG;2007-11-25 12:00;METAR CYYG 251200Z 25007KT 15SM FEW015 BKN075 M06/M11 A3021 RMK SC1AS3 SLP233=
CYYG;2007-11-25 13:00;METAR CYYG 251300Z 23008KT 15SM BKN100 M03/M09 A3020 RMK AS3 SLP230=
CYYG;2007-11-25 14:00;METAR CYYG 251400Z 24011KT 15SM FEW020 SCT100 BKN220 M01/M07 A3019 RMK SC1AS2CI1 SLP226=
CYYG;2007-11-25 15:00;METAR CYYG 251500Z 22011G16KT 15SM FEW020 SCT100 BKN220 M00/M06 A3016 RMK SC1AS2CI1 SLP217=
CYYG;2007-11-25 16:00;METAR CYYG 251600Z 21009G16KT 15SM FEW020 SCT100 BKN220 01/M05 A3012 RMK SC1AS1CI1 SLP202=
CYYG;2007-11-25 17:00;METAR CYYG 251700Z 22014G20KT 15SM SCT023 BKN230 02/M04 A3009 RMK SC2CI2 SLP193=
CYYG;2007-11-25 18:00;METAR CYYG 251800Z 21017G24KT 15SM BKN026 02/M04 A3007 RMK SC6 SLP185=
CYYG;2007-11-25 19:00;METAR CYYG 251900Z 22012G18KT 15SM OVC028 03/M03 A3006 RMK SC8 SLP182=
CYYG;2007-11-25 20:00;METAR CYYG 252000Z 22014G20KT 15SM BKN027 03/M02 A3006 RMK SC6 SLP182=
CYYG;2007-11-25 21:00;METAR CYYG 252100Z 22016KT 15SM OVC028 03/M01 A3006 RMK SC8 SLP181=
CYYG;2007-11-25 22:00;METAR CYYG 252200Z 23011G17KT 15SM SCT023 BKN049 03/M01 A3006 RMK SC3SC3 SLP183=
CYYG;2007-11-25 23:00;METAR CYYG 252300Z 26008KT 15SM BKN039 03/M02 A3007 RMK SC6 SLP186=
CYYG;2007-11-26 00:00;METAR CYYG 260000Z 26009KT 15SM FEW040 OVC250 03/M05 A3009 RMK SC2CS1 SLP192=
CYYG;2007-11-26 01:00;METAR CYYG 260100Z 25010G15KT 15SM OVC250 03/M05 A3009 RMK CS2 SLP193=
CYYG;2007-11-26 02:00;METAR CYYG 260200Z 25007KT 15SM FEW040 OVC250 03/M05 A3011 RMK SC2CS1 SLP198=
CYYG;2007-11-26 03:00;METAR CYYG 260300Z 25008G15KT 15SM FEW040 OVC250 02/M04 A3012 RMK SC2CS2 SLP202=
CYYG;2007-11-26 04:00;METAR CYYG 260400Z 25009KT 15SM FEW250 02/M04 A3013 RMK CI0 SLP205=
CYYG;2007-11-26 05:00;METAR CYYG 260500Z 25009KT 15SM BKN042 BKN110 03/M04 A3014 RMK SC5AC1 SLP210=
CYYG;2007-11-26 06:00;METAR CYYG 260600Z 25009KT 15SM BKN036 04/M04 A3015 RMK SC7 SLP211=
CYYG;2007-11-26 07:00;METAR CYYG 260700Z 23006KT 15SM SCT037 03/M04 A3014 RMK SC4 SLP209=
CYYG;2007-11-26 08:00;METAR CYYG 260800Z 24007KT 15SM FEW037 03/M03 A3014 RMK SC2 SLP210=
CYYG;2007-11-26 09:00;METAR CYYG 260900Z 22006KT 15SM BKN160 03/M02 A3014 RMK AC6 SLP210=
CYYG;2007-11-26 10:00;METAR CYYG 261000Z 22008KT 15SM FEW170 BKN180 03/M02 A3013 RMK AC2AC4 SLP205=
CYYG;2007-11-26 11:00;METAR CYYG 261100Z 22010KT 15SM BKN130 03/M01 A3013 RMK AC5 SLP205=
CYYG;2007-11-26 12:00;METAR CYYG 261200Z 19011KT 15SM FEW130 BKN210 04/00 A3012 RMK AC1CC7 SLP202=
CYYG;2007-11-26 13:00;METAR CYYG 261300Z 20012G17KT 15SM FEW130 BKN180 OVC210 04/00 A3011 RMK AC1CC6CI1 SLP199=
CYYG;2007-11-26 14:00;METAR CYYG 261400Z 21012G18KT 15SM FEW040 BKN200 05/00 A3012 RMK SC1CC6 SLP201=
CYYG;2007-11-26 15:00;METAR CYYG 261500Z 21012G17KT 15SM FEW040 FEW140 BKN180 06/00 A3010 RMK SC1AC2AC5 SLP194=
CYYG;2007-11-26 16:00;METAR CYYG 261600Z 21012KT 15SM FEW110 FEW180 07/00 A3008 RMK AC1AC2 SLP189=
CYYG;2007-11-26 17:00;METAR CYYG 261700Z 23014G19KT 15SM FEW025 BKN093 BKN180 07/M00 A3008 RMK SC1AC6AC2 SLP187=
CYYG;2007-11-26 18:00;METAR CYYG 261800Z 22015G22KT 15SM FEW025 BKN072 BKN085 07/00 A3005 RMK SC1AC6AC2 SLP179=
CYYG;2007-11-26 19:00;METAR CYYG 261900Z 22014KT 15SM BKN025 BKN070 07/02 A3006 RMK SC5AC2 SLP182=
CYYG;2007-11-26 20:00;METAR CYYG 262000Z 23013G18KT 15SM BKN020 OVC035 07/03 A3007 RMK SC6SC2 SLP186=
CYYG;2007-11-26 21:00;METAR CYYG 262100Z 23010G17KT 15SM OVC016 07/03 A3008 RMK SC8 SLP188=
CYYG;2007-11-26 21:42;SPECI CYYG 262142Z 23009G17KT 15SM OVC014 07/ RMK SC8=
CYYG;2007-11-26 22:00;METAR CYYG 262200Z 23009G15KT 15SM OVC013 07/03 A3007 RMK SC8 SLP186=
CYYG;2007-11-26 22:25;SPECI CYYG 262225Z 24010KT 15SM -SHRA OVC012 06/ RMK SC8=
CYYG;2007-11-26 23:00;METAR CYYG 262300Z 22008KT 12SM BKN012 OVC050 06/04 A3008 RMK SC7SC1 SLP189=
CYYG;2007-11-27 00:00;METAR CYYG 270000Z 23005KT 15SM SCT009 OVC018 06/04 A3008 RMK SF3SC5 SLP188=
CYYG;2007-11-27 00:08;SPECI CYYG 270008Z 23005KT 15SM BKN009 OVC013 06/ RMK SF6SC2=
CYYG;2007-11-27 01:00;METAR CYYG 270100Z 22002KT 15SM BKN009 OVC020 06/03 A3008 RMK SF6SC2 SLP187=
CYYG;2007-11-27 02:00;METAR CYYG 270200Z 19004KT 15SM FEW008 BKN013 OVC031 05/04 A3006 RMK SF2SC5SC2 SLP182=
CYYG;2007-11-27 02:49;SPECI CYYG 270249Z 19003KT 15SM BKN004 BKN017 OVC025 06/ RMK SF5SC2SC2=
CYYG;2007-11-27 03:00;METAR CYYG 270300Z 18004KT 15SM BKN004 OVC024 06/04 A3003 RMK SF5SC3 SLP171=
CYYG;2007-11-27 03:03;SPECI CYYG 270303Z 18003KT 10SM -RA BKN004 OVC024 06/ RMK SF6SC2=
CYYG;2007-11-27 03:21;SPECI CYYG 270321Z 16003KT 10SM -RA FEW004 OVC020 05/ RMK SF2SC6=
CYYG;2007-11-27 04:00;METAR CYYG 270400Z 14002KT 10SM -RA FEW011 OVC019 05/04 A3002 RMK SF2SC6 SLP166=
CYYG;2007-11-27 04:41;SPECI CYYG 270441Z 12003KT 1SM R03/P6000FT/D -RA BR BKN002 OVC013 05/ RMK SF6SC2=
CYYG;2007-11-27 05:00;METAR CYYG 270500Z 13004KT 3/4SM R03/3500V6000FT/D -RA BR VV002 05/04 A2996 RMK FG8 SLP148=
CYYG;2007-11-27 06:00;METAR CYYG 270600Z 14006KT 2SM -RA BR OVC002 05/04 A2993 RMK SF8 SLP135=
CYYG;2007-11-27 07:00;METAR CYYG 270700Z 13008KT 2SM -RA BR OVC002 05/04 A2987 RERA RMK SF8 SLP118=
CYYG;2007-11-27 08:00;METAR CYYG 270800Z 13009KT 2SM -RA BR OVC002 05/04 A2980 RMK SF8 PRESFR SLP093=
CYYG;2007-11-27 09:00;METAR CYYG 270900Z 12011G16KT 5SM RA BR OVC002 05/04 A2971 RMK SF8 PRESFR SLP064=
CYYG;2007-11-27 10:00;METAR CYYG 271000Z 13013G19KT 5SM -RA BR OVC003 06/05 A2960 RERA RMK SF8 PRESFR /R10/ SLP026=
CYYG;2007-11-27 11:00;METAR CYYG 271100Z 16013KT 15SM -RA BKN003 OVC009 08/07 A2955 RERA RMK SF6SF2 SLP008=
CYYG;2007-11-27 12:00;METAR CYYG 271200Z 19011KT 3SM -RA BR BKN002 OVC014 09/08 A2950 RMK SF6SC2 SLP992=
CYYG;2007-11-27 13:00;METAR CYYG 271300Z 21008KT 2SM -DZ BR OVC003 11/10 A2949 RMK SF8 SLP986=
CYYG;2007-11-27 13:23;SPECI CYYG 271323Z 24010KT 1SM R03/4500VP6000FT/D -RADZ BR OVC003 12/ RMK SF8=
CYYG;2007-11-27 14:00;METAR CYYG 271400Z 25018G29KT 1 1/2SM R03/6000FT/N -RADZ BR BKN002 OVC008 13/11 A2950 RMK SF6SC2 SLP989=
CYYG;2007-11-27 14:17;SPECI CYYG 271417Z 25016G25KT 6SM -RA BR FEW002 BKN008 OVC030 13/ RMK SF1SC6SC2=
CYYG;2007-11-27 15:00;METAR CYYG 271500Z 24020G29KT 6SM -RA BR BKN009 OVC015 12/10 A2950 RMK SF7SC1 SLP991=
CYYG;2007-11-27 15:20;SPECI CYYG 271520Z 24014G24KT 15SM BKN009 OVC018 12/ RMK SF7SC1=
CYYG;2007-11-27 16:00;METAR CYYG 271600Z 25013G22KT 15SM BKN009 BKN018 OVC035 12/09 A2949 RMK SF7SC1SC1 SLP988=
CYYG;2007-11-27 16:45;SPECI CYYG 271645Z 26011G19KT 4SM BR OVC003 11/ RMK SF8=
CYYG;2007-11-27 17:00;METAR CYYG 271700Z 25010KT 5SM BR OVC004 11/10 A2951 RMK SF8 SLP993=
CYYG;2007-11-27 18:00;METAR CYYG 271800Z 27006KT 5SM BR OVC003 09/07 A2951 RMK SF8 SLP994=
CYYG;2007-11-27 19:00;METAR CYYG 271900Z 31009KT 3SM BR OVC002 08/06 A2953 RMK ST8 SLP000=
CYYG;2007-11-27 19:13;SPECI CYYG 271913Z 30009KT 3SM BR OVC003 07/ RMK ST8=
CYYG;2007-11-27 19:30;SPECI CYYG 271930Z 29008KT 3SM BR BKN004 OVC007 07/ RMK SF7SF1=
CYYG;2007-11-27 20:00;METAR CYYG 272000Z 29006KT 10SM BKN005 OVC015 07/05 A2955 RMK SF7SC1 SLP007=
CYYG;2007-11-27 20:06;SPECI CYYG 272006Z 28009KT 15SM FEW005 OVC015 07/ RMK SF2SC6=
CYYG;2007-11-27 20:35;SPECI CYYG 272035Z 28006KT 10SM -SHRA FEW005 OVC020 07/ RMK SF2SC6=
CYYG;2007-11-27 21:00;METAR CYYG 272100Z 28008KT 10SM -SHRA SCT008 OVC022 07/04 A2956 RMK SF3SC5 SLP011=
CYYG;2007-11-27 21:34;SPECI CYYG 272134Z 30007KT 15SM BKN008 OVC025 06/ RMK SF6SC2=
CYYG;2007-11-27 22:00;METAR CYYG 272200Z 30010KT 15SM FEW008 OVC023 06/03 A2955 RMK SF2SC6 SLP008=
CYYG;2007-11-27 22:12;SPECI CYYG 272212Z 29010G15KT 15SM OVC008 05/ RMK SF8=
CYYG;2007-11-27 23:00;METAR CYYG 272300Z 29008G15KT 15SM BKN008 OVC031 05/03 A2957 RMK SF6SC2 SLP013=
CYYG;2007-11-28 00:00;METAR CYYG 280000Z 28012G20KT 15SM OVC011 05/02 A2959 RMK SC8 SLP022=
CYYG;2007-11-28 01:00;METAR CYYG 280100Z 28015G20KT 15SM OVC014 04/00 A2962 RMK SC8 SLP031=
CYYG;2007-11-28 02:00;METAR CYYG 280200Z 28012G27KT 15SM OVC020 03/M01 A2962 RMK SC8 SLP032=
CYYG;2007-11-28 03:00;METAR CYYG 280300Z 28012G19KT 15SM OVC024 03/M01 A2965 RMK SC8 SLP042=
CYYG;2007-11-28 04:00;METAR CYYG 280400Z 26011KT 15SM OVC024 03/M01 A2966 RMK SC8 SLP044=
CYYG;2007-11-28 05:00;METAR CYYG 280500Z 26010G15KT 15SM BKN025 03/M01 A2967 RMK SC5 SLP048=
CYYG;2007-11-28 06:00;METAR CYYG 280600Z 27010G15KT 15SM FEW025 BKN042 03/M01 A2968 RMK SC2SC3 SLP053=
CYYG;2007-11-28 07:00;METAR CYYG 280700Z 27011G16KT 15SM FEW024 BKN042 03/M02 A2971 RMK SC1SC6 SLP061=
CYYG;2007-11-28 08:00;METAR CYYG 280800Z 27015G20KT 15SM BKN047 02/M03 A2972 RMK SC7 SLP065=
CYYG;2007-11-28 09:00;METAR CYYG 280900Z 26015G22KT 15SM FEW025 OVC051 02/M03 A2975 RMK SC2SC6 SLP075=
CYYG;2007-11-28 10:00;METAR CYYG 281000Z 26011G17KT 15SM FEW027 BKN048 02/M03 A2977 RMK SC2SC6 SLP083=
CYYG;2007-11-28 11:00;METAR CYYG 281100Z 29017G25KT 15SM BKN029 BKN048 02/M04 A2981 RMK SC5SC2 SLP095=
CYYG;2007-11-28 11:40;SPECI CYYG 281140Z 30020G27KT 15SM -SHSN OVC026 01/ RMK SC8=
CYYG;2007-11-28 12:00;METAR CYYG 281200Z 29019G26KT 6SM -SHSN OVC024 01/M04 A2987 RMK SC8 PRESRR SLP117=
CYYG;2007-11-28 13:00;METAR CYYG 281300Z 29017G22KT 15SM -SHSN FEW020 OVC025 00/M05 A2992 RMK SC2SC6 SLP133=
CYYG;2007-11-28 14:00;METAR CYYG 281400Z 29017G22KT 15SM OVC025 M01/M06 A2998 RMK SC8 PRESRR OCNL -SHSN SLP155=
CYYG;2007-11-28 14:21;SPECI CYYG 281421Z 29013G21KT 15SM OVC023 M01/ RMK SC8=
CYYG;2007-11-28 15:00;METAR CYYG 281500Z 29014G24KT 15SM OVC024 M01/M07 A3005 RMK SC8 PRESRR SLP178=
CYYG;2007-11-28 16:00;METAR CYYG 281600Z 30013G19KT 15SM OVC026 M02/M08 A3007 RMK SC8 SLP185=
CYYG;2007-11-28 17:00;METAR CYYG 281700Z 30013G19KT 15SM OVC025 M03/M08 A3012 RMK SC8 SLP202=
CYYG;2007-11-28 18:00;METAR CYYG 281800Z 30013G18KT 15SM OVC025 M03/M08 A3015 RMK SC8 SLP211=
CYYG;2007-11-28 19:00;METAR CYYG 281900Z 30009G19KT 15SM OVC026 M03/M08 A3019 RMK SC8 SLP224=
CYYG;2007-11-28 20:00;METAR CYYG 282000Z 32009KT 15SM BKN024 M03/M08 A3023 RMK SC7 SLP238=
CYYG;2007-11-28 21:00;METAR CYYG 282100Z 31011G17KT 15SM FEW024 SCT250 M04/M09 A3028 RMK SC2CI1 SLP255=
CYYG;2007-11-28 22:00;METAR CYYG 282200Z 31009KT 15SM FEW025 FEW250 M04/M10 A3030 RMK SC2CI0 SLP264=
CYYG;2007-11-28 23:00;METAR CYYG 282300Z 30009KT 15SM FEW026 M05/M11 A3034 RMK SC2 SLP278=
CYYG;2007-11-29 00:00;METAR CYYG 290000Z 30007G15KT 15SM BKN026 M05/M11 A3036 RMK SC7 SLP285=
CYYG;2007-11-29 01:00;METAR CYYG 290100Z 29005KT 15SM BKN026 M05/M10 A3037 RMK SC7 SLP286=
CYYG;2007-11-29 02:00;METAR CYYG 290200Z 27008KT 15SM BKN025 M05/M10 A3037 RMK SC7 SLP288=
CYYG;2007-11-29 03:00;METAR CYYG 290300Z 26008KT 15SM BKN028 M05/M10 A3040 RMK SC7 SLP296=
CYYG;2007-11-29 04:00;METAR CYYG 290400Z 26007KT 15SM OVC033 M06/M10 A3041 RMK SC8 SLP299=
CYYG;2007-11-29 05:00;METAR CYYG 290500Z 26007KT 15SM BKN031 M06/M10 A3039 RMK SC6 SLP292=
CYYG;2007-11-29 06:00;METAR CYYG 290600Z 28003KT 15SM SCT030 M07/M10 A3039 RMK SC3 SLP294=
CYYG;2007-11-29 07:00;METAR CYYG 290700Z 26004KT 15SM FEW030 M06/M10 A3040 RMK SC2 SLP297=
CYYG;2007-11-29 08:00;METAR CYYG 290800Z 26004KT 15SM FEW030 SCT140 M06/M10 A3039 RMK SC2AC2 SLP295=
CYYG;2007-11-29 09:00;METAR CYYG 290900Z 26003KT 15SM FEW140 SCT220 M06/M10 A3040 RMK AC1CI2 SLP297=
CYYG;2007-11-29 10:00;METAR CYYG 291000Z 00000KT 15SM FEW022 FEW100 SCT200 M06/M08 A3038 RMK SC2AC1CI2 SLP290=
CYYG;2007-11-29 11:00;METAR CYYG 291100Z 25003KT 15SM BKN018 BKN100 M05/M08 A3038 RMK SC6AC1 SLP290=
CYYG;2007-11-29 12:00;METAR CYYG 291200Z 18006KT 15SM BKN019 BKN100 M04/M06 A3034 RMK SC6AC1 SLP277=
CYYG;2007-11-29 13:00;METAR CYYG 291300Z 18010KT 15SM BKN019 OVC069 M02/M06 A3034 RMK SC5AS3 SLP278=
CYYG;2007-11-29 14:00;METAR CYYG 291400Z 19010KT 15SM SCT019 OVC042 M02/M08 A3032 RMK SC3SC5 SLP271=
CYYG;2007-11-29 14:18;SPECI CYYG 291418Z 21012G18KT 12SM -SHSN BKN020 OVC055 M02/ RMK SC6SC2=
CYYG;2007-11-29 15:00;METAR CYYG 291500Z 19013KT 15SM -SHSN BKN020 OVC060 M02/M06 A3030 RMK SC5SC3 SLP262=
CYYG;2007-11-29 16:00;METAR CYYG 291600Z 17014KT 15SM -SHSN BKN017 OVC058 M00/M04 A3023 RMK SC5SC3 SLP239=
CYYG;2007-11-29 16:46;SPECI CYYG 291646Z 18014G20KT 15SM BKN016 OVC060 01/ RMK SC6SC2=
CYYG;2007-11-29 17:00;METAR CYYG 291700Z 17017G24KT 15SM BKN016 OVC060 01/M03 A3016 RMK SC6SC2 SLP216=
CYYG;2007-11-29 18:00;METAR CYYG 291800Z 17017G22KT 15SM BKN016 OVC066 02/M02 A3010 RMK SC6SC2 PRESFR SLP195=
CYYG;2007-11-29 19:00;METAR CYYG 291900Z 16015G22KT 15SM BKN018 OVC120 02/M02 A3005 RMK SC6AS2 SLP180=
CYYG;2007-11-29 20:00;METAR CYYG 292000Z 18016G22KT 15SM FEW018 OVC044 04/M01 A3001 RMK SC2SC6 SLP166=
CYYG;2007-11-29 20:36;SPECI CYYG 292036Z 18017G24KT 10SM -SHRA OVC038 04/ RMK SC8=
CYYG;2007-11-29 21:00;METAR CYYG 292100Z 18016G22KT 12SM -SHRA OVC033 04/M00 A2995 RMK SC8 PRESFR SLP144=
CYYG;2007-11-29 22:00;METAR CYYG 292200Z 18019G29KT 10SM -RA OVC020 04/00 A2990 RMK SC8 SLP129=
CYYG;2007-11-29 23:00;METAR CYYG 292300Z 18020G26KT 10SM -RA OVC029 04/01 A2986 RMK SC8 SLP113=
CYYG;2007-11-30 00:00;METAR CYYG 300000Z 18017G22KT 12SM -RA SCT020 OVC030 04/02 A2980 RMK SC3SC5 SLP095=
CYYG;2007-11-30 01:00;METAR CYYG 300100Z 18016G21KT 12SM -RA BKN016 OVC030 05/03 A2975 RMK SC6SC2 SLP077=
CYYG;2007-11-30 02:00;METAR CYYG 300200Z 18015G20KT 12SM -RA BKN015 OVC030 06/04 A2970 RMK SC5SC3 SLP060=
CYYG;2007-11-30 02:27;SPECI CYYG 300227Z 19014KT 12SM -RA FEW006 BKN010 OVC025 06/ RMK SF2SC5SC2=
CYYG;2007-11-30 03:00;METAR CYYG 300300Z 19012G17KT 12SM -RA FEW006 SCT010 OVC025 06/05 A2967 RMK SF2SC2SC4 SLP048=
CYYG;2007-11-30 04:00;METAR CYYG 300400Z 25012G18KT 15SM -RA SCT009 OVC020 06/04 A2969 RMK SC4SC4 SLP054=
CYYG;2007-11-30 05:00;METAR CYYG 300500Z 26010G15KT 15SM -SHRA SCT010 OVC019 05/02 A2968 RMK SC3SC5 SLP052=
CYYG;2007-11-30 06:00;METAR CYYG 300600Z 27010KT 15SM -SHRA FEW012 BKN020 OVC100 04/01 A2970 RMK SC2SC2AC3 SLP058=
CYYG;2007-11-30 06:20;SPECI CYYG 300620Z 27007KT 15SM FEW012 SCT020 BKN100 03/ RMK SC2SC2AC3=
CYYG;2007-11-30 07:00;METAR CYYG 300700Z 25007KT 15SM FEW015 BKN080 04/01 A2970 RMK SC2AC5 SLP058=
CYYG;2007-11-30 08:00;METAR CYYG 300800Z 28008G16KT 15SM FEW015 SCT036 BKN080 03/01 A2969 RMK SC2SC2AC4 SLP055=
CYYG;2007-11-30 09:00;METAR CYYG 300900Z 25008KT 15SM FEW015 FEW036 BKN075 03/M00 A2969 RMK SC2SC1AC5 SLP055=
CYYG;2007-11-30 10:00;METAR CYYG 301000Z 26011G16KT 15SM FEW018 BKN075 03/M01 A2969 RMK SC2AC4 SLP056=
CYYG;2007-11-30 11:00;METAR CYYG 301100Z 26012G19KT 15SM FEW018 BKN075 02/M02 A2971 RMK SC2AC4 SLP063=
CYYG;2007-11-30 12:00;METAR CYYG 301200Z 27011G18KT 15SM FEW018 BKN075 BKN180 01/M04 A2975 RMK SC2AC3AC1 SLP075=
CYYG;2007-11-30 13:00;METAR CYYG 301300Z 27012KT 15SM SCT033 SCT075 BKN180 00/M05 A2976 RMK SC3AC1AC2 SLP080=
CYYG;2007-11-30 14:00;METAR CYYG 301400Z 28015G22KT 15SM FEW035 00/M06 A2978 RMK SC2 SLP085=
CYYG;2007-11-30 15:00;METAR CYYG 301500Z 28012G20KT 15SM FEW028 FEW180 M00/M06 A2979 RMK SC2AC1 SLP089=
CYYG;2007-11-30 15:53;SPECI CYYG 301553Z 28014G20KT 15SM -SHSN BKN028 M00/ RMK SC7=
CYYG;2007-11-30 16:00;METAR CYYG 301600Z 29015G20KT 15SM -SHSN BKN028 BKN040 M00/M06 A2979 RMK SC6SC1 SLP091=
CYYG;2007-11-30 17:00;METAR CYYG 301700Z 28011G19KT 12SM -SHSN SCT030 BKN046 M00/M07 A2980 RMK SC4SC3 SLP092=
CYYG;2007-11-30 18:00;METAR CYYG 301800Z 28012G24KT 15SM SCT030 BKN041 00/M09 A2980 RMK SC4SC3 OCNL -SHSN SLP093=
CYYG;2007-11-30 19:00;METAR CYYG 301900Z 28014G20KT 15SM -SHSN BKN045 M01/M10 A2983 RMK SC7 SLP103=
CYYG;2007-11-30 21:00;METAR CYYG 302100Z 29010G15KT 15SM -SHSN SCT045 M02/M11 A2988 RMK SC4 SLP120=
CYYG;2007-11-30 22:00;METAR CYYG 302200Z 29013G22KT 15SM BKN037 M02/M11 A2990 RMK SC5 OCNL -SHSN SLP129=
CYYG;2007-11-30 23:00;METAR CYYG 302300Z 28015G20KT 15SM -SHSN SCT045 M03/M11 A2993 RMK SC4 PCPN VRY LGT SLP138=
CYYG;2007-11-30 23:41;SPECI CYYG 302341Z 29013G18KT 15SM SCT045 M03/ RMK SC3=
CYYG;2007-12-01 00:00;METAR CYYG 010000Z 29013G18KT 15SM SCT110 M04/M12 A2994 RMK AC3 SLP142=
CYYG;2007-12-01 01:00;METAR CYYG 010100Z 29013G18KT 15SM FEW100 M04/M12 A2995 RMK AC2 SLP144=
CYYG;2007-12-01 02:00;METAR CYYG 010200Z 27005KT 15SM FEW040 M05/M12 A2996 RMK SC2 SLP149=
CYYG;2007-12-01 03:00;METAR CYYG 010300Z 28007KT 15SM FEW040 M05/M12 A2997 RMK SC2 SLP150=
CYYG;2007-12-01 04:00;METAR CYYG 010400Z 27005KT 15SM FEW040 SCT110 M05/M12 A2997 RMK SC2AC1 SLP152=
CYYG;2007-12-01 05:00;METAR CYYG 010500Z 28004KT 15SM FEW076 SCT100 M06/M12 A2996 RMK AC2AC2 SLP149=
CYYG;2007-12-01 06:00;METAR CYYG 010600Z 13003KT 15SM FEW070 SCT086 M06/M10 A2992 RMK AC2AC2 SLP135=
CYYG;2007-12-01 07:00;METAR CYYG 010700Z 17004KT 15SM SCT064 BKN091 M06/M10 A2990 RMK SC2AC2 SLP126=
CYYG;2007-12-01 08:00;METAR CYYG 010800Z 00000KT 15SM SCT038 BKN056 M05/M09 A2986 RMK SC2SC3 SLP115=
CYYG;2007-12-01 09:00;METAR CYYG 010900Z 15004KT 10SM -SHSN SCT010 OVC028 M04/M09 A2983 RMK SC3SC5 SLP103=
CYYG;2007-12-01 10:00;METAR CYYG 011000Z 15006KT 10SM -SHSN SCT012 BKN026 M05/M07 A2978 RMK SC2SC3 SLP087=
CYYG;2007-12-01 10:35;SPECI CYYG 011035Z 14007KT 4SM -SHSN BKN008 BKN018 M04/ RMK SF5SC2=
CYYG;2007-12-01 11:00;METAR CYYG 011100Z 12007KT 3SM -SHSN OVC009 M04/M06 A2975 RMK SF8 SLP076=
CYYG;2007-12-01 11:40;SPECI CYYG 011140Z 09006KT 1 1/2SM -SHSN BKN008 OVC016 M04/ RMK SF6SC2=
CYYG;2007-12-01 12:00;METAR CYYG 011200Z 09007KT 1SM R03/6000FT/D -SN VV007 M04/M06 A2973 RMK SN8 /S01/ SLP069=
CYYG;2007-12-01 12:14;SPECI CYYG 011214Z 09007KT 3SM -SN SCT007 OVC014 M04/ RMK SF3SC5=
CYYG;2007-12-01 12:53;SPECI CYYG 011253Z 09004KT 2SM -SN BKN006 BKN014 M04/ RMK SF5SC1=
CYYG;2007-12-01 13:00;METAR CYYG 011300Z 09005KT 2SM -SN BKN006 BKN013 M04/M06 A2970 RMK SF5SC1 SLP061=
CYYG;2007-12-01 13:34;SPECI CYYG 011334Z 09004KT 3/4SM R03/P6000FT/D -SN VV006 M04/ RMK SN8=
CYYG;2007-12-01 14:00;METAR CYYG 011400Z 03003KT 2SM -SN SCT006 BKN014 M04/M05 A2969 RMK SF4SC2 /S01/ SLP055=
CYYG;2007-12-01 14:10;SPECI CYYG 011410Z 36003KT 3/4SM R03/3500VP6000FT/D -SN VV005 M03/ RMK SN8=
CYYG;2007-12-01 14:49;SPECI CYYG 011449Z 32004KT 5SM -SN FEW006 BKN041 M04/ RMK SF2SC5 VIS W 10=
CYYG;2007-12-01 15:00;METAR CYYG 011500Z 29003KT 10SM -SN SCT007 BKN041 M03/M05 A2967 RMK SF3SC4 /S02/ SLP050=
CYYG;2007-12-01 15:21;SPECI CYYG 011521Z 31007KT 1/2SM R03/3000VP6000FT/D SN VV005 M04/ RMK SN8=
CYYG;2007-12-01 15:40;SPECI CYYG 011540Z 36006KT 1/4SM R03/2200V3500FT/U +SN VV003 M03/ RMK SN8=
CYYG;2007-12-01 16:00;METAR CYYG 011600Z 36012KT 1/2SM R03/2200V5000FT/U SN VV005 M03/M05 A2967 RMK SN8 /S04/ SLP049=
CYYG;2007-12-01 16:15;SPECI CYYG 011615Z 02012KT 1/4SM +SN VV002 M03/ RMK SN8=
CYYG;2007-12-01 16:44;SPECI CYYG 011644Z 36014G34KT 1/2SM -SN BLSN VV005 M04/ RMK SN8=
CYYG;2007-12-01 17:00;METAR CYYG 011700Z 36021G34KT 1/2SM R03/1600V3000FT/D -SHSN BLSN VV008 M04/M06 A2970 RMK SN8 /S06/ SLP060=
CYYG;2007-12-01 18:00;METAR CYYG 011800Z 35017G28KT 1SM R03/1800VP6000FT/U -SHSN BLSN VV015 M05/M08 A2974 RMK SN8 SLP075=
CYYG;2007-12-01 19:00;METAR CYYG 011900Z 34020G30KT 3SM -SHSN BLSN OVC023 M05/M11 A2978 RMK SC8 SLP086=
CYYG;2007-12-01 20:00;METAR CYYG 012000Z 33020G32KT 10SM -SHSN DRSN OVC040 M06/M12 A2982 RMK SC8 SLP100=
CYYG;2007-12-01 20:38;SPECI CYYG 012038Z 31014G27KT 1 1/2SM -SHSN BLSN VV015 M07/ RMK SN8=
CYYG;2007-12-01 20:43;SPECI CYYG 012043Z 31017G22KT 1/4SM R03/1200V6000FT/D +SHSN +BLSN VV004 M07/ RMK SN8=
CYYG;2007-12-01 20:47;SPECI CYYG 012047Z 31013G22KT 1SM R03/1200V5000FT/D -SHSN BLSN OVC016 M07/ RESN REBLSN RMK SN4SC4=
CYYG;2007-12-01 21:00;METAR CYYG 012100Z 31016G22KT 1/4SM R03/1400V4000FT/D SHSN +BLSN VV005 M07/M09 A2986 RMK SN8 /S03/ SLP114=
CYYG;2007-12-01 21:18;SPECI CYYG 012118Z 31016G24KT 2SM R03/3000VP6000FT/U -SHSN BLSN OVC015 M08/ RESN RMK SN4SC4=
CYYG;2007-12-01 22:00;METAR CYYG 012200Z 31019G28KT 10SM -SHSN DRSN OVC032 M08/M11 A2988 RMK SC8 SLP121=
CYYG;2007-12-01 23:00;METAR CYYG 012300Z 31020G27KT 3SM -SHSN BLSN BKN012 OVC032 M09/M12 A2989 RMK SC6SC2 SLP124=
CYYG;2007-12-02 00:00;METAR CYYG 020000Z 30017G25KT 2 1/2SM -SHSN BLSN BKN008 OVC016 M09/M12 A2991 RMK SF6SC2 SLP133=
CYYG;2007-12-02 01:00;METAR CYYG 020100Z 29018G24KT 3SM -SHSN BLSN BKN009 OVC019 M10/M12 A2991 RMK SF6SC2 SLP133=
CYYG;2007-12-02 02:00;METAR CYYG 020200Z 29018G26KT 1SM R03/2800V5500FT/U -SHSN BLSN BKN007 OVC015 M10/M11 A2991 RMK SF6SC2 SLP131=
CYYG;2007-12-02 02:40;SPECI CYYG 020240Z 29017G25KT 3/4SM R03/3000VP6000FT/D -SHSN BLSN BKN006 OVC015 M09/ RMK SF6SC2=
CYYG;2007-12-02 03:00;METAR CYYG 020300Z 29020G28KT 1SM R03/P6000FT/U -SHSN BLSN BKN008 OVC021 M09/M11 A2990 RMK SF6SC2 SLP129=
CYYG;2007-12-02 03:16;SPECI CYYG 020316Z 29018G26KT 3SM -SHSN BLSN BKN011 OVC027 M09/ RMK SN3SF2SC2=
CYYG;2007-12-02 04:00;METAR CYYG 020400Z 30019G26KT 3SM R03/3500VP6000FT/U -SHSN BLSN BKN013 OVC026 M08/M11 A2991 RMK SC6SC2 SLP133=
CYYG;2007-12-02 05:00;METAR CYYG 020500Z 29017KT 3SM -SHSN BLSN SCT010 OVC019 M08/M10 A2992 RMK SF4SC4 SLP134=
CYYG;2007-12-02 06:00;METAR CYYG 020600Z 29015G22KT 4SM -SHSN BLSN OVC016 M07/M09 A2993 RMK SC8 SLP138=
CYYG;2007-12-02 07:00;METAR CYYG 020700Z 30014G20KT 5SM -SHSN BKN018 OVC030 M06/M08 A2994 RMK SC6SC2 SLP143=
CYYG;2007-12-02 08:00;METAR CYYG 020800Z 31017G24KT 6SM -SHSN SCT017 OVC026 M04/M06 A2994 RMK SC3SC5 SLP143=
CYYG;2007-12-02 09:00;METAR CYYG 020900Z 34018G28KT 10SM R03/2200VP6000FT/D -SHSN OVC024 M03/M07 A2996 RMK SC8 SLP150=
CYYG;2007-12-02 10:00;METAR CYYG 021000Z 33017G29KT 10SM -SHSN OVC025 M03/M07 A2998 RMK SC8 SLP154=
CYYG;2007-12-02 11:00;METAR CYYG 021100Z 33020G31KT 15SM -SHSN DRSN OVC028 M02/M07 A2999 RMK SC8 SLP160=
CYYG;2007-12-02 12:00;METAR CYYG 021200Z 33019G26KT 15SM -SHSN DRSN OVC028 M02/M08 A3001 RMK SC8 SLP164=
CYYG;2007-12-02 12:25;SPECI CYYG 021225Z 33016G24KT 15SM DRSN OVC029 M02/ RMK SC8=
CYYG;2007-12-02 13:00;METAR CYYG 021300Z 33016G26KT 15SM DRSN OVC029 M02/M08 A3001 RMK SC8 SLP164=
CYYG;2007-12-02 14:00;METAR CYYG 021400Z 33011G22KT 15SM DRSN OVC029 M02/M08 A3001 RMK SC8 SLP167=
CYYG;2007-12-02 15:00;METAR CYYG 021500Z 30015G20KT 15SM DRSN OVC024 M03/M07 A3002 RMK SC8 SLP168=
CYYG;2007-12-02 15:34;SPECI CYYG 021534Z 30014G21KT 15SM -SN DRSN OVC020 M03/ RMK SC8=
CYYG;2007-12-02 16:00;METAR CYYG 021600Z 31013G21KT 15SM -SN DRSN OVC019 M03/M07 A3001 RMK SC8 SLP167=
CYYG;2007-12-02 17:00;METAR CYYG 021700Z 33017G24KT 15SM -SN DRSN OVC022 M03/M08 A3001 RMK SC8 SLP167=
CYYG;2007-12-02 18:00;METAR CYYG 021800Z 31015G25KT 15SM -SN DRSN OVC025 M03/M08 A3001 RMK SC8 SLP165=
CYYG;2007-12-02 19:00;METAR CYYG 021900Z 32014G24KT 15SM -SN DRSN OVC028 M02/M07 A3001 RMK SC8 SLP165=
CYYG;2007-12-02 19:21;SPECI CYYG 021921Z 32013G20KT 15SM DRSN BKN029 M02/ RMK SC7=
CYYG;2007-12-02 20:00;METAR CYYG 022000Z 32012G17KT 15SM DRSN BKN027 M02/M07 A3002 RMK SC7 SLP168=
CYYG;2007-12-02 21:00;METAR CYYG 022100Z 33014G19KT 15SM BKN026 M01/M07 A3004 RMK SC7 SLP174=
CYYG;2007-12-02 21:42;SPECI CYYG 022142Z 31015G20KT 10SM -SHSN OVC027 M01/ RMK SC8=
CYYG;2007-12-02 22:00;METAR CYYG 022200Z 29010G17KT 12SM -SHSN OVC028 M02/M07 A3005 RMK SC8 SLP177=
CYYG;2007-12-02 23:00;METAR CYYG 022300Z 29013KT 12SM -SHSN OVC023 M03/M08 A3005 RMK SC8 SLP177=
CYYG;2007-12-03 00:00;METAR CYYG 030000Z 32010G15KT 15SM -SHSN OVC021 M03/M07 A3003 RMK SC8 SLP172=
CYYG;2007-12-03 01:00;METAR CYYG 030100Z 33012KT 15SM -SHSN OVC021 M02/M05 A3002 RMK SC8 SLP169=
CYYG;2007-12-03 02:00;METAR CYYG 030200Z 35012KT 15SM OVC027 M01/M07 A3002 RMK SC8 SLP167=
CYYG;2007-12-03 03:00;METAR CYYG 030300Z 33009KT 15SM OVC023 M01/M06 A3003 RMK SC8 SLP172=
CYYG;2007-12-03 04:00;METAR CYYG 030400Z 33010KT 15SM OVC023 M01/M06 A3001 RMK SC8 SLP163=
CYYG;2007-12-03 04:20;SPECI CYYG 030420Z 34010G16KT 15SM -SHSN OVC025 M01/ RMK SC8=
CYYG;2007-12-03 05:00;METAR CYYG 030500Z 33008KT 15SM -SHSN OVC024 M01/M05 A3000 RMK SC8 SLP160=
CYYG;2007-12-03 06:00;METAR CYYG 030600Z 28006KT 15SM -SHSN OVC024 M02/M05 A3001 RMK SC8 SLP166=
CYYG;2007-12-03 06:45;SPECI CYYG 030645Z 28007KT 15SM OVC029 M02/ RMK SC8=
CYYG;2007-12-03 07:00;METAR CYYG 030700Z 29007KT 15SM OVC025 M02/M05 A3001 RMK SC8 SLP165=
CYYG;2007-12-03 08:00;METAR CYYG 030800Z 29010KT 15SM OVC024 M03/M05 A2998 RMK SC8 SLP153=
CYYG;2007-12-03 09:00;METAR CYYG 030900Z 31005KT 15SM OVC023 M03/M05 A2996 RMK SC8 SLP147=
CYYG;2007-12-03 10:00;METAR CYYG 031000Z 35006KT 15SM OVC023 M01/M05 A2995 RMK SC8 SLP145=
CYYG;2007-12-03 11:00;METAR CYYG 031100Z 01006KT 15SM OVC023 M01/M05 A2993 RMK SC8 SLP138=
CYYG;2007-12-03 12:00;METAR CYYG 031200Z 02005KT 15SM OVC024 M01/M05 A2991 RMK SC8 SLP131=
CYYG;2007-12-03 13:00;METAR CYYG 031300Z 06005KT 15SM OVC024 M01/M05 A2990 RMK SC8 SLP126=
CYYG;2007-12-03 14:00;METAR CYYG 031400Z 08003KT 15SM OVC025 M00/M05 A2989 RMK SC8 SLP123=
CYYG;2007-12-03 15:00;METAR CYYG 031500Z 12003KT 15SM OVC028 M00/M05 A2986 RMK SC8 SLP115=
CYYG;2007-12-03 16:00;METAR CYYG 031600Z 09008KT 15SM OVC028 M00/M06 A2980 RMK SC8 PRESFR SLP095=
CYYG;2007-12-03 17:00;METAR CYYG 031700Z 11005KT 15SM OVC030 00/M05 A2978 RMK SC8 SLP087=
CYYG;2007-12-03 18:00;METAR CYYG 031800Z 09006KT 15SM OVC034 00/M05 A2975 RMK SC8 SLP078=
CYYG;2007-12-03 19:00;METAR CYYG 031900Z 09009KT 15SM OVC026 00/M05 A2971 RMK SC8 SLP064=
CYYG;2007-12-03 20:00;METAR CYYG 032000Z 08012KT 15SM OVC028 00/M05 A2966 RMK SC8 SLP045=
CYYG;2007-12-03 21:00;METAR CYYG 032100Z 08013G18KT 15SM OVC030 M00/M05 A2961 RMK SC8 SLP028=
CYYG;2007-12-03 22:00;METAR CYYG 032200Z 10010KT 15SM OVC034 00/M05 A2958 RMK SC8 SLP018=
CYYG;2007-12-03 23:00;METAR CYYG 032300Z 10011G17KT 15SM BKN035 OVC054 00/M05 A2953 RMK SC6SC2 SLP002=
CYYG;2007-12-03 23:30;SPECI CYYG 032330Z 11013G19KT 15SM -SHSN OVC035 01/ RMK SC8=
CYYG;2007-12-04 00:00;METAR CYYG 040000Z 10013G18KT 15SM -SN OVC035 01/M04 A2948 RMK SC8 SLP984=
CYYG;2007-12-04 00:42;SPECI CYYG 040042Z 09013G20KT 2 1/2SM -SN OVC035 00/ RMK SC8=
CYYG;2007-12-04 01:00;METAR CYYG 040100Z 09013G19KT 2SM -SN OVC018 00/M03 A2942 RMK SN2SC6 PRESFR SLP964=
CYYG;2007-12-04 01:08;SPECI CYYG 040108Z 09010G20KT 1SM R03/4500VP6000FT/D -SN OVC012 M00/ RMK SN3SC5=
CYYG;2007-12-04 01:14;SPECI CYYG 040114Z 10013G18KT 3/8SM R03/3000V6000FT/D SN VV004 M00/ RMK SN8=
CYYG;2007-12-04 01:27;SPECI CYYG 040127Z 09014KT 3/4SM R03/3000V5000FT/U -SN OVC006 M00/ RESN RMK SN6SF2=
CYYG;2007-12-04 02:00;METAR CYYG 040200Z 09016KT 1 1/4SM R03/5500FT/N -SN BKN005 OVC013 M00/M02 A2934 RESN RMK SN2SF5NS2 PRESFR /S01/ SLP938=
CYYG;2007-12-04 02:45;SPECI CYYG 040245Z 09020G28KT 2SM R03/3500VP6000FT/U -SNPL DRSN OVC007 00/ RMK SF8=
CYYG;2007-12-04 03:00;METAR CYYG 040300Z 09019G36KT 2 1/2SM -SNPL DRSN BKN007 OVC065 00/M01 A2926 RMK SF7NS1 PRESFR SLP911=
CYYG;2007-12-04 03:16;SPECI CYYG 040316Z 09019G25KT 5SM -SN DRSN OVC007 00/ RMK SF8 PRESFR=
CYYG;2007-12-04 04:00;METAR CYYG 040400Z 09019G28KT 5SM -SN DRSN OVC007 01/M01 A2920 RMK SF8 SLP892=
CYYG;2007-12-04 04:47;SPECI CYYG 040447Z 08014G22KT 1 1/4SM -SN DRSN OVC009 00/ RMK SN4SF4=
CYYG;2007-12-04 05:00;METAR CYYG 040500Z 08014G22KT 1 1/4SM R03/4500VP6000FT/U -SN DRSN BKN003 OVC009 00/M01 A2915 RMK SN4SF3SF1 /S02/ SLP874=
CYYG;2007-12-04 05:05;SPECI CYYG 040505Z 08013KT 5/8SM R03/2800VP6000FT/D -SN DRSN VV004 00/ RMK SN8=
CYYG;2007-12-04 05:22;SPECI CYYG 040522Z 09018G28KT 3/4SM R03/3500FT/U -SN DRSN VV007 00/ RMK SN8=
CYYG;2007-12-04 05:55;SPECI CYYG 040555Z 08017G28KT 1/4SM R03/1600V2800FT/D +SN DRSN VV004 00/ RMK SN8=
CYYG;2007-12-04 06:00;METAR CYYG 040600Z 08017G24KT 1/4SM R03/1800FT/N +SN DRSN VV003 00/M01 A2909 RMK SN8 PRESFR /S04/ SLP853=
CYYG;2007-12-04 06:15;SPECI CYYG 040615Z 08014G25KT 3/8SM R03/1600V3000FT/N SN DRSN VV004 00/ RESN RMK SN8=
CYYG;2007-12-04 06:37;SPECI CYYG 040637Z 08020KT 3/4SM R03/1800V3500FT/U -SN DRSN OVC004 00/ RESN RMK SN5SF3=
CYYG;2007-12-04 07:00;METAR CYYG 040700Z 08018G24KT 3/4SM R03/2800V5500FT/U -SN DRSN OVC005 00/M01 A2905 RESN RMK SN5SF3 /S01/ SLP840=
CYYG;2007-12-04 07:19;SPECI CYYG 040719Z 08020G26KT 1/2SM R03/2400FT/N SN DRSN VV005 00/ RMK SN8=
CYYG;2007-12-04 07:38;SPECI CYYG 040738Z 08017G28KT 3/8SM R03/2000FT/N SN DRSN VV004 00/ RMK SN8=
CYYG;2007-12-04 08:00;METAR CYYG 040800Z 08020KT 1/4SM R03/1400FT/N +SN DRSN VV003 00/M01 A2901 RMK SN8 /S04/ SLP824=
CYYG;2007-12-04 08:48;SPECI CYYG 040848Z 07018G29KT 3/8SM R03/1600FT/N SN DRSN VV004 00/ RESN RMK SN8=
CYYG;2007-12-04 09:00;METAR CYYG 040900Z 07017KT 1/2SM R03/1600V2600FT/U SN DRSN VV005 00/M01 A2896 RESN RMK SN8 /S06/ SLP809=
CYYG;2007-12-04 09:25;SPECI CYYG 040925Z 07018KT 1/4SM R03/1400V2200FT/D +SN DRSN VV004 00/ RMK SN8=
CYYG;2007-12-04 10:00;METAR CYYG 041000Z 07020G28KT 3/8SM R03/1600FT/N SN DRSN VV004 00/M01 A2891 RESN RMK SN8 /S09/ SLP792=
CYYG;2007-12-04 11:00;METAR CYYG 041100Z 06023G31KT 5/8SM R03/2800FT/N -SN DRSN VV007 00/M01 A2888 RESN RMK SN8 /S12/ SLP781=
CYYG;2007-12-04 11:26;SPECI CYYG 041126Z 06024G31KT 1/2SM R03/1800V3000FT/D SN DRSN VV005 00/ RMK SN8=
CYYG;2007-12-04 12:00;METAR CYYG 041200Z 07025G33KT 1/2SM R03/1600V2400FT/U SN BLSN VV005 00/M01 A2886 RMK SN8 /S14/ SLP775=
CYYG;2007-12-04 13:00;METAR CYYG 041300Z 07028G33KT 3/8SM R03/1100V2000FT/N SN BLSN OVC009 M00/M01 A2885 RMK SN7SC1 /S02/ SLP773=
CYYG;2007-12-04 14:00;METAR CYYG 041400Z 06030G40KT 3/8SM R03/1600V3000FT/U SN BLSN OVC010 M00/M01 A2885 RMK BLSN6SC2 /S04/ SLP773=
CYYG;2007-12-04 15:00;METAR CYYG 041500Z 06020G32KT 1/2SM R03/3500VP6000FT/U -SN BLSN OVC012 M01/M02 A2885 RMK BLSN3SC5 /S05/ SLP773=
CYYG;2007-12-04 15:31;SPECI CYYG 041531Z 05021G33KT 3/4SM R03/2400VP6000FT/U -SN BLSN OVC012 M01/ RMK BLSN3SC5=
CYYG;2007-12-04 16:00;METAR CYYG 041600Z 05020G35KT 3/8SM R03/1600V4000FT/N SN BLSN OVC013 M01/M02 A2885 RMK BLSN6SC2 /S07/ SLP770=
CYYG;2007-12-04 17:00;METAR CYYG 041700Z 05020G36KT 1/2SM R03/2000V5500FT/U SN BLSN OVC025 M01/M02 A2883 RMK BLSN5SC3 /S09/ SLP766=
CYYG;2007-12-04 18:00;METAR CYYG 041800Z 04026G35KT 1 1/4SM -SN BLSN BKN013 OVC027 M01/M02 A2884 RESN RMK SC5SC3 /S11/ SLP769=
CYYG;2007-12-04 18:15;SPECI CYYG 041815Z 03025G33KT 3/4SM R03/2200VP6000FT/D -SN BLSN OVC014 M01/ RMK BLSN3SC5=
CYYG;2007-12-04 19:00;METAR CYYG 041900Z 03021G36KT 3/4SM R03/2400V5000FT/U -SN BLSN OVC015 M01/M03 A2887 RMK BLSN3SC5 /S01/ SLP777=
CYYG;2007-12-04 19:44;SPECI CYYG 041944Z 02024G33KT 1 1/4SM -SN BLSN OVC017 M01/ RMK SC8=
CYYG;2007-12-04 20:00;METAR CYYG 042000Z 02029G35KT 1 1/2SM R03/4500VP6000FT/U -SN BLSN OVC014 M01/M02 A2889 RMK SC8 SLP784=
CYYG;2007-12-04 21:00;METAR CYYG 042100Z 01019G27KT 1SM R03/3000VP6000FT/U -SN BLSN FEW010 OVC016 M01/M03 A2891 RMK SC2SC6 /S02/ SLP791=
CYYG;2007-12-04 21:38;SPECI CYYG 042138Z 36019G26KT 1/2SM R03/2200V5500FT/N SN BLSN OVC011 M01/ RMK BLSN3SC5=
CYYG;2007-12-04 22:00;METAR CYYG 042200Z 02022G30KT 3/8SM R03/2200V4000FT/U SN BLSN OVC013 M01/M02 A2893 RMK BLSN5SC3 /S03/ SLP798=
CYYG;2007-12-04 23:00;METAR CYYG 042300Z 01013G30KT 1 1/4SM -SN BLSN OVC014 M01/M02 A2895 RESN RMK SC8 /S04/ SLP805=
CYYG;2007-12-05 00:00;METAR CYYG 050000Z 36017G28KT 1SM R03/2800VP6000FT/D -SN BLSN OVC014 M01/M02 A2899 RMK SC8 /S05/ SLP818=
CYYG;2007-12-05 01:00;METAR CYYG 050100Z 36016G33KT 1SM R03/2400VP6000FT/D -SN BLSN OVC014 M01/M03 A2902 RMK SC8 /S01/ SLP830=
CYYG;2007-12-05 02:00;METAR CYYG 050200Z 35016G30KT 1SM R03/2000V6000FT/D -SN BLSN OVC014 M01/M03 A2907 RMK SC8 SLP847=
CYYG;2007-12-05 02:15;SPECI CYYG 050215Z 35019G30KT 2SM R03/4000VP6000FT/U -SN BLSN OVC014 M02/ RMK SC8=
CYYG;2007-12-05 03:00;METAR CYYG 050300Z 35017G31KT 2SM -SN BLSN OVC015 M01/M03 A2912 RMK SC8 /S02/ SLP863=
CYYG;2007-12-05 04:00;METAR CYYG 050400Z 36017G27KT 2SM -SN BLSN OVC014 M02/M04 A2915 RMK SC8 SLP873=
CYYG;2007-12-05 05:00;METAR CYYG 050500Z 34013G22KT 2 1/2SM -SN DRSN OVC015 M02/M04 A2920 REBLSN RMK SC8 SLP891=
CYYG;2007-12-05 06:00;METAR CYYG 050600Z 34012G20KT 2 1/2SM -SN DRSN SCT015 OVC023 M02/M04 A2925 RMK SC3SC5 SLP906=
CYYG;2007-12-05 07:00;METAR CYYG 050700Z 35011G18KT 6SM -SN DRSN OVC020 M02/M05 A2930 RMK SC8 SLP923=
CYYG;2007-12-05 08:00;METAR CYYG 050800Z 34009G16KT 6SM -SN DRSN OVC018 M02/M05 A2933 RMK SC8 SLP936=
CYYG;2007-12-05 09:00;METAR CYYG 050900Z 34008KT 6SM -SN OVC020 M03/M05 A2936 RMK SC8 SLP944=
CYYG;2007-12-05 10:00;METAR CYYG 051000Z 34008KT 10SM -SN OVC020 M03/M05 A2940 RMK SC8 SLP957=
CYYG;2007-12-05 11:00;METAR CYYG 051100Z 33008KT 10SM -SHSN OVC030 M03/M05 A2944 RMK SC8 SLP972=
CYYG;2007-12-05 12:00;METAR CYYG 051200Z 30006KT 6SM -SHSN OVC030 M03/M05 A2949 RMK SC8 SLP989=
CYYG;2007-12-05 12:16;SPECI CYYG 051216Z 30007KT 2 1/2SM -SHSN OVC018 M03/ RMK SC8=
CYYG;2007-12-05 12:29;SPECI CYYG 051229Z 31006KT 1SM R03/4500VP6000FT/D -SHSN OVC019 M03/ RMK SC8=
CYYG;2007-12-05 13:00;METAR CYYG 051300Z 31005KT 2SM -SHSN FEW012 BKN023 M03/M05 A2954 RMK SC2SC5 SLP005=
CYYG;2007-12-05 13:26;SPECI CYYG 051326Z 29007KT 8SM -SHSN FEW012 BKN021 M03/ RMK SC2SC6=
CYYG;2007-12-05 14:00;METAR CYYG 051400Z 28008KT 10SM -SHSN FEW012 OVC024 M03/M05 A2958 RMK SC2SC6 SLP018=
CYYG;2007-12-05 15:00;METAR CYYG 051500Z 29009KT 8SM -SHSN FEW010 OVC024 M04/M06 A2960 RMK SC2SC6 SLP026=
CYYG;2007-12-05 15:24;SPECI CYYG 051524Z 29007KT 3SM -SHSN FEW009 OVC022 M04/ RMK SF2SC6=
CYYG;2007-12-05 16:00;METAR CYYG 051600Z 27010KT 8SM -SHSN FEW009 OVC024 M04/M06 A2961 RMK SF2SC6 SLP030=
CYYG;2007-12-05 17:00;METAR CYYG 051700Z 28008KT 15SM -SHSN FEW009 OVC038 M04/M06 A2962 RMK SF2SC6 SLP032=
CYYG;2007-12-05 17:38;SPECI CYYG 051738Z 29009KT 15SM FEW009 BKN038 M04/ RMK SF2SC6=
CYYG;2007-12-05 18:00;METAR CYYG 051800Z 28006KT 15SM FEW009 BKN038 M04/M06 A2963 RMK SF2SC6 SLP038=
CYYG;2007-12-05 19:00;METAR CYYG 051900Z 28007KT 15SM FEW009 BKN038 M04/M07 A2966 RMK SF2SC6 SLP045=
CYYG;2007-12-05 20:00;METAR CYYG 052000Z 28004KT 15SM FEW009 BKN026 M04/M07 A2968 RMK SF2SC6 SLP054=
CYYG;2007-12-05 21:00;METAR CYYG 052100Z 27003KT 15SM VCSH FEW009 OVC030 M05/M07 A2971 RMK SF2SC6 SLP063=
CYYG;2007-12-05 21:13;SPECI CYYG 052113Z 27003KT 15SM -SHSN FEW009 OVC030 M05/ RMK SF2SC6=
CYYG;2007-12-05 22:00;METAR CYYG 052200Z 28003KT 15SM -SHSN FEW009 OVC030 M05/M07 A2972 RMK SF2SC6 SLP067=
CYYG;2007-12-05 23:00;METAR CYYG 052300Z 00000KT 15SM -SHSN BKN028 M07/M09 A2974 RMK SC6 SLP072=
CYYG;2007-12-05 23:50;SPECI CYYG 052350Z 00000KT 15SM SCT030 SCT150 M08/ RMK SC3AC1=
CYYG;2007-12-06 00:00;METAR CYYG 060000Z 00000KT 15SM SCT030 SCT150 M08/M09 A2975 RMK SC3AC1 SLP078=
CYYG;2007-12-06 01:00;METAR CYYG 060100Z 00000KT 15SM SCT030 BKN130 M09/M11 A2977 RMK SC3AC2 SLP082=
CYYG;2007-12-06 02:00;METAR CYYG 060200Z 00000KT 15SM FEW030 BKN130 M08/M09 A2977 RMK SC2AC4 SLP084=
CYYG;2007-12-06 03:00;METAR CYYG 060300Z 21006KT 15SM FEW030 BKN100 M04/M07 A2978 RMK SC1AC6 SLP086=
CYYG;2007-12-06 04:00;METAR CYYG 060400Z 22005KT 15SM SCT022 BKN080 M04/M07 A2978 RMK SC3AC4 SLP087=
CYYG;2007-12-06 05:00;METAR CYYG 060500Z 22003KT 15SM FEW022 BKN100 M04/M07 A2977 RMK SC2AC5 SLP082=
CYYG;2007-12-06 06:00;METAR CYYG 060600Z 27002KT 15SM FEW022 BKN085 M05/M08 A2977 RMK SC2AC5 SLP084=
CYYG;2007-12-06 07:00;METAR CYYG 060700Z 36002KT 15SM FEW025 OVC069 M06/M08 A2978 RMK SC2AC6 SLP087=
CYYG;2007-12-06 08:00;METAR CYYG 060800Z 00000KT 15SM FEW025 OVC075 M07/M08 A2977 RMK SC2AC6 SLP085=
CYYG;2007-12-06 09:00;METAR CYYG 060900Z 00000KT 12SM -SHSN OVC015 M06/M08 A2979 RMK SC8 SLP092=
CYYG;2007-12-06 10:00;METAR CYYG 061000Z 00000KT 12SM -SHSN OVC012 M06/M07 A2980 RMK SC8 SLP093=
CYYG;2007-12-06 10:49;SPECI CYYG 061049Z 00000KT 12SM -SHSN SCT015 OVC042 M06/ RMK SC3SC5=
CYYG;2007-12-06 11:00;METAR CYYG 061100Z CCA 00000KT 12SM -SHSN FEW015 OVC043 M06/M07 A2981 RMK SC2SC6 /S01/ SLP098=
CYYG;2007-12-06 12:00;METAR CYYG 061200Z 00000KT 3SM -SHSN FEW020 BKN042 OVC088 M06/M07 A2982 RMK SC2SC5AC2 SLP100=
CYYG;2007-12-06 13:00;METAR CYYG 061300Z 33004KT 10SM -SN BKN039 BKN049 OVC086 M06/M07 A2983 RMK SC5SC2AC2 SLP105=
CYYG;2007-12-06 14:00;METAR CYYG 061400Z 33004KT 8SM -SN BKN040 M04/M06 A2984 RMK SC7 SLP108=
CYYG;2007-12-06 14:46;SPECI CYYG 061446Z 33004KT 15SM FEW040 SCT050 M04/ RMK SC2SC2=
CYYG;2007-12-06 15:00;METAR CYYG 061500Z 33006KT 15SM FEW030 BKN050 M04/M06 A2984 RMK SC2SC4 SLP108=
CYYG;2007-12-06 16:00;METAR CYYG 061600Z 32005KT 15SM FEW012 SCT030 BKN050 M04/M06 A2984 RMK SC1SC2SC2 SLP107=
CYYG;2007-12-06 16:36;SPECI CYYG 061636Z 32008KT 15SM -SN BKN014 BKN028 M03/ RMK SC5SC2=
CYYG;2007-12-06 17:00;METAR CYYG 061700Z 32006KT 15SM -SN FEW011 SCT028 M04/M06 A2985 RMK SC2SC2 SLP110=
CYYG;2007-12-06 18:00;METAR CYYG 061800Z 29007KT 15SM -SN BKN014 M03/M06 A2987 RMK SC7 SLP116=
CYYG;2007-12-06 18:44;SPECI CYYG 061844Z 29010KT 15SM BKN014 M04/ RMK SC7=
CYYG;2007-12-06 19:00;METAR CYYG 061900Z 31006KT 15SM BKN017 M04/M07 A2988 RMK SC7 SLP122=
CYYG;2007-12-06 20:00;METAR CYYG 062000Z 29008KT 15SM BKN021 M05/M09 A2991 RMK SC6 SLP131=
CYYG;2007-12-06 21:00;METAR CYYG 062100Z 30006KT 15SM BKN019 M06/M09 A2994 RMK SC6 SLP143=
CYYG;2007-12-06 22:00;METAR CYYG 062200Z 30006KT 15SM BKN023 M06/M09 A2998 RMK SC6 SLP156=
CYYG;2007-12-06 22:51;SPECI CYYG 062251Z 29009KT 15SM -SN OVC022 M05/ RMK SC8=
CYYG;2007-12-06 23:00;METAR CYYG 062300Z 30008KT 15SM -SN OVC024 M06/M09 A3001 RMK SC8 SLP166=
CYYG;2007-12-07 00:00;METAR CYYG 070000Z 29006KT 15SM -SN OVC030 M06/M09 A3004 RMK SC8 SLP176=
CYYG;2007-12-07 00:17;SPECI CYYG 070017Z 28005KT 15SM BKN028 M07/ RMK SC6=
CYYG;2007-12-07 01:00;METAR CYYG 070100Z 29010KT 12SM -SHSN BKN030 M07/M11 A3007 RMK SC7 SLP187=
CYYG;2007-12-07 02:00;METAR CYYG 070200Z 29007KT 15SM BKN034 M08/M12 A3009 RMK SC5 SLP194=
CYYG;2007-12-07 03:00;METAR CYYG 070300Z 30005KT 15SM SCT035 M09/M12 A3012 RMK SC3 SLP202=
CYYG;2007-12-07 04:00;METAR CYYG 070400Z 29007KT 15SM FEW035 M09/M13 A3015 RMK SC2 SLP213=
CYYG;2007-12-07 05:00;METAR CYYG 070500Z 28007KT 15SM FEW035 BKN220 M09/M12 A3017 RMK SC2CI3 SLP218=
CYYG;2007-12-07 06:00;METAR CYYG 070600Z 29008KT 15SM FEW035 BKN220 M09/M12 A3020 RMK SC2CI4 SLP230=
CYYG;2007-12-07 07:00;METAR CYYG 070700Z 28008KT 15SM FEW035 BKN220 M10/M13 A3025 RMK SC1CI6 SLP246=
CYYG;2007-12-07 08:00;METAR CYYG 070800Z 28006KT 15SM BKN220 M11/M13 A3027 RMK CI6 SLP254=
CYYG;2007-12-07 09:00;METAR CYYG 070900Z 28005KT 15SM SCT220 M11/M14 A3030 RMK CI3 SLP264=
CYYG;2007-12-07 10:00;METAR CYYG 071000Z 26005KT 15SM FEW220 M11/M13 A3032 RMK CI2 SLP272=
CYYG;2007-12-07 11:00;METAR CYYG 071100Z 23006KT 15SM FEW220 M12/M14 A3035 RMK CI2 SLP282=
CYYG;2007-12-07 12:00;METAR CYYG 071200Z 27006KT 15SM FEW220 M12/M15 A3037 RMK CI1 SLP289=
CYYG;2007-12-07 13:00;METAR CYYG 071300Z 29005KT 15SM FEW025 FEW220 M11/M14 A3040 RMK SC1CI0=
CYYG;2007-12-07 14:00;METAR CYYG 071400Z 27003KT 15SM VCSH FEW025 FEW040 M10/M13 A3042 RMK SC1SC1 VIS LWR S-SW SLP305=
CYYG;2007-12-07 15:00;METAR CYYG 071500Z 25007KT 15SM FEW025 FEW040 M09/M12 A3043 RMK SC1SC1 SLP308=
CYYG;2007-12-07 16:00;METAR CYYG 071600Z 26008KT 15SM FEW030 SCT250 M08/M12 A3041 RMK SC1CI1 SLP303=
CYYG;2007-12-07 17:00;METAR CYYG 071700Z 25006KT 15SM FEW030 SCT250 M08/M13 A3043 RMK SC1CI1 SLP308=
CYYG;2007-12-07 18:00;METAR CYYG 071800Z 24006KT 15SM FEW030 BKN250 M08/M13 A3041 RMK SC1CI4 SLP301=
CYYG;2007-12-07 19:00;METAR CYYG 071900Z 25003KT 15SM FEW020 BKN250 M08/M12 A3039 RMK SC1CS2 SLP296=
CYYG;2007-12-07 20:00;METAR CYYG 072000Z 24003KT 15SM FEW020 BKN250 M08/M11 A3040 RMK SC1CI4 SLP298=
CYYG;2007-12-07 21:00;METAR CYYG 072100Z 20004KT 15SM SCT120 BKN250 M08/M11 A3038 RMK AC2CI3 SLP292=
CYYG;2007-12-07 22:00;METAR CYYG 072200Z 20006KT 15SM SCT110 BKN140 M06/M09 A3039 RMK AC2AC3 SLP295=
CYYG;2007-12-07 23:00;METAR CYYG 072300Z 20005KT 15SM BKN140 M05/M08 A3037 RMK AC6 SLP288=
CYYG;2007-12-08 00:00;METAR CYYG 080000Z 19006KT 15SM SCT034 OVC140 M05/M07 A3034 RMK SC4AC4 SLP279=
CYYG;2007-12-08 01:00;METAR CYYG 080100Z 19007KT 15SM BKN032 OVC140 M04/M07 A3033 RMK SC6AC2 SLP275=
CYYG;2007-12-08 02:00;METAR CYYG 080200Z 17009KT 15SM OVC024 OVC034 M04/M07 A3031 RMK SC5SC3 SLP266=
CYYG;2007-12-08 02:09;SPECI CYYG 080209Z 18008KT 10SM -SHSN BKN020 OVC029 M03/ RMK SC5SC3=
CYYG;2007-12-08 02:25;SPECI CYYG 080225Z 18009KT 2SM -SHSN SCT008 OVC020 M04/ RMK SF4SC4=
CYYG;2007-12-08 02:50;SPECI CYYG 080250Z 18009KT 3/4SM R03/4000V6000FT/D -SHSN SCT004 OVC012 M04/ RMK SC4SC4=
CYYG;2007-12-08 03:00;METAR CYYG 080300Z 18008KT 1SM R03/3500V6000FT/D -SHSN BKN004 OVC014 M04/M06 A3029 RMK SF6SC2 SLP262=
CYYG;2007-12-08 04:00;METAR CYYG 080400Z 17010KT 2SM -SHSN OVC005 M02/M03 A3024 RMK SF8 SLP245=
CYYG;2007-12-08 05:00;METAR CYYG 080500Z 16008KT 3SM -SN OVC005 M02/M03 A3019 RMK SF8 SLP227=
CYYG;2007-12-08 06:00;METAR CYYG 080600Z 16012KT 3SM -SN OVC005 M01/M02 A3015 RMK SF8 SLP212=
CYYG;2007-12-08 07:00;METAR CYYG 080700Z 16013KT 3SM -SN OVC004 M01/M01 A3011 RMK SF8 SLP200=
CYYG;2007-12-08 08:00;METAR CYYG 080800Z 16011KT 5SM -SN OVC003 00/M01 A3006 RMK SF8 SLP184=
CYYG;2007-12-08 10:00;METAR CYYG 081000Z 16007KT 10SM -SN OVC005 00/00 A3000 RMK SF8 SLP161=
CYYG;2007-12-08 11:00;METAR CYYG 081100Z 21003KT 10SM -RASN OVC005 01/01 A2997 RMK SF8 SLP153=
CYYG;2007-12-08 11:28;SPECI CYYG 081128Z 23004KT 3SM -DZ BR OVC004 01/ RMK SF8=
CYYG;2007-12-08 12:00;METAR CYYG 081200Z 23004KT 10SM -DZ BKN005 OVC012 00/00 A2995 RMK SF7SC1 SLP145=
CYYG;2007-12-08 12:20;SPECI CYYG 081220Z 24004KT 1/2SM R03/2600V4500FT/D -DZ FG BKN005 OVC012 00/ RMK FG5SF2SC2=
CYYG;2007-12-08 12:43;SPECI CYYG 081243Z 22004KT 3SM BR SCT005 BKN012 00/ RMK SF3SC4 VIS LWR SW-NW=
CYYG;2007-12-08 12:47;SPECI CYYG 081247Z 22004KT 15SM -DZ BKN005 OVC012 01/ RMK SF5SC3 VIS LWR W-NW=
CYYG;2007-12-08 13:00;METAR CYYG 081300Z 21005KT 15SM -DZ SCT005 OVC012 01/00 A2993 RMK SF3SC5 VIW LWR NW SLP139=
CYYG;2007-12-08 13:30;SPECI CYYG 081330Z 21006KT 15SM BKN003 OVC010 01/ RMK SF6SC2 VIS LWR NW=
CYYG;2007-12-08 14:00;METAR CYYG 081400Z 25010KT 15SM OVC008 01/00 A2993 RMK SF8 SLP136=
CYYG;2007-12-08 15:00;METAR CYYG 081500Z 27010G15KT 15SM OVC006 M00/M01 A2992 RMK SF8 SLP135=
CYYG;2007-12-08 16:00;METAR CYYG 081600Z 27014KT 15SM BKN013 M01/M03 A2991 RMK SC7 SLP132=
CYYG;2007-12-08 16:35;SPECI CYYG 081635Z 27013G18KT 15SM FEW015 M02/ RMK CU2=
CYYG;2007-12-08 17:00;METAR CYYG 081700Z 27011G18KT 15SM FEW015 M02/M05 A2990 RMK CF1 SLP127=
CYYG;2007-12-08 18:00;METAR CYYG 081800Z 26014G19KT 15SM FEW015 FEW250 M02/M06 A2990 RMK CF1CI1 SLP129=
CYYG;2007-12-08 19:00;METAR CYYG 081900Z 26009KT 15SM FEW040 SCT100 M02/M06 A2990 RMK SC2AC1 SLP129=
CYYG;2007-12-08 20:00;METAR CYYG 082000Z 25014KT 15SM FEW020 BKN041 BKN070 M01/M06 A2991 RMK CF1SC6AC1 SLP132=
CYYG;2007-12-08 21:00;METAR CYYG 082100Z 26011G17KT 15SM FEW025 SCT040 SCT130 M02/M06 A2992 RMK CF2SC2AC1 SLP135=
CYYG;2007-12-08 22:00;METAR CYYG 082200Z 27013KT 15SM FEW025 M02/M06 A2993 RMK SC2 SLP138=
CYYG;2007-12-08 23:00;METAR CYYG 082300Z 27008G15KT 15SM FEW040 M02/M06 A2995 RMK SC2 SLP145=
CYYG;2007-12-09 00:00;METAR CYYG 090000Z 28012KT 15SM FEW040 M02/M05 A2997 RMK SC2 SLP150=
CYYG;2007-12-09 01:00;METAR CYYG 090100Z 27008KT 15SM FEW040 M02/M06 A2998 RMK SC2 SLP156=
CYYG;2007-12-09 02:00;METAR CYYG 090200Z 28009KT 15SM FEW040 M03/M05 A2998 RMK SC1 SLP156=
CYYG;2007-12-09 03:00;METAR CYYG 090300Z 28010KT 15SM SCT015 M02/M05 A3000 RMK SC4 SLP162=
CYYG;2007-12-09 04:00;METAR CYYG 090400Z 30012KT 15SM SCT015 M04/M08 A3001 RMK SC3 SLP166=
CYYG;2007-12-09 05:00;METAR CYYG 090500Z 29012G19KT 15SM FEW015 M05/M10 A3004 RMK SC2 SLP176=
CYYG;2007-12-09 06:00;METAR CYYG 090600Z 29012G19KT 15SM FEW015 FEW140 M08/M13 A3008 RMK SC2AC1 SLP190=
CYYG;2007-12-09 07:00;METAR CYYG 090700Z 28013KT 15SM FEW030 M09/M13 A3013 RMK SC2 SLP205=
CYYG;2007-12-09 08:00;METAR CYYG 090800Z 29014G21KT 15SM FEW030 M10/M14 A3015 RMK SC2 SLP212=
CYYG;2007-12-09 09:00;METAR CYYG 090900Z 29014G20KT 15SM BKN026 M10/M14 A3018 RMK SC6 SLP222=
CYYG;2007-12-09 10:00;METAR CYYG 091000Z 29013G18KT 15SM OVC026 M11/M15 A3021 RMK SC8 SLP234=
CYYG;2007-12-09 10:12;SPECI CYYG 091012Z 29015KT 12SM -SHSN OVC027 M11/ RMK SC8=
CYYG;2007-12-09 11:00;METAR CYYG 091100Z 28010G15KT 10SM -SHSN OVC027 M11/M15 A3023 RMK SC8 SLP239=
CYYG;2007-12-09 12:00;METAR CYYG 091200Z 29013KT 12SM -SHSN OVC025 M11/M15 A3024 RMK SC8 SLP245=
CYYG;2007-12-09 13:00;METAR CYYG 091300Z 29011G19KT 15SM -SHSN OVC026 M11/M15 A3027 RMK SC8 SLP255=
CYYG;2007-12-09 14:00;METAR CYYG 091400Z 28011KT 15SM BKN028 M11/M15 A3029 RMK SC7 SLP260=
CYYG;2007-12-09 15:00;METAR CYYG 091500Z 29015KT 15SM FEW030 SCT200 M12/M16 A3029 RMK SC1CI2 SLP261=
CYYG;2007-12-09 16:00;METAR CYYG 091600Z 28012G18KT 15SM BKN025 M11/M15 A3029 RMK SC7 SLP261=
CYYG;2007-12-09 16:17;SPECI CYYG 091617Z 28015KT 12SM -SHSN BKN025 M11/ RMK SC7=
CYYG;2007-12-09 17:00;METAR CYYG 091700Z 28012KT 12SM -SHSN BKN025 M11/M15 A3029 RMK SC7 SLP261=
CYYG;2007-12-09 18:00;METAR CYYG 091800Z 29012G17KT 12SM -SHSN BKN026 M11/M15 A3029 RMK SC7 SLP260=
CYYG;2007-12-09 19:00;METAR CYYG 091900Z 28013G18KT 15SM -SHSN SCT027 BKN120 M11/M14 A3030 RMK SC3AC1 SLP264=
CYYG;2007-12-09 20:00;METAR CYYG 092000Z 27011KT 15SM -SHSN BKN027 BKN120 M12/M15 A3030 RMK SC5AC1 SLP265=
CYYG;2007-12-09 21:00;METAR CYYG 092100Z 27007KT 15SM BKN022 M12/M16 A3033 RMK SC6 SLP276=
CYYG;2007-12-09 22:00;METAR CYYG 092200Z 31003KT 15SM SCT022 M13/M16 A3033 RMK SC4 SLP276=
CYYG;2007-12-09 23:00;METAR CYYG 092300Z 27004KT 15SM BKN022 M13/M16 A3034 RMK SC6 SLP279=
CYYG;2007-12-10 00:00;METAR CYYG 100000Z 27004KT 15SM BKN028 M13/M16 A3034 RMK SC7 SLP280=
CYYG;2007-12-10 01:00;METAR CYYG 100100Z 28004KT 15SM BKN028 M14/M17 A3034 RMK SC6 SLP280=
CYYG;2007-12-10 02:00;METAR CYYG 100200Z 27004KT 15SM FEW030 M13/M16 A3033 RMK SC1 SLP277=
CYYG;2007-12-10 03:00;METAR CYYG 100300Z 27004KT 15SM FEW030 M14/M17 A3034 RMK SC1 SLP279=
CYYG;2007-12-10 04:00;METAR CYYG 100400Z 30006KT 15SM FEW030 M14/M16 A3033 RMK SC1 SLP277=
CYYG;2007-12-10 05:00;METAR CYYG 100500Z 29005KT 15SM SKC M14/M17 A3032 RMK SLP272=
CYYG;2007-12-10 06:00;METAR CYYG 100600Z 31004KT 15SM SKC M15/M17 A3031 RMK SLP269=
CYYG;2007-12-10 07:00;METAR CYYG 100700Z 28005KT 15SM SKC M15/M17 A3031 RMK SLP269=
CYYG;2007-12-10 08:00;METAR CYYG 100800Z 30006KT 15SM SKC M14/M16 A3031 RMK SLP267=
CYYG;2007-12-10 09:00;METAR CYYG 100900Z 23005KT 15SM SKC M14/M17 A3029 RMK SLP263=
CYYG;2007-12-10 10:00;METAR CYYG 101000Z 27004KT 15SM SKC M14/M17 A3028 RMK SLP259=
CYYG;2007-12-10 11:00;METAR CYYG 101100Z 26004KT 15SM SCT020 M13/M16 A3027 RMK SC4 SLP256=
CYYG;2007-12-10 12:00;METAR CYYG 101200Z 27004KT 15SM FEW012 FEW059 M15/M18 A3027 RMK SC1SC1 SLP255=
CYYG;2007-12-10 13:00;METAR CYYG 101300Z 28003KT 15SM FEW020 BKN190 M16/M18 A3025 RMK SC1AC5 SLP249=
CYYG;2007-12-10 14:00;METAR CYYG 101400Z 29004KT 15SM FEW030 BKN190 M13/M15 A3025 RMK SC1AC5 SLP247=
CYYG;2007-12-10 15:00;METAR CYYG 101500Z 27004KT 15SM FEW030 OVC140 M12/M15 A3023 RMK SC1AC6 SLP241=
CYYG;2007-12-10 16:00;METAR CYYG 101600Z 27007KT 15SM FEW030 OVC130 M11/M15 A3020 RMK SC1AC6 SLP229=
CYYG;2007-12-10 17:00;METAR CYYG 101700Z 27009KT 15SM FEW030 BKN120 M11/M15 A3017 RMK SC1AC6 SLP220=
CYYG;2007-12-10 18:00;METAR CYYG 101800Z 27008KT 15SM FEW030 BKN120 M11/M14 A3015 RMK SC1AC6 SLP214=
CYYG;2007-12-10 19:00;METAR CYYG 101900Z 29009KT 15SM FEW030 FEW120 M11/M14 A3014 RMK SC1AC1 SLP210=
CYYG;2007-12-10 20:00;METAR CYYG 102000Z 27008KT 15SM FEW030 FEW120 M11/M14 A3013 RMK SC1AC1 SLP206=
CYYG;2007-12-10 21:00;METAR CYYG 102100Z 27005KT 15SM FEW030 M12/M15 A3014 RMK SC1 SLP210=
CYYG;2007-12-10 22:00;METAR CYYG 102200Z 24004KT 15SM SKC M12/M15 A3015 RMK SLP213=
CYYG;2007-12-10 23:00;METAR CYYG 102300Z 26005KT 15SM SKC M12/M15 A3015 RMK SLP215=
CYYG;2007-12-11 00:00;METAR CYYG 110000Z 26004KT 15SM SKC M12/M14 A3015 RMK SLP214=
CYYG;2007-12-11 01:00;METAR CYYG 110100Z 28006KT 15SM SKC M13/M15 A3015 RMK SLP215=
CYYG;2007-12-11 02:00;METAR CYYG 110200Z 26006KT 15SM SKC M12/M14 A3015 RMK SLP215=
CYYG;2007-12-11 03:00;METAR CYYG 110300Z 26005KT 15SM SKC M12/M14 A3015 RMK SLP214=
CYYG;2007-12-11 04:00;METAR CYYG 110400Z 25005KT 15SM SKC M11/M13 A3016 RMK SLP217=
CYYG;2007-12-11 05:00;METAR CYYG 110500Z 21005KT 15SM SKC M11/M13 A3016 RMK SLP218=
CYYG;2007-12-11 06:00;METAR CYYG 110600Z 24005KT 15SM SKC M10/M12 A3017 RMK SLP220=
CYYG;2007-12-11 07:00;METAR CYYG 110700Z 24006KT 15SM SKC M10/M12 A3018 RMK SLP223=
CYYG;2007-12-11 08:00;METAR CYYG 110800Z 25007KT 15SM SKC M10/M12 A3018 RMK SLP223=
CYYG;2007-12-11 09:00;METAR CYYG 110900Z 24007KT 15SM SKC M10/M12 A3019 RMK SLP226=
CYYG;2007-12-11 10:00;METAR CYYG 111000Z 26007KT 15SM SCT025 M10/M12 A3020 RMK SC3 SLP230=
CYYG;2007-12-11 11:00;METAR CYYG 111100Z 26007KT 15SM FEW026 FEW250 M10/M12 A3021 RMK SC2CI0 SLP235=
CYYG;2007-12-11 12:00;METAR CYYG 111200Z 26007KT 15SM FEW030 BKN250 M10/M12 A3023 RMK SC1CI2 SLP240=
CYYG;2007-12-11 13:00;METAR CYYG 111300Z 26009KT 15SM FEW030 BKN250 M09/M11 A3026 RMK SC1CI2 SLP250=
CYYG;2007-12-11 14:00;METAR CYYG 111400Z 26007KT 15SM FEW030 BKN250 M08/M10 A3026 RMK SC1CI2 SLP250=
CYYG;2007-12-11 15:00;METAR CYYG 111500Z 26009KT 15SM FEW030 SCT250 M07/M10 A3025 RMK SC1CI1 SLP247=
CYYG;2007-12-11 16:00;METAR CYYG 111600Z 27007KT 15SM FEW030 SCT250 M07/M10 A3020 RMK SC1CI1 SLP232=
CYYG;2007-12-11 17:00;METAR CYYG 111700Z 26007KT 15SM FEW030 BKN250 M06/M10 A3020 RMK SC1CI2 SLP229=
CYYG;2007-12-11 18:00;METAR CYYG 111800Z 26008KT 15SM FEW030 BKN250 M06/M11 A3021 RMK SC1CI3 SLP233=
CYYG;2007-12-11 19:00;METAR CYYG 111900Z 26005KT 15SM FEW030 BKN250 M06/M11 A3018 RMK SC1CI2 SLP224=
CYYG;2007-12-11 20:00;METAR CYYG 112000Z 25004KT 15SM FEW030 BKN250 M07/M11 A3016 RMK SC1CI2 SLP217=
CYYG;2007-12-11 21:00;METAR CYYG 112100Z 26005KT 15SM FEW030 SCT150 BKN250 M06/M10 A3015 RMK SC1AC2CI2 SLP214=
CYYG;2007-12-11 22:00;METAR CYYG 112200Z 25007KT 15SM SCT100 BKN190 BKN300 M06/M10 A3013 RMK AC2CI2CI2 SLP208=
CYYG;2007-12-11 23:00;METAR CYYG 112300Z 27008KT 15SM SCT100 BKN190 BKN300 M06/M09 A3015 RMK AC2CI2CI2 SLP213=
CYYG;2007-12-12 00:00;METAR CYYG 120000Z 27006KT 15SM BKN073 M06/M09 A3013 RMK AC6 SLP205=
CYYG;2007-12-12 01:00;METAR CYYG 120100Z 27006KT 15SM OVC089 M06/M09 A3011 RMK AC8 SLP199=
CYYG;2007-12-12 02:00;METAR CYYG 120200Z 25005KT 15SM BKN050 OVC089 M05/M09 A3008 RMK SC5AS3 SLP190=
CYYG;2007-12-12 03:00;METAR CYYG 120300Z 25004KT 15SM OVC078 M05/M09 A3005 RMK AS8 SLP180=
CYYG;2007-12-12 04:00;METAR CYYG 120400Z 24004KT 15SM OVC060 M05/M08 A3003 RMK SC8 SLP172=
CYYG;2007-12-12 05:00;METAR CYYG 120500Z 00000KT 15SM OVC055 M05/M08 A2999 RMK SC8 SLP159=
CYYG;2007-12-12 05:19;SPECI CYYG 120519Z 19003KT 15SM -SN OVC056 M05/ RMK SC8=
CYYG;2007-12-12 06:00;METAR CYYG 120600Z 18003KT 15SM -SN OVC029 M05/M08 A2995 RMK SC8 SLP145=
CYYG;2007-12-12 07:00;METAR CYYG 120700Z 21006KT 3SM -SN OVC030 M05/M07 A2992 RMK SC8 SLP135=
CYYG;2007-12-12 08:00;METAR CYYG 120800Z 18007KT 10SM -SN OVC036 M05/M06 A2986 RMK SC8 PRESFR SLP115=
CYYG;2007-12-12 09:00;METAR CYYG 120900Z 17004KT 5SM -SN SCT036 OVC062 M04/M06 A2982 RMK SC3SC5 SLP102=
CYYG;2007-12-12 09:16;SPECI CYYG 120916Z 15004KT 10SM -SN BKN008 OVC055 M04/ RMK SF6SC2=
CYYG;2007-12-12 09:26;SPECI CYYG 120926Z 14005KT 15SM -SN BKN005 OVC010 M04/ RMK SF6SF2=
CYYG;2007-12-12 10:00;METAR CYYG 121000Z 16008KT 3SM -SN BKN004 OVC010 M04/M05 A2977 RMK SF6SF2 /S01/ SLP083=
CYYG;2007-12-12 11:00;METAR CYYG 121100Z 17011KT 3SM -SN BKN004 OVC011 M03/M05 A2969 RMK SF6SF2 PRESFR SLP056=
CYYG;2007-12-12 12:00;METAR CYYG 121200Z 17008KT 2SM -SN OVC005 M03/M04 A2968 RMK SF8 SLP052=
CYYG;2007-12-12 12:20;SPECI CYYG 121220Z 16010KT 3/4SM R03/3000V4000FT/D -SN OVC003 M03/ RMK SF8=
CYYG;2007-12-12 12:44;SPECI CYYG 121244Z 15009KT 2SM -SN OVC005 M03/ RMK SF8=
CYYG;2007-12-12 13:00;METAR CYYG 121300Z 16007KT 3SM -SN BKN005 OVC019 M03/M04 A2963 RMK SF6SC2 SLP036=
CYYG;2007-12-12 13:33;SPECI CYYG 121333Z 15007KT 1SM R03/P6000FT/U -SN OVC005 M03/ RMK SF8=
CYYG;2007-12-12 14:00;METAR CYYG 121400Z 15008KT 1 1/2SM -SN BKN005 OVC019 M03/M04 A2955 RMK SF7SC1 PRESFR SLP010=
CYYG;2007-12-12 14:34;SPECI CYYG 121434Z 16008KT 6SM -SN OVC005 M02/ RMK SF8=
CYYG;2007-12-12 15:00;METAR CYYG 121500Z 17007KT 6SM -SN OVC004 M02/M03 A2950 RMK SF8 SLP993=
CYYG;2007-12-12 16:00;METAR CYYG 121600Z 19007KT 6SM -SN OVC004 M01/M02 A2944 RMK SF8 PRESFR SLP973=
CYYG;2007-12-12 16:09;SPECI CYYG 121609Z 20008KT 1 1/2SM -SN OVC003 M01/ RMK SF8=
CYYG;2007-12-12 16:52;SPECI CYYG 121652Z 26007KT 10SM -SN OVC005 M01/ RMK SF8=
CYYG;2007-12-12 17:00;METAR CYYG 121700Z 26008KT 12SM -SN OVC006 M01/M02 A2942 RMK SF8 SLP967=
CYYG;2007-12-12 17:26;SPECI CYYG 121726Z 26011G16KT 15SM OVC008 M00/ RMK SF8=
CYYG;2007-12-12 18:00;METAR CYYG 121800Z 29013KT 15SM BKN009 OVC018 M01/M02 A2942 RMK SF6SC2 SLP963=
CYYG;2007-12-12 19:00;METAR CYYG 121900Z 29017G26KT 15SM SCT008 BKN020 M01/M04 A2943 RMK SF3SC4 SLP969=
CYYG;2007-12-12 21:00;METAR CYYG 122100Z 29010G18KT 15SM FEW008 BKN027 M01/M04 A2949 RMK SF2SC5 SLP989=
CYYG;2007-12-12 22:00;METAR CYYG 122200Z 28011G17KT 15SM FEW008 BKN030 M02/M05 A2952 RMK SF1SC4 SLP998=
CYYG;2007-12-12 22:42;SPECI CYYG 122242Z 29018KT 10SM -SHSN DRSN SCT025 BKN037 M01/ RMK SC3SC3=
CYYG;2007-12-12 22:45;SPECI CYYG 122245Z 29017G26KT 3SM -SHSN DRSN SCT010 OVC023 M01/ RMK SF3SC5=
CYYG;2007-12-12 23:00;METAR CYYG 122300Z 29014G26KT 10SM -SHSN DRSN FEW010 OVC030 M02/M04 A2955 RMK SF2SC6 SLP008=
CYYG;2007-12-13 00:00;METAR CYYG 130000Z 30017G27KT 15SM -SHSN DRSN OVC030 M03/M08 A2961 RMK SC8 PRESRR SLP029=
CYYG;2007-12-13 01:00;METAR CYYG 130100Z 30015G25KT 15SM -SHSN DRSN OVC028 M05/M09 A2966 RMK SC8 SLP047=
CYYG;2007-12-13 02:00;METAR CYYG 130200Z 30019G27KT 15SM -SHSN DRSN OVC033 M06/M11 A2970 RMK SC8 SLP061=
CYYG;2007-12-13 03:00;METAR CYYG 130300Z 29017G27KT 15SM -SHSN DRSN OVC045 M07/M12 A2976 RMK SC8 SLP080=
CYYG;2007-12-13 04:00;METAR CYYG 130400Z 31018G29KT 10SM -SHSN DRSN BKN029 OVC045 M08/M12 A2980 RMK SC5SC3 SLP094=
CYYG;2007-12-13 05:00;METAR CYYG 130500Z 30016G21KT 15SM -SHSN DRSN BKN028 M09/M14 A2985 RMK SC6 SLP112=
CYYG;2007-12-13 06:00;METAR CYYG 130600Z 30020G29KT 15SM -SHSN DRSN SCT026 OVC042 M09/M15 A2990 RMK SC3SC5 SLP127=
CYYG;2007-12-13 07:00;METAR CYYG 130700Z 29017G30KT 15SM DRSN BKN031 M10/M15 A2994 RMK SC6 SLP142=
CYYG;2007-12-13 07:44;SPECI CYYG 130744Z 30018G27KT 15SM -SHSN DRSN OVC024 M10/ RMK SC8=
CYYG;2007-12-13 08:00;METAR CYYG 130800Z 30021G26KT 15SM -SHSN DRSN BKN024 OVC039 M10/M15 A2998 RMK SC6SC2 SLP155=
CYYG;2007-12-13 09:00;METAR CYYG 130900Z 29015G24KT 15SM -SHSN DRSN OVC039 M10/M15 A3002 RMK SC8 SLP170=
CYYG;2007-12-13 10:00;METAR CYYG 131000Z 29015G26KT 15SM -SHSN DRSN BKN026 M11/M16 A3005 RMK SC6 SLP179=
CYYG;2007-12-13 11:00;METAR CYYG 131100Z 29016G21KT 15SM DRSN FEW026 M12/M17 A3007 RMK SC2 SLP185=
CYYG;2007-12-13 12:00;METAR CYYG 131200Z 30014G21KT 15SM DRSN FEW025 FEW040 M12/M17 A3009 RMK SC1SC1 SLP194=
CYYG;2007-12-13 13:00;METAR CYYG 131300Z 31019G31KT 15SM DRSN FEW025 FEW040 FEW280 M12/M16 A3012 RMK SC1SC1CI1 CONTRAILS SLP202=
CYYG;2007-12-13 14:00;METAR CYYG 131400Z 29017KT 15SM DRSN FEW040 FEW280 M11/M16 A3015 RMK SC1CI0 SLP213=
CYYG;2007-12-13 15:00;METAR CYYG 131500Z 29013G19KT 15SM DRSN FEW040 BKN280 M11/M15 A3018 RMK SC2CI2 SLP223=
CYYG;2007-12-13 16:00;METAR CYYG 131600Z 29013G19KT 15SM SCT028 BKN280 M11/M15 A3018 RMK SC3CI2 SLP224=
CYYG;2007-12-13 17:00;METAR CYYG 131700Z 29014KT 15SM BKN030 BKN280 M10/M15 A3018 RMK SC6CI1 SLP224=
CYYG;2007-12-13 17:07;SPECI CYYG 131707Z 28010G16KT 15SM -SHSN OVC029 M10/ RMK SC8=
CYYG;2007-12-13 18:00;METAR CYYG 131800Z 28012KT 8SM -SHSN OVC028 M11/M14 A3019 RMK SC8 SLP226=
CYYG;2007-12-13 19:00;METAR CYYG 131900Z 28009KT 10SM -SHSN OVC028 M11/M14 A3023 RMK SC8 SLP240=
CYYG;2007-12-13 20:00;METAR CYYG 132000Z 27007KT 10SM -SHSN OVC028 M11/M15 A3022 RMK SC8 SLP236=
CYYG;2007-12-13 21:00;METAR CYYG 132100Z 27009KT 12SM -SHSN OVC030 M11/M15 A3023 RMK SC8 SLP241=
CYYG;2007-12-13 22:00;METAR CYYG 132200Z 26011KT 15SM -SHSN BKN032 OVC250 M11/M15 A3023 RMK SC7CI1 SLP240=
CYYG;2007-12-13 22:45;SPECI CYYG 132245Z 27009KT 15SM BKN035 OVC220 M11/ RMK SC6CS2=
CYYG;2007-12-13 23:00;METAR CYYG 132300Z 28008KT 15SM BKN036 OVC220 M11/M16 A3020 RMK SC6CS2 SLP232=
CYYG;2007-12-14 00:00;METAR CYYG 140000Z 28008KT 15SM BKN038 M11/M15 A3024 RMK SC6 SLP244=
CYYG;2007-12-14 01:00;METAR CYYG 140100Z 29009KT 15SM FEW038 OVC140 M11/M15 A3024 RMK SC2AS6 SLP244=
CYYG;2007-12-14 02:00;METAR CYYG 140200Z 29007KT 15SM FEW038 OVC130 M11/M16 A3020 RMK SC2AS6 SLP232=
CYYG;2007-12-14 03:00;METAR CYYG 140300Z 31006KT 15SM FEW034 OVC100 M11/M15 A3020 RMK SC2AS6 SLP230=
CYYG;2007-12-14 04:00;METAR CYYG 140400Z 28005KT 15SM BKN034 OVC100 M11/M15 A3019 RMK SC6AS2 SLP226=
CYYG;2007-12-14 05:00;METAR CYYG 140500Z 32004KT 15SM FEW034 OVC080 M11/M15 A3016 RMK SC2AS6 SLP216=
CYYG;2007-12-14 06:00;METAR CYYG 140600Z 32003KT 15SM FEW034 OVC120 M12/M15 A3014 RMK SC2AS6 SLP210=
CYYG;2007-12-14 07:00;METAR CYYG 140700Z 27003KT 15SM BKN027 OVC120 M12/M15 A3011 RMK SC6AS2 SLP199=
CYYG;2007-12-14 08:00;METAR CYYG 140800Z 32003KT 15SM FEW027 OVC077 M13/M16 A3008 RMK SC2AC6 SLP191=
CYYG;2007-12-14 09:00;METAR CYYG 140900Z 30002KT 15SM FEW027 OVC073 M13/M15 A3006 RMK SC2AC6 SLP185=
CYYG;2007-12-14 10:00;METAR CYYG 141000Z 30002KT 15SM FEW027 BKN068 OVC086 M12/M15 A3005 RMK SC2AC4AC2 SLP180=
CYYG;2007-12-14 11:00;METAR CYYG 141100Z 29003KT 15SM FEW068 OVC088 M11/M15 A3004 RMK AC2AC6 SLP176=
CYYG;2007-12-14 12:00;METAR CYYG 141200Z 30005KT 15SM SCT038 OVC060 M11/M14 A3006 RMK SC3SC5 SLP182=
CYYG;2007-12-14 12:11;SPECI CYYG 141211Z 30008KT 5SM -SHSN SCT015 OVC032 M10/ RMK SC3SC5=
CYYG;2007-12-14 12:27;SPECI CYYG 141227Z 30008KT 2SM -SHSN BKN008 OVC020 M10/ RMK SF6SC2=
CYYG;2007-12-14 12:39;SPECI CYYG 141239Z 29007KT 1 1/2SM -SN VV012 M10/ RMK SN8=
CYYG;2007-12-14 12:52;SPECI CYYG 141252Z 29006KT 5/8SM R03/3500VP6000FT/D -SN VV006 M11/ RMK SN8=
CYYG;2007-12-14 13:00;METAR CYYG 141300Z 29007KT 5/8SM R03/3000V5000FT/D -SN VV006 M10/M12 A3008 RMK SN8 SLP191=
CYYG;2007-12-14 13:34;SPECI CYYG 141334Z 31003KT 2SM -SN OVC020 M10/ RMK SC8=
CYYG;2007-12-14 13:49;SPECI CYYG 141349Z 32002KT 4SM -SN OVC020 M10/ RMK SC8=
CYYG;2007-12-14 14:00;METAR CYYG 141400Z 32003KT 6SM -SN BKN021 OVC046 M10/M12 A3004 RMK SC6SC2 /S01/ SLP175=
CYYG;2007-12-14 15:00;METAR CYYG 141500Z 29005KT 3SM -SN BKN012 OVC025 M10/M12 A3004 RMK SC5SC3 SLP175=
CYYG;2007-12-14 16:00;METAR CYYG 141600Z 29003KT 3SM -SN BKN012 OVC025 M09/M11 A3000 RMK SC6SC2 SLP163=
CYYG;2007-12-14 17:00;METAR CYYG 141700Z 30002KT 5SM -SN BKN014 OVC027 M08/M10 A2997 RMK SC6SC2 SLP154=
CYYG;2007-12-14 17:42;SPECI CYYG 141742Z 00000KT 15SM -SN SCT014 OVC035 M07/ RMK SC4SC4=
CYYG;2007-12-14 18:00;METAR CYYG 141800Z 00000KT 15SM -SN FEW015 OVC038 M08/M10 A2995 RMK SC2SC6 SLP144=
CYYG;2007-12-14 18:07;SPECI CYYG 141807Z 27002KT 15SM FEW015 OVC041 M08/ RMK SC2SC6=
CYYG;2007-12-14 19:00;METAR CYYG 141900Z 18002KT 15SM FEW014 OVC088 M08/M10 A2993 RMK SC1AS7 SLP140=
CYYG;2007-12-14 19:39;SPECI CYYG 141939Z 16004KT 8SM -SN FEW015 OVC040 M08/ RMK SC1SC7=
CYYG;2007-12-14 20:00;METAR CYYG 142000Z 15004KT 3SM -SN VV022 M08/M10 A2992 RMK SN8 SLP136=
CYYG;2007-12-14 20:22;SPECI CYYG 142022Z 15003KT 2SM -SN OVC030 M08/ RMK SN4SC4=
CYYG;2007-12-14 21:00;METAR CYYG 142100Z 14004KT 2SM -SN OVC025 M09/M10 A2991 RMK SN4SC4 SLP131=
CYYG;2007-12-14 22:00;METAR CYYG 142200Z 14004KT 1 1/2SM -SN BKN008 OVC018 M08/M10 A2989 RMK SF6SC2 SLP125=
CYYG;2007-12-14 22:19;SPECI CYYG 142219Z 13004KT 1 1/2SM -SN VV006 M08/ RMK SN8 /S01/=
CYYG;2007-12-14 23:00;METAR CYYG 142300Z 12006KT 3SM -SN VV010 M08/M09 A2985 RMK SN8 SLP113=
CYYG;2007-12-15 00:00;METAR CYYG 150000Z 13006KT 5SM -SN OVC018 M07/M08 A2982 RMK SC8 SLP103=
CYYG;2007-12-15 01:00;METAR CYYG 150100Z 16006KT 6SM -SN FEW007 OVC016 M06/M07 A2980 RMK SF2SC6 SLP096=
CYYG;2007-12-15 02:00;METAR CYYG 150200Z 23008KT 10SM -SN FEW007 OVC015 M04/M05 A2979 RMK SF2SC6 SLP091=
CYYG;2007-12-15 03:00;METAR CYYG 150300Z 27010G16KT 12SM -SN OVC015 M05/M07 A2980 RMK SC8 SLP094=
CYYG;2007-12-15 04:00;METAR CYYG 150400Z 29016KT 12SM -SN OVC015 M06/M08 A2982 RMK SC8 SLP101=
CYYG;2007-12-15 05:00;METAR CYYG 150500Z 29013G19KT 15SM -SN OVC016 M07/M09 A2983 RMK SC8 SLP105=
CYYG;2007-12-15 06:00;METAR CYYG 150600Z 30012KT 15SM -SHSN BKN016 M07/M10 A2984 RMK SC6 SLP108=
CYYG;2007-12-15 06:15;SPECI CYYG 150615Z 30010G17KT 15SM BKN022 M08/ RMK SC6=
CYYG;2007-12-15 07:00;METAR CYYG 150700Z 29018KT 15SM -SHSN BKN024 M08/M11 A2989 RMK SC7 SLP124=
CYYG;2007-12-15 08:00;METAR CYYG 150800Z 30015G25KT 15SM -SHSN BKN024 M09/M13 A2990 RMK SC6 SLP129=
CYYG;2007-12-15 09:00;METAR CYYG 150900Z 29016G25KT 15SM -SHSN BKN026 M10/M13 A2992 RMK SC7 SLP136=
CYYG;2007-12-15 10:00;METAR CYYG 151000Z 29019G28KT 15SM -SHSN BKN027 M10/M13 A2993 RMK SC6 SLP138=
CYYG;2007-12-15 11:00;METAR CYYG 151100Z 30021G29KT 15SM -SHSN DRSN BKN030 M10/M13 A2994 RMK SC6 SLP143=
CYYG;2007-12-15 12:00;METAR CYYG 151200Z 30019G30KT 15SM -SHSN DRSN SCT052 M10/M14 A2998 RMK SC3 SLP156=
CYYG;2007-12-15 13:00;METAR CYYG 151300Z 29018G26KT 15SM -SHSN DRSN SCT050 M11/M14 A3001 RMK SC3 SLP167=
CYYG;2007-12-15 13:46;SPECI CYYG 151346Z 29022G31KT 15SM DRSN FEW045 M11/ RMK SC2=
CYYG;2007-12-15 14:00;METAR CYYG 151400Z 29021G31KT 15SM DRSN FEW045 FEW070 M11/M14 A3005 RMK SC1AC1 SLP178=
CYYG;2007-12-15 15:42;SPECI CYYG 151542Z 29019G27KT 2SM -SHSN DRSN BKN016 M11/ RMK SC5=
CYYG;2007-12-15 16:00;METAR CYYG 151600Z 30019G24KT 2SM -SHSN DRSN BKN011 M10/M13 A3010 RMK SC6 SLP197=
CYYG;2007-12-15 17:00;METAR CYYG 151700Z 30016G26KT 2 1/2SM R03/4500VP6000FT/D -SHSN DRSN OVC012 M10/M12 A3014 RMK SN6SC2 SLP210=
CYYG;2007-12-15 18:00;METAR CYYG 151800Z 30016G24KT 3SM -SHSN DRSN BKN016 M10/M12 A3017 RMK SN4SC2 SLP222=
CYYG;2007-12-15 19:00;METAR CYYG 151900Z 31017G27KT 3SM R03/3500VP6000FT/D -SHSN DRSN BKN014 M10/M12 A3021 RMK SN5SC2 SLP235=
CYYG;2007-12-15 19:07;SPECI CYYG 151907Z 31020G30KT 1 1/2SM R03/3500VP6000FT/D -SHSN DRSN OVC012 M10/ RMK SN6SC2=
CYYG;2007-12-15 20:00;METAR CYYG 152000Z 31016G21KT 1SM R03/4500VP6000FT/D -SHSN DRSN VV010 M10/M12 A3027 RMK SN8 SLP253=
CYYG;2007-12-15 21:00;METAR CYYG 152100Z 30011G17KT 2 1/2SM -SHSN DRSN BKN033 M10/M13 A3029 RMK SN6SC2 SLP261=
CYYG;2007-12-15 22:00;METAR CYYG 152200Z 30013G18KT 3SM -SHSN DRSN OVC028 M11/M13 A3033 RMK SN2SC6 SLP275=
CYYG;2007-12-15 23:00;METAR CYYG 152300Z 29016KT 6SM -SHSN BKN020 BKN040 M12/M15 A3036 RMK SC5SC1 SLP285=
CYYG;2007-12-16 00:00;METAR CYYG 160000Z 30011KT 15SM -SHSN FEW018 M12/M15 A3037 RMK SC2 /S01/ SLP287=
CYYG;2007-12-16 01:00;METAR CYYG 160100Z 29009G15KT 10SM -SHSN DRSN SCT025 M12/M14 A3038 RMK SC3 SLP291=
CYYG;2007-12-16 02:00;METAR CYYG 160200Z 29012KT 10SM -SHSN DRSN BKN034 M12/M14 A3039 RMK SC6 SLP296=
CYYG;2007-12-16 03:00;METAR CYYG 160300Z 29015KT 10SM -SHSN DRSN OVC027 M12/M14 A3039 RMK SC8 SLP295=
CYYG;2007-12-16 04:00;METAR CYYG 160400Z 26009KT 10SM -SHSN OVC031 M12/M14 A3042 RMK SC8 SLP307=
CYYG;2007-12-16 05:00;METAR CYYG 160500Z 29011KT 10SM -SHSN DRSN BKN032 M12/M14 A3040 RMK SC6 SLP299=
CYYG;2007-12-16 06:00;METAR CYYG 160600Z 30010KT 15SM FEW032 OVC190 M12/M14 A3041 RMK SC2AC6 SLP302=
CYYG;2007-12-16 07:00;METAR CYYG 160700Z 29008KT 15SM OVC180 M12/M14 A3042 RMK AC8 SLP304=
CYYG;2007-12-16 08:00;METAR CYYG 160800Z 31007KT 15SM OVC180 M11/M14 A3042 RMK AC8 SLP305=
CYYG;2007-12-16 09:00;METAR CYYG 160900Z 30007KT 15SM OVC180 M11/M14 A3043 RMK AC8 SLP309=
CYYG;2007-12-16 10:00;METAR CYYG 161000Z 32004KT 15SM FEW180 M12/M15 A3042 RMK AC2 SLP305=
CYYG;2007-12-16 11:00;METAR CYYG 161100Z 33006KT 15SM FEW180 M12/M14 A3040 RMK AC2 SLP298=
CYYG;2007-12-16 12:00;METAR CYYG 161200Z 29004KT 15SM BKN032 OVC180 M11/M14 A3040 RMK SC6AC2 SLP298=
CYYG;2007-12-16 12:34;SPECI CYYG 161234Z 27005KT 10SM -SHSN OVC030 M11/ RMK SC8=
CYYG;2007-12-16 13:00;METAR CYYG 161300Z 27004KT 10SM -SHSN OVC031 M11/M13 A3041 RMK SC8 SLP303=
CYYG;2007-12-16 14:00;METAR CYYG 161400Z 28002KT 10SM -SHSN OVC033 M10/M12 A3041 RMK SC8 SLP302=
CYYG;2007-12-16 15:00;METAR CYYG 161500Z 26002KT 12SM -SHSN BKN030 OVC110 M09/M12 A3039 RMK SC5AS3 SLP296=
CYYG;2007-12-16 16:00;METAR CYYG 161600Z 18002KT 15SM -SHSN FEW030 OVC090 M09/M12 A3034 RMK SC2AS6 SLP278=
CYYG;2007-12-16 17:00;METAR CYYG 161700Z 08004KT 15SM -SHSN OVC100 M08/M11 A3028 RMK AS8 PRESFR SLP256=
CYYG;2007-12-16 18:00;METAR CYYG 161800Z 11002KT 15SM -SHSN FEW030 OVC070 M08/M12 A3026 RMK SC2AS6 SLP250=
CYYG;2007-12-16 19:00;METAR CYYG 161900Z 10005KT 12SM -SHSN FEW030 OVC061 M08/M11 A3021 RMK SC2SC6 SLP234=
CYYG;2007-12-16 19:43;SPECI CYYG 161943Z 10007KT 2SM -SN OVC022 M08/ RMK SN4SC4=
CYYG;2007-12-16 20:00;METAR CYYG 162000Z 09007KT 1SM R03/P6000FT/U -SN OVC020 M08/M10 A3016 RMK SN4SC4 SLP216=
CYYG;2007-12-16 20:46;SPECI CYYG 162046Z 09009KT 1SM R03/P6000FT/N -SN VV009 M08/ RMK SN8=
CYYG;2007-12-16 21:00;METAR CYYG 162100Z 09009KT 1SM R03/P6000FT/N -SN VV009 M08/M09 A3011 RMK SN8 SLP201=
CYYG;2007-12-16 22:00;METAR CYYG 162200Z 09011KT 1SM R03/P6000FT/U -SN VV009 M07/M09 A3001 RMK SN8 PRESFR SLP165=
CYYG;2007-12-16 23:00;METAR CYYG 162300Z 10013G18KT 2SM -SN OVC012 M06/M07 A2992 RMK SC8 PRESFR SLP137=
CYYG;2007-12-16 23:21;SPECI CYYG 162321Z 09015G20KT 3/4SM R03/P6000FT/D -SN VV004 M06/ RMK SN8=
CYYG;2007-12-17 00:00;METAR CYYG 170000Z 10016G24KT 3/4SM R03/4000V5500FT/U -SN VV004 M05/M07 A2979 RMK SN8 PRESFR SLP092=
CYYG;2007-12-17 01:00;METAR CYYG 170100Z 10019G26KT 3/4SM R03/3500V5000FT/U -SN VV004 M05/M06 A2970 RMK SN8 SLP062=
CYYG;2007-12-17 02:00;METAR CYYG 170200Z 10020G27KT 3/4SM R03/3000V4500FT/N -SN BLSN OVC004 M05/M06 A2957 RMK SF8 SLP018=
CYYG;2007-12-17 02:45;SPECI CYYG 170245Z 10021G32KT 1SM R03/5000FT/U -SNSG BLSN BKN005 OVC014 M04/ RMK SF6SC2=
CYYG;2007-12-17 03:00;METAR CYYG 170300Z 09022G30KT 2 1/2SM -SNSG BKN007 OVC020 M04/M05 A2939 RMK SF6SC2 SLP956=
CYYG;2007-12-17 03:24;SPECI CYYG 170324Z 10024G32KT 1SM R03/4000VP6000FT/D -SNSG OVC006 M03/ RMK SF8=
CYYG;2007-12-17 04:00;METAR CYYG 170400Z 11026G34KT 1 1/2SM -SNSG OVC008 M03/M04 A2924 RMK SF8 /S03/PRESFR/ SLP904=
CYYG;2007-12-17 05:00;METAR CYYG 170500Z 12022G38KT 3SM -SN OVC009 M00/M02 A2908 RMK SF8 /S05/PRESFR/ SLP852=
CYYG;2007-12-17 05:05;SPECI CYYG 170505Z 12027G42KT 3SM -FZRA OVC010 M00/ RMK SF8=
CYYG;2007-12-17 05:23;SPECI CYYG 170523Z 12026G39KT 5SM -RA OVC010 01/ RMK SF8=
CYYG;2007-12-17 06:00;METAR CYYG 170600Z 14034G43KT 10SM -RA OVC010 02/M00 A2887 RMK SF8 SLP779=
CYYG;2007-12-17 07:00;METAR CYYG 170700Z 14023G41KT 10SM -RA OVC010 03/M01 A2880 RMK SF8 SLP754=
CYYG;2007-12-17 08:00;METAR CYYG 170800Z 16021G33KT 15SM -RA SCT010 BKN021 OVC032 04/02 A2877 RMK SF3SC2SC2 SLP743=
CYYG;2007-12-17 09:00;METAR CYYG 170900Z 18015G22KT 15SM FEW010 SCT021 OVC043 04/02 A2875 RMK SF2SC2SC5 SLP738=
CYYG;2007-12-17 10:00;METAR CYYG 171000Z 21021G33KT 15SM SCT022 BKN036 OVC040 04/00 A2874 RMK SC3SC2SC3 SLP735=
CYYG;2007-12-17 11:00;METAR CYYG 171100Z 22024G40KT 15SM OVC031 02/M02 A2876 RMK SC8 SLP742=
CYYG;2007-12-17 12:00;METAR CYYG 171200Z 22025G34KT 15SM OVC025 02/M03 A2877 RMK SC8 SLP746=
CYYG;2007-12-17 12:22;SPECI CYYG 171222Z 22025G35KT 15SM -SHSN BKN025 01/ RMK SC7=
CYYG;2007-12-17 13:00;METAR CYYG 171300Z 23022G33KT 15SM -SHSN BKN025 01/M02 A2877 RMK SC5 SLP743=
CYYG;2007-12-17 13:43;SPECI CYYG 171343Z 23031G42KT 15SM BKN030 01/ RMK SC6=
CYYG;2007-12-17 14:00;METAR CYYG 171400Z 23030G42KT 15SM BKN030 00/M05 A2878 RMK SC5 SLP748=
CYYG;2007-12-17 15:00;METAR CYYG 171500Z 23023G34KT 15SM BKN030 M01/M07 A2881 RMK SC6 SLP759=
CYYG;2007-12-17 16:00;METAR CYYG 171600Z 24020G35KT 15SM FEW024 SCT250 M03/M09 A2884 RMK SC2CI1 SLP767=
CYYG;2007-12-17 17:00;METAR CYYG 171700Z 25023G37KT 15SM BKN026 M04/M10 A2888 RMK SC6 SLP782=
CYYG;2007-12-17 17:16;SPECI CYYG 171716Z 25023G32KT 15SM -SHSN BKN028 M04/ RMK SC7=
CYYG;2007-12-17 18:00;METAR CYYG 171800Z 25016G33KT 8SM -SHSN DRSN OVC025 M04/M09 A2892 RMK SC8 SLP795=
CYYG;2007-12-17 18:53;SPECI CYYG 171853Z 27018G30KT 2SM -SHSN BLSN OVC025 M05/ RMK SC8=
CYYG;2007-12-17 19:00;METAR CYYG 171900Z 26020G30KT 2SM -SN BLSN OVC025 M05/M09 A2898 RMK SC8 PRESRR SLP816=
CYYG;2007-12-17 19:19;SPECI CYYG 171919Z 26016G27KT 1 1/2SM -SN BLSN VV010 M05/ RMK SN8=
CYYG;2007-12-17 19:23;SPECI CYYG 171923Z 26019G27KT 1/2SM R03/2200VP6000FT/D -SN BLSN OVC017 M05/ RMK SN3SC5=
CYYG;2007-12-17 20:00;METAR CYYG 172000Z 27020G30KT 1SM R03/2200VP6000FT/U -SN BLSN VV013 M05/M08 A2905 RMK SN8 PRESRR SLP840=
CYYG;2007-12-17 20:19;SPECI CYYG 172019Z 27025G31KT 1/8SM R03/0600V6000FT/D SN +BLSN VV006 M06/ RMK SN8=
CYYG;2007-12-17 20:43;SPECI CYYG 172043Z 27021G28KT 2SM R03/3000VP6000FT/U -SN BLSN OVC038 M06/ REBLSN RMK SC8=
CYYG;2007-12-17 21:00;METAR CYYG 172100Z 27018G27KT 3SM R03/1200VP6000FT/U -SN BLSN FEW026 OVC038 M07/M09 A2913 RESN REBLSN RMK SC2SC6 PRESRR SLP868=
CYYG;2007-12-17 22:00;METAR CYYG 172200Z 27018G29KT 15SM -SN DRSN BKN029 M06/M11 A2917 RMK SC7 SLP881=
CYYG;2007-12-17 23:00;METAR CYYG 172300Z 29021G31KT 15SM -SN DRSN FEW026 OVC041 M07/M12 A2921 RMK SC2SC6 SLP894=
CYYG;2007-12-18 00:00;METAR CYYG 180000Z 28019G30KT 15SM BKN038 M07/M13 A2929 RMK SC7 SLP922=
CYYG;2007-12-18 01:00;METAR CYYG 180100Z 27019G27KT 15SM BKN035 M08/M14 A2934 RMK SC7 SLP938=
CYYG;2007-12-18 01:31;SPECI CYYG 180131Z 28020G29KT 15SM OVC034 M08/ RMK SC8=
CYYG;2007-12-18 02:00;METAR CYYG 180200Z 27014G27KT 15SM OVC036 M08/M14 A2938 RMK SC7 SLP952=
CYYG;2007-12-18 02:25;SPECI CYYG 180225Z 28012G24KT 10SM -SHSN SCT031 OVC039 M08/ RMK SC3SC5=
CYYG;2007-12-18 03:00;METAR CYYG 180300Z 28015G24KT 6SM -SHSN OVC042 M08/M13 A2942 RMK SC8 SLP966=
CYYG;2007-12-18 04:00;METAR CYYG 180400Z 29016G21KT 10SM -SHSN OVC039 M08/M12 A2946 RMK SC8 SLP980=
CYYG;2007-12-18 05:00;METAR CYYG 180500Z 29013G21KT 15SM -SHSN OVC042 M08/M12 A2950 RMK SC8 SLP992=
CYYG;2007-12-18 06:00;METAR CYYG 180600Z 29016G24KT 15SM -SHSN SCT023 OVC038 M09/M12 A2953 RMK SC3SC5 SLP002=
CYYG;2007-12-18 07:00;METAR CYYG 180700Z 29018G28KT 15SM SCT026 BKN037 M08/M12 A2958 RMK SC3SC3 SLP018=
CYYG;2007-12-18 08:00;METAR CYYG 180800Z 30021G28KT 15SM BKN038 M08/M13 A2963 RMK SC7 SLP035=
CYYG;2007-12-18 09:00;METAR CYYG 180900Z 29019KT 15SM BKN037 M08/M14 A2968 RMK SC7 SLP052=
CYYG;2007-12-18 10:00;METAR CYYG 181000Z 29015G26KT 15SM OVC032 M08/M13 A2972 RMK SC7 SLP067=
CYYG;2007-12-18 11:00;METAR CYYG 181100Z 30012G21KT 15SM OVC030 M08/M14 A2977 RMK SC8 SLP082=
CYYG;2007-12-18 12:00;METAR CYYG 181200Z 28013G20KT 15SM BKN028 M08/M14 A2981 RMK SC7 SLP099=
CYYG;2007-12-18 13:00;METAR CYYG 181300Z 29017G25KT 15SM BKN028 M08/M13 A2984 RMK SC7 SLP109=
CYYG;2007-12-18 14:00;METAR CYYG 181400Z 31017G25KT 15SM SCT025 M08/M13 A2987 RMK SC3 SLP120=
CYYG;2007-12-18 15:00;METAR CYYG 181500Z 31018G25KT 15SM DRSN FEW025 M08/M13 A2988 RMK SC2 SLP121=
CYYG;2007-12-18 16:00;METAR CYYG 181600Z 31018KT 15SM FEW025 M08/M13 A2988 RMK SC2 SLP122=
CYYG;2007-12-18 17:00;METAR CYYG 181700Z 30016G25KT 15SM FEW025 M08/M14 A2990 RMK SC2 SLP130=
CYYG;2007-12-18 18:00;METAR CYYG 181800Z 29016KT 15SM FEW025 FEW270 M08/M13 A2993 RMK SC2CI1 SLP139=
CYYG;2007-12-18 19:00;METAR CYYG 181900Z 29011G17KT 15SM FEW025 FEW270 M07/M13 A2996 RMK SC2CI0 SLP150=
CYYG;2007-12-18 20:00;METAR CYYG 182000Z 29008KT 15SM FEW030 FEW140 SCT270 M08/M13 A3000 RMK SC1AC2CI0 SLP162=
CYYG;2007-12-18 21:00;METAR CYYG 182100Z 29005KT 15SM FEW030 FEW160 M08/M14 A3003 RMK SC1AC2 SLP171=
CYYG;2007-12-18 22:00;METAR CYYG 182200Z 29006KT 15SM FEW030 FEW160 M08/M14 A3005 RMK SC1AC2 SLP179=
CYYG;2007-12-18 23:00;METAR CYYG 182300Z 29008KT 15SM FEW030 FEW160 M09/M14 A3008 RMK SC1AC1 SLP189=
CYYG;2007-12-19 00:00;METAR CYYG 190000Z 29008KT 15SM FEW030 FEW160 M09/M14 A3011 RMK SC1AC1 SLP201=
CYYG;2007-12-19 01:00;METAR CYYG 190100Z 28009KT 15SM BKN024 M10/M14 A3012 RMK SC5 SLP204=
CYYG;2007-12-19 02:00;METAR CYYG 190200Z 26008KT 12SM -SHSN OVC023 M09/M13 A3015 RMK SC8 SLP215=
CYYG;2007-12-19 03:00;METAR CYYG 190300Z 26007KT 10SM -SHSN OVC024 M09/M13 A3017 RMK SC8 SLP221=
CYYG;2007-12-19 04:00;METAR CYYG 190400Z 27007KT 10SM -SHSN OVC024 M10/M13 A3018 RMK SC8 SLP223=
CYYG;2007-12-19 05:00;METAR CYYG 190500Z 27010KT 10SM -SHSN OVC024 M10/M13 A3019 RMK SC8 SLP228=
CYYG;2007-12-19 06:00;METAR CYYG 190600Z 28008KT 10SM -SHSN OVC023 M10/M13 A3022 RMK SC8 SLP237=
CYYG;2007-12-19 07:00;METAR CYYG 190700Z 28008KT 10SM -SHSN OVC022 M10/M13 A3025 RMK SC8 SLP246=
CYYG;2007-12-19 08:00;METAR CYYG 190800Z 27005KT 10SM -SHSN OVC022 M11/M14 A3026 RMK SC8 SLP252=
CYYG;2007-12-19 09:00;METAR CYYG 190900Z 28005KT 15SM -SHSN BKN024 M12/M14 A3028 RMK SC6 SLP259=
CYYG;2007-12-19 09:12;SPECI CYYG 190912Z 25003KT 15SM SCT024 M12/ RMK SC4=
CYYG;2007-12-19 10:00;METAR CYYG 191000Z 24005KT 15SM FEW024 M13/M15 A3030 RMK SC2 SLP265=
CYYG;2007-12-19 11:00;METAR CYYG 191100Z 26005KT 15SM FEW025 M13/M14 A3032 RMK SC2 SLP272=
CYYG;2007-12-19 12:00;METAR CYYG 191200Z 25004KT 15SM FEW020 FEW100 M13/M15 A3035 RMK SC1AC1 SLP280=
CYYG;2007-12-19 13:00;METAR CYYG 191300Z 26005KT 15SM FEW020 M12/M14 A3036 RMK SC1 SLP286=
CYYG;2007-12-19 14:00;METAR CYYG 191400Z 26005KT 15SM FEW020 M12/M14 A3038 RMK SC1 SLP292=
CYYG;2007-12-19 15:00;METAR CYYG 191500Z 28007KT 15SM FEW020 FEW200 M10/M13 A3039 RMK SC1CI1 SLP296=
CYYG;2007-12-19 16:00;METAR CYYG 191600Z 29008KT 15SM FEW020 FEW200 M10/M14 A3038 RMK SC1CI1 SLP292=
CYYG;2007-12-19 17:00;METAR CYYG 191700Z 29005KT 15SM FEW020 FEW110 FEW200 M09/M13 A3039 RMK SC1AC1CI1 SLP294=
CYYG;2007-12-19 18:00;METAR CYYG 191800Z 31004KT 14SM FEW020 FEW110 SCT200 M09/M14 A3039 RMK SC1AC1CI1 SLP295=
CYYG;2007-12-19 19:00;METAR CYYG 191900Z 27005KT 15SM FEW020 FEW110 SCT200 M09/M13 A3039 RMK SC1AC1CI1 SLP296=
CYYG;2007-12-19 20:00;METAR CYYG 192000Z 27003KT 15SM FEW020 FEW110 FEW200 M09/M14 A3040 RMK SC1AC1CI1 SLP299=
CYYG;2007-12-19 21:00;METAR CYYG 192100Z 26004KT 15SM FEW020 FEW110 FEW200 M10/M14 A3042 RMK SC1AC1CI1 SLP305=
CYYG;2007-12-19 22:00;METAR CYYG 192200Z 26005KT 15SM FEW020 FEW110 FEW200 M11/M14 A3042 RMK SC1AC1CI1 SLP307=
CYYG;2007-12-19 23:00;METAR CYYG 192300Z 25005KT 15SM FEW020 FEW110 FEW200 M11/M15 A3044 RMK SC1AC1CI1 SLP311=
CYYG;2007-12-20 00:00;METAR CYYG 200000Z 25007KT 15SM FEW020 FEW110 M11/M14 A3045 RMK SC1AC1 SLP316=
CYYG;2007-12-20 01:00;METAR CYYG 200100Z 26004KT 15SM FEW020 BKN098 M11/M15 A3045 RMK SC1AC4 SLP317=
CYYG;2007-12-20 02:00;METAR CYYG 200200Z 29003KT 15SM BKN100 M12/M15 A3044 RMK AC7 SLP314=
CYYG;2007-12-20 03:00;METAR CYYG 200300Z 29002KT 15SM OVC100 M12/M15 A3044 RMK AC8 SLP312=
CYYG;2007-12-20 04:00;METAR CYYG 200400Z 36002KT 15SM BKN150 M13/M15 A3044 RMK AC6 SLP311=
CYYG;2007-12-20 05:00;METAR CYYG 200500Z 36002KT 15SM FEW080 BKN120 M13/M15 A3043 RMK AC2AC6 SLP308=
CYYG;2007-12-20 06:00;METAR CYYG 200600Z 36002KT 15SM FEW080 BKN120 M13/M15 A3042 RMK AC2AC6 SLP305=
CYYG;2007-12-20 07:00;METAR CYYG 200700Z 00000KT 15SM OVC081 M12/M14 A3043 RMK AC8 SLP307=
CYYG;2007-12-20 08:00;METAR CYYG 200800Z 00000KT 15SM OVC070 M11/M13 A3042 RMK AC8 SLP305=
CYYG;2007-12-20 09:00;METAR CYYG 200900Z 08009KT 15SM BKN070 M09/M11 A3041 RMK AC6 SLP301=
CYYG;2007-12-20 10:00;METAR CYYG 201000Z 07007KT 15SM BKN078 M08/M11 A3040 RMK AC7 SLP298=
CYYG;2007-12-20 11:00;METAR CYYG 201100Z 07008KT 15SM FEW020 BKN110 M09/M13 A3040 RMK SC2AC3 SLP297=
CYYG;2007-12-20 12:00;METAR CYYG 201200Z 08008KT 15SM FEW023 BKN140 BKN200 M08/M12 A3039 RMK SC2AC3CI1 SLP296=
CYYG;2007-12-20 13:00;METAR CYYG 201300Z 08008KT 15SM FEW023 BKN140 M07/M11 A3039 RMK SC2AC5 SLP295=
CYYG;2007-12-20 14:00;METAR CYYG 201400Z 07010KT 15SM BKN026 OVC140 M06/M10 A3037 RMK SC6AC2 SLP287=
CYYG;2007-12-20 15:00;METAR CYYG 201500Z 07012G17KT 15SM BKN024 OVC140 M05/M10 A3035 RMK SC5AC2 SLP280=
CYYG;2007-12-20 16:00;METAR CYYG 201600Z 07015G20KT 15SM BKN024 OVC150 M05/M11 A3034 RMK SC7AC1 SLP277=
CYYG;2007-12-20 17:00;METAR CYYG 201700Z 07012G17KT 15SM OVC024 M05/M10 A3033 RMK SC8 SLP275=
CYYG;2007-12-20 17:33;SPECI CYYG 201733Z 08016G21KT 15SM -SHSN OVC026 M05/ RMK SC8=
CYYG;2007-12-20 18:00;METAR CYYG 201800Z 07014KT 15SM -SHSN OVC026 M05/M10 A3033 RMK SC8 SLP275=
CYYG;2007-12-20 19:00;METAR CYYG 201900Z 06012KT 15SM -SHSN OVC027 M05/M10 A3032 RMK SC8 SLP271=
CYYG;2007-12-20 20:00;METAR CYYG 202000Z 07012G17KT 15SM OVC027 M05/M10 A3033 RMK SC8 OCNL -SHSN SLP274=
CYYG;2007-12-20 21:00;METAR CYYG 202100Z 05010G15KT 15SM -SHSN OVC027 M05/M10 A3033 RMK SC8 SLP273=
CYYG;2007-12-20 22:00;METAR CYYG 202200Z 05014KT 15SM -SHSN OVC027 M05/M10 A3031 RMK SC8 SLP269=
CYYG;2007-12-20 23:00;METAR CYYG 202300Z 04017G22KT 15SM -SHSN OVC027 M05/M10 A3030 RMK SC8 SLP265=
CYYG;2007-12-21 00:00;METAR CYYG 210000Z 04018KT 15SM -SHSN OVC025 M05/M10 A3030 RMK SC8 SLP263=
CYYG;2007-12-21 01:00;METAR CYYG 210100Z 04020G25KT 15SM OVC027 M05/M10 A3030 RMK SC8 SLP263=
CYYG;2007-12-21 01:13;SPECI CYYG 210113Z 04019KT 15SM -SHSN OVC027 M05/ RMK SC8=
CYYG;2007-12-21 02:00;METAR CYYG 210200Z 03019KT 15SM -SHSN OVC025 M05/M10 A3031 RMK SC8 SLP269=
CYYG;2007-12-21 03:00;METAR CYYG 210300Z 03015G21KT 15SM -SHSN OVC023 M06/M10 A3033 RMK SC8 SLP275=
CYYG;2007-12-21 04:00;METAR CYYG 210400Z 02018KT 15SM -SHSN OVC021 M06/M10 A3032 RMK SC8 SLP272=
CYYG;2007-12-21 05:00;METAR CYYG 210500Z 02015G20KT 15SM -SHSN OVC024 M06/M11 A3032 RMK SC8 SLP272=
CYYG;2007-12-21 06:00;METAR CYYG 210600Z 02013KT 15SM -SHSN OVC022 M06/M10 A3033 RMK SC8 SLP274=
CYYG;2007-12-21 07:00;METAR CYYG 210700Z 03016KT 15SM -SHSN OVC022 M06/M11 A3036 RMK SC8 SLP284=
CYYG;2007-12-21 08:00;METAR CYYG 210800Z 02013G24KT 15SM -SHSN OVC023 M06/M11 A3036 RMK SC8 SLP285=
CYYG;2007-12-21 09:00;METAR CYYG 210900Z 02012G17KT 12SM -SHSN OVC023 M06/M11 A3037 RMK SC8 SLP287=
CYYG;2007-12-21 10:00;METAR CYYG 211000Z 02013G18KT 12SM -SHSN OVC023 M06/M11 A3038 RMK SC8 SLP291=
CYYG;2007-12-21 11:00;METAR CYYG 211100Z 02011G16KT 12SM -SHSN OVC024 M06/M11 A3040 RMK SC8 SLP298=
CYYG;2007-12-21 12:00;METAR CYYG 211200Z 01010G17KT 15SM -SHSN OVC025 M06/M11 A3041 RMK SC8 SLP302=
CYYG;2007-12-21 13:00;METAR CYYG 211300Z 36009KT 15SM -SHSN OVC023 M06/M11 A3043 RMK SC8 SLP308=
CYYG;2007-12-21 14:00;METAR CYYG 211400Z 02011G16KT 15SM -SHSN OVC023 M06/M11 A3044 RMK SC8 SLP313=
CYYG;2007-12-21 15:00;METAR CYYG 211500Z 36010G16KT 15SM -SHSN OVC023 M06/M11 A3044 RMK SC8 SLP313=
CYYG;2007-12-21 16:00;METAR CYYG 211600Z 36010G16KT 15SM -SHSN OVC023 M06/M11 A3044 RMK SC8 SLP313=
CYYG;2007-12-21 17:00;METAR CYYG 211700Z CCA 36010G15KT 15SM -SHSN OVC023 M06/M11 A3045 RMK SC8 SLP316=
CYYG;2007-12-21 18:00;METAR CYYG 211800Z 01011G18KT 15SM -SHSN OVC024 M06/M11 A3046 RMK SC8 SLP317=
CYYG;2007-12-21 19:00;METAR CYYG 211900Z 36009KT 15SM -SHSN OVC025 M06/M11 A3048 RMK SC8 SLP326=
CYYG;2007-12-21 21:00;METAR CYYG 212100Z 36008KT 15SM -SHSN OVC025 M06/M11 A3051 RMK SC8 SLP336=
CYYG;2007-12-21 22:00;METAR CYYG 212200Z 35007KT 15SM -SHSN OVC026 M06/M11 A3053 RMK SC8 SLP342=
CYYG;2007-12-21 23:00;METAR CYYG 212300Z 35007KT 15SM -SHSN OVC026 M06/M11 A3053 RMK SC8 SLP343=
CYYG;2007-12-22 00:00;METAR CYYG 220000Z 01007KT 15SM -SHSN OVC026 M06/M11 A3055 RMK SC8 SLP347=
CYYG;2007-12-22 01:00;METAR CYYG 220100Z 36005KT 15SM BKN026 M06/M11 A3054 RMK SC7 SLP345=
CYYG;2007-12-22 01:45;SPECI CYYG 220145Z 34003KT 15SM BKN024 M06/ RMK SC7=
CYYG;2007-12-22 02:00;METAR CYYG 220200Z 33003KT 15SM BKN026 M06/M11 A3055 RMK SC7 SLP347=
CYYG;2007-12-22 03:00;METAR CYYG 220300Z 01003KT 15SM BKN026 M06/M11 A3054 RMK SC7 SLP345=
CYYG;2007-12-22 04:00;METAR CYYG 220400Z 35003KT 15SM BKN028 M06/M11 A3054 RMK SC7 SLP344=
CYYG;2007-12-22 05:00;METAR CYYG 220500Z 27003KT 15SM OVC028 M06/M11 A3054 RMK SC8 SLP346=
CYYG;2007-12-22 06:00;METAR CYYG 220600Z 28004KT 15SM OVC026 M06/M11 A3057 RMK SC8 SLP354=
CYYG;2007-12-22 07:00;METAR CYYG 220700Z 29006KT 15SM OVC024 M07/M11 A3059 RMK SC8 SLP362=
CYYG;2007-12-22 08:00;METAR CYYG 220800Z 30004KT 15SM OVC022 M07/M11 A3059 RMK SC8 SLP362=
CYYG;2007-12-22 09:00;METAR CYYG 220900Z 29004KT 15SM OVC022 M07/M11 A3060 RMK SC8 SLP366=
CYYG;2007-12-22 10:00;METAR CYYG 221000Z 27005KT 15SM OVC022 M08/M11 A3060 RMK SC8 SLP366=
CYYG;2007-12-22 11:00;METAR CYYG 221100Z 28004KT 15SM BKN023 M09/M12 A3061 RMK SC6 SLP370=
CYYG;2007-12-22 12:00;METAR CYYG 221200Z 28004KT 15SM FEW023 M10/M12 A3063 RMK SC1 SLP374=
CYYG;2007-12-22 13:00;METAR CYYG 221300Z 29004KT 15SM FEW023 FEW250 M10/M12 A3064 RMK SC1CI1 SLP378=
CYYG;2007-12-22 14:00;METAR CYYG 221400Z 26004KT 15SM FEW025 FEW250 M08/M11 A3065 RMK SC1CI1 SLP381=
CYYG;2007-12-22 15:00;METAR CYYG 221500Z 24007KT 15SM FEW025 FEW250 M07/M11 A3064 RMK SC1CI0 SLP378=
CYYG;2007-12-22 16:00;METAR CYYG 221600Z 24006KT 15SM FEW030 BKN230 M06/M10 A3060 RMK SC1CI2 SLP367=
CYYG;2007-12-22 17:00;METAR CYYG 221700Z 25007KT 15SM BKN033 BKN230 M06/M11 A3059 RMK SC6CI0 SLP361=
CYYG;2007-12-22 18:00;METAR CYYG 221800Z 25009KT 15SM FEW033 BKN230 M05/M12 A3057 RMK SC1CI2 SLP355=
CYYG;2007-12-22 19:00;METAR CYYG 221900Z 24008KT 15SM FEW040 BKN230 M05/M10 A3057 RMK SC2CI2 SLP354=
CYYG;2007-12-22 20:00;METAR CYYG 222000Z 25009KT 15SM BKN040 BKN230 M05/M10 A3057 RMK SC6CI1 SLP354=
CYYG;2007-12-22 21:00;METAR CYYG 222100Z 25007KT 15SM BKN040 M05/M09 A3057 RMK SC7 SLP355=
CYYG;2007-12-22 22:00;METAR CYYG 222200Z 25007KT 15SM BKN039 M04/M07 A3057 RMK SC7 SLP356=
CYYG;2007-12-22 23:00;METAR CYYG 222300Z 24005KT 15SM FEW040 M04/M08 A3057 RMK SC2 SLP356=
CYYG;2007-12-23 00:00;METAR CYYG 230000Z 24006KT 15SM FEW040 M05/M08 A3058 RMK SC2 SLP358=
CYYG;2007-12-23 01:00;METAR CYYG 230100Z 23006KT 15SM BKN044 M04/M07 A3057 RMK SC6 SLP355=
CYYG;2007-12-23 02:00;METAR CYYG 230200Z 23006KT 15SM SCT042 M05/M07 A3056 RMK SC3 SLP353=
CYYG;2007-12-23 03:00;METAR CYYG 230300Z 23004KT 15SM SCT240 M05/M07 A3056 RMK CI4 SLP353=
CYYG;2007-12-23 04:00;METAR CYYG 230400Z 22004KT 15SM BKN028 M05/M07 A3056 RMK SC7 SLP351=
CYYG;2007-12-23 05:00;METAR CYYG 230500Z 21005KT 15SM BKN026 M04/M06 A3055 RMK SC7 SLP350=
CYYG;2007-12-23 06:00;METAR CYYG 230600Z 20004KT 15SM OVC025 M04/M06 A3054 RMK SC8 SLP346=
CYYG;2007-12-23 07:00;METAR CYYG 230700Z 21006KT 15SM OVC028 M03/M05 A3053 RMK SC8 SLP343=
CYYG;2007-12-23 08:00;METAR CYYG 230800Z 21005KT 15SM OVC023 M03/M05 A3053 RMK SC8 SLP341=
CYYG;2007-12-23 09:00;METAR CYYG 230900Z 20005KT 15SM OVC023 M03/M05 A3052 RMK SC8 SLP340=
CYYG;2007-12-23 10:00;METAR CYYG 231000Z 21004KT 15SM OVC024 M03/M05 A3051 RMK SC8 SLP336=
CYYG;2007-12-23 11:00;METAR CYYG 231100Z 21008KT 15SM OVC027 M02/M05 A3051 RMK SC8 SLP336=
CYYG;2007-12-23 12:00;METAR CYYG 231200Z 22010KT 15SM OVC029 M02/M05 A3052 RMK SC8 SLP339=
CYYG;2007-12-23 13:00;METAR CYYG 231300Z 20010G15KT 15SM OVC031 M03/M06 A3050 RMK SC8 SLP333=
CYYG;2007-12-23 14:00;METAR CYYG 231400Z 19009KT 15SM OVC028 M02/M06 A3049 RMK SC8 SLP327=
CYYG;2007-12-23 15:00;METAR CYYG 231500Z 20012KT 15SM FEW018 OVC034 M02/M06 A3048 RMK SC1SC7 SLP325=
CYYG;2007-12-23 16:00;METAR CYYG 231600Z 21013KT 15SM BKN035 M01/M05 A3043 RMK SC7 SLP309=
CYYG;2007-12-23 17:00;METAR CYYG 231700Z 20015G20KT 15SM BKN037 M00/M05 A3040 RMK SC7 SLP297=
CYYG;2007-12-23 18:00;METAR CYYG 231800Z 20014KT 15SM OVC035 00/M04 A3036 RMK SC8 SLP285=
CYYG;2007-12-23 19:00;METAR CYYG 231900Z 20011KT 15SM BKN042 00/M03 A3035 RMK SC7 SLP281=
CYYG;2007-12-23 20:00;METAR CYYG 232000Z 19009KT 15SM FEW042 SCT080 BKN300 00/M03 A3033 RMK SC1AC2CI2 SLP275=
CYYG;2007-12-23 21:00;METAR CYYG 232100Z 19011KT 15SM FEW032 BKN082 OVC300 01/M03 A3034 RMK SC2AC6CI1 SLP277=
CYYG;2007-12-23 22:00;METAR CYYG 232200Z 19013KT 15SM BKN038 OVC085 01/M02 A3032 RMK SC6AC2 SLP270=
CYYG;2007-12-23 23:00;METAR CYYG 232300Z 19015KT 15SM FEW038 FEW085 BKN220 01/M02 A3029 RMK SC1AC2CC4 SLP261=
CYYG;2007-12-24 00:00;METAR CYYG 240000Z 19016KT 15SM SCT085 BKN160 BKN220 01/M02 A3028 RMK AC3AC2CC2 SLP256=
CYYG;2007-12-24 01:00;METAR CYYG 240100Z 19015KT 15SM FEW080 SCT100 OVC160 02/M03 A3025 RMK AC1AC3AC4 SLP246=
CYYG;2007-12-24 02:00;METAR CYYG 240200Z 19015KT 15SM BKN080 OVC110 02/M03 A3021 RMK AC5AC3 SLP232=
CYYG;2007-12-24 03:00;METAR CYYG 240300Z 20018KT 15SM FEW044 OVC074 02/M03 A3017 RMK SC2AC6 SLP218=
CYYG;2007-12-24 04:00;METAR CYYG 240400Z 18014KT 15SM FEW040 BKN074 OVC100 03/M01 A3012 RMK SC2AC6AC1 SLP202=
CYYG;2007-12-24 05:00;METAR CYYG 240500Z 17014KT 12SM FEW035 OVC058 03/00 A3007 RMK SC2SC6 SLP185=
CYYG;2007-12-24 05:27;SPECI CYYG 240527Z 18015KT 12SM -SHRA BKN037 OVC060 03/ RMK SC5SC3=
CYYG;2007-12-24 06:00;METAR CYYG 240600Z 18019G24KT 12SM -SHRA OVC036 04/01 A3000 RMK SC8 PRESFR SLP161=
CYYG;2007-12-24 07:00;METAR CYYG 240700Z 17018KT 12SM -SHRA BKN038 OVC160 04/01 A2996 RMK SC6AC2 SLP146=
CYYG;2007-12-24 07:50;SPECI CYYG 240750Z 17014KT 12SM FEW040 OVC160 04/ RMK SC2AC6=
CYYG;2007-12-24 08:00;METAR CYYG 240800Z 17015KT 12SM FEW040 OVC160 04/02 A2990 RMK SC2AC6 PRESFR SLP126=
CYYG;2007-12-24 09:00;METAR CYYG 240900Z 17014KT 12SM FEW042 BKN056 OVC180 04/02 A2988 RMK SC1SC6AC2 SLP120=
CYYG;2007-12-24 10:00;METAR CYYG 241000Z 18021G27KT 12SM FEW042 OVC059 05/02 A2982 RMK SC1SC7 PRESFR SLP099=
CYYG;2007-12-24 10:19;SPECI CYYG 241019Z 18026G31KT 10SM -SHRA FEW036 OVC055 06/ RMK SC2SC6=
CYYG;2007-12-24 11:00;METAR CYYG 241100Z 17024G30KT 10SM -SHRA FEW040 SCT060 OVC082 05/03 A2971 RMK SC2SC2AC5 PRESFR SLP065=
CYYG;2007-12-24 12:00;METAR CYYG 241200Z 17029G34KT 12SM -SHRA FEW005 SCT015 BKN090 06/04 A2968 RMK SF1SC2AC4 SLP051=
CYYG;2007-12-24 13:00;METAR CYYG 241300Z 18018G26KT 15SM FEW005 OVC016 05/04 A2965 RMK SF2SC6 SLP042=
CYYG;2007-12-24 13:11;SPECI CYYG 241311Z 17019KT 15SM -SHRA FEW005 OVC013 06/ RMK SF2SC6=
CYYG;2007-12-24 13:35;SPECI CYYG 241335Z 18017G24KT 15SM -SHRA FEW005 OVC009 06/ RMK SF1SC8=
CYYG;2007-12-24 13:51;SPECI CYYG 241351Z 17015G20KT 15SM -SHRA BKN005 OVC009 06/ RMK SF6SC2=
CYYG;2007-12-24 14:00;METAR CYYG 241400Z 17015KT 15SM -DZ BKN005 OVC009 06/04 A2959 RMK SF6SF2 PRESFR SLP021=
CYYG;2007-12-24 15:00;METAR CYYG 241500Z 18018G27KT 15SM -DZ BKN005 OVC010 06/05 A2951 RMK SF7SC1 PRESFR SLP995=
CYYG;2007-12-24 16:00;METAR CYYG 241600Z 20019G27KT 15SM BKN005 OVC010 07/06 A2945 RMK SF7SC1 PRESFR SLP975=
CYYG;2007-12-24 16:27;SPECI CYYG 241627Z 21018G25KT 15SM FEW003 BKN012 08/ RMK SF2SC6=
CYYG;2007-12-24 17:00;METAR CYYG 241700Z 21015G20KT 15SM -SHRA FEW005 BKN012 BKN025 08/06 A2942 RMK SF1SC6SC2 SLP964=
CYYG;2007-12-24 17:05;SPECI CYYG 241705Z 24014G20KT 3SM -SHRA BR SCT005 OVC012 08/ RERA RMK SF3SC5 PRESRR=
CYYG;2007-12-24 17:17;SPECI CYYG 241717Z 25016G28KT 15SM -SHRA OVC007 07/ RERA RMK SF8=
CYYG;2007-12-24 18:00;METAR CYYG 241800Z 29010G15KT 15SM FEW007 BKN015 BKN200 04/01 A2946 RERA RMK SF1SC5CC1 SLP978=
CYYG;2007-12-24 19:00;METAR CYYG 241900Z 27010KT 15SM FEW015 SCT045 03/01 A2947 RMK SC1SC2 SLP982=
CYYG;2007-12-24 20:00;METAR CYYG 242000Z 26013KT 15SM FEW025 FEW200 03/M02 A2951 RMK SC2CC1 SLP995=
CYYG;2007-12-24 21:00;METAR CYYG 242100Z 28018KT 15SM FEW025 FEW100 01/M06 A2954 RMK SC1AC1 SLP005=
CYYG;2007-12-24 22:00;METAR CYYG 242200Z 27012G17KT 15SM FEW025 FEW100 01/M06 A2955 RMK SC1AC1 SLP009=
CYYG;2007-12-24 23:00;METAR CYYG 242300Z 25009KT 15SM FEW025 BKN060 01/M05 A2957 RMK SC1SC7 SLP016=
CYYG;2007-12-25 00:00;METAR CYYG 250000Z 23008KT 15SM FEW025 SCT060 M00/M05 A2957 RMK SC1SC2 SLP016=
CYYG;2007-12-25 01:00;METAR CYYG 250100Z 25015G20KT 15SM FEW025 FEW060 SCT160 01/M06 A2958 RMK SC1SC2AC2 SLP017=
CYYG;2007-12-25 02:00;METAR CYYG 250200Z 25019G27KT 15SM FEW025 BKN140 01/M07 A2956 RMK SC1AC6 SLP013=
CYYG;2007-12-25 03:00;METAR CYYG 250300Z 27016G30KT 15SM BKN048 00/M08 A2960 RMK SC7 SLP026=
CYYG;2007-12-25 04:00;METAR CYYG 250400Z 27015G25KT 15SM OVC053 M01/M09 A2963 RMK SC8 SLP034=
CYYG;2007-12-25 05:00;METAR CYYG 250500Z 26016G24KT 15SM BKN052 M01/M09 A2963 RMK SC7 SLP036=
CYYG;2007-12-25 06:00;METAR CYYG 250600Z 26014G21KT 15SM BKN045 M01/M09 A2965 RMK SC7 SLP041=
CYYG;2007-12-25 07:00;METAR CYYG 250700Z 25012G17KT 15SM BKN044 OVC170 M01/M08 A2965 RMK SC6AC2 SLP041=
CYYG;2007-12-25 08:00;METAR CYYG 250800Z 25015KT 15SM BKN037 OVC170 M00/M07 A2965 RMK SC6AC2 SLP043=
CYYG;2007-12-25 09:00;METAR CYYG 250900Z 25012KT 15SM OVC033 00/M06 A2965 RMK SC8 SLP043=
CYYG;2007-12-25 10:00;METAR CYYG 251000Z 27013G18KT 15SM OVC032 00/M06 A2968 RMK SC8 SLP052=
CYYG;2007-12-25 11:00;METAR CYYG 251100Z 27014G22KT 15SM OVC033 01/M06 A2969 RMK SC8 SLP056=
CYYG;2007-12-25 12:00;METAR CYYG 251200Z 27020G26KT 15SM OVC032 01/M05 A2970 RMK SC8 SLP060=
CYYG;2007-12-25 13:00;METAR CYYG 251300Z 26013G18KT 15SM OVC030 01/M05 A2972 RMK SC8 SLP066=
CYYG;2007-12-25 14:00;METAR CYYG 251400Z 27018G25KT 15SM OVC030 01/M05 A2974 RMK SC8 SLP073=
CYYG;2007-12-25 15:00;METAR CYYG 251500Z 28012G19KT 15SM FEW022 OVC030 01/M04 A2976 RMK SC2SC6 SLP081=
CYYG;2007-12-25 16:00;METAR CYYG 251600Z 29010G20KT 15SM OVC025 01/M04 A2977 RMK SC8 SLP084=
CYYG;2007-12-25 17:00;METAR CYYG 251700Z 28012KT 15SM OVC023 01/M04 A2978 RMK SC8 SLP086=
CYYG;2007-12-25 18:00;METAR CYYG 251800Z 28011KT 15SM OVC028 01/M04 A2979 RMK SC8 SLP089=
CYYG;2007-12-25 19:00;METAR CYYG 251900Z 29010G16KT 15SM OVC030 01/M04 A2981 RMK SC8 SLP098=
CYYG;2007-12-25 20:00;METAR CYYG 252000Z 29011KT 15SM OVC040 01/M05 A2984 RMK SC8 SLP108=
CYYG;2007-12-25 21:00;METAR CYYG 252100Z 30010KT 15SM OVC038 01/M05 A2988 RMK SC8 SLP121=
CYYG;2007-12-25 22:00;METAR CYYG 252200Z 33007KT 15SM OVC040 M01/M07 A2993 RMK SC8 SLP136=
CYYG;2007-12-25 23:00;METAR CYYG 252300Z 32006KT 15SM BKN040 OVC078 M01/M07 A2996 RMK SC6AC2 SLP147=
CYYG;2007-12-26 00:00;METAR CYYG 260000Z 32006KT 15SM BKN047 BKN078 M02/M08 A2999 RMK SC6AC2 SLP158=
CYYG;2007-12-26 01:00;METAR CYYG 260100Z 31006KT 15SM OVC042 M02/M08 A3001 RMK SC7 SLP165=
CYYG;2007-12-26 02:00;METAR CYYG 260200Z 31008KT 15SM BKN040 M03/M09 A3003 RMK SC7 SLP172=
CYYG;2007-12-26 03:00;METAR CYYG 260300Z 29004KT 15SM FEW040 BKN140 M03/M09 A3004 RMK SC2AC2 SLP174=
CYYG;2007-12-26 04:00;METAR CYYG 260400Z 31007KT 15SM OVC230 M04/M09 A3006 RMK CI6 SLP181=
CYYG;2007-12-26 05:00;METAR CYYG 260500Z 27004KT 15SM OVC240 M04/M09 A3007 RMK CI6 SLP185=
CYYG;2007-12-26 06:00;METAR CYYG 260600Z 29004KT 15SM FEW250 M05/M10 A3009 RMK CI1 SLP193=
CYYG;2007-12-26 07:00;METAR CYYG 260700Z 27005KT 15SM FEW250 M05/M10 A3013 RMK CI1 SLP205=
CYYG;2007-12-26 08:00;METAR CYYG 260800Z 24004KT 15SM SCT120 M06/M10 A3012 RMK AC2 SLP203=
CYYG;2007-12-26 09:00;METAR CYYG 260900Z 23003KT 15SM BKN250 M06/M10 A3012 RMK CI3 SLP204=
CYYG;2007-12-26 10:00;METAR CYYG 261000Z 24006KT 15SM SCT250 M06/M10 A3010 RMK CI2 SLP196=
CYYG;2007-12-26 11:00;METAR CYYG 261100Z 25009KT 15SM SCT250 M05/M09 A3011 RMK CI2 SLP199=
CYYG;2007-12-26 12:00;METAR CYYG 261200Z 27007KT 15SM FEW160 FEW260 M05/M09 A3012 RMK AC1CI1 SLP204=
CYYG;2007-12-26 13:00;METAR CYYG 261300Z 26009KT 15SM FEW140 FEW260 M04/M09 A3015 RMK AC1CI1 SLP212=
CYYG;2007-12-26 14:00;METAR CYYG 261400Z 27009KT 15SM FEW140 FEW230 FEW260 M03/M09 A3017 RMK AC1CC1CI0 SLP218=
CYYG;2007-12-26 15:00;METAR CYYG 261500Z 25008KT 15SM FEW130 SCT230 SCT260 M02/M10 A3016 RMK AC1CC2CI0 SLP217=
CYYG;2007-12-26 16:00;METAR CYYG 261600Z 25008KT 15SM FEW120 BKN200 BKN260 M02/M09 A3015 RMK AC1CC4CI0 SLP213=
CYYG;2007-12-26 17:00;METAR CYYG 261700Z 26009KT 15SM FEW120 BKN200 BKN260 M01/M07 A3013 RMK AC1CC6CI0 SLP207=
CYYG;2007-12-26 18:00;METAR CYYG 261800Z 27014KT 15SM FEW030 FEW120 BKN210 BKN260 00/M05 A3014 RMK SC1AC1CC6CI0 SLP209=
CYYG;2007-12-26 19:00;METAR CYYG 261900Z 27007KT 15SM FEW120 BKN210 00/M05 A3014 RMK AC1CC6 SLP211=
CYYG;2007-12-26 20:00;METAR CYYG 262000Z 29011KT 15SM FEW210 SCT260 00/M05 A3017 RMK CC2CI1 SLP221=
CYYG;2007-12-26 21:00;METAR CYYG 262100Z 27007KT 15SM FEW300 M01/M06 A3019 RMK CI1 SLP226=
CYYG;2007-12-26 22:00;METAR CYYG 262200Z 27006KT 15SM FEW120 SCT300 M02/M06 A3020 RMK AC2CI1 SLP231=
CYYG;2007-12-26 23:00;METAR CYYG 262300Z 29006KT 15SM SCT120 M01/M06 A3022 RMK AC3 SLP236=
CYYG;2007-12-27 00:00;METAR CYYG 270000Z 28008KT 15SM FEW120 M02/M06 A3023 RMK AC2 SLP239=
CYYG;2007-12-27 01:00;METAR CYYG 270100Z 25006KT 15SM FEW120 M03/M06 A3024 RMK AC2 SLP243=
CYYG;2007-12-27 02:00;METAR CYYG 270200Z 28003KT 15SM FEW250 M03/M06 A3024 RMK CI1 SLP244=
CYYG;2007-12-27 03:00;METAR CYYG 270300Z 31005KT 15SM FEW250 M03/M06 A3025 RMK CI1 SLP247=
CYYG;2007-12-27 04:00;METAR CYYG 270400Z 28003KT 15SM FEW250 M03/M06 A3025 RMK CI1 SLP247=
CYYG;2007-12-27 05:00;METAR CYYG 270500Z 34002KT 15SM FEW130 BKN250 M06/M08 A3025 RMK AC2CI2 SLP247=
CYYG;2007-12-27 06:00;METAR CYYG 270600Z 30002KT 15SM FEW130 BKN250 M07/M09 A3027 RMK AC2CI2 SLP253=
CYYG;2007-12-27 07:00;METAR CYYG 270700Z 36002KT 15SM BKN250 M07/M09 A3028 RMK CI4 SLP255=
CYYG;2007-12-27 08:00;METAR CYYG 270800Z 36002KT 15SM BKN250 M07/M08 A3028 RMK CI4 SLP257=
CYYG;2007-12-27 09:00;METAR CYYG 270900Z 01004KT 15SM BKN250 M06/M08 A3028 RMK CI3 SLP258=
CYYG;2007-12-27 10:00;METAR CYYG 271000Z 07007KT 15SM BKN020 M03/M04 A3029 RMK SC6 SLP261=
CYYG;2007-12-27 11:00;METAR CYYG 271100Z 10007KT 15SM OVC023 M02/M04 A3031 RMK SC8 SLP267=
CYYG;2007-12-27 12:00;METAR CYYG 271200Z 07008KT 15SM BKN024 BKN250 M02/M05 A3030 RMK SC6CI2 SLP264=
CYYG;2007-12-27 13:00;METAR CYYG 271300Z 08011KT 15SM OVC027 M02/M05 A3030 RMK SC8 SLP264=
CYYG;2007-12-27 14:00;METAR CYYG 271400Z 07011KT 15SM BKN031 OVC140 M01/M04 A3029 RMK SC6AC2 SLP261=
CYYG;2007-12-27 15:00;METAR CYYG 271500Z 08009KT 15SM BKN030 BKN140 OVC250 M00/M04 A3027 RMK SC5AC2CI1 SLP252=
CYYG;2007-12-27 16:00;METAR CYYG 271600Z 09010KT 15SM OVC032 M00/M04 A3024 RMK SC8 SLP243=
CYYG;2007-12-27 17:00;METAR CYYG 271700Z 07011KT 15SM FEW018 OVC028 M00/M04 A3020 RMK SC2SC6 SLP231=
CYYG;2007-12-27 18:00;METAR CYYG 271800Z 08011KT 15SM OVC020 M01/M04 A3017 RMK SC8 SLP220=
CYYG;2007-12-27 19:00;METAR CYYG 271900Z 06013KT 15SM BKN022 OVC110 M01/M04 A3014 RMK SC5AC3 SLP208=
CYYG;2007-12-27 20:00;METAR CYYG 272000Z 06013KT 15SM SCT026 OVC088 M01/M05 A3012 RMK SC3AC5 SLP204=
CYYG;2007-12-27 21:00;METAR CYYG 272100Z 07017KT 15SM FEW014 BKN056 OVC082 M02/M05 A3012 RMK SC2SC3AC2 SLP204=
CYYG;2007-12-27 22:00;METAR CYYG 272200Z 05013KT 15SM FEW016 BKN047 OVC063 M02/M06 A3009 RMK SC2SC3SC2 SLP194=
CYYG;2007-12-27 22:52;SPECI CYYG 272252Z 06024KT 15SM -SHSN SCT020 OVC040 M02/ RMK SC3SC5=
CYYG;2007-12-27 23:00;METAR CYYG 272300Z 07015KT 10SM -SHSN SCT015 OVC032 M02/M06 A3007 RMK SC4SC4 SLP185=
CYYG;2007-12-27 23:25;SPECI CYYG 272325Z 06013KT 2SM -SHSN BKN008 OVC020 M02/ RMK SF6SC2=
CYYG;2007-12-28 00:00;METAR CYYG 280000Z 05009G15KT 1 1/2SM -SN DRSN VV007 M03/M04 A3004 RMK SN8 SLP175=
CYYG;2007-12-28 00:22;SPECI CYYG 280022Z 05011G16KT 3SM -SN DRSN OVC010 M02/ RMK SF8=
CYYG;2007-12-28 01:00;METAR CYYG 280100Z 04014KT 1 1/2SM -SN DRSN OVC010 M02/M04 A2999 RMK SN4SF4 SLP159=
CYYG;2007-12-28 01:49;SPECI CYYG 280149Z 05012G17KT 3/4SM R03/2800FT/N -SN DRSN VV005 M02/ RMK SN8=
CYYG;2007-12-28 02:00;METAR CYYG 280200Z 05012G17KT 3/4SM R03/3000FT/N -SN DRSN OVC006 M02/M03 A2996 RMK SN3SF5 /S02/ SLP148=
CYYG;2007-12-28 03:00;METAR CYYG 280300Z 04011G16KT 2SM -SN DRSN OVC010 M02/M03 A2996 RMK SN3SF5 /S03/ SLP147=
CYYG;2007-12-28 03:26;SPECI CYYG 280326Z 03015KT 1/2SM R03/1400V2200FT/D SN DRSN VV004 M02/ RMK SN8=
CYYG;2007-12-28 04:00;METAR CYYG 280400Z 04013KT 1/2SM R03/1200V4000FT/U SN DRSN VV004 M02/M04 A2995 RMK SN8 /S04/ SLP143=
CYYG;2007-12-28 04:24;SPECI CYYG 280424Z 03014KT 1/8SM R03/1200FT/N +SN DRSN VV003 M03/ RMK SN8=
CYYG;2007-12-28 05:00;METAR CYYG 280500Z 02009G15KT 1/8SM R03/1200FT/N +SN DRSN VV003 M02/M03 A2994 RMK SN8 /S05/ SLP140=
CYYG;2007-12-28 05:22;SPECI CYYG 280522Z 02012G18KT 1/2SM R03/1400V1800FT/N SN DRSN VV003 M02/ RMK SN8=
CYYG;2007-12-28 05:46;SPECI CYYG 280546Z 03015KT 2SM -SN DRSN OVC007 M02/ RESN RMK SF8=
CYYG;2007-12-28 06:00;METAR CYYG 280600Z 03017KT 2SM -SN DRSN OVC007 M02/M03 A2994 RESN RMK SF8 /S10/ SLP140=
CYYG;2007-12-28 07:00;METAR CYYG 280700Z 03015G20KT 2SM -SN DRSN OVC006 M02/M03 A2996 RMK SF8 SLP147=
CYYG;2007-12-28 08:00;METAR CYYG 280800Z 03014G21KT 2SM -SN DRSN OVC007 M02/M04 A2997 RMK SF8 /S01/ SLP151=
CYYG;2007-12-28 08:36;SPECI CYYG 280836Z 04014KT 5SM -SN DRSN OVC007 M02/ RMK SF8=
CYYG;2007-12-28 09:00;METAR CYYG 280900Z 04015G21KT 5SM -SN DRSN BKN007 OVC015 M03/M04 A2997 RMK SF6SC2 SLP150=
CYYG;2007-12-28 10:00;METAR CYYG 281000Z 03013KT 3SM -SN DRSN OVC008 M03/M05 A2999 RMK SF8 /S02/ SLP157=
CYYG;2007-12-28 11:00;METAR CYYG 281100Z 02011G17KT 15SM -SN DRSN BKN008 BKN019 OVC060 M03/M05 A3001 RMK SF5SC2SC2 SLP163=
CYYG;2007-12-28 12:00;METAR CYYG 281200Z 02010G15KT 2SM -SN BKN008 OVC020 M03/M05 A3001 RMK SF5SC3 /S04/ SLP167=
CYYG;2007-12-28 13:00;METAR CYYG 281300Z 02009G15KT 3SM -SN BKN008 BKN020 OVC200 M03/M05 A3004 RMK SF6SC2CI0 SLP177=
CYYG;2007-12-28 14:00;METAR CYYG 281400Z 36007KT 3SM -SN BKN008 OVC020 M03/M05 A3009 RMK SF6SC2 SLP191=
CYYG;2007-12-28 14:23;SPECI CYYG 281423Z 36006KT 2SM -SN BKN008 OVC020 M03/ RMK SF6SC2=
CYYG;2007-12-28 15:00;METAR CYYG 281500Z 36008KT 2SM -SN FEW008 OVC028 M03/M05 A3010 RMK SF2SC6 SLP197=
CYYG;2007-12-28 16:00;METAR CYYG 281600Z 35008KT 3SM -SN FEW008 OVC028 M03/M05 A3012 RMK SF2SC6 SLP202=
CYYG;2007-12-28 17:00;METAR CYYG 281700Z 36011KT 2SM -SN FEW008 OVC028 M03/M05 A3012 RMK SF2SC6 SLP202=
CYYG;2007-12-28 18:00;METAR CYYG 281800Z CCA 36010G16KT 8SM -SHSN DRSN FEW009 BKN028 M03/M06 A3014 RMK SF1SC6 /S01/ SLP208=
CYYG;2007-12-28 19:00;METAR CYYG 281900Z 34010KT 8SM -SHSN FEW012 BKN028 M03/M06 A3018 RMK SF1SC6 SLP224=
CYYG;2007-12-28 19:29;SPECI CYYG 281929Z 34010G15KT 15SM DRSN BKN025 M03/ RMK SC7=
CYYG;2007-12-28 20:00;METAR CYYG 282000Z 35006KT 15SM DRSN BKN025 M03/M08 A3020 RMK SC7 SLP229=
CYYG;2007-12-28 21:00;METAR CYYG 282100Z 34010G15KT 15SM DRSN OVC023 M04/M08 A3025 RMK SC8 SLP245=
CYYG;2007-12-28 22:00;METAR CYYG 282200Z 32010KT 15SM DRSN OVC023 M04/M07 A3031 RMK SC8 SLP266=
CYYG;2007-12-28 23:00;METAR CYYG 282300Z 31006KT 15SM OVC023 M04/M08 A3032 RMK SC8 SLP270=
CYYG;2007-12-29 00:00;METAR CYYG 290000Z 30008KT 15SM -SN OVC023 M04/M08 A3034 RMK SC8 SLP276=
CYYG;2007-12-29 01:00;METAR CYYG 290100Z 29008KT 15SM OVC023 M04/M08 A3035 RMK SC8 SLP279=
CYYG;2007-12-29 01:48;SPECI CYYG 290148Z 29007KT 15SM -SN OVC023 M04/ RMK SC8=
CYYG;2007-12-29 02:00;METAR CYYG 290200Z 29007KT 15SM -SN OVC023 M04/M08 A3035 RMK SC8 SLP280=
CYYG;2007-12-29 02:38;SPECI CYYG 290238Z 30004KT 15SM OVC022 M04/ RMK SC8=
CYYG;2007-12-29 03:00;METAR CYYG 290300Z 28004KT 15SM OVC022 M04/M08 A3036 RMK SC8 SLP285=
CYYG;2007-12-29 04:00;METAR CYYG 290400Z 27005KT 15SM OVC023 M04/M08 A3038 RMK SC8 SLP289=
CYYG;2007-12-29 05:00;METAR CYYG 290500Z 27005KT 15SM OVC021 M04/M08 A3036 RMK SC8 SLP282=
CYYG;2007-12-29 06:00;METAR CYYG 290600Z 26005KT 15SM OVC023 M04/M08 A3037 RMK SC8 SLP288=
CYYG;2007-12-29 07:00;METAR CYYG 290700Z 26005KT 15SM OVC023 M04/M08 A3037 RMK SC8 SLP287=
CYYG;2007-12-29 08:00;METAR CYYG 290800Z 27003KT 15SM FEW023 M05/M09 A3036 RMK SC2 SLP285=
CYYG;2007-12-29 09:00;METAR CYYG 290900Z 26003KT 15SM FEW023 OVC210 M06/M08 A3037 RMK SC2CI2 SLP286=
CYYG;2007-12-29 10:00;METAR CYYG 291000Z 25003KT 15SM FEW023 OVC200 M06/M08 A3038 RMK SC2CI3 SLP290=
CYYG;2007-12-29 11:00;METAR CYYG 291100Z 23003KT 15SM FEW023 OVC160 M06/M08 A3036 RMK SC2AS5 SLP283=
CYYG;2007-12-29 12:00;METAR CYYG 291200Z 11003KT 15SM FEW009 OVC022 M06/M09 A3033 RMK SF1SC6 SLP273=
CYYG;2007-12-29 13:00;METAR CYYG 291300Z 12003KT 15SM FEW009 OVC020 M05/M08 A3033 RMK SF1SC7 SLP274=
CYYG;2007-12-29 14:00;METAR CYYG 291400Z 16007KT 15SM BKN020 OVC080 M04/M07 A3031 RMK SC6AC2 SLP268=
CYYG;2007-12-29 15:00;METAR CYYG 291500Z 18011KT 15SM BKN019 OVC080 M03/M06 A3033 RMK SC6AC2 SLP274=
CYYG;2007-12-29 15:36;SPECI CYYG 291536Z 18013KT 2SM -SN BKN019 OVC080 M04/ RMK SC6AC2=
CYYG;2007-12-29 15:47;SPECI CYYG 291547Z 18015KT 5/8SM R03/3000VP6000FT/D -SN VV007 M04/ RMK SN8=
CYYG;2007-12-29 16:00;METAR CYYG 291600Z 17013KT 1 1/2SM -SN VV012 M05/M07 A3025 RMK SN8 SLP247=
CYYG;2007-12-29 17:00;METAR CYYG 291700Z 14011KT 1SM R03/6000FT/D -SN VV008 M05/M07 A3016 RMK SN8 PRESFR /S01/ SLP217=
CYYG;2007-12-29 17:10;SPECI CYYG 291710Z 14012KT 1/2SM R03/3000V6000FT/D SN VV005 M05/ RMK SN8 PRESFR=
CYYG;2007-12-29 17:38;SPECI CYYG 291738Z 13011KT 3/8SM R03/2600FT/N SN VV004 M05/ RMK SN8 PRESFR=
CYYG;2007-12-29 18:00;METAR CYYG 291800Z 14009G16KT 3/8SM R03/3500FT/U SN DRSN VV004 M05/M06 A3010 RMK SN8 PRESFR /S03/ SLP196=
CYYG;2007-12-29 18:32;SPECI CYYG 291832Z 14008KT 1/4SM R03/2000FT/N +SN DRSN VV003 M05/ RMK SN8=
CYYG;2007-12-29 19:00;METAR CYYG 291900Z 12008KT 1/4SM R03/1800FT/N +SN DRSN VV003 M04/M06 A3005 RMK SN8 /S02/ SLP180=
CYYG;2007-12-29 19:46;SPECI CYYG 291946Z 13008KT 3/8SM R03/2000FT/N SN DRSN VV003 M04/ RESN RMK SN8=
CYYG;2007-12-29 20:00;METAR CYYG 292000Z 13008KT 3/8SM R03/2200FT/N SN DRSN VV003 M04/M05 A3002 RESN RMK SN8 /S05/ SLP170=
CYYG;2007-12-29 20:25;SPECI CYYG 292025Z 11009KT 1/2SM R03/2600V4500FT/U SN DRSN VV005 M03/ RMK SN8=
CYYG;2007-12-29 20:38;SPECI CYYG 292038Z 10009KT 1 1/2SM -SN DRSN OVC005 M03/ RESN RMK SN4SF4=
CYYG;2007-12-29 21:00;METAR CYYG 292100Z CCA 11010KT 3/4SM R03/P6000FT/U -SN DRSN OVC006 M03/M04 A2993 RESN RMK SN4SF4 /S08/ SLP138=
CYYG;2007-12-29 21:37;SPECI CYYG 292137Z 10010KT 5/8SM R03/P6000FT/D -SN DRSN VV006 M02/ RMK SN8=
CYYG;2007-12-29 22:00;METAR CYYG 292200Z 11011KT 1SM R03/P6000FT/D -SN DRSN SCT005 OVC020 M02/M03 A2987 RMK SN3SF1SC4 SLP117=
CYYG;2007-12-29 22:06;SPECI CYYG 292206Z 10011KT 2 1/2SM -SN DRSN -FZRA SCT005 OVC020 M02/ RMK SN3SF1SC4=
CYYG;2007-12-29 22:39;SPECI CYYG 292239Z 12009KT 2 1/2SM -SNPL -FZRA SCT008 OVC020 M02/ RMK SN3SF1SC4=
CYYG;2007-12-29 23:00;METAR CYYG 292300Z 11006KT 2 1/2SM -SNPL -FZRA SCT008 OVC020 M02/M03 A2983 RMK SF3SC5 SLP104=
CYYG;2007-12-29 23:09;SPECI CYYG 292309Z 10008KT 3SM -PL -FZRA BR SCT008 OVC020 M01/ RMK SF3SC5=
CYYG;2007-12-30 00:00;METAR CYYG 300000Z CCA 11009KT 3SM -PL -FZRA BR FEW008 OVC013 M00/M01 A2976 RMK SF2SC6 PRESFR SLP079=
CYYG;2007-12-30 00:32;SPECI CYYG 300032Z 11006KT 4SM -FZRA FEW003 OVC009 M00/ RMK SF2SC6=
CYYG;2007-12-30 00:56;SPECI CYYG 300056Z 07009KT 3SM -FZRA BR BKN004 OVC009 M00/ RMK SF5SC3=
CYYG;2007-12-30 01:00;METAR CYYG 300100Z 07009KT 2 1/2SM -FZRA BR BKN003 OVC009 M00/M01 A2970 RMK SF6SC2 SLP060=
CYYG;2007-12-30 01:46;SPECI CYYG 300146Z 05006KT 2SM -RA BKN003 OVC008 00/ REFZRA RMK SF7SC1=
CYYG;2007-12-30 02:00;METAR CYYG 300200Z 04005KT 2 1/2SM -RA BKN003 OVC007 00/M01 A2966 REFZRA RMK SF7SC1 SLP046=
CYYG;2007-12-30 02:39;SPECI CYYG 300239Z 36004KT 2 1/2SM -DZ BR BKN003 OVC008 00/ RMK SF7SC1=
CYYG;2007-12-30 03:00;METAR CYYG 300300Z 35003KT 2SM -DZ BR BKN003 OVC008 00/M01 A2963 RMK SF7SC1 SLP037=
CYYG;2007-12-30 03:18;SPECI CYYG 300318Z 32004KT 1SM R03/P6000FT/N -DZ BR OVC002 00/ RMK ST8=
CYYG;2007-12-30 04:00;METAR CYYG 300400Z 30005KT 1SM R03/P6000FT/N BR BKN002 OVC005 00/M01 A2963 RMK SF7SF1 SLP038=
CYYG;2007-12-30 05:00;METAR CYYG 300500Z 29008KT 2SM BR BKN003 OVC011 M00/M01 A2964 RMK SF6SC2 SLP040=
CYYG;2007-12-30 05:19;SPECI CYYG 300519Z 29013G18KT 5SM BR BKN004 OVC011 00/ RMK SF6SC2=
CYYG;2007-12-30 06:00;METAR CYYG 300600Z 30015KT 10SM BKN005 OVC015 M00/M02 A2969 RMK SF6SC2 SLP055=
CYYG;2007-12-30 07:00;METAR CYYG 300700Z 29013G19KT 10SM BKN006 OVC014 M01/M03 A2970 RMK SF6SC2 SLP060=
CYYG;2007-12-30 08:00;METAR CYYG 300800Z 28013G18KT 15SM BKN007 OVC060 M02/M04 A2972 RMK SF5SC3 SLP067=
CYYG;2007-12-30 09:00;METAR CYYG 300900Z 28012G18KT 15SM SCT008 OVC064 M02/M04 A2973 RMK SF4SC4 SLP070=
CYYG;2007-12-30 10:00;METAR CYYG 301000Z 28013KT 15SM SCT008 OVC065 M02/M04 A2976 RMK SF4SC4 SLP079=
CYYG;2007-12-30 11:00;METAR CYYG 301100Z 28010KT 15SM FEW009 SCT065 M03/M05 A2978 RMK SF1SC2 SLP087=
CYYG;2007-12-30 12:00;METAR CYYG 301200Z 28009KT 15SM BKN030 M02/M04 A2981 RMK SC6 SLP096=
CYYG;2007-12-30 13:00;METAR CYYG 301300Z 28011G16KT 15SM SCT042 M02/M04 A2983 RMK SC4 SLP103=
CYYG;2007-12-30 14:00;METAR CYYG 301400Z 27010G15KT 15SM BKN040 BKN055 M01/M04 A2985 RMK SC5SC1 SLP111=
CYYG;2007-12-30 15:00;METAR CYYG 301500Z 27011G18KT 15SM BKN034 BKN055 M00/M04 A2987 RMK SC5SC1 SLP118=
CYYG;2007-12-30 16:00;METAR CYYG 301600Z 29011G18KT 15SM FEW020 BKN035 M00/M04 A2987 RMK CF1SC5 SLP119=
CYYG;2007-12-30 17:00;METAR CYYG 301700Z 29011KT 15SM FEW020 BKN040 M01/M05 A2989 RMK CF1SC6 SLP123=
CYYG;2007-12-30 19:00;METAR CYYG 301900Z 29013KT 15SM BKN020 BKN040 M01/M05 A2996 RMK SC6SC2 SLP146=
CYYG;2007-12-30 20:00;METAR CYYG 302000Z 28011KT 15SM BKN020 BKN040 M01/M06 A3001 RMK SC6SC2 SLP166=
CYYG;2007-12-30 21:00;METAR CYYG 302100Z 29011KT 15SM FEW020 FEW040 SCT200 M02/M06 A3005 RMK SC1SC2CI0 SLP178=
CYYG;2007-12-30 22:00;METAR CYYG 302200Z 31006KT 15SM FEW020 FEW040 SCT200 M03/M07 A3007 RMK SC1SC2CI0 SLP184=
CYYG;2007-12-30 23:00;METAR CYYG 302300Z 30006KT 15SM FEW020 FEW040 SCT200 M04/M08 A3011 RMK SC1SC2CI0 SLP197=
CYYG;2007-12-31 00:00;METAR CYYG 310000Z 29004KT 15SM FEW020 FEW100 M05/M08 A3014 RMK SC1AC1 SLP208=
CYYG;2007-12-31 01:00;METAR CYYG 310100Z 30006KT 15SM FEW020 FEW100 FEW260 M06/M09 A3014 RMK SC1AC1CI0 SLP208=
CYYG;2007-12-31 02:00;METAR CYYG 310200Z 00000KT 15SM FEW020 FEW170 SCT260 M06/M09 A3015 RMK SC1AC1CI1 SLP212=
CYYG;2007-12-31 03:00;METAR CYYG 310300Z 25002KT 15SM FEW020 FEW110 SCT260 M07/M09 A3016 RMK SC1AC1CI1 SLP215=
CYYG;2007-12-31 04:00;METAR CYYG 310400Z 27004KT 15SM FEW020 FEW200 BKN260 M08/M10 A3014 RMK SC1CC1CI2 SLP209=
CYYG;2007-12-31 06:00;METAR CYYG 310600Z 31002KT 15SM FEW018 BKN150 OVC260 M09/M10 A3013 RMK SC2AC3CI1 SLP207=
CYYG;2007-12-31 07:00;METAR CYYG 310700Z 18002KT 15SM FEW018 OVC120 M07/M09 A3015 RMK SC2AC6 SLP214=
CYYG;2007-12-31 08:00;METAR CYYG 310800Z 14002KT 15SM FEW018 OVC083 M07/M09 A3014 RMK SC2AC6 SLP211=
CYYG;2007-12-31 09:00;METAR CYYG 310900Z 00000KT 15SM FEW018 SCT083 OVC110 M07/M09 A3009 RMK SC1AC3AC4 SLP194=
CYYG;2007-12-31 10:00;METAR CYYG 311000Z 14003KT 15SM FEW018 OVC080 M06/M08 A3007 RMK SC2AC6 SLP186=
CYYG;2007-12-31 11:00;METAR CYYG 311100Z 12004KT 15SM FEW018 SCT043 OVC060 M06/M08 A3003 RMK SC1SC3SC4 SLP171=
CYYG;2007-12-31 12:00;METAR CYYG 311200Z 12004KT 12SM FEW018 OVC049 M05/M07 A2997 RMK SC2SC6 SLP153=
CYYG;2007-12-31 12:12;SPECI CYYG 311212Z 11004KT 8SM -SN BKN030 OVC050 M05/ RMK SC6SC2=
CYYG;2007-12-31 12:36;SPECI CYYG 311236Z 11006KT 4SM -SN BKN012 OVC030 M05/ RMK SC6SC2=
CYYG;2007-12-31 12:47;SPECI CYYG 311247Z 12006KT 2SM -SN OVC008 M05/ RMK SF8=
CYYG;2007-12-31 13:00;METAR CYYG 311300Z 12006KT 1SM R03/P6000FT/D -SN OVC006 M05/M06 A2992 RMK SF8 SLP136=
CYYG;2007-12-31 13:15;SPECI CYYG 311315Z 12008KT 1/2SM R03/6000FT/D SN OVC004 M04/ RMK SN4SF4=
CYYG;2007-12-31 13:49;SPECI CYYG 311349Z 10007KT 3/4SM R03/5500FT/U -SN OVC007 M04/ RMK SN3SF5=
CYYG;2007-12-31 14:00;METAR CYYG 311400Z 09008KT 3/4SM R03/5500FT/N -SN OVC007 M04/M05 A2985 RMK SF8 PRESFR SLP112=
CYYG;2007-12-31 15:00;METAR CYYG 311500Z 09007KT 1/4SM R03/1200V1800FT/D +SN VV002 M03/M04 A2984 RMK SN8 SLP106=
CYYG;2007-12-31 15:37;SPECI CYYG 311537Z 08007KT 1/2SM R03/2000V3000FT/U SN OVC005 M03/ RMK SF8 RESN=
CYYG;2007-12-31 16:00;METAR CYYG 311600Z 07008KT 1/2SM R03/2800V4000FT/U SN OVC005 M02/M04 A2973 RMK SF8 PRESFR RESN SLP069=
CYYG;2007-12-31 16:41;SPECI CYYG 311641Z 06007KT 1/4SM R03/1600V3000FT/D +SN VV002 M02/ RMK SN8 RESN /S15/=
CYYG;2007-12-31 17:00;METAR CYYG 311700Z 06009KT 1/4SM R03/1400V2800FT/D +SN VV002 M02/M03 A2966 RMK SN8 RESN PRESFR SLP045=
CYYG;2007-12-31 17:50;SPECI CYYG 311750Z 04015KT 1/2SM R03/2200FT/U SN OVC005 M02/ RMK SF8 RESN=
CYYG;2007-12-31 18:00;METAR CYYG 311800Z 04016KT 1/2SM R03/2600FT/N SN OVC005 M02/M03 A2952 RMK SF8 RESN PRESFR SLP000=
CYYG;2007-12-31 19:00;METAR CYYG NIL=
CYYG;2007-12-31 20:00;METAR CYYG 312000Z 04016G21KT 1/2SM R03/4500FT/N SN OVC004 M01/M03 A2941 RMK SF8 SLP961=
CYYG;2007-12-31 21:00;METAR CYYG 312100Z 02013G18KT 1/2SM R03/1200V1800FT/N SN OVC004 M01/M01 A2940 RMK SF8 SLP959=
CYYG;2007-12-31 22:00;METAR CYYG 312200Z 01012G18KT 3/4SM R03/2000V2600FT/N -SN BLSN OVC005 M01/M01 A2939 RMK SF8 RESN SLP955=
CYYG;2007-12-31 22:27;SPECI CYYG 312227Z 35014G21KT 1SM R03/2600V4000FT/U -SN BLSN OVC005 M01/ RMK SF8=
CYYG;2007-12-31 22:50;SPECI CYYG 312250Z 34014G21KT 4SM -SN BLSN OVC007 M01/ RMK SF8=
CYYG;2007-12-31 23:00;METAR CYYG 312300Z 34015G22KT 4SM -SN BLSN BKN007 OVC027 M01/M01 A2944 RMK SF6SC2 SLP970=
