CYYG;2005-01-01 00:00;METAR CYYG 010000Z 18021G26KT 15SM -RA DRSN OVC056 01/M02 A3019 RMK SC8 SLP225=
CYYG;2005-01-01 00:09;SPECI CYYG 010009Z 18026KT 15SM DRSN OVC052 RMK SC8=
CYYG;2005-01-01 01:00;METAR CYYG 010100Z 20023G31KT 15SM OVC048 02/M01 A3015 RMK SC8 SLP214=
CYYG;2005-01-01 02:00;METAR CYYG 010200Z 21015G22KT 15SM BKN029 OVC044 02/M01 A3014 RMK SC5SC3 SLP208=
CYYG;2005-01-01 03:00;METAR CYYG 010300Z 20017G22KT 15SM OVC024 03/M01 A3011 RMK SC8 SLP198=
CYYG;2005-01-01 03:06;SPECI CYYG 010306Z 21018G25KT 15SM -RA OVC024 RMK SC8=
CYYG;2005-01-01 04:00;METAR CYYG 010400Z 21016G22KT 15SM -RA OVC024 03/01 A3009 RMK SC8 SLP192=
CYYG;2005-01-01 05:00;METAR CYYG 010500Z 20015G20KT 15SM -RA OVC021 03/01 A3006 RMK SC8 SLP181=
CYYG;2005-01-01 06:00;METAR CYYG 010600Z 19014KT 10SM -RA OVC019 03/02 A3000 RMK SC8 SLP162=
CYYG;2005-01-01 07:00;METAR CYYG 010700Z 20016KT 15SM -RA OVC017 03/02 A2997 RMK SC8 SLP150=
CYYG;2005-01-01 07:53;SPECI CYYG 010753Z 19014G19KT 15SM OVC014 RMK SC8=
CYYG;2005-01-01 08:00;METAR CYYG 010800Z 20014G19KT 15SM OVC014 04/02 A2993 RMK SC8 SLP138=
CYYG;2005-01-01 09:00;METAR CYYG 010900Z 20013G19KT 15SM OVC012 04/03 A2989 RMK SC8 SLP124=
CYYG;2005-01-01 10:00;METAR CYYG 011000Z 21016G24KT 15SM OVC012 05/03 A2987 RMK SC8 SLP116=
CYYG;2005-01-01 11:00;METAR CYYG 011100Z 20017KT 15SM OVC012 04/03 A2984 RMK SC8 SLP107=
CYYG;2005-01-01 12:00;METAR CYYG 011200Z 21012KT 10SM OVC012 05/04 A2985 RMK SC8 SLP108=
CYYG;2005-01-01 13:00;METAR CYYG 011300Z 21011KT 10SM OVC012 05/04 A2984 RMK SC8 SLP105=
CYYG;2005-01-01 14:00;METAR CYYG 011400Z 22010G15KT 10SM OVC013 06/04 A2984 RMK SC8 SLP107=
CYYG;2005-01-01 15:00;METAR CYYG 011500Z 23012KT 10SM SCT013 OVC063 06/04 A2983 RMK SC3SC5 SLP102=
CYYG;2005-01-01 16:00;METAR CYYG 011600Z 23008KT 8SM FEW010 SCT016 OVC049 06/04 A2982 RMK SC2SC2SC5 SLP101=
CYYG;2005-01-01 17:00;METAR CYYG 011700Z 25010KT 8SM FEW055 BKN070 06/04 A2981 RMK SC2AC3 SLP097=
CYYG;2005-01-01 18:00;METAR CYYG 011800Z 25010G17KT 12SM FEW028 SCT070 05/03 A2982 RMK SC2AC2 SLP100=
CYYG;2005-01-01 19:00;METAR CYYG 011900Z 27008KT 15SM BKN036 BKN070 05/02 A2985 RMK SC6AC2 SLP109=
CYYG;2005-01-01 20:00;METAR CYYG 012000Z 27007KT 15SM FEW030 BKN043 05/01 A2989 RMK SC2SC6 SLP123=
CYYG;2005-01-01 21:00;METAR CYYG 012100Z 32014G21KT 15SM BKN038 04/M01 A2993 RMK SC7 SLP136=
CYYG;2005-01-01 22:00;METAR CYYG 012200Z 33018G26KT 15SM BKN039 02/M03 A2998 RMK SC7 SLP155=
CYYG;2005-01-01 23:00;METAR CYYG 012300Z 32017G24KT 15SM BKN037 01/M05 A3004 RMK SC7 SLP173=
CYYG;2005-01-02 00:00;METAR CYYG 020000Z 33016G27KT 15SM FEW037 M01/M07 A3010 RMK SC2 PRESRR SLP196=
CYYG;2005-01-02 01:00;METAR CYYG 020100Z 33019G26KT 15SM FEW037 M01/M08 A3014 RMK SC2 SLP210=
CYYG;2005-01-02 02:00;METAR CYYG 020200Z 33018G29KT 15SM FEW037 FEW200 M02/M09 A3019 RMK SC1CI0 SLP224=
CYYG;2005-01-02 03:00;METAR CYYG 020300Z 33019G29KT 15SM FEW200 M03/M11 A3024 RMK CI1 SLP243=
CYYG;2005-01-02 03:14;SPECI CYYG 020314Z 33017G24KT 15SM -SHSN BKN031 RMK SC6=
CYYG;2005-01-02 04:00;METAR CYYG 020400Z 32017G26KT 15SM -SHSN BKN035 M04/M10 A3029 RMK SC6 SLP258=
CYYG;2005-01-02 05:00;METAR CYYG 020500Z 32018G28KT 15SM -SHSN SCT030 M05/M11 A3031 RMK SC4 SLP267=
CYYG;2005-01-02 06:00;METAR CYYG 020600Z 33017G30KT 15SM -SHSN BKN035 M06/M12 A3037 RMK SC6 SLP286=
CYYG;2005-01-02 07:00;METAR CYYG 020700Z 32014G22KT 15SM -SHSN BKN041 M06/M12 A3042 RMK SC6 SLP304=
CYYG;2005-01-02 08:00;METAR CYYG 020800Z 33017G22KT 15SM -SHSN BKN032 M07/M13 A3046 RMK SC6 SLP316=
CYYG;2005-01-02 09:00;METAR CYYG 020900Z 35014G24KT 15SM -SHSN BKN029 M08/M14 A3049 RMK SC7 SLP328=
CYYG;2005-01-02 12:00;METAR CYYG 021200Z 33014G20KT 10SM -SHSN OVC028 M09/M13 A3063 RMK SC8 SLP377=
CYYG;2005-01-02 13:00;METAR CYYG 021300Z 35011G18KT 12SM -SHSN BKN026 M09/M14 A3067 RMK SC7 SLP388=
CYYG;2005-01-02 14:00;METAR CYYG 021400Z 35009KT 10SM -SHSN OVC028 M09/M13 A3070 RMK SC8 SLP398=
CYYG;2005-01-02 15:00;METAR CYYG 021500Z 34008G15KT 10SM -SHSN OVC024 M08/M13 A3070 RMK SC8 SLP399=
CYYG;2005-01-02 16:00;METAR CYYG 021600Z 34010KT 10SM -SHSN OVC024 M08/M13 A3067 RMK SC8 SLP388=
CYYG;2005-01-02 17:00;METAR CYYG 021700Z 36011KT 8SM -SHSN OVC024 M08/M12 A3066 RMK SC8 SLP384=
CYYG;2005-01-02 18:00;METAR CYYG 021800Z 32006KT 10SM -SHSN OVC023 M08/M13 A3066 RMK SC8 SLP386=
CYYG;2005-01-02 19:00;METAR CYYG 021900Z 31004KT 10SM -SHSN OVC023 M08/M13 A3066 RMK SC8 SLP387=
CYYG;2005-01-02 19:28;SPECI CYYG 021928Z 32004KT 2SM -SHSN OVC019 RMK SC8=
CYYG;2005-01-02 19:42;SPECI CYYG 021942Z 31003KT 6SM -SHSN BKN020 RMK SC7 VIS LWR E=
CYYG;2005-01-02 20:00;METAR CYYG 022000Z 34003KT 6SM -SHSN BKN022 M09/M12 A3066 RMK SC7 SLP386=
CYYG;2005-01-02 21:00;METAR CYYG 022100Z 26003KT 8SM -SHSN OVC024 M09/M12 A3067 RMK SC8 SLP391=
CYYG;2005-01-02 22:00;METAR CYYG 022200Z 27006KT 10SM -SHSN OVC023 M09/M12 A3069 RMK SC8 SLP397=
CYYG;2005-01-02 23:00;METAR CYYG 022300Z 00000KT 10SM -SHSN OVC023 M09/M13 A3068 RMK SC8 SLP393=
CYYG;2005-01-03 00:00;METAR CYYG 030000Z 22003KT 15SM -SHSN BKN023 OVC130 M09/M13 A3065 RMK SC6AC2 SLP382=
CYYG;2005-01-03 01:00;METAR CYYG 030100Z 19007KT 15SM -SHSN BKN023 OVC094 M08/M12 A3060 RMK SC5AC3 SLP365=
CYYG;2005-01-03 01:37;SPECI CYYG 030137Z 19010KT 15SM SCT023 OVC081 RMK SC4AC4=
CYYG;2005-01-03 02:00;METAR CYYG 030200Z 18012KT 15SM SCT020 OVC065 M08/M11 A3055 RMK SC3SC5 SLP351=
CYYG;2005-01-03 03:00;METAR CYYG 030300Z 18016KT 15SM FEW018 OVC083 M07/M12 A3052 RMK SC2AC6 SLP339=
CYYG;2005-01-03 04:00;METAR CYYG 030400Z 19015KT 15SM BKN069 OVC086 M07/M11 A3049 RMK AC5AC3 SLP329=
CYYG;2005-01-03 05:00;METAR CYYG 030500Z 20017KT 2SM -SHSN VV009 M07/M10 A3045 RMK SN8 SLP315=
CYYG;2005-01-03 06:00;METAR CYYG 030600Z 20016KT 2SM -SN VV006 M06/M07 A3042 RMK SN8 SLP305=
CYYG;2005-01-03 07:00;METAR CYYG 030700Z 18013KT 2SM -SN VV005 M05/M07 A3038 RMK SN8 SLP292=
CYYG;2005-01-03 08:00;METAR CYYG 030800Z 18017KT 1SM -SN VV002 M04/M05 A3031 RMK SN8 PRESFR VSBY VRBL 1/2-11/2 SLP266=
CYYG;2005-01-03 08:32;SPECI CYYG 030832Z 18015G20KT 2SM -SN BKN005 OVC010 RMK SF6SC2=
CYYG;2005-01-03 08:35;SPECI CYYG 030835Z 18020KT 3SM -SN BKN006 OVC012 RMK SF6SC2=
CYYG;2005-01-03 09:00;METAR CYYG 030900Z 18019KT 6SM -SN BKN006 OVC012 M03/M04 A3025 RMK SF6SC2 PRESFR /S10/ SLP245=
CYYG;2005-01-03 09:21;SPECI CYYG 030921Z 18020KT 15SM OVC007 RMK SF8=
CYYG;2005-01-03 10:00;METAR CYYG 031000Z 18016KT 15SM SCT005 OVC027 M02/M03 A3021 RMK SF4SC4 SLP232=
CYYG;2005-01-03 11:00;METAR CYYG 031100Z 19013KT 15SM FEW005 OVC022 M01/M02 A3018 RMK SF2SC6 SLP222=
CYYG;2005-01-03 11:36;SPECI CYYG 031136Z 19011KT 15SM -FZDZ OVC014 RMK SC8=
CYYG;2005-01-03 12:00;METAR CYYG 031200Z 20014KT 5SM -FZDZ BR OVC011 M00/M01 A3015 RMK SC8 SLP213=
CYYG;2005-01-03 12:25;SPECI CYYG 031225Z 20012KT 10SM -DZ FEW006 OVC009 REFZDZ RMK SF2SC6=
CYYG;2005-01-03 12:43;SPECI CYYG 031243Z 20011KT 15SM FEW006 OVC009 REFZDZ RMK SF2SC6=
CYYG;2005-01-03 13:00;METAR CYYG 031300Z 21010KT 15SM FEW006 OVC010 01/M00 A3012 REFZDZ RMK SF1SC7 SLP203=
CYYG;2005-01-03 13:25;SPECI CYYG 031325Z 21011KT 10SM -DZ FEW006 OVC010 RMK SF1SC7=
CYYG;2005-01-03 13:49;SPECI CYYG 031349Z 21010KT 5SM -DZ BR FEW006 OVC009 RMK SF1SF7=
CYYG;2005-01-03 14:00;METAR CYYG 031400Z 21008KT 3SM -DZ BR OVC007 01/M00 A3010 RMK SF8 SLP195=
CYYG;2005-01-03 15:00;METAR CYYG 031500Z 22010KT 3SM -DZ BR OVC007 01/01 A3007 RMK SF8 SLP186=
CYYG;2005-01-03 15:25;SPECI CYYG 031525Z 22008KT 3SM -DZ BR OVC005 RMK SF8=
CYYG;2005-01-03 15:47;SPECI CYYG 031547Z 23008G16KT 3SM -DZ BR OVC004 RMK SF8=
CYYG;2005-01-03 16:00;METAR CYYG 031600Z 23010KT 3SM -DZ BR OVC003 02/01 A3003 RMK SF8 SLP172=
CYYG;2005-01-03 16:45;SPECI CYYG 031645Z 23008KT 2 1/2SM BR OVC002 RMK ST8=
CYYG;2005-01-03 17:00;METAR CYYG 031700Z 23006KT 1 1/4SM BR OVC002 02/01 A3001 RMK ST8 SLP167=
CYYG;2005-01-03 18:00;METAR CYYG 031800Z 24005KT 2 1/2SM BR BKN003 OVC005 02/02 A3001 RMK SF5SF3 SLP165=
CYYG;2005-01-03 18:11;SPECI CYYG 031811Z 24005KT 6SM BR FEW003 BKN005 OVC034 RMK SF2SF5SC1=
CYYG;2005-01-03 18:46;SPECI CYYG 031846Z 27007KT 12SM FEW006 OVC014 RMK SF2SC6=
CYYG;2005-01-03 19:00;METAR CYYG 031900Z 28008KT 10SM -SHRA FEW006 OVC014 03/01 A3001 RMK SF1SC7 SLP166=
CYYG;2005-01-03 20:00;METAR CYYG 032000Z 28011G16KT 15SM -SHRA FEW006 BKN014 OVC032 02/00 A3003 RMK SF1SC4SC3 SLP172=
CYYG;2005-01-03 20:13;SPECI CYYG 032013Z 29010G18KT 15SM FEW006 SCT014 OVC032 RMK SF1SC2SC5=
CYYG;2005-01-03 21:00;METAR CYYG 032100Z 26009G16KT 15SM FEW014 SCT032 BKN047 01/M02 A3006 RMK SC2SC2SC4 SLP181=
CYYG;2005-01-03 22:00;METAR CYYG 032200Z 27006KT 15SM FEW020 BKN047 01/M03 A3009 RMK SC2SC3 SLP191=
CYYG;2005-01-03 23:00;METAR CYYG 032300Z 29011G16KT 15SM FEW020 SCT050 01/M04 A3011 RMK SC1SC2 SLP198=
CYYG;2005-01-04 00:00;METAR CYYG 040000Z 30010KT 15SM FEW050 00/M05 A3014 RMK SC2 SLP208=
CYYG;2005-01-04 01:00;METAR CYYG 040100Z 33009G16KT 15SM FEW025 M01/M05 A3017 RMK SC2 SLP220=
CYYG;2005-01-04 02:00;METAR CYYG 040200Z 32011KT 15SM FEW025 M02/M08 A3018 RMK SC2 SLP223=
CYYG;2005-01-04 03:00;METAR CYYG 040300Z 31011KT 15SM FEW025 FEW045 M02/M08 A3019 RMK SC1SC2 SLP225=
CYYG;2005-01-04 04:00;METAR CYYG 040400Z 32008KT 15SM FEW040 M03/M09 A3019 RMK SC2 SLP227=
CYYG;2005-01-04 05:00;METAR CYYG 040500Z 30004KT 15SM FEW220 M03/M09 A3019 RMK CI2 SLP225=
CYYG;2005-01-04 06:00;METAR CYYG 040600Z 34005KT 15SM FEW220 M04/M09 A3019 RMK CI2 SLP225=
CYYG;2005-01-04 07:00;METAR CYYG 040700Z 34005KT 15SM SCT032 M04/M08 A3019 RMK SC3 SLP226=
CYYG;2005-01-04 08:00;METAR CYYG 040800Z 34003KT 15SM BKN036 M03/M07 A3020 RMK SC6 SLP231=
CYYG;2005-01-04 09:00;METAR CYYG 040900Z 32004KT 15SM BKN034 M04/M08 A3020 RMK SC6 SLP231=
CYYG;2005-01-04 10:00;METAR CYYG 041000Z 33003KT 15SM OVC035 M04/M08 A3020 RMK SC8 SLP230=
CYYG;2005-01-04 11:00;METAR CYYG 041100Z 33004KT 15SM BKN035 M04/M09 A3020 RMK SC6 SLP230=
CYYG;2005-01-04 12:00;METAR CYYG 041200Z 28003KT 15SM OVC032 M05/M08 A3020 RMK SC8 SLP231=
CYYG;2005-01-04 13:00;METAR CYYG 041300Z 31004KT 15SM FEW027 OVC035 M05/M08 A3020 RMK SC2SC6 SLP230=
CYYG;2005-01-04 13:47;SPECI CYYG 041347Z 31003KT 15SM -SHSN OVC034 RMK SC8=
CYYG;2005-01-04 15:00;METAR CYYG 041500Z 33003KT 15SM -SHSN FEW030 OVC036 M05/M08 A3020 RMK SC1SC7 VIS LWR W SLP230=
CYYG;2005-01-04 16:00;METAR CYYG 041600Z 34004KT 15SM -SHSN FEW028 OVC035 M05/M08 A3017 RMK SC1SC7 VIS LWR W SLP219=
CYYG;2005-01-04 17:00;METAR CYYG 041700Z 33003KT 15SM -SHSN BKN035 M05/M08 A3015 RMK SC7 SLP212=
CYYG;2005-01-04 18:00;METAR CYYG 041800Z 34003KT 15SM -SHSN FEW020 BKN034 M04/M08 A3013 RMK SC2SC6 SLP205=
CYYG;2005-01-04 20:00;METAR CYYG 042000Z 00000KT 15SM -SHSN FEW016 SCT029 M05/M08 A3010 RMK SC1SC2 VIS LWR E SLP196=
CYYG;2005-01-04 20:18;SPECI CYYG 042018Z 00000KT 15SM VCSH FEW016 FEW030 RMK SC1SC2 VIS LWR E=
CYYG;2005-01-04 21:00;METAR CYYG 042100Z 33002KT 15SM SCT016 M07/M09 A3009 RMK SC3 SLP191=
CYYG;2005-01-04 22:00;METAR CYYG 042200Z 32004KT 15SM FEW016 M09/M11 A3009 RMK SC2 SLP192=
CYYG;2005-01-04 23:00;METAR CYYG 042300Z 30003KT 15SM FEW016 M08/M10 A3009 RMK SC2 SLP194=
CYYG;2005-01-05 00:00;METAR CYYG 050000Z 27002KT 15SM FEW015 BKN160 M08/M10 A3008 RMK SC1AC6 SLP189=
CYYG;2005-01-05 01:00;METAR CYYG 050100Z 25002KT 15SM OVC120 M08/M10 A3007 RMK AC8 SLP185=
CYYG;2005-01-05 02:00;METAR CYYG 050200Z 24003KT 15SM OVC120 M08/M10 A3006 RMK AC8 SLP184=
CYYG;2005-01-05 03:00;METAR CYYG 050300Z 25003KT 15SM BKN120 OVC250 M08/M10 A3004 RMK AC7CI1 SLP175=
CYYG;2005-01-05 04:00;METAR CYYG 050400Z 25006KT 15SM BKN120 OVC250 M07/M09 A3001 RMK AC5CI3 SLP165=
CYYG;2005-01-05 05:00;METAR CYYG 050500Z 29006KT 15SM FEW120 SCT250 M08/M10 A2999 RMK AC2CI2 SLP159=
CYYG;2005-01-05 06:00;METAR CYYG 050600Z 28009KT 15SM FEW250 M08/M12 A3000 RMK CI2 SLP163=
CYYG;2005-01-05 07:00;METAR CYYG 050700Z 29009KT 15SM FEW250 M08/M13 A3001 RMK CI2 SLP165=
CYYG;2005-01-05 08:00;METAR CYYG 050800Z 28005KT 15SM SCT220 M08/M13 A3000 RMK CI3 SLP161=
CYYG;2005-01-05 09:00;METAR CYYG 050900Z 26005KT 15SM SCT220 M09/M13 A2998 RMK CI4 SLP157=
CYYG;2005-01-05 10:00;METAR CYYG 051000Z 28006KT 15SM BKN059 BKN220 M09/M12 A2999 RMK SC5CI2 SLP160=
CYYG;2005-01-05 10:08;SPECI CYYG 051008Z 28008KT 10SM -SHSN SCT021 OVC055 RMK SC4SC4=
CYYG;2005-01-05 10:36;SPECI CYYG 051036Z 29010G16KT 3SM -SHSN SCT007 OVC018 RMK SF4SC4=
CYYG;2005-01-05 11:00;METAR CYYG 051100Z 28013KT 10SM -SHSN DRSN SCT018 OVC025 M09/M11 A3001 RMK SC3SC5 SLP165=
CYYG;2005-01-05 11:29;SPECI CYYG 051129Z 29014KT 15SM DRSN FEW025 BKN100 RMK SC2AC4=
CYYG;2005-01-05 12:00;METAR CYYG 051200Z 29011G17KT 15SM DRSN FEW025 BKN097 M09/M13 A3003 RMK SC1AC5 SLP173=
CYYG;2005-01-05 14:00;METAR CYYG 051400Z 29014KT 15SM FEW020 FEW097 BKN250 M10/M16 A3007 RMK SC1AC1CI3 SHSN DIST N-NE SLP185=
CYYG;2005-01-05 15:00;METAR CYYG 051500Z 29012KT 15SM FEW027 FEW097 BKN250 M10/M16 A3007 RMK SC1AC1CI2 SLP185=
CYYG;2005-01-05 15:49;SPECI CYYG 051549Z 28008G15KT 15SM -SHSN FEW020 BKN250 RMK SC2CI1=
CYYG;2005-01-05 16:00;METAR CYYG 051600Z 29008G15KT 15SM -SHSN FEW020 BKN250 M11/M16 A3005 RMK SC2CI1 SLP180=
CYYG;2005-01-05 17:00;METAR CYYG 051700Z 29012KT 15SM -SHSN BKN021 BKN250 M11/M16 A3004 RMK SC5CI1 VIS N-E 2 SLP176=
CYYG;2005-01-05 18:00;METAR CYYG 051800Z 29009KT 15SM -SHSN FEW021 BKN250 M11/M16 A3004 RMK SC2CI1 /S01/ VIS N-E 3 SLP174=
CYYG;2005-01-05 18:26;SPECI CYYG 051826Z 29011KT 15SM FEW028 FEW250 RMK SC1CI0=
CYYG;2005-01-05 19:00;METAR CYYG 051900Z 28008KT 15SM FEW023 FEW250 M11/M17 A3004 RMK SC2CI0 SHSN DIST N-NE SLP177=
CYYG;2005-01-05 20:00;METAR CYYG 052000Z 31008KT 15SM FEW028 FEW250 M11/M16 A3006 RMK SC1CI0 SHSN DIST N-NE SLP182=
CYYG;2005-01-05 21:00;METAR CYYG 052100Z 30004KT 15SM FEW028 FEW250 M12/M18 A3008 RMK SC1CI1 SHSN DIST N-NE SLP190=
CYYG;2005-01-05 22:00;METAR CYYG 052200Z 30004KT 15SM FEW028 FEW250 M13/M18 A3008 RMK SC1CI1 SLP190=
CYYG;2005-01-05 23:00;METAR CYYG 052300Z 29006KT 15SM FEW250 M12/M18 A3010 RMK CI1 SLP197=
CYYG;2005-01-06 00:00;METAR CYYG 060000Z 29007KT 15SM FEW250 M12/M19 A3012 RMK CI1 SLP202=
CYYG;2005-01-06 01:00;METAR CYYG 060100Z 29009KT 15SM FEW250 M13/M19 A3012 RMK CI1 SLP205=
CYYG;2005-01-06 02:00;METAR CYYG 060200Z 29011G16KT 15SM FEW250 M13/M20 A3013 RMK CI2 SLP208=
CYYG;2005-01-06 03:00;METAR CYYG 060300Z 29011KT 15SM FEW026 SCT250 M13/M20 A3014 RMK SC2CI2 SLP209=
CYYG;2005-01-06 03:04;SPECI CYYG 060304Z 29012KT 15SM -SHSN BKN026 BKN250 RMK SC5CI2=
CYYG;2005-01-06 03:20;SPECI CYYG 060320Z 29010G15KT 15SM BKN026 OVC250 RMK SC6CI2=
CYYG;2005-01-06 04:00;METAR CYYG 060400Z 30010G16KT 15SM SCT026 BKN250 M14/M21 A3013 RMK SC4CI3 SLP207=
CYYG;2005-01-06 05:00;METAR CYYG 060500Z 27007KT 15SM BKN025 BKN250 M15/M21 A3014 RMK SC5CI2 SLP212=
CYYG;2005-01-06 06:00;METAR CYYG 060600Z 27009KT 15SM BKN025 BKN250 M15/M20 A3015 RMK SC6CI2 SLP215=
CYYG;2005-01-06 07:00;METAR CYYG 060700Z 25008KT 15SM BKN025 BKN250 M16/M21 A3018 RMK SC5CI2 SLP223=
CYYG;2005-01-06 08:00;METAR CYYG 060800Z 27011KT 15SM SCT025 BKN250 M16/M21 A3019 RMK SC4CI2 SLP226=
CYYG;2005-01-06 09:00;METAR CYYG 060900Z 29011KT 15SM FEW025 FEW250 M16/M21 A3018 RMK SC2CI1 SLP224=
CYYG;2005-01-06 10:00;METAR CYYG 061000Z 29010KT 15SM FEW025 FEW250 M16/M21 A3018 RMK SC1CI2 SLP224=
CYYG;2005-01-06 11:00;METAR CYYG 061100Z 27009KT 15SM BKN250 M17/M21 A3019 RMK CI2 SLP226=
CYYG;2005-01-06 12:00;METAR CYYG 061200Z 28007KT 15SM FEW025 BKN250 M17/M21 A3021 RMK SC1CS4 SLP236=
CYYG;2005-01-06 14:00;METAR CYYG 061400Z 25006KT 15SM FEW025 SCT250 M16/M22 A3024 RMK SC1CS1 SLP244=
CYYG;2005-01-06 15:00;METAR CYYG 061500Z 27008KT 15SM FEW025 BKN250 M15/M21 A3025 RMK SC1CS2 SLP247=
CYYG;2005-01-06 16:00;METAR CYYG 061600Z 26008KT 15SM FEW025 BKN250 M15/M22 A3022 RMK SC1CS2 SLP238=
CYYG;2005-01-06 17:00;METAR CYYG 061700Z 22008KT 15SM FEW025 BKN250 M14/M22 A3018 RMK SC1CS2 SLP226=
CYYG;2005-01-06 18:00;METAR CYYG 061800Z 23008KT 15SM FEW025 BKN250 M13/M20 A3016 RMK SC1CS2 SLP217=
CYYG;2005-01-06 19:00;METAR CYYG 061900Z 23009KT 15SM FEW025 BKN250 M12/M21 A3014 RMK SC1CS2 SLP211=
CYYG;2005-01-06 20:00;METAR CYYG 062000Z 20010KT 15SM BKN250 M12/M19 A3013 RMK CS2 SLP208=
CYYG;2005-01-06 21:00;METAR CYYG 062100Z 20007KT 15SM OVC250 M12/M18 A3014 RMK CS4 SLP209=
CYYG;2005-01-06 22:00;METAR CYYG 062200Z 19008KT 15SM OVC250 M11/M16 A3011 RMK CS6 SLP200=
CYYG;2005-01-06 23:00;METAR CYYG 062300Z 20008KT 15SM OVC250 M10/M15 A3010 RMK CS6 SLP197=
CYYG;2005-01-07 00:00;METAR CYYG 070000Z 19009KT 15SM OVC190 M09/M13 A3008 RMK CS6 SLP189=
CYYG;2005-01-07 01:00;METAR CYYG 070100Z 18010KT 15SM OVC150 M09/M13 A3006 RMK AC7 SLP184=
CYYG;2005-01-07 02:00;METAR CYYG 070200Z 18008KT 15SM OVC090 M08/M13 A3005 RMK AC8 SLP179=
CYYG;2005-01-07 03:00;METAR CYYG 070300Z 17006KT 15SM BKN045 OVC090 M08/M13 A3002 RMK SC6AC2 SLP169=
CYYG;2005-01-07 04:28;SPECI CYYG 070428Z 16007KT 12SM -SHSN BKN025 OVC047 RMK SC5SC3=
CYYG;2005-01-07 05:00;METAR CYYG 070500Z 12004KT 10SM -SHSN FEW014 BKN028 OVC047 M08/M10 A2993 RMK SC2SC4SC2 SLP140=
CYYG;2005-01-07 05:19;SPECI CYYG 070519Z 12004KT 4SM -SHSN SCT008 BKN021 OVC047 RMK SF3SC4SC1=
CYYG;2005-01-07 06:00;METAR CYYG 070600Z 10003KT 3SM -SHSN BKN006 OVC018 M08/M10 A2992 RMK SF5SC3 SLP135=
CYYG;2005-01-07 06:09;SPECI CYYG 070609Z 08003KT 2SM -SN VV003 RMK SN8=
CYYG;2005-01-07 07:00;METAR CYYG 070700Z 06007KT 2SM -SN OVC008 M08/M10 A2984 RMK SN4SF4 SLP109=
CYYG;2005-01-07 08:00;METAR CYYG 070800Z 05005KT 2 1/2SM -SN OVC009 M08/M09 A2977 RMK SN2SF6 PRESFR SLP084=
CYYG;2005-01-07 09:00;METAR CYYG 070900Z 02006KT 4SM -SN SCT009 OVC020 M08/M09 A2972 RMK SN2SF2SC4 /S03/ SLP069=
CYYG;2005-01-07 10:00;METAR CYYG 071000Z 03006KT 3SM -SN SCT007 OVC017 M07/M08 A2971 RMK SN2SF2SC4 /S04/ SLP066=
CYYG;2005-01-07 10:19;SPECI CYYG 071019Z 02006KT 3SM -SN BKN008 OVC018 RMK SN2SF4SC2=
CYYG;2005-01-07 11:00;METAR CYYG 071100Z 02007KT 3SM -SN BKN007 OVC018 M05/M07 A2969 RMK SN2SF5SC2 /S05/ SLP059=
CYYG;2005-01-07 12:00;METAR CYYG 071200Z 03009KT 2SM -SN OVC011 M04/M05 A2969 RMK SN2SC6 /S06/ SLP058=
CYYG;2005-01-07 14:00;METAR CYYG 071400Z 35003KT 6SM -SN BKN006 OVC010 M03/M04 A2972 RMK SF5SC3 SLP067=
CYYG;2005-01-07 15:00;METAR CYYG 071500Z 34005KT 4SM -SN SCT006 OVC009 M03/M03 A2973 RMK SF4SF4 SLP070=
CYYG;2005-01-07 15:08;SPECI CYYG 071508Z 35004KT 2SM -SN -FZDZ BKN004 OVC009 RMK SF6SF2=
CYYG;2005-01-07 16:00;METAR CYYG 071600Z 33010KT 2SM -SN OVC009 M03/M04 A2973 RMK SN2SF6 SLP071=
CYYG;2005-01-07 16:20;SPECI CYYG 071620Z 32011KT 4SM -SN BKN011 OVC034 RMK SC6SC2=
CYYG;2005-01-07 17:00;METAR CYYG 071700Z 32009KT 6SM -SN BKN008 OVC027 M03/M05 A2974 RMK SF6SC2 SLP075=
CYYG;2005-01-07 18:00;METAR CYYG 071800Z 31010KT 6SM -SN OVC010 M03/M05 A2977 RMK SC8 SLP083=
CYYG;2005-01-07 19:00;METAR CYYG 071900Z 29008KT 10SM -SHSN SCT010 OVC018 M04/M06 A2981 RMK SC3SC5 SLP098=
CYYG;2005-01-07 20:00;METAR CYYG 072000Z 29009KT 10SM -SHSN OVC014 M04/M06 A2986 RMK SC8 SLP114=
CYYG;2005-01-07 21:00;METAR CYYG 072100Z 30010KT 10SM -SHSN OVC014 M05/M07 A2991 RMK SC8 SLP133=
CYYG;2005-01-07 21:24;SPECI CYYG 072124Z 31009KT 15SM BKN013 RMK SC7=
CYYG;2005-01-07 22:00;METAR CYYG 072200Z 28006KT 15SM BKN013 M06/M08 A2994 RMK SC6 SLP142=
CYYG;2005-01-07 23:00;METAR CYYG 072300Z 29007KT 15SM SCT013 M06/M08 A3000 RMK SC4 PRESRR SLP163=
CYYG;2005-01-08 00:00;METAR CYYG 080000Z 27006KT 15SM FEW013 M07/M10 A3005 RMK SC2 SLP179=
CYYG;2005-01-08 01:00;METAR CYYG 080100Z 27008KT 15SM FEW015 M07/M09 A3009 RMK SC2 SLP193=
CYYG;2005-01-08 02:00;METAR CYYG 080200Z 29005KT 15SM FEW015 M07/M09 A3008 RMK SC2 SLP188=
CYYG;2005-01-08 03:00;METAR CYYG 080300Z 27009KT 15SM SKC 07/M10 A3010 RMK SLP196=
CYYG;2005-01-08 04:00;METAR CYYG 080400Z 25007KT 15SM SKC M07/M10 A3012 RMK SLP201=
CYYG;2005-01-08 05:00;METAR CYYG 080500Z 25008KT 15SM SKC M06/M10 A3014 RMK SLP209=
CYYG;2005-01-08 06:00;METAR CYYG 080600Z 28010KT 15SM SKC M06/M09 A3014 RMK SLP210=
CYYG;2005-01-08 07:00;METAR CYYG 080700Z 27005KT 15SM SKC M06/M09 A3017 RMK SLP218=
CYYG;2005-01-08 08:00;METAR CYYG 080800Z 27007KT 15SM SKC M06/M09 A3018 RMK SLP222=
CYYG;2005-01-08 09:00;METAR CYYG 080900Z 29007KT 15SM SKC M07/M10 A3020 RMK SLP229=
CYYG;2005-01-08 10:00;METAR CYYG 081000Z 27007KT 15SM SKC M07/M10 A3021 RMK SLP232=
CYYG;2005-01-08 11:00;METAR CYYG 081100Z 27006KT 15SM SCT160 M07/M10 A3023 RMK AC3 SLP241=
CYYG;2005-01-08 12:00;METAR CYYG 081200Z 27007KT 15SM BKN160 M07/M10 A3025 RMK AC6 SLP249=
CYYG;2005-01-08 13:00;METAR CYYG 081300Z 26006KT 15SM BKN170 M06/M10 A3025 RMK AC6 SLP249=
CYYG;2005-01-08 14:00;METAR CYYG 081400Z 27007KT 15SM BKN170 M06/M10 A3027 RMK AC6 SLP254=
CYYG;2005-01-08 15:00;METAR CYYG 081500Z 27007KT 15SM BKN170 M06/M10 A3027 RMK AC5 SLP252=
CYYG;2005-01-08 16:00;METAR CYYG 081600Z 25008KT 15SM FEW170 BKN240 M05/M09 A3024 RMK AC2CI2 SLP244=
CYYG;2005-01-08 17:00;METAR CYYG 081700Z 25005KT 15SM FEW170 BKN240 M05/M09 A3021 RMK AC2CI2 SLP232=
CYYG;2005-01-08 18:00;METAR CYYG 081800Z 27003KT 15SM FEW170 BKN240 M05/M09 A3020 RMK AC2CI2 SLP228=
CYYG;2005-01-08 19:00;METAR CYYG 081900Z 21003KT 15SM SCT240 M05/M09 A3019 RMK CI2 SLP225=
CYYG;2005-01-08 20:00;METAR CYYG 082000Z 22004KT 15SM SCT240 M05/M09 A3019 RMK CI2 SLP227=
CYYG;2005-01-08 21:00;METAR CYYG 082100Z 21005KT 15SM BKN240 M06/M09 A3019 RMK CI5 SLP227=
CYYG;2005-01-08 22:00;METAR CYYG 082200Z 22005KT 15SM FEW190 BKN240 M06/M08 A3019 RMK AC2CI3 SLP225=
CYYG;2005-01-08 23:00;METAR CYYG 082300Z 25005KT 15SM OVC160 M05/M08 A3019 RMK AS8 SLP225=
CYYG;2005-01-09 00:00;METAR CYYG 090000Z 23004KT 15SM OVC150 M04/M08 A3018 RMK AS8 SLP223=
CYYG;2005-01-09 01:00;METAR CYYG 090100Z 25004KT 15SM OVC120 M04/M08 A3015 RMK AS8 SLP214=
CYYG;2005-01-09 02:00;METAR CYYG 090200Z 27005KT 15SM OVC130 M04/M08 A3014 RMK AS8 SLP210=
CYYG;2005-01-09 03:00;METAR CYYG 090300Z 28006KT 15SM FEW030 OVC130 M04/M07 A3014 RMK SC2AS6 SLP209=
CYYG;2005-01-09 04:00;METAR CYYG 090400Z 29006KT 15SM FEW030 SCT130 OVC200 M04/M07 A3014 RMK SC2AC2CI4 SLP210=
CYYG;2005-01-09 05:00;METAR CYYG 090500Z 32006KT 15SM OVC140 M05/M07 A3012 RMK AS8 SLP204=
CYYG;2005-01-09 06:00;METAR CYYG 090600Z 26006KT 15SM SCT024 OVC140 M05/M07 A3015 RMK SC3AS5 SLP214=
CYYG;2005-01-09 07:00;METAR CYYG 090700Z 32006KT 15SM FEW019 BKN025 OVC180 M04/M07 A3014 RMK SC2SC4AS2 SLP211=
CYYG;2005-01-09 08:00;METAR CYYG 090800Z 35007KT 15SM SCT020 OVC190 M03/M06 A3014 RMK SC3AS5 SLP209=
CYYG;2005-01-09 09:00;METAR CYYG 090900Z 36010G15KT 15SM BKN024 M03/M07 A3017 RMK SC7 SLP218=
CYYG;2005-01-09 10:00;METAR CYYG 091000Z 36011G18KT 15SM BKN027 M03/M07 A3017 RMK SC6 SLP221=
CYYG;2005-01-09 10:24;SPECI CYYG 091024Z 36012G17KT 15SM -SHSN BKN031 RMK SC6=
CYYG;2005-01-09 11:00;METAR CYYG 091100Z 36013G19KT 5SM -SHSN DRSN BKN020 M03/M06 A3021 RMK SC6 SLP234=
CYYG;2005-01-09 12:00;METAR CYYG 091200Z 36012G17KT 15SM -SHSN DRSN BKN021 M04/M08 A3024 RMK SC5 SLP242=
CYYG;2005-01-09 13:00;METAR CYYG 091300Z 36012G20KT 15SM -SHSN DRSN BKN025 BKN250 M04/M08 A3028 RMK SC5CI1 SLP255=
CYYG;2005-01-09 14:00;METAR CYYG 091400Z 01013G21KT 10SM -SHSN DRSN BKN020 BKN250 M04/M08 A3031 RMK SC6CI1 VIS LWR SW SLP268=
CYYG;2005-01-09 14:34;SPECI CYYG 091434Z 02013KT 1SM -SHSN DRSN VV008 RMK SN8=
CYYG;2005-01-09 14:48;SPECI CYYG 091448Z 01010G17KT 3SM -SHSN DRSN BKN017 RMK SC7 VIS E-S 2=
CYYG;2005-01-09 15:00;METAR CYYG 091500Z 02011G16KT 6SM -SHSN DRSN FEW014 BKN022 M05/M08 A3034 RMK CU2SC5 VIS W 2 SLP276=
CYYG;2005-01-09 15:23;SPECI CYYG 091523Z 02013G19KT 1SM -SHSN DRSN VV009 RMK SN8 VIS SW 1/2 RVR RWY03 4000 FT=
CYYG;2005-01-09 15:44;SPECI CYYG 091544Z 36011G19KT 8SM -SHSN DRSN BKN024 RMK SC7 VIS LWR E-SE=
CYYG;2005-01-09 16:00;METAR CYYG 091600Z 02012G18KT 10SM -SHSN DRSN FEW014 BKN024 M05/M08 A3034 RMK CU1SC6 VIS E 2 SLP278=
CYYG;2005-01-09 17:00;METAR CYYG 091700Z 36013G18KT 3SM -SHSN DRSN FEW014 BKN025 M06/M08 A3035 RMK CU2SC6 VIS SE-SW 1 /S01/ SLP280=
CYYG;2005-01-09 18:00;METAR CYYG 091800Z 36011G16KT 10SM -SHSN DRSN FEW016 BKN028 BKN300 M05/M10 A3037 RMK CU2SC4CI0 VIS LWR NE-SE SLP287=
CYYG;2005-01-09 19:00;METAR CYYG 091900Z 35010G17KT 15SM -SHSN DRSN BKN028 M06/M10 A3039 RMK SC7 VIS LWR E-S SLP293=
CYYG;2005-01-09 20:00;METAR CYYG 092000Z 35007KT 15SM -SHSN BKN024 M06/M10 A3040 RMK SC7 VIS LWR SE SLP299=
CYYG;2005-01-09 21:00;METAR CYYG 092100Z 36005KT 15SM -SHSN OVC025 M06/M11 A3041 RMK SC8 VIS LWR E SLP303=
CYYG;2005-01-09 22:00;METAR CYYG 092200Z 36005KT 15SM -SHSN OVC026 M07/M11 A3042 RMK SC8 SLP304=
CYYG;2005-01-09 23:00;METAR CYYG 092300Z 01007KT 15SM -SHSN OVC023 M07/M11 A3041 RMK SC8 SLP303=
CYYG;2005-01-10 00:00;METAR CYYG 100000Z 36004KT 15SM -SHSN OVC021 M07/M11 A3041 RMK SC8 SLP303=
CYYG;2005-01-10 01:00;METAR CYYG 100100Z 35004KT 15SM -SHSN OVC021 M07/M11 A3042 RMK SC8 SLP304=
CYYG;2005-01-10 02:00;METAR CYYG 100200Z 00000KT 15SM -SHSN OVC022 M07/M11 A3040 RMK SC8 SLP299=
CYYG;2005-01-10 03:00;METAR CYYG 100300Z 08002KT 15SM -SHSN OVC024 M07/M11 A3037 RMK SC8 SLP288=
CYYG;2005-01-10 04:00;METAR CYYG 100400Z 08002KT 15SM -SHSN OVC025 M07/M11 A3037 RMK SC8 SLP288=
CYYG;2005-01-10 05:00;METAR CYYG 100500Z 23004KT 15SM -SHSN OVC025 M07/M11 A3037 RMK SC8 SLP288=
CYYG;2005-01-10 06:00;METAR CYYG 100600Z 25004KT 15SM -SHSN OVC024 M08/M11 A3038 RMK SC8 SLP290=
CYYG;2005-01-10 07:00;METAR CYYG 100700Z 18003KT 15SM OVC024 M08/M10 A3034 RMK SC8 SLP279=
CYYG;2005-01-10 08:00;METAR CYYG 100800Z 23003KT 15SM OVC024 M07/M11 A3036 RMK SC8 SLP283=
CYYG;2005-01-10 09:00;METAR CYYG 100900Z 20003KT 15SM OVC021 M07/M10 A3033 RMK SC8 SLP276=
CYYG;2005-01-10 09:36;SPECI CYYG 100936Z 20005KT 15SM -SHSN OVC019 RMK SC8=
CYYG;2005-01-10 10:00;METAR CYYG 101000Z 20005KT 15SM -SHSN OVC018 M07/M10 A3031 RMK SC8 SLP267=
CYYG;2005-01-10 11:00;METAR CYYG 101100Z 15007KT 15SM -SHSN BKN020 OVC250 M07/M10 A3025 RMK SC6CI2 SLP249=
CYYG;2005-01-10 11:44;SPECI CYYG 101144Z 15005KT 15SM SCT020 BKN100 RMK SC4AC3=
CYYG;2005-01-10 12:00;METAR CYYG 101200Z 15004KT 15SM SCT020 BKN100 M08/M10 A3024 RMK SC4AC3 SLP243=
CYYG;2005-01-10 13:00;METAR CYYG 101300Z 15004KT 15SM FEW020 BKN110 M08/M11 A3021 RMK SC2AC5 SLP235=
CYYG;2005-01-10 14:00;METAR CYYG 101400Z 15009KT 15SM FEW020 BKN110 M07/M10 A3016 RMK SC2AC5 SLP216=
CYYG;2005-01-10 15:00;METAR CYYG 101500Z 16012G18KT 15SM SCT030 BKN110 M06/M08 A3013 RMK SC4AC3 SLP207=
CYYG;2005-01-10 16:00;METAR CYYG 101600Z 18011KT 15SM BKN035 BKN110 M04/M07 A3009 RMK SC6AC2 SLP193=
CYYG;2005-01-10 17:00;METAR CYYG 101700Z 18017KT 15SM BKN038 OVC110 M04/M07 A3003 RMK SC6AC2 PRESFR SLP171=
CYYG;2005-01-10 18:00;METAR CYYG 101800Z 16014KT 8SM -SHSN OVC024 M04/M06 A2997 RMK SC8 PRESFR SLP151=
CYYG;2005-01-10 19:09;SPECI CYYG 101909Z 16016KT 2SM -SHSN DRSN OVC009 RMK SF8=
CYYG;2005-01-10 20:00;METAR CYYG 102000Z 16017G22KT 1SM -SHSN DRSN OVC007 M03/M04 A2985 RMK SF8 RVR RWY03 P6000FT SLP110=
CYYG;2005-01-10 21:00;METAR CYYG 102100Z 16017G22KT 1SM -SHSN DRSN OVC007 M02/M03 A2980 RMK SF8 RVR RWY03 P6000FT SLP093=
CYYG;2005-01-10 21:23;SPECI CYYG 102123Z 16015KT 3/4SM -SN VV004 RMK SN8 RVR RWY03 6000FT=
CYYG;2005-01-10 22:00;METAR CYYG 102200Z 16013KT 3/4SM -SN VV004 M01/M02 A2975 RMK SN8 RVR RWY03 6000FT SLP077=
CYYG;2005-01-10 22:19;SPECI CYYG 102219Z 16011G17KT 1 1/4SM -SN VV003 RMK SN8=
CYYG;2005-01-10 23:00;METAR CYYG 102300Z 16014KT 1 1/4SM -SN DRSN OVC004 M01/M02 A2970 RMK SN3SF5 /S07/ SLP061=
CYYG;2005-01-10 23:15;SPECI CYYG 102315Z 16014KT 2SM -SN DRSN OVC004 RMK SN1SF7=
CYYG;2005-01-10 23:34;SPECI CYYG 102334Z 16013KT 5SM -SN DRSN BKN004 OVC008 RMK SF6SC2=
CYYG;2005-01-11 00:00;METAR CYYG 110000Z 17014KT 5SM -SN DRSN BKN004 OVC018 M01/M01 A2967 RMK SF6SC2 SLP050=
CYYG;2005-01-11 00:43;SPECI CYYG 110043Z 22008KT 10SM -SN FEW004 OVC010 RMK SF1SC8=
CYYG;2005-01-11 01:00;METAR CYYG 110100Z 23011KT 15SM -SN BKN006 OVC012 00/M00 A2966 RMK SF5SC3 PCPN VRY LGT SLP048=
CYYG;2005-01-11 01:40;SPECI CYYG 110140Z 23008KT 15SM BKN006 OVC012 RMK SF6SC2=
CYYG;2005-01-11 02:00;METAR CYYG 110200Z 24008KT 15SM BKN006 OVC063 01/M00 A2965 RMK SF7SC1 SLP044=
CYYG;2005-01-11 02:39;SPECI CYYG 110239Z 25010KT 15SM FEW006 SCT063 RMK SF1SC3=
CYYG;2005-01-11 03:00;METAR CYYG 110300Z 25012G17KT 15SM FEW006 FEW055 00/M02 A2965 RMK SF1SC2 SLP042=
CYYG;2005-01-11 04:00;METAR CYYG 110400Z 27014KT 15SM DRSN FEW055 M00/M04 A2964 RMK SC2 SLP041=
CYYG;2005-01-11 04:53;SPECI CYYG 110453Z 26012KT 10SM -SHSN BKN064 RMK SC6=
CYYG;2005-01-11 05:00;METAR CYYG 110500Z 26014KT 6SM -SHSN DRSN OVC062 M00/M03 A2964 RMK SC8 SLP039=
CYYG;2005-01-11 05:15;SPECI CYYG 110515Z 27016G22KT 1/4SM +SHSN DRSN VV005 RMK SN8=
CYYG;2005-01-11 05:22;SPECI CYYG 110522Z 27016G24KT 3SM -SHSN DRSN BKN015 OVC055 RESN RMK SC6SC2=
CYYG;2005-01-11 05:40;SPECI CYYG 110540Z 27018G25KT 15SM DRSN SCT055 RESN RMK SC3=
CYYG;2005-01-11 06:00;METAR CYYG 110600Z 27016G25KT 15SM DRSN SCT055 M01/M05 A2964 RMK SC4 SLP039=
CYYG;2005-01-11 07:00;METAR CYYG 110700Z 28011G21KT 15SM DRSN FEW055 M02/M07 A2966 RMK SC1 SLP046=
CYYG;2005-01-11 08:00;METAR CYYG 110800Z 28011G20KT 15SM DRSN FEW055 M03/M07 A2966 RMK SC1 SLP047=
CYYG;2005-01-11 08:36;SPECI CYYG 110836Z 28014G22KT 12SM -SHSN DRSN BKN030 RMK SC5=
CYYG;2005-01-11 08:46;SPECI CYYG 110846Z 28017G22KT 1 1/2SM -SHSN DRSN VV015 RMK SN8=
CYYG;2005-01-11 08:49;SPECI CYYG 110849Z 28016G22KT 1/2SM SHSN DRSN VV005 RMK SN8=
CYYG;2005-01-11 09:00;METAR CYYG 110900Z 28018KT 5SM -SHSN DRSN OVC013 M04/M06 A2968 RESN RMK SC8 SLP054=
CYYG;2005-01-11 09:38;SPECI CYYG 110938Z 29024G33KT 6SM -SHSN BLSN BKN030 OVC058 RMK SC5SC3=
CYYG;2005-01-11 10:00;METAR CYYG 111000Z 29027G34KT 6SM -SHSN BLSN FEW030 OVC051 M07/M13 A2974 RMK SC2SC6 SLP072=
CYYG;2005-01-11 10:50;SPECI CYYG 111050Z 29022G31KT 6SM BLSN FEW030 RMK SC1=
CYYG;2005-01-11 11:00;METAR CYYG 111100Z 29024G31KT 6SM BLSN FEW030 FEW050 M08/M14 A2975 RMK SC1SC1 SLP077=
CYYG;2005-01-11 12:00;METAR CYYG 111200Z 29018G25KT 15SM DRSN FEW030 SCT050 M09/M15 A2982 RMK SC2SC2 PRESRR SLP102=
CYYG;2005-01-11 12:49;SPECI CYYG 111249Z 30017G24KT 15SM -SHSN DRSN BKN018 RMK SC6=
CYYG;2005-01-11 13:00;METAR CYYG 111300Z 28017G25KT 15SM -SHSN DRSN BKN018 M10/M14 A2988 RMK SC7 SLP120=
CYYG;2005-01-11 14:00;METAR CYYG 111400Z 29015G20KT 15SM -SHSN DRSN BKN022 M10/M16 A2992 RMK SC7 SLP134=
CYYG;2005-01-11 15:00;METAR CYYG 111500Z 28017G26KT 15SM -SHSN DRSN BKN025 M10/M16 A2994 RMK SC7 SLP143=
CYYG;2005-01-11 16:00;METAR CYYG 111600Z 29015G20KT 15SM -SHSN DRSN BKN025 M11/M16 A2997 RMK SC7 SLP151=
CYYG;2005-01-11 16:47;SPECI CYYG 111647Z 29012G25KT 15SM DRSN BKN027 RMK SC7=
CYYG;2005-01-11 17:00;METAR CYYG 111700Z 29016G24KT 15SM DRSN BKN030 M10/M17 A2998 RMK SC7 SLP155=
CYYG;2005-01-11 18:00;METAR CYYG 111800Z 28018KT 15SM DRSN BKN030 M10/M17 A2999 RMK SC4 SLP160=
CYYG;2005-01-11 19:00;METAR CYYG 111900Z 29014G24KT 15SM DRSN SCT030 M10/M17 A3002 RMK SC2 SLP168=
CYYG;2005-01-11 20:00;METAR CYYG 112000Z 30012G18KT 15SM DRSN FEW025 M10/M16 A3006 RMK SC2 SLP184=
CYYG;2005-01-11 21:00;METAR CYYG 112100Z 29016G24KT 15SM DRSN FEW025 M10/M16 A3009 RMK SC1 SLP193=
CYYG;2005-01-11 22:00;METAR CYYG 112200Z 31010G16KT 15SM DRSN FEW025 M10/M17 A3012 RMK SC1 SLP201=
CYYG;2005-01-11 23:00;METAR CYYG 112300Z 31013KT 15SM FEW025 M10/M16 A3014 RMK SC1 SLP209=
CYYG;2005-01-12 00:00;METAR CYYG 120000Z 29011KT 15SM DRSN FEW025 M10/M16 A3017 RMK SC1 SLP220=
CYYG;2005-01-12 01:00;METAR CYYG 120100Z 29012G17KT 15SM DRSN FEW025 M10/M16 A3020 RMK SC1 SLP230=
CYYG;2005-01-12 02:00;METAR CYYG 120200Z 29014G20KT 15SM DRSN FEW015 M10/M17 A3023 RMK SC2 SLP242=
CYYG;2005-01-12 03:00;METAR CYYG 120300Z 29013KT 15SM DRSN FEW025 M11/M17 A3027 RMK SC2 SLP254=
CYYG;2005-01-12 04:00;METAR CYYG 120400Z 27008KT 15SM OVC027 M12/M17 A3030 RMK SC8 SLP265=
CYYG;2005-01-12 06:00;METAR CYYG 120600Z 28012G17KT 15SM SCT025 M12/M17 A3034 RMK SC3 SLP278=
CYYG;2005-01-12 07:00;METAR CYYG 120700Z 29011G17KT 15SM OVC021 M13/M17 A3037 RMK SC8 SLP289=
CYYG;2005-01-12 07:08;SPECI CYYG 120708Z 29011G16KT 12SM -SHSN OVC021 RMK SC8=
CYYG;2005-01-12 08:00;METAR CYYG 120800Z 29011G16KT 12SM -SHSN OVC020 M13/M17 A3039 RMK SC8 SLP296=
CYYG;2005-01-12 09:00;METAR CYYG 120900Z 28009KT 12SM -SHSN OVC019 M13/M17 A3041 RMK SC8 SLP302=
CYYG;2005-01-12 10:00;METAR CYYG 121000Z 27009KT 12SM -SHSN OVC019 M13/M17 A3043 RMK SC8 SLP310=
CYYG;2005-01-12 11:00;METAR CYYG 121100Z 27011KT 6SM -SHSN OVC024 M13/M16 A3047 RMK SC8 SLP323=
CYYG;2005-01-12 12:00;METAR CYYG 121200Z 29008KT 12SM -SHSN BKN022 M13/M16 A3049 RMK SC6 SLP330=
CYYG;2005-01-12 13:00;METAR CYYG 121300Z 27008KT 15SM -SHSN SCT021 BKN200 M13/M16 A3054 RMK SC4CI2 SLP345=
CYYG;2005-01-12 14:00;METAR CYYG 121400Z 26010KT 15SM -SHSN BKN022 BKN250 M12/M16 A3056 RMK SC5CI2 SLP353=
CYYG;2005-01-12 15:00;METAR CYYG 121500Z 31007KT 15SM VCSH FEW020 BKN250 M11/M15 A3055 RMK SC2CI2 SLP350=
CYYG;2005-01-12 16:00;METAR CYYG 121600Z 28007KT 15SM FEW020 SCT250 M10/M14 A3055 RMK SC1CI1 SLP349=
CYYG;2005-01-12 18:00;METAR CYYG 121800Z 25005KT 15SM FEW020 BKN250 M08/M13 A3056 RMK SC2CI1 SLP352=
CYYG;2005-01-12 19:00;METAR CYYG 121900Z 27002KT 15SM FEW020 BKN250 M08/M13 A3057 RMK SC2CI2 SLP355=
CYYG;2005-01-12 20:00;METAR CYYG 122000Z 00000KT 15SM FEW020 SCT250 M08/M13 A3058 RMK SC1CI1 SLP358=
CYYG;2005-01-12 21:00;METAR CYYG 122100Z 24002KT 15SM FEW020 FEW100 SCT250 M10/M13 A3058 RMK SC1AC2CI0 SLP360=
CYYG;2005-01-12 22:00;METAR CYYG 122200Z 23003KT 15SM FEW020 FEW100 M10/M13 A3057 RMK SC1AC2 SLP357=
CYYG;2005-01-13 00:00;METAR CYYG 130000Z 06004KT 15SM FEW020 SCT100 M16/M17 A3056 RMK SC2AC2 SLP354=
CYYG;2005-01-13 01:00;METAR CYYG 130100Z 15002KT 15SM FEW020 SCT100 M13/M14 A3056 RMK SC2AC2 SLP353=
CYYG;2005-01-13 02:00;METAR CYYG 130200Z 09003KT 15SM SCT090 BKN210 M10/M12 A3055 RMK AC3CI2 SLP349=
CYYG;2005-01-13 03:00;METAR CYYG 130300Z 11004KT 15SM BKN091 OVC210 M10/M12 A3056 RMK AC6CI2 SLP352=
CYYG;2005-01-13 04:00;METAR CYYG 130400Z 11006KT 15SM FEW070 OVC090 M09/M12 A3053 RMK AC2AC6 SLP342=
CYYG;2005-01-13 05:00;METAR CYYG 130500Z 12006KT 15SM FEW060 OVC087 M08/M10 A3050 RMK SC2AC6 SLP334=
CYYG;2005-01-13 06:00;METAR CYYG 130600Z 11004KT 15SM OVC057 M07/M10 A3050 RMK SC8 SLP332=
CYYG;2005-01-13 08:00;METAR CYYG 130800Z 13006KT 3SM -SN OVC008 M06/M08 A3047 RMK SF8 SLP323=
CYYG;2005-01-13 09:00;METAR CYYG 130900Z 13006KT 6SM -SN BKN030 OVC078 M06/M08 A3043 RMK SC6AC2 SLP307=
CYYG;2005-01-13 10:00;METAR CYYG 131000Z 11007KT 10SM -SHSN OVC030 M05/M07 A3042 RMK SC8 SLP304=
CYYG;2005-01-13 10:44;SPECI CYYG 131044Z 13011KT 15SM -FZDZ OVC032 RMK SC8=
CYYG;2005-01-13 11:00;METAR CYYG 131100Z 12011KT 5SM -FZDZ BR OVC027 M04/M06 A3039 RMK SC8 SLP294=
CYYG;2005-01-13 11:17;SPECI CYYG 131117Z 12011KT 10SM -FZDZ BKN007 OVC024 RMK SF5SC3=
CYYG;2005-01-13 12:00;METAR CYYG 131200Z 13012G17KT 5SM -FZDZ BR BKN006 OVC031 M04/M05 A3036 RMK SF5SC3 SLP286=
CYYG;2005-01-13 12:21;SPECI CYYG 131221Z 13010G15KT 2SM -FZDZ BR BKN007 OVC031 RMK SF6SC2=
CYYG;2005-01-13 12:45;SPECI CYYG 131245Z 13010KT 10SM -FZDZ FEW004 BKN007 OVC020 RMK SF2SF5SC2=
CYYG;2005-01-13 13:00;METAR CYYG 131300Z 14010KT 15SM -FZDZ FEW004 BKN007 OVC019 M03/M04 A3035 RMK SF2SF5SC2 SLP281=
CYYG;2005-01-13 13:07;SPECI CYYG 131307Z 13011KT 15SM SCT005 OVC018 REFZDZ RMK SF4SC4=
CYYG;2005-01-13 15:00;METAR CYYG 131500Z 16011KT 15SM FEW008 OVC012 M02/M04 A3032 RMK SF1SC7 SLP272=
CYYG;2005-01-13 16:00;METAR CYYG 131600Z 16014KT 15SM OVC010 M01/M03 A3027 RMK SC8 SLP253=
CYYG;2005-01-13 17:00;METAR CYYG 131700Z 17015KT 15SM OVC012 00/M02 A3021 RMK SC8 SLP235=
CYYG;2005-01-13 18:00;METAR CYYG 131800Z 18014KT 15SM OVC011 01/M01 A3018 RMK SC8 SLP223=
CYYG;2005-01-13 19:00;METAR CYYG 131900Z 18015KT 15SM OVC012 02/M00 A3018 RMK SC8 SLP223=
CYYG;2005-01-13 20:00;METAR CYYG 132000Z 18015KT 15SM OVC010 01/M00 A3018 RMK SC8 SLP224=
CYYG;2005-01-13 20:55;SPECI CYYG 132055Z 19013KT 15SM OVC009 RMK SC8=
CYYG;2005-01-13 21:00;METAR CYYG 132100Z 19012KT 15SM OVC009 01/00 A3016 RMK SC8 SLP217=
CYYG;2005-01-13 22:00;METAR CYYG 132200Z 18013KT 15SM BKN009 OVC013 02/01 A3014 RMK SC6SC2 SLP209=
CYYG;2005-01-13 23:00;METAR CYYG 132300Z 20012G17KT 15SM OVC011 02/01 A3015 RMK SC8 SLP213=
CYYG;2005-01-14 00:00;METAR CYYG 140000Z 17013KT 15SM OVC010 02/01 A3011 RMK SC8 SLP197=
CYYG;2005-01-14 01:00;METAR CYYG 140100Z 17014KT 15SM OVC007 03/01 A3009 RMK SF8 SLP191=
CYYG;2005-01-14 01:45;SPECI CYYG 140145Z 17012KT 12SM OVC004 RMK SF8=
CYYG;2005-01-14 02:00;METAR CYYG 140200Z 17012KT 10SM OVC003 02/02 A3007 RMK SF8 SLP184=
CYYG;2005-01-14 03:00;METAR CYYG 140300Z 17009KT 6SM BR BKN002 OVC012 03/02 A3006 RMK SF6SC2 SLP180=
CYYG;2005-01-14 03:10;SPECI CYYG 140310Z 16011KT 2SM BR OVC002 RMK SF8=
CYYG;2005-01-14 04:00;METAR CYYG 140400Z 18012KT 4SM BR OVC005 04/03 A3003 RMK SF8 SLP172=
CYYG;2005-01-14 04:32;SPECI CYYG 140432Z 19010G15KT 1SM BR VV001 RMK FG8 VSBY VRBL 1/2-11/2=
CYYG;2005-01-14 05:00;METAR CYYG 140500Z 17009KT 1/2SM FG VV001 03/03 A3001 RMK FG8 RVR RWY03 1600FT SLP165=
CYYG;2005-01-14 06:00;METAR CYYG 140600Z 19018KT 1/2SM FG VV001 04/04 A3000 RMK FG8 RVR RWY03 1200FT SLP162=
CYYG;2005-01-14 07:00;METAR CYYG 140700Z 19018KT 1/4SM FG VV001 04/04 A3001 RMK FG8 RVR RWY03 1200FT SLP165=
CYYG;2005-01-14 08:00;METAR CYYG 140800Z 18017KT 1/4SM FG VV001 05/05 A2997 RMK FG8 RVR RWY03 1200FT SLP150=
CYYG;2005-01-14 09:00;METAR CYYG 140900Z 18016KT 1/4SM FG VV001 06/06 A2995 RMK FG8 RVR RWY03 1000FT SLP143=
CYYG;2005-01-14 11:00;METAR CYYG 141100Z 18012G17KT 1/8SM FG VV001 06/06 A2993 RMK FG8 RVR RWY03 1400 FT SLP136=
CYYG;2005-01-14 11:43;SPECI CYYG 141143Z 19016KT 1/2SM FG OVC002 RMK FG3SF5 RVR RWY03 2600 FT=
CYYG;2005-01-14 12:00;METAR CYYG 141200Z 18015KT 1SM BR OVC003 08/08 A2991 RMK FG3SF5 RVR RWY03 4500 FT SLP130=
CYYG;2005-01-14 13:00;METAR CYYG 141300Z 19015G21KT 2SM BR OVC003 08/08 A2991 RMK SF8 VIS W-N 1/2 SLP129=
CYYG;2005-01-14 13:46;SPECI CYYG 141346Z 18017G25KT 2SM BR BKN002 OVC012 RMK SF6SC2=
CYYG;2005-01-14 14:00;METAR CYYG 141400Z 18016KT 1 1/2SM BR FEW002 BKN004 OVC012 08/08 A2987 RMK SF2SF4SC2 VIS N-E 1/2 SLP117=
CYYG;2005-01-14 14:13;SPECI CYYG 141413Z 18017KT 1/2SM FG BKN004 OVC011 RMK FG2SF3SC3 VIS W 1=
CYYG;2005-01-14 14:32;SPECI CYYG 141432Z 18016KT 2SM BR OVC003 RMK SF8 VIS SW-NW 1/2=
CYYG;2005-01-14 14:41;SPECI CYYG 141441Z 18016KT 6SM BR BKN003 OVC014 RMK SF5SC3 VIS LWR W=
CYYG;2005-01-14 15:00;METAR CYYG 141500Z 18019G26KT 10SM SCT003 BKN015 BKN300 09/09 A2983 RMK SF3SC2CI1 SLP103=
CYYG;2005-01-14 15:36;SPECI CYYG 141536Z 19018G27KT 10SM BKN004 BKN013 RMK SF5SC2 VIS NE-SE 2=
CYYG;2005-01-14 16:00;METAR CYYG 141600Z 19014G21KT 10SM PRFG BKN005 OVC014 09/09 A2980 RMK SF6SC2 VIS E 1/2 SLP093=
CYYG;2005-01-14 16:09;SPECI CYYG 141609Z 19016G22KT 15SM PRFG FEW005 BKN250 RMK SF2CI1 VIS E-SE 2=
CYYG;2005-01-14 17:00;METAR CYYG 141700Z 19019G27KT 15SM FEW005 BKN016 BKN250 10/09 A2979 RMK SF1SC5CI1 VIS LWR E SLP088=
CYYG;2005-01-14 18:00;METAR CYYG 141800Z 19020KT 15SM FEW004 BKN018 BKN250 10/09 A2978 RMK SF1SC4CI1 SLP085=
CYYG;2005-01-14 19:00;METAR CYYG 141900Z 19017G22KT 15SM FEW006 SCT020 BKN050 10/08 A2975 RMK SF1SC2SC4 VIS LWR W SLP076=
CYYG;2005-01-14 19:14;SPECI CYYG 141914Z 18017G22KT 10SM -RA FEW006 FEW020 BKN038 RMK SF1SC1SC6=
CYYG;2005-01-14 19:46;SPECI CYYG 141946Z 22009G15KT 3SM -RA BR OVC014 RMK SC8=
CYYG;2005-01-14 20:00;METAR CYYG 142000Z 22014KT 2SM -RA BR OVC014 09/09 A2978 RMK SC8 SLP086=
CYYG;2005-01-14 20:08;SPECI CYYG 142008Z 21011G18KT 2SM -RA BR BKN006 OVC011 RMK SF5SC3=
CYYG;2005-01-14 20:11;SPECI CYYG 142011Z 22010G17KT 2SM -RA BR BKN003 OVC006 RMK SF6SF2=
CYYG;2005-01-14 20:37;SPECI CYYG 142037Z 23021G28KT 2SM -RA BR FEW003 BKN006 OVC026 RMK SF2SF3SC2=
CYYG;2005-01-14 21:00;METAR CYYG 142100Z 25015G30KT 2 1/2SM -RA BR FEW003 BKN007 OVC028 10/10 A2980 WS RWY21 RMK SF2SF6SC1 SLP094=
CYYG;2005-01-14 21:13;SPECI CYYG 142113Z 33016KT 2SM -RA BR FEW003 OVC008 RMK SF2SF6 WSHFT 2111=
CYYG;2005-01-14 22:00;METAR CYYG 142200Z 33012G20KT 6SM -RA BR FEW005 OVC021 04/02 A2987 RMK SF1SC7 PRESRR SLP115=
CYYG;2005-01-14 23:00;METAR CYYG 142300Z 33011G18KT 6SM -RA BR FEW005 OVC024 03/01 A2992 RMK SF2SC6 SLP132=
CYYG;2005-01-14 23:28;SPECI CYYG 142328Z 32012G18KT 6SM -RA BR FEW005 OVC014 RMK SF2SC6=
CYYG;2005-01-15 00:00;METAR CYYG 150000Z 32011KT 6SM -RA BR FEW005 OVC028 02/01 A2996 RMK SF2SC6 SLP147=
CYYG;2005-01-15 01:00;METAR CYYG 150100Z 29007KT 8SM -RA OVC030 02/01 A3000 RMK SC8 SLP161=
CYYG;2005-01-15 01:31;SPECI CYYG 150131Z 27007KT 10SM -SN OVC030 RMK SC8=
CYYG;2005-01-15 02:00;METAR CYYG 150200Z 22004KT 15SM -SN BKN038 OVC067 01/00 A3000 RMK SC6AC2 SLP161=
CYYG;2005-01-15 02:12;SPECI CYYG 150212Z 22007KT 15SM BKN049 OVC067 RMK SC6AC2=
CYYG;2005-01-15 02:36;SPECI CYYG 150236Z 22006KT 15SM FEW004 OVC048 RMK SF2SC6=
CYYG;2005-01-15 03:00;METAR CYYG 150300Z 24007KT 15SM FEW004 OVC055 01/00 A3004 RMK SF2SC6 SLP174=
CYYG;2005-01-15 04:00;METAR CYYG 150400Z 25006KT 15SM FEW004 OVC058 01/00 A3006 RMK SF2SC6 SLP183=
CYYG;2005-01-15 04:15;SPECI CYYG 150415Z 26008KT 15SM BKN065 OVC110 RMK SC5AC3=
CYYG;2005-01-15 06:00;METAR CYYG 150600Z 29012KT 15SM FEW065 BKN140 02/M00 A3012 RMK SC2AC5 SLP203=
CYYG;2005-01-15 06:06;SPECI CYYG 150606Z 34013G22KT 3SM -SHSN FEW005 OVC014 RMK SF2SC6=
CYYG;2005-01-15 06:21;SPECI CYYG 150621Z 33013G19KT 15SM SCT014 OVC032 RMK SC4SC4=
CYYG;2005-01-15 07:00;METAR CYYG 150700Z 33014G19KT 15SM OVC025 M01/M05 A3022 RMK SC8 PRESRR SLP236=
CYYG;2005-01-15 08:00;METAR CYYG 150800Z 33012G18KT 15SM OVC025 M02/M07 A3027 RMK SC8 SLP252=
CYYG;2005-01-15 09:00;METAR CYYG 150900Z 34014KT 15SM OVC028 M04/M08 A3031 RMK SC8 SLP267=
CYYG;2005-01-15 10:00;METAR CYYG 151000Z 33014G19KT 15SM SCT028 OVC180 M05/M10 A3038 RMK SC4AC4 PRESRR SLP289=
CYYG;2005-01-15 11:00;METAR CYYG 151100Z 32018KT 15SM FEW022 OVC200 M06/M11 A3043 RMK SC1CS7 SLP307=
CYYG;2005-01-15 12:00;METAR CYYG 151200Z 31016G25KT 15SM FEW022 OVC210 M07/M12 A3049 RMK SC1CS7 SLP326=
CYYG;2005-01-15 13:00;METAR CYYG 151300Z 31015G22KT 15SM FEW022 OVC210 M08/M15 A3052 RMK SC1CS7 SLP339=
CYYG;2005-01-15 14:00;METAR CYYG 151400Z 31014G19KT 15SM FEW022 OVC210 M09/M14 A3058 RMK SC1CS7 PRESRR SLP356=
CYYG;2005-01-15 15:00;METAR CYYG 151500Z 31013G18KT 15SM FEW022 OVC220 M09/M15 A3060 RMK SC1CS8 SLP364=
CYYG;2005-01-15 16:00;METAR CYYG 151600Z 32011G16KT 15SM FEW022 BKN220 M09/M16 A3060 RMK SC1CS7 SLP365=
CYYG;2005-01-15 17:00;METAR CYYG 151700Z 32010KT 15SM FEW022 BKN250 M09/M15 A3060 RMK SC1CS6=
CYYG;2005-01-15 18:00;METAR CYYG 151800Z 32009KT 15SM FEW022 FEW170 BKN270 M09/M16 A3060 RMK SC1AC1CS2 HALO SLP366=
CYYG;2005-01-15 19:00;METAR CYYG 151900Z 32007KT 15SM FEW022 SCT270 M08/M16 A3061 RMK SC1CI2 SLP369=
CYYG;2005-01-15 20:00;METAR CYYG 152000Z 31005KT 15SM FEW022 BKN270 M08/M15 A3064 RMK SC1CI2 SLP379=
CYYG;2005-01-15 21:00;METAR CYYG 152100Z 31006KT 15SM FEW025 BKN270 M10/M16 A3066 RMK SC1CI2 SLP386=
CYYG;2005-01-15 22:00;METAR CYYG 152200Z 34003KT 15SM FEW025 BKN270 M10/M16 A3066 RMK SC1CI2 SLP387=
CYYG;2005-01-15 23:00;METAR CYYG 152300Z 34002KT 15SM FEW025 SCT270 M10/M16 A3069 RMK SC1CI1 SLP395=
CYYG;2005-01-16 00:00;METAR CYYG 160000Z 32002KT 15SM SCT250 M10/M15 A3071 RMK CI2 SLP403=
CYYG;2005-01-16 01:00;METAR CYYG 160100Z 00000KT 15SM BKN250 M10/M15 A3073 RMK CI2 SLP409=
CYYG;2005-01-16 02:00;METAR CYYG 160200Z 00000KT 15SM BKN250 M10/M15 A3073 RMK CI2 SLP411=
CYYG;2005-01-16 03:00;METAR CYYG 160300Z 23002KT 15SM BKN250 M11/M15 A3073 RMK CI2 SLP411=
CYYG;2005-01-16 04:00;METAR CYYG 160400Z 21003KT 15SM FEW250 M10/M15 A3073 RMK CI1 SLP411=
CYYG;2005-01-16 05:00;METAR CYYG 160500Z 25002KT 15SM FEW250 M10/M16 A3073 RMK CI1 SLP411=
CYYG;2005-01-16 06:00;METAR CYYG 160600Z 22002KT 15SM FEW250 M11/M15 A3074 RMK CI1 SLP413=
CYYG;2005-01-16 07:00;METAR CYYG 160700Z 23003KT 15SM FEW250 M11/M15 A3074 RMK CI1 SLP414=
CYYG;2005-01-16 08:00;METAR CYYG 160800Z 20004KT 15SM FEW250 M11/M15 A3072 RMK CI1 SLP408=
CYYG;2005-01-16 09:00;METAR CYYG 160900Z 22005KT 15SM FEW250 M10/M15 A3072 RMK CI1 SLP407=
CYYG;2005-01-16 10:00;METAR CYYG 161000Z 20008KT 15SM FEW250 M10/M15 A3073 RMK CI1 SLP409=
CYYG;2005-01-16 11:00;METAR CYYG 161100Z 21006KT 15SM BKN300 M10/M15 A3074 RMK CI2 FROIN SLP413=
CYYG;2005-01-16 12:00;METAR CYYG 161200Z 18005KT 15SM OVC300 M10/M15 A3074 RMK CI2 SLP414=
CYYG;2005-01-16 13:00;METAR CYYG 161300Z 22004KT 15SM FEW170 OVC300 M08/M13 A3075 RMK AC1CS3 SLP417=
CYYG;2005-01-16 14:00;METAR CYYG 161400Z 21005KT 15SM FEW025 FEW170 OVC300 M07/M13 A3074 RMK SC1AC2CS5 HALO CONTRAILS SLP412=
CYYG;2005-01-16 15:00;METAR CYYG 161500Z 20007KT 15SM FEW025 FEW170 BKN300 M06/M15 A3074 RMK SC1AC1CS2 HALO CONTRAILS SLP413=
CYYG;2005-01-16 16:00;METAR CYYG 161600Z 21006KT 15SM FEW025 OVC280 M06/M15 A3071 RMK SC1CS8 SLP402=
CYYG;2005-01-16 17:00;METAR CYYG 161700Z 19008KT 15SM FEW025 OVC280 M06/M14 A3070 RMK SC1CS8 SLP401=
CYYG;2005-01-16 18:00;METAR CYYG 161800Z 19003KT 15SM FEW025 OVC280 M06/M13 A3064 RMK SC1CS8 PRESFR SLP381=
CYYG;2005-01-16 19:00;METAR CYYG 161900Z 20004KT 15SM FEW025 FEW150 OVC280 M06/M13 A3064 RMK SC1AC1CS7 SLP380=
CYYG;2005-01-16 20:00;METAR CYYG 162000Z 16004KT 15SM FEW025 FEW140 OVC220 M06/M13 A3065 RMK SC1AC2CS6 SLP383=
CYYG;2005-01-16 21:00;METAR CYYG 162100Z 15003KT 15SM FEW025 BKN150 OVC200 M06/M13 A3063 RMK SC1AS6CS2 SLP375=
CYYG;2005-01-16 22:00;METAR CYYG 162200Z 00000KT 15SM OVC150 M06/M13 A3062 RMK AS8 SLP373=
CYYG;2005-01-16 23:00;METAR CYYG 162300Z 05002KT 15SM OVC140 M07/M12 A3062 RMK AS8 SLP372=
CYYG;2005-01-17 00:00;METAR CYYG 170000Z 04004KT 15SM OVC100 M07/M12 A3058 RMK AS8 SLP360=
CYYG;2005-01-17 01:00;METAR CYYG 170100Z 06005KT 15SM OVC090 M06/M12 A3057 RMK AC8 SLP354=
CYYG;2005-01-17 02:00;METAR CYYG 170200Z 05006KT 15SM OVC090 M06/M12 A3055 RMK AC8 SLP347=
CYYG;2005-01-17 03:00;METAR CYYG 170300Z 07010KT 15SM FEW032 OVC090 M06/M12 A3048 RMK SC2AC6 PRESFR SLP324=
CYYG;2005-01-17 04:00;METAR CYYG 170400Z 07007KT 15SM BKN035 OVC080 M06/M11 A3044 RMK SC5AC3 SLP310=
CYYG;2005-01-17 05:00;METAR CYYG 170500Z 07009KT 15SM BKN032 OVC080 M06/M10 A3039 RMK SC6AC2 SLP295=
CYYG;2005-01-17 05:41;SPECI CYYG 170541Z 05013KT 2SM -SN OVC032 RMK SN3SC5=
CYYG;2005-01-17 06:00;METAR CYYG 170600Z 04015KT 2SM -SN OVC032 M06/M08 A3030 RMK SN3SC5 PRESFR SLP263=
CYYG;2005-01-17 07:00;METAR CYYG 170700Z 05017G22KT 1SM -SN DRSN VV003 M06/M07 A3022 RMK SN8 SLP237=
CYYG;2005-01-17 07:07;SPECI CYYG 170707Z 05017G25KT 5/8SM -SN DRSN VV003 RMK SN8 RVR RWY03 2600 FT=
CYYG;2005-01-17 08:00;METAR CYYG 170800Z 05017G24KT 5/8SM -SN DRSN VV003 M06/M07 A3017 RMK SN8 RVR RWY03 2800 FT /S02/ SLP222=
CYYG;2005-01-17 09:00;METAR CYYG 170900Z 05020G29KT 1/2SM SN DRSN VV003 M05/M07 A3010 RMK SN8 PRESFR RVR RWY03 3000 FT /S04/ SLP197=
CYYG;2005-01-17 10:00;METAR CYYG 171000Z 04023G28KT 1/2SM SN DRSN VV003 M05/M06 A3002 RMK SN8 RVR RWY03 3000 FT PRESFR /S07/ SLP170=
CYYG;2005-01-17 10:12;SPECI CYYG 171012Z 05025G34KT 3/4SM -SN BLSN VV002 RESN RMK SN8 RVR RWY03 4000 FT=
CYYG;2005-01-17 11:00;METAR CYYG 171100Z 05023G34KT 5/8SM -SN BLSN VV002 M05/M06 A2995 RESN RMK SN8 RVR RWY03 3500 FT PRESFR /S09/ SLP146=
CYYG;2005-01-17 11:54;SPECI CYYG 171154Z 05031G42KT 1/2SM SN BLSN VV001 RMK BLSN8 RVR RWY03 2600 FT=
CYYG;2005-01-17 12:00;METAR CYYG 171200Z 05032G42KT 1/2SM SN BLSN VV001 M05/M06 A2984 RMK BLSN8 RVR RWY03 2600 FT PRESFR /S13/ SLP109=
CYYG;2005-01-17 13:00;METAR CYYG 171300Z 04034G41KT 1/8SM SN +BLSN VV001 M05/M06 A2980 RMK BLSN8 /S04/ RVR RWY03 3000 FT SLP094=
CYYG;2005-01-17 14:00;METAR CYYG 171400Z 04031G40KT 1/8SM SN +BLSN VV002 M05/M06 A2973 RMK BLSN8 /S06/ PRESFR RVR RWY03 3500 FT SLP070=
CYYG;2005-01-17 15:00;METAR CYYG 171500Z 03034G48KT 1/8SM SN +BLSN VV002 M05/M06 A2965 RMK BLSN8 SLP044=
CYYG;2005-01-17 16:00;METAR CYYG 171600Z 04036G50KT 1/8SM SN +BLSN VV002 M05/M06 A2956 RMK BLSN8 PRESFR /S11/ RVR RWY03 2600 FT SLP014=
CYYG;2005-01-17 16:25;SPECI CYYG 171625Z 04033G41KT 1/2SM -SN BLSN VV003 RESN RMK BLSN8 PRESFR RVR RWY03 4000 FT=
CYYG;2005-01-17 16:44;SPECI CYYG 171644Z 03031G40KT 1SM -SN BLSN OVC010 RESN RMK BLSN3SC5 PRESFR=
CYYG;2005-01-17 17:00;METAR CYYG 171700Z 04029G43KT 1SM -SN BLSN VV008 M05/M07 A2951 RESN RMK BLSN8 /S12/ RVR RWY03 6000 FT SLP997=
CYYG;2005-01-17 17:18;SPECI CYYG 171718Z 03030G45KT 1/2SM -SN BLSN VV005 RMK SN8 RVR RWY03 4500 FT=
CYYG;2005-01-17 18:00;METAR CYYG 171800Z 03035G40KT 1/4SM -SN +BLSN VV005 M05/M07 A2947 RMK SN8 /S13/ RVR RWY03 5000 FT SLP982=
CYYG;2005-01-17 18:43;SPECI CYYG 171843Z 01026G34KT 1/8SM SN +BLSN VV002 RMK BLSN8 RVR RWY03 2600 FT=
CYYG;2005-01-17 19:00;METAR CYYG 171900Z 02020G34KT 1 1/2SM -SN BLSN VV012 M05/M06 A2946 RESN RMK SN8 /S01/ SLP980=
CYYG;2005-01-17 19:06;SPECI CYYG 171906Z 02024G35KT 1/2SM -SN BLSN VV003 RMK BLSN8 RVR RWY03 1600 FT=
CYYG;2005-01-17 20:00;METAR CYYG 172000Z 36019G29KT 1/4SM -SN +BLSN VV002 M05/M07 A2946 RMK BLSN8 /S03/ SLP979=
CYYG;2005-01-17 21:00;METAR CYYG 172100Z 34017G36KT 3/4SM -SN BLSN OVC012 M08/M10 A2951 RESN RMK BLSN3SC5 /S05/ SLP995=
CYYG;2005-01-17 21:34;SPECI CYYG 172134Z 33024G34KT 2SM -SN BLSN OVC012 RMK SC8=
CYYG;2005-01-17 22:00;METAR CYYG 172200Z 33022G32KT 2SM -SN BLSN OVC011 M09/M11 A2956 RMK SC8 SLP012=
CYYG;2005-01-17 23:00;METAR CYYG 172300Z 33019G33KT 2SM -SN BLSN BKN011 OVC025 M10/M12 A2960 RMK SC6SC2 /S06/ SLP025=
CYYG;2005-01-17 23:53;SPECI CYYG 172353Z 32017G30KT 1 1/2SM -SN BLSN OVC011 RMK SN2SC6=
CYYG;2005-01-18 00:00;METAR CYYG 180000Z 32020G30KT 1/2SM SN BLSN VV007 M10/M12 A2963 RMK SN8 /S08/ SLP037=
CYYG;2005-01-18 01:00;METAR CYYG 180100Z 32019G26KT 2SM -SN BLSN BKN013 OVC030 M11/M13 A2966 RESN RMK SN2SC5SC2 /S01/ SLP047=
CYYG;2005-01-18 01:49;SPECI CYYG 180149Z 30014G19KT 4SM -SN DRSN BKN013 OVC034 RMK SN2SC5SC2=
CYYG;2005-01-18 02:00;METAR CYYG 180200Z 29017KT 3SM -SN DRSN FEW008 BKN015 OVC034 M12/M14 A2970 RMK SF2SC5SC2 SLP061=
CYYG;2005-01-18 03:00;METAR CYYG 180300Z 29013G19KT 3SM -SN DRSN BKN011 OVC034 M12/M14 A2972 RMK SC6SC2 /S02/ SLP069=
CYYG;2005-01-18 04:00;METAR CYYG 180400Z 28013G18KT 10SM -SN DRSN FEW015 BKN032 OVC120 M12/M15 A2974 RMK SC2SC5AC2 SLP076=
CYYG;2005-01-18 05:00;METAR CYYG 180500Z 28011G19KT 12SM -SN DRSN BKN030 OVC120 M13/M15 A2976 RMK SC6AC2 SLP080=
CYYG;2005-01-18 06:00;METAR CYYG 180600Z 27010KT 12SM -SN BKN030 OVC120 M14/M16 A2979 RMK SC5AC3 SLP091=
CYYG;2005-01-18 07:00;METAR CYYG 180700Z 27009KT 12SM -SN BKN030 OVC120 M14/M16 A2980 RMK SC6AC2 SLP096=
CYYG;2005-01-18 08:00;METAR CYYG 180800Z 29010G15KT 15SM -SN BKN030 OVC090 M13/M16 A2982 RMK SC6AC2 SLP101=
CYYG;2005-01-18 09:00;METAR CYYG 180900Z 28008KT 12SM -SN BKN030 OVC070 M14/M16 A2983 RMK SC6AC2 SLP104=
CYYG;2005-01-18 10:00;METAR CYYG 181000Z 29009KT 12SM -SN BKN030 OVC070 M14/M17 A2985 RMK SC5AC3 SLP113=
CYYG;2005-01-18 11:00;METAR CYYG 181100Z 25004KT 12SM -SN SCT030 OVC068 M15/M17 A2988 RMK SC4AC4 SLP123=
CYYG;2005-01-18 12:00;METAR CYYG 181200Z 27006KT 12SM -SHSN FEW030 FEW060 SCT120 M16/M18 A2992 RMK SC2SC1AC2 SLP137=
CYYG;2005-01-18 13:00;METAR CYYG 181300Z 28009KT 12SM -SHSN FEW020 SCT070 BKN240 M15/M18 A2996 RMK SC2AC2CI2 SLP148=
CYYG;2005-01-18 14:00;METAR CYYG 181400Z 29009G15KT 10SM -SHSN DRSN FEW070 BKN240 M15/M18 A2998 RMK AC2CI2 SLP157=
CYYG;2005-01-18 15:00;METAR CYYG 181500Z 29009G15KT 10SM -SHSN DRSN FEW030 BKN240 M15/M19 A3001 RMK SC2CI3 SLP165=
CYYG;2005-01-18 16:00;METAR CYYG 181600Z 29009G15KT 12SM -SHSN DRSN FEW030 BKN240 M15/M19 A3002 RMK SC2CI2 SLP171=
CYYG;2005-01-18 16:13;SPECI CYYG 181613Z 29010KT 15SM FEW030 BKN240 RMK SC2CI2=
CYYG;2005-01-18 17:00;METAR CYYG 181700Z 30011KT 12SM DRSN VCSH FEW023 BKN240 M15/M19 A3002 RMK SC2CI2 SLP170=
CYYG;2005-01-18 18:00;METAR CYYG 181800Z 29010KT 15SM DRSN VCSH FEW025 BKN240 M15/M19 A3005 RMK SC2CI1 SLP179=
CYYG;2005-01-18 19:00;METAR CYYG 181900Z 29009KT 15SM VCSH FEW025 SCT240 M15/M19 A3007 RMK SC2CI1 SLP188=
CYYG;2005-01-18 20:00;METAR CYYG 182000Z 29010KT 15SM FEW025 SCT240 M15/M20 A3010 RMK SC2CI1 SLP197=
CYYG;2005-01-18 21:00;METAR CYYG 182100Z 28008KT 15SM FEW025 FEW240 M16/M20 A3013 RMK SC1CI1 SLP208=
CYYG;2005-01-18 22:00;METAR CYYG 182200Z 29009KT 15SM FEW034 SCT240 M16/M19 A3015 RMK SC2CI1 SLP215=
CYYG;2005-01-18 23:00;METAR CYYG 182300Z 28009KT 15SM -SHSN BKN030 M16/M20 A3017 RMK SC6 SLP220=
CYYG;2005-01-19 00:00;METAR CYYG 190000Z 29012KT 15SM -SHSN BKN034 M15/M19 A3020 RMK SC6 SLP230=
CYYG;2005-01-19 01:00;METAR CYYG 190100Z 28010G15KT 15SM -SHSN SCT034 M15/M19 A3022 RMK SC3 SLP239=
CYYG;2005-01-19 01:51;SPECI CYYG 190151Z 29011KT 15SM FEW034 RMK SC2=
CYYG;2005-01-19 02:00;METAR CYYG 190200Z 29011KT 15SM FEW034 M16/M19 A3024 RMK SC2 SLP244=
CYYG;2005-01-19 03:00;METAR CYYG 190300Z 29010KT 15SM SKC M17/M20 A3025 RMK SLP250=
CYYG;2005-01-19 04:00;METAR CYYG 190400Z 29012KT 15SM SKC M17/M20 A3026 RMK SLP251=
CYYG;2005-01-19 05:00;METAR CYYG 190500Z 29011KT 15SM SKC M17/M19 A3026 RMK SLP252=
CYYG;2005-01-19 05:51;SPECI CYYG 190551Z 30010KT 15SM -SHSN FEW030 RMK SC2=
CYYG;2005-01-19 06:00;METAR CYYG 190600Z 30009KT 15SM -SHSN FEW030 M17/M19 A3026 RMK SC2 SLP252=
CYYG;2005-01-19 07:00;METAR CYYG 190700Z 30010G15KT 15SM -SHSN BKN032 M16/M18 A3029 RMK SC6 SLP261=
CYYG;2005-01-19 08:00;METAR CYYG 190800Z 29010KT 15SM -SHSN BKN035 M15/M18 A3030 RMK SC6 SLP264=
CYYG;2005-01-19 09:00;METAR CYYG 190900Z 30011G16KT 15SM -SHSN BKN031 M15/M17 A3030 RMK SC7 SLP266=
CYYG;2005-01-19 10:00;METAR CYYG 191000Z 31011KT 15SM -SHSN BKN028 M15/M17 A3031 RMK SC7 SLP270=
CYYG;2005-01-19 11:00;METAR CYYG 191100Z 30008KT 15SM -SHSN OVC025 M15/M18 A3033 RMK SC8 SLP277=
CYYG;2005-01-19 12:00;METAR CYYG 191200Z 31009KT 15SM BKN023 M16/M18 A3036 RMK SC6 SLP285=
CYYG;2005-01-19 13:00;METAR CYYG 191300Z 29008KT 15SM SCT025 M17/M19 A3038 RMK SC4 SLP292=
CYYG;2005-01-19 14:00;METAR CYYG 191400Z 29009KT 15SM FEW022 M16/M19 A3039 RMK SC1 SLP295=
CYYG;2005-01-19 15:00;METAR CYYG 191500Z 29006KT 15SM FEW022 M15/M18 A3038 RMK SC1 SLP291=
CYYG;2005-01-19 16:00;METAR CYYG 191600Z 29003KT 15SM FEW022 M14/M18 A3036 RMK SC1 SLP284=
CYYG;2005-01-19 17:00;METAR CYYG 191700Z 24002KT 15SM FEW022 M13/M18 A3033 RMK SC1 SLP277=
CYYG;2005-01-19 18:00;METAR CYYG 191800Z 23004KT 15SM FEW020 M12/M17 A3031 RMK SC1 SLP268=
CYYG;2005-01-19 19:00;METAR CYYG 191900Z 16003KT 15SM FEW020 FEW240 M13/M17 A3029 RMK SC1CI0 SLP262=
CYYG;2005-01-19 20:00;METAR CYYG 192000Z 17004KT 15SM FEW020 FEW240 M13/M17 A3029 RMK SC1CI0 SLP261=
CYYG;2005-01-19 21:00;METAR CYYG 192100Z 22003KT 15SM FEW120 FEW240 M14/M17 A3028 RMK AC1CI0 SLP258=
CYYG;2005-01-19 22:00;METAR CYYG 192200Z 18003KT 15SM FEW040 FEW120 FEW240 M15/M17 A3027 RMK SC1AC1CI0 SLP255=
CYYG;2005-01-19 23:00;METAR CYYG 192300Z 14004KT 15SM FEW040 FEW120 FEW240 M16/M17 A3026 RMK SC1AC1CI0 SLP252=
CYYG;2005-01-20 00:00;METAR CYYG 200000Z 15004KT 15SM FEW040 FEW120 FEW240 M17/M18 A3026 RMK SC1AC1CI0 SLP251=
CYYG;2005-01-20 01:00;METAR CYYG 200100Z 15005KT 15SM BKN240 M16/M18 A3024 RMK CS1 SLP246=
CYYG;2005-01-20 02:00;METAR CYYG 200200Z 15004KT 15SM BKN240 M15/M16 A3022 RMK CS0 SLP237=
CYYG;2005-01-20 03:00;METAR CYYG 200300Z 15005KT 15SM OVC240 M15/M16 A3019 RMK CS2 SLP229=
CYYG;2005-01-20 04:00;METAR CYYG 200400Z 16006KT 15SM OVC240 M13/M14 A3017 RMK CS2 SLP223=
CYYG;2005-01-20 05:00;METAR CYYG 200500Z 18011KT 15SM OVC240 M10/M13 A3014 RMK CS2 SLP212=
CYYG;2005-01-20 06:00;METAR CYYG 200600Z 14006KT 15SM OVC093 M11/M13 A3012 RMK AS8 SLP204=
CYYG;2005-01-20 07:00;METAR CYYG 200700Z 15005KT 15SM OVC100 M11/M14 A3010 RMK AS5 SLP198=
CYYG;2005-01-20 08:00;METAR CYYG 200800Z 13007KT 15SM BKN026 OVC100 M11/M13 A3007 RMK SC6AS2 SLP187=
CYYG;2005-01-20 09:00;METAR CYYG 200900Z 13008KT 15SM OVC027 M10/M13 A3004 RMK SC8 SLP175=
CYYG;2005-01-20 09:49;SPECI CYYG 200949Z 13006KT 15SM -SN SCT027 OVC070 RMK SC3AS5=
CYYG;2005-01-20 10:00;METAR CYYG 201000Z 13006KT 15SM -SN SCT027 OVC070 M11/M13 A3000 RMK SC3AS5 SLP162=
CYYG;2005-01-20 11:00;METAR CYYG 201100Z 13006KT 15SM -SN SCT027 OVC090 M10/M12 A2996 RMK SC3AS5 SLP150=
CYYG;2005-01-20 11:14;SPECI CYYG 201114Z 13007KT 15SM FEW027 BKN110 RMK SC2AS5=
CYYG;2005-01-20 12:00;METAR CYYG 201200Z 13008KT 15SM FEW030 BKN120 M09/M11 A2994 RMK SC1AS6 SLP142=
CYYG;2005-01-20 13:00;METAR CYYG 201300Z 12009KT 15SM BKN120 BKN250 M08/M10 A2990 RMK AS5CS2 SLP129=
CYYG;2005-01-20 14:00;METAR CYYG 201400Z 12010KT 15SM BKN110 BKN250 M07/M09 A2986 RMK AS6CS2 SLP117=
CYYG;2005-01-20 15:00;METAR CYYG 201500Z 13010KT 15SM SCT029 OVC100 M05/M08 A2982 RMK SC3AS5 SLP100=
CYYG;2005-01-20 16:18;SPECI CYYG 201618Z 13017KT 12SM -SHSN DRSN BKN026 OVC060 RMK SC6SC2 VIS W 3=
CYYG;2005-01-20 16:41;SPECI CYYG 201641Z 11017KT 2SM -SN DRSN OVC015 RMK SC8=
CYYG;2005-01-20 17:25;SPECI CYYG 201725Z 10015G20KT 5/8SM -SN DRSN OVC013 RMK SN6SC2=
CYYG;2005-01-20 18:00;METAR CYYG 201800Z 10016G25KT 5/8SM -SN DRSN OVC012 M04/M05 A2955 RMK SN6SC2 PRESFR /S02/ RVR RWY03 5000FT SLP011=
CYYG;2005-01-20 18:28;SPECI CYYG 201828Z 09019G24KT 1 1/2SM -SN DRSN OVC012 RMK SN6SC2=
CYYG;2005-01-20 18:43;SPECI CYYG 201843Z 10024G30KT 5/8SM -SN DRSN OVC012 RMK SN6SC2 RVR RWY03 3000 FT=
CYYG;2005-01-20 18:54;SPECI CYYG 201854Z 10022G27KT 1/2SM -SN BLSN VV007 RMK BLSN8 RVR RWY03 1400 FT=
CYYG;2005-01-20 19:00;METAR CYYG 201900Z 10023G28KT 1/2SM -SN BLSN VV006 M03/M04 A2944 RMK BLSN8 PRESFR /S01/ RVR RWY03 1400 FT SLP972=
CYYG;2005-01-20 19:11;SPECI CYYG 201911Z 10024G30KT 3/8SM SN BLSN VV004 RMK BLSN8 RVR RWY03 1800 FT=
CYYG;2005-01-20 19:20;SPECI CYYG 201920Z 09022G30KT 1/4SM SN +BLSN VV003 RMK BLSN8 RVR RWY03 1400 FT=
CYYG;2005-01-20 19:26;SPECI CYYG 201926Z 10023G32KT 1/8SM +SN +BLSN VV002 RMK BLSN8 RVR RWY03 800 FT=
CYYG;2005-01-20 19:34;SPECI CYYG 201934Z 09020G28KT 1/4SM SN +BLSN VV002 RMK BLSN8 RESN RVR RWY03 1600FT=
CYYG;2005-01-20 20:00;METAR CYYG 202000Z 10021G28KT 1/4SM SN +BLSN VV002 M03/M04 A2936 RMK BLSN8 RESN /S03/ PRESFR RVR RWY03 2400FT LGTS 5 SLP945=
CYYG;2005-01-20 20:32;SPECI CYYG 202032Z 12020G31KT 1/2SM -SN BLSN VV005 RMK BLSN8 RESN RVR RWY03 2600FT=
CYYG;2005-01-20 21:46;SPECI CYYG 202146Z 13020G31KT 1/2SM -SN BLSN VV003 RMK BLSN8 RVR RWY03 2600FT=
CYYG;2005-01-20 22:00;METAR CYYG 202200Z 13022G30KT 1/2SM -SN BLSN VV002 M02/M03 A2923 RMK BLSN8 RVR RWY03 2600FT /S05/ PRESFR SLP902=
CYYG;2005-01-20 22:12;SPECI CYYG 202212Z 14017G25KT 5SM -SN BLSN BKN005 OVC020 RMK SF7SC1=
CYYG;2005-01-20 22:28;SPECI CYYG 202228Z 15016G21KT 10SM -SN DRSN FEW005 OVC010 REBLSN RMK SF2SC6=
CYYG;2005-01-20 23:17;SPECI CYYG 202317Z 16018G29KT 1SM -SN DRSN VV008 RMK SN8=
CYYG;2005-01-20 23:41;SPECI CYYG 202341Z 17019G26KT 2 1/2SM -SN DRSN FEW006 OVC017 RMK SF2SC6=
CYYG;2005-01-21 00:00;METAR CYYG 210000Z 17018G24KT 4SM -SN DRSN FEW009 OVC013 M01/M04 A2917 RMK SF2SC6 /S07/ SLP880=
CYYG;2005-01-21 00:39;SPECI CYYG 210039Z 18018G24KT 2 1/2SM -SN DRSN BKN006 OVC030 RMK SF6SC2=
CYYG;2005-01-21 01:00;METAR CYYG 210100Z 19021G31KT 10SM -SN DRSN BKN006 OVC018 M01/M03 A2916 RMK SF5SC3 SLP877=
CYYG;2005-01-21 01:15;SPECI CYYG 210115Z 23029G36KT 1/4SM -SN +BLSN BKN006 OVC018 RMK BLSN4SF1SC3=
CYYG;2005-01-21 01:25;SPECI CYYG 210125Z 23017G34KT 6SM -SN DRSN FEW006 OVC017 REBLSN RMK SF2SC6=
CYYG;2005-01-21 02:00;METAR CYYG 210200Z 22020G33KT 12SM -SHSN DRSN OVC012 M04/M05 A2920 REBLSN RMK SC8 SLP889=
CYYG;2005-01-21 02:10;SPECI CYYG 210210Z 23020G30KT 3SM -SHSN BLSN OVC012 RMK SC8 VIS VRB 0-6 TWR VIS 10=
CYYG;2005-01-21 03:00;METAR CYYG 210300Z 25026G37KT 2SM -SHSN BLSN OVC013 M04/M06 A2925 RMK SC8 VIS VRB 0-4 SLP907=
CYYG;2005-01-21 04:00;METAR CYYG 210400Z 25025G32KT 3SM -SHSN BLSN OVC013 M06/M08 A2934 RMK SC8 VIS VRB 1/8-6 PRESRR SLP939=
CYYG;2005-01-21 04:49;SPECI CYYG 210449Z 26013G21KT 2SM -SN DRSN OVC017 REBLSN RMK SC8=
CYYG;2005-01-21 05:00;METAR CYYG 210500Z 26015G27KT 2SM -SN DRSN OVC017 M07/M10 A2940 REBLSN RMK SC8 /S01/ SLP957=
CYYG;2005-01-21 06:00;METAR CYYG 210600Z 26019G25KT 3SM -SN DRSN OVC022 M09/M12 A2946 RMK SC8 SLP979=
CYYG;2005-01-21 07:00;METAR CYYG 210700Z 25015G24KT 4SM -SN DRSN OVC024 M10/M13 A2951 RMK SC8 SLP997=
CYYG;2005-01-21 08:00;METAR CYYG 210800Z 26013G18KT 4SM -SN DRSN OVC025 M10/M14 A2954 RMK SC8 MOON VSB SLP005=
CYYG;2005-01-21 09:00;METAR CYYG 210900Z 25011G17KT 6SM -SN DRSN OVC026 M12/M15 A2958 RMK SC8 SLP019=
CYYG;2005-01-21 09:51;SPECI CYYG 210951Z 25013KT 12SM DRSN SCT026 RMK SC3=
CYYG;2005-01-21 10:00;METAR CYYG 211000Z 25012KT 12SM DRSN FEW026 M14/M17 A2960 RMK SC2 SLP025=
CYYG;2005-01-21 11:00;METAR CYYG 211100Z 26010KT 15SM FEW026 FEW250 M15/M17 A2962 RMK SC1CI0 SLP033=
CYYG;2005-01-21 12:00;METAR CYYG 211200Z 26011G17KT 15SM DRSN FEW026 FEW250 M15/M18 A2964 RMK SC1CI1 SLP040=
CYYG;2005-01-21 13:00;METAR CYYG 211300Z 25010G15KT 15SM DRSN FEW026 SCT250 M16/M19 A2967 RMK SC1CI1 SLP050=
CYYG;2005-01-21 14:00;METAR CYYG 211400Z 25011KT 15SM DRSN FEW013 M17/M20 A2970 RMK SC1 SLP059=
CYYG;2005-01-21 15:00;METAR CYYG 211500Z 27013KT 15SM DRSN FEW013 FEW250 M17/M20 A2971 RMK SC1CI1 SLP063=
CYYG;2005-01-21 15:04;SPECI CYYG 211504Z 27013KT 15SM DRSN FEW013 FEW250 RMK SC1CI1=
CYYG;2005-01-21 16:00;METAR CYYG 211600Z 27013KT 15SM DRSN FEW015 FEW250 M17/M23 A2970 RMK SC1CI1 SLP062=
CYYG;2005-01-21 17:00;METAR CYYG 211700Z 26009KT 15SM FEW015 FEW250 M17/M22 A2970 RMK SC1CI1 SLP062=
CYYG;2005-01-21 18:00;METAR CYYG 211800Z 29008KT 15SM DRSN FEW018 M17/M22 A2971 RMK SC2 SLP066=
CYYG;2005-01-21 19:00;METAR CYYG 211900Z 29010KT 15SM DRSN FEW018 M17/M22 A2974 RMK SC2 SLP073=
CYYG;2005-01-21 20:00;METAR CYYG 212000Z 28009KT 15SM DRSN FEW018 M17/M23 A2976 RMK SC2 SLP081=
CYYG;2005-01-21 20:39;SPECI CYYG 212039Z 28007KT 15SM FEW018 RMK SC2=
CYYG;2005-01-21 21:00;METAR CYYG 212100Z 28010KT 15SM FEW018 M18/M23 A2979 RMK SC2 SLP092=
CYYG;2005-01-21 23:00;METAR CYYG 212300Z 28006KT 15SM FEW018 M20/M24 A2984 RMK SC1 SLP109=
CYYG;2005-01-22 00:00;METAR CYYG 220000Z 27007KT 15SM FEW050 M20/M24 A2985 RMK SC1 SLP112=
CYYG;2005-01-22 01:00;METAR CYYG 220100Z 26007KT 15SM SCT040 M20/M24 A2986 RMK SC3 SLP115=
CYYG;2005-01-22 01:35;SPECI CYYG 220135Z 27007KT 5SM -SHSN BKN040 RMK SC7=
CYYG;2005-01-22 02:00;METAR CYYG 220200Z 27007KT 5SM -SHSN BKN023 BKN040 M19/M23 A2987 RMK SC5SC2 PCPN VRY FINE SLP120=
CYYG;2005-01-22 02:54;SPECI CYYG 220254Z 29010KT 2 1/2SM -SHSN FEW023 OVC045 RMK SC2SC6=
CYYG;2005-01-22 03:00;METAR CYYG 220300Z 28011KT 2 1/2SM -SHSN DRSN FEW023 OVC045 M18/M23 A2988 RMK SC2SC6 SLP122=
CYYG;2005-01-22 04:00;METAR CYYG 220400Z 29011KT 4SM -SHSN DRSN OVC048 M18/M23 A2988 RMK SC8 SLP123=
CYYG;2005-01-22 05:00;METAR CYYG 220500Z 29011KT 4SM -SHSN DRSN FEW010 SCT031 M18/M22 A2988 RMK SC2SC2 SLP123=
CYYG;2005-01-22 05:33;SPECI CYYG 220533Z 31014G19KT 2 1/2SM -SHSN DRSN OVC015 RMK SC8=
CYYG;2005-01-22 06:00;METAR CYYG 220600Z 31013KT 4SM -SHSN DRSN OVC014 M17/M21 A2990 RMK SC8 SLP130=
CYYG;2005-01-22 08:00;METAR CYYG 220800Z 31014KT 8SM -SHSN DRSN SCT018 M17/M21 A2996 RMK SC3 SLP151=
CYYG;2005-01-22 09:00;METAR CYYG 220900Z 30011G16KT 10SM -SHSN DRSN BKN017 M18/M21 A2999 RMK SC6 SLP161=
CYYG;2005-01-22 10:00;METAR CYYG 221000Z 29013KT 10SM -SHSN DRSN OVC018 M18/M21 A3002 RMK SC8 SLP171=
CYYG;2005-01-22 11:00;METAR CYYG 221100Z 29011KT 10SM -SHSN DRSN OVC020 M18/M22 A3004 RMK SC8 SLP177=
CYYG;2005-01-22 12:00;METAR CYYG 221200Z 30011KT 8SM -SHSN DRSN BKN020 M18/M22 A3006 RMK SC7 SLP184=
CYYG;2005-01-22 13:00;METAR CYYG 221300Z 30010G17KT 15SM -SHSN DRSN BKN019 M18/M22 A3006 RMK SC7 SLP186=
CYYG;2005-01-22 14:00;METAR CYYG 221400Z 31010G16KT 15SM -SHSN DRSN BKN019 M18/M22 A3007 RMK SC7 VIS LWR N SLP189=
CYYG;2005-01-22 15:00;METAR CYYG 221500Z 31013G18KT 10SM -SHSN DRSN BKN019 M16/M21 A3010 RMK SC6 VIS LWR N-NE SLP197=
CYYG;2005-01-22 16:00;METAR CYYG 221600Z 32009G16KT 6SM -SHSN DRSN BKN018 M16/M21 A3009 RMK SC6 VIS LWR N-NE SLP196=
CYYG;2005-01-22 17:00;METAR CYYG 221700Z 32015KT 6SM -SHSN DRSN BKN018 M16/M20 A3010 RMK SC7 VIS NW-NE LWR SLP198=
CYYG;2005-01-22 18:00;METAR CYYG 221800Z 32011G16KT 15SM -SHSN DRSN BKN024 M16/M21 A3012 RMK SC7 SLP203=
CYYG;2005-01-22 19:00;METAR CYYG 221900Z 31013G18KT 15SM -SHSN DRSN BKN023 M16/M21 A3014 RMK SC7 VIS LWR N-NE SLP210=
CYYG;2005-01-22 20:00;METAR CYYG 222000Z 32009KT 15SM -SHSN DRSN BKN023 M16/M21 A3013 RMK SC7 VIS LWR N-NE SLP209=
CYYG;2005-01-22 21:00;METAR CYYG 222100Z 31010G15KT 15SM -SHSN DRSN BKN024 M17/M22 A3016 RMK SC6 VIS LWR N-NE SLP217=
CYYG;2005-01-22 21:15;SPECI CYYG 222115Z 31009KT 15SM VCSH BKN025 RMK SC5 VIS LWR NE=
CYYG;2005-01-22 22:07;SPECI CYYG 222207Z 29008KT 15SM -SHSN SCT022 RMK SC3=
CYYG;2005-01-22 23:00;METAR CYYG 222300Z 27007KT 15SM SCT024 M19/M23 A3017 RMK SC3 SLP221=
CYYG;2005-01-23 00:00;METAR CYYG 230000Z 29008KT 15SM BKN024 M19/M23 A3020 RMK SC6 SLP233=
CYYG;2005-01-23 01:00;METAR CYYG 230100Z 30005KT 15SM -SHSN SCT024 M19/M23 A3019 RMK SC4 SLP228=
CYYG;2005-01-23 02:00;METAR CYYG 230200Z 28006KT 15SM -SHSN SCT024 M19/M24 A3019 RMK SC3 SLP228=
CYYG;2005-01-23 03:00;METAR CYYG 230300Z 26004KT 15SM -SHSN FEW024 BKN120 M18/M23 A3017 RMK SC2AC2 SLP223=
CYYG;2005-01-23 04:00;METAR CYYG 230400Z 28008KT 15SM BKN120 M19/M23 A3016 RMK AC2 SLP218=
CYYG;2005-01-23 05:00;METAR CYYG 230500Z 29007KT 15SM BKN100 M18/M22 A3015 RMK AS6 SLP214=
CYYG;2005-01-23 06:00;METAR CYYG 230600Z 31006KT 15SM BKN100 OVC160 M19/M23 A3012 RMK AS6AC1 SLP204=
CYYG;2005-01-23 07:00;METAR CYYG 230700Z 31005KT 8SM -SHSN SCT027 OVC100 M18/M22 A3012 RMK SC3AS5 SLP205=
CYYG;2005-01-23 08:00;METAR CYYG 230800Z 32004KT 8SM -SHSN OVC028 M18/M21 A3011 RMK SC8 SLP200=
CYYG;2005-01-23 08:22;SPECI CYYG 230822Z 30005KT 4SM -SN FEW009 OVC028 RMK SF2SC6=
CYYG;2005-01-23 09:00;METAR CYYG 230900Z 27005KT 10SM -SHSN OVC028 M17/M20 A3011 RMK SC8 SLP201=
CYYG;2005-01-23 10:00;METAR CYYG 231000Z 31002KT 8SM -SHSN OVC030 M15/M18 A3010 RMK SC8 SLP199=
CYYG;2005-01-23 11:00;METAR CYYG 231100Z 35002KT 15SM -SN OVC029 M14/M17 A3010 RMK SC8 SLP198=
CYYG;2005-01-23 12:00;METAR CYYG 231200Z 01002KT 10SM -SN OVC034 M13/M17 A3008 RMK SC8 SLP190=
CYYG;2005-01-23 13:00;METAR CYYG 231300Z 06005KT 10SM -SN OVC026 M13/M16 A3005 RMK SC8 SLP180=
CYYG;2005-01-23 13:11;SPECI CYYG 231311Z 05007KT 2SM -SN OVC026 RMK SC8=
CYYG;2005-01-23 13:14;SPECI CYYG 231314Z 06008KT 1 1/2SM -SN VV010 RMK SN8=
CYYG;2005-01-23 13:33;SPECI CYYG 231333Z 07008KT 3/4SM -SN VV007 RMK SN8 RVR RWY03 6000 FT=
CYYG;2005-01-23 13:42;SPECI CYYG 231342Z 05010KT 1/2SM SN VV005 RMK SN8 RVR RWY03 2800 FT=
CYYG;2005-01-23 14:00;METAR CYYG 231400Z 05010KT 3/4SM -SN DRSN VV006 M12/M14 A3000 RESN RMK SN8 /S02/ RVR RWY03 4500 FT SLP163=
CYYG;2005-01-23 14:19;SPECI CYYG 231419Z 05013KT 1SM -SN DRSN VV007 RMK SN8 RVR RWY03 5000 FT=
CYYG;2005-01-23 15:00;METAR CYYG 231500Z 05010G16KT 1 1/2SM -SN DRSN VV009 M11/M13 A3002 RMK SN8 SLP170=
CYYG;2005-01-23 15:08;SPECI CYYG 231508Z 05011G16KT 3/4SM -SN DRSN VV006 RMK SN8 RVR RWY03 4500 FT=
CYYG;2005-01-23 15:29;SPECI CYYG 231529Z 05010KT 1/2SM SN DRSN VV005 RMK SN8 RVR RWY03 3500 FT=
CYYG;2005-01-23 15:40;SPECI CYYG 231540Z 05012KT 1/4SM +SN DRSN VV003 RMK SN8 RVR RWY03 1800 FT=
CYYG;2005-01-23 16:00;METAR CYYG 231600Z 05013KT 1/2SM SN DRSN VV005 M11/M13 A2998 RMK SN8 /S04/ RVR RWY03 2000 FT SLP158=
CYYG;2005-01-23 17:00;METAR CYYG 231700Z 05014G21KT 3/4SM -SN DRSN VV005 M11/M12 A2993 RESN RMK SN8 /S06/ RVR RWY03 3500 FT SLP139=
CYYG;2005-01-23 17:19;SPECI CYYG 231719Z 06015G21KT 1/2SM -SN BLSN VV005 RMK SN8 RVR RWY03 2200 FT=
CYYG;2005-01-23 18:00;METAR CYYG 231800Z 05016KT 1/2SM SN DRSN VV004 M11/M12 A2987 REBLSN RMK SN8 /S08/ PRESFR RVR RWY03 2600 FT SLP119=
CYYG;2005-01-23 18:32;SPECI CYYG 231832Z 04020G28KT 1/4SM SN +BLSN VV002 RMK BLSN8 RVR RWY03 2000 FT=
CYYG;2005-01-23 19:00;METAR CYYG 231900Z 04025G30KT 1/4SM SN +BLSN VV002 M11/M12 A2981 RMK BLSN8 /S02/ RVR RWY03 2400 FT SLP100=
CYYG;2005-01-23 20:00;METAR CYYG 232000Z 04027G35KT 1/8SM SN +BLSN VV001 M10/M12 A2976 RMK BLSN8 /S04/ RVR RWY03 1800 FT SLP082=
CYYG;2005-01-23 21:00;METAR CYYG 232100Z 05031G41KT 1/8SM SN +BLSN VV001 M10/M11 A2970 RMK BLSN8 /S06/ RVR RWY03 1200 FT SLP062=
CYYG;2005-01-23 22:00;METAR CYYG 232200Z 04029G38KT 1/8SM SN +BLSN VV001 M10/M11 A2965 RMK BLSN8 /S08/ RVR RWY03 0700 FT SLP044=
CYYG;2005-01-23 22:43;SPECI CYYG 232243Z 04033G43KT 0SM +SN +BLSN VV000 RMK BLSN8 RVR RWY03 500FT=
CYYG;2005-01-23 23:00;METAR CYYG 232300Z 05029G37KT 0SM +SN +BLSN VV000 M09/M09 A2961 RMK BLSN8 /S10/ RVR RWY03 0500FT SLP030=
CYYG;2005-01-23 23:22;SPECI CYYG 232322Z 04031G38KT 1/8SM +SN +BLSN VV001 RMK BLSN8 RVR RWY03 0600FT=
CYYG;2005-01-24 00:00;METAR CYYG 240000Z 04031G41KT 1/8SM +SN +BLSN VV001 M09/M09 A2960 RMK BLSN8 RVR RWY03 0600FT /S11/ SLP026=
CYYG;2005-01-24 00:19;SPECI CYYG 240019Z 04037G48KT 1/8SM SN +BLSN VV001 RMK BLSN8 RESN RVR RWY03 0600FT=
CYYG;2005-01-24 01:00;METAR CYYG 240100Z 04030G44KT 1/8SM SN +BLSN VV001 M09/M09 A2956 RMK BLSN8 RESN /S02/ RVR RWY03 0600FT SLP013=
CYYG;2005-01-24 02:00;METAR CYYG 240200Z 04032G42KT 1/8SM SN +BLSN VV001 M08/M08 A2952 RMK BLSN8 /S04/ RVR RWY03 0600FT SLP000=
CYYG;2005-01-24 03:00;METAR CYYG 240300Z 04035G42KT 1/8SM SN +BLSN VV001 M08/M08 A2947 RMK BLSN8 /S06/ RVR RWY03 0800FT SLP982=
CYYG;2005-01-24 04:00;METAR CYYG 240400Z 04023G36KT 1/8SM SN +BLSN VV001 M07/M07 A2944 RMK BLSN8 /S08/ RVR RWY03 1000FT SLP971=
CYYG;2005-01-24 05:00;METAR CYYG 240500Z 03026G37KT 1/8SM SN +BLSN VV001 M07/M07 A2939 RMK BLSN8 /S09/ RVR RWY03 0500FT SLP957=
CYYG;2005-01-24 06:00;METAR CYYG 240600Z 03034G40KT 1/8SM SN +BLSN VV001 M07/M08 A2934 RMK BLSN8 /S11/ RVR RWY03 0600FT SLP940=
CYYG;2005-01-24 06:16;SPECI CYYG 240616Z 03030G42KT 1/8SM -SN +BLSN VV001 RMK BLSN8 RESN RVR RWY03 0500FT=
CYYG;2005-01-24 07:00;METAR CYYG 240700Z 02027G37KT 1/8SM -SN +BLSN VV001 M07/M07 A2932 RMK BLSN8 RESN RVR RWY03 0600FT SLP932=
CYYG;2005-01-24 08:00;METAR CYYG 240800Z 02028G35KT 1/8SM -SN +BLSN VV001 M06/M06 A2930 RMK BLSN8 RVR RWY03 0800FT /S02/ SLP924=
CYYG;2005-01-24 09:00;METAR CYYG 240900Z 02028G41KT 1/8SM -SN +BLSN VV001 M06/M06 A2928 RMK BLSN8 RVR RWY03 0800FT /S03/ SLP920=
CYYG;2005-01-24 10:00;METAR CYYG 241000Z 01025G32KT 1/4SM SN +BLSN VV002 M06/M07 A2929 RMK BLSN8 /S04/ SLP923=
CYYG;2005-01-24 11:00;METAR CYYG 241100Z 36029G41KT 1/8SM -SN +BLSN VV002 M08/M09 A2928 RMK BLSN8 SLP920=
CYYG;2005-01-24 12:00;METAR CYYG 241200Z 36028G48KT 1/8SM -SN +BLSN VV001 M08/M10 A2928 RMK BLSN8 /S05/ SLP917=
CYYG;2005-01-24 13:00;METAR CYYG 241300Z 36027G36KT 1/4SM -SN +BLSN VV001 M09/M10 A2929 RMK BLSN8 /S01/ SLP922=
CYYG;2005-01-24 14:00;METAR CYYG 241400Z 36021G34KT 1/2SM -SN BLSN VV002 M08/M10 A2928 RMK BLSN8 SLP920=
CYYG;2005-01-24 14:44;SPECI CYYG 241444Z 35027G34KT 1/4SM -SN +BLSN OVC015 RMK BLSN5SC3=
CYYG;2005-01-24 15:00;METAR CYYG 241500Z 35021G34KT 1/2SM -SN BLSN OVC015 M08/M10 A2928 RMK BLSN5SC3 /S02/ SLP920=
CYYG;2005-01-24 15:12;SPECI CYYG 241512Z 34020G32KT 1/4SM SN +BLSN VV008 RMK BLSN8=
CYYG;2005-01-24 16:00;METAR CYYG 241600Z 34025G34KT 1/4SM SN +BLSN VV008 M09/M11 A2926 RMK BLSN8 /S04/ SLP911=
CYYG;2005-01-24 17:00;METAR CYYG 241700Z 34024G34KT 1/4SM -SN +BLSN OVC015 M10/M11 A2923 RESN RMK BLSN5SC3 /S05/ SLP903=
CYYG;2005-01-24 18:00;METAR CYYG 241800Z 33019G34KT 1/4SM -SN +BLSN OVC015 M10/M12 A2923 RMK BLSN5SC3 /S06/ SLP902=
CYYG;2005-01-24 19:00;METAR CYYG 241900Z 34021G30KT 1/4SM -SN +BLSN OVC015 M11/M12 A2924 RMK BLSN5SC3 SLP905=
CYYG;2005-01-24 20:00;METAR CYYG 242000Z 33020G30KT 1/4SM SN +BLSN OVC015 M10/M12 A2924 RMK BLSN6SC2 /S02/ SLP905=
CYYG;2005-01-24 20:14;SPECI CYYG 242014Z 33022G30KT 3/4SM -SN BLSN OVC015 RESN RMK BLSN4SC4=
CYYG;2005-01-24 21:00;METAR CYYG 242100Z 33014G22KT 1/2SM -SN BLSN VV005 M10/M12 A2925 RESN RMK SN8 /S03/ SLP907=
CYYG;2005-01-24 21:13;SPECI CYYG 242113Z 33018G24KT 1SM -SN BLSN VV010 RMK SN8=
CYYG;2005-01-24 21:34;SPECI CYYG 242134Z 30014G19KT 3SM -SN DRSN OVC015 REBLSN RMK SC8=
CYYG;2005-01-24 22:00;METAR CYYG 242200Z 30015G20KT 5SM -SN DRSN OVC015 M11/M13 A2925 REBLSN RMK SC8 SLP908=
CYYG;2005-01-24 23:00;METAR CYYG 242300Z 30016G21KT 5SM -SN DRSN OVC012 M11/M13 A2925 RMK SC8 SLP908=
CYYG;2005-01-25 00:00;METAR CYYG 250000Z 30015G22KT 10SM -SN DRSN SCT012 OVC100 M11/M14 A2925 RMK SC4AS4 SLP909=
CYYG;2005-01-25 00:18;SPECI CYYG 250018Z 29017KT 15SM DRSN FEW015 OVC100 RMK SC2AS6=
CYYG;2005-01-25 01:00;METAR CYYG 250100Z 30018KT 15SM DRSN FEW015 OVC100 M12/M15 A2925 RMK SC2AS6 SLP908=
CYYG;2005-01-25 02:00;METAR CYYG 250200Z 29017G22KT 15SM DRSN FEW015 BKN100 M12/M15 A2925 RMK SC2AS5 SLP909=
CYYG;2005-01-25 03:00;METAR CYYG 250300Z 29015G22KT 15SM DRSN FEW015 BKN100 M13/M16 A2925 RMK SC2AS4 SLP909=
CYYG;2005-01-25 04:00;METAR CYYG 250400Z 29013G18KT 15SM SCT100 M14/M17 A2926 RMK AC4 SLP911=
CYYG;2005-01-25 05:00;METAR CYYG 250500Z 28009G15KT 15SM FEW100 M14/M17 A2926 RMK AC2 SLP911=
CYYG;2005-01-25 06:00;METAR CYYG 250600Z 29012KT 15SM FEW100 M14/M17 A2926 RMK AC2 SLP911=
CYYG;2005-01-25 07:00;METAR CYYG 250700Z 27009KT 15SM FEW100 M14/M17 A2928 RMK AC2 SLP917=
CYYG;2005-01-25 08:00;METAR CYYG 250800Z 26009KT 15SM FEW100 M15/M17 A2929 RMK AC2 SLP921=
CYYG;2005-01-25 09:00;METAR CYYG 250900Z 27007KT 15SM SCT100 M15/M17 A2929 RMK AC4 SLP923=
CYYG;2005-01-25 10:00;METAR CYYG 251000Z 27011KT 15SM FEW100 M14/M17 A2930 RMK AC2 SLP926=
CYYG;2005-01-25 11:00;METAR CYYG 251100Z 27006KT 15SM SCT100 M15/M17 A2932 RMK AC3 SLP931=
CYYG;2005-01-25 12:00;METAR CYYG 251200Z 27005KT 15SM FEW025 FEW100 M15/M17 A2933 RMK SC1AC2 SLP937=
CYYG;2005-01-25 13:00;METAR CYYG 251300Z 28008KT 15SM FEW025 BKN060 BKN100 M14/M16 A2935 RMK SC1SC6AC1 SLP944=
CYYG;2005-01-25 14:00;METAR CYYG 251400Z 29013KT 15SM DRSN BKN017 OVC100 M13/M16 A2938 RMK SC6AC2 SLP952=
CYYG;2005-01-25 14:17;SPECI CYYG 251417Z 29009G15KT 15SM -SHSN DRSN BKN017 RMK SC7=
CYYG;2005-01-25 15:00;METAR CYYG 251500Z 29007KT 15SM DRSN SCT020 BKN100 M13/M16 A2940 RMK SC3AC4 SLP959=
CYYG;2005-01-25 15:52;SPECI CYYG 251552Z 30008KT 15SM -SHSN SCT021 BKN160 RMK SC4AC2=
CYYG;2005-01-25 16:00;METAR CYYG 251600Z 30010KT 15SM -SHSN SCT021 BKN160 M13/M16 A2939 RMK SC4AC2 SLP956=
CYYG;2005-01-25 17:00;METAR CYYG 251700Z 30009G15KT 15SM -SHSN DRSN BKN025 OVC080 M13/M17 A2940 RMK SC5AC3 SUN VSB SLP959=
CYYG;2005-01-25 18:00;METAR CYYG 251800Z 30010G15KT 15SM -SHSN DRSN BKN025 BKN075 M13/M19 A2941 RMK SC5AC2 SLP962=
CYYG;2005-01-25 19:00;METAR CYYG 251900Z 30010G17KT 15SM -SHSN DRSN BKN029 BKN075 M13/M17 A2944 RMK SC5AC1 SLP975=
CYYG;2005-01-25 20:00;METAR CYYG 252000Z 30009KT 15SM DRSN VCSH FEW026 FEW075 M13/M17 A2946 RMK SC2AC1 SLP981=
CYYG;2005-01-25 21:00;METAR CYYG 252100Z 28006KT 15SM -SHSN DRSN FEW022 FEW075 M14/M17 A2950 RMK SC2AC1 SLP993=
CYYG;2005-01-25 21:32;SPECI CYYG 252132Z 29004KT 15SM FEW022 FEW250 RMK SC1CI0=
CYYG;2005-01-25 22:00;METAR CYYG 252200Z 27004KT 15SM FEW022 FEW250 M15/M17 A2952 RMK SC1CI0 SLP002=
CYYG;2005-01-25 22:24;SPECI CYYG 252224Z 28006KT 15SM -SHSN FEW024 SCT068 RMK SC2AC2=
CYYG;2005-01-25 23:00;METAR CYYG 252300Z 26005KT 15SM -SHSN FEW025 FEW038 SCT068 M15/M17 A2957 RMK SC1SC2AC2 SLP017=
CYYG;2005-01-26 00:00;METAR CYYG 260000Z 29009KT 15SM FEW038 M15/M19 A2960 RMK SC2 SLP028=
CYYG;2005-01-26 01:00;METAR CYYG 260100Z 29007KT 15SM FEW038 M16/M20 A2963 RMK SC2 SLP038=
CYYG;2005-01-26 02:00;METAR CYYG 260200Z 29008KT 15SM FEW035 M17/M21 A2965 RMK SC1 SLP045=
CYYG;2005-01-26 04:00;METAR CYYG 260400Z 29012KT 15SM SKC M17/M22 A2969 RMK SLP059=
CYYG;2005-01-26 05:00;METAR CYYG 260500Z 29011G17KT 15SM SKC M18/M22 A2971 RMK SLP065=
CYYG;2005-01-26 06:00;METAR CYYG 260600Z 28009KT 15SM SKC M18/M22 A2973 RMK SLP073=
CYYG;2005-01-26 07:00;METAR CYYG 260700Z 29012KT 15SM SKC M18/M22 A2976 RMK SLP082=
CYYG;2005-01-26 08:00;METAR CYYG 260800Z 29012G17KT 15SM SKC M18/M22 A2979 RMK SLP092=
CYYG;2005-01-26 09:00;METAR CYYG 260900Z 26005KT 15SM SKC M19/M23 A2981 RMK SLP100=
CYYG;2005-01-26 10:00;METAR CYYG 261000Z 24005KT 15SM FEW190 M20/M23 A2983 RMK CI2 SLP107=
CYYG;2005-01-26 11:00;METAR CYYG 261100Z 21004KT 15SM FEW050 FEW190 M20/M23 A2986 RMK SC1CI2 SLP117=
CYYG;2005-01-26 13:00;METAR CYYG 261300Z 28007KT 15SM FEW030 FEW180 BKN260 M19/M25 A2991 RMK SC1AC1CI2 SLP133=
CYYG;2005-01-26 14:00;METAR CYYG 261400Z 26005KT 15SM FEW030 FEW180 BKN260 M19/M24 A2993 RMK SC1AC1CI2 SLP140=
CYYG;2005-01-26 15:00;METAR CYYG 261500Z 27008KT 15SM FEW030 FEW260 M19/M24 A2994 RMK SC1CI1 SLP145=
CYYG;2005-01-26 16:00;METAR CYYG 261600Z 30006KT 15SM FEW030 SCT260 M17/M24 A2993 RMK SC1CI2 SLP142=
CYYG;2005-01-26 17:00;METAR CYYG 261700Z 28006KT 15SM FEW030 SCT160 M17/M23 A2994 RMK SC1AC3 SLP143=
CYYG;2005-01-26 18:00;METAR CYYG 261800Z 29006KT 15SM FEW030 BKN130 BKN160 M17/M23 A2994 RMK SC1AC4AC2 SLP142=
CYYG;2005-01-26 19:00;METAR CYYG 261900Z 27008KT 15SM FEW030 OVC140 M17/M24 A2996 RMK SC1AS8 SLP150=
CYYG;2005-01-26 20:00;METAR CYYG 262000Z 28004KT 15SM FEW030 BKN150 M16/M23 A2998 RMK SC1AC7 SLP156=
CYYG;2005-01-26 21:00;METAR CYYG 262100Z 24003KT 15SM FEW030 BKN140 M17/M23 A3000 RMK SC1AC7 SLP163=
CYYG;2005-01-26 22:00;METAR CYYG 262200Z 30002KT 15SM FEW030 BKN140 M17/M23 A3002 RMK SC1AC7 SLP170=
CYYG;2005-01-26 23:00;METAR CYYG 262300Z 32002KT 15SM FEW030 OVC130 M17/M23 A3004 RMK SC1AC8 SLP177=
CYYG;2005-01-27 00:00;METAR CYYG 270000Z 33004KT 15SM FEW030 OVC120 M18/M23 A3004 RMK SC1AC8 SLP178=
CYYG;2005-01-27 01:00;METAR CYYG 270100Z 00000KT 15SM OVC120 M18/M23 A3006 RMK AC8 SLP184=
CYYG;2005-01-27 02:00;METAR CYYG 270200Z 00000KT 15SM BKN120 M22/M26 A3007 RMK AC6 SLP189=
CYYG;2005-01-27 03:00;METAR CYYG 270300Z 25002KT 15SM BKN120 M19/M24 A3008 RMK AC5 SLP190=
CYYG;2005-01-27 04:00;METAR CYYG 270400Z 27006KT 15SM BKN120 M19/M24 A3009 RMK AC5 SLP194=
CYYG;2005-01-27 05:00;METAR CYYG 270500Z 32005KT 15SM BKN120 M20/M25 A3008 RMK AC5 SLP191=
CYYG;2005-01-27 06:00;METAR CYYG 270600Z 32004KT 15SM BKN120 M21/M26 A3009 RMK AC5 SLP193=
CYYG;2005-01-27 07:00;METAR CYYG 270700Z 00000KT 15SM SCT120 M21/M25 A3010 RMK AC4 SLP198=
CYYG;2005-01-27 08:00;METAR CYYG 270800Z 21004KT 15SM FEW020 SCT120 M21/M26 A3011 RMK SC1AC3 SLP200=
CYYG;2005-01-27 09:00;METAR CYYG 270900Z 29004KT 15SM FEW020 BKN140 M21/M25 A3011 RMK SC1AC5 SLP200=
CYYG;2005-01-27 10:00;METAR CYYG 271000Z 31005KT 15SM SCT021 BKN140 M20/M24 A3009 RMK SC3AC3 SLP196=
CYYG;2005-01-27 10:16;SPECI CYYG 271016Z 31004KT 15SM -SHSN BKN025 BKN140 RMK SC5AC2=
CYYG;2005-01-27 11:00;METAR CYYG 271100Z 33005KT 2 1/2SM -SHSN OVC025 M18/M22 A3011 RMK SC8 SLP200=
CYYG;2005-01-27 11:18;SPECI CYYG 271118Z 35006KT 5SM -SHSN SCT026 BKN140 RMK SC3AC4=
CYYG;2005-01-27 12:00;METAR CYYG 271200Z 36008KT 15SM -SHSN FEW026 BKN140 M16/M19 A3012 RMK SC2AC5 SLP206=
CYYG;2005-01-27 12:19;SPECI CYYG 271219Z 01010KT 15SM DRSN VCSH FEW026 SCT140 RMK SC1AC4=
CYYG;2005-01-27 13:00;METAR CYYG 271300Z 01010G15KT 15SM DRSN VCSH FEW025 SCT140 M16/M20 A3016 RMK SC1AC3 SLP217=
CYYG;2005-01-27 14:00;METAR CYYG NIL=
CYYG;2005-01-27 15:00;METAR CYYG 271500Z 01012G17KT 15SM DRSN VCSH FEW025 FEW140 M15/M21 A3018 RMK SC1AC2 SLP225=
CYYG;2005-01-27 15:41;SPECI CYYG 271541Z 01012G21KT 15SM -SHSN DRSN SCT020 SCT140 RMK SC3AC1 VIS W-N 2=
CYYG;2005-01-27 16:00;METAR CYYG 271600Z 02017KT 15SM -SHSN DRSN SCT018 BKN140 M15/M19 A3018 RMK SC4AC2 VIS SW-NW 1 SLP225=
CYYG;2005-01-27 17:00;METAR CYYG 271700Z 36013G18KT 4SM -SHSN DRSN BKN024 M14/M19 A3017 RMK SC7 VIS NE-E 1 SLP222=
CYYG;2005-01-27 18:00;METAR CYYG 271800Z 36012G17KT 3SM -SHSN DRSN BKN021 M14/M19 A3017 RMK SC7 VIS SW-N 1 SLP222=
CYYG;2005-01-27 19:00;METAR CYYG 271900Z 36013G20KT 3SM -SHSN DRSN BKN026 M14/M19 A3018 RMK SC5 SLP225=
CYYG;2005-01-27 19:44;SPECI CYYG 271944Z 36015G20KT 2SM -SHSN DRSN FEW010 BKN018 BKN140 RMK SC1SC4AC1=
CYYG;2005-01-27 20:00;METAR CYYG 272000Z 35011G17KT 1 1/2SM -SHSN DRSN BKN010 M15/M19 A3020 RMK SN2SC5 SLP231=
CYYG;2005-01-27 20:39;SPECI CYYG 272039Z 35014G19KT 3SM -SHSN DRSN SCT012 RMK SC3=
CYYG;2005-01-27 21:00;METAR CYYG 272100Z 36014KT 3SM -SHSN DRSN FEW012 SCT120 M16/M20 A3022 RMK SC2AC1 SLP238=
CYYG;2005-01-27 21:40;SPECI CYYG 272140Z 35011G18KT 2 1/2SM -SHSN DRSN BKN018 RMK SC5=
CYYG;2005-01-27 22:00;METAR CYYG 272200Z 35013G20KT 2SM -SHSN DRSN BKN020 M16/M20 A3024 RMK SC6 SLP246=
CYYG;2005-01-27 23:00;METAR CYYG 272300Z 36017KT 10SM -SHSN DRSN BKN019 M16/M21 A3027 RMK SC7 SLP255=
CYYG;2005-01-28 00:00;METAR CYYG 280000Z 35012G20KT 15SM DRSN SCT019 M17/M21 A3029 RMK SC4 SLP261=
CYYG;2005-01-28 03:00;METAR CYYG 280300Z 36013G18KT 15SM -SHSN DRSN BKN019 M17/M21 A3028 RMK SC5 SLP260=
CYYG;2005-01-28 04:00;METAR CYYG 280400Z 35012G18KT 15SM DRSN SCT019 M17/M22 A3030 RMK SC3 SLP265=
CYYG;2005-01-28 05:00;METAR CYYG 280500Z 36012KT 15SM DRSN BKN020 M17/M21 A3031 RMK SC6 SLP268=
CYYG;2005-01-28 05:52;SPECI CYYG 280552Z 35014KT 6SM -SHSN DRSN OVC020 RMK SC8=
CYYG;2005-01-28 06:00;METAR CYYG 280600Z 35013G18KT 4SM -SHSN DRSN OVC020 M16/M20 A3031 RMK SC8 SLP270=
CYYG;2005-01-28 07:00;METAR CYYG 280700Z 35014G19KT 4SM -SHSN DRSN OVC019 M16/M20 A3032 RMK SC8 SLP272=
CYYG;2005-01-28 09:00;METAR CYYG 280900Z 34015G21KT 6SM -SHSN OVC025 M15/M19 A3033 RMK SC8 SLP277=
CYYG;2005-01-28 11:00;METAR CYYG 281100Z 34017G25KT 8SM -SHSN DRSN OVC020 M16/M21 A3037 RMK SC8 SLP290=
CYYG;2005-01-28 12:00;METAR CYYG 281200Z 34016G21KT 6SM -SHSN DRSN OVC019 M16/M20 A3040 RMK SC8 SLP298=
CYYG;2005-01-28 13:00;METAR CYYG 281300Z 34014G22KT 4SM -SHSN DRSN OVC020 M16/M20 A3041 RMK SC8 VIS W 2 SLP304=
CYYG;2005-01-28 13:12;SPECI CYYG 281312Z 34013G21KT 2SM -SHSN DRSN OVC021 RMK SC8=
CYYG;2005-01-28 14:00;METAR CYYG 281400Z 35015G22KT 1SM -SHSN DRSN OVC023 M16/M20 A3042 RMK SC8 SLP307=
CYYG;2005-01-28 14:25;SPECI CYYG 281425Z 35012G22KT 3/4SM -SHSN DRSN OVC020 RMK SC8 RVR RWY03 4500 FT=
CYYG;2005-01-28 15:00;METAR CYYG 281500Z 36016G22KT 1SM -SHSN DRSN OVC024 M15/M20 A3043 RMK SC8 VIS VRB 1/2-11/2 SLP309=
CYYG;2005-01-28 16:00;METAR CYYG 281600Z 34017G26KT 1 1/2SM -SHSN DRSN BKN022 M16/M20 A3042 RMK SC7 SLP306=
CYYG;2005-01-28 17:42;SPECI CYYG 281742Z 34016G29KT 1SM -SHSN BLSN BKN020 RMK SC7 VIS VRB 1/2-11/2 RVR RWY03 3500 FT=
CYYG;2005-01-28 19:00;METAR CYYG 281900Z 34012G28KT 1SM -SHSN BLSN BKN024 M14/M18 A3042 RMK SC7 VIS VRB 1/2-11/2 RVR RWY03 5500 FT SLP305=
CYYG;2005-01-28 19:52;SPECI CYYG 281952Z 34014G19KT 5SM -SHSN DRSN BKN023 REBLSN RMK SC7 VIS NE 2=
CYYG;2005-01-28 20:00;METAR CYYG 282000Z 34012G17KT 8SM -SHSN DRSN BKN022 M15/M19 A3042 REBLSN RMK SC7 VIS NE-SE 2 SLP307=
CYYG;2005-01-28 21:00;METAR CYYG 282100Z 34012G18KT 15SM DRSN VCSH SCT020 M15/M20 A3042 RMK SC4 VIS NE 4 SLP306=
CYYG;2005-01-28 22:00;METAR CYYG 282200Z 33010KT 15SM FEW020 M16/M21 A3043 RMK SC2 SLP310=
CYYG;2005-01-28 23:00;METAR CYYG 282300Z 33007KT 15SM FEW020 M16/M21 A3043 RMK SC2 SLP310=
CYYG;2005-01-29 00:00;METAR CYYG 290000Z 33008KT 15SM FEW020 M15/M20 A3043 RMK SC2 SLP308=
CYYG;2005-01-29 01:00;METAR CYYG 290100Z 32006KT 15SM FEW020 M16/M21 A3042 RMK SC1 SLP307=
CYYG;2005-01-29 02:00;METAR CYYG 290200Z 32005KT 15SM SKC M17/M21 A3042 RMK SLP305=
CYYG;2005-01-29 03:00;METAR CYYG 290300Z 32005KT 15SM FEW020 M17/M21 A3040 RMK SC2 SLP299=
CYYG;2005-01-29 04:00;METAR CYYG 290400Z 32005KT 15SM FEW015 M17/M20 A3040 RMK SC2 SLP298=
CYYG;2005-01-29 05:00;METAR CYYG 290500Z 29008KT 15SM FEW015 BKN027 M16/M19 A3039 RMK SC2SC4 SLP294=
CYYG;2005-01-29 06:00;METAR CYYG 290600Z 30004KT 15SM BKN028 M17/M20 A3037 RMK SC5 SLP289=
CYYG;2005-01-29 07:00;METAR CYYG 290700Z 31008KT 15SM FEW028 M17/M20 A3036 RMK SC1 SLP285=
CYYG;2005-01-29 08:00;METAR CYYG 290800Z 31007KT 15SM FEW028 M16/M20 A3035 RMK SC1 SLP282=
CYYG;2005-01-29 09:00;METAR CYYG 290900Z 32008KT 15SM FEW028 M16/M19 A3034 RMK SC1 SLP278=
CYYG;2005-01-29 10:00;METAR CYYG 291000Z 30007KT 15SM FEW028 M17/M20 A3033 RMK SC1 SLP274=
CYYG;2005-01-29 11:00;METAR CYYG 291100Z 31007KT 15SM FEW028 M17/M20 A3032 RMK SC1 SLP272=
CYYG;2005-01-29 12:00;METAR CYYG 291200Z 31006KT 15SM FEW028 M17/M20 A3031 RMK SC1 SLP267=
CYYG;2005-01-29 13:00;METAR CYYG 291300Z 30009KT 15SM FEW030 M16/M19 A3029 RMK SC1 SLP262=
CYYG;2005-01-29 14:00;METAR CYYG 291400Z 32008KT 15SM FEW030 FEW100 M14/M18 A3028 RMK SC1AC1 SLP258=
CYYG;2005-01-29 15:00;METAR CYYG 291500Z 33009KT 15SM FEW030 FEW100 M13/M17 A3025 RMK SC1AC2 SLP248=
CYYG;2005-01-29 16:00;METAR CYYG 291600Z 34010KT 15SM FEW030 SCT100 M12/M17 A3022 RMK SC1AC2 SLP238=
CYYG;2005-01-29 17:00;METAR CYYG 291700Z 33010KT 15SM FEW030 SCT100 M12/M17 A3018 RMK SC2AC2 SLP225=
CYYG;2005-01-29 18:00;METAR CYYG 291800Z 33010G15KT 15SM FEW030 SCT100 M11/M17 A3016 RMK SC2AC2 SLP218=
CYYG;2005-01-29 19:00;METAR CYYG 291900Z 36008KT 15SM FEW030 SCT100 M11/M17 A3015 RMK SC2AC2 SLP213=
CYYG;2005-01-29 20:00;METAR CYYG 292000Z 31004KT 15SM FEW030 SCT100 M12/M18 A3013 RMK SC1AC2 SLP206=
CYYG;2005-01-29 21:00;METAR CYYG 292100Z 00000KT 15SM FEW100 M12/M18 A3012 RMK AC2 SLP202=
CYYG;2005-01-29 22:00;METAR CYYG 292200Z 29005KT 15SM FEW100 M14/M19 A3012 RMK AC1 SLP203=
CYYG;2005-01-29 23:00;METAR CYYG 292300Z 26004KT 15SM FEW100 M14/M19 A3010 RMK AC1 SLP196=
CYYG;2005-01-30 00:00;METAR CYYG 300000Z 00000KT 15SM FEW100 M15/M20 A3008 RMK AC1 SLP192=
CYYG;2005-01-30 01:00;METAR CYYG 300100Z 00000KT 15SM FEW100 M15/M20 A3007 RMK AC1 SLP187=
CYYG;2005-01-30 02:00;METAR CYYG 300200Z 26003KT 15SM FEW120 M14/M19 A3005 RMK AC2 SLP180=
CYYG;2005-01-30 03:00;METAR CYYG 300300Z 00000KT 15SM BKN130 M13/M18 A3002 RMK AC6 SLP171=
CYYG;2005-01-30 04:00;METAR CYYG 300400Z 26004KT 15SM FEW092 BKN130 M12/M18 A3001 RMK AC2AC4 SLP166=
CYYG;2005-01-30 05:00;METAR CYYG 300500Z 25005KT 15SM SCT084 OVC130 M12/M16 A2998 RMK AC3AC5 SLP156=
CYYG;2005-01-30 06:00;METAR CYYG 300600Z 26007KT 15SM FEW084 OVC120 M11/M15 A2997 RMK AC2AC6 SLP153=
CYYG;2005-01-30 07:00;METAR CYYG 300700Z 25002KT 15SM BKN047 OVC120 M11/M15 A2996 RMK SC6AC2 SLP150=
CYYG;2005-01-30 08:00;METAR CYYG 300800Z 27004KT 15SM BKN027 BKN063 OVC170 M11/M14 A2995 RMK SC5SC2AC2 SLP147=
CYYG;2005-01-30 09:00;METAR CYYG 300900Z 25005KT 15SM BKN027 OVC037 M10/M13 A2995 RMK SC6SC2 SLP146=
CYYG;2005-01-30 10:00;METAR CYYG 301000Z 24004KT 15SM BKN022 OVC037 M10/M12 A2996 RMK SC6SC2 SLP148=
CYYG;2005-01-30 11:00;METAR CYYG 301100Z 23005KT 15SM BKN026 OVC045 M10/M12 A2995 RMK SC6SC2 SLP146=
CYYG;2005-01-30 12:00;METAR CYYG 301200Z 25005KT 15SM FEW025 BKN250 M11/M13 A2995 RMK SC2CI3 SLP147=
CYYG;2005-01-30 13:00;METAR CYYG 301300Z 25006KT 15SM BKN022 BKN250 M11/M14 A2996 RMK SC5CI2 SLP150=
CYYG;2005-01-30 14:00;METAR CYYG 301400Z 23003KT 15SM FEW022 SCT250 M11/M14 A2996 RMK SC2CI2 SLP148=
CYYG;2005-01-30 15:00;METAR CYYG 301500Z 29004KT 15SM FEW025 SCT250 M09/M13 A2997 RMK SC2CI2 SLP152=
CYYG;2005-01-30 16:00;METAR CYYG 301600Z 33006KT 15SM FEW023 SCT250 M08/M12 A2996 RMK SC2CI2 SLP150=
CYYG;2005-01-30 17:00;METAR CYYG 301700Z 35007KT 15SM FEW025 SCT250 M07/M11 A2996 RMK SC2CI2 SLP151=
CYYG;2005-01-30 17:44;SPECI CYYG 301744Z 34008KT 15SM -SHSN BKN021 RMK SC7=
CYYG;2005-01-30 18:00;METAR CYYG 301800Z 33008KT 15SM -SHSN BKN021 M07/M11 A2997 RMK SC7 SLP153=
CYYG;2005-01-30 19:00;METAR CYYG 301900Z 32007KT 15SM -SHSN BKN021 M07/M10 A2999 RMK SC7 SLP158=
CYYG;2005-01-30 20:00;METAR CYYG 302000Z 34006KT 15SM SCT022 M07/M10 A3000 RMK SC4 SLP163=
CYYG;2005-01-30 21:00;METAR CYYG 302100Z 34006KT 15SM FEW022 M08/M10 A3004 RMK SC2 SLP175=
CYYG;2005-01-30 22:00;METAR CYYG 302200Z 33006KT 15SM FEW022 M09/M10 A3007 RMK SC2 SLP185=
CYYG;2005-01-30 22:36;SPECI CYYG 302236Z 33007KT 12SM -SHSN BKN018 RMK SC7=
CYYG;2005-01-31 00:00;METAR CYYG 310000Z 34007KT 6SM -SHSN BKN018 M08/M09 A3012 RMK SC6 SLP202=
CYYG;2005-01-31 01:00;METAR CYYG 310100Z 34010KT 15SM -SHSN SCT018 OVC090 M08/M10 A3012 RMK SC3AC5 SLP205=
CYYG;2005-01-31 02:00;METAR CYYG 310200Z 35011G17KT 4SM -SHSN DRSN OVC020 M08/M10 A3013 RMK SC8 SLP207=
CYYG;2005-01-31 03:00;METAR CYYG 310300Z 35012G17KT 15SM -SHSN DRSN FEW020 M08/M10 A3014 RMK SC2 SLP212=
CYYG;2005-01-31 03:47;SPECI CYYG 310347Z 35010G15KT 15SM FEW020 RMK SC1=
CYYG;2005-01-31 04:00;METAR CYYG 310400Z 35011KT 15SM FEW020 M09/M11 A3016 RMK SC1 SLP216=
CYYG;2005-01-31 05:00;METAR CYYG 310500Z 34009G15KT 15SM FEW020 M09/M11 A3017 RMK SC1 SLP220=
CYYG;2005-01-31 06:00;METAR CYYG 310600Z 34010KT 15SM SKC M10/M12 A3018 RMK SLP224=
CYYG;2005-01-31 07:00;METAR CYYG 310700Z 34009KT 15SM SKC M10/M12 A3020 RMK SLP230=
CYYG;2005-01-31 08:00;METAR CYYG 310800Z 34010G15KT 15SM SCT013 M11/M13 A3022 RMK SC3 SLP236=
CYYG;2005-01-31 08:12;SPECI CYYG 310812Z 35011G16KT 15SM BKN013 RMK SC6=
CYYG;2005-01-31 08:25;SPECI CYYG 310825Z 35011G17KT 6SM -SHSN OVC013 RMK SC8=
CYYG;2005-01-31 09:00;METAR CYYG 310900Z 35011G16KT 6SM -SHSN OVC013 M11/M13 A3023 RMK SC8 SLP241=
CYYG;2005-01-31 10:00;METAR CYYG 311000Z 34011G17KT 5SM -SHSN OVC014 M11/M14 A3025 RMK SC8 SLP249=
CYYG;2005-01-31 10:50;SPECI CYYG 311050Z 35010G15KT 10SM -SHSN FEW012 RMK SC2=
CYYG;2005-01-31 11:00;METAR CYYG 311100Z 35010G15KT 12SM -SHSN FEW012 M12/M14 A3028 RMK SC2 SLP257=
CYYG;2005-01-31 12:00;METAR CYYG 311200Z 35011KT 4SM -SHSN SCT010 M12/M14 A3031 RMK SC3 SLP266=
CYYG;2005-01-31 13:00;METAR CYYG 311300Z 34011KT 10SM -SHSN SCT009 M12/M14 A3033 RMK SF3 SLP274=
CYYG;2005-01-31 14:00;METAR CYYG 311400Z 36011G17KT 15SM -SHSN FEW009 M12/M14 A3036 RMK SF2 SLP283=
CYYG;2005-01-31 15:00;METAR CYYG 311500Z 35011G17KT 15SM -SHSN FEW009 M11/M14 A3036 RMK SF1 SLP285=
CYYG;2005-01-31 16:00;METAR CYYG 311600Z 35010G16KT 15SM -SHSN FEW009 M11/M15 A3036 RMK SF2 SLP284=
CYYG;2005-01-31 17:00;METAR CYYG 311700Z 34009G16KT 15SM -SHSN DRSN SCT011 M11/M15 A3036 RMK SC4 VIS NE 6 SLP284=
CYYG;2005-01-31 18:00;METAR CYYG 311800Z 36011KT 12SM -SHSN DRSN BKN016 M12/M15 A3036 RMK SC5 SLP285=
CYYG;2005-01-31 19:00;METAR CYYG 311900Z 34007KT 15SM -SHSN DRSN BKN015 M12/M15 A3036 RMK SC5 SLP286=
CYYG;2005-01-31 20:00;METAR CYYG 312000Z 36009KT 15SM -SHSN DRSN BKN015 M12/M15 A3037 RMK SC6 SLP287=
CYYG;2005-01-31 21:00;METAR CYYG 312100Z 35006KT 15SM -SHSN BKN013 M12/M15 A3038 RMK SC6 SLP290=
CYYG;2005-01-31 22:00;METAR CYYG 312200Z 33003KT 15SM -SHSN BKN013 M14/M16 A3039 RMK SC5 SLP293=
CYYG;2005-01-31 23:00;METAR CYYG 312300Z 31003KT 15SM -SHSN FEW013 M15/M16 A3040 RMK SC2 SLP297=
CYYG;2005-02-01 01:00;METAR CYYG 010100Z 31005KT 15SM MIFG SKC M16/M17 A3039 RMK FROIN SLP297=
CYYG;2005-02-01 02:00;METAR CYYG 010200Z 31005KT 15SM MIFG SKC M16/M18 A3040 RMK FROIN SLP298=
CYYG;2005-02-01 03:00;METAR CYYG 010300Z 32005KT 15SM MIFG SKC M16/M18 A3040 RMK FROIN SLP298=
CYYG;2005-02-01 04:00;METAR CYYG 010400Z 31003KT 15SM SKC M16/M18 A3039 RMK SLP297=
CYYG;2005-02-01 05:00;METAR CYYG 010500Z 32003KT 15SM SKC M19/M22 A3039 RMK SLP294=
CYYG;2005-02-01 06:00;METAR CYYG 010600Z 30003KT 15SM SKC M17/M18 A3039 RMK FROIN SLP297=
CYYG;2005-02-01 07:00;METAR CYYG 010700Z 27004KT 15SM SKC M18/M19 A3040 RMK FROIN SLP298=
CYYG;2005-02-01 08:00;METAR CYYG 010800Z 27004KT 15SM SKC M17/M18 A3039 RMK FROIN SLP296=
CYYG;2005-02-01 09:00;METAR CYYG 010900Z 26002KT 15SM SKC M17/M19 A3039 RMK FROIN SLP296=
CYYG;2005-02-01 10:00;METAR CYYG 011000Z 25002KT 15SM SKC M17/M19 A3040 RMK FROIN SLP298=
CYYG;2005-02-01 11:00;METAR CYYG 011100Z 00000KT 15SM SKC M16/M17 A3041 RMK FROIN SLP303=
CYYG;2005-02-01 12:00;METAR CYYG 011200Z 19003KT 15SM SKC M16/M17 A3041 RMK FROIN SLP304=
CYYG;2005-02-01 13:00;METAR CYYG 011300Z 20003KT 15SM MIFG SKC M16/M17 A3043 RMK SLP310=
CYYG;2005-02-01 14:00;METAR CYYG 011400Z 21005KT 15SM MIFG FEW250 M13/M14 A3044 RMK CI1 SLP313=
CYYG;2005-02-01 15:00;METAR CYYG 011500Z 21006KT 15SM SCT250 M11/M12 A3045 RMK CI1 SLP315=
CYYG;2005-02-01 16:00;METAR CYYG 011600Z 20007KT 15SM SCT250 M09/M13 A3044 RMK CI1 SLP311=
CYYG;2005-02-01 17:00;METAR CYYG 011700Z 22006KT 15SM SCT250 M08/M15 A3043 RMK CI1 SLP309=
CYYG;2005-02-01 18:00;METAR CYYG 011800Z 21007KT 15SM SCT250 M08/M15 A3041 RMK CI1 SLP303=
CYYG;2005-02-01 19:00;METAR CYYG 011900Z 20006KT 15SM SCT250 M07/M15 A3040 RMK CI1 SLP300=
CYYG;2005-02-01 20:00;METAR CYYG 012000Z 16003KT 15SM SCT250 M07/M13 A3042 RMK CI1 SLP305=
CYYG;2005-02-01 21:00;METAR CYYG 012100Z 16006KT 15SM SCT120 BKN250 M08/M13 A3042 RMK AC3CI1 SLP306=
CYYG;2005-02-01 22:00;METAR CYYG 012200Z 17004KT 15SM FEW120 FEW250 M08/M12 A3044 RMK AC2CI0 SLP314=
CYYG;2005-02-01 23:00;METAR CYYG 012300Z 18004KT 15SM FEW120 FEW250 M09/M13 A3046 RMK AC2CI0 SLP320=
CYYG;2005-02-02 00:00;METAR CYYG 020000Z 19006KT 15SM FEW250 M10/M14 A3048 RMK CI1 SLP327=
CYYG;2005-02-02 01:00;METAR CYYG 020100Z 25002KT 15SM SKC M12/M14 A3051 RMK SLP336=
CYYG;2005-02-02 02:00;METAR CYYG 020200Z 22004KT 15SM SKC M11/M13 A3051 RMK SLP337=
CYYG;2005-02-02 03:00;METAR CYYG 020300Z 22003KT 15SM SKC M12/M13 A3052 RMK SLP338=
CYYG;2005-02-02 04:00;METAR CYYG 020400Z 21002KT 15SM SKC M12/M14 A3052 RMK SLP338=
CYYG;2005-02-02 05:00;METAR CYYG 020500Z 18002KT 15SM SKC M13/M15 A3052 RMK SLP340=
CYYG;2005-02-02 06:00;METAR CYYG 020600Z 00000KT 15SM SKC M12/M14 A3054 RMK SLP345=
CYYG;2005-02-02 07:00;METAR CYYG 020700Z 18003KT 15SM SKC M13/M14 A3054 RMK SLP346=
CYYG;2005-02-02 08:00;METAR CYYG 020800Z 00000KT 15SM SKC M15/M16 A3055 RMK SLP349=
CYYG;2005-02-02 09:00;METAR CYYG 020900Z 29002KT 15SM SKC M18/M19 A3056 RMK SLP353=
CYYG;2005-02-02 10:00;METAR CYYG 021000Z 00000KT 15SM SKC M18/M22 A3057 RMK SLP356=
CYYG;2005-02-02 11:00;METAR CYYG 021100Z 00000KT 15SM FEW120 M18/M21 A3058 RMK AC1 SLP359=
CYYG;2005-02-02 12:00;METAR CYYG 021200Z 17002KT 15SM FEW250 M16/M17 A3060 RMK CI1 SLP368=
CYYG;2005-02-02 13:00;METAR CYYG 021300Z 36003KT 15SM FEW250 M15/M17 A3062 RMK CI1 SLP372=
CYYG;2005-02-02 14:00;METAR CYYG 021400Z 00000KT 15SM FEW250 M10/M10 A3063 RMK CI1 SLP376=
CYYG;2005-02-02 15:00;METAR CYYG 021500Z 02004KT 15SM FEW250 M08/M09 A3063 RMK CI1 SLP378=
CYYG;2005-02-02 16:00;METAR CYYG 021600Z 02003KT 15SM FEW250 M05/M09 A3061 RMK CI1 SLP371=
CYYG;2005-02-02 17:00;METAR CYYG 021700Z 03002KT 15SM FEW250 M03/M09 A3060 RMK CI1 SLP368=
CYYG;2005-02-02 18:00;METAR CYYG 021800Z 03003KT 15SM FEW250 M03/M10 A3060 RMK CI0 SLP364=
CYYG;2005-02-02 19:00;METAR CYYG 021900Z 02005KT 15SM FEW250 M03/M10 A3061 RMK CI0 SLP368=
CYYG;2005-02-02 20:00;METAR CYYG 022000Z 01005KT 15SM FEW250 M04/M11 A3060 RMK CI0 SLP366=
CYYG;2005-02-02 21:00;METAR CYYG 022100Z 03003KT 15SM FEW250 M05/M12 A3061 RMK CI0 SLP370=
CYYG;2005-02-02 22:00;METAR CYYG 022200Z 02005KT 15SM FEW250 M09/M14 A3060 RMK CI0 SLP366=
CYYG;2005-02-02 23:00;METAR CYYG 022300Z 02002KT 15SM SKC M09/M13 A3060 RMK SLP368=
CYYG;2005-02-03 00:00;METAR CYYG 030000Z 00000KT 15SM SKC M11/M13 A3061 RMK SLP371=
CYYG;2005-02-03 01:00;METAR CYYG 030100Z 34002KT 15SM SKC M11/M13 A3061 RMK SLP369=
CYYG;2005-02-03 02:00;METAR CYYG 030200Z 01004KT 15SM SKC M15/M16 A3060 RMK SLP368=
CYYG;2005-02-03 03:00;METAR CYYG 030300Z 36002KT 15SM SKC M14/M16 A3060 RMK SLP368=
CYYG;2005-02-03 04:00;METAR CYYG 030400Z 00000KT 15SM SKC M14/M16 A3060 RMK SLP366=
CYYG;2005-02-03 05:00;METAR CYYG 030500Z 08002KT 15SM SKC M14/M15 A3059 RMK SLP362=
CYYG;2005-02-03 06:00;METAR CYYG 030600Z 08002KT 15SM SKC M14/M16 A3058 RMK SLP358=
CYYG;2005-02-03 07:00;METAR CYYG 030700Z 10002KT 15SM SKC M13/M15 A3056 RMK SLP351=
CYYG;2005-02-03 08:00;METAR CYYG 030800Z 00000KT 15SM BKN180 M12/M14 A3055 RMK AC2 SLP349=
CYYG;2005-02-03 09:00;METAR CYYG 030900Z 11003KT 2SM BR VV002 M09/M10 A3054 RMK FG8 SLP344=
CYYG;2005-02-03 09:04;SPECI CYYG 030904Z 11004KT 1SM BR VV001 RMK FG8=
CYYG;2005-02-03 09:08;SPECI CYYG 030908Z 09003KT 1/2SM FZFG VV001 RMK FG8 RVR03 3000FT=
CYYG;2005-02-03 09:33;SPECI CYYG 030933Z 10004KT 1SM BR OVC002 RMK SF8=
CYYG;2005-02-03 09:52;SPECI CYYG 030952Z 11002KT 3SM BR OVC003 RMK SF8=
CYYG;2005-02-03 10:00;METAR CYYG 031000Z 10002KT 4SM BR OVC003 M09/M09 A3052 RMK SF8 SLP340=
CYYG;2005-02-03 10:15;SPECI CYYG 031015Z 11002KT 15SM OVC004 RMK SF8=
CYYG;2005-02-03 11:00;METAR CYYG 031100Z 13006KT 15SM OVC004 M07/M08 A3053 RMK SF8 SLP341=
CYYG;2005-02-03 12:00;METAR CYYG 031200Z 13005KT 10SM OVC004 M07/M07 A3052 RMK ST8 SLP339=
CYYG;2005-02-03 12:22;SPECI CYYG 031222Z 13006KT 8SM OVC003 RMK ST8=
CYYG;2005-02-03 13:00;METAR CYYG 031300Z 13005KT 10SM OVC003 M06/M07 A3052 RMK ST8 SLP338=
CYYG;2005-02-03 13:31;SPECI CYYG 031331Z 14005KT 15SM OVC004 RMK ST8=
CYYG;2005-02-03 14:00;METAR CYYG 031400Z 12004KT 15SM OVC005 M06/M06 A3051 RMK ST8 SLP335=
CYYG;2005-02-03 15:00;METAR CYYG 031500Z 14007KT 15SM BKN005 OVC120 M05/M05 A3050 RMK ST6AC2 SLP330=
CYYG;2005-02-03 15:17;SPECI CYYG 031517Z 16008KT 15SM BKN006 BKN250 RMK SF5CI2=
CYYG;2005-02-03 15:31;SPECI CYYG 031531Z 16008KT 15SM SCT006 BKN250 RMK SF3CI4=
CYYG;2005-02-03 16:00;METAR CYYG 031600Z 15008KT 15SM SCT006 BKN250 M04/M06 A3048 RMK SF4CI3 SLP324=
CYYG;2005-02-03 16:19;SPECI CYYG 031619Z 15008KT 15SM BKN007 BKN250 RMK SF6CI2=
CYYG;2005-02-03 17:00;METAR CYYG 031700Z 15007KT 15SM BKN007 M04/M05 A3045 RMK ST7 SLP315=
CYYG;2005-02-03 18:00;METAR CYYG 031800Z 17004KT 15SM BKN008 M03/M05 A3043 RMK ST7 SLP307=
CYYG;2005-02-03 19:00;METAR CYYG 031900Z 16006KT 15SM BKN009 M03/M05 A3042 RMK SC7 SLP306=
CYYG;2005-02-03 19:25;SPECI CYYG 031925Z 15004KT 15SM BKN010 RMK SC7=
CYYG;2005-02-03 20:00;METAR CYYG 032000Z 12005KT 15SM BKN011 OVC084 M03/M05 A3041 RMK SC6AC2 SLP301=
CYYG;2005-02-03 20:14;SPECI CYYG 032014Z 13004KT 15SM SCT011 BKN084 OVC260 RMK SC4AC3CI1=
CYYG;2005-02-03 21:00;METAR CYYG 032100Z 11003KT 15SM BKN086 OVC260 M03/M05 A3039 RMK AC6CI2 SLP296=
CYYG;2005-02-03 22:00;METAR CYYG 032200Z 12002KT 15SM BKN087 OVC260 M03/M05 A3040 RMK AC6CI2 SLP297=
CYYG;2005-02-03 23:00;METAR CYYG 032300Z 11004KT 15SM BKN090 OVC260 M03/M04 A3040 RMK AC7CI1 SLP297=
CYYG;2005-02-04 00:00;METAR CYYG 040000Z 11002KT 15SM SCT090 OVC200 M03/M05 A3040 RMK AC4CI4 SLP297=
CYYG;2005-02-04 01:00;METAR CYYG 040100Z 11003KT 15SM SCT090 OVC210 M04/M05 A3040 RMK AC3CI5 SLP298=
CYYG;2005-02-04 02:00;METAR CYYG 040200Z 12004KT 15SM FEW090 OVC210 M04/M05 A3039 RMK AC2CI6 SLP295=
CYYG;2005-02-04 03:00;METAR CYYG 040300Z 14005KT 15SM FEW090 OVC210 M04/M06 A3038 RMK AC2CI6 SLP292=
CYYG;2005-02-04 03:33;SPECI CYYG 040333Z 11003KT 15SM BKN008 OVC090 RMK SF5AC3=
CYYG;2005-02-04 04:00;METAR CYYG 040400Z 12006KT 15SM BKN008 OVC090 M04/M06 A3036 RMK SF6AC2 SLP286=
CYYG;2005-02-04 05:00;METAR CYYG 040500Z 12004KT 15SM OVC008 M03/M05 A3035 RMK SF8 SLP282=
CYYG;2005-02-04 06:00;METAR CYYG 040600Z 13005KT 15SM OVC008 M03/M04 A3035 RMK SF8 SLP280=
CYYG;2005-02-04 07:00;METAR CYYG 040700Z 11003KT 10SM OVC006 M03/M04 A3035 RMK SF8 SLP280=
CYYG;2005-02-04 08:00;METAR CYYG 040800Z 09005KT 10SM OVC005 M03/M05 A3034 RMK SF8 SLP278=
CYYG;2005-02-04 09:00;METAR CYYG 040900Z 09008KT 10SM OVC006 M03/M05 A3034 RMK SF8 SLP276=
CYYG;2005-02-04 10:00;METAR CYYG 041000Z 10007KT 10SM OVC006 M03/M05 A3034 RMK SF8 SLP278=
CYYG;2005-02-04 11:00;METAR CYYG 041100Z 09008KT 10SM OVC006 M03/M05 A3035 RMK ST8 SLP279=
CYYG;2005-02-04 12:00;METAR CYYG 041200Z 09005KT 12SM OVC006 M03/M05 A3035 RMK ST8 SLP280=
CYYG;2005-02-04 13:00;METAR CYYG 041300Z 04003KT 12SM SCT006 BKN290 M04/M06 A3037 RMK SF3CI1 SLP287=
CYYG;2005-02-04 14:00;METAR CYYG 041400Z 02006KT 12SM FEW006 BKN290 M04/M06 A3037 RMK SF1CI3 SLP286=
CYYG;2005-02-04 15:00;METAR CYYG 041500Z 02008KT 15SM BKN290 M03/M06 A3036 RMK CI3 SLP283=
CYYG;2005-02-04 15:40;SPECI CYYG 041540Z 02010KT 15SM BKN290 RMK CI3 TEST FOR YQY=
CYYG;2005-02-04 16:00;METAR CYYG 041600Z 36010KT 15SM BKN320 M01/M05 A3034 RMK CI3 CONTRAILS SLP278=
CYYG;2005-02-04 17:00;METAR CYYG 041700Z 36008KT 15SM FEW010 BKN320 M02/M05 A3033 RMK SC1CI3 SC OVR GULF SLP272=
CYYG;2005-02-04 17:50;SPECI CYYG 041750Z 01009KT 15SM FEW002 BKN320 RMK SF1CI3 SF INVDG FM N=
CYYG;2005-02-04 18:00;METAR CYYG 041800Z 01008KT 15SM FEW002 BKN320 M03/M05 A3031 RMK SF1CI2 SF INVDG FM N VIS NW-N 1 SLP266=
CYYG;2005-02-04 18:07;SPECI CYYG 041807Z 02009KT 15SM BKN003 OVC320 RMK SF6CI1=
CYYG;2005-02-04 18:40;SPECI CYYG 041840Z 01007KT 15SM SCT003 OVC320 RMK SF3CI2=
CYYG;2005-02-04 19:00;METAR CYYG 041900Z 01006KT 15SM FEW003 BKN320 M03/M05 A3031 RMK SF2CI2 SLP265=
CYYG;2005-02-04 19:38;SPECI CYYG 041938Z 02010KT 15SM BKN004 BKN320 RMK SF6CI1=
CYYG;2005-02-04 20:00;METAR CYYG 042000Z 01009KT 6SM BR OVC003 M04/M06 A3030 RMK SF7 SLP263=
CYYG;2005-02-04 20:48;SPECI CYYG 042048Z 02011KT 1SM BR OVC002 RMK SF8=
CYYG;2005-02-04 21:00;METAR CYYG 042100Z 02010KT 2SM BR OVC003 M05/M06 A3028 RMK SF8 SLP257=
CYYG;2005-02-04 21:05;SPECI CYYG 042105Z 02011KT 5/8SM BR VV002 RMK FG8 RVR RWY03 3500FT=
CYYG;2005-02-04 21:51;SPECI CYYG 042151Z 01009KT 5/8SM -FZDZ BR VV002 RMK FG8 RVR RWY03 4000FT=
CYYG;2005-02-04 22:00;METAR CYYG 042200Z 01010KT 5/8SM -FZDZ BR VV002 M04/M06 A3028 RMK FG8 RVR RWY03 3500FT SLP255=
CYYG;2005-02-04 23:00;METAR CYYG 042300Z 01008KT 5/8SM -FZDZ BR VV002 M05/M06 A3028 RMK FG8 RVR RWY03 4000FT SLP255=
CYYG;2005-02-04 23:26;SPECI CYYG 042326Z 36009KT 1SM -FZDZ BR VV002 RMK FG8 RVR RWY03 P6000FT=
CYYG;2005-02-05 00:00;METAR CYYG 050000Z 36008KT 1 1/2SM -FZDZ BR VV002 M05/M06 A3028 RMK FG8 SLP255=
CYYG;2005-02-05 01:00;METAR CYYG 050100Z 35008KT 1 1/2SM -FZDZ BR VV002 M05/M06 A3026 RMK FG8 SLP251=
CYYG;2005-02-05 01:47;SPECI CYYG 050147Z 36009KT 1 1/2SM BR VV002 RMK FG8 REFZDZ=
CYYG;2005-02-05 01:53;SPECI CYYG 050153Z 36009KT 5SM BR OVC002 RMK SF8 REFZDZ=
CYYG;2005-02-05 02:00;METAR CYYG 050200Z 36009KT 6SM BR OVC002 M05/M06 A3025 RMK SF8 REFZDZ SLP247=
CYYG;2005-02-05 02:08;SPECI CYYG 050208Z 36010KT 10SM BKN004 RMK SF6=
CYYG;2005-02-05 03:00;METAR CYYG 050300Z 36009G15KT 10SM BKN003 M05/M06 A3024 RMK SF6 SLP242=
CYYG;2005-02-05 03:28;SPECI CYYG 050328Z 36009KT 15SM SCT005 RMK SF4=
CYYG;2005-02-05 04:00;METAR CYYG 050400Z 36008KT 15SM FEW007 M05/M06 A3022 RMK SF1 SLP235=
CYYG;2005-02-05 05:00;METAR CYYG 050500Z 36011G16KT 15SM FEW007 M05/M06 A3019 RMK SF1 SLP227=
CYYG;2005-02-05 06:00;METAR CYYG 050600Z 36010KT 15SM FEW007 M06/M07 A3020 RMK SF1 SLP228=
CYYG;2005-02-05 06:25;SPECI CYYG 050625Z 36010KT 10SM BKN002 RMK SF7=
CYYG;2005-02-05 07:00;METAR CYYG 050700Z 36014KT 3SM BR VV002 M06/M07 A3018 RMK FG8 SLP222=
CYYG;2005-02-05 08:00;METAR CYYG 050800Z 36008KT 3SM BR VV002 M06/M07 A3018 RMK FG8 SLP222=
CYYG;2005-02-05 09:00;METAR CYYG 050900Z 36009KT 1 1/2SM BR VV002 M06/M07 A3018 RMK FG8 SLP224=
CYYG;2005-02-05 10:00;METAR CYYG 051000Z 36009KT 1 1/2SM BR VV002 M06/M07 A3020 RMK FG8 SLP228=
CYYG;2005-02-05 11:00;METAR CYYG 051100Z 35008KT 1 1/2SM BR BKN002 BKN300 M06/M07 A3021 RMK SF5CI0 RIME SLP233=
CYYG;2005-02-05 11:33;SPECI CYYG 051133Z 35008KT 10SM FEW002 BKN300 RMK SF2CI2=
CYYG;2005-02-05 12:00;METAR CYYG 051200Z 35009KT 15SM FEW002 FEW220 BKN330 M06/M07 A3022 RMK SF1CI1CI1 CONTRAILS SLP236=
CYYG;2005-02-05 13:00;METAR CYYG 051300Z 35007KT 15SM FEW003 FEW220 BKN330 M06/M07 A3023 RMK SF1CI1CI2 CONTRAILS SLP241=
CYYG;2005-02-05 14:00;METAR CYYG 051400Z 36010KT 15SM FEW003 BKN330 M05/M06 A3024 RMK SF1CI2 SLP243=
CYYG;2005-02-05 15:00;METAR CYYG 051500Z 36011KT 15SM FEW003 BKN330 M05/M06 A3025 RMK SF1CI2 CONTRAILS SLP245=
CYYG;2005-02-05 16:00;METAR CYYG 051600Z 36011G20KT 15SM BKN330 M04/M06 A3024 RMK CI2 CONTRAILS SLP243=
CYYG;2005-02-05 17:00;METAR CYYG 051700Z 36015G22KT 15SM BKN330 M03/M06 A3024 RMK CI1 CONTRAILS SLP242=
CYYG;2005-02-05 17:37;SPECI CYYG 051737Z 36014G21KT 15SM FEW004 BKN330 RMK SF1CI1=
CYYG;2005-02-05 18:00;METAR CYYG 051800Z 01015KT 15SM FEW004 SCT330 M03/M06 A3025 RMK SF1CI1 SLP245=
CYYG;2005-02-05 19:00;METAR CYYG 051900Z 36010G18KT 15SM FEW005 FEW330 M03/M06 A3027 RMK SF1CI1 SLP252=
CYYG;2005-02-05 19:36;SPECI CYYG 051936Z 36015G21KT 15SM BKN008 BKN330 RMK SF6CI0=
CYYG;2005-02-05 20:00;METAR CYYG 052000Z 36019KT 15SM OVC006 M04/M06 A3031 RMK SF8 SLP266=
CYYG;2005-02-05 21:00;METAR CYYG 052100Z 36015G20KT 10SM DRSN BKN006 M04/M06 A3033 RMK SF7 SLP273=
CYYG;2005-02-05 21:22;SPECI CYYG 052122Z 01012G18KT 10SM DRSN SCT006 RMK SF3=
CYYG;2005-02-05 23:00;METAR CYYG 052300Z 36014G21KT 12SM FEW006 M04/M06 A3036 RMK SF1 SLP283=
CYYG;2005-02-06 00:00;METAR CYYG 060000Z 36015G21KT 15SM SKC M05/M06 A3038 RMK SLP292=
CYYG;2005-02-06 01:00;METAR CYYG 060100Z 36014G20KT 15SM SKC M05/M07 A3041 RMK SLP300=
CYYG;2005-02-06 02:00;METAR CYYG 060200Z 36012G17KT 15SM SKC M04/M06 A3042 RMK SLP304=
CYYG;2005-02-06 03:00;METAR CYYG 060300Z 01015KT 15SM SKC M04/M07 A3042 RMK SLP306=
CYYG;2005-02-06 04:00;METAR CYYG 060400Z 36012G20KT 15SM SKC M04/M07 A3045 RMK SLP316=
CYYG;2005-02-06 05:00;METAR CYYG NIL=
CYYG;2005-02-06 06:00;METAR CYYG 060600Z 01011G17KT 15SM SKC M04/M07 A3051 RMK SLP334=
CYYG;2005-02-06 07:00;METAR CYYG 060700Z 02013KT 15SM SKC 00/M08 A3052 RMK SLP340=
CYYG;2005-02-06 08:00;METAR CYYG 060800Z 01011KT 15SM SKC M05/M08 A3055 RMK SLP350=
CYYG;2005-02-06 09:00;METAR CYYG 060900Z 02010G15KT 15SM SKC M06/M08 A3058 RMK SLP358=
CYYG;2005-02-06 10:00;METAR CYYG 061000Z 01011KT 15SM SKC M06/M08 A3060 RMK SLP366=
CYYG;2005-02-06 11:00;METAR CYYG 061100Z 01008KT 15SM SKC M07/M09 A3064 RMK SLP378=
CYYG;2005-02-06 12:00;METAR CYYG 061200Z 01009KT 15SM SKC M07/M09 A3066 RMK SLP386=
CYYG;2005-02-06 13:00;METAR CYYG 061300Z 02010KT 15SM SKC M06/M09 A3068 RMK SLP394=
CYYG;2005-02-06 14:00;METAR CYYG 061400Z 02014G19KT 15SM SKC M05/M08 A3069 RMK SLP395=
CYYG;2005-02-06 16:00;METAR CYYG 061600Z 03014KT 15SM FEW300 M04/M07 A3069 RMK CI1 SLP397=
CYYG;2005-02-06 17:00;METAR CYYG 061700Z 04012KT 15SM FEW300 M04/M07 A3067 RMK CI1 SLP389=
CYYG;2005-02-06 18:00;METAR CYYG 061800Z 02014KT 15SM FEW300 M03/M06 A3064 RMK CI1 SLP380=
CYYG;2005-02-06 19:00;METAR CYYG 061900Z 02009KT 15SM BKN280 M04/M07 A3065 RMK CI2 SLP383=
CYYG;2005-02-06 20:00;METAR CYYG 062000Z 36005KT 15SM FEW010 BKN280 M04/M07 A3066 RMK CF1CI4 SLP384=
CYYG;2005-02-06 21:00;METAR CYYG 062100Z 01004KT 15SM BKN280 M05/M07 A3065 RMK CI3 SLP383=
CYYG;2005-02-06 22:00;METAR CYYG 062200Z 36003KT 15SM FEW280 M06/M08 A3065 RMK CI1 SLP381=
CYYG;2005-02-06 23:00;METAR CYYG 062300Z 33005KT 15SM FEW280 M07/M09 A3066 RMK CI1 SLP385=
CYYG;2005-02-07 00:00;METAR CYYG 070000Z 35005KT 15SM FEW280 M08/M09 A3065 RMK CI1 SLP383=
CYYG;2005-02-07 01:00;METAR CYYG 070100Z 34004KT 15SM SKC M08/M10 A3063 RMK SLP375=
CYYG;2005-02-07 02:00;METAR CYYG 070200Z 36004KT 15SM SKC M10/M10 A3061 RMK SLP368=
CYYG;2005-02-07 03:00;METAR CYYG 070300Z 36004KT 15SM SKC M10/M10 A3058 RMK SLP358=
CYYG;2005-02-07 04:00;METAR CYYG 070400Z 36003KT 15SM SKC M11/M11 A3056 RMK SLP353=
CYYG;2005-02-07 05:00;METAR CYYG 070500Z 00000KT 15SM SKC M11/M12 A3053 RMK SLP342=
CYYG;2005-02-07 06:00;METAR CYYG 070600Z 12003KT 15SM SKC M11/M12 A3050 RMK SLP332=
CYYG;2005-02-07 07:00;METAR CYYG 070700Z 00000KT 15SM SKC M12/M13 A3049 RMK SLP329=
CYYG;2005-02-07 08:00;METAR CYYG 070800Z 34003KT 15SM FEW002 M14/M16 A3048 RMK SF2 SLP325=
CYYG;2005-02-07 09:00;METAR CYYG 070900Z 00000KT 1SM BR BKN002 M12/M13 A3047 RMK SF6 SLP321=
CYYG;2005-02-07 09:10;SPECI CYYG 070910Z 00000KT 1/2SM FZFG VV001 RMK FG8 RVR RWY03 2600 FT=
CYYG;2005-02-07 09:24;SPECI CYYG 070924Z 00000KT 3/8SM FZFG VV001 RMK FG8 RVR RWY03 1800 FT=
CYYG;2005-02-07 10:00;METAR CYYG 071000Z 00000KT 3/8SM FZFG VV001 M14/M15 A3045 RMK FG8 RVR RWY03 2200 FT SLP314=
CYYG;2005-02-07 10:10;SPECI CYYG 071010Z 00000KT 1/2SM FZFG VV001 RMK FG8 RVR RWY03 2800 FT=
CYYG;2005-02-07 10:44;SPECI CYYG 071044Z 00000KT 3/8SM FZFG VV001 RMK FG8 RVR RWY03 1400 FT=
CYYG;2005-02-07 11:00;METAR CYYG 071100Z 00000KT 3/8SM FZFG VV001 M13/M15 A3044 RMK FG8 RVR RWY03 1600 FT SLP312=
CYYG;2005-02-07 12:00;METAR CYYG 071200Z 19003KT 1/2SM FZFG VV001 M13/M15 A3043 RMK FG8 RVR RWY 03 1400FT SLP309=
CYYG;2005-02-07 12:27;SPECI CYYG 071227Z 22004KT 3/4SM BR BKN250 RMK FG2CI1=
CYYG;2005-02-07 13:00;METAR CYYG 071300Z 23005KT 1/2SM FZFG BKN250 M11/M12 A3043 RMK FG2CI1 RVR RWY 03 1800FT VIS S 1/4F SLP307=
CYYG;2005-02-07 13:24;SPECI CYYG 071324Z 20004KT 1SM BR BKN250 RMK FG2CI1=
CYYG;2005-02-07 13:42;SPECI CYYG 071342Z 18003KT 3SM BR FEW250 RMK CI1=
CYYG;2005-02-07 14:00;METAR CYYG 071400Z 18003KT 3SM MIFG FEW250 M09/M10 A3041 RMK CI1 SLP302=
CYYG;2005-02-07 15:00;METAR CYYG 071500Z 22003KT 10SM VCFG FEW250 M07/M07 A3039 RMK CI1 VIS S-E 4F SLP296=
CYYG;2005-02-07 16:00;METAR CYYG 071600Z 21004KT 15SM VCFG BKN250 M04/M04 A3035 RMK CI2 FOG BNK S SLP281=
CYYG;2005-02-07 17:00;METAR CYYG 071700Z 20005KT 15SM VCFG BKN250 M03/M03 A3032 RMK CI3 FOG BNK S SLP270=
CYYG;2005-02-07 18:00;METAR CYYG 071800Z 17005KT 15SM VCFG BKN250 M02/M06 A3028 RMK CI6 FOG BNK S SLP258=
CYYG;2005-02-07 19:00;METAR CYYG 071900Z 17003KT 15SM FEW180 BKN250 M02/M06 A3027 RMK AC2CI4 SLP254=
CYYG;2005-02-07 20:00;METAR CYYG 072000Z 16004KT 15SM FEW180 BKN250 M03/M06 A3025 RMK AC1CI4 SLP249=
CYYG;2005-02-07 21:00;METAR CYYG 072100Z 18003KT 15SM FEW180 BKN250 M03/M07 A3023 RMK AC2CI2 SLP242=
CYYG;2005-02-07 22:00;METAR CYYG 072200Z 17005KT 15SM FEW180 BKN250 M04/M09 A3022 RMK AC2CI2 SLP236=
CYYG;2005-02-07 23:00;METAR CYYG 072300Z 21005KT 15SM FEW180 BKN250 M04/M09 A3021 RMK AC2CI2 SLP233=
CYYG;2005-02-08 00:00;METAR CYYG 080000Z 20004KT 15SM FEW180 BKN250 M03/M08 A3020 RMK AC2CI2 SLP232=
CYYG;2005-02-08 01:00;METAR CYYG 080100Z 18006KT 15SM FEW250 M05/M10 A3020 RMK CI1 SLP231=
CYYG;2005-02-08 03:00;METAR CYYG 080300Z 18004KT 15SM FEW250 M05/M10 A3017 RMK CI1 SLP221=
CYYG;2005-02-08 04:00;METAR CYYG 080400Z 21006KT 15SM FEW250 M03/M09 A3017 RMK CI1 SLP219=
CYYG;2005-02-08 05:00;METAR CYYG 080500Z 22005KT 15SM SCT200 M03/M09 A3013 RMK CI2 SLP205=
CYYG;2005-02-08 06:00;METAR CYYG 080600Z 18006KT 15SM SCT190 M04/M11 A3012 RMK AC2 SLP201=
CYYG;2005-02-08 07:00;METAR CYYG 080700Z 00000KT 15SM FEW190 M06/M10 A3012 RMK AC2 SLP201=
CYYG;2005-02-08 09:00;METAR CYYG 080900Z 20002KT 15SM FEW190 M04/M10 A3009 RMK AC2 SLP194=
CYYG;2005-02-08 10:00;METAR CYYG 081000Z 18004KT 15SM FEW170 M05/M11 A3008 RMK AC2 SLP189=
CYYG;2005-02-08 12:00;METAR CYYG 081200Z 21006KT 15SM FEW160 BKN200 M03/M11 A3008 RMK AC2CI4 SLP188=
CYYG;2005-02-08 13:00;METAR CYYG 081300Z 18004KT 15SM SCT160 BKN220 M03/M08 A3008 RMK AC3CI4 SLP190=
CYYG;2005-02-08 14:00;METAR CYYG 081400Z 18003KT 15SM SCT160 BKN220 M01/M08 A3009 RMK AC3CI3 SLP191=
CYYG;2005-02-08 15:00;METAR CYYG 081500Z 18005KT 15SM FEW160 BKN220 01/M07 A3007 RMK AC2CI3 SLP185=
CYYG;2005-02-08 16:00;METAR CYYG 081600Z 24005KT 15SM FEW160 BKN250 02/M05 A3005 RMK AC2CI3 SLP179=
CYYG;2005-02-08 17:00;METAR CYYG 081700Z 00000KT 15SM SCT150 BKN250 04/M05 A3003 RMK AC3CI2 SLP173=
CYYG;2005-02-08 18:00;METAR CYYG 081800Z 21002KT 15SM SCT150 BKN250 04/M05 A3001 RMK AC3CI2 SLP166=
CYYG;2005-02-08 19:00;METAR CYYG 081900Z 14002KT 15SM SCT150 BKN250 03/M04 A3001 RMK AC3CI2 SLP165=
CYYG;2005-02-08 20:00;METAR CYYG 082000Z 00000KT 15SM SCT150 BKN250 03/M04 A3001 RMK AC4CI2 SLP163=
CYYG;2005-02-08 21:00;METAR CYYG 082100Z 12002KT 15SM SCT150 BKN250 02/M04 A3000 RMK AC3CI4 SLP160=
CYYG;2005-02-08 22:00;METAR CYYG 082200Z 16002KT 15SM BKN130 OVC250 01/M03 A2998 RMK AC6CI2 SLP156=
CYYG;2005-02-08 23:00;METAR CYYG 082300Z 00000KT 15SM OVC130 01/M03 A2998 RMK AC8 SLP154=
CYYG;2005-02-09 00:00;METAR CYYG 090000Z 00000KT 15SM SCT093 OVC250 00/M03 A2999 RMK AC4CI2 SLP157=
CYYG;2005-02-09 01:00;METAR CYYG 090100Z 00000KT 15SM BKN083 BKN100 OVC250 M00/M03 A2998 RMK AC6AC2CI1 SLP155=
CYYG;2005-02-09 02:00;METAR CYYG 090200Z 00000KT 15SM OVC079 M00/M03 A2997 RMK AC8 SLP152=
CYYG;2005-02-09 03:00;METAR CYYG 090300Z 00000KT 15SM OVC072 M00/M03 A2995 RMK AC8 SLP143=
CYYG;2005-02-09 04:00;METAR CYYG 090400Z 00000KT 15SM BKN063 OVC080 M01/M03 A2993 RMK SC6AC2 SLP138=
CYYG;2005-02-09 04:29;SPECI CYYG 090429Z 14003KT 15SM -FZRA OVC055 RMK SC8=
CYYG;2005-02-09 05:00;METAR CYYG 090500Z 21004KT 15SM -FZRA SCT053 OVC097 M00/M03 A2992 RMK SC4AC4 SLP135=
CYYG;2005-02-09 05:49;SPECI CYYG 090549Z 00000KT 15SM BKN052 OVC080 REFZRA RMK SC6AC2=
CYYG;2005-02-09 06:00;METAR CYYG 090600Z 00000KT 15SM BKN052 OVC080 M00/M03 A2991 REFZRA RMK SC6AC2 SLP132=
CYYG;2005-02-09 06:06;SPECI CYYG 090606Z 18002KT 15SM -FZRA BKN052 OVC062 RMK SC6SC2=
CYYG;2005-02-09 06:36;SPECI CYYG 090636Z 19003KT 15SM BKN053 OVC065 REFZRA RMK SC6SC2=
CYYG;2005-02-09 06:48;SPECI CYYG 090648Z 18002KT 15SM -FZRA OVC059 RMK SC8=
CYYG;2005-02-09 07:00;METAR CYYG 090700Z 18002KT 15SM -FZRA FEW046 OVC056 M00/M03 A2990 RMK SC2SC6 SLP126=
CYYG;2005-02-09 07:17;SPECI CYYG 090717Z 00000KT 15SM FEW046 SCT056 OVC062 REFZRA RMK SC2SC2SC5=
CYYG;2005-02-09 08:00;METAR CYYG 090800Z 12003KT 15SM FEW048 BKN058 OVC069 M00/M02 A2988 REFZRA RMK SC2SC4AC2 SLP120=
CYYG;2005-02-09 09:00;METAR CYYG 090900Z 20003KT 15SM FEW059 BKN073 BKN150 M00/M02 A2987 RMK SC2AC4AC2 SLP119=
CYYG;2005-02-09 10:00;METAR CYYG 091000Z 22006KT 15SM FEW073 FEW140 SCT180 M00/M04 A2987 RMK AC1AC1AC2 SLP117=
CYYG;2005-02-09 11:00;METAR CYYG 091100Z 23002KT 15SM FEW070 BKN160 M01/M03 A2987 RMK AC2AC3 SLP117=
CYYG;2005-02-09 12:00;METAR CYYG 091200Z 24003KT 15SM SCT061 BKN160 M01/M04 A2987 RMK SC3AC3 SLP118=
CYYG;2005-02-09 13:00;METAR CYYG 091300Z 00000KT 15SM FEW060 BKN150 M01/M03 A2987 RMK SC2AC4 SLP118=
CYYG;2005-02-09 14:00;METAR CYYG 091400Z 35002KT 15SM BKN084 BKN150 01/M03 A2987 RMK AC5AC2 SLP116=
CYYG;2005-02-09 15:00;METAR CYYG 091500Z 00000KT 15SM SCT084 BKN140 01/M02 A2986 RMK AC4AC2 SLP114=
CYYG;2005-02-09 16:00;METAR CYYG 091600Z 00000KT 15SM SCT080 BKN140 02/M01 A2985 RMK AC3AC3 SLP109=
CYYG;2005-02-09 17:00;METAR CYYG 091700Z 00000KT 15SM FEW040 SCT080 BKN140 03/M01 A2982 RMK SC2AC2AC2 SLP099=
CYYG;2005-02-09 18:00;METAR CYYG 091800Z 00000KT 15SM FEW040 SCT080 BKN140 05/M01 A2980 RMK SC2AC2AC2 SLP094=
CYYG;2005-02-09 19:00;METAR CYYG 091900Z 02004KT 15SM FEW050 SCT100 BKN150 03/M01 A2981 RMK SC2AC2AC2 SLP097=
CYYG;2005-02-09 20:00;METAR CYYG 092000Z 03003KT 15SM BKN100 BKN150 02/M01 A2981 RMK AC5AC2 SLP095=
CYYG;2005-02-09 21:00;METAR CYYG 092100Z 02005KT 15SM SCT049 BKN100 01/M01 A2982 RMK SC4AC3 SLP101=
CYYG;2005-02-09 22:00;METAR CYYG 092200Z 02003KT 15SM BKN041 OVC100 01/M01 A2984 RMK SC5AC3 SLP107=
CYYG;2005-02-09 23:00;METAR CYYG 092300Z 01003KT 15SM OVC027 00/M01 A2985 RMK SC8 SLP111=
CYYG;2005-02-10 00:00;METAR CYYG 100000Z 35002KT 10SM BKN022 OVC033 00/M01 A2986 RMK SC7SC1 SLP114=
CYYG;2005-02-10 01:00;METAR CYYG 100100Z 00000KT 10SM FEW012 OVC020 00/M01 A2987 RMK SC2SC6 SLP117=
CYYG;2005-02-10 01:39;SPECI CYYG 100139Z 01002KT 10SM FEW006 OVC012 RMK SF2SC6=
CYYG;2005-02-10 02:00;METAR CYYG 100200Z 36003KT 10SM BKN008 BKN014 OVC032 00/M01 A2987 RMK SF5SC2SC1 SLP116=
CYYG;2005-02-10 02:36;SPECI CYYG 100236Z 36004KT 10SM OVC006 RMK ST8=
CYYG;2005-02-10 03:00;METAR CYYG 100300Z 36005KT 10SM OVC006 00/M01 A2987 RMK ST8 SLP117=
CYYG;2005-02-10 03:10;SPECI CYYG 100310Z 36004KT 10SM OVC005 RMK ST8=
CYYG;2005-02-10 03:40;SPECI CYYG 100340Z 36007KT 10SM OVC004 RMK ST8=
CYYG;2005-02-10 04:00;METAR CYYG 100400Z 36006KT 2 1/2SM BR OVC002 M00/M01 A2988 RMK ST8 SLP120=
CYYG;2005-02-10 04:33;SPECI CYYG 100433Z 02008KT 5/8SM BR VV002 RMK FG8=
CYYG;2005-02-10 05:00;METAR CYYG 100500Z 03009KT 1SM BR OVC003 M01/M02 A2987 RMK ST8 SLP118=
CYYG;2005-02-10 05:45;SPECI CYYG 100545Z 05007KT 10SM FEW003 OVC015 RMK SF2SC6=
CYYG;2005-02-10 06:00;METAR CYYG 100600Z 05007KT 15SM FEW003 OVC015 M01/M03 A2988 RMK SF1SC8 SLP122=
CYYG;2005-02-10 07:00;METAR CYYG 100700Z 04009KT 15SM OVC018 M02/M04 A2987 RMK SC8 SLP119=
CYYG;2005-02-10 08:00;METAR CYYG 100800Z 03005KT 15SM OVC018 M02/M05 A2989 RMK SC8 SLP125=
CYYG;2005-02-10 09:00;METAR CYYG 100900Z 04009KT 15SM BKN020 OVC038 M02/M05 A2989 RMK SC7SC1 SLP125=
CYYG;2005-02-10 10:00;METAR CYYG 101000Z 03005KT 15SM FEW010 OVC021 M02/M05 A2990 RMK SC1SC7 SLP128=
CYYG;2005-02-10 11:00;METAR CYYG 101100Z 06008KT 15SM -SHSN FEW010 BKN021 OVC040 M03/M06 A2990 RMK SC1SC5SC2 SLP128=
CYYG;2005-02-10 12:00;METAR CYYG 101200Z 04007KT 15SM -SHSN FEW010 FEW020 OVC041 M03/M05 A2990 RMK SC1SC2SC6 SLP128=
CYYG;2005-02-10 13:00;METAR CYYG 101300Z 05007KT 15SM -SHSN FEW010 OVC039 M03/M05 A2992 RMK SF1SC7 SLP133=
CYYG;2005-02-10 14:00;METAR CYYG 101400Z 02009KT 15SM -SHSN OVC030 M03/M05 A2993 RMK SC8 SLP139=
CYYG;2005-02-10 14:47;SPECI CYYG 101447Z 02008KT 15SM -SHSN SCT007 OVC030 RMK SF3SC5 VIS LWR E=
CYYG;2005-02-10 15:41;SPECI CYYG 101541Z 04011KT 2SM -SHSN OVC007 RMK SF8=
CYYG;2005-02-10 16:00;METAR CYYG 101600Z 04011KT 2SM -SHSN OVC007 M03/M04 A2989 RMK SF8 SLP125=
CYYG;2005-02-10 17:00;METAR CYYG 101700Z 04011KT 4SM -SHSN OVC007 M03/M04 A2989 RMK SF8 VIS LWR N-E SLP123=
CYYG;2005-02-10 18:00;METAR CYYG 101800Z 06011KT 6SM -SHSN OVC007 M02/M04 A2986 RMK SF8 VIS LWR N-E SLP113=
CYYG;2005-02-10 19:00;METAR CYYG 101900Z 05013KT 12SM VCSH OVC006 M03/M04 A2982 RMK SF8 VIS LWR E SLP100=
CYYG;2005-02-10 19:29;SPECI CYYG 101929Z 06012G17KT 15SM OVC007 RMK SF8=
CYYG;2005-02-10 20:00;METAR CYYG 102000Z 06014KT 15SM OVC006 M03/M04 A2982 RMK SF8 SLP099=
CYYG;2005-02-10 21:00;METAR CYYG 102100Z 07012KT 15SM OVC006 M03/M04 A2980 RMK SF8 SLP095=
CYYG;2005-02-10 21:46;SPECI CYYG 102146Z 07014KT 8SM -SN OVC005 RMK SF8=
CYYG;2005-02-10 22:00;METAR CYYG 102200Z 07013G19KT 8SM -SN OVC005 M03/M04 A2977 RMK SF8 SLP085=
CYYG;2005-02-10 23:00;METAR CYYG 102300Z 06012G17KT 4SM -SN OVC006 M03/M04 A2974 RMK SF8 SLP075=
CYYG;2005-02-10 23:45;SPECI CYYG 102345Z 07015KT 1SM -SN DRSN VV005 RMK SN8=
CYYG;2005-02-10 23:48;SPECI CYYG 102348Z 07015KT 1/2SM SN DRSN VV004 RMK SN8=
CYYG;2005-02-11 00:00;METAR CYYG 110000Z 07015KT 3/4SM -SN DRSN VV005 M03/M04 A2971 RESN RMK SN8 /S01/ SLP065=
CYYG;2005-02-11 00:16;SPECI CYYG 110016Z 07015KT 2SM -SN DRSN VV017 RMK SN8=
CYYG;2005-02-11 00:29;SPECI CYYG 110029Z 07014G19KT 1SM -SN DRSN VV006 RMK SN8=
CYYG;2005-02-11 00:43;SPECI CYYG 110043Z 06016KT 1 1/2SM -PLSN DRSN OVC011 RMK SN2SC6=
CYYG;2005-02-11 01:00;METAR CYYG 110100Z 08014KT 3/4SM -SN DRSN OVC010 M02/M03 A2969 RMK SN5SC3 /S01/ SLP056=
CYYG;2005-02-11 01:08;SPECI CYYG 110108Z 08013KT 1/8SM +SN DRSN VV002 RMK SN8=
CYYG;2005-02-11 01:17;SPECI CYYG 110117Z 08011G16KT 3/8SM SN DRSN VV004 RESN RMK SN8=
CYYG;2005-02-11 01:30;SPECI CYYG 110130Z 07015KT 3/4SM -SN DRSN OVC008 RESN RMK SN6SC2=
CYYG;2005-02-11 01:36;SPECI CYYG 110136Z 07018KT 1/2SM -PLSN DRSN VV005 RMK SN8=
CYYG;2005-02-11 01:40;SPECI CYYG 110140Z 07019KT 2SM -SNPL DRSN -FZRA OVC004 RESN RMK SN1SF7 D.B. TEMP -1.5=
CYYG;2005-02-11 01:51;SPECI CYYG 110151Z 08019G24KT 6SM -PL -FZRA BR BKN004 OVC040 RESN RMK SF6NS2=
CYYG;2005-02-11 02:00;METAR CYYG 110200Z 08018G24KT 10SM -PL -FZRA BKN004 OVC040 M01/M02 A2959 RESN RMK SF6NS2 PRESFR /S03/ SLP023=
CYYG;2005-02-11 02:28;SPECI CYYG 110228Z 09014G20KT 12SM FEW008 OVC033 REFZRA RMK SF2NS6 PRESFR D.B.TEMP -1.0=
CYYG;2005-02-11 02:54;SPECI CYYG 110254Z 09014G20KT 12SM -FZRA FEW008 OVC021 RMK SF1NS7 PRESFR=
CYYG;2005-02-11 03:00;METAR CYYG 110300Z 09016KT 8SM -FZRA FEW008 OVC021 M01/M03 A2954 RMK SF1NS7 SLP005=
CYYG;2005-02-11 03:51;SPECI CYYG 110351Z 10015KT 6SM -RA BR FEW008 OVC017 REFZRA RMK SF1NS8 D.B.TEMP 0.0=
CYYG;2005-02-11 04:00;METAR CYYG 110400Z 10015G21KT 6SM -RA BR FEW008 OVC014 00/M02 A2950 REFZRA RMK SF1NS8 SLP990=
CYYG;2005-02-11 05:00;METAR CYYG 110500Z 10013G19KT 4SM -RA BR OVC009 00/M01 A2942 RMK SF8 PRESFR SLP963=
CYYG;2005-02-11 06:00;METAR CYYG 110600Z 11014KT 6SM -RA BR OVC008 01/M01 A2932 RMK SF8 SLP931=
CYYG;2005-02-11 06:26;SPECI CYYG 110626Z 12022G27KT 6SM -RA BR OVC007 RMK SF8 PRESFR=
CYYG;2005-02-11 07:00;METAR CYYG 110700Z 12023G30KT 5SM RA BR OVC008 02/00 A2927 RMK SF8 SLP914=
CYYG;2005-02-11 07:12;SPECI CYYG 110712Z 12022G27KT 10SM -TSRA OVC008 RMK SF8 CB ASOCTD OCNL LTGIC S=
CYYG;2005-02-11 07:30;SPECI CYYG 110730Z 12022G31KT 6SM -SHRA BR OVC008 RETSRA RMK SF8=
CYYG;2005-02-11 08:00;METAR CYYG 110800Z 13018G27KT 6SM -RA BR OVC007 03/01 A2923 RETSRA RMK SF8 SLP900=
CYYG;2005-02-11 09:00;METAR CYYG 110900Z 14012KT 10SM -RA OVC009 03/02 A2923 RMK SF8 SLP901=
CYYG;2005-02-11 10:00;METAR CYYG 111000Z 16012G17KT 12SM -SHRA OVC009 04/03 A2922 RMK SF8 SLP896=
CYYG;2005-02-11 10:31;SPECI CYYG 111031Z 13012KT 3SM -SHRA BR BKN002 OVC007 RMK SF5SF3=
CYYG;2005-02-11 11:00;METAR CYYG 111100Z 12010KT 10SM -SHRA BKN003 OVC008 03/02 A2918 RMK SF5SF3 SLP883=
CYYG;2005-02-11 11:49;SPECI CYYG 111149Z 13009KT 10SM -SHRA SCT003 BKN008 OVC038 RMK SF3SF2SC2=
CYYG;2005-02-11 12:00;METAR CYYG 111200Z 15010KT 10SM -SHRA SCT003 BKN008 OVC025 04/03 A2917 RMK SF3SF2SC3 SLP880=
CYYG;2005-02-11 13:00;METAR CYYG 111300Z 14011KT 10SM SCT003 BKN008 OVC040 04/04 A2915 RMK SF3SF2SC2 SLP874=
CYYG;2005-02-11 13:43;SPECI CYYG 111343Z 16011KT 6SM BR BKN004 OVC040 RMK SF7SC1=
CYYG;2005-02-11 14:00;METAR CYYG 111400Z 16011KT 6SM BR OVC004 04/03 A2915 RMK SF8 SLP873=
CYYG;2005-02-11 14:16;SPECI CYYG 111416Z 16014KT 6SM BR BKN002 OVC007 RMK SF6SF2=
CYYG;2005-02-11 14:27;SPECI CYYG 111427Z 17011KT 2SM BR OVC002 RMK SF8=
CYYG;2005-02-11 14:35;SPECI CYYG 111435Z 17011KT 1SM BR OVC002 RMK SF8=
CYYG;2005-02-11 14:47;SPECI CYYG 111447Z 18013KT 2SM BR BKN002 OVC013 RMK SF6SC2=
CYYG;2005-02-11 15:00;METAR CYYG 111500Z 19015KT 10SM SCT002 OVC011 03/03 A2915 RMK SF4SC4 SLP874=
CYYG;2005-02-11 15:25;SPECI CYYG 111525Z 21012KT 12SM FEW002 OVC008 RMK SF2SF6=
CYYG;2005-02-11 16:00;METAR CYYG 111600Z 19010KT 12SM OVC004 02/01 A2917 RMK SF8 SLP879=
CYYG;2005-02-11 17:00;METAR CYYG 111700Z 18014KT 10SM OVC006 01/00 A2916 RMK SF8 SLP875=
CYYG;2005-02-11 18:00;METAR CYYG 111800Z 18015KT 12SM OVC007 01/M01 A2912 RMK SF8 SLP861=
CYYG;2005-02-11 20:00;METAR CYYG 112000Z 17017G22KT 15SM SCT009 OVC028 02/M02 A2909 RMK SF3SC5 SLP853=
CYYG;2005-02-11 21:00;METAR CYYG 112100Z 20015KT 15SM FEW009 OVC028 01/M02 A2909 RMK SF2SC6 SLP854=
CYYG;2005-02-11 22:00;METAR CYYG 112200Z 21012KT 15SM OVC026 01/M03 A2909 RMK SC8 SLP851=
CYYG;2005-02-11 23:00;METAR CYYG 112300Z 20009KT 15SM OVC032 00/M03 A2908 RMK SC8 SLP850=
CYYG;2005-02-12 01:00;METAR CYYG 120100Z 19011KT 15SM FEW030 SCT180 M01/M04 A2905 RMK SC2AC2 SLP839=
CYYG;2005-02-12 02:00;METAR CYYG 120200Z 20014KT 15SM FEW030 SCT180 M01/M05 A2902 RMK SC2AC2 SLP830=
CYYG;2005-02-12 03:00;METAR CYYG 120300Z 19016KT 15SM FEW030 SCT058 M02/M06 A2900 RMK SC2SC2 SLP822=
CYYG;2005-02-12 04:00;METAR CYYG 120400Z 20014G19KT 15SM BKN040 M02/M06 A2899 RMK SC6 SLP818=
CYYG;2005-02-12 04:13;SPECI CYYG 120413Z 20014G19KT 15SM -SHSN BKN041 OVC048 RMK SC6SC2=
CYYG;2005-02-12 05:00;METAR CYYG 120500Z 20014KT 15SM -SHSN OVC044 M02/M06 A2898 RMK SC8 SLP816=
CYYG;2005-02-12 06:00;METAR CYYG 120600Z 20014KT 10SM -SHSN BKN021 OVC044 M03/M05 A2898 RMK SC6SC2 SLP817=
CYYG;2005-02-12 07:00;METAR CYYG 120700Z 21011KT 6SM -SN FEW008 OVC020 M03/M05 A2898 RMK SF2SC6 SLP817=
CYYG;2005-02-12 08:00;METAR CYYG 120800Z 20012KT 4SM -SN FEW006 OVC012 M03/M04 A2899 RMK SF2SC6 SLP819=
CYYG;2005-02-12 09:00;METAR CYYG 120900Z 22013G18KT 6SM -SN BKN008 OVC012 M03/M04 A2900 RMK SF6SC2 SLP823=
CYYG;2005-02-12 10:00;METAR CYYG 121000Z 24014G21KT 12SM -SN DRSN FEW018 BKN030 OVC047 M05/M07 A2906 RMK SC2SC3SC3 SLP841=
CYYG;2005-02-12 11:00;METAR CYYG 121100Z 25016G29KT 10SM -SN DRSN SCT013 BKN030 M06/M08 A2910 RMK SC3SC3 SLP855=
CYYG;2005-02-12 11:44;SPECI CYYG 121144Z 25015G21KT 15SM DRSN FEW016 BKN021 BKN100 RMK SC2SC5AC1=
CYYG;2005-02-12 12:00;METAR CYYG 121200Z 25016G21KT 15SM DRSN FEW016 BKN020 M06/M10 A2915 RMK SC1SC6 /S01/ SLP874=
CYYG;2005-02-12 13:00;METAR CYYG 121300Z 24014G22KT 15SM DRSN BKN024 M05/M10 A2920 RMK SC7 SLP890=
CYYG;2005-02-12 13:53;SPECI CYYG 121353Z 25018G27KT 15SM -SN DRSN OVC024 RMK SC8=
CYYG;2005-02-12 14:00;METAR CYYG 121400Z 25017G27KT 15SM -SN DRSN OVC024 M05/M10 A2923 RMK SC8 SLP899=
CYYG;2005-02-12 15:00;METAR CYYG 121500Z 24014G22KT 10SM -SN DRSN BKN025 M05/M10 A2925 RMK SC7 SLP908=
CYYG;2005-02-12 15:48;SPECI CYYG 121548Z 24019G27KT 15SM DRSN FEW025 RMK SC2 VIS LWR E=
CYYG;2005-02-12 16:00;METAR CYYG 121600Z 25019G27KT 15SM DRSN FEW025 M04/M10 A2926 RMK SC2 VIS LWR E SLP912=
CYYG;2005-02-12 17:00;METAR CYYG 121700Z 24019G25KT 15SM FEW030 M03/M10 A2928 RMK SC1 SLP918=
CYYG;2005-02-12 18:00;METAR CYYG 121800Z 25020G25KT 15SM FEW030 M02/M10 A2931 RMK SC1 SLP926=
CYYG;2005-02-12 19:00;METAR CYYG 121900Z 25016G21KT 15SM FEW030 FEW250 M02/M10 A2933 RMK SC1CI1 SLP936=
CYYG;2005-02-12 20:00;METAR CYYG 122000Z 24014G19KT 15SM FEW030 FEW250 M01/M09 A2938 RMK CU1CI0 SLP952=
CYYG;2005-02-12 21:00;METAR CYYG 122100Z 26012KT 15SM FEW250 M02/M09 A2941 RMK CI0 SLP962=
CYYG;2005-02-12 22:00;METAR CYYG 122200Z 26008KT 15SM FEW250 M03/M09 A2946 RMK CI1 SLP977=
CYYG;2005-02-12 23:00;METAR CYYG 122300Z 25009KT 15SM FEW250 M03/M08 A2951 RMK CI1 SLP994=
CYYG;2005-02-13 00:00;METAR CYYG 130000Z 24007KT 15SM FEW250 M04/M08 A2956 RMK CI1 SLP014=
CYYG;2005-02-13 01:00;METAR CYYG 130100Z 21006KT 15SM FEW250 M04/M09 A2960 RMK CI1 SLP026=
CYYG;2005-02-13 02:00;METAR CYYG 130200Z 19003KT 15SM FEW250 M05/M09 A2962 RMK CI1 SLP032=
CYYG;2005-02-13 03:00;METAR CYYG 130300Z 19003KT 15SM SKC M06/M09 A2963 RMK SLP037=
CYYG;2005-02-13 04:00;METAR CYYG 130400Z 26004KT 15SM SKC M06/M09 A2963 RMK SLP036=
CYYG;2005-02-13 05:00;METAR CYYG 130500Z 26003KT 15SM SKC M08/M11 A2963 RMK SLP036=
CYYG;2005-02-13 06:00;METAR CYYG 130600Z 17002KT 15SM SKC M08/M10 A2966 RMK SLP047=
CYYG;2005-02-13 07:00;METAR CYYG 130700Z 00000KT 15SM SKC M09/M11 A2968 RMK SLP052=
CYYG;2005-02-13 08:00;METAR CYYG 130800Z 28003KT 15SM SKC M13/M15 A2968 RMK SLP054=
CYYG;2005-02-13 09:00;METAR CYYG 130900Z 32005KT 15SM SKC M09/M11 A2969 RMK SLP057=
CYYG;2005-02-13 10:00;METAR CYYG 131000Z 32005KT 15SM SKC M10/M12 A2972 RMK SLP068=
CYYG;2005-02-13 11:00;METAR CYYG 131100Z 31006KT 15SM FEW250 M09/M11 A2974 RMK CI1 SLP074=
CYYG;2005-02-13 12:00;METAR CYYG 131200Z 32005KT 15SM FEW100 FEW250 M09/M11 A2977 RMK AC2CI1 SLP083=
CYYG;2005-02-13 13:00;METAR CYYG 131300Z 32007KT 15SM FEW100 SCT250 M06/M09 A2978 RMK AC2CI1 SLP087=
CYYG;2005-02-13 14:00;METAR CYYG 131400Z 32010G15KT 15SM BKN100 BKN250 M05/M09 A2980 RMK AC6CI1 SLP095=
CYYG;2005-02-13 15:00;METAR CYYG 131500Z 32011KT 15SM FEW020 BKN110 BKN250 M05/M09 A2982 RMK CU1AC6CI0 SLP101=
CYYG;2005-02-13 16:00;METAR CYYG 131600Z 33008KT 15SM FEW020 BKN110 BKN250 M04/M09 A2983 RMK CU1AC6CI1 SLP104=
CYYG;2005-02-13 17:00;METAR CYYG 131700Z 33011KT 15SM FEW017 BKN100 M05/M10 A2985 RMK SC2AC6 SLP111=
CYYG;2005-02-13 18:00;METAR CYYG 131800Z 33011KT 15SM FEW021 BKN110 M05/M10 A2987 RMK SC2AC6 SLP119=
CYYG;2005-02-13 19:00;METAR CYYG 131900Z 33009G15KT 15SM SCT025 BKN110 M05/M10 A2991 RMK SC3AC3 SLP132=
CYYG;2005-02-13 20:00;METAR CYYG 132000Z 33007KT 15SM FEW025 BKN110 M05/M10 A2995 RMK SC2AC3 SLP144=
CYYG;2005-02-13 21:00;METAR CYYG 132100Z 34005KT 15SM FEW020 SCT110 M06/M11 A2998 RMK SC2AC1 SLP155=
CYYG;2005-02-13 22:00;METAR CYYG 132200Z 33005KT 15SM FEW020 FEW110 M07/M11 A3002 RMK SC1AC1 SLP169=
CYYG;2005-02-13 23:00;METAR CYYG 132300Z 29003KT 15SM FEW020 FEW040 M08/M11 A3006 RMK SC1SC1 SLP181=
CYYG;2005-02-14 00:00;METAR CYYG 140000Z 27004KT 15SM FEW040 M07/M11 A3009 RMK SC2 SLP192=
CYYG;2005-02-14 02:00;METAR CYYG 140200Z 28006KT 15SM SCT032 M08/M12 A3014 RMK SC3 SLP211=
CYYG;2005-02-14 03:00;METAR CYYG 140300Z 29007KT 15SM FEW030 M08/M12 A3017 RMK SC2 SLP219=
CYYG;2005-02-14 04:00;METAR CYYG 140400Z 30006KT 15SM FEW030 M08/M12 A3020 RMK SC1 SLP228=
CYYG;2005-02-14 05:00;METAR CYYG 140500Z 31004KT 15SM SKC M10/M12 A3023 RMK SLP240=
CYYG;2005-02-14 06:00;METAR CYYG 140600Z 28007KT 15SM SKC M10/M13 A3026 RMK SLP252=
CYYG;2005-02-14 07:00;METAR CYYG 140700Z 29009KT 15SM SKC M10/M13 A3029 RMK SLP262=
CYYG;2005-02-14 08:00;METAR CYYG 140800Z 28008KT 15SM SKC M10/M13 A3032 RMK SLP272=
CYYG;2005-02-14 09:00;METAR CYYG 140900Z 30008KT 15SM SKC M10/M13 A3036 RMK SLP285=
CYYG;2005-02-14 10:00;METAR CYYG 141000Z 31006KT 15SM SKC M11/M14 A3038 RMK SLP291=
CYYG;2005-02-14 11:00;METAR CYYG 141100Z 30007KT 15SM SKC M11/M14 A3041 RMK SLP302=
CYYG;2005-02-14 12:00;METAR CYYG 141200Z 33005KT 15SM FEW020 M12/M14 A3046 RMK SC1 SLP318=
CYYG;2005-02-14 13:00;METAR CYYG 141300Z 30005KT 15SM FEW020 M10/M13 A3049 RMK SC1 SLP329=
CYYG;2005-02-14 14:00;METAR CYYG 141400Z 32005KT 15SM FEW020 M09/M12 A3052 RMK SC1 SLP340=
CYYG;2005-02-14 15:00;METAR CYYG 141500Z 33009KT 15SM FEW020 FEW260 M07/M12 A3054 RMK SC1CI0 SLP346=
CYYG;2005-02-14 16:00;METAR CYYG 141600Z 02008KT 15SM FEW020 FEW260 M07/M11 A3056 RMK SC1CI1 SLP351=
CYYG;2005-02-14 17:00;METAR CYYG 141700Z 03007KT 15SM FEW020 SCT260 M07/M11 A3056 RMK SC1CI1 SLP352=
CYYG;2005-02-14 18:00;METAR CYYG 141800Z 03003KT 15SM FEW020 BKN260 M06/M11 A3055 RMK SC1CI1 SLP350=
CYYG;2005-02-14 20:00;METAR CYYG 142000Z 00000KT 15SM FEW020 SCT260 M06/M11 A3058 RMK SC1CI1 SLP359=
CYYG;2005-02-14 21:00;METAR CYYG 142100Z 16003KT 15SM FEW020 FEW260 M06/M12 A3058 RMK SC1CI0 SLP359=
CYYG;2005-02-14 22:00;METAR CYYG 142200Z 08002KT 15SM FEW260 M08/M12 A3059 RMK CI1 SLP362=
CYYG;2005-02-14 23:00;METAR CYYG 142300Z 08008KT 15SM FEW260 M10/M13 A3058 RMK CI1 SLP357=
CYYG;2005-02-15 00:00;METAR CYYG 150000Z 12005KT 15SM FEW260 M10/M14 A3058 RMK CI1 SLP361=
CYYG;2005-02-15 01:00;METAR CYYG 150100Z 14003KT 15SM FEW260 M10/M13 A3059 RMK CI1 SLP364=
CYYG;2005-02-15 02:00;METAR CYYG 150200Z 12008KT 15SM FEW260 M10/M12 A3056 RMK CI1 SLP354=
CYYG;2005-02-15 03:00;METAR CYYG 150300Z 13007KT 15SM FEW260 M10/M12 A3055 RMK CI1 SLP350=
CYYG;2005-02-15 04:00;METAR CYYG 150400Z 14005KT 15SM FEW260 M10/M13 A3054 RMK CI1 SLP346=
CYYG;2005-02-15 05:00;METAR CYYG 150500Z 15009KT 15SM FEW260 M09/M12 A3052 RMK CI1 SLP339=
CYYG;2005-02-15 06:00;METAR CYYG 150600Z 16010KT 15SM FEW260 M08/M11 A3051 RMK CI1 SLP334=
CYYG;2005-02-15 07:00;METAR CYYG 150700Z 16009KT 15SM SCT250 M08/M11 A3049 RMK CI2 SLP327=
CYYG;2005-02-15 08:00;METAR CYYG 150800Z 17009KT 15SM SCT260 M07/M10 A3046 RMK CI2 SLP317=
CYYG;2005-02-15 09:00;METAR CYYG 150900Z 16013KT 15SM SCT210 M06/M09 A3043 RMK CI3 SLP308=
CYYG;2005-02-15 10:00;METAR CYYG 151000Z 16013KT 15SM SCT210 M06/M09 A3041 RMK CI3 SLP302=
CYYG;2005-02-15 11:00;METAR CYYG 151100Z 16015KT 15SM FEW140 OVC230 M05/M08 A3039 RMK AC2CS4 FROIN SLP293=
CYYG;2005-02-15 12:00;METAR CYYG 151200Z 16016KT 15SM SCT130 OVC210 M04/M07 A3038 RMK AC3CS4 SLP291=
CYYG;2005-02-15 14:00;METAR CYYG 151400Z 16018G24KT 15SM DRSN BKN070 OVC100 M02/M05 A3033 RMK AC5AS3 SLP273=
CYYG;2005-02-15 15:00;METAR CYYG 151500Z 16015G26KT 15SM DRSN FEW025 SCT070 OVC100 M01/M04 A3030 RMK SC2AC2AS5 SLP264=
CYYG;2005-02-15 15:40;SPECI CYYG 151540Z 16019G28KT 15SM DRSN BKN021 OVC100 RMK SC6AS2=
CYYG;2005-02-15 15:47;SPECI CYYG 151547Z 15018G27KT 15SM -SHSN DRSN BKN020 OVC100 RMK SC7AS1=
CYYG;2005-02-15 16:00;METAR CYYG 151600Z 16022KT 15SM -SHSN DRSN BKN020 OVC100 M00/M04 A3024 RMK SC7AS1 PRESFR SLP244=
CYYG;2005-02-15 16:34;SPECI CYYG 151634Z 15021G26KT 15SM -SHSNPL DRSN BKN030 OVC100 RMK SC7AS1=
CYYG;2005-02-15 16:55;SPECI CYYG 151655Z 16024KT 12SM -PLRA DRSN BKN030 OVC100 RMK SC7AS1=
CYYG;2005-02-15 17:00;METAR CYYG 151700Z 16023G28KT 10SM -RAPL OVC028 00/M03 A3017 RMK SC8 PRESFR SLP220=
CYYG;2005-02-15 18:00;METAR CYYG 151800Z 15020G30KT 5SM -RASNPL SCT019 VV030 01/M02 A3013 RMK SC3SN5 SLP207=
CYYG;2005-02-15 18:11;SPECI CYYG 151811Z 15019G24KT 1 1/2SM -RASNPL OVC019 RMK SN5SC3=
CYYG;2005-02-15 18:44;SPECI CYYG 151844Z 15018G25KT 7SM -RASN OVC017 RMK SC8=
CYYG;2005-02-15 19:00;METAR CYYG 151900Z 16018G24KT 10SM -RASN OVC017 01/M01 A3010 RMK SC8 SLP197=
CYYG;2005-02-15 19:40;SPECI CYYG 151940Z 16020G28KT 15SM -RA OVC017 RMK SC8=
CYYG;2005-02-15 20:00;METAR CYYG 152000Z 16021G27KT 15SM OVC015 02/M00 A3007 RMK SC8 SLP187=
CYYG;2005-02-15 21:00;METAR CYYG 152100Z 16018G25KT 15SM BKN010 OVC015 02/00 A3005 RMK SC6SC2 SLP178=
CYYG;2005-02-15 21:38;SPECI CYYG 152138Z 16022G28KT 15SM -SHRA FEW007 OVC012 RMK SF2SC6=
CYYG;2005-02-15 22:00;METAR CYYG 152200Z 16022G27KT 15SM -SHRA SCT006 OVC012 03/01 A3001 RMK SF3SC5 SLP165=
CYYG;2005-02-15 23:00;METAR CYYG 152300Z 17018KT 15SM -SHRA FEW006 OVC012 02/01 A3001 RMK SF2SC6 SLP163=
CYYG;2005-02-16 00:00;METAR CYYG 160000Z 17014KT 15SM -SHRA SCT005 OVC011 02/01 A3001 RMK SF4SC4 SLP165=
CYYG;2005-02-16 00:42;SPECI CYYG 160042Z 17015G20KT 15SM BKN004 OVC011 RMK SF6SC2=
CYYG;2005-02-16 01:00;METAR CYYG 160100Z 18013G19KT 15SM BKN004 OVC011 03/02 A3001 RMK SF5SC3 SLP164=
CYYG;2005-02-16 02:00;METAR CYYG 160200Z 17013KT 15SM FEW003 OVC006 02/01 A2999 RMK SF2SF6 SLP159=
CYYG;2005-02-16 02:35;SPECI CYYG 160235Z 18010KT 10SM BKN003 OVC005 RMK SF6SF2=
CYYG;2005-02-16 03:00;METAR CYYG 160300Z 18010G15KT 10SM BKN003 OVC005 02/01 A3000 RMK SF6SF2 SLP162=
CYYG;2005-02-16 03:49;SPECI CYYG 160349Z 20006KT 2SM BR OVC002 RMK SF8=
CYYG;2005-02-16 04:00;METAR CYYG 160400Z 18006KT 1SM BR OVC002 02/01 A3000 RMK SF8 SLP162=
CYYG;2005-02-16 05:00;METAR CYYG 160500Z 21007KT 5/8SM BR OVC002 03/02 A3000 RMK SF8 SLP162=
CYYG;2005-02-16 06:00;METAR CYYG 160600Z 23005KT 1/2SM FG VV002 03/02 A3000 RMK FG8 RVR RWY03 2200 FT SLP162=
CYYG;2005-02-16 07:00;METAR CYYG 160700Z 26003KT 5/8SM BR BKN002 OVC019 04/03 A3001 RMK SF6SC2 SLP166=
CYYG;2005-02-16 08:00;METAR CYYG 160800Z 24002KT 1/2SM FG VV002 03/02 A3002 RMK FG8 RVR RWY03 2200 FT SLP168=
CYYG;2005-02-16 09:00;METAR CYYG 160900Z 22002KT 1/8SM FG VV001 02/01 A3003 RMK FG8 RVR RWY03 1000 FT SLP170=
CYYG;2005-02-16 09:43;SPECI CYYG 160943Z 19002KT 1/4SM FG VV001 RMK FG8 RVR RWY03 1600 FT=
CYYG;2005-02-16 09:47;SPECI CYYG 160947Z 00000KT 1/2SM FG VV001 RMK FG8 RVR RWY03 2800 FT=
CYYG;2005-02-16 09:56;SPECI CYYG 160956Z 22002KT 3/4SM BR SKC RMK FG4 RVR RWY03 5000 FT=
CYYG;2005-02-16 10:00;METAR CYYG 161000Z 22003KT 2SM BR SKC 01/00 A3001 RMK FG2 SLP166=
CYYG;2005-02-16 10:27;SPECI CYYG 161027Z 22003KT 3/8SM FG BKN250 RMK FG4CI2 RVR RWY03 1800 FT=
CYYG;2005-02-16 10:50;SPECI CYYG 161050Z 00000KT 1/2SM FG BKN250 RMK FG3CI3 RVR RWY03 2600 FT=
CYYG;2005-02-16 11:00;METAR CYYG 161100Z 20002KT 1/2SM FZFG BKN250 M00/M01 A3002 RMK FG3CI3 RVR RWY03 2600 FT SLP167=
CYYG;2005-02-16 11:11;SPECI CYYG 161111Z 17004KT 3/8SM FZFG BKN250 RMK FG5CI2 D.B. TEMP -0.4=
CYYG;2005-02-16 11:18;SPECI CYYG 161118Z 18002KT 1/4SM FZFG OVC250 RMK FG6CI2 FOG LYR 100FT THK=
CYYG;2005-02-16 12:00;METAR CYYG 161200Z 16004KT 1/8SM FG OVC280 00/M00 A3002 RMK FG6CI1 FOG LYR 100FT THK SLP168=
CYYG;2005-02-16 12:48;SPECI CYYG 161248Z 15003KT 0SM FG OVC250 RMK FG6CI1 FOG LYR 150FT THK RVR RWY03 0600FT=
CYYG;2005-02-16 13:00;METAR CYYG 161300Z 15005KT 0SM FG OVC280 01/00 A3002 RMK FG6CI1 FOG LYR 150FT THK RVR RWY03 0600FT SLP169=
CYYG;2005-02-16 13:22;SPECI CYYG 161322Z 16003KT 1/8SM FG OVC280 RMK FG6CI1 FOG LYR 200FT THK=
CYYG;2005-02-16 14:00;METAR CYYG 161400Z 16003KT 1/8SM FG SKC 01/01 A3001 RMK FG7 RVR RWY03 0500FT SLP163=
CYYG;2005-02-16 14:33;SPECI CYYG 161433Z 19002KT 1SM BR PRFG BKN280 RMK CI2 RVR RWY03 1100FT F BNK NE-S VIS 1/4=
CYYG;2005-02-16 14:51;SPECI CYYG 161451Z 20003KT 6SM BR PRFG FEW140 BKN280 RMK AC2CI2 VIS N 1/2=
CYYG;2005-02-16 15:00;METAR CYYG 161500Z 20004KT 6SM BR PRFG FEW140 BKN280 03/02 A2999 RMK AC2CI2 VIS N 1/2 FG BANK W MOVG NE SLP157=
CYYG;2005-02-16 15:17;SPECI CYYG 161517Z 18004KT 15SM FEW140 BKN280 RMK AC2CI1 FG BANK W MOVG N=
CYYG;2005-02-16 16:00;METAR CYYG 161600Z 16005KT 15SM FEW150 BKN280 04/02 A2995 RMK AC2CI2 SLP145=
CYYG;2005-02-16 17:00;METAR CYYG 161700Z 17006KT 15SM BKN160 BKN280 04/02 A2991 RMK AC5CI2 SLP130=
CYYG;2005-02-16 18:00;METAR CYYG 161800Z 16008KT 15SM BKN170 04/02 A2988 RMK AC7 SLP119=
CYYG;2005-02-16 19:00;METAR CYYG 161900Z 17010KT 15SM BKN170 05/02 A2986 RMK AC7 SLP113=
CYYG;2005-02-16 20:00;METAR CYYG 162000Z 17008KT 15SM BKN120 BKN180 04/02 A2985 RMK AC6AC2 VIRGA SLP110=
CYYG;2005-02-16 21:00;METAR CYYG 162100Z 17008KT 15SM BKN130 BKN280 04/02 A2983 RMK AC6CI0 VIRGA SLP103=
CYYG;2005-02-16 22:00;METAR CYYG 162200Z 17009KT 15SM SCT130 BKN280 04/02 A2982 RMK AC4CI2 SLP100=
CYYG;2005-02-16 23:00;METAR CYYG 162300Z 16008KT 15SM BKN110 BKN280 04/02 A2981 RMK AC5CI2 SLP096=
CYYG;2005-02-17 00:00;METAR CYYG 170000Z 15008KT 15SM BKN110 BKN280 05/02 A2979 RMK AC6CI2 SLP089=
CYYG;2005-02-17 01:00;METAR CYYG 170100Z 16013G18KT 15SM BKN110 BKN280 04/02 A2977 RMK AC6CI2 SLP082=
CYYG;2005-02-17 02:00;METAR CYYG 170200Z 16010KT 12SM FEW010 BKN110 OVC220 04/03 A2975 RMK SF2AC4CI2 SLP075=
CYYG;2005-02-17 02:38;SPECI CYYG 170238Z 16011G16KT 12SM SCT003 OVC012 RMK SF3SC5=
CYYG;2005-02-17 03:00;METAR CYYG 170300Z 16011G18KT 4SM BR BKN003 OVC012 05/04 A2971 RMK SF6SC2 SLP063=
CYYG;2005-02-17 03:11;SPECI CYYG 170311Z 15010G15KT 1 1/2SM BR OVC002 RMK SF8=
CYYG;2005-02-17 03:14;SPECI CYYG 170314Z 15012KT 4SM BR OVC003 RMK SF8=
CYYG;2005-02-17 03:40;SPECI CYYG 170340Z 14011G17KT 4SM BR OVC002 RMK SF8=
CYYG;2005-02-17 04:00;METAR CYYG 170400Z 15011KT 3SM BR OVC002 06/05 A2967 RMK SF8 SLP048=
CYYG;2005-02-17 04:28;SPECI CYYG 170428Z 13009KT 1/2SM FG VV002 RMK FG8 RVR RWY03 2600 FT=
CYYG;2005-02-17 04:43;SPECI CYYG 170443Z 14009KT 1SM -DZ BR VV003 RMK FG8=
CYYG;2005-02-17 05:00;METAR CYYG 170500Z 14010KT 1 1/2SM -DZ BR VV003 06/05 A2963 RMK FG8 SLP034=
CYYG;2005-02-17 06:00;METAR CYYG 170600Z 15013KT 3/4SM -DZ BR VV002 05/05 A2959 RMK FG8 SLP021=
CYYG;2005-02-17 06:09;SPECI CYYG 170609Z 16014KT 3/8SM -DZ FG VV001 RMK FG8 RVR RWY03 1800 FT=
CYYG;2005-02-17 07:00;METAR CYYG 170700Z 16014G19KT 1/4SM -DZ FG VV001 05/05 A2955 RMK FG8 RVR RWY03 1200 FT SLP010=
CYYG;2005-02-17 08:00;METAR CYYG 170800Z 16016G22KT 3/4SM -DZ BR VV002 05/05 A2950 RMK FG8 SLP993=
CYYG;2005-02-17 09:00;METAR CYYG 170900Z 16015G20KT 4SM -DZ BR OVC004 05/04 A2950 RMK SF8 SLP991=
CYYG;2005-02-17 10:00;METAR CYYG 171000Z 16015G20KT 12SM -DZ OVC005 05/04 A2949 RMK SF8 SLP987=
CYYG;2005-02-17 10:51;SPECI CYYG 171051Z 16015G20KT 10SM -DZ BKN003 OVC010 RMK SF6SF2=
CYYG;2005-02-17 11:00;METAR CYYG 171100Z 17016KT 15SM BKN003 OVC008 04/04 A2947 RMK SF6SF2 SLP983=
CYYG;2005-02-17 11:18;SPECI CYYG 171118Z 16016G21KT 6SM -RA BR OVC003 RMK SF8=
CYYG;2005-02-17 12:00;METAR CYYG 171200Z 17014KT 10SM -SHRA BKN003 OVC014 05/04 A2947 RMK SF6SF2 SLP980=
CYYG;2005-02-17 12:25;SPECI CYYG 171225Z 17016KT 10SM -SHRA SCT003 OVC009 RMK SF4SF4=
CYYG;2005-02-17 13:00;METAR CYYG 171300Z 18015KT 10SM -SHRA OVC008 05/04 A2946 RMK SF8 SLP978=
CYYG;2005-02-17 13:27;SPECI CYYG 171327Z 18010KT 10SM OVC009 RMK SF8=
CYYG;2005-02-17 14:00;METAR CYYG 171400Z 19010KT 6SM BR FEW003 OVC007 04/03 A2947 RMK SF2SF6 SLP980=
CYYG;2005-02-17 14:33;SPECI CYYG 171433Z 18011KT 10SM BKN010 OVC019 RMK SC5SC3=
CYYG;2005-02-17 15:00;METAR CYYG 171500Z 20010KT 12SM SCT010 OVC020 04/03 A2947 RMK SF4SC4 SLP979=
CYYG;2005-02-17 16:00;METAR CYYG 171600Z 24008KT 15SM FEW010 OVC021 04/02 A2946 RMK SF2SC6 SLP978=
CYYG;2005-02-17 17:00;METAR CYYG 171700Z 26009G15KT 12SM FEW005 BKN009 OVC020 03/01 A2946 RMK SF2SF3SC3 VIS LWR W-N SLP978=
CYYG;2005-02-17 17:04;SPECI CYYG 171704Z 26008G15KT 10SM -DZ SCT004 BKN007 OVC020 RMK SF3SF4SC1 VIS LWR W-N=
CYYG;2005-02-17 18:00;METAR CYYG 171800Z 27008KT 15SM OVC011 01/M00 A2948 RMK SC8 SLP984=
CYYG;2005-02-17 19:00;METAR CYYG 171900Z 28009KT 15SM OVC012 01/M02 A2950 RMK SC8 SLP991=
CYYG;2005-02-17 20:00;METAR CYYG 172000Z 29012KT 15SM OVC014 M01/M04 A2952 RMK SC8 SLP997=
CYYG;2005-02-17 21:00;METAR CYYG 172100Z 29009KT 15SM OVC019 M01/M05 A2955 RMK SC8 SLP009=
CYYG;2005-02-17 22:00;METAR CYYG 172200Z 31012KT 15SM OVC019 M01/M06 A2957 RMK SC8 SLP015=
CYYG;2005-02-17 23:00;METAR CYYG 172300Z 30007KT 15SM OVC024 M01/M06 A2958 RMK SC8 SLP017=
CYYG;2005-02-18 00:00;METAR CYYG 180000Z 32014G19KT 15SM BKN021 OVC028 M02/M06 A2959 RMK SC6SC2 SLP022=
CYYG;2005-02-18 01:00;METAR CYYG 180100Z 33007G18KT 15SM FEW028 FEW180 M03/M08 A2961 RMK SC1AC2 SLP028=
CYYG;2005-02-18 02:00;METAR CYYG 180200Z 34011G18KT 15SM BKN022 M03/M08 A2961 RMK SC7 SLP029=
CYYG;2005-02-18 03:00;METAR CYYG 180300Z 34009G15KT 15SM SCT026 BKN160 M04/M09 A2960 RMK SC4AC2 SLP025=
CYYG;2005-02-18 04:00;METAR CYYG 180400Z 32009G15KT 15SM FEW021 BKN160 M04/M09 A2960 RMK SC2AC2 SLP027=
CYYG;2005-02-18 05:00;METAR CYYG 180500Z 34011G19KT 15SM BKN022 M04/M09 A2958 RMK SC7 SLP020=
CYYG;2005-02-18 06:00;METAR CYYG 180600Z 34009G18KT 15SM BKN019 OVC029 M04/M08 A2959 RMK SC6SC2 SLP023=
CYYG;2005-02-18 07:00;METAR CYYG 180700Z 34011KT 15SM BKN018 OVC024 M04/M09 A2959 RMK SC5SC3 SLP021=
CYYG;2005-02-18 08:00;METAR CYYG 180800Z 34008G16KT 15SM -SHSN FEW018 OVC029 M04/M09 A2960 RMK SC2SC6 SLP025=
CYYG;2005-02-18 09:00;METAR CYYG 180900Z 36009KT 15SM FEW021 OVC035 M04/M10 A2960 RMK SC2SC6 SLP027=
CYYG;2005-02-18 10:00;METAR CYYG 181000Z 34013KT 15SM BKN019 OVC035 M05/M09 A2960 RMK SC6SC2 SLP027=
CYYG;2005-02-18 11:00;METAR CYYG 181100Z 34009G16KT 15SM BKN022 OVC035 M05/M10 A2961 RMK SC6SC2 SLP029=
CYYG;2005-02-18 12:00;METAR CYYG 181200Z 35012KT 15SM BKN020 OVC040 M06/M10 A2961 RMK SC5SC3 SLP031=
CYYG;2005-02-18 13:00;METAR CYYG 181300Z 35014G20KT 15SM FEW020 SCT040 BKN240 M06/M11 A2961 RMK SC2SC2CI2 SLP029=
CYYG;2005-02-18 14:00;METAR CYYG 181400Z 34014KT 15SM BKN022 BKN240 M06/M11 A2962 RMK SC5CI2 SLP033=
CYYG;2005-02-18 15:00;METAR CYYG 181500Z 33015KT 15SM BKN024 BKN240 M06/M11 A2961 RMK SC5CI1 SLP031=
CYYG;2005-02-18 16:00;METAR CYYG 181600Z 35013G18KT 15SM SCT024 BKN240 M05/M11 A2961 RMK SC3CI2 SLP029=
CYYG;2005-02-18 17:00;METAR CYYG 181700Z 32013G18KT 15SM SCT024 BKN240 M05/M11 A2961 RMK SC3CI2 SLP029=
CYYG;2005-02-18 18:00;METAR CYYG 181800Z 32011G17KT 15SM FEW028 BKN240 M05/M12 A2961 RMK SC2CI2 SLP030=
CYYG;2005-02-18 19:00;METAR CYYG 181900Z 31014KT 15SM FEW022 BKN240 M05/M11 A2962 RMK SC2CI2 SLP034=
CYYG;2005-02-18 20:00;METAR CYYG 182000Z 33009KT 15SM FEW026 SCT240 M04/M12 A2964 RMK SC1CI2 SLP039=
CYYG;2005-02-18 21:00;METAR CYYG 182100Z 32010G15KT 15SM FEW240 M04/M13 A2965 RMK CI1 SLP043=
CYYG;2005-02-18 22:00;METAR CYYG 182200Z 32003KT 15SM FEW240 M05/M12 A2967 RMK CI1 SLP050=
CYYG;2005-02-18 23:00;METAR CYYG 182300Z 28003KT 15SM SKC M06/M12 A2969 RMK SLP058=
CYYG;2005-02-19 00:00;METAR CYYG 190000Z 28006KT 15SM SKC M07/M12 A2971 RMK SLP064=
CYYG;2005-02-19 01:00;METAR CYYG 190100Z 30006KT 15SM SKC M06/M13 A2973 RMK SLP071=
CYYG;2005-02-19 02:00;METAR CYYG 190200Z 31007KT 15SM SKC M07/M13 A2975 RMK SLP078=
CYYG;2005-02-19 03:00;METAR CYYG 190300Z 32009KT 15SM SKC M07/M13 A2977 RMK SLP084=
CYYG;2005-02-19 04:00;METAR CYYG 190400Z 32011G18KT 15SM SKC M08/M15 A2979 RMK SLP091=
CYYG;2005-02-19 05:00;METAR CYYG 190500Z 30009KT 15SM SKC M10/M15 A2982 RMK SLP101=
CYYG;2005-02-19 06:00;METAR CYYG 190600Z 31007KT 15SM SKC M11/M16 A2985 RMK SLP112=
CYYG;2005-02-19 07:00;METAR CYYG 190700Z 30005KT 15SM FEW014 M11/M16 A2987 RMK SC1 SLP119=
CYYG;2005-02-19 08:00;METAR CYYG 190800Z 29004KT 15SM SKC M12/M16 A2989 RMK SLP125=
CYYG;2005-02-19 09:00;METAR CYYG 190900Z 29007KT 15SM SKC M12/M17 A2992 RMK SLP135=
CYYG;2005-02-19 10:00;METAR CYYG 191000Z 29008KT 15SM SKC M13/M17 A2995 RMK SLP144=
CYYG;2005-02-19 11:00;METAR CYYG 191100Z 28007KT 15SM FEW100 M13/M18 A2998 RMK AC1 SLP155=
CYYG;2005-02-19 12:00;METAR CYYG 191200Z 29008KT 15SM FEW100 M13/M18 A3002 RMK AC1 SLP169=
CYYG;2005-02-19 13:00;METAR CYYG 191300Z 28007KT 15SM FEW100 M13/M18 A3004 RMK AC1 SLP177=
CYYG;2005-02-19 15:00;METAR CYYG 191500Z 29006KT 15SM FEW025 M12/M18 A3007 RMK SC2 SLP188=
CYYG;2005-02-19 17:00;METAR CYYG 191700Z 29005KT 15SM FEW026 M11/M17 A3007 RMK SC2 SLP187=
CYYG;2005-02-19 18:00;METAR CYYG 191800Z 32007KT 15SM FEW030 M11/M17 A3007 RMK CF2 SLP187=
CYYG;2005-02-19 19:00;METAR CYYG 191900Z 31006KT 15SM FEW030 M10/M18 A3007 RMK CF1 SLP187=
CYYG;2005-02-19 20:00;METAR CYYG 192000Z 31009KT 15SM FEW030 M10/M18 A3008 RMK CF1 SLP189=
CYYG;2005-02-19 21:00;METAR CYYG 192100Z 33005KT 15SM FEW030 M11/M18 A3009 RMK CF1 SLP193=
CYYG;2005-02-19 22:00;METAR CYYG 192200Z 03004KT 15SM SKC M13/M17 A3010 RMK SLP198=
CYYG;2005-02-19 23:00;METAR CYYG 192300Z 08004KT 15SM SKC M13/M17 A3012 RMK SLP202=
CYYG;2005-02-20 00:00;METAR CYYG 200000Z 10003KT 15SM SKC M13/M17 A3013 RMK SLP206=
CYYG;2005-02-20 01:00;METAR CYYG 200100Z 15004KT 15SM SKC M14/M17 A3013 RMK SLP208=
CYYG;2005-02-20 02:00;METAR CYYG 200200Z 13003KT 15SM FEW260 M14/M17 A3013 RMK CI1 SLP207=
CYYG;2005-02-20 03:00;METAR CYYG 200300Z 15004KT 15SM FEW260 M14/M17 A3012 RMK CI0 SLP203=
CYYG;2005-02-20 04:00;METAR CYYG 200400Z 17004KT 15SM FEW260 M14/M17 A3011 RMK CI0 SLP201=
CYYG;2005-02-20 05:00;METAR CYYG 200500Z 21004KT 15SM FEW260 M13/M16 A3011 RMK CI0 SLP200=
CYYG;2005-02-20 06:00;METAR CYYG 200600Z 23004KT 15SM FEW260 M14/M16 A3009 RMK CI0 SLP195=
CYYG;2005-02-20 09:00;METAR CYYG 200900Z 27003KT 15SM FEW260 M13/M17 A3009 RMK CI0 SLP192=
CYYG;2005-02-20 10:00;METAR CYYG 201000Z 25005KT 15SM FEW100 M14/M17 A3009 RMK AC1 SLP195=
CYYG;2005-02-20 11:00;METAR CYYG 201100Z 27005KT 15SM FEW100 M14/M18 A3010 RMK AC1 SLP198=
CYYG;2005-02-20 12:00;METAR CYYG 201200Z 25004KT 15SM FEW100 M13/M18 A3010 RMK AC1 SLP197=
CYYG;2005-02-20 13:00;METAR CYYG 201300Z 22006KT 15SM FEW100 M11/M16 A3008 RMK AC1 SLP191=
CYYG;2005-02-20 14:00;METAR CYYG 201400Z 25007KT 15SM FEW020 FEW100 M10/M15 A3007 RMK CU1AC1 SLP187=
CYYG;2005-02-20 14:41;SPECI CYYG 201441Z 27012KT 12SM -SHSN BKN025 RMK CU5=
CYYG;2005-02-20 15:00;METAR CYYG 201500Z 27010KT 10SM -SHSN BKN025 M10/M15 A3007 RMK CU5 SLP186=
CYYG;2005-02-20 16:00;METAR CYYG 201600Z 29011G16KT 4SM -SHSN BKN018 M10/M15 A3007 RMK CU7 SLP188=
CYYG;2005-02-20 16:09;SPECI CYYG 201609Z 28011KT 2SM -SHSN OVC018 RMK SN2SC6=
CYYG;2005-02-20 16:54;SPECI CYYG 201654Z 32013G19KT 3/4SM -SHSN OVC015 RMK SN3SF5=
CYYG;2005-02-20 17:00;METAR CYYG 201700Z 31013G19KT 3/4SM -SHSN DRSN OVC012 M12/M15 A3007 RMK SN3SC5 SLP186=
CYYG;2005-02-20 17:18;SPECI CYYG 201718Z 29012G19KT 2SM -SHSN DRSN BKN015 OVC022 RMK SN2SC4SC2=
CYYG;2005-02-20 18:00;METAR CYYG 201800Z 29013G19KT 12SM -SHSN BKN015 OVC031 M12/M18 A3008 RMK SC5SC3 SLP189=
CYYG;2005-02-20 19:00;METAR CYYG 201900Z 29015G22KT 15SM SCT015 BKN250 M14/M23 A3011 RMK SC3CI1 SLP200=
CYYG;2005-02-20 20:00;METAR CYYG 202000Z 32017G24KT 15SM FEW015 BKN038 BKN250 M16/M23 A3016 RMK SC2SC3CI1 SLP216=
CYYG;2005-02-20 20:10;SPECI CYYG 202010Z 33019G24KT 15SM -SHSN FEW015 BKN039 BKN250 RMK SC2SC3CI1=
CYYG;2005-02-20 21:00;METAR CYYG 202100Z 32015G24KT 15SM FEW015 SCT035 M17/M25 A3019 RMK SC2SC2 SLP228=
CYYG;2005-02-20 22:00;METAR CYYG 202200Z 29011KT 15SM -SHSN FEW015 SCT035 M17/M27 A3022 RMK SC2SC2 SLP239=
CYYG;2005-02-20 22:09;SPECI CYYG 202209Z 29012G17KT 15SM FEW015 SCT039 RMK SC2SC2=
CYYG;2005-02-20 23:00;METAR CYYG 202300Z 30010G15KT 15SM -SHSN FEW015 SCT039 M17/M24 A3024 RMK SC2SC2 SLP244=
CYYG;2005-02-21 00:00;METAR CYYG 210000Z 29014G20KT 15SM -SHSN BKN022 M16/M22 A3025 RMK SC5 SLP249=
CYYG;2005-02-21 01:00;METAR CYYG 210100Z 30015KT 10SM -SHSN DRSN BKN024 M16/M21 A3027 RMK SC7 SLP254=
CYYG;2005-02-21 01:50;SPECI CYYG 210150Z 31013KT 2SM -SHSN DRSN FEW006 OVC018 RMK SF1SC7=
CYYG;2005-02-21 02:00;METAR CYYG 210200Z 31010G15KT 2SM -SHSN DRSN FEW006 OVC016 M15/M19 A3030 RMK SF2SC6 SLP265=
CYYG;2005-02-21 03:00;METAR CYYG 210300Z 31010G15KT 2 1/2SM -SHSN DRSN FEW007 BKN019 M14/M18 A3032 RMK SF2SC6 SLP271=
CYYG;2005-02-21 03:35;SPECI CYYG 210335Z 34012G17KT 10SM -SHSN DRSN FEW008 BKN021 BKN043 RMK SF1SC4SC2=
CYYG;2005-02-21 04:00;METAR CYYG 210400Z 34013G19KT 15SM -SHSN DRSN SCT020 BKN044 M13/M19 A3034 RMK SC3SC3 SLP277=
CYYG;2005-02-21 05:00;METAR CYYG 210500Z 33011G16KT 10SM -SHSN DRSN BKN019 BKN040 M13/M17 A3036 RMK SC5SC2 SLP285=
CYYG;2005-02-21 06:00;METAR CYYG 210600Z 28006KT 15SM -SHSN BKN016 M15/M19 A3039 RMK SC5 SLP294=
CYYG;2005-02-21 07:00;METAR CYYG 210700Z 31006KT 15SM -SHSN SCT012 M16/M19 A3038 RMK SC3 SLP293=
CYYG;2005-02-21 08:00;METAR CYYG 210800Z 32004KT 15SM -SHSN FEW012 M16/M19 A3039 RMK SC2 SLP294=
CYYG;2005-02-21 09:00;METAR CYYG 210900Z 27004KT 15SM -SHSN FEW012 M17/M21 A3041 RMK SC1 SLP303=
CYYG;2005-02-21 09:43;SPECI CYYG 210943Z 31005KT 15SM FEW012 RMK SC1=
CYYG;2005-02-21 10:00;METAR CYYG 211000Z 30004KT 15SM FEW012 M17/M21 A3042 RMK SC1 SLP307=
CYYG;2005-02-21 11:00;METAR CYYG 211100Z 28007KT 15SM FEW020 M17/M21 A3044 RMK SC1 SLP314=
CYYG;2005-02-21 12:00;METAR CYYG 211200Z 29005KT 15SM FEW020 M16/M20 A3047 RMK SC1 SLP324=
CYYG;2005-02-21 13:00;METAR CYYG 211300Z 32005KT 15SM FEW020 M15/M19 A3048 RMK SC1 SLP325=
CYYG;2005-02-21 14:00;METAR CYYG 211400Z 34007KT 15SM FEW020 SCT250 M13/M18 A3048 RMK SC1CI0 SLP325=
CYYG;2005-02-21 15:00;METAR CYYG 211500Z 01007KT 15SM SCT016 SCT250 M12/M17 A3047 RMK CU3CI0 SLP324=
CYYG;2005-02-21 16:00;METAR CYYG 211600Z 02009KT 15SM FEW016 SCT250 M12/M17 A3046 RMK CU2CI0 SLP319=
CYYG;2005-02-21 17:00;METAR CYYG 211700Z 33004KT 15SM FEW018 BKN250 M11/M18 A3046 RMK CU2CI1 SLP320=
CYYG;2005-02-21 18:00;METAR CYYG 211800Z 01005KT 15SM FEW025 BKN250 M11/M17 A3044 RMK CU2CI3 SLP313=
CYYG;2005-02-21 19:00;METAR CYYG 211900Z 02004KT 15SM FEW025 BKN250 M11/M17 A3043 RMK SC1CI2 SLP310=
CYYG;2005-02-23 00:00;METAR CYYG 230000Z 06004KT 15SM OVC110 M10/M13 A3014 RMK AC6 SLP209=
CYYG;2005-02-23 01:00;METAR CYYG 230100Z 07004KT 15SM OVC100 M10/M14 A3013 RMK AC6 SLP207=
CYYG;2005-02-23 02:00;METAR CYYG 230200Z 08004KT 15SM OVC100 M10/M14 A3012 RMK AC6 SLP204=
CYYG;2005-02-23 03:00;METAR CYYG 230300Z 08002KT 15SM OVC100 M10/M14 A3011 RMK AC6 SLP199=
CYYG;2005-02-23 04:00;METAR CYYG 230400Z 09002KT 15SM OVC094 M10/M14 A3009 RMK AC8 SLP192=
CYYG;2005-02-23 05:00;METAR CYYG 230500Z 08003KT 15SM OVC093 M10/M13 A3006 RMK AC8 SLP185=
CYYG;2005-02-23 06:00;METAR CYYG 230600Z 08002KT 15SM OVC090 M10/M13 A3005 RMK AC8 SLP180=
CYYG;2005-02-23 07:00;METAR CYYG 230700Z 15003KT 15SM BKN080 OVC170 M10/M13 A3004 RMK AC6AC2 SLP177=
CYYG;2005-02-23 08:00;METAR CYYG 230800Z 01002KT 15SM BKN080 M11/M13 A3003 RMK AC6 SLP173=
CYYG;2005-02-23 09:00;METAR CYYG 230900Z 01003KT 15SM BKN080 M11/M13 A3003 RMK AC6 SLP172=
CYYG;2005-02-23 10:00;METAR CYYG 231000Z 01003KT 15SM BKN080 M11/M13 A3001 RMK AC3 SLP168=
CYYG;2005-02-23 10:14;SPECI CYYG 231014Z 35002KT 12SM -SHSN FEW038 BKN080 RMK SC2AC2=
CYYG;2005-02-23 11:00;METAR CYYG 231100Z 02003KT 3SM -SN OVC013 M10/M12 A3001 RMK SC8 SLP167=
CYYG;2005-02-23 11:19;SPECI CYYG 231119Z 02003KT 2SM -SN OVC013 RMK SC8=
CYYG;2005-02-23 11:26;SPECI CYYG 231126Z 01003KT 1 1/2SM -SN VV008 RMK SN8=
CYYG;2005-02-23 12:00;METAR CYYG 231200Z 05004KT 2SM -SN OVC011 M10/M11 A3001 RMK SC8 SLP166=
CYYG;2005-02-23 12:25;SPECI CYYG 231225Z 09004KT 3SM -SN FEW011 FEW025 OVC100 RMK SC1SC2AS6=
CYYG;2005-02-23 13:00;METAR CYYG 231300Z 11004KT 3SM -SN OVC040 M09/M11 A3000 RMK SC8 SLP162=
CYYG;2005-02-23 13:12;SPECI CYYG 231312Z 11004KT 2SM -SN BKN020 OVC040 RMK SC5SC3=
CYYG;2005-02-23 13:23;SPECI CYYG 231323Z 09002KT 3SM -SN SCT020 OVC040 RMK SC3SC5=
CYYG;2005-02-23 14:00;METAR CYYG 231400Z 09003KT 3SM -SN SCT020 OVC040 M09/M11 A2999 RMK SC3SC5 SLP160=
CYYG;2005-02-23 15:00;METAR CYYG 231500Z 05002KT 3SM -SN SCT020 OVC040 M08/M10 A2998 RMK SC3SC5 SLP154=
CYYG;2005-02-23 16:00;METAR CYYG 231600Z 04002KT 3SM -SN SCT020 OVC040 M07/M10 A2996 RMK SC3SC5 SLP147=
CYYG;2005-02-23 17:00;METAR CYYG 231700Z 09003KT 5SM -SN FEW012 OVC100 M07/M10 A2994 RMK SC2AS6 SLP143=
CYYG;2005-02-23 17:07;SPECI CYYG 231707Z 12002KT 2SM -SN FEW012 OVC100 RMK SC2AS6=
CYYG;2005-02-23 18:00;METAR CYYG 231800Z 09002KT 2SM -SN FEW012 OVC100 M07/M09 A2994 RMK SC2AS6 SLP143=
CYYG;2005-02-23 18:41;SPECI CYYG 231841Z 05004KT 5SM -SN FEW012 OVC100 RMK SC2AS4=
CYYG;2005-02-23 19:00;METAR CYYG 231900Z 04006KT 10SM -SN SCT012 OVC100 M06/M09 A2993 RMK SC3AS2 SLP138=
CYYG;2005-02-23 19:19;SPECI CYYG 231919Z 06006KT 15SM FEW012 OVC250 RMK SC2CS4=
CYYG;2005-02-23 20:00;METAR CYYG 232000Z 05005KT 15SM FEW012 BKN070 OVC250 M06/M09 A2994 RMK SC2AS3CS2 SLP143=
CYYG;2005-02-23 20:32;SPECI CYYG 232032Z 02008KT 15SM -SN FEW012 OVC250 RMK SC2CS2=
CYYG;2005-02-23 21:00;METAR CYYG 232100Z 02008KT 15SM -SN FEW015 BKN250 M08/M10 A2996 RMK SC2CS2 SLP149=
CYYG;2005-02-23 22:00;METAR CYYG 232200Z 02006KT 10SM -SN BKN025 OVC250 M08/M11 A2996 RMK SC5CS3 SLP149=
CYYG;2005-02-23 23:00;METAR CYYG 232300Z 36005KT 15SM -SN SCT025 BKN250 M10/M11 A2998 RMK SC3CS2 SLP157=
CYYG;2005-02-23 23:11;SPECI CYYG 232311Z 36005KT 15SM FEW025 SCT250 RMK SC2CS2=
CYYG;2005-02-24 00:00;METAR CYYG 240000Z 01005KT 15SM FEW025 M11/M13 A3000 RMK SC2 SLP162=
CYYG;2005-02-24 01:00;METAR CYYG 240100Z 36003KT 15SM SCT065 M11/M13 A3001 RMK SC4 SLP168=
CYYG;2005-02-24 01:21;SPECI CYYG 240121Z 36004KT 12SM -SN SCT046 BKN064 RMK SC3SC4=
CYYG;2005-02-24 02:00;METAR CYYG 240200Z 01005KT 12SM -SN OVC057 M10/M12 A3002 RMK SC8 SLP169=
CYYG;2005-02-24 03:00;METAR CYYG 240300Z 01004KT 10SM -SN OVC056 M10/M11 A3002 RMK SC8 SLP169=
CYYG;2005-02-24 04:00;METAR CYYG 240400Z 34003KT 12SM -SN OVC060 M10/M12 A3003 RMK SC8 SLP173=
CYYG;2005-02-24 05:00;METAR CYYG 240500Z 32004KT 15SM -SN OVC068 M11/M13 A3005 RMK AC8 SLP178=
CYYG;2005-02-24 06:00;METAR CYYG 240600Z 34003KT 10SM -SN OVC030 M10/M12 A3006 RMK SC8 SLP182=
CYYG;2005-02-24 07:00;METAR CYYG 240700Z 36004KT 15SM -SN BKN035 M11/M13 A3007 RMK SC6 SLP187=
CYYG;2005-02-24 07:28;SPECI CYYG 240728Z 34003KT 15SM BKN035 RMK SC5=
CYYG;2005-02-24 08:00;METAR CYYG 240800Z 31005KT 15SM SCT040 M13/M15 A3010 RMK SC4 SLP196=
CYYG;2005-02-24 09:00;METAR CYYG 240900Z 33005KT 15SM FEW040 M13/M15 A3012 RMK SC2 SLP204=
CYYG;2005-02-24 10:00;METAR CYYG 241000Z 32005KT 15SM FEW040 M13/M15 A3014 RMK SC2 SLP210=
CYYG;2005-02-24 11:00;METAR CYYG 241100Z 33005KT 15SM FEW070 M13/M15 A3016 RMK AC1 SLP218=
CYYG;2005-02-24 13:00;METAR CYYG 241300Z 33007KT 15SM FEW015 M10/M12 A3020 RMK SC1 SLP232=
CYYG;2005-02-24 13:20;SPECI CYYG 241320Z 34007KT 15SM -SHSN FEW012 RMK SC2=
CYYG;2005-02-24 13:37;SPECI CYYG 241337Z 33012KT 6SM -SHSN SCT010 BKN015 RMK SC3SC2=
CYYG;2005-02-24 14:00;METAR CYYG 241400Z 34009G15KT 10SM -SHSN DRSN FEW010 SCT014 M09/M12 A3022 RMK SC2SC2 SLP238=
CYYG;2005-02-24 14:12;SPECI CYYG 241412Z 32011KT 5SM -SHSN DRSN BKN010 BKN015 RMK SC5SC2=
CYYG;2005-02-24 14:42;SPECI CYYG 241442Z 32010KT 12SM -SHSN DRSN FEW010 FEW015 RMK SC2SC1=
CYYG;2005-02-24 15:00;METAR CYYG 241500Z 32009KT 15SM -SHSN DRSN FEW012 M10/M12 A3023 RMK SC2 SLP241=
CYYG;2005-02-24 16:00;METAR CYYG 241600Z 34008KT 15SM FEW012 M09/M13 A3024 RMK SC1 SLP245=
CYYG;2005-02-24 17:00;METAR CYYG 241700Z 32007KT 15SM FEW015 M09/M13 A3023 RMK SC1 SLP242=
CYYG;2005-02-24 18:00;METAR CYYG 241800Z 33007KT 15SM FEW020 M08/M13 A3024 RMK SC1 SLP243=
CYYG;2005-02-24 19:00;METAR CYYG 241900Z 34007KT 15SM FEW020 M08/M13 A3025 RMK SC1 SLP248=
CYYG;2005-02-24 20:00;METAR CYYG 242000Z 36006KT 15SM FEW020 M09/M14 A3026 RMK SC1 SLP252=
CYYG;2005-02-24 21:00;METAR CYYG 242100Z 34006KT 15SM FEW020 M10/M14 A3030 RMK SC1 SLP263=
CYYG;2005-02-24 22:00;METAR CYYG 242200Z 02006KT 15SM FEW020 FEW300 M12/M15 A3030 RMK SC1CI1 SLP265=
CYYG;2005-02-24 23:00;METAR CYYG 242300Z 34004KT 15SM SKC M13/M16 A3033 RMK SLP273=
CYYG;2005-02-25 00:00;METAR CYYG 250000Z 33003KT 15SM SKC M14/M16 A3033 RMK SLP275=
CYYG;2005-02-25 02:00;METAR CYYG 250200Z 35003KT 15SM SKC M18/M19 A3031 RMK SLP270=
CYYG;2005-02-25 03:00;METAR CYYG 250300Z 01005KT 15SM SKC M19/M20 A3028 RMK SLP260=
CYYG;2005-02-25 04:00;METAR CYYG 250400Z 34004KT 15SM SKC M16/M17 A3029 RMK SLP261=
CYYG;2005-02-25 05:00;METAR CYYG 250500Z 36004KT 15SM SKC M16/M16 A3028 RMK SLP259=
CYYG;2005-02-25 06:00;METAR CYYG 250600Z 01005KT 15SM SKC M16/M17 A3027 RMK SLP254=
CYYG;2005-02-25 07:00;METAR CYYG 250700Z 36006KT 15SM SKC M14/M15 A3027 RMK SLP255=
CYYG;2005-02-25 08:00;METAR CYYG 250800Z 01005KT 15SM SCT160 M13/M14 A3024 RMK AC2 SLP244=
CYYG;2005-02-25 09:00;METAR CYYG 250900Z 02006KT 15SM BKN150 M13/M14 A3021 RMK AC4 SLP235=
CYYG;2005-02-25 10:00;METAR CYYG 251000Z 02007KT 15SM BKN150 M13/M13 A3019 RMK AC4 SLP227=
CYYG;2005-02-25 11:00;METAR CYYG 251100Z 36005KT 15SM OVC120 M13/M13 A3017 RMK AS8 SLP221=
CYYG;2005-02-25 12:00;METAR CYYG 251200Z 01008KT 15SM FEW012 FEW030 OVC110 M12/M12 A3016 RMK SC1SC1AS8 SLP218=
CYYG;2005-02-25 12:32;SPECI CYYG 251232Z 01008KT 15SM -SN FEW012 FEW030 OVC100 RMK SC1SC1AS7=
CYYG;2005-02-25 13:00;METAR CYYG 251300Z 02010KT 15SM -SN FEW012 FEW030 OVC080 M11/M12 A3013 RMK SC1SC1AS7 SLP208=
CYYG;2005-02-25 14:00;METAR CYYG 251400Z 02005KT 15SM -SN FEW008 OVC075 M10/M12 A3012 RMK SF1AS7 PCPN VRY LGT SLP205=
CYYG;2005-02-25 15:00;METAR CYYG 251500Z 01005KT 15SM -SN FEW008 OVC075 M10/M12 A3011 RMK SF1AS7 SLP199=
CYYG;2005-02-25 16:00;METAR CYYG 251600Z 36007KT 15SM -SN FEW008 OVC032 M10/M12 A3006 RMK SF1SC7 SLP185=
CYYG;2005-02-25 16:40;SPECI CYYG 251640Z 36008KT 3SM -SN DRSN VV020 RMK SN8=
CYYG;2005-02-25 18:00;METAR CYYG 251800Z 35013KT 2SM -SN DRSN VV015 M09/M12 A2999 RMK SN8 SLP161=
CYYG;2005-02-25 19:00;METAR CYYG 251900Z 35013G18KT 2SM -SN DRSN VV015 M09/M12 A2997 RMK SN8 SLP152=
CYYG;2005-02-25 20:00;METAR CYYG 252000Z 36012G17KT 1 1/2SM -SN DRSN OVC020 M09/M12 A2995 RMK SN6SC2 /S01/ SLP146=
CYYG;2005-02-25 21:00;METAR CYYG 252100Z 36014G20KT 1 1/2SM -SN DRSN OVC020 M09/M12 A2992 RMK SN6SC2 SLP136=
CYYG;2005-02-25 22:00;METAR CYYG 252200Z 35012G19KT 1 1/2SM -SN DRSN OVC022 M09/M11 A2990 RMK SN6SC2 SLP128=
CYYG;2005-02-25 23:00;METAR CYYG 252300Z 35013KT 1 1/2SM -SN DRSN OVC007 M09/M11 A2989 RMK SN6SC2 SLP125=
CYYG;2005-02-25 23:42;SPECI CYYG 252342Z 34010G17KT 2SM -SN DRSN BKN009 OVC016 RMK SN2SF3SC2=
CYYG;2005-02-26 00:00;METAR CYYG 260000Z 34012G17KT 2SM -SN DRSN BKN008 OVC017 M09/M11 A2987 RMK SF6SC2 /S01/ SLP118=
CYYG;2005-02-26 00:43;SPECI CYYG 260043Z 35012KT 6SM -SN DRSN BKN013 OVC027 RMK SC6SC2=
CYYG;2005-02-26 01:00;METAR CYYG 260100Z 35012G18KT 6SM -SN DRSN BKN013 OVC030 M08/M10 A2986 RMK SC6SC2 SLP114=
CYYG;2005-02-26 02:00;METAR CYYG 260200Z 33014KT 5SM -SN DRSN BKN011 OVC027 M08/M11 A2985 RMK SC6SC2 SLP113=
CYYG;2005-02-26 02:47;SPECI CYYG 260247Z 33018G26KT 3SM -SN DRSN BKN006 OVC017 RMK SF6SC2=
CYYG;2005-02-26 03:00;METAR CYYG 260300Z 33018G25KT 3SM -SN DRSN BKN007 OVC017 M08/M11 A2984 RMK SF6SC2 SLP109=
CYYG;2005-02-26 04:00;METAR CYYG 260400Z 33018KT 6SM -SN DRSN BKN009 OVC022 M08/M11 A2982 RMK SF6SC2 SLP102=
CYYG;2005-02-26 04:33;SPECI CYYG 260433Z 33015G22KT 15SM -SN DRSN FEW009 BKN025 OVC110 RMK SF2SC3AC3=
CYYG;2005-02-26 05:00;METAR CYYG 260500Z 34014G24KT 15SM -SN DRSN BKN025 OVC110 M08/M11 A2981 RMK SC5AC3 SLP098=
CYYG;2005-02-26 06:00;METAR CYYG 260600Z 32014KT 10SM -SN DRSN BKN019 OVC027 M09/M11 A2980 RMK SC7SC1 SLP094=
CYYG;2005-02-26 07:00;METAR CYYG 260700Z 32014G19KT 10SM -SN DRSN BKN019 OVC030 M08/M11 A2979 RMK SC6SC2 SLP091=
CYYG;2005-02-26 08:00;METAR CYYG 260800Z 32015G21KT 15SM -SN DRSN BKN022 OVC070 M08/M11 A2977 RMK SC6AC2 SLP084=
CYYG;2005-02-26 10:00;METAR CYYG 261000Z 31013G18KT 12SM -SN DRSN BKN015 OVC024 M08/M11 A2977 RMK SC6SC2 SLP085=
CYYG;2005-02-26 10:32;SPECI CYYG 261032Z 31011G19KT 12SM -SN DRSN OVC013 RMK SC8=
CYYG;2005-02-26 12:00;METAR CYYG 261200Z 29014KT 12SM -SN DRSN BKN015 OVC029 M10/M13 A2978 RMK SC6SC2 VIS LWR N-E SLP087=
CYYG;2005-02-26 12:46;SPECI CYYG 261246Z 29014KT 2SM -SN DRSN SCT015 OVC030 RMK SC3SC5=
CYYG;2005-02-26 13:00;METAR CYYG 261300Z 29012G18KT 3SM -SN DRSN FEW015 OVC033 M10/M13 A2976 RMK SC2SC6 SLP082=
CYYG;2005-02-26 13:07;SPECI CYYG 261307Z 29013G19KT 2SM -SN DRSN FEW015 OVC027 RMK SC2SC6=
CYYG;2005-02-26 13:19;SPECI CYYG 261319Z 29014KT 3SM -SN DRSN FEW017 BKN027 OVC036 RMK SC2SC4SC2=
CYYG;2005-02-26 14:00;METAR CYYG 261400Z 29012G17KT 10SM -SN DRSN FEW037 M09/M12 A2975 RMK SC2 VIS LWR N-E SLP077=
CYYG;2005-02-26 15:00;METAR CYYG 261500Z 29013G19KT 15SM -SN DRSN FEW020 BKN032 M08/M12 A2974 RMK SC1SC2 SLP073=
CYYG;2005-02-26 16:00;METAR CYYG 261600Z 29013KT 10SM -SN DRSN BKN028 M08/M12 A2971 RMK SC5 VIS LWR N-E SLP065=
CYYG;2005-02-26 16:53;SPECI CYYG 261653Z 28014KT 15SM FEW028 SCT061 SCT250 RMK SC1SC2CI0=
CYYG;2005-02-26 17:00;METAR CYYG 261700Z 27015G20KT 15SM FEW028 FEW061 SCT250 M07/M12 A2967 RMK SC1SC2CI0 SLP052=
CYYG;2005-02-26 18:00;METAR CYYG 261800Z 27018G24KT 15SM DRSN FEW028 FEW061 FEW250 M07/M12 A2965 RMK SC1SC1CI0 SLP043=
CYYG;2005-02-26 19:00;METAR CYYG 261900Z 27016G21KT 15SM DRSN FEW028 FEW250 M05/M12 A2961 RMK SC1CI1 SLP030=
CYYG;2005-02-26 20:00;METAR CYYG 262000Z 27019G28KT 15SM DRSN FEW028 FEW250 M04/M13 A2959 RMK CU1CI1 SLP024=
CYYG;2005-02-26 21:00;METAR CYYG 262100Z 27018G27KT 15SM DRSN FEW028 FEW100 FEW250 M04/M14 A2958 RMK SC1AC1CI1 SLP021=
CYYG;2005-02-26 22:00;METAR CYYG 262200Z 27018KT 15SM DRSN FEW250 M05/M14 A2958 RMK CI1 SLP018=
CYYG;2005-02-26 23:00;METAR CYYG 262300Z 27018G26KT 15SM DRSN FEW250 M06/M14 A2956 RMK CI1 SLP014=
CYYG;2005-02-27 00:00;METAR CYYG 270000Z 27019G26KT 15SM DRSN FEW250 M06/M14 A2954 RMK CI1 SLP006=
CYYG;2005-02-27 01:00;METAR CYYG 270100Z 27021G30KT 15SM DRSN SKC M07/M15 A2953 RMK SLP003=
CYYG;2005-02-27 02:00;METAR CYYG 270200Z 27018G25KT 15SM DRSN SKC M08/M15 A2952 RMK SLP998=
CYYG;2005-02-27 03:00;METAR CYYG 270300Z 27021G29KT 15SM DRSN SKC M08/M15 A2950 RMK SLP993=
CYYG;2005-02-27 04:00;METAR CYYG 270400Z 27018G26KT 15SM DRSN SKC M09/M16 A2949 RMK SLP988=
CYYG;2005-02-27 05:00;METAR CYYG 270500Z 27018G26KT 15SM DRSN SKC M09/M16 A2946 RMK SLP980=
CYYG;2005-02-27 06:00;METAR CYYG 270600Z 26017G25KT 15SM DRSN SKC M09/M16 A2944 RMK SLP973=
CYYG;2005-02-27 07:00;METAR CYYG 270700Z 25017G25KT 15SM DRSN SKC M09/M16 A2942 RMK SLP966=
CYYG;2005-02-27 08:00;METAR CYYG 270800Z 26017G27KT 15SM DRSN SKC M09/M16 A2941 RMK SLP962=
CYYG;2005-02-27 09:00;METAR CYYG 270900Z 25017G26KT 15SM DRSN SKC M10/M17 A2939 RMK SLP957=
CYYG;2005-02-27 10:00;METAR CYYG 271000Z 26014G26KT 15SM DRSN FEW250 M10/M17 A2939 RMK CI1 SLP954=
CYYG;2005-02-27 10:40;SPECI CYYG 271040Z 26019G26KT 15SM -SHSN DRSN SCT050 BKN250 RMK SC3CI2 VIS LWR W=
CYYG;2005-02-27 10:54;SPECI CYYG 271054Z 26019G27KT 2SM -SHSN DRSN BKN025 BKN120 OVC250 RMK SC5AC2CI2=
CYYG;2005-02-27 11:00;METAR CYYG 271100Z 26020G27KT 2SM -SHSN DRSN BKN025 BKN120 OVC250 M10/M15 A2939 RMK SC5AC2CI2 SLP954=
CYYG;2005-02-27 11:26;SPECI CYYG 271126Z 26016G24KT 1SM -SHSN DRSN VV010 RMK SN8 RVR RWY03 2800 FT=
CYYG;2005-02-27 11:37;SPECI CYYG 271137Z 26015G24KT 1/2SM -SHSN BLSN VV005 RMK SN8 RVR RWY03 2200 FT=
CYYG;2005-02-27 11:46;SPECI CYYG 271146Z 25018G25KT 1/4SM SHSN +BLSN VV005 RMK SN8 RVR RWY03 1200 FT=
CYYG;2005-02-27 12:00;METAR CYYG 271200Z 25016G25KT 1/4SM SHSN +BLSN VV005 M11/M13 A2939 RMK SN8 /S01/ RVR RWY03 1600 FT SLP956=
CYYG;2005-02-27 12:05;SPECI CYYG 271205Z 25015G22KT 1/2SM -SHSN BLSN VV007 RESN RMK SN8 RVR RWY03 1200 FT=
CYYG;2005-02-27 12:11;SPECI CYYG 271211Z 26014G22KT 3/4SM -SN BLSN VV007 RESN RMK SN8 RVR RWY03 3500 FT=
CYYG;2005-02-27 12:19;SPECI CYYG 271219Z 25015G21KT 1 1/2SM -SN BLSN VV010 RESN RMK SN8 RVR RWY03 4500 FT=
CYYG;2005-02-27 12:45;SPECI CYYG 271245Z 26014G24KT 2SM -SN BLSN BKN024 OVC120 RESN RMK SC5AS3 RVR RWY03 4000 FT=
CYYG;2005-02-27 13:00;METAR CYYG 271300Z 26018G25KT 3SM -SN BLSN BKN024 OVC120 M10/M13 A2939 RESN RMK SC5AS3 SLP957=
CYYG;2005-02-27 14:00;METAR CYYG 271400Z 26018G26KT 8SM -SN DRSN BKN021 OVC220 M09/M14 A2939 REBLSN RMK SC6CC2 SLP956=
CYYG;2005-02-27 15:00;METAR CYYG 271500Z 27020G26KT 10SM -SN DRSN BKN021 OVC220 M08/M13 A2940 RMK SC6CI2 SLP960=
CYYG;2005-02-27 16:00;METAR CYYG 271600Z 27018G27KT 15SM -SHSN DRSN SCT025 M08/M14 A2941 RMK SC4 VIS LWR NW-E SLP963=
CYYG;2005-02-27 17:00;METAR CYYG 271700Z 28018G26KT 15SM -SHSN DRSN BKN035 BKN070 M07/M14 A2942 RMK SC6AC1 SLP964=
CYYG;2005-02-27 18:00;METAR CYYG 271800Z 29016G25KT 15SM -SHSN DRSN BKN030 M07/M14 A2942 RMK SC7 /S01/ SLP967=
CYYG;2005-02-27 19:00;METAR CYYG 271900Z 29016G21KT 15SM DRSN FEW030 BKN042 M07/M15 A2945 RMK CU2SC5 SLP976=
CYYG;2005-02-27 20:00;METAR CYYG 272000Z 30015G24KT 15SM FEW025 BKN064 M07/M15 A2948 RMK SC1SC6 SLP985=
CYYG;2005-02-27 21:00;METAR CYYG 272100Z 29011G18KT 15SM BKN062 M07/M15 A2950 RMK SC7 SLP994=
CYYG;2005-02-27 22:00;METAR CYYG 272200Z 29015KT 15SM BKN062 M06/M16 A2955 RMK SC7 SLP008=
CYYG;2005-02-28 00:00;METAR CYYG 280000Z 29007KT 15SM OVC062 M07/M16 A2964 RMK SC8 SLP040=
CYYG;2005-02-28 01:00;METAR CYYG 280100Z 29014G19KT 15SM OVC062 M06/M16 A2967 RMK SC8 SLP052=
CYYG;2005-02-28 02:00;METAR CYYG 280200Z 27011G16KT 15SM OVC063 M07/M15 A2970 RMK SC8 SLP060=
CYYG;2005-02-28 03:00;METAR CYYG 280300Z 28016G24KT 15SM SCT063 M07/M17 A2973 RMK SC3 SLP070=
CYYG;2005-02-28 04:00;METAR CYYG 280400Z 28013G24KT 15SM FEW060 M07/M17 A2977 RMK SC2 SLP084=
CYYG;2005-02-28 05:00;METAR CYYG 280500Z 28016KT 15SM FEW055 M07/M17 A2980 RMK SC1 SLP094=
CYYG;2005-02-28 06:00;METAR CYYG 280600Z 29014G19KT 15SM FEW055 M08/M17 A2982 RMK SC1 SLP101=
CYYG;2005-02-28 07:00;METAR CYYG 280700Z 29015G20KT 15SM SKC 08/M18 A2983 RMK SLP105=
CYYG;2005-02-28 09:00;METAR CYYG 280900Z 28013KT 15SM SKC M09/M18 A2988 RMK SLP123=
CYYG;2005-02-28 10:00;METAR CYYG 281000Z 28008KT 15SM SKC M10/M17 A2991 RMK SLP133=
CYYG;2005-02-28 11:00;METAR CYYG 281100Z 27007KT 15SM SKC M11/M18 A2995 RMK SLP146=
CYYG;2005-02-28 12:00;METAR CYYG 281200Z 27009KT 15SM SKC M10/M18 A3000 RMK SLP163=
CYYG;2005-02-28 13:00;METAR CYYG 281300Z 28011KT 15SM FEW250 M09/M18 A3001 RMK CI0 SLP164=
CYYG;2005-02-28 14:00;METAR CYYG 281400Z 29012KT 15SM FEW250 M08/M18 A3003 RMK CI1 SLP172=
CYYG;2005-02-28 15:00;METAR CYYG 281500Z 28007KT 15SM FEW250 M07/M17 A3004 RMK CI1 SLP175=
CYYG;2005-02-28 16:00;METAR CYYG 281600Z 26006KT 15SM FEW250 M06/M16 A3005 RMK CI1 SLP179=
CYYG;2005-02-28 17:00;METAR CYYG 281700Z 26008KT 15SM FEW250 M06/M15 A3006 RMK CI1 SLP182=
CYYG;2005-02-28 18:00;METAR CYYG 281800Z 25007KT 15SM SCT250 M05/M14 A3006 RMK CI2 SLP181=
CYYG;2005-02-28 19:00;METAR CYYG 281900Z 28006KT 15SM BKN250 M04/M15 A3007 RMK CI4 SLP186=
CYYG;2005-02-28 20:00;METAR CYYG 282000Z 21002KT 15SM BKN250 M04/M14 A3008 RMK CI5 SLP189=
CYYG;2005-02-28 21:00;METAR CYYG 282100Z 00000KT 15SM BKN250 M04/M14 A3008 RMK CI4 SLP190=
CYYG;2005-02-28 22:00;METAR CYYG 282200Z 00000KT 15SM BKN250 M05/M14 A3009 RMK CI4 SLP194=
CYYG;2005-02-28 23:00;METAR CYYG 282300Z 14004KT 15SM SCT250 M06/M14 A3009 RMK CI2 SLP194=
CYYG;2005-03-01 00:00;METAR CYYG 010000Z 15005KT 15SM BKN250 M07/M13 A3009 RMK CI2 SLP192=
CYYG;2005-03-01 01:00;METAR CYYG 010100Z 13003KT 15SM OVC250 M07/M14 A3008 RMK CI6 SLP189=
CYYG;2005-03-01 02:00;METAR CYYG 010200Z 14004KT 15SM OVC190 M07/M14 A3008 RMK AS8 SLP190=
CYYG;2005-03-01 03:00;METAR CYYG 010300Z 11006KT 15SM OVC160 M07/M13 A3007 RMK AS8 SLP186=
CYYG;2005-03-01 04:00;METAR CYYG 010400Z 12006KT 15SM OVC120 M06/M12 A3004 RMK AS8 SLP176=
CYYG;2005-03-01 05:00;METAR CYYG 010500Z 10005KT 15SM FEW110 SCT250 M06/M13 A3004 RMK AC1CI1 SLP174=
CYYG;2005-03-01 06:00;METAR CYYG 010600Z 11006KT 15SM OVC230 M06/M12 A3001 RMK CS6 SLP167=
CYYG;2005-03-01 07:00;METAR CYYG 010700Z 10008KT 15SM SCT140 OVC230 M06/M12 A2998 RMK AC3CS5 SLP155=
CYYG;2005-03-01 08:00;METAR CYYG 010800Z 09010KT 15SM OVC170 M06/M11 A2993 RMK AS8 SLP140=
CYYG;2005-03-01 09:00;METAR CYYG 010900Z 09011KT 15SM OVC100 M05/M10 A2992 RMK AS8 SLP135=
CYYG;2005-03-01 10:00;METAR CYYG 011000Z 09013KT 15SM OVC090 M05/M10 A2989 RMK AS8 SLP124=
CYYG;2005-03-01 11:00;METAR CYYG 011100Z 09011G16KT 15SM SCT059 OVC072 M05/M11 A2988 RMK SC3AS5 SLP121=
CYYG;2005-03-01 11:48;SPECI CYYG 011148Z 09017KT 15SM -SN SCT029 OVC045 RMK SC4SC4=
CYYG;2005-03-01 12:00;METAR CYYG 011200Z 09017KT 10SM -SN BKN029 OVC040 M05/M11 A2981 RMK SC6SC2 PRESFR SLP098=
CYYG;2005-03-01 12:26;SPECI CYYG 011226Z 09016G21KT 3SM -SN DRSN OVC015 RMK SN3SC5=
CYYG;2005-03-01 12:48;SPECI CYYG 011248Z 07018KT 1 1/2SM -SN DRSN VV004 RMK SN8=
CYYG;2005-03-01 13:00;METAR CYYG 011300Z 08016KT 1 1/2SM -SN DRSN VV006 M06/M08 A2973 RMK SN8 PRESFR SLP072=
CYYG;2005-03-01 13:12;SPECI CYYG 011312Z 07018G24KT 3/4SM -SN DRSN VV004 RMK SN8 RVR RWY03 3500FT=
CYYG;2005-03-01 14:00;METAR CYYG 011400Z 05015G22KT 3/4SM -SNPL DRSN VV006 M06/M08 A2967 RMK SN8 RVR RWY03 3500FT PRESFR SLP050=
CYYG;2005-03-01 14:28;SPECI CYYG 011428Z 06016G22KT 3/4SM -SN DRSN VV004 RMK SN8=
CYYG;2005-03-01 14:54;SPECI CYYG 011454Z 06018G24KT 2SM -SN DRSN OVC017 RMK SC8=
CYYG;2005-03-01 15:00;METAR CYYG 011500Z 06020KT 2SM -SN DRSN OVC016 M05/M07 A2955 RMK SC8 PRESFR SLP011=
CYYG;2005-03-01 15:26;SPECI CYYG 011526Z 07020G27KT 2 1/2SM -SN DRSN FEW009 OVC013 RMK SF2SC6=
CYYG;2005-03-01 16:00;METAR CYYG 011600Z 08020G27KT 3SM -SN DRSN FEW008 OVC011 M04/M06 A2951 RMK SF2SC6 SLP997=
CYYG;2005-03-01 16:01;SPECI CYYG 011601Z 09019G24KT 3SM -SNPL DRSN FEW008 OVC011 RMK SF2SC6=
CYYG;2005-03-01 17:00;METAR CYYG 011700Z 09015G20KT 2SM -SNPL DRSN FEW006 OVC011 M03/M05 A2947 RMK SF2SC6 SLP982=
CYYG;2005-03-01 18:00;METAR CYYG 011800Z 09018G26KT 4SM -SN DRSN FEW006 OVC011 M02/M04 A2939 RMK SF1SC7 PRESFR /S01/ SLP954=
CYYG;2005-03-01 18:30;SPECI CYYG 011830Z 11018G26KT 5SM -SN DRSN -FZDZ FEW006 OVC010 RMK SF2SC6=
CYYG;2005-03-01 19:00;METAR CYYG 011900Z 11018G24KT 5SM -SN DRSN -FZDZ OVC009 M01/M03 A2933 RMK SF8 SLP936=
CYYG;2005-03-01 19:23;SPECI CYYG 011923Z 11019G29KT 6SM -DZ BR OVC010 RMK SC8 REFZDZ=
CYYG;2005-03-01 20:00;METAR CYYG 012000Z 12018G28KT 6SM -DZ BR OVC009 01/M01 A2928 RMK SC8 REFZDZ PRESFR SLP916=
CYYG;2005-03-01 20:12;SPECI CYYG 012012Z 11021KT 15SM OVC009 RMK SC8=
CYYG;2005-03-01 20:28;SPECI CYYG 012028Z 12018KT 15SM OVC011 RMK SC8=
CYYG;2005-03-01 21:00;METAR CYYG 012100Z 12012G17KT 15SM OVC011 02/00 A2925 RMK SC8 SLP908=
CYYG;2005-03-01 21:31;SPECI CYYG 012131Z 14011KT 15SM OVC016 RMK SC8=
CYYG;2005-03-01 23:00;METAR CYYG 012300Z 18018KT 15SM OVC013 03/00 A2929 RMK SC8 SLP920=
CYYG;2005-03-02 00:00;METAR CYYG 020000Z 19019G25KT 15SM OVC015 02/M00 A2930 RMK SC8 SLP924=
CYYG;2005-03-02 01:00;METAR CYYG 020100Z 18013KT 15SM OVC017 02/M01 A2929 RMK SC8 SLP920=
CYYG;2005-03-02 03:00;METAR CYYG 020300Z 17014KT 15SM OVC020 01/M01 A2931 RMK SC8 SLP926=
CYYG;2005-03-02 04:00;METAR CYYG 020400Z 16012KT 15SM OVC018 01/M01 A2928 RMK SC8 SLP917=
CYYG;2005-03-02 05:00;METAR CYYG 020500Z 16007KT 15SM OVC018 01/M01 A2924 RMK SC8 SLP903=
CYYG;2005-03-02 06:00;METAR CYYG 020600Z 18007KT 15SM OVC022 01/M02 A2926 RMK SC8 SLP911=
CYYG;2005-03-02 06:50;SPECI CYYG 020650Z 13005KT 6SM -SHSN OVC022 RMK SC8=
CYYG;2005-03-02 07:00;METAR CYYG 020700Z 12006KT 6SM -SN OVC050 01/M01 A2923 RMK SN6SC2 SLP900=
CYYG;2005-03-02 07:41;SPECI CYYG 020741Z 10005KT 2 1/2SM -SN OVC022 RMK SN6SC2=
CYYG;2005-03-02 08:00;METAR CYYG 020800Z 16003KT 2SM -SN OVC004 00/M01 A2924 RMK SN6SF2 SLP904=
CYYG;2005-03-02 08:05;SPECI CYYG 020805Z 13002KT 1SM -SN OVC005 RMK SN6SF2=
CYYG;2005-03-02 08:18;SPECI CYYG 020818Z 08002KT 3/4SM -SN VV005 RMK SN8=
CYYG;2005-03-02 08:28;SPECI CYYG 020828Z 12002KT 1/2SM SN VV004 RMK SN8=
CYYG;2005-03-02 08:52;SPECI CYYG 020852Z 04007KT 1/4SM +SN VV003 RMK SN8=
CYYG;2005-03-02 09:00;METAR CYYG 020900Z 04008KT 1/2SM SN VV004 00/M01 A2916 RESN RMK SN8 PRESFR /S03/ SLP876=
CYYG;2005-03-02 09:07;SPECI CYYG 020907Z 05004KT 2SM -SN OVC022 RESN RMK SN2SC6=
CYYG;2005-03-02 09:27;SPECI CYYG 020927Z 18002KT 1SM -SN OVC003 RESN RMK SN6SF2=
CYYG;2005-03-02 10:00;METAR CYYG 021000Z 00000KT 1SM -SN OVC006 M00/M01 A2917 RESN RMK SN6SF2 /S04/ SLP881=
CYYG;2005-03-02 10:30;SPECI CYYG 021030Z 00000KT 1/2SM -SN FZFG OVC004 RMK SN6SF2=
CYYG;2005-03-02 11:00;METAR CYYG 021100Z 00000KT 3/4SM -SN BR OVC006 M00/M01 A2916 RMK SN5SF3 RVR RWY03 5500FT SLP877=
CYYG;2005-03-02 11:44;SPECI CYYG 021144Z 20004KT 1SM -SN BR VV002 RMK SN8 RVR RWY03 6000FT=
CYYG;2005-03-02 12:00;METAR CYYG 021200Z 20005KT 1 1/2SM -SN BR OVC002 M00/M01 A2917 RMK SF8 SLP879=
CYYG;2005-03-02 12:15;SPECI CYYG 021215Z 20006KT 3SM -SN BR OVC002 RMK SF8=
CYYG;2005-03-02 12:21;SPECI CYYG 021221Z 20003KT 5SM BR BKN002 BKN052 RMK SF6SC2=
CYYG;2005-03-02 12:30;SPECI CYYG 021230Z 20003KT 8SM VCFG SCT002 BKN053 RMK SF4SC2 VIS W 3F=
CYYG;2005-03-02 13:00;METAR CYYG 021300Z 16003KT 15SM FEW002 SCT053 M00/M01 A2916 RMK SF2SC2 VIS W LWR SLP876=
CYYG;2005-03-02 13:37;SPECI CYYG 021337Z 18009KT 15SM SCT004 BKN055 RMK SF3SC2=
CYYG;2005-03-02 14:00;METAR CYYG 021400Z 20009KT 15SM FEW005 BKN055 01/M01 A2914 RMK SF2SC2 SLP870=
CYYG;2005-03-02 14:45;SPECI CYYG 021445Z 18010G17KT 12SM -SHSN FEW005 BKN039 RMK SF2SC5=
CYYG;2005-03-02 15:00;METAR CYYG 021500Z 18012KT 10SM -SHSN FEW005 OVC023 00/M02 A2912 RMK SF2SC6 SLP864=
CYYG;2005-03-02 16:00;METAR CYYG 021600Z 19012KT 10SM -SHSN FEW008 BKN020 01/M01 A2911 RMK SF2SC5 SLP859=
CYYG;2005-03-02 17:00;METAR CYYG 021700Z 20010KT 15SM -SHSN FEW010 BKN030 01/M02 A2909 RMK SC1SC6 SLP853=
CYYG;2005-03-02 17:34;SPECI CYYG 021734Z 21008KT 15SM FEW010 BKN045 RMK SC1SC5=
CYYG;2005-03-02 18:00;METAR CYYG 021800Z 21009KT 15SM FEW010 BKN045 02/M03 A2908 RMK SC1SC5 SLP848=
CYYG;2005-03-02 19:00;METAR CYYG 021900Z 17007KT 15SM VCSH FEW010 OVC032 01/M03 A2906 RMK SC1SC7 SLP844=
CYYG;2005-03-02 20:54;SPECI CYYG 022054Z 16008KT 15SM -SHSN OVC032 RMK SC8=
CYYG;2005-03-02 21:00;METAR CYYG 022100Z 17009KT 8SM -SHSN OVC027 01/M02 A2905 RMK SC8 SLP839=
CYYG;2005-03-02 22:00;METAR CYYG 022200Z 16010KT 12SM -SHSN SCT020 OVC070 00/M02 A2905 RMK SC4AC4 SLP838=
CYYG;2005-03-02 22:52;SPECI CYYG 022252Z 15011KT 2 1/2SM -SHSN VV015 RMK SN8=
CYYG;2005-03-02 23:00;METAR CYYG 022300Z 15011KT 6SM -SHSN SCT020 OVC043 00/M02 A2904 RMK SC3SC5 SLP837=
CYYG;2005-03-03 00:00;METAR CYYG 030000Z 17012G17KT 5SM -SHSN FEW025 OVC040 M00/M03 A2904 RMK SC2SC6 SLP835=
CYYG;2005-03-03 00:35;SPECI CYYG 030035Z 18013KT 1 1/2SM -SHSN SCT004 OVC025 RMK SN2SF2SC5=
CYYG;2005-03-03 01:00;METAR CYYG 030100Z 17010KT 1SM -SHSN VV008 M02/M03 A2903 RMK SN8 /S01/ SLP833=
CYYG;2005-03-03 01:07;SPECI CYYG 030107Z 17010KT 2SM -SHSN VV015 RMK SN8=
CYYG;2005-03-03 01:15;SPECI CYYG 030115Z 16010KT 1SM -SHSN VV008 RMK SN8=
CYYG;2005-03-03 02:00;METAR CYYG 030200Z 15008KT 8SM -SHSN OVC033 M02/M03 A2902 RMK SC8 SLP828=
CYYG;2005-03-03 03:00;METAR CYYG 030300Z 16010KT 5SM -SHSN OVC030 M02/M04 A2900 RMK SC8 SLP823=
CYYG;2005-03-03 03:11;SPECI CYYG 030311Z 16010KT 2SM -SHSN OVC027 RMK SN2SC6=
CYYG;2005-03-03 03:22;SPECI CYYG 030322Z 16009KT 1SM -SHSN VV008 RMK SN8=
CYYG;2005-03-03 04:00;METAR CYYG 030400Z 16007KT 1 1/2SM -SHSN BKN008 OVC022 M02/M04 A2899 RMK SN6SF2SC1 /S02/ SLP818=
CYYG;2005-03-03 04:31;SPECI CYYG 030431Z 17008KT 4SM -SHSN OVC008 RMK SF8=
CYYG;2005-03-03 05:00;METAR CYYG 030500Z 17007KT 5SM -SHSN BKN006 OVC010 M02/M04 A2898 RMK SF6SC2 SLP815=
CYYG;2005-03-03 06:00;METAR CYYG 030600Z 25005KT 10SM -SHSN SCT006 OVC019 M02/M03 A2899 RMK SF3SC5 SLP818=
CYYG;2005-03-03 06:42;SPECI CYYG 030642Z 27006KT 1 1/2SM -SHSN OVC006 RMK SN5SF3=
CYYG;2005-03-03 07:00;METAR CYYG 030700Z 25008KT 1 1/2SM -SHSN OVC006 M02/M03 A2899 RMK SN5SF3 SLP820=
CYYG;2005-03-03 07:25;SPECI CYYG 030725Z 28011G18KT 2SM -SHSN DRSN OVC012 RMK SN2SC6=
CYYG;2005-03-03 08:00;METAR CYYG 030800Z 28012G18KT 8SM -SHSN DRSN SCT012 OVC040 M03/M05 A2902 RMK SC3SC5 SLP828=
CYYG;2005-03-03 08:21;SPECI CYYG 030821Z 28010G15KT 15SM DRSN OVC012 RMK SC8=
CYYG;2005-03-03 09:00;METAR CYYG 030900Z 26014KT 15SM DRSN OVC010 M04/M07 A2905 RMK SC8 SLP839=
CYYG;2005-03-03 11:00;METAR CYYG 031100Z 27012KT 15SM DRSN FEW020 FEW100 SCT250 M06/M10 A2911 RMK SC2AC1CI0 SLP859=
CYYG;2005-03-03 12:00;METAR CYYG 031200Z 27012KT 15SM DRSN FEW020 FEW100 SCT250 M06/M10 A2913 RMK SC1AC1CI0 SLP868=
CYYG;2005-03-03 13:00;METAR CYYG 031300Z 27012KT 15SM DRSN FEW020 BKN250 M06/M11 A2916 RMK SC1CI1 SLP876=
CYYG;2005-03-03 14:00;METAR CYYG 031400Z 27015KT 15SM DRSN FEW020 BKN250 M06/M11 A2917 RMK SC2CI1 SLP880=
CYYG;2005-03-03 15:00;METAR CYYG 031500Z 27013G18KT 15SM DRSN FEW025 BKN250 M05/M11 A2917 RMK CF2CI1 SLP882=
CYYG;2005-03-03 16:00;METAR CYYG 031600Z 28011G17KT 15SM DRSN BKN033 BKN250 M05/M11 A2918 RMK SC5CI1 SLP884=
CYYG;2005-03-03 16:27;SPECI CYYG 031627Z 28013G19KT 15SM -SHSN DRSN BKN033 OVC250 RMK SC7CI1=
CYYG;2005-03-03 17:00;METAR CYYG 031700Z 27012G17KT 10SM -SHSN DRSN BKN032 OVC050 M05/M10 A2919 RMK SC6SC2 SLP886=
CYYG;2005-03-03 17:50;SPECI CYYG 031750Z 25009G15KT 2 1/2SM -SHSN DRSN OVC023 RMK SC8=
CYYG;2005-03-03 18:00;METAR CYYG 031800Z 26008G15KT 2 1/2SM -SHSN DRSN OVC023 M05/M09 A2918 RMK SC8 SLP885=
CYYG;2005-03-03 19:00;METAR CYYG 031900Z 27010G17KT 2 1/2SM -SHSN DRSN OVC019 M06/M10 A2920 RMK SC8 SLP889=
CYYG;2005-03-03 20:00;METAR CYYG 032000Z 28010G18KT 10SM -SHSN DRSN BKN020 OVC046 M06/M11 A2923 RMK SC6SC2 SLP899=
CYYG;2005-03-03 21:00;METAR CYYG 032100Z 29014KT 15SM DRSN SCT020 BKN048 BKN250 M07/M13 A2925 RMK SC3SC2CI1 SLP908=
CYYG;2005-03-03 22:00;METAR CYYG 032200Z 29011KT 15SM DRSN FEW020 BKN045 BKN250 M07/M14 A2929 RMK SC2SC4CI1 SLP921=
CYYG;2005-03-03 22:34;SPECI CYYG 032234Z 29011KT 15SM -SHSN DRSN FEW020 OVC047 RMK SC2SC6=
CYYG;2005-03-03 23:00;METAR CYYG 032300Z 30012KT 15SM -SHSN DRSN FEW020 OVC046 M08/M13 A2933 RMK SC2SC6 SLP933=
CYYG;2005-03-04 00:00;METAR CYYG 040000Z 28014G20KT 15SM -SHSN DRSN FEW020 OVC051 M09/M16 A2937 RMK SC2SC6 SLP948=
CYYG;2005-03-04 01:00;METAR CYYG 040100Z 28008G16KT 15SM -SHSN DRSN OVC048 M10/M17 A2939 RMK SC8 SLP954=
CYYG;2005-03-04 02:00;METAR CYYG 040200Z 27012KT 15SM -SHSN DRSN SCT020 OVC040 M11/M17 A2940 RMK SC3SC5 SLP959=
CYYG;2005-03-04 03:00;METAR CYYG 040300Z 27008KT 15SM -SHSN OVC045 M11/M17 A2941 RMK SC8 SLP962=
CYYG;2005-03-04 04:00;METAR CYYG 040400Z 26008KT 15SM SCT042 M12/M17 A2942 RMK SC4 SLP966=
CYYG;2005-03-04 05:00;METAR CYYG 040500Z 26007KT 15SM FEW040 M12/M18 A2943 RMK SC2 SLP969=
CYYG;2005-03-04 06:00;METAR CYYG 040600Z 25005KT 15SM SKC M12/M17 A2944 RMK SLP972=
CYYG;2005-03-04 07:00;METAR CYYG 040700Z 26008KT 15SM FEW040 M11/M16 A2944 RMK SC2 SLP973=
CYYG;2005-03-04 08:00;METAR CYYG 040800Z 27010KT 15SM FEW040 M12/M17 A2944 RMK SC2 SLP973=
CYYG;2005-03-04 09:00;METAR CYYG 040900Z 27009KT 15SM FEW040 M12/M17 A2946 RMK SC2 SLP980=
CYYG;2005-03-04 10:00;METAR CYYG 041000Z 27008KT 15SM FEW040 M13/M17 A2947 RMK SC2 SLP984=
CYYG;2005-03-04 11:00;METAR CYYG 041100Z 27009KT 15SM FEW040 FEW250 M13/M18 A2949 RMK SC1CI1 SLP989=
CYYG;2005-03-04 12:00;METAR CYYG 041200Z 26009KT 15SM FEW040 FEW250 M12/M17 A2950 RMK SC1CI1 SLP994=
CYYG;2005-03-04 13:00;METAR CYYG 041300Z 28010G17KT 15SM DRSN FEW040 FEW250 M11/M18 A2951 RMK SC2CI1 SLP998=
CYYG;2005-03-04 14:00;METAR CYYG 041400Z 26009KT 15SM FEW020 SCT034 BKN250 M11/M16 A2951 RMK CF1SC3CI1 SLP996=
CYYG;2005-03-04 15:00;METAR CYYG 041500Z 28013KT 15SM FEW020 BKN034 BKN250 M10/M16 A2951 RMK CU2SC4CI1 SLP998=
CYYG;2005-03-04 16:00;METAR CYYG 041600Z 26011KT 15SM VCSH FEW024 BKN040 BKN250 M10/M17 A2951 RMK CU2SC3CI1 SLP996=
CYYG;2005-03-04 17:00;METAR CYYG 041700Z 25009KT 15SM SCT030 M09/M17 A2949 RMK CU3 SLP990=
CYYG;2005-03-04 18:00;METAR CYYG 041800Z 27013KT 15SM SCT030 SCT250 M09/M16 A2948 RMK CU3CI1 SLP986=
CYYG;2005-03-04 19:00;METAR CYYG 041900Z 26010KT 15SM -SHSN FEW033 SCT051 M08/M16 A2948 RMK CU2SC2 SLP987=
CYYG;2005-03-04 20:00;METAR CYYG 042000Z 27009KT 15SM -SHSN FEW033 FEW061 BKN250 M08/M16 A2948 RMK CU1SC2CI1 SLP987=
CYYG;2005-03-04 20:45;SPECI CYYG 042045Z 27011G18KT 15SM DRSN FEW033 FEW061 BKN110 RMK CU1SC1AC2=
CYYG;2005-03-04 21:00;METAR CYYG 042100Z 26011G16KT 15SM DRSN FEW030 FEW060 BKN110 M08/M16 A2948 RMK CU1SC2AC2 SHSN DIST N SLP986=
CYYG;2005-03-04 22:00;METAR CYYG 042200Z 28009KT 15SM DRSN VCSH FEW033 FEW068 SCT110 M09/M15 A2949 RMK CU1AC1AC2 SHSN NE VIS 3 SLP990=
CYYG;2005-03-04 23:00;METAR CYYG 042300Z 26004KT 15SM FEW070 M10/M14 A2951 RMK AC2 SLP995=
CYYG;2005-03-04 23:41;SPECI CYYG 042341Z 26004KT 15SM -SHSN SCT044 BKN110 RMK SC3AC2=
CYYG;2005-03-05 00:00;METAR CYYG 050000Z 27003KT 15SM -SHSN SCT040 BKN110 M11/M14 A2951 RMK SC3AC2 SLP997=
CYYG;2005-03-05 01:00;METAR CYYG 050100Z 25003KT 15SM -SHSN FEW020 SCT040 BKN100 M11/M13 A2951 RMK SC2SC2AC2 SLP996=
CYYG;2005-03-05 02:00;METAR CYYG 050200Z 26006KT 15SM FEW060 SCT130 M11/M13 A2950 RMK SC2AC2 SLP994=
CYYG;2005-03-05 03:00;METAR CYYG 050300Z 25004KT 15SM -SHSN SCT060 M11/M13 A2949 RMK SC4 SLP990=
CYYG;2005-03-05 04:00;METAR CYYG 050400Z 24006KT 15SM BKN060 M10/M12 A2948 RMK SC6 SLP985=
CYYG;2005-03-05 05:00;METAR CYYG 050500Z 25006KT 15SM -SHSN FEW031 BKN051 M09/M12 A2947 RMK SC2SC3 SLP982=
CYYG;2005-03-05 05:45;SPECI CYYG 050545Z 27007KT 15SM FEW050 RMK SC2=
CYYG;2005-03-05 06:00;METAR CYYG 050600Z 27007KT 15SM FEW050 M10/M13 A2947 RMK SC2 SLP982=
CYYG;2005-03-05 07:00;METAR CYYG 050700Z 25006KT 15SM FEW030 FEW041 SCT110 M10/M13 A2946 RMK SC2SC1AC1 SLP980=
CYYG;2005-03-05 08:00;METAR CYYG 050800Z 27009KT 15SM FEW030 SCT120 M10/M14 A2945 RMK SC2AC2 SLP977=
CYYG;2005-03-05 09:00;METAR CYYG 050900Z 27011KT 15SM FEW027 FEW110 M11/M15 A2945 RMK SC2AC1 SLP977=
CYYG;2005-03-05 10:00;METAR CYYG 051000Z 27008KT 15SM FEW100 M11/M15 A2945 RMK AC2 SLP977=
CYYG;2005-03-05 11:00;METAR CYYG 051100Z 27009KT 15SM DRSN FEW040 FEW100 M11/M15 A2945 RMK SC1AC1 SLP977=
CYYG;2005-03-05 12:00;METAR CYYG 051200Z 27012KT 15SM DRSN FEW040 FEW100 M11/M15 A2947 RMK SC1AC1 SLP981=
CYYG;2005-03-05 13:00;METAR CYYG 051300Z 27013KT 15SM DRSN FEW020 FEW040 FEW300 M10/M15 A2947 RMK CU1SC1CI1 SLP983=
CYYG;2005-03-05 14:00;METAR CYYG 051400Z 29014KT 15SM DRSN FEW015 SCT300 M09/M14 A2947 RMK SC1CI0 SLP983=
CYYG;2005-03-05 14:52;SPECI CYYG 051452Z 29011G17KT 12SM -SHSN DRSN BKN022 RMK SC5=
CYYG;2005-03-05 15:00;METAR CYYG 051500Z 29010G16KT 15SM -SHSN DRSN BKN022 M08/M14 A2947 RMK SC5 SLP981=
CYYG;2005-03-05 16:00;METAR CYYG 051600Z 29011KT 15SM -SHSN DRSN BKN022 M08/M14 A2946 RMK SC5 SLP979=
CYYG;2005-03-05 16:18;SPECI CYYG 051618Z 29014KT 15SM DRSN BKN024 RMK SC5=
CYYG;2005-03-05 17:00;METAR CYYG 051700Z 30012G20KT 15SM BKN032 M08/M15 A2946 RMK SC5 SLP978=
CYYG;2005-03-05 18:00;METAR CYYG 051800Z 28013G18KT 15SM VCSH BKN030 M07/M14 A2946 RMK SC7 SLP978=
CYYG;2005-03-05 19:00;METAR CYYG 051900Z 29012KT 15SM FEW038 SCT100 M06/M14 A2944 RMK SC2AC1 SLP974=
CYYG;2005-03-05 20:00;METAR CYYG 052000Z 27014KT 15SM FEW038 BKN055 M06/M13 A2945 RMK CU2SC3 SLP975=
CYYG;2005-03-05 21:00;METAR CYYG 052100Z 26007KT 15SM FEW038 FEW055 M06/M13 A2945 RMK CU1SC1 SLP975=
CYYG;2005-03-05 22:00;METAR CYYG 052200Z 25006KT 15SM FEW043 FEW250 M06/M14 A2946 RMK SC1CI1 SLP979=
CYYG;2005-03-05 23:00;METAR CYYG 052300Z 24004KT 15SM FEW250 M07/M14 A2948 RMK CI1 SLP987=
CYYG;2005-03-06 00:00;METAR CYYG 060000Z 25005KT 15SM FEW250 M07/M14 A2950 RMK CI1 SLP992=
CYYG;2005-03-06 01:00;METAR CYYG 060100Z 28008KT 15SM FEW250 M07/M14 A2952 RMK CI1 SLP998=
CYYG;2005-03-06 02:00;METAR CYYG 060200Z 28006KT 15SM FEW250 M07/M15 A2952 RMK CI1 SLP999=
CYYG;2005-03-06 03:00;METAR CYYG 060300Z 27004KT 15SM SKC M07/M15 A2953 RMK SLP003=
CYYG;2005-03-06 04:00;METAR CYYG 060400Z 23006KT 15SM SKC M09/M15 A2954 RMK SLP005=
CYYG;2005-03-06 05:00;METAR CYYG 060500Z 27007KT 15SM SKC M09/M14 A2954 RMK SLP007=
CYYG;2005-03-06 06:00;METAR CYYG 060600Z 27008KT 15SM SKC M09/M15 A2955 RMK SLP011=
CYYG;2005-03-06 07:00;METAR CYYG 060700Z 27007KT 15SM SKC M10/M16 A2956 RMK SLP012=
CYYG;2005-03-06 08:00;METAR CYYG 060800Z 29007KT 15SM SKC 09/M16 A2956 RMK SLP013=
CYYG;2005-03-06 10:00;METAR CYYG 061000Z 27005KT 15SM FEW250 M10/M16 A2961 RMK CI1 SLP029=
CYYG;2005-03-06 12:00;METAR CYYG 061200Z 23006KT 15SM SCT250 M11/M16 A2966 RMK CI2 SLP046=
CYYG;2005-03-06 13:00;METAR CYYG 061300Z 27005KT 15SM SCT250 M09/M16 A2967 RMK CI2 SLP050=
CYYG;2005-03-06 14:00;METAR CYYG 061400Z 24004KT 15SM BKN250 M07/M17 A2966 RMK CI2 SLP049=
CYYG;2005-03-06 15:00;METAR CYYG 061500Z 00000KT 15SM BKN250 M06/M17 A2966 RMK CI1 SLP045=
CYYG;2005-03-06 16:00;METAR CYYG 061600Z 18003KT 15SM SCT250 M05/M15 A2963 RMK CI1 SLP037=
CYYG;2005-03-06 17:00;METAR CYYG 061700Z 18008KT 15SM FEW040 BKN250 M05/M13 A2960 RMK CU1CI1 SLP027=
CYYG;2005-03-06 18:00;METAR CYYG 061800Z 19002KT 15SM FEW040 BKN250 M04/M14 A2956 RMK CU1CI2 SLP013=
CYYG;2005-03-06 19:00;METAR CYYG 061900Z 16007KT 15SM FEW040 BKN250 M04/M12 A2954 RMK CU1CS2 SLP005=
CYYG;2005-03-06 20:00;METAR CYYG 062000Z 16008KT 15SM FEW040 OVC220 M03/M13 A2952 RMK CU1CS2 SLP999=
CYYG;2005-03-06 21:00;METAR CYYG 062100Z 16008KT 15SM FEW100 OVC220 M03/M12 A2950 RMK AC1CS4 SLP993=
CYYG;2005-03-06 22:00;METAR CYYG 062200Z 16010KT 15SM FEW100 OVC220 M03/M11 A2948 RMK AC1CS4 SLP987=
CYYG;2005-03-06 23:00;METAR CYYG 062300Z 17010KT 15SM BKN060 OVC220 M03/M10 A2948 RMK SC5CS2 SLP985=
CYYG;2005-03-07 00:00;METAR CYYG 070000Z 16006KT 15SM OVC048 M03/M10 A2948 RMK SC8 SLP986=
CYYG;2005-03-07 01:00;METAR CYYG 070100Z 18010KT 15SM OVC065 M02/M07 A2947 RMK SC8 SLP983=
CYYG;2005-03-07 01:53;SPECI CYYG 070153Z 18011KT 10SM -SN OVC030 RMK SC8=
CYYG;2005-03-07 02:00;METAR CYYG 070200Z 18012KT 5SM -SN SCT008 OVC017 M02/M06 A2947 RMK SF4SC4 SLP983=
CYYG;2005-03-07 03:00;METAR CYYG 070300Z 19014KT 4SM -SN BKN007 OVC017 M02/M04 A2946 RMK SF6SC2 SLP980=
CYYG;2005-03-07 03:11;SPECI CYYG 070311Z 18014KT 7SM -SN DRSN BKN010 OVC025 RMK SF5SC3=
CYYG;2005-03-07 04:00;METAR CYYG 070400Z 18014KT 7SM -SN DRSN BKN010 OVC025 M02/M04 A2943 RMK SF6SC2 /S01/ SLP968=
CYYG;2005-03-07 05:00;METAR CYYG 070500Z 17014G19KT 10SM -SN DRSN BKN018 OVC040 M02/M04 A2941 RMK SC6SC2 SLP961=
CYYG;2005-03-07 06:00;METAR CYYG 070600Z 18015KT 6SM -SN DRSN BKN015 OVC028 M02/M04 A2939 RMK SC6SC2 SLP955=
CYYG;2005-03-07 07:00;METAR CYYG 070700Z 19014KT 3SM -SN DRSN OVC008 M02/M03 A2938 RMK SF8 SLP950=
CYYG;2005-03-07 08:00;METAR CYYG 070800Z 20012KT 3SM -SN DRSN OVC008 M01/M03 A2938 RMK SF8 SLP951=
CYYG;2005-03-07 09:00;METAR CYYG 070900Z 23011KT 3SM -SN DRSN OVC007 M01/M03 A2939 RMK SF8 SLP953=
CYYG;2005-03-07 10:00;METAR CYYG 071000Z 32016G24KT 5SM -SN DRSN BKN007 OVC025 M05/M07 A2944 RMK SF7SC1 SLP972=
CYYG;2005-03-07 10:31;SPECI CYYG 071031Z 33015G22KT 10SM -SN DRSN BKN012 OVC022 RMK SC6SC2=
CYYG;2005-03-07 11:00;METAR CYYG 071100Z 33014G22KT 3SM -SN DRSN SCT012 OVC027 M06/M08 A2949 RMK SC3SC5 /S01/ SLP987=
CYYG;2005-03-07 11:28;SPECI CYYG 071128Z 32012G19KT 2SM -SN DRSN FEW015 OVC035 RMK SC2SC6=
CYYG;2005-03-07 11:44;SPECI CYYG 071144Z 31017G24KT 3/4SM -SN DRSN VV008 RMK SN8 RVR RWY03 4500 FT=
CYYG;2005-03-07 12:00;METAR CYYG 071200Z 32014G24KT 2SM -SN DRSN BKN011 BKN035 OVC084 M08/M10 A2957 RMK SC5SC2AC2 PRESRR SLP015=
CYYG;2005-03-07 12:22;SPECI CYYG 071222Z 31014G20KT 5SM -SN DRSN FEW011 BKN022 BKN084 RMK SC2SC3AC2=
CYYG;2005-03-07 13:00;METAR CYYG 071300Z 31016G22KT 10SM -SN DRSN BKN018 M09/M13 A2962 RMK SC5 SLP033=
CYYG;2005-03-07 14:00;METAR CYYG 071400Z 31014G19KT 15SM -SHSN DRSN SCT020 M09/M14 A2965 RMK SC4 SLP043=
CYYG;2005-03-07 15:00;METAR CYYG 071500Z 31015G20KT 15SM -SHSN DRSN SCT022 M09/M15 A2968 RMK SC4 SLP054=
CYYG;2005-03-07 16:00;METAR CYYG 071600Z 31011G16KT 15SM -SHSN DRSN SCT024 M09/M15 A2972 RMK SC4 VIS LWR NE SLP066=
CYYG;2005-03-07 16:48;SPECI CYYG 071648Z 31008KT 15SM FEW032 FEW250 RMK SC2CI0=
CYYG;2005-03-07 17:00;METAR CYYG 071700Z 31009KT 15SM FEW032 FEW250 M09/M17 A2972 RMK SC2CI0 SLP068=
CYYG;2005-03-07 18:00;METAR CYYG 071800Z 29006KT 15SM FEW034 SCT250 M08/M17 A2974 RMK SC1CI0 SLP074=
CYYG;2005-03-07 19:00;METAR CYYG 071900Z 28010KT 15SM FEW034 BKN260 M08/M19 A2976 RMK SC1CI1 SLP079=
CYYG;2005-03-07 20:00;METAR CYYG 072000Z 31006KT 15SM FEW035 SCT260 M08/M19 A2977 RMK SC1CI1 SLP082=
CYYG;2005-03-07 21:00;METAR CYYG 072100Z 34004KT 15SM BKN260 M08/M18 A2977 RMK CI1 SLP085=
CYYG;2005-03-07 22:00;METAR CYYG 072200Z 00000KT 15SM BKN260 M09/M18 A2979 RMK CI2 SLP092=
CYYG;2005-03-07 23:00;METAR CYYG 072300Z 11005KT 15SM FEW130 BKN260 M10/M17 A2979 RMK AC2CI2 SLP090=
CYYG;2005-03-08 00:00;METAR CYYG 080000Z 13006KT 15SM FEW110 BKN260 M11/M17 A2979 RMK AC2CI2 SLP091=
CYYG;2005-03-08 01:00;METAR CYYG 080100Z 14005KT 15SM SCT097 BKN260 M10/M16 A2982 RMK AC4CI2 SLP103=
CYYG;2005-03-08 02:00;METAR CYYG 080200Z 13006KT 15SM -SHSN SCT040 OVC095 M10/M15 A2980 RMK SC4AC4 SLP095=
CYYG;2005-03-08 03:00;METAR CYYG 080300Z 13006KT 5SM -SHSN BKN015 OVC030 M09/M14 A2981 RMK SC6SC2 SLP098=
CYYG;2005-03-08 04:00;METAR CYYG 080400Z 14010KT 6SM -SHSN BKN015 OVC030 M09/M12 A2978 RMK SC6SC2 SLP088=
CYYG;2005-03-08 05:00;METAR CYYG 080500Z 13010KT 10SM -SHSN BKN015 OVC029 M08/M11 A2973 RMK SC6SC2 SLP072=
CYYG;2005-03-08 06:00;METAR CYYG 080600Z 14014KT 4SM -SHSN BKN011 OVC017 M07/M09 A2969 RMK SC6SC2 SLP057=
CYYG;2005-03-08 08:00;METAR CYYG 080800Z 15019G25KT 15SM -SHSN DRSN FEW011 OVC048 M04/M09 A2957 RMK SC2SC6 SLP017=
CYYG;2005-03-08 09:00;METAR CYYG 080900Z 16021G26KT 15SM DRSN BKN051 OVC100 M03/M08 A2955 RMK SC6AC2 SLP009=
CYYG;2005-03-08 10:00;METAR CYYG 081000Z 16020KT 15SM DRSN OVC048 M02/M06 A2955 RMK SC8 SLP011=
CYYG;2005-03-08 11:00;METAR CYYG 081100Z 16014G20KT 15SM DRSN OVC020 M00/M04 A2954 RMK SC8 SLP006=
CYYG;2005-03-08 12:00;METAR CYYG 081200Z 16018G25KT 15SM DRSN OVC016 00/M03 A2954 RMK SC8 SLP005=
CYYG;2005-03-08 12:05;SPECI CYYG 081205Z 16017G22KT 15SM DRSN OVC014 RMK SC8=
CYYG;2005-03-08 12:50;SPECI CYYG 081250Z 16022G29KT 15SM DRSN BKN008 OVC019 RMK SC6SC2=
CYYG;2005-03-08 13:00;METAR CYYG 081300Z 16023G30KT 15SM DRSN BKN008 OVC018 01/M01 A2950 RMK SC6SC2 SLP992=
CYYG;2005-03-08 13:08;SPECI CYYG 081308Z 17026G33KT 15SM SCT008 OVC014 RMK SF3SC5=
CYYG;2005-03-08 13:24;SPECI CYYG 081324Z 16024G34KT 15SM BKN008 OVC014 RMK SF6SC2=
CYYG;2005-03-08 14:00;METAR CYYG 081400Z 16025G32KT 15SM OVC007 02/M00 A2947 RMK ST8 SLP982=
CYYG;2005-03-08 15:00;METAR CYYG 081500Z 16023G28KT 15SM OVC007 03/01 A2943 RMK ST8 SLP967=
CYYG;2005-03-08 15:36;SPECI CYYG 081536Z 16017G28KT 15SM OVC006 RMK ST8=
CYYG;2005-03-08 16:00;METAR CYYG 081600Z 16019G25KT 15SM OVC005 04/03 A2941 RMK ST8 SLP962=
CYYG;2005-03-08 16:13;SPECI CYYG 081613Z 16018G27KT 10SM OVC004 RMK ST8=
CYYG;2005-03-08 17:00;METAR CYYG 081700Z 16018KT 10SM BKN004 OVC007 05/04 A2939 RMK SF6SC2 SLP956=
CYYG;2005-03-08 17:40;SPECI CYYG 081740Z 17018KT 6SM BR SCT004 OVC010 RMK SF3SC5=
CYYG;2005-03-08 18:00;METAR CYYG 081800Z 17018KT 8SM SCT004 OVC011 05/04 A2936 RMK SF3SC5 SLP944=
CYYG;2005-03-08 18:03;SPECI CYYG 081803Z 17018KT 8SM -SHRA SCT004 OVC011 RMK SF3SC5=
CYYG;2005-03-08 18:24;SPECI CYYG 081824Z 17015KT 2SM -SHRA BR BKN003 OVC013 RMK SF5SC3=
CYYG;2005-03-08 18:33;SPECI CYYG 081833Z 17015KT 1SM -SHRA BR OVC002 RMK FG2SF6 RVR RWY03 4500 FT=
CYYG;2005-03-08 18:41;SPECI CYYG 081841Z 17015KT 1/2SM -SHRA FG OVC002 RMK FG6SF2 RVR RWY03 3000 FT=
CYYG;2005-03-08 19:00;METAR CYYG 081900Z 16016KT 1/4SM -SHRA FG VV002 06/05 A2936 RMK FG8 RVR RWY03 1000 FT SLP943=
CYYG;2005-03-08 20:00;METAR CYYG 082000Z 16013KT 1/8SM RA FG VV001 06/05 A2933 RMK FG8 RVR RWY03 0700 FT SLP934=
CYYG;2005-03-08 20:20;SPECI CYYG 082020Z 16015KT 1/2SM -RA FG BKN002 OVC013 RERA RMK FG2SF2SC3 RVR RWY03 3000 FT=
CYYG;2005-03-08 20:26;SPECI CYYG 082026Z 16016KT 2SM -RA BR BKN003 BKN012 OVC022 RERA RMK SF5SC2SC2=
CYYG;2005-03-08 21:00;METAR CYYG 082100Z 16018KT 2 1/2SM -RA BR BKN003 OVC018 07/06 A2930 RERA RMK SF5SC3 SLP924=
CYYG;2005-03-08 22:00;METAR CYYG 082200Z 16019G25KT 3SM -RA BR BKN004 OVC020 07/06 A2928 RMK SF5SC3 SLP915=
CYYG;2005-03-08 22:16;SPECI CYYG 082216Z 17020G27KT 6SM -RA BR SCT004 OVC022 RMK SF3SC5=
CYYG;2005-03-09 00:00;METAR CYYG 090000Z 16020G27KT 10SM FEW004 OVC018 08/06 A2925 RMK SF2SC6 SLP906=
CYYG;2005-03-09 00:15;SPECI CYYG 090015Z 16020G27KT 4SM -RA BR FEW004 OVC017 RMK SF2SC6=
CYYG;2005-03-09 01:00;METAR CYYG 090100Z 16020G28KT 10SM -RA OVC018 08/07 A2923 RMK SC8 SLP899=
CYYG;2005-03-09 02:00;METAR CYYG 090200Z 16023G31KT 10SM -RA BKN020 BKN060 OVC100 08/07 A2919 RMK SC6SC2AC1 SLP887=
CYYG;2005-03-09 03:00;METAR CYYG 090300Z 16027G32KT 15SM -RA SCT020 BKN060 OVC090 09/07 A2913 RMK SC4SC3AC1 PRESFR SLP867=
CYYG;2005-03-09 03:19;SPECI CYYG 090319Z 16029G39KT 15SM BKN021 BKN052 OVC090 RMK SC5SC2AC1=
CYYG;2005-03-09 04:00;METAR CYYG 090400Z 16027G35KT 15SM BKN021 BKN060 OVC100 08/07 A2910 RMK SC5SC2AC1 SLP855=
CYYG;2005-03-09 04:40;SPECI CYYG 090440Z 15029G39KT 10SM -SHRA BKN014 BKN021 OVC060 RMK SC5SC2SC1=
CYYG;2005-03-09 05:00;METAR CYYG 090500Z 14027G35KT 15SM -SHRA BKN014 BKN021 OVC060 09/07 A2904 RMK SC6SC2SC1 SLP836=
CYYG;2005-03-09 06:00;METAR CYYG 090600Z 14028G36KT 10SM -SHRA BKN010 BKN022 OVC060 08/07 A2899 RMK SC6SC2SC1 SLP817=
CYYG;2005-03-09 07:00;METAR CYYG 090700Z 14029G40KT 10SM SHRA BKN010 OVC022 08/07 A2893 RMK SC6SC2 SLP796=
CYYG;2005-03-09 08:00;METAR CYYG 090800Z 14031G38KT 10SM -SHRA BKN010 OVC022 09/08 A2884 RMK SC5SC3 RERA PRESFR SLP767=
CYYG;2005-03-09 08:52;SPECI CYYG 090852Z 14031G40KT 3SM TSRA BR BKN010 OVC022CB RMK SC5CB3=
CYYG;2005-03-09 09:00;METAR CYYG 090900Z 14033G46KT 3SM +TSRA BR BKN011 OVC022CB 08/08 A2881 RMK SC5CB3 SLP757=
CYYG;2005-03-09 09:13;SPECI CYYG 090913Z 16028G37KT 5SM TSRA BR BKN009 OVC020CB RMK SF6CB2 RERA=
CYYG;2005-03-09 09:37;SPECI CYYG 090937Z 16030G39KT 10SM -SHRA BKN009 OVC069 RMK SF6AC2 RERA=
CYYG;2005-03-09 10:00;METAR CYYG 091000Z 17030G42KT 10SM -SHRA SCT009 BKN018 OVC069 06/06 A2882 RMK SF4SC2AC2 SLP762=
CYYG;2005-03-09 10:35;SPECI CYYG 091035Z 18043G53KT 12SM FEW009 OVC022 RMK SF2SC6=
CYYG;2005-03-09 11:00;METAR CYYG 091100Z 18028G36KT 10SM -SHRA BKN014 OVC022 02/01 A2889 RMK SC5SC3 PRESRR SLP783=
CYYG;2005-03-09 11:38;SPECI CYYG 091138Z 18041G46KT 15SM -SHRA FEW014 OVC026 RMK SC2SC6=
CYYG;2005-03-09 12:00;METAR CYYG 091200Z 17028G38KT 15SM -SHRA FEW017 OVC023 01/M03 A2893 RMK SC2SC6 SLP798=
CYYG;2005-03-09 12:31;SPECI CYYG 091231Z 18030G39KT 15SM OVC023 RMK SC8=
CYYG;2005-03-09 13:00;METAR CYYG 091300Z 19029G38KT 15SM BKN023 00/M04 A2899 RMK SC7 PRESRR SLP818=
CYYG;2005-03-09 14:00;METAR CYYG 091400Z 18028G37KT 15SM FEW020 BKN040 00/M05 A2903 RMK SC2SC6 SLP831=
CYYG;2005-03-09 14:17;SPECI CYYG 091417Z 18028G38KT 15SM -SHSN DRSN BKN027 BKN040 RMK SC5SC2=
CYYG;2005-03-09 15:00;METAR CYYG 091500Z 19027G38KT 15SM -SHSN DRSN BKN025 BKN040 M01/M06 A2907 RMK SC5SC2 SLP846=
CYYG;2005-03-09 16:00;METAR CYYG 091600Z 18025G37KT 15SM -SHSN BKN028 BKN048 M01/M05 A2909 RMK SC5SC2 SLP854=
CYYG;2005-03-09 17:00;METAR CYYG 091700Z 18021G26KT 10SM -SHSN DRSN FEW015 OVC026 M01/M06 A2912 RMK SC2SC6 SLP863=
CYYG;2005-03-09 17:21;SPECI CYYG 091721Z 18027G36KT 2SM -SHSN DRSN OVC023 RMK SC8=
CYYG;2005-03-09 17:29;SPECI CYYG 091729Z 20017G35KT 5SM -SHSN DRSN BKN023 BKN034 RMK SC5SC2 VIS SW-W 15=
CYYG;2005-03-09 18:00;METAR CYYG 091800Z 18020G27KT 5SM -SHSN BKN026 M01/M06 A2913 RMK SC7 VIS=
CYYG;2005-03-09 18:21;SPECI CYYG 091821Z 20019G28KT 2SM -SHSN OVC020 RMK SC8=
CYYG;2005-03-09 18:37;SPECI CYYG 091837Z 20019G26KT 10SM -SHSN BKN029 RMK SC7 VIS W-N 5=
CYYG;2005-03-09 19:00;METAR CYYG 091900Z 20022G31KT 10SM -SHSN BKN020 M02/M06 A2916 RMK SC7 SLP877=
CYYG;2005-03-09 20:00;METAR CYYG 092000Z 20021G26KT 15SM -SHSN FEW029 BKN063 M02/M07 A2918 RMK SC2SC3 SLP884=
CYYG;2005-03-09 20:52;SPECI CYYG 092052Z 20022G27KT 1SM -SHSN DRSN OVC012 RMK SN4SC4=
CYYG;2005-03-09 21:00;METAR CYYG 092100Z 20019G27KT 5SM -SHSN DRSN SCT012TCU BKN025 M03/M06 A2922 RMK TCU3SC4 VIS N-NE 2 SLP897=
CYYG;2005-03-09 21:44;SPECI CYYG 092144Z 23018G28KT 1/2SM SHSN DRSN OVC014TCU RMK SN4TCU4 RVR RWY03 4500 FT=
CYYG;2005-03-09 21:52;SPECI CYYG 092152Z 22016G21KT 10SM -SHSN DRSN SCT014TCU BKN047 OVC055 RESN RMK TCU3SC3SC2 VIS NE-E 2=
CYYG;2005-03-09 22:00;METAR CYYG 092200Z 22017KT 10SM -SHSN DRSN FEW014TCU BKN033 OVC052 M04/M08 A2927 RESN RMK TCU2SC3SC2 /S01/ SLP914=
CYYG;2005-03-09 23:00;METAR CYYG 092300Z 23013G22KT 10SM -SHSN DRSN FEW015 BKN022 OVC054 M05/M09 A2933 RMK SC2SC3SC2 SLP935=
CYYG;2005-03-10 00:00;METAR CYYG 100000Z 26011G16KT 3SM -SHSN DRSN BKN015 OVC024 M07/M10 A2940 RMK SC6SC2 PRESRR /S02/ SLP959=
CYYG;2005-03-10 01:00;METAR CYYG 100100Z 25012G20KT 15SM -SHSN DRSN FEW018 SCT050 M07/M14 A2945 RMK SC2SC2 SLP976=
CYYG;2005-03-10 01:39;SPECI CYYG 100139Z 25019G25KT 15SM DRSN FEW020 SCT050 RMK SC1SC2=
CYYG;2005-03-10 02:00;METAR CYYG 100200Z 25013G18KT 15SM FEW020 BKN052 M08/M16 A2950 RMK SC1SC4 SLP991=
CYYG;2005-03-10 03:00;METAR CYYG 100300Z 25013KT 15SM FEW050 M10/M18 A2952 RMK SC2 SLP000=
CYYG;2005-03-10 04:00;METAR CYYG 100400Z 26010G15KT 15SM FEW050 M11/M18 A2953 RMK SC2 SLP004=
CYYG;2005-03-10 05:00;METAR CYYG 100500Z 24011G16KT 15SM FEW050 M11/M17 A2957 RMK SC1 SLP016=
CYYG;2005-03-10 06:00;METAR CYYG 100600Z 25009KT 15SM FEW050 M11/M18 A2960 RMK SC1 SLP028=
CYYG;2005-03-10 07:00;METAR CYYG 100700Z 25006KT 15SM SKC M12/M18 A2962 RMK SLP032=
CYYG;2005-03-10 08:00;METAR CYYG 100800Z 25004KT 15SM SKC M12/M18 A2964 RMK SLP039=
CYYG;2005-03-10 09:00;METAR CYYG 100900Z 26004KT 15SM SKC M12/M18 A2965 RMK SLP044=
CYYG;2005-03-10 10:00;METAR CYYG 101000Z 24006KT 15SM FEW025 M12/M17 A2966 RMK SC1 SLP046=
CYYG;2005-03-10 11:00;METAR CYYG 101100Z 26006KT 15SM FEW025 M12/M18 A2967 RMK SC1 SLP050=
CYYG;2005-03-10 12:00;METAR CYYG 101200Z 26005KT 15SM FEW025 M11/M18 A2968 RMK SC1 SLP055=
CYYG;2005-03-10 13:00;METAR CYYG 101300Z 25013KT 15SM FEW025 M10/M17 A2968 RMK SC1 SLP054=
CYYG;2005-03-10 14:00;METAR CYYG 101400Z 26010G16KT 15SM FEW025 M10/M18 A2970 RMK SC1 SLP062=
CYYG;2005-03-10 15:00;METAR CYYG 101500Z 24008KT 15SM FEW025 M09/M18 A2972 RMK SC1 SLP067=
CYYG;2005-03-10 16:00;METAR CYYG 101600Z 22011KT 15SM FEW025 M08/M16 A2970 RMK SC1 SLP062=
CYYG;2005-03-10 17:00;METAR CYYG 101700Z 19010KT 15SM SKC M08/M15 A2968 RMK SLP055=
CYYG;2005-03-10 18:00;METAR CYYG 101800Z 00000KT 15SM SKC M07/M16 A2966 RMK SLP047=
CYYG;2005-03-10 19:00;METAR CYYG 101900Z 00000KT 15SM FEW025 M06/M15 A2965 RMK SC1 SLP043=
CYYG;2005-03-10 20:00;METAR CYYG 102000Z 18008KT 15SM FEW025 M05/M13 A2963 RMK SC1 SLP039=
CYYG;2005-03-10 21:00;METAR CYYG 102100Z 23005KT 15SM FEW025 SCT250 M05/M13 A2963 RMK SC1CI1 SLP038=
CYYG;2005-03-10 22:00;METAR CYYG 102200Z 00000KT 15SM SCT040 BKN250 M05/M13 A2964 RMK SC3CI1 SLP040=
CYYG;2005-03-10 23:00;METAR CYYG 102300Z 00000KT 15SM BKN035 BKN070 BKN250 M05/M13 A2964 RMK SC5AC2CI1 SLP041=
CYYG;2005-03-10 23:10;SPECI CYYG 102310Z 00000KT 15SM -SHSN BKN035 BKN070 RMK SC6AC2 VIS LWR SE-SW=
CYYG;2005-03-11 00:00;METAR CYYG 110000Z 27002KT 10SM -SHSN BKN025 OVC035 M06/M09 A2965 RMK SC6SC2 SLP044=
CYYG;2005-03-11 01:00;METAR CYYG 110100Z 12004KT 5SM -SHSN OVC018 M06/M08 A2966 RMK SC8 SLP048=
CYYG;2005-03-11 02:00;METAR CYYG 110200Z 11004KT 15SM FEW018 FEW074 M07/M09 A2966 RMK SC1AC2 SLP049=
CYYG;2005-03-11 02:18;SPECI CYYG 110218Z 14003KT 15SM -SHSN FEW018 FEW050 RMK SC1SC1=
CYYG;2005-03-11 03:00;METAR CYYG 110300Z 18002KT 15SM -SHSN FEW018 FEW043 M08/M09 A2967 RMK SC1SC2 SLP051=
CYYG;2005-03-11 03:21;SPECI CYYG 110321Z 22002KT 15SM FEW018 FEW043 RMK SC1SC2=
CYYG;2005-03-11 04:00;METAR CYYG 110400Z 29003KT 15SM FEW043 M09/M11 A2966 RMK SC1 SLP049=
CYYG;2005-03-11 05:00;METAR CYYG 110500Z 28006KT 15SM SKC M08/M11 A2968 RMK SLP054=
CYYG;2005-03-11 06:00;METAR CYYG 110600Z 31010KT 15SM SKC M09/M14 A2970 RMK SLP060=
CYYG;2005-03-11 07:00;METAR CYYG 110700Z 32004KT 15SM SKC M10/M14 A2970 RMK SLP060=
CYYG;2005-03-11 08:00;METAR CYYG 110800Z 27004KT 15SM SKC M11/M14 A2971 RMK SLP064=
CYYG;2005-03-11 09:00;METAR CYYG 110900Z 26006KT 15SM SKC M11/M14 A2972 RMK SLP069=
CYYG;2005-03-11 10:00;METAR CYYG 111000Z 27006KT 15SM FEW025 FEW250 M12/M14 A2974 RMK SC1CI1 SLP074=
CYYG;2005-03-11 11:00;METAR CYYG 111100Z 28007KT 15SM FEW025 FEW250 M11/M15 A2977 RMK SC1CI1 SLP083=
CYYG;2005-03-11 12:00;METAR CYYG 111200Z 30005KT 15SM FEW025 FEW250 M10/M14 A2978 RMK SC1CI1 SLP087=
CYYG;2005-03-11 13:00;METAR CYYG 111300Z 28007KT 15SM FEW025 FEW250 M09/M13 A2980 RMK SC1CI1 SLP096=
CYYG;2005-03-11 14:00;METAR CYYG 111400Z 26009KT 15SM FEW030 SCT250 M08/M16 A2982 RMK SC2CI1 SLP100=
CYYG;2005-03-11 15:00;METAR CYYG 111500Z 28010KT 15SM SCT040 SCT250 M07/M15 A2982 RMK SC3CI1 SLP101=
CYYG;2005-03-11 16:00;METAR CYYG 111600Z 29010KT 15SM FEW045 M07/M16 A2982 RMK SC2 SLP103=
CYYG;2005-03-11 17:00;METAR CYYG 111700Z 30008KT 15SM FEW045 M06/M16 A2982 RMK CU1 SLP103=
CYYG;2005-03-11 18:00;METAR CYYG 111800Z 29009KT 15SM FEW045 M06/M17 A2983 RMK CU1 SLP105=
CYYG;2005-03-11 19:00;METAR CYYG 111900Z 28007KT 15SM FEW045 FEW250 M06/M17 A2985 RMK CU1CI1 SLP110=
CYYG;2005-03-11 20:00;METAR CYYG 112000Z 00000KT 15SM FEW045 FEW250 M05/M17 A2986 RMK CU1CI1 SLP115=
CYYG;2005-03-11 21:00;METAR CYYG 112100Z 00000KT 15SM SKC M05/M17 A2987 RMK SLP117=
CYYG;2005-03-11 22:00;METAR CYYG 112200Z 00000KT 15SM SKC M06/M17 A2987 RMK SLP120=
CYYG;2005-03-11 23:00;METAR CYYG 112300Z 00000KT 15SM FEW280 M07/M16 A2989 RMK CI1 SLP126=
CYYG;2005-03-12 00:00;METAR CYYG 120000Z 12004KT 15SM FEW280 M08/M15 A2991 RMK CI1 SLP132=
CYYG;2005-03-12 01:00;METAR CYYG 120100Z 12004KT 15SM SKC M09/M15 A2993 RMK SLP137=
CYYG;2005-03-12 02:00;METAR CYYG 120200Z 13005KT 15SM SKC M09/M16 A2993 RMK SLP140=
CYYG;2005-03-12 03:00;METAR CYYG 120300Z 13004KT 15SM SKC M09/M15 A2993 RMK SLP139=
CYYG;2005-03-12 04:00;METAR CYYG 120400Z 13005KT 15SM SKC M09/M14 A2994 RMK SLP141=
CYYG;2005-03-12 06:00;METAR CYYG 120600Z 11005KT 15SM FEW280 M09/M14 A2993 RMK CI0 SLP139=
CYYG;2005-03-12 07:00;METAR CYYG 120700Z 11005KT 15SM FEW280 M10/M14 A2991 RMK CI0 SLP132=
CYYG;2005-03-12 08:00;METAR CYYG 120800Z 11005KT 15SM SCT280 M09/M14 A2990 RMK CI2 SLP130=
CYYG;2005-03-12 09:00;METAR CYYG 120900Z 11006KT 15SM SCT280 M09/M14 A2990 RMK CI1 SLP128=
CYYG;2005-03-12 10:00;METAR CYYG 121000Z 09005KT 15SM BKN280 M10/M14 A2990 RMK CI2 SLP127=
CYYG;2005-03-12 11:00;METAR CYYG 121100Z 08010KT 15SM BKN280 M08/M14 A2986 RMK CI2 SLP114=
CYYG;2005-03-12 12:00;METAR CYYG 121200Z 09011KT 15SM FEW030 BKN240 M07/M15 A2985 RMK SC1CI2 SLP110=
CYYG;2005-03-12 13:00;METAR CYYG 121300Z 09013KT 15SM FEW030 BKN240 M06/M15 A2983 RMK SC1CI3 SLP105=
CYYG;2005-03-12 14:00;METAR CYYG 121400Z 09012KT 15SM FEW030 BKN240 M05/M14 A2982 RMK SC1CI2 SLP102=
CYYG;2005-03-12 15:00;METAR CYYG 121500Z 07018KT 15SM FEW030 BKN240 M04/M14 A2978 RMK SC1CI3 SLP088=
CYYG;2005-03-12 16:00;METAR CYYG 121600Z 07017KT 15SM FEW030 BKN240 M04/M13 A2975 RMK SC1CS4 SLP077=
CYYG;2005-03-12 17:00;METAR CYYG 121700Z 04019KT 15SM FEW030 BKN240 M05/M12 A2969 RMK SC1CI3 SLP058=
CYYG;2005-03-12 19:00;METAR CYYG 121900Z 06020G26KT 15SM FEW030 OVC240 M05/M10 A2959 RMK SC2CI5 SLP022=
CYYG;2005-03-12 20:00;METAR CYYG 122000Z 05018G26KT 15SM SCT015 OVC100 M05/M09 A2956 RMK SC3AS5 SLP012=
CYYG;2005-03-12 21:00;METAR CYYG 122100Z 06019G24KT 15SM BKN015 OVC080 M05/M08 A2953 RMK SC6AS2 SLP004=
CYYG;2005-03-12 22:00;METAR CYYG 122200Z 06016G26KT 15SM BKN015 OVC077 M04/M08 A2952 RMK SC6AS2 SLP999=
CYYG;2005-03-12 23:00;METAR CYYG 122300Z 06020G25KT 15SM FEW015 OVC075 M04/M08 A2950 RMK SC2AS6 SLP991=
CYYG;2005-03-13 00:00;METAR CYYG 130000Z 05020G25KT 15SM FEW015 OVC075 M04/M08 A2948 RMK SC2AS6 SLP987=
CYYG;2005-03-13 01:00;METAR CYYG 130100Z 05016G28KT 15SM BKN018 OVC075 M04/M07 A2947 RMK SC5AS3 SLP982=
CYYG;2005-03-13 02:00;METAR CYYG 130200Z 04025G30KT 15SM BKN020 OVC080 M04/M09 A2943 RMK SC6AS2 SLP970=
CYYG;2005-03-13 03:00;METAR CYYG 130300Z 03024G32KT 15SM BKN019 OVC080 M04/M09 A2942 RMK SC6AS2 SLP963=
CYYG;2005-03-13 04:00;METAR CYYG 130400Z 03020G30KT 15SM BKN020 OVC100 M04/M09 A2940 RMK SC6AS2 SLP957=
CYYG;2005-03-13 05:00;METAR CYYG 130500Z 02021G33KT 15SM OVC020 M04/M08 A2938 RMK SC8 SLP951=
CYYG;2005-03-13 06:00;METAR CYYG 130600Z 02022G27KT 15SM OVC015 M05/M08 A2937 RMK SC8 SLP949=
CYYG;2005-03-13 07:00;METAR CYYG 130700Z 01018G27KT 15SM OVC014 M05/M08 A2937 RMK SC8 SLP948=
CYYG;2005-03-13 07:32;SPECI CYYG 130732Z 01019G25KT 12SM -SN OVC014 RMK SC8=
CYYG;2005-03-13 08:00;METAR CYYG 130800Z 36019G27KT 12SM -SN OVC014 M05/M08 A2938 RMK SC8 SLP951=
CYYG;2005-03-13 08:16;SPECI CYYG 130816Z 36015G21KT 2SM -SN DRSN OVC014 RMK SC8=
CYYG;2005-03-13 09:00;METAR CYYG 130900Z 36020G26KT 15SM -SN DRSN OVC016 M05/M09 A2938 RMK SC8 SLP950=
CYYG;2005-03-13 09:39;SPECI CYYG 130939Z 36018G27KT 15SM OVC016 RMK SC8=
CYYG;2005-03-13 10:00;METAR CYYG 131000Z 36018G26KT 15SM BKN016 OVC036 M06/M10 A2938 RMK SC6SC2 SLP951=
CYYG;2005-03-13 10:23;SPECI CYYG 131023Z 36018G27KT 6SM -SHSN FEW016 OVC035 RMK SC2SC6=
CYYG;2005-03-13 10:38;SPECI CYYG 131038Z 35019G27KT 1 1/2SM -SHSN DRSN FEW016 OVC035 RMK SC2SC6=
CYYG;2005-03-13 11:00;METAR CYYG 131100Z 35016G27KT 1 1/2SM -SHSN DRSN SCT012 OVC035 M07/M09 A2938 RMK SC3SC5 SLP951=
CYYG;2005-03-13 11:15;SPECI CYYG 131115Z 35018G27KT 5/8SM -SHSN DRSN BKN013 OVC035 RMK SC5SC3 RVR RWY03 3500 FT=
CYYG;2005-03-13 12:00;METAR CYYG 131200Z 35018G28KT 3/4SM -SHSN DRSN BKN013 OVC024 M07/M09 A2939 RMK SC5SC3 RVR RWY03 4500 FT SLP955=
CYYG;2005-03-13 12:20;SPECI CYYG 131220Z 35015G26KT 1SM -SN DRSN BKN013 OVC022 RMK SC6SC2=
CYYG;2005-03-13 12:43;SPECI CYYG 131243Z 35019G28KT 3SM -SN DRSN BKN013 OVC020 RMK SC6SC2=
CYYG;2005-03-13 13:00;METAR CYYG 131300Z 34018G25KT 4SM -SN DRSN BKN013 BKN020 OVC032 M06/M09 A2940 RMK SC5SC2SC1 SLP958=
CYYG;2005-03-13 14:00;METAR CYYG 131400Z 34019G27KT 15SM -SN DRSN BKN014 OVC042 M06/M09 A2939 RMK SC6SC2 SLP956=
CYYG;2005-03-13 14:44;SPECI CYYG 131444Z 35019G26KT 15SM DRSN OVC016 RMK SC8=
CYYG;2005-03-13 15:00;METAR CYYG 131500Z 35016G25KT 15SM DRSN OVC017 M06/M10 A2940 RMK SC8 SLP957=
CYYG;2005-03-13 15:41;SPECI CYYG 131541Z 34019G25KT 15SM -SN DRSN OVC020 RMK SC8=
CYYG;2005-03-13 16:00;METAR CYYG 131600Z 35018G27KT 12SM -SN DRSN OVC019 M05/M09 A2939 RMK SC8 SLP953=
CYYG;2005-03-13 17:00;METAR CYYG 131700Z 35013G31KT 12SM -SN DRSN OVC022 M05/M09 A2937 RMK SC8 SLP949=
CYYG;2005-03-13 18:00;METAR CYYG 131800Z 34013G21KT 15SM -SN DRSN OVC021 M05/M09 A2937 RMK SC8 SLP949=
CYYG;2005-03-13 18:53;SPECI CYYG 131853Z 34015G26KT 1 1/2SM -SN DRSN OVC021 RMK SN2SC6=
CYYG;2005-03-13 19:00;METAR CYYG 131900Z 34015G21KT 1SM -SN DRSN OVC021 M05/M08 A2938 RMK SN2SC6 SLP952=
CYYG;2005-03-13 19:13;SPECI CYYG 131913Z 35013G19KT 5/8SM -SN DRSN OVC020 RMK SN4SC4=
CYYG;2005-03-13 19:48;SPECI CYYG 131948Z 34011G18KT 3/4SM -SN DRSN OVC015 RMK SN2SC6=
CYYG;2005-03-13 20:00;METAR CYYG 132000Z 34012G19KT 3/4SM -SN DRSN OVC015 M05/M07 A2939 RMK SN2SC6 SLP953=
CYYG;2005-03-13 21:00;METAR CYYG 132100Z 34010G17KT 3/4SM -SN DRSN OVC016 M05/M07 A2940 RMK SN2SC6 SLP960=
CYYG;2005-03-13 22:00;METAR CYYG 132200Z 33010G15KT 3/4SM -SN DRSN OVC015 M05/M07 A2941 RMK SN3SC5 SLP961=
CYYG;2005-03-13 22:44;SPECI CYYG 132244Z 34010KT 3/4SM -SN DRSN VV008 RMK SN8=
CYYG;2005-03-13 23:00;METAR CYYG 132300Z 33010KT 1SM -SN DRSN VV010 M05/M07 A2941 RMK SN8 SLP963=
CYYG;2005-03-14 00:00;METAR CYYG 140000Z 33007KT 1SM -SN DRSN VV010 M05/M06 A2941 RMK SN8 SLP963=
CYYG;2005-03-14 01:00;METAR CYYG 140100Z 32008KT 1 1/2SM -SN DRSN VV010 M04/M06 A2941 RMK SN8 SLP963=
CYYG;2005-03-14 01:29;SPECI CYYG 140129Z 31008KT 3SM -SN DRSN OVC014 RMK SC8=
CYYG;2005-03-14 02:00;METAR CYYG 140200Z 30008KT 6SM -SN DRSN SCT014 OVC036 M04/M06 A2942 RMK SC3SC5 SLP967=
CYYG;2005-03-14 04:00;METAR CYYG 140400Z 31013G18KT 15SM -SHSN DRSN BKN011 OVC026 M04/M07 A2942 RMK SC5SC3 SLP966=
CYYG;2005-03-14 04:23;SPECI CYYG 140423Z 31012G18KT 15SM DRSN BKN012 OVC025 RMK SC5SC3=
CYYG;2005-03-14 06:00;METAR CYYG 140600Z 30010G17KT 15SM DRSN OVC013 M04/M06 A2944 RMK SC8 SLP972=
CYYG;2005-03-14 07:00;METAR CYYG 140700Z 30010G17KT 15SM OVC009 M04/M06 A2944 RMK SC8 SLP972=
CYYG;2005-03-14 08:00;METAR CYYG 140800Z 30012KT 10SM -SHSN DRSN OVC008 M04/M06 A2945 RMK SF8 SLP976=
CYYG;2005-03-14 09:00;METAR CYYG 140900Z 31011KT 10SM -SHSN DRSN BKN011 OVC023 M04/M06 A2946 RMK SC6SC2 SLP979=
CYYG;2005-03-14 10:00;METAR CYYG 141000Z 31010KT 6SM -SN DRSN OVC008 M04/M05 A2947 RMK SF8 SLP981=
CYYG;2005-03-14 10:22;SPECI CYYG 141022Z 31010KT 2SM -SN DRSN OVC008 RMK SF8=
CYYG;2005-03-14 11:00;METAR CYYG 141100Z 31010KT 2SM -FZDZ BR OVC006 M03/M05 A2947 RMK ST8 SLP984=
CYYG;2005-03-14 11:36;SPECI CYYG 141136Z 31010G16KT 4SM -FZDZ BR OVC006 RMK ST8=
CYYG;2005-03-14 12:00;METAR CYYG 141200Z 32011KT 2SM -FZDZ BR OVC004 M03/M04 A2948 RMK ST8 SLP987=
CYYG;2005-03-14 12:14;SPECI CYYG 141214Z 32010G16KT 1SM -SN BKN004 OVC007 REFZDZ RMK SF6SF2 RVR RWY03 6000 FT=
CYYG;2005-03-14 12:25;SPECI CYYG 141225Z 32010KT 1 1/2SM -SN SCT004 BKN027 REFZDZ RMK SF4SC3=
CYYG;2005-03-14 13:00;METAR CYYG 141300Z 33012KT 3SM -FZDZ BR BKN006 OVC033 M02/M03 A2947 RMK SF6SC2 SLP984=
CYYG;2005-03-14 13:35;SPECI CYYG 141335Z 33010KT 1 1/2SM -FZDZ BR OVC004 RMK SF8=
CYYG;2005-03-14 13:38;SPECI CYYG 141338Z 33009KT 1SM -FZDZ BR OVC003 RMK ST8 RVR RWY03 5500 FT=
CYYG;2005-03-14 13:52;SPECI CYYG 141352Z 34009KT 3/4SM -FZDZ BR OVC002 RMK ST8 RVR RWY03 4000 FT=
CYYG;2005-03-14 14:00;METAR CYYG 141400Z 34010KT 3/4SM -FZDZ BR OVC002 M01/M02 A2948 RMK ST8 RVR RWY03 4500 FT SLP987=
CYYG;2005-03-14 14:23;SPECI CYYG 141423Z 33009KT 1SM -FZDZ BR OVC003 RMK ST8 RVR RWY03 5500 FT=
CYYG;2005-03-14 14:48;SPECI CYYG 141448Z 33007KT 2SM -FZDZ BR OVC003 RMK ST8=
CYYG;2005-03-14 15:00;METAR CYYG 141500Z 34007KT 2SM -FZDZ BR OVC003 M00/M01 A2949 RMK ST8 SLP989=
CYYG;2005-03-14 16:00;METAR CYYG 141600Z 01007KT 2SM -FZDZ BR OVC003 M00/M01 A2949 RMK ST8 SLP987=
CYYG;2005-03-14 17:00;METAR CYYG 141700Z 36008KT 2SM -FZDZ BR OVC003 M00/M01 A2949 RMK ST8 SLP987=
CYYG;2005-03-14 17:23;SPECI CYYG 141723Z 01008KT 2 1/2SM BR OVC003 REFZDZ RMK ST8 VIS E 6=
CYYG;2005-03-14 17:39;SPECI CYYG 141739Z 36006KT 3/4SM BR OVC003 REFZDZ RMK FG2ST6=
CYYG;2005-03-14 18:00;METAR CYYG 141800Z 36009KT 3/4SM BR OVC003 00/M00 A2947 REFZDZ RMK FG2ST6 SLP982=
CYYG;2005-03-14 18:29;SPECI CYYG 141829Z 36008KT 1 1/2SM BR OVC003 RMK ST8=
CYYG;2005-03-14 18:48;SPECI CYYG 141848Z 36008KT 1/2SM FG VV002 RMK FG8 RVR RWY03 3500 FT=
CYYG;2005-03-14 19:00;METAR CYYG 141900Z 01011KT 1/4SM FG VV002 00/M00 A2948 RMK FG8 RVR RWY03 2000 FT SLP984=
CYYG;2005-03-14 19:18;SPECI CYYG 141918Z 01011KT 1/8SM FG VV001 RMK FG8 RVR RWY03 1200 FT=
CYYG;2005-03-14 19:35;SPECI CYYG 141935Z 01008KT 1/8SM -DZ FG VV001 RMK FG8 RVR RWY03 1100 FT=
CYYG;2005-03-14 20:00;METAR CYYG 142000Z 01009KT 1/4SM -DZ FG VV001 00/M00 A2948 RMK FG8 RVR RWY03 1400 FT SLP985=
CYYG;2005-03-14 20:07;SPECI CYYG 142007Z 02011KT 1 1/2SM -DZ BR OVC002 RMK FG2ST6=
CYYG;2005-03-14 20:22;SPECI CYYG 142022Z 03010KT 2SM -SN OVC002 RMK ST8 PCPN VRY LGT=
CYYG;2005-03-14 20:36;SPECI CYYG 142036Z 02009KT 1SM -SN BR OVC002 RMK ST8 VIS S-SW 5/8 PCPN VRY LGT=
CYYG;2005-03-14 20:49;SPECI CYYG 142049Z 02009KT 1/2SM FG OVC002 RMK ST8 RVR RWY03 2400 FT=
CYYG;2005-03-14 21:00;METAR CYYG 142100Z 01006KT 3/8SM FG OVC002 00/M00 A2949 RMK ST8 RVR RWY03 2000 FT SLP989=
CYYG;2005-03-14 21:36;SPECI CYYG 142136Z 01008KT 1/4SM FG VV002 RMK FG8 RVR RWY03 1600 FT=
CYYG;2005-03-14 22:00;METAR CYYG 142200Z 01007KT 3/8SM FG VV002 00/M01 A2949 RMK FG8 RVR RWY03 2600 FT SLP989=
CYYG;2005-03-14 22:20;SPECI CYYG 142220Z 01006KT 1/2SM FG VV002 RMK FG8 RVR RWY03 3000 FT=
CYYG;2005-03-14 22:38;SPECI CYYG 142238Z 01008KT 1/2SM FZFG VV002 RMK FG8 TEMP -0.2 RVR RWY03 3000 FT=
CYYG;2005-03-14 22:47;SPECI CYYG 142247Z 02009KT 1SM BR OVC003 RMK ST8 RVR RWY03 P6000 FT=
CYYG;2005-03-14 22:52;SPECI CYYG 142252Z 02009KT 2SM -SHSN OVC003 RMK ST8=
CYYG;2005-03-14 23:00;METAR CYYG 142300Z 02010KT 3SM -SHSN OVC003 M00/M01 A2950 RMK ST8 SLP991=
CYYG;2005-03-14 23:26;SPECI CYYG 142326Z 01009KT 2SM -SHSN BKN002 OVC005 RMK SF6ST2=
CYYG;2005-03-15 01:00;METAR CYYG 150100Z 03012G17KT 6SM -SHSN OVC005 M00/M01 A2950 RMK SF8 SLP990=
CYYG;2005-03-15 02:00;METAR CYYG 150200Z 04012G19KT 10SM -SHSN OVC004 M00/M01 A2950 RMK SF8 SLP991=
CYYG;2005-03-15 03:00;METAR CYYG 150300Z 05014KT 10SM -SHSN OVC003 M00/M01 A2950 RMK SF8 SLP993=
CYYG;2005-03-15 04:00;METAR CYYG 150400Z 05015KT 15SM -SHSN OVC005 00/M01 A2951 RMK SF8 SLP994=
CYYG;2005-03-15 05:00;METAR CYYG 150500Z 05013G19KT 15SM -SHSN OVC005 M00/M01 A2951 RMK SF8 SLP996=
CYYG;2005-03-15 06:00;METAR CYYG 150600Z 05014KT 15SM -SHSN OVC006 M00/M01 A2952 RMK SF8 SLP998=
CYYG;2005-03-15 07:00;METAR CYYG 150700Z 04014KT 15SM -SHSN OVC005 M00/M01 A2953 RMK SF8 SLP001=
CYYG;2005-03-15 08:00;METAR CYYG 150800Z 04014KT 15SM -SHSN OVC007 M00/M02 A2954 RMK SF8 SLP005=
CYYG;2005-03-15 09:00;METAR CYYG 150900Z 03015KT 15SM -SHSN OVC005 M01/M02 A2955 RMK SF8 SLP010=
CYYG;2005-03-15 10:00;METAR CYYG 151000Z 03014KT 10SM -SHSN OVC007 M01/M02 A2957 RMK SF8 SLP014=
CYYG;2005-03-15 10:16;SPECI CYYG 151016Z 03013KT 6SM -FZDZ BR OVC009 RMK SF8=
CYYG;2005-03-15 11:00;METAR CYYG 151100Z 02012KT 10SM -FZDZ BKN008 OVC024 M01/M03 A2958 RMK SF6SC2 SLP017=
CYYG;2005-03-15 12:00;METAR CYYG 151200Z 02013KT 10SM -FZDZ BKN008 OVC046 M01/M03 A2959 RMK SF6SC2 SLP022=
CYYG;2005-03-15 12:13;SPECI CYYG 151213Z 02012KT 10SM BKN009 OVC046 RMK SF6SC2=
CYYG;2005-03-15 13:00;METAR CYYG 151300Z 02013G18KT 12SM BKN009 BKN050 M01/M03 A2960 RMK SF6SC2 SLP024=
CYYG;2005-03-15 13:37;SPECI CYYG 151337Z 03015KT 15SM SCT010 BKN050 RMK SC4SC3=
CYYG;2005-03-15 14:00;METAR CYYG 151400Z 02012G17KT 12SM VCSH SCT012 BKN048 M01/M03 A2960 RMK SC4SC3 VIS LWR E SLP024=
CYYG;2005-03-15 15:00;METAR CYYG 151500Z 03013KT 12SM FEW012 SCT280 M00/M03 A2959 RMK CF1CI0 SLP023=
CYYG;2005-03-15 16:00;METAR CYYG 151600Z 01010G16KT 15SM VCSH FEW012 BKN280 01/M02 A2959 RMK CF1CI1 VIS LWR E SLP021=
CYYG;2005-03-15 17:00;METAR CYYG 151700Z 36008KT 15SM FEW016 SCT280 01/M03 A2958 RMK CF1CI1 SLP019=
CYYG;2005-03-15 18:00;METAR CYYG 151800Z 36007KT 15SM FEW016 BKN280 01/M03 A2958 RMK CF1CI2 SLP019=
CYYG;2005-03-15 19:00;METAR CYYG 151900Z 33009KT 15SM FEW016 BKN280 01/M03 A2958 RMK CF1CI2 SLP018=
CYYG;2005-03-15 20:00;METAR CYYG 152000Z 31007KT 15SM BKN280 01/M04 A2957 RMK CI5 SLP016=
CYYG;2005-03-15 21:00;METAR CYYG 152100Z 28007KT 15SM FEW036 FEW070 BKN280 02/M04 A2956 RMK SC2AC1CI3 SLP011=
CYYG;2005-03-15 22:00;METAR CYYG 152200Z 27004KT 15SM SCT028 OVC060 02/M03 A2956 RMK SC4SC4 SLP011=
CYYG;2005-03-15 22:13;SPECI CYYG 152213Z 29006KT 10SM -SHSN BKN023 OVC060 RMK SC6SC2=
CYYG;2005-03-15 22:49;SPECI CYYG 152249Z 29005KT 3SM -SHSN OVC021 RMK SC8=
CYYG;2005-03-15 23:00;METAR CYYG 152300Z 29006KT 5SM -SHSN OVC017 00/M02 A2955 RMK SC8 SLP010=
CYYG;2005-03-15 23:47;SPECI CYYG 152347Z 33006KT 2SM -SHSN OVC010 RMK SC8=
CYYG;2005-03-16 00:00;METAR CYYG 160000Z 32005KT 2SM -SHSN OVC010 M00/M01 A2957 RMK SF8 SLP015=
CYYG;2005-03-16 00:11;SPECI CYYG 160011Z 31005KT 6SM -SHSN BKN012 OVC029 RMK SF6SC2=
CYYG;2005-03-16 01:00;METAR CYYG 160100Z 34008KT 15SM -SHSN OVC015 M00/M01 A2956 RMK SC8 SLP013=
CYYG;2005-03-16 01:07;SPECI CYYG 160107Z 34008KT 15SM BKN015 OVC100 RMK SC6AC2=
CYYG;2005-03-16 01:45;SPECI CYYG 160145Z 35012G18KT 10SM -SHSN OVC014 RMK SC8=
CYYG;2005-03-16 02:00;METAR CYYG 160200Z 35011G17KT 15SM -SHSN OVC018 M01/M02 A2957 RMK SC8 SLP014=
CYYG;2005-03-16 02:28;SPECI CYYG 160228Z 35009G15KT 15SM BKN020 RMK SC7=
CYYG;2005-03-16 02:41;SPECI CYYG 160241Z 35009KT 8SM -SHSN FEW007 OVC020 RMK SF2SC6=
CYYG;2005-03-16 03:00;METAR CYYG 160300Z 35008KT 6SM -SHSN BKN006 OVC020 M01/M02 A2957 RMK SF7SC1 SLP015=
CYYG;2005-03-16 04:00;METAR CYYG 160400Z 02015KT 10SM -SHSN OVC007 M02/M03 A2959 RMK SF8 SLP021=
CYYG;2005-03-16 05:00;METAR CYYG 160500Z 36008KT 15SM -SHSN OVC007 M02/M04 A2961 RMK SF8 SLP028=
CYYG;2005-03-16 05:54;SPECI CYYG 160554Z 35009KT 15SM SCT010 RMK SF4=
CYYG;2005-03-16 06:00;METAR CYYG 160600Z 35010KT 15SM SCT010 M03/M05 A2962 RMK SF4 SLP032=
CYYG;2005-03-16 07:00;METAR CYYG 160700Z 33007KT 15SM FEW010 M04/M06 A2962 RMK SF1 SLP033=
CYYG;2005-03-16 08:00;METAR CYYG 160800Z 34009KT 15SM FEW120 M03/M05 A2963 RMK AC2 SLP036=
CYYG;2005-03-16 09:00;METAR CYYG 160900Z 34009KT 15SM -SHSN FEW012 OVC034 M02/M04 A2964 RMK SC2SC6 SLP040=
CYYG;2005-03-16 10:00;METAR CYYG 161000Z 34009G15KT 12SM -SHSN FEW012 OVC032 M02/M04 A2966 RMK SC2SC6 SLP046=
CYYG;2005-03-16 10:45;SPECI CYYG 161045Z 35012KT 12SM -SHSN OVC013 RMK SC8=
CYYG;2005-03-16 11:00;METAR CYYG 161100Z 34011G16KT 2SM -SHSN BR OVC012 M02/M04 A2968 RMK SC8 SLP051=
CYYG;2005-03-16 11:17;SPECI CYYG 161117Z 34011G16KT 3/4SM -SHSN BR OVC009 RMK SN2SF6 RVR RWY03 4000 FT=
CYYG;2005-03-16 11:44;SPECI CYYG 161144Z 34011G20KT 6SM -SHSN BKN009 OVC030 RMK SF6SC2=
CYYG;2005-03-16 12:00;METAR CYYG 161200Z 35013G18KT 4SM -SHSN BKN010 OVC030 M02/M04 A2969 RMK SF6SC2 SLP057=
CYYG;2005-03-16 12:46;SPECI CYYG 161246Z 35012G17KT 2SM -SHSN BKN010 OVC030 RMK SF6SC2=
CYYG;2005-03-16 13:00;METAR CYYG 161300Z 35010G17KT 2 1/2SM -SHSN OVC012 M01/M04 A2969 RMK SC8 SLP058=
CYYG;2005-03-16 13:46;SPECI CYYG 161346Z 35013G18KT 10SM -SHSN SCT012 OVC036 RMK SC3SC5=
CYYG;2005-03-16 14:00;METAR CYYG 161400Z 34013G18KT 15SM FEW012 BKN041 M01/M05 A2969 RMK SF1SC7 SLP058=
CYYG;2005-03-16 15:00;METAR CYYG 161500Z 34015G22KT 15SM BKN047 M00/M05 A2969 RMK SC7 SLP056=
CYYG;2005-03-16 16:00;METAR CYYG 161600Z 35012G21KT 15SM FEW050 FEW090 00/M05 A2968 RMK SC1AC1 SLP053=
CYYG;2005-03-16 17:00;METAR CYYG 161700Z 34015G22KT 15SM FEW020 FEW050 FEW090 00/M05 A2968 RMK CF1SC1AC1 SLP052=
CYYG;2005-03-16 18:00;METAR CYYG 161800Z 34014G25KT 15SM FEW020 FEW090 SCT280 00/M04 A2969 RMK CF1AC1CI2 SLP055=
CYYG;2005-03-16 19:00;METAR CYYG 161900Z 34017G25KT 15SM FEW020 BKN050 BKN090 00/M05 A2969 RMK CF1SC4AC1 SLP058=
CYYG;2005-03-16 20:00;METAR CYYG 162000Z 34015G26KT 15SM BKN051 BKN280 00/M05 A2970 RMK SC7CI1 SLP061=
CYYG;2005-03-16 21:00;METAR CYYG 162100Z 34014G24KT 15SM BKN052 BKN150 BKN280 00/M06 A2971 RMK SC5AC1CI0 SLP064=
CYYG;2005-03-16 23:00;METAR CYYG 162300Z 34010G16KT 15SM FEW050 SCT120 BKN280 M01/M06 A2972 RMK SC2AC2CI2 SLP068=
CYYG;2005-03-17 00:00;METAR CYYG 170000Z 34011KT 15SM SCT050 BKN110 M00/M07 A2972 RMK SC3AC3 SLP068=
CYYG;2005-03-17 01:00;METAR CYYG 170100Z 34009KT 15SM FEW050 SCT110 M01/M07 A2973 RMK SC2AC2 SLP069=
CYYG;2005-03-17 02:00;METAR CYYG 170200Z 33009KT 15SM FEW110 M02/M07 A2973 RMK AC2 SLP070=
CYYG;2005-03-17 03:00;METAR CYYG 170300Z 33009KT 15SM FEW110 M02/M07 A2973 RMK AC1 SLP069=
CYYG;2005-03-17 05:00;METAR CYYG 170500Z 33009KT 15SM FEW110 M02/M07 A2972 RMK AC2 SLP066=
CYYG;2005-03-17 06:00;METAR CYYG 170600Z 33011KT 15SM FEW110 M02/M08 A2971 RMK AC2 SLP064=
CYYG;2005-03-17 07:00;METAR CYYG 170700Z 33012KT 15SM SCT110 M01/M07 A2971 RMK AC2 SLP062=
CYYG;2005-03-17 08:00;METAR CYYG 170800Z 34011KT 15SM SCT110 M02/M07 A2971 RMK AC2 SLP063=
CYYG;2005-03-17 09:00;METAR CYYG 170900Z 33011KT 15SM SCT044 BKN100 M02/M07 A2971 RMK SC4AC3 SLP065=
CYYG;2005-03-17 10:00;METAR CYYG 171000Z 33010G16KT 15SM OVC048 M02/M06 A2973 RMK SC8 SLP070=
CYYG;2005-03-17 11:00;METAR CYYG 171100Z 33008KT 15SM OVC040 M02/M06 A2974 RMK SC8 SLP074=
CYYG;2005-03-17 11:35;SPECI CYYG 171135Z 33010G15KT 15SM -SN OVC040 RMK SC8=
CYYG;2005-03-17 12:00;METAR CYYG 171200Z 33011KT 15SM -SN OVC037 M01/M06 A2975 RMK SC8 PCPN VRY LGT SLP077=
CYYG;2005-03-17 13:00;METAR CYYG 171300Z 34010G15KT 15SM -SN OVC048 M01/M05 A2976 RMK SC8 PCPN VRY LGT SLP081=
CYYG;2005-03-17 14:00;METAR CYYG 171400Z 34011KT 12SM -SN OVC045 M01/M05 A2976 RMK SC8 SLP081=
CYYG;2005-03-17 15:00;METAR CYYG 171500Z 32012G17KT 6SM -SN OVC045 M01/M05 A2977 RMK SC8 SLP083=
CYYG;2005-03-17 16:00;METAR CYYG 171600Z 32016KT 4SM -SN FEW017 OVC032 M01/M04 A2976 RMK SC2SC6 VIS LWR N-NE SLP080=
CYYG;2005-03-17 17:23;SPECI CYYG 171723Z 33011G19KT 3/4SM -SN VV007 RMK SN8=
CYYG;2005-03-17 18:00;METAR CYYG 171800Z 34011G17KT 1SM -SN VV008 M02/M03 A2976 RMK SN8 SLP080=
CYYG;2005-03-17 18:18;SPECI CYYG 171818Z 34013G20KT 2SM -SN OVC008 RMK SN2SF6=
CYYG;2005-03-17 19:00;METAR CYYG 171900Z 33013G18KT 3SM -SN OVC008 M02/M04 A2976 RMK SF8 SLP081=
CYYG;2005-03-17 19:36;SPECI CYYG 171936Z 33011G18KT 2SM -SN OVC008 RMK SF8=
CYYG;2005-03-17 20:00;METAR CYYG 172000Z 32011G17KT 1SM -SN OVC008 M02/M03 A2976 RMK SN2SF6 SLP080=
CYYG;2005-03-17 21:00;METAR CYYG 172100Z 32011G17KT 1SM -SN OVC008 M02/M03 A2977 RMK SN2SF6 /S01/ SLP082=
CYYG;2005-03-17 21:06;SPECI CYYG 172106Z 32011G17KT 3/4SM -SN VV007 RMK SN8=
CYYG;2005-03-17 22:00;METAR CYYG 172200Z 32014KT 1 1/2SM -SN OVC008 M02/M03 A2977 RMK SN2SF6 SLP082=
CYYG;2005-03-17 22:16;SPECI CYYG 172216Z 32012G19KT 1SM -SN OVC008 RMK SN2SF6=
CYYG;2005-03-17 22:38;SPECI CYYG 172238Z 32012G17KT 3/4SM -SN OVC008 RMK SN3SF5=
CYYG;2005-03-17 23:00;METAR CYYG 172300Z 32012G17KT 3/4SM -SN OVC006 M01/M03 A2977 RMK SN2SF6 RVR RWY03 5000FT SLP083=
CYYG;2005-03-17 23:33;SPECI CYYG 172333Z 32009G16KT 2SM -SN OVC011 RMK SF8=
CYYG;2005-03-18 00:00;METAR CYYG 180000Z 31013G18KT 3/4SM -SN VV006 M01/M03 A2977 RMK SN8 RVR RWY03 3500FT /S02/ SLP082=
CYYG;2005-03-18 00:30;SPECI CYYG 180030Z 33012G18KT 1 1/2SM -SN VV006 RMK SN8=
CYYG;2005-03-18 01:00;METAR CYYG 180100Z 32013G18KT 2SM -SN BKN006 OVC015 M01/M03 A2975 RMK SN2SF4SC2 SLP078=
CYYG;2005-03-18 02:00;METAR CYYG 180200Z 33010G17KT 3SM -SN OVC007 M01/M02 A2976 RMK SN2SF6 /S01/ SLP079=
CYYG;2005-03-18 03:00;METAR CYYG 180300Z 34012KT 3SM -SN OVC006 M01/M02 A2975 RMK SN2SF6 SLP078=
CYYG;2005-03-18 03:43;SPECI CYYG 180343Z 34009KT 1SM -SN OVC004 RMK SN3SF5=
CYYG;2005-03-18 03:53;SPECI CYYG 180353Z 34009KT 1SM -SN VV003 RMK SN8=
CYYG;2005-03-18 04:00;METAR CYYG 180400Z 34008KT 1SM -SN VV003 M01/M02 A2975 RMK SN8 /S02/ SLP077=
CYYG;2005-03-18 05:00;METAR CYYG 180500Z 34007KT 1SM -SN VV003 M01/M02 A2975 RMK SN8 /S02/ SLP076=
CYYG;2005-03-18 06:00;METAR CYYG 180600Z 34007KT 1SM -SN VV003 M01/M02 A2974 RMK SN8 /S04/ SLP073=
CYYG;2005-03-18 07:00;METAR CYYG 180700Z 34007KT 1SM -SN VV003 M01/M02 A2973 RMK SN8 SLP069=
CYYG;2005-03-18 08:00;METAR CYYG 180800Z 34005KT 1SM -SN OVC002 M01/M02 A2972 RMK SF8 /S01/ SLP068=
CYYG;2005-03-18 09:00;METAR CYYG 180900Z 34004KT 1 1/2SM -SN OVC003 M01/M02 A2973 RMK SF8 SLP070=
CYYG;2005-03-18 09:23;SPECI CYYG 180923Z 35006KT 4SM -SN OVC004 RMK SF8=
CYYG;2005-03-18 10:00;METAR CYYG 181000Z 36005KT 3SM -SN OVC004 M01/M02 A2973 RMK SF8 /S02/ SLP070=
CYYG;2005-03-18 11:00;METAR CYYG 181100Z 36003KT 1SM -SN OVC002 M01/M02 A2974 RMK SF8 SLP073=
CYYG;2005-03-18 12:00;METAR CYYG 181200Z 02004KT 1SM -SN OVC004 M01/M02 A2975 RMK SF8 /S03/ SLP076=
CYYG;2005-03-18 13:00;METAR CYYG 181300Z 01004KT 1SM -SN BKN004 OVC007 M00/M01 A2976 RMK SF5SF3 SLP079=
CYYG;2005-03-18 14:00;METAR CYYG 181400Z 02007KT 1SM -SN OVC005 M01/M02 A2976 RMK SF8 /S01/ SLP079=
CYYG;2005-03-18 14:40;SPECI CYYG 181440Z 04009KT 2SM -SHSN BKN004 OVC011 RMK SF6SC2=
CYYG;2005-03-18 15:00;METAR CYYG 181500Z 03009KT 1SM -SHSN BR OVC003 M01/M02 A2976 RMK SF8 SLP079=
CYYG;2005-03-18 16:00;METAR CYYG 181600Z 02009KT 1SM -SHSN BR OVC003 M01/M02 A2975 RMK SF8 SLP076=
CYYG;2005-03-18 16:28;SPECI CYYG 181628Z 02007KT 1/2SM FZFG OVC002 RMK SF8=
CYYG;2005-03-18 16:47;SPECI CYYG 181647Z 04007KT 1SM -SHSN BR OVC002 RMK SF8 VSBY VRBL 1/2-11/2=
CYYG;2005-03-18 17:00;METAR CYYG 181700Z 03008KT 1SM -SHSN BR OVC003 M01/M02 A2974 RMK SF8 VSBY VRBL 1/2-11/2 SLP074=
CYYG;2005-03-18 18:32;SPECI CYYG 181832Z 04010KT 2SM -SHSN BR OVC005 RMK SF8=
CYYG;2005-03-18 19:00;METAR CYYG 181900Z 03009KT 2SM -SHSN BR OVC004 M01/M02 A2974 RMK SF8 SLP073=
CYYG;2005-03-18 20:00;METAR CYYG 182000Z 03010KT 2SM -SHSN BR OVC007 M01/M03 A2974 RMK SF8 SLP072=
CYYG;2005-03-18 21:00;METAR CYYG 182100Z 03008KT 3SM -SHSN BKN005 OVC023 M01/M02 A2973 RMK SF6SC2 SLP070=
CYYG;2005-03-18 22:00;METAR CYYG 182200Z 04005KT 4SM -SHSN OVC005 M01/M03 A2973 RMK SF8 SLP070=
CYYG;2005-03-18 22:46;SPECI CYYG 182246Z 03006KT 4SM -SHSN OVC003 RMK SF8=
CYYG;2005-03-18 23:00;METAR CYYG 182300Z 04006KT 10SM -SN BKN002 BKN026 OVC040 M02/M03 A2973 RMK SF5SC2SC2 SLP071=
CYYG;2005-03-18 23:08;SPECI CYYG 182308Z 04008KT 10SM -SN SCT002 BKN004 OVC010 RMK SF3SF3SC2=
CYYG;2005-03-18 23:22;SPECI CYYG 182322Z 03008KT 2SM -SN BR OVC002 RMK ST8=
CYYG;2005-03-18 23:34;SPECI CYYG 182334Z 04006KT 1/4SM -SN FZFG VV002 RMK FG8 RVR RWY03 1800 FT=
CYYG;2005-03-18 23:40;SPECI CYYG 182340Z 03007KT 1/8SM -SN FZFG VV001 RMK FG8 RVR RWY03 1000 FT=
CYYG;2005-03-19 00:00;METAR CYYG 190000Z 02008KT 1/8SM -SN FZFG VV001 M02/M03 A2973 RMK FG8 RVR RWY03 1200 FT SLP071=
CYYG;2005-03-19 00:17;SPECI CYYG 190017Z 02007KT 1/2SM -SN FZFG VV002 RMK FG8 RVR RWY03 3000 FT=
CYYG;2005-03-19 00:38;SPECI CYYG 190038Z 04007KT 2SM -SN BR OVC002 RMK ST8=
CYYG;2005-03-19 01:00;METAR CYYG 190100Z 04007KT 3SM -SN BR BKN002 BKN013 OVC019 M02/M03 A2973 RMK SF6SC2SC1 SLP069=
CYYG;2005-03-19 01:14;SPECI CYYG 190114Z 04006KT 5SM -SN SCT002 OVC041 RMK SF3SC5=
CYYG;2005-03-19 01:47;SPECI CYYG 190147Z 02005KT 10SM -SN FEW003 BKN014 OVC021 RMK SF2SC3SC2=
CYYG;2005-03-19 02:00;METAR CYYG 190200Z 02005KT 15SM -SN BKN003 OVC015 M02/M03 A2972 RMK SF6SC2 SLP068=
CYYG;2005-03-19 02:19;SPECI CYYG 190219Z 02006KT 2SM -SN BR OVC003 RMK ST8=
CYYG;2005-03-19 02:34;SPECI CYYG 190234Z 02007KT 1/2SM FZFG VV002 RMK FG8 RVR RWY03 4000 FT=
CYYG;2005-03-19 02:47;SPECI CYYG 190247Z 02007KT 1/4SM FZFG VV002 RMK FG8 RVR RWY03 1600 FT=
CYYG;2005-03-19 03:00;METAR CYYG 190300Z 02007KT 1/4SM FZFG VV002 M02/M03 A2971 RMK FG8 RVR RWY03 1200 FT SLP062=
CYYG;2005-03-19 03:11;SPECI CYYG 190311Z 02007KT 2SM BR BKN002 OVC025 RMK SF6SC2=
CYYG;2005-03-19 03:22;SPECI CYYG 190322Z 02008KT 5SM BR BKN002 OVC027 RMK SF6SC2=
CYYG;2005-03-19 03:43;SPECI CYYG 190343Z 03006KT 1/4SM FZFG VV002 RMK FG8 RVR RWY03 4000 FT=
CYYG;2005-03-19 04:00;METAR CYYG 190400Z 03006KT 1/4SM FZFG VV002 M02/M03 A2969 RMK FG8 RVR RWY03 1200 FT SLP058=
CYYG;2005-03-19 04:23;SPECI CYYG 190423Z 02006KT 1/4SM -SN FZFG VV002 RMK FG8 RVR RWY03 1200 FT=
CYYG;2005-03-19 05:00;METAR CYYG 190500Z 02006KT 1/4SM -SN FZFG VV002 M02/M03 A2969 RMK FG8 RVR RWY03 1600 FT SLP055=
CYYG;2005-03-19 06:00;METAR CYYG 190600Z 02006KT 1/4SM -SN FZFG VV002 M01/M03 A2968 RMK FG8 RVR RWY03 1600 FT SLP053=
CYYG;2005-03-19 07:00;METAR CYYG 190700Z 02008KT 1/4SM -SN FZFG VV002 M01/M03 A2967 RMK FG8 RVR RWY03 1200 FT SLP049=
CYYG;2005-03-19 07:21;SPECI CYYG 190721Z 02009KT 1SM -SN BR OVC002 RMK ST8 RVR RWY03 5500 FT=
CYYG;2005-03-19 07:45;SPECI CYYG 190745Z 02007KT 1/2SM -SN FZFG VV002 RMK FG8 RVR RWY03 2200 FT=
CYYG;2005-03-19 08:00;METAR CYYG 190800Z 01007KT 1/2SM -SN FZFG VV002 M01/M03 A2967 RMK FG8 RVR RWY03 2000 FT SLP049=
CYYG;2005-03-19 08:42;SPECI CYYG 190842Z 01007KT 1/4SM -SN FZFG VV002 RMK FG8 RVR RWY03 1200 FT=
CYYG;2005-03-19 09:00;METAR CYYG 190900Z 36008KT 1/4SM -SN FZFG VV002 M01/M02 A2967 RMK FG8 RVR RWY03 1400 FT SLP050=
CYYG;2005-03-19 09:06;SPECI CYYG 190906Z 36007KT 2SM -SN BR OVC003 RMK ST8=
CYYG;2005-03-19 09:14;SPECI CYYG 190914Z 36006KT 3SM -SN BKN002 OVC005 RMK SF5SF3=
CYYG;2005-03-19 10:00;METAR CYYG 191000Z 01008KT 2SM -SN BR OVC003 M01/M02 A2968 RMK SF8 SLP053=
CYYG;2005-03-19 10:04;SPECI CYYG 191004Z 02010G15KT 1/2SM -SN FZFG VV002 RMK FG8 RVR RWY03 2800 FT=
CYYG;2005-03-19 10:08;SPECI CYYG 191008Z 02012KT 2SM -SN BR OVC002 RMK SF8=
CYYG;2005-03-19 10:31;SPECI CYYG 191031Z 02013KT 3SM -SN FEW002 OVC006 RMK SF2SF6=
CYYG;2005-03-19 11:00;METAR CYYG 191100Z 02014G20KT 2SM -SN DRSN SCT005 OVC007 M01/M02 A2971 RMK SF4SF4 SLP062=
CYYG;2005-03-19 12:00;METAR CYYG 191200Z 02014G19KT 2SM -SN DRSN OVC006 M01/M03 A2973 RMK SF8 SLP071=
CYYG;2005-03-19 13:00;METAR CYYG 191300Z 36009KT 10SM SCT006 OVC090 M01/M03 A2975 RMK SF3AC3 SLP077=
CYYG;2005-03-19 14:00;METAR CYYG 191400Z 34008KT 15SM OVC072 M01/M02 A2976 RMK AC6 SLP080=
CYYG;2005-03-19 15:00;METAR CYYG 191500Z 34009KT 15SM FEW010 BKN067 M00/M03 A2976 RMK SC1AC5 SLP081=
CYYG;2005-03-19 16:00;METAR CYYG 191600Z 36010G18KT 15SM FEW015 OVC069 M00/M03 A2977 RMK SC2AC6 SLP084=
CYYG;2005-03-19 16:46;SPECI CYYG 191646Z 35011KT 10SM -SHSN SCT016 OVC065 RMK SC3SC5=
CYYG;2005-03-19 17:00;METAR CYYG 191700Z 34009KT 8SM -SHSN SCT015 OVC062 M00/M03 A2977 RMK SC4SC4 SLP085=
CYYG;2005-03-19 17:15;SPECI CYYG 191715Z 33010G16KT 6SM -SHSN BKN011 OVC024 RMK SC6SC2=
CYYG;2005-03-19 18:00;METAR CYYG 191800Z 34009G15KT 4SM -SN BKN009 OVC020 M00/M03 A2978 RMK SC6SC2 SLP088=
CYYG;2005-03-19 19:00;METAR CYYG 191900Z 34012G17KT 4SM -SN BKN008 OVC014 M01/M03 A2979 RMK SF6SC2 SLP091=
CYYG;2005-03-19 20:00;METAR CYYG 192000Z 34009G17KT 4SM -SN FEW010 OVC034 M01/M04 A2980 RMK SC2SC6 SLP094=
CYYG;2005-03-19 20:31;SPECI CYYG 192031Z 32009KT 15SM FEW010 OVC043 RMK SC2SC6=
CYYG;2005-03-19 21:00;METAR CYYG 192100Z 33009KT 15SM OVC042 M02/M06 A2980 RMK SC8 SLP095=
CYYG;2005-03-19 22:00;METAR CYYG 192200Z 33009KT 15SM OVC041 M02/M06 A2982 RMK SC8 SLP099=
CYYG;2005-03-19 23:00;METAR CYYG 192300Z 32008KT 15SM FEW041 BKN064 M02/M06 A2982 RMK SC2SC6 SLP101=
CYYG;2005-03-19 23:04;SPECI CYYG 192304Z 32012KT 15SM -SHSN FEW041 BKN062 RMK SC2SC6=
CYYG;2005-03-20 00:00;METAR CYYG 200000Z 30010KT 15SM -SHSN OVC060 M02/M06 A2983 RMK SC8 SLP103=
CYYG;2005-03-20 00:32;SPECI CYYG 200032Z 30010KT 15SM FEW062 RMK SC2=
CYYG;2005-03-20 01:00;METAR CYYG 200100Z 30010G15KT 15SM FEW062 M03/M06 A2983 RMK SC1 SLP103=
CYYG;2005-03-20 02:00;METAR CYYG 200200Z 29010KT 15SM FEW062 M03/M07 A2983 RMK SC1 SLP103=
CYYG;2005-03-20 03:00;METAR CYYG 200300Z 30011KT 15SM SKC M03/M07 A2982 RMK SLP101=
CYYG;2005-03-20 04:00;METAR CYYG 200400Z 30008KT 15SM SKC M04/M08 A2981 RMK SLP097=
CYYG;2005-03-20 05:00;METAR CYYG 200500Z 29011KT 15SM SKC M04/M09 A2979 RMK SLP090=
CYYG;2005-03-20 06:00;METAR CYYG 200600Z 29011KT 15SM SKC M04/M09 A2978 RMK SLP088=
CYYG;2005-03-20 07:00;METAR CYYG 200700Z 28010G15KT 15SM SKC M04/M08 A2977 RMK SLP082=
CYYG;2005-03-20 08:00;METAR CYYG 200800Z 29011KT 15SM SKC M04/M07 A2975 RMK SLP077=
CYYG;2005-03-20 09:00;METAR CYYG 200900Z 29012KT 15SM SKC M04/M08 A2974 RMK SLP075=
CYYG;2005-03-20 10:00;METAR CYYG 201000Z 29012KT 15SM DRSN FEW250 M04/M08 A2974 RMK CI1 SLP073=
CYYG;2005-03-20 11:00;METAR CYYG 201100Z 30011G16KT 15SM FEW250 M04/M08 A2974 RMK CI1 SLP074=
CYYG;2005-03-20 12:00;METAR CYYG 201200Z 31015G24KT 15SM FEW250 M03/M08 A2974 RMK CI1 SLP075=
CYYG;2005-03-20 13:00;METAR CYYG 201300Z 32014G20KT 15SM FEW250 M03/M08 A2974 RMK CI1 SLP074=
CYYG;2005-03-20 14:00;METAR CYYG 201400Z 32012G21KT 15SM FEW250 M02/M08 A2976 RMK CI1 SLP080=
CYYG;2005-03-20 15:00;METAR CYYG 201500Z 32017G26KT 15SM FEW250 M02/M09 A2976 RMK CI1 SLP079=
CYYG;2005-03-20 16:00;METAR CYYG 201600Z 33018G25KT 15SM FEW030 FEW250 M01/M08 A2977 RMK SC1CI1 SLP082=
CYYG;2005-03-20 17:00;METAR CYYG 201700Z 32015G21KT 15SM FEW030 FEW250 M01/M08 A2978 RMK SC1CI1 SLP087=
CYYG;2005-03-20 18:00;METAR CYYG 201800Z 33012G21KT 15SM FEW030 FEW250 M01/M08 A2978 RMK SC1CI1 SLP087=
CYYG;2005-03-20 19:00;METAR CYYG 201900Z 32011G17KT 15SM FEW030 FEW250 M00/M08 A2979 RMK SC1CI1 SLP091=
CYYG;2005-03-20 20:00;METAR CYYG 202000Z 34010G18KT 15SM FEW030 SCT250 M00/M08 A2979 RMK SC2CI1 SLP092=
CYYG;2005-03-20 21:00;METAR CYYG 202100Z 36009G16KT 15SM FEW030 SCT250 M01/M06 A2980 RMK SC2CI1 SLP095=
CYYG;2005-03-20 22:00;METAR CYYG 202200Z 36007KT 15SM SCT054 SCT250 M02/M07 A2982 RMK SC3CI1 SLP100=
CYYG;2005-03-20 23:00;METAR CYYG 202300Z 35005KT 15SM BKN043 M02/M07 A2983 RMK SC6 SLP105=
CYYG;2005-03-21 00:00;METAR CYYG 210000Z 34008KT 15SM BKN041 M02/M07 A2985 RMK SC7 SLP109=
CYYG;2005-03-21 01:00;METAR CYYG 210100Z 34006KT 15SM BKN043 BKN095 M02/M07 A2985 RMK SC5AC1 SLP110=
CYYG;2005-03-21 02:00;METAR CYYG 210200Z 34008KT 15SM BKN039 M02/M07 A2985 RMK SC7 SLP110=
CYYG;2005-03-21 03:00;METAR CYYG 210300Z 34007KT 15SM BKN040 M02/M06 A2985 RMK SC6 SLP109=
CYYG;2005-03-21 04:00;METAR CYYG 210400Z 33010KT 15SM BKN009 OVC020 M02/M04 A2985 RMK SC5SC3 SLP111=
CYYG;2005-03-21 05:00;METAR CYYG 210500Z 33010G15KT 15SM BKN009 OVC016 M02/M04 A2985 RMK SC6SC2 SLP109=
CYYG;2005-03-21 05:51;SPECI CYYG 210551Z 33010KT 5SM -SHSN BKN009 OVC016 RMK SC6SC2=
CYYG;2005-03-21 06:09;SPECI CYYG 210609Z 34010KT 10SM -SHSN FEW008 OVC021 RMK SC2SC6=
CYYG;2005-03-21 07:00;METAR CYYG 210700Z 33009KT 5SM -SHSN FEW008 OVC021 M02/M03 A2985 RMK SC2SC6 SLP109=
CYYG;2005-03-21 08:00;METAR CYYG 210800Z 33010G16KT 1 1/2SM -SHSN DRSN VV008 M02/M03 A2985 RMK SN8 SLP110=
CYYG;2005-03-21 09:06;SPECI CYYG 210906Z 33009G15KT 2SM -SHSN DRSN BKN005 OVC009 RMK SF5SC3=
CYYG;2005-03-21 09:25;SPECI CYYG 210925Z 34010KT 1SM -SHSN DRSN OVC005 RMK SN4SF4 RVR RWY03 5000 FT=
CYYG;2005-03-21 09:36;SPECI CYYG 210936Z 34008KT 3/4SM -SHSN VV005 RMK SN8 RVR RWY03 4500 FT=
CYYG;2005-03-21 10:00;METAR CYYG 211000Z 34008KT 1SM -SHSN VV007 M02/M03 A2988 RMK SN8 RVR RWY03 6000 FT SLP120=
CYYG;2005-03-21 10:34;SPECI CYYG 211034Z 34008KT 2SM -SHSN FEW004 OVC025 RMK SF2SC6=
CYYG;2005-03-21 11:00;METAR CYYG 211100Z 34009KT 2SM -SHSN OVC009 M02/M03 A2990 RMK SF8 SLP127=
CYYG;2005-03-21 12:00;METAR CYYG 211200Z 35007KT 2SM -SHSN OVC008 M01/M03 A2992 RMK SF8 SLP133=
CYYG;2005-03-21 13:00;METAR CYYG 211300Z 35006KT 2SM -SHSN OVC006 M01/M02 A2993 RMK SF8 SLP138=
CYYG;2005-03-21 14:00;METAR CYYG 211400Z 36008KT 5SM -SHSN OVC008 M01/M02 A2994 RMK SF8 SLP141=
CYYG;2005-03-21 14:35;SPECI CYYG 211435Z 36009KT 10SM -SHSN OVC010 RMK SC8=
CYYG;2005-03-21 15:00;METAR CYYG 211500Z 35008KT 10SM -SHSN OVC010 M01/M03 A2993 RMK SC8 SLP138=
CYYG;2005-03-21 16:00;METAR CYYG 211600Z 35009KT 8SM -SHSN OVC010 M00/M03 A2993 RMK SC8 SLP137=
CYYG;2005-03-21 17:00;METAR CYYG 211700Z 01009KT 15SM -SHSN OVC010 M00/M03 A2993 RMK SC8 SLP139=
CYYG;2005-03-21 18:00;METAR CYYG 211800Z 36008KT 8SM -SHSN OVC014 M00/M03 A2993 RMK SC8 SLP138=
CYYG;2005-03-21 19:00;METAR CYYG 211900Z 01006KT 10SM -SHSN OVC014 M01/M03 A2994 RMK SC8 SLP140=
CYYG;2005-03-21 19:43;SPECI CYYG 211943Z 01008KT 15SM OVC021 RMK SC8=
CYYG;2005-03-21 20:00;METAR CYYG 212000Z 36007KT 15SM OVC023 M01/M04 A2993 RMK SC8 SLP138=
CYYG;2005-03-21 21:00;METAR CYYG 212100Z 36006KT 15SM OVC023 M01/M04 A2993 RMK SC8 SLP137=
CYYG;2005-03-21 22:00;METAR CYYG 212200Z 36004KT 15SM SCT023 OVC030 M01/M04 A2994 RMK SC4SC4 SLP142=
CYYG;2005-03-21 23:00;METAR CYYG 212300Z 35003KT 15SM FEW016 OVC120 M01/M04 A2995 RMK SC2AC6 SLP144=
CYYG;2005-03-22 00:00;METAR CYYG 220000Z 36004KT 15SM FEW016 BKN120 M02/M04 A2996 RMK SC1AC6 SLP148=
CYYG;2005-03-22 01:00;METAR CYYG 220100Z 36004KT 15SM FEW120 OVC250 M02/M04 A2996 RMK AC2CS2 SLP147=
CYYG;2005-03-22 02:00;METAR CYYG 220200Z 36003KT 15SM OVC250 M03/M05 A2996 RMK CS2 SLP148=
CYYG;2005-03-22 03:00;METAR CYYG 220300Z 34004KT 15SM OVC250 M03/M05 A2996 RMK CS2 SLP149=
CYYG;2005-03-22 05:00;METAR CYYG 220500Z 33003KT 15SM FEW010 FEW090 OVC250 M04/M05 A2996 RMK SC1AC1CS1 SLP148=
CYYG;2005-03-22 07:00;METAR CYYG 220700Z 35005KT 15SM FEW026 OVC033 M04/M05 A2996 RMK SC2SC6 SLP147=
CYYG;2005-03-22 08:00;METAR CYYG 220800Z 36005KT 15SM FEW010 OVC029 M04/M06 A2996 RMK SC1SC7 SLP147=
CYYG;2005-03-22 09:00;METAR CYYG 220900Z 36005KT 15SM FEW017 OVC028 M04/M06 A2997 RMK SC2SC6 SLP150=
CYYG;2005-03-22 10:00;METAR CYYG 221000Z 36004KT 15SM FEW019 OVC024 M05/M06 A2997 RMK SC2SC6 SLP152=
CYYG;2005-03-22 11:00;METAR CYYG 221100Z 36004KT 15SM FEW020 BKN120 M05/M06 A2998 RMK SC2AC5 SLP155=
CYYG;2005-03-22 12:00;METAR CYYG 221200Z 01005KT 15SM SCT120 BKN260 M04/M07 A2999 RMK AC3CS3 SLP159=
CYYG;2005-03-22 13:00;METAR CYYG 221300Z 36004KT 15SM FEW120 BKN260 M03/M07 A3001 RMK AC2CS3 SLP163=
CYYG;2005-03-22 14:00;METAR CYYG 221400Z 01008KT 15SM FEW030 BKN260 M02/M07 A3001 RMK SC1CI2 SLP166=
CYYG;2005-03-22 15:00;METAR CYYG 221500Z 36007KT 15SM SCT260 M02/M06 A3002 RMK CI2 SLP168=
CYYG;2005-03-22 16:00;METAR CYYG 221600Z 01009KT 15SM SCT260 M02/M08 A3002 RMK CI2 SLP168=
CYYG;2005-03-22 17:00;METAR CYYG 221700Z 32007KT 15SM SCT260 M01/M08 A3002 RMK CI2 SLP167=
CYYG;2005-03-22 18:00;METAR CYYG 221800Z 32008KT 15SM SCT260 M00/M08 A3001 RMK CI2 SLP166=
CYYG;2005-03-22 19:00;METAR CYYG 221900Z 33007KT 15SM SCT260 M00/M07 A3001 RMK CI2 SLP166=
CYYG;2005-03-22 20:00;METAR CYYG 222000Z 02008KT 15SM FEW030 FEW260 M01/M06 A3001 RMK SC1CI1 SLP166=
CYYG;2005-03-22 21:00;METAR CYYG 222100Z 36006KT 15SM FEW030 FEW260 M01/M06 A3003 RMK SC1CI1 SLP173=
CYYG;2005-03-22 22:00;METAR CYYG 222200Z 35004KT 15SM FEW030 M02/M05 A3005 RMK SC1 SLP178=
CYYG;2005-03-22 23:00;METAR CYYG 222300Z 36003KT 15SM FEW015 FEW080 FEW300 M04/M06 A3006 RMK SC1AC1CI0 SLP182=
CYYG;2005-03-23 00:00;METAR CYYG 230000Z 04004KT 15SM FEW015 FEW300 M05/M08 A3005 RMK SC1CI0 SLP180=
CYYG;2005-03-23 01:00;METAR CYYG 230100Z 04003KT 15SM FEW300 M06/M08 A3005 RMK CI0 SLP179=
CYYG;2005-03-23 02:00;METAR CYYG 230200Z 03002KT 15SM FEW300 M07/M08 A3005 RMK CI0 FROIN SLP179=
CYYG;2005-03-23 03:00;METAR CYYG 230300Z 10004KT 15SM FEW300 M06/M08 A3004 RMK CI0 FROIN SLP175=
CYYG;2005-03-23 04:00;METAR CYYG 230400Z 12003KT 15SM SCT062 M07/M09 A3003 RMK SC4 FROIN SLP172=
CYYG;2005-03-23 05:00;METAR CYYG 230500Z 11002KT 15SM FEW060 BKN300 M07/M09 A3001 RMK SC2CI1 FROIN SLP165=
CYYG;2005-03-23 06:00;METAR CYYG 230600Z 18003KT 15SM OVC070 M07/M09 A3000 RMK AC8 FROIN SLP162=
CYYG;2005-03-23 06:49;SPECI CYYG 230649Z 15005KT 15SM -SHSN FEW020 OVC070 RMK SC2AC6=
CYYG;2005-03-23 07:00;METAR CYYG 230700Z 16005KT 15SM -SHSN FEW020 FEW040 OVC070 M05/M07 A2998 RMK SC1SC2AC6 SLP154=
CYYG;2005-03-23 08:00;METAR CYYG 230800Z 15007KT 15SM FEW062 OVC085 M04/M06 A2995 RMK SC1AC7 SLP146=
CYYG;2005-03-23 10:00;METAR CYYG 231000Z 16007KT 15SM OVC080 M02/M07 A2991 RMK AC8 SLP131=
CYYG;2005-03-23 11:00;METAR CYYG 231100Z 15007KT 15SM BKN070 M02/M07 A2989 RMK AC6 SLP124=
CYYG;2005-03-23 12:00;METAR CYYG 231200Z 18008KT 15SM FEW087 OVC110 M01/M05 A2988 RMK AC2AS6 SLP122=
CYYG;2005-03-23 13:00;METAR CYYG 231300Z 20009KT 15SM BKN070 OVC110 00/M04 A2988 RMK AS5AS2 SLP121=
CYYG;2005-03-23 13:32;SPECI CYYG 231332Z 23006KT 15SM -SHSN OVC032 RMK SC8 VIS S-SW 5=
CYYG;2005-03-23 15:00;METAR CYYG 231500Z 27008KT 3SM -SHSN OVC013 00/M02 A2989 RMK SC8 VIS=
CYYG;2005-03-23 16:00;METAR CYYG 231600Z 23004KT 15SM VCSH BKN037 01/M02 A2990 RMK SC7 VIS LWR E-SE SLP126=
CYYG;2005-03-23 17:00;METAR CYYG 231700Z 21005KT 15SM FEW005 BKN026 02/M01 A2990 RMK SF1SC6 SLP128=
CYYG;2005-03-23 18:00;METAR CYYG 231800Z 32013KT 15SM -SHSN FEW005 BKN018 OVC037 00/M02 A2993 RMK SF1SC6SC2 SLP136=
CYYG;2005-03-23 18:20;SPECI CYYG 231820Z 32014KT 10SM -SHSN OVC009 RMK SC8=
CYYG;2005-03-23 19:00;METAR CYYG 231900Z 32012G19KT 15SM -SHSN OVC010 M02/M04 A2995 RMK SC8 SLP143=
CYYG;2005-03-23 19:31;SPECI CYYG 231931Z 32013G18KT 15SM -SN OVC008 RMK ST8=
CYYG;2005-03-23 20:00;METAR CYYG 232000Z 33012G18KT 15SM -SN OVC008 M02/M04 A2997 RMK ST8 SLP150=
CYYG;2005-03-23 20:26;SPECI CYYG 232026Z 35011G18KT 15SM -SN SCT008 BKN015 OVC024 RMK SF4SC2SC2=
CYYG;2005-03-23 20:37;SPECI CYYG 232037Z 36012KT 15SM -SN BKN008 BKN016 OVC025 RMK SF6SC2SC1=
CYYG;2005-03-23 20:51;SPECI CYYG 232051Z 34010G15KT 15SM BKN009 OVC025 RMK SF6SC2=
CYYG;2005-03-23 21:00;METAR CYYG 232100Z 35009G15KT 15SM BKN009 OVC025 M02/M04 A3000 RMK SC6SC2 SLP160=
CYYG;2005-03-23 21:23;SPECI CYYG 232123Z 32009KT 15SM SCT009 OVC013 RMK SC3SC5=
CYYG;2005-03-23 22:00;METAR CYYG 232200Z 34006KT 15SM BKN013 M02/M05 A3004 RMK SC7 SLP175=
CYYG;2005-03-23 22:27;SPECI CYYG 232227Z 34009KT 15SM BKN008 OVC016 RMK SC6SC2=
CYYG;2005-03-23 23:00;METAR CYYG 232300Z 34008KT 15SM BKN008 OVC014 M03/M05 A3009 RMK SC6SC2 SLP190=
CYYG;2005-03-24 00:00;METAR CYYG 240000Z 33010KT 15SM OVC012 M03/M05 A3013 RMK SC8 SLP206=
CYYG;2005-03-24 01:00;METAR CYYG 240100Z 36009KT 15SM OVC013 M03/M06 A3012 RMK SC8 SLP203=
CYYG;2005-03-24 02:00;METAR CYYG 240200Z 02009KT 15SM SCT015 M04/M07 A3012 RMK SC3 SLP202=
CYYG;2005-03-24 03:00;METAR CYYG 240300Z 05009KT 15SM BKN011 M04/M07 A3010 RMK SC6 SLP195=
CYYG;2005-03-24 04:00;METAR CYYG 240400Z 08003KT 15SM BKN011 M04/M06 A3010 RMK SC6 SLP197=
CYYG;2005-03-24 05:00;METAR CYYG 240500Z 11005KT 15SM BKN012 M04/M06 A3012 RMK SC6 SLP202=
CYYG;2005-03-24 06:00;METAR CYYG 240600Z 09006KT 15SM OVC010 M04/M07 A3009 RMK SC8 SLP193=
CYYG;2005-03-24 07:00;METAR CYYG 240700Z 08007KT 15SM OVC010 M04/M07 A3008 RMK SC8 SLP190=
CYYG;2005-03-24 08:00;METAR CYYG 240800Z 09005KT 15SM OVC008 M05/M07 A3007 RMK SF8 SLP185=
CYYG;2005-03-24 09:00;METAR CYYG 240900Z 11004KT 15SM OVC009 M05/M07 A3009 RMK SF8 SLP191=
CYYG;2005-03-24 10:00;METAR CYYG 241000Z 09003KT 15SM OVC009 M05/M07 A3008 RMK SF8 SLP190=
CYYG;2005-03-24 11:00;METAR CYYG 241100Z 09003KT 15SM OVC008 M04/M06 A3009 RMK ST8 SLP192=
CYYG;2005-03-24 12:00;METAR CYYG 241200Z 09003KT 15SM OVC010 M04/M06 A3009 RMK SC8 SLP194=
CYYG;2005-03-24 13:00;METAR CYYG 241300Z 12008KT 15SM OVC014 M03/M06 A3009 RMK SC8 SLP192=
CYYG;2005-03-24 14:00;METAR CYYG 241400Z 10004KT 15SM BKN014 M03/M06 A3007 RMK SC7 SLP186=
CYYG;2005-03-24 15:00;METAR CYYG 241500Z 14005KT 15SM BKN012 M03/M06 A3006 RMK SC7 SLP183=
CYYG;2005-03-24 16:00;METAR CYYG 241600Z 18008KT 15SM BKN011 M02/M05 A3006 RMK SC7 SLP182=
CYYG;2005-03-24 17:00;METAR CYYG 241700Z 15004KT 15SM OVC010 M02/M05 A3004 RMK SC8 SLP176=
CYYG;2005-03-24 18:00;METAR CYYG 241800Z 16002KT 10SM OVC012 M01/M05 A3002 RMK SC8 SLP170=
CYYG;2005-03-24 19:00;METAR CYYG 241900Z 19004KT 10SM OVC012 M01/M04 A3000 RMK SC8 SLP162=
CYYG;2005-03-24 20:00;METAR CYYG 242000Z 17002KT 15SM BKN014 OVC250 M00/M04 A2998 RMK SC6CI1 SLP157=
CYYG;2005-03-24 21:00;METAR CYYG 242100Z 18006KT 15SM OVC018 M01/M04 A2998 RMK SC7 SLP153=
CYYG;2005-03-24 22:00;METAR CYYG 242200Z 17004KT 15SM SCT016 BKN250 M01/M04 A2997 RMK SC3CI1 SLP150=
CYYG;2005-03-24 23:00;METAR CYYG 242300Z 18002KT 15SM SCT015 BKN250 M02/M04 A2995 RMK SC3CI1 SLP145=
CYYG;2005-03-25 00:00;METAR CYYG 250000Z 00000KT 15SM FEW015 BKN250 M03/M05 A2996 RMK SC2CI2 SLP148=
CYYG;2005-03-25 01:00;METAR CYYG 250100Z 11003KT 15SM FEW015 BKN180 M03/M05 A2996 RMK SC2AC2 SLP146=
CYYG;2005-03-25 02:00;METAR CYYG 250200Z 14004KT 15SM SCT180 M04/M05 A2994 RMK AC2 SLP142=
CYYG;2005-03-25 03:00;METAR CYYG 250300Z 16005KT 15SM SCT250 M04/M06 A2993 RMK CI2 SLP138=
CYYG;2005-03-25 04:00;METAR CYYG 250400Z 16005KT 15SM FEW250 M05/M06 A2992 RMK CI1 SLP134=
CYYG;2005-03-25 05:00;METAR CYYG 250500Z 17005KT 15SM SKC M05/M07 A2991 RMK SLP130=
CYYG;2005-03-25 06:00;METAR CYYG 250600Z 17006KT 15SM SKC M05/M07 A2990 RMK SLP126=
CYYG;2005-03-25 07:00;METAR CYYG 250700Z 17006KT 15SM SKC M06/M07 A2987 RMK SLP118=
CYYG;2005-03-25 08:00;METAR CYYG 250800Z 20006KT 15SM SKC M04/M06 A2986 RMK SLP115=
CYYG;2005-03-25 09:00;METAR CYYG 250900Z 18004KT 15SM SCT240 M05/M06 A2985 RMK CI2 SLP111=
CYYG;2005-03-25 10:00;METAR CYYG 251000Z 16005KT 15SM BKN240 M05/M06 A2983 RMK CI3 SLP105=
CYYG;2005-03-25 10:44;SPECI CYYG 251044Z 19010KT 15SM FEW004 BKN240 RMK SF2CI2=
CYYG;2005-03-25 11:00;METAR CYYG 251100Z 19011KT 15SM FEW004 OVC240 M03/M05 A2983 RMK SF2CI2 SLP105=
CYYG;2005-03-25 12:00;METAR CYYG 251200Z 19010KT 15SM FEW004 BKN027 OVC240 M03/M05 A2983 RMK SF2SC4CS2 SLP104=
CYYG;2005-03-25 13:00;METAR CYYG 251300Z 20011KT 15SM FEW006 BKN032 BKN240 M02/M04 A2982 RMK SF1SC5CS1 SLP100=
CYYG;2005-03-25 14:00;METAR CYYG 251400Z 21013KT 15SM FEW006 FEW032 SCT140 BKN240 M01/M04 A2980 RMK SF1SC2AC1CI1 SLP095=
CYYG;2005-03-25 15:00;METAR CYYG 251500Z 21014KT 15SM FEW010 FEW140 BKN240 01/M03 A2978 RMK SF1AC1CI1 SLP087=
CYYG;2005-03-25 16:00;METAR CYYG 251600Z 20012G17KT 15SM FEW015 BKN250 02/M02 A2976 RMK CU1CS3 SLP080=
CYYG;2005-03-25 17:00;METAR CYYG 251700Z 21011G16KT 15SM FEW020 FEW080 BKN250 03/M01 A2974 RMK CF1AC1CI1 SLP072=
CYYG;2005-03-25 18:00;METAR CYYG 251800Z 21013G18KT 15SM FEW020 SCT077 OVC250 03/M02 A2972 RMK SC1AC2CS2 SLP066=
CYYG;2005-03-25 18:54;SPECI CYYG 251854Z 22010KT 15SM -RA BKN035 OVC070 RMK SC5AS3=
CYYG;2005-03-25 19:00;METAR CYYG 251900Z 23010KT 10SM -RA OVC032 03/M01 A2971 RMK SC8 SLP065=
CYYG;2005-03-25 19:31;SPECI CYYG 251931Z 25007KT 6SM -RASN BKN011 OVC032 RMK SC6SC2=
CYYG;2005-03-25 19:52;SPECI CYYG 251952Z 24008KT 10SM -RASN OVC007 RMK SF8=
CYYG;2005-03-25 20:00;METAR CYYG 252000Z 23008KT 10SM -RASN BKN007 OVC010 02/00 A2971 RMK SF6SF2 SLP064=
CYYG;2005-03-25 20:05;SPECI CYYG 252005Z 24008KT 15SM -RA FEW006 BKN044 RMK SF2SC6=
CYYG;2005-03-25 20:11;SPECI CYYG 252011Z 23007KT 15SM FEW006 BKN034 BKN250 RMK SF1SC5CI1 VIS LWR E=
CYYG;2005-03-25 21:00;METAR CYYG 252100Z 24009KT 15SM FEW012 FEW034 FEW250 02/00 A2971 RMK CF2SC1CI1 SLP064=
CYYG;2005-03-25 22:00;METAR CYYG 252200Z 23006KT 15SM FEW040 FEW250 02/M00 A2971 RMK SC2CI1 SLP064=
CYYG;2005-03-25 22:32;SPECI CYYG 252232Z 25006KT 5SM -SHSN BKN020 RMK SC7 VIS E-SW 15=
CYYG;2005-03-25 22:40;SPECI CYYG 252240Z 27009KT 1/2SM SHSN VV004 RMK SN8 RVR RWY03 5000 FT=
CYYG;2005-03-25 22:45;SPECI CYYG 252245Z 28012KT 2SM -SHSN OVC005 RESN RMK SF8=
CYYG;2005-03-25 23:00;METAR CYYG 252300Z 32008KT 4SM -SHSN SCT004 OVC009 01/M00 A2975 RMK SF4SF4 RESN SLP077=
CYYG;2005-03-26 00:00;METAR CYYG 260000Z 34007KT 15SM -SHSN FEW009 BKN068 OVC091 00/M00 A2979 RMK SF2AC3AC2 SLP089=
CYYG;2005-03-26 01:00;METAR CYYG 260100Z 34010G16KT 15SM SCT069 M01/M06 A2982 RMK AC3 SLP101=
CYYG;2005-03-26 02:00;METAR CYYG 260200Z 33014KT 15SM BKN069 M02/M08 A2985 RMK AC3 SLP109=
CYYG;2005-03-26 03:00;METAR CYYG 260300Z 33012G20KT 15SM SKC M03/M09 A2987 RMK SLP118=
CYYG;2005-03-26 04:00;METAR CYYG 260400Z 32011G18KT 15SM SKC M03/M08 A2991 RMK SLP130=
CYYG;2005-03-26 05:00;METAR CYYG 260500Z 34010G17KT 15SM SCT038 M03/M09 A2993 RMK SC2 SLP138=
CYYG;2005-03-26 06:00;METAR CYYG 260600Z 34011G16KT 15SM SCT046 M03/M09 A2996 RMK SC2 SLP146=
CYYG;2005-03-26 07:00;METAR CYYG 260700Z 33008KT 15SM BKN050 M04/M09 A2997 RMK SC3 SLP151=
CYYG;2005-03-26 08:00;METAR CYYG 260800Z 34007KT 15SM SCT050 M05/M10 A2999 RMK SC2 SLP158=
CYYG;2005-03-26 09:00;METAR CYYG 260900Z 34008KT 15SM FEW050 M06/M10 A3002 RMK SC1 SLP167=
CYYG;2005-03-26 10:00;METAR CYYG 261000Z 34005KT 15SM SKC M07/M11 A3005 RMK SLP179=
CYYG;2005-03-26 11:00;METAR CYYG 261100Z 34006KT 15SM SKC M06/M12 A3008 RMK SLP189=
CYYG;2005-03-26 12:00;METAR CYYG 261200Z 35011G16KT 15SM SKC M05/M12 A3011 RMK SLP200=
CYYG;2005-03-26 14:00;METAR CYYG 261400Z 35011G16KT 15SM SKC M04/M12 A3016 RMK SLP215=
CYYG;2005-03-26 15:00;METAR CYYG 261500Z 01012KT 15SM SKC M04/M11 A3017 RMK SLP221=
CYYG;2005-03-26 16:00;METAR CYYG 261600Z 35009KT 15SM FEW020 M03/M10 A3019 RMK SC1 SLP226=
CYYG;2005-03-26 17:00;METAR CYYG 261700Z 33008KT 15SM FEW020 M04/M11 A3020 RMK SC1 SLP229=
CYYG;2005-03-26 18:00;METAR CYYG 261800Z 35005KT 15SM FEW020 M03/M11 A3020 RMK SC1 SLP228=
CYYG;2005-03-26 19:00;METAR CYYG 261900Z 02007KT 15SM FEW020 M03/M10 A3019 RMK SC1 SLP226=
CYYG;2005-03-26 20:00;METAR CYYG 262000Z 03006KT 15SM FEW020 M03/M11 A3019 RMK SC1 SLP227=
CYYG;2005-03-26 21:00;METAR CYYG 262100Z 02007KT 15SM SKC M03/M11 A3020 RMK SLP228=
CYYG;2005-03-26 22:00;METAR CYYG 262200Z 09004KT 15SM SKC M04/M11 A3020 RMK SLP229=
CYYG;2005-03-26 23:00;METAR CYYG 262300Z 09003KT 15SM SKC M05/M11 A3020 RMK SLP231=
CYYG;2005-03-27 00:00;METAR CYYG 270000Z 11003KT 15SM SKC M06/M11 A3022 RMK SLP235=
CYYG;2005-03-27 01:00;METAR CYYG 270100Z 13004KT 15SM SKC M06/M11 A3022 RMK SLP236=
CYYG;2005-03-27 02:00;METAR CYYG 270200Z 16005KT 15SM SKC M07/M11 A3023 RMK SLP239=
CYYG;2005-03-27 03:00;METAR CYYG 270300Z 16007KT 15SM SKC M06/M09 A3023 RMK SLP238=
CYYG;2005-03-27 04:00;METAR CYYG 270400Z 17005KT 15SM SKC M07/M09 A3023 RMK SLP240=
CYYG;2005-03-27 05:00;METAR CYYG 270500Z 17007KT 15SM SKC M06/M09 A3023 RMK SLP238=
CYYG;2005-03-27 06:00;METAR CYYG 270600Z 19007KT 15SM SKC M07/M10 A3023 RMK SLP239=
CYYG;2005-03-27 07:00;METAR CYYG 270700Z 19006KT 15SM SKC M07/M10 A3022 RMK SLP237=
CYYG;2005-03-27 08:00;METAR CYYG 270800Z 21006KT 15SM SKC M05/M10 A3021 RMK SLP234=
CYYG;2005-03-27 09:00;METAR CYYG 270900Z 21006KT 15SM SKC M05/M10 A3021 RMK SLP234=
CYYG;2005-03-27 10:00;METAR CYYG 271000Z 21006KT 15SM SKC M05/M10 A3023 RMK SLP238=
CYYG;2005-03-27 11:00;METAR CYYG 271100Z 20006KT 15SM SKC M05/M09 A3023 RMK SLP240=
CYYG;2005-03-27 12:00;METAR CYYG 271200Z 21009KT 15SM SKC M02/M08 A3023 RMK SLP240=
CYYG;2005-03-27 13:00;METAR CYYG 271300Z 20008KT 15SM SKC M00/M05 A3024 RMK SLP242=
CYYG;2005-03-27 14:00;METAR CYYG 271400Z 21009KT 15SM FEW310 01/M04 A3023 RMK CI1 SLP240=
CYYG;2005-03-27 15:00;METAR CYYG 271500Z 22010KT 15SM FEW310 02/M04 A3023 RMK CI1 SLP241=
CYYG;2005-03-27 16:00;METAR CYYG 271600Z 22008KT 15SM FEW310 04/M06 A3023 RMK CI1 SLP238=
CYYG;2005-03-27 17:00;METAR CYYG 271700Z 22010KT 15SM FEW310 05/M06 A3022 RMK CI1 SLP237=
CYYG;2005-03-27 18:00;METAR CYYG 271800Z 20010KT 15SM FEW310 04/M06 A3020 RMK CI1 COTRA SLP230=
CYYG;2005-03-27 19:00;METAR CYYG 271900Z 20009KT 15SM SCT310 05/M06 A3018 RMK CI1 COTRA SLP223=
CYYG;2005-03-27 20:00;METAR CYYG 272000Z 20009KT 15SM BKN310 05/M06 A3016 RMK CI2 SLP216=
CYYG;2005-03-27 21:00;METAR CYYG 272100Z 21010KT 15SM SCT310 05/M06 A3015 RMK CI1 SLP213=
CYYG;2005-03-27 22:00;METAR CYYG 272200Z 22009KT 15SM FEW310 05/M10 A3015 RMK CI1 SLP212=
CYYG;2005-03-27 23:00;METAR CYYG 272300Z 22007KT 15SM FEW310 03/M10 A3016 RMK CI1 SLP216=
CYYG;2005-03-28 00:00;METAR CYYG 280000Z 24003KT 15SM FEW310 01/M08 A3018 RMK CI1 SLP224=
CYYG;2005-03-28 01:00;METAR CYYG 280100Z 22005KT 15SM FEW310 00/M09 A3020 RMK CI1 SLP229=
CYYG;2005-03-28 02:00;METAR CYYG 280200Z 22008KT 15SM SKC 01/M10 A3020 RMK SLP230=
CYYG;2005-03-28 03:00;METAR CYYG 280300Z 22007KT 15SM SKC M00/M09 A3020 RMK SLP230=
CYYG;2005-03-28 06:00;METAR CYYG 280600Z 22006KT 15SM SKC M02/M06 A3021 RMK SLP231=
CYYG;2005-03-28 08:00;METAR CYYG 280800Z 18007KT 15SM SKC M03/M06 A3020 RMK SLP229=
CYYG;2005-03-28 09:00;METAR CYYG 280900Z 20009KT 15SM SKC M02/M07 A3022 RMK SLP234=
CYYG;2005-03-28 10:00;METAR CYYG 281000Z 19006KT 15SM FEW300 M03/M08 A3023 RMK CI1 SLP238=
CYYG;2005-03-28 11:00;METAR CYYG 281100Z 18006KT 15SM FEW300 M02/M07 A3023 RMK CI1 SLP240=
CYYG;2005-03-28 12:00;METAR CYYG 281200Z 21008KT 15SM FEW300 M01/M07 A3024 RMK CI1 SLP243=
CYYG;2005-03-28 13:00;METAR CYYG 281300Z 20010KT 15SM FEW300 01/M04 A3022 RMK CI1 SLP237=
CYYG;2005-03-28 14:00;METAR CYYG 281400Z 20010KT 15SM FEW300 02/M03 A3023 RMK CI1 SLP239=
CYYG;2005-03-28 15:00;METAR CYYG 281500Z 18007KT 15SM FEW300 03/M01 A3023 RMK CI1 COTRA SLP239=
CYYG;2005-03-28 16:00;METAR CYYG 281600Z 18008KT 15SM FEW300 04/M01 A3021 RMK CI1 SLP232=
CYYG;2005-03-28 17:00;METAR CYYG 281700Z 18009G15KT 15SM FEW170 FEW300 05/M01 A3020 RMK AC1CI1 SLP230=
CYYG;2005-03-28 18:00;METAR CYYG 281800Z 18014KT 15SM FEW160 BKN300 06/M01 A3016 RMK AC1CI2 SLP215=
CYYG;2005-03-28 19:00;METAR CYYG 281900Z 17011G16KT 15SM FEW160 BKN300 07/M01 A3014 RMK AC2CI1 SLP208=
CYYG;2005-03-28 20:00;METAR CYYG 282000Z 18015KT 15SM FEW140 BKN300 06/M01 A3013 RMK AC2CS4 SLP205=
CYYG;2005-03-28 21:00;METAR CYYG 282100Z 18014G19KT 15SM FEW031 SCT140 BKN290 05/00 A3012 RMK SC2AC2CS2 SLP200=
CYYG;2005-03-28 21:12;SPECI CYYG 282112Z 19012G17KT 15SM -RA BKN025 OVC140 RMK SC6AC2=
CYYG;2005-03-28 22:00;METAR CYYG 282200Z 17013KT 12SM -RA BKN023 OVC140 03/00 A3013 RMK SC7AC1 SLP204=
CYYG;2005-03-28 23:00;METAR CYYG 282300Z 15010G15KT 10SM -RA FEW020 OVC027 02/M01 A3011 RMK SC2SC6 SLP199=
CYYG;2005-03-29 00:00;METAR CYYG 290000Z 14011KT 10SM -RA OVC012 02/01 A3009 RMK SC8 SLP191=
CYYG;2005-03-29 01:00;METAR CYYG 290100Z 14015KT 6SM -RA BR OVC007 03/02 A3005 RMK SF8 SLP177=
CYYG;2005-03-29 02:00;METAR CYYG 290200Z 16014G22KT 6SM -RA BR OVC008 03/02 A3002 RMK SF8 SLP169=
CYYG;2005-03-29 03:00;METAR CYYG 290300Z 16018G25KT 6SM -RA BR BKN007 OVC035 03/02 A3000 RMK SF6SC2 SLP162=
CYYG;2005-03-29 04:00;METAR CYYG 290400Z 16018G24KT 8SM -RA SCT007 OVC036 03/02 A2999 RMK SF4SC4 RERA SLP157=
CYYG;2005-03-29 05:00;METAR CYYG 290500Z 15014G21KT 8SM RA BKN006 OVC036 04/02 A2998 RMK SF6SC2 SLP153=
CYYG;2005-03-29 06:00;METAR CYYG 290600Z 15014G22KT 8SM RA BKN006 OVC012 04/02 A2995 RMK SF6SC2 /R17/ SLP144=
CYYG;2005-03-29 07:00;METAR CYYG 290700Z 16018KT 10SM -RA BKN006 OVC045 04/02 A2994 RMK SF6SC2 RERA SLP139=
CYYG;2005-03-29 08:00;METAR CYYG 290800Z 15016G25KT 10SM -RA BKN006 OVC011 04/03 A2991 RMK SF6SC2 SLP130=
CYYG;2005-03-29 09:00;METAR CYYG 290900Z 16018G24KT 10SM -RA BKN006 OVC011 04/03 A2988 RMK SF6SC2 SLP120=
CYYG;2005-03-29 10:00;METAR CYYG 291000Z 16016G22KT 5SM -RA BR BKN006 OVC050 05/04 A2986 RMK SF6SC2 SLP113=
CYYG;2005-03-29 10:41;SPECI CYYG 291041Z 15018G24KT 5SM -RA BR SCT007 BKN027 OVC060 RMK SF4SC2SC2=
CYYG;2005-03-29 11:00;METAR CYYG 291100Z 15018KT 4SM -RA BR BKN006 OVC060 05/04 A2984 RMK SF6SC2 SLP106=
CYYG;2005-03-29 12:00;METAR CYYG 291200Z 15016G21KT 4SM -RA BR BKN005 OVC014 05/04 A2983 RMK SF6SC2 /R13/ SLP102=
CYYG;2005-03-29 13:00;METAR CYYG 291300Z 16019G25KT 4SM -RA BR BKN005 OVC015 05/04 A2980 RMK SF5SC3 SLP092=
CYYG;2005-03-29 13:40;SPECI CYYG 291340Z 15018G24KT 4SM -RA BR SCT005 OVC043 RMK SF3SC5=
CYYG;2005-03-29 14:00;METAR CYYG 291400Z 15016G26KT 4SM -RA BR FEW005 OVC028 06/05 A2979 RMK SF2SC6 SLP088=
CYYG;2005-03-29 15:00;METAR CYYG 291500Z 15015KT 4SM -RA BR BKN006 OVC010 07/06 A2976 RMK SF5SC3 SLP079=
CYYG;2005-03-29 16:00;METAR CYYG 291600Z 15019G24KT 4SM RA BR BKN008 OVC013 07/06 A2972 RMK SF6SC2 SLP066=
CYYG;2005-03-29 17:00;METAR CYYG 291700Z 15011G17KT 5SM RA BR BKN008 OVC014 07/06 A2969 RMK SF7SC1 /R13/ SLP056=
CYYG;2005-03-29 18:00;METAR CYYG 291800Z 16011G17KT 3SM -RA BR BKN004 OVC012 07/07 A2968 RMK SF7SC1 SLP051=
CYYG;2005-03-29 19:00;METAR CYYG 291900Z 15010KT 4SM -RA BR BKN004 OVC008 07/06 A2965 RMK SF6SF2 SLP041=
CYYG;2005-03-29 20:00;METAR CYYG 292000Z 20006KT 4SM -RA BR OVC006 07/07 A2966 RMK SF8 SLP045=
CYYG;2005-03-29 21:35;SPECI CYYG 292135Z 07002KT 1SM -RA BR VV002 RMK FG8=
CYYG;2005-03-29 22:00;METAR CYYG 292200Z 11002KT 1/4SM -DZ FG VV001 06/06 A2963 RMK FG8 RVR RWY 03 1400FT SLP036=
CYYG;2005-03-29 22:18;SPECI CYYG 292218Z 08002KT 1/2SM -DZ FG VV003 RMK FG8 RVR RWY03 2800 FT=
CYYG;2005-03-29 23:21;SPECI CYYG 292321Z 00000KT 1SM -DZ BR OVC003 RMK ST8=
CYYG;2005-03-29 23:37;SPECI CYYG 292337Z 32003KT 3/4SM -DZ BR OVC002 RMK FG4ST4 RVR RWY03 4500 FT=
CYYG;2005-03-30 00:00;METAR CYYG 300000Z 31009KT 1/2SM -DZ FG VV002 05/05 A2965 RMK FG8 RVR RWY03 2800 FT SLP043=
CYYG;2005-03-30 00:14;SPECI CYYG 300014Z 35008KT 2SM -DZ BR BKN003 OVC007 RMK SF6SF2=
CYYG;2005-03-30 01:00;METAR CYYG 300100Z 33009KT 1SM -DZ BR BKN002 OVC006 02/02 A2966 RMK SF6SF2 RVR RWY03 5000 FT SLP046=
CYYG;2005-03-30 01:04;SPECI CYYG 300104Z 33008KT 1/2SM -DZ FG VV002 RMK FG8 RVR RWY03 3000 FT=
CYYG;2005-03-30 02:00;METAR CYYG 300200Z 33011KT 1/2SM -DZ FG VV002 01/01 A2967 RMK FG8 RVR RWY03 3500 FT SLP049=
CYYG;2005-03-30 02:41;SPECI CYYG 300241Z 33013G18KT 1/4SM -DZ FG VV002 RMK FG8 RVR RWY03 1800 FT=
CYYG;2005-03-30 03:00;METAR CYYG 300300Z 33017G22KT 1/4SM -DZ FG VV002 00/M01 A2967 RMK FG8 RVR RWY03 1800 FT SLP050=
CYYG;2005-03-30 04:00;METAR CYYG 300400Z 33016G21KT 1/2SM -DZ FG VV002 00/M01 A2969 RMK FG8 RVR RWY03 3000 FT SLP055=
CYYG;2005-03-30 04:25;SPECI CYYG 300425Z 34018G24KT 3/4SM BR OVC002 RMK FG4SF4 RVR RWY03 4500 FT=
CYYG;2005-03-30 05:00;METAR CYYG 300500Z 34013G21KT 1SM BR OVC002 M00/M01 A2967 RMK SF8 RVR RWY03 5000 FT SLP050=
CYYG;2005-03-30 06:08;SPECI CYYG 300608Z 34011G19KT 1/2SM FZFG VV002 RMK FG8 RVR RWY03 3000 FT=
CYYG;2005-03-30 07:00;METAR CYYG 300700Z 34014G20KT 1/2SM FZFG VV002 M00/M01 A2969 RMK FG8 RVR RWY03 3000 FT SLP057=
CYYG;2005-03-30 07:33;SPECI CYYG 300733Z 35014G20KT 1 1/2SM BR OVC002 RMK FG4SF4=
CYYG;2005-03-30 08:00;METAR CYYG 300800Z 35015G21KT 2SM BR OVC002 M00/M01 A2971 RMK SF8 SLP062=
CYYG;2005-03-30 09:00;METAR CYYG 300900Z 34014G21KT 2SM BR OVC002 M00/M01 A2973 RMK SF8 SLP068=
CYYG;2005-03-30 09:49;SPECI CYYG 300949Z 35016G24KT 3/4SM BR OVC002 RMK FG4SF4=
CYYG;2005-03-30 10:00;METAR CYYG 301000Z 34015G24KT 3/4SM BR OVC002 M00/M01 A2975 RMK FG4SF4 SLP077=
CYYG;2005-03-30 10:40;SPECI CYYG 301040Z 35015G24KT 1/2SM FZFG OVC002 RMK FG4SF4 RVR RWY03 3000 FT=
CYYG;2005-03-30 11:00;METAR CYYG 301100Z 35018G24KT 1/2SM FG OVC002 00/M01 A2977 RMK FG4SF4 RVR RWY03 4500FT SLP084=
CYYG;2005-03-30 12:00;METAR CYYG 301200Z 36017G24KT 1/2SM FG OVC002 00/M01 A2981 RMK FG4SF4 RVR RWY03 5000FT SLP096=
CYYG;2005-03-30 13:00;METAR CYYG 301300Z 36019G27KT 3/4SM BR OVC002 M00/M01 A2985 RMK SF8 SLP109=
CYYG;2005-03-30 14:00;METAR CYYG 301400Z 36025G32KT 3/4SM BR OVC002 M00/M02 A2987 RMK SF8 RVR RWY03 P6000 FT SLP118=
CYYG;2005-03-30 14:16;SPECI CYYG 301416Z 36020G29KT 1 1/2SM BR OVC003 RMK SF8=
CYYG;2005-03-30 14:44;SPECI CYYG 301444Z 36020G29KT 3SM BR OVC004 RMK SF8=
CYYG;2005-03-30 15:00;METAR CYYG 301500Z 36023G31KT 3SM BR OVC005 M00/M02 A2989 RMK SF8 SLP123=
CYYG;2005-03-30 16:00;METAR CYYG 301600Z 36024G33KT 4SM BR OVC007 M00/M03 A2991 RMK SF8 SLP130=
CYYG;2005-03-30 17:00;METAR CYYG 301700Z 36019G32KT 8SM OVC009 M00/M03 A2993 RMK SC8 SLP137=
CYYG;2005-03-30 18:00;METAR CYYG 301800Z 01026G39KT 8SM OVC009 M01/M03 A2994 RMK SC8 SLP142=
CYYG;2005-03-30 19:00;METAR CYYG 301900Z 36023G32KT 8SM OVC009 M01/M04 A2996 RMK SC8 SLP149=
CYYG;2005-03-30 20:00;METAR CYYG 302000Z 36021G30KT 8SM OVC010 M01/M04 A2997 RMK SC8 SLP151=
CYYG;2005-03-30 21:00;METAR CYYG 302100Z 36022G38KT 8SM OVC012 M02/M05 A2999 RMK SC8 SLP158=
CYYG;2005-03-30 22:00;METAR CYYG 302200Z 01022G34KT 10SM -SHSN OVC012 M02/M05 A2999 RMK SC8 PCPN VRY LGT SLP159=
CYYG;2005-03-30 23:00;METAR CYYG 302300Z 01026G34KT 15SM -FZDZ OVC011 M02/M05 A3001 RMK SC8 SLP164=
CYYG;2005-03-30 23:12;SPECI CYYG 302312Z 01023G40KT 15SM -SHSN OVC011 REFZDZ RMK SC8=
CYYG;2005-03-31 00:00;METAR CYYG 310000Z 01025G39KT 15SM OVC010 M02/M05 A3002 REFZDZ RMK SC8 SLP168=
CYYG;2005-03-31 00:22;SPECI CYYG 310022Z 36028G35KT 15SM OVC010 RMK SC8=
CYYG;2005-03-31 01:00;METAR CYYG 310100Z 36023G34KT 15SM OVC010 M02/M04 A3003 RMK SC8 SLP170=
CYYG;2005-03-31 02:00;METAR CYYG 310200Z 36025G33KT 15SM OVC010 M02/M05 A3004 RMK SC8 SLP173=
CYYG;2005-03-31 03:00;METAR CYYG 310300Z 36022G28KT 15SM OVC011 M02/M05 A3004 RMK SC8 SLP174=
CYYG;2005-03-31 04:00;METAR CYYG 310400Z 36020G29KT 15SM OVC010 M02/M05 A3003 RMK SC8 SLP171=
CYYG;2005-03-31 05:00;METAR CYYG 310500Z 36023G29KT 15SM OVC011 M02/M05 A3003 RMK SC8 SLP171=
CYYG;2005-03-31 06:00;METAR CYYG 310600Z 36023G34KT 15SM OVC010 M02/M05 A3002 RMK SC8 SLP167=
CYYG;2005-03-31 07:00;METAR CYYG 310700Z 36021G33KT 15SM OVC009 M02/M05 A3001 RMK SC8 SLP165=
CYYG;2005-03-31 08:00;METAR CYYG 310800Z 36019G35KT 15SM BKN009 OVC029 M02/M05 A3002 RMK SC7SC1 SLP167=
CYYG;2005-03-31 09:00;METAR CYYG 310900Z 36023G33KT 15SM OVC009 M02/M05 A3003 RMK SC8 SLP171=
CYYG;2005-03-31 10:00;METAR CYYG 311000Z 36024G34KT 10SM OVC009 M02/M05 A3004 RMK SC8 SLP173=
CYYG;2005-03-31 11:00;METAR CYYG 311100Z 36022G34KT 8SM -SN DRSN OVC009 M02/M05 A3005 RMK SC8 SLP177=
CYYG;2005-03-31 12:00;METAR CYYG 311200Z 01024G36KT 10SM -SN DRSN OVC009 M02/M05 A3006 RMK SC8 SLP180=
CYYG;2005-03-31 12:33;SPECI CYYG 311233Z 36021G34KT 10SM -SN DRSN OVC010 RMK SC8=
CYYG;2005-03-31 13:00;METAR CYYG 311300Z 01022G31KT 8SM -SN DRSN OVC009 M02/M04 A3006 RMK SC8 SLP182=
CYYG;2005-03-31 14:00;METAR CYYG 311400Z 01018G33KT 8SM -SN DRSN OVC009 M01/M04 A3008 RMK SC8 SLP189=
CYYG;2005-03-31 15:00;METAR CYYG 311500Z 01021G31KT 6SM -SN DRSN OVC007 M01/M04 A3010 RMK SC8 SLP194=
CYYG;2005-03-31 16:00;METAR CYYG 311600Z 01021G33KT 4SM -SN DRSN OVC009 M01/M03 A3011 RMK SC8 SLP197=
CYYG;2005-03-31 16:57;SPECI CYYG 311657Z 01021G31KT 5SM -PLSN OVC008 RMK SC8=
CYYG;2005-03-31 17:00;METAR CYYG 311700Z 01023G31KT 5SM -PLSN OVC008 M01/M03 A3011 RMK SC8 SLP197=
CYYG;2005-03-31 18:00;METAR CYYG 311800Z 01021G31KT 6SM -PLSN OVC008 M01/M03 A3012 RMK SC8 SLP204=
CYYG;2005-03-31 18:09;SPECI CYYG 311809Z 01022G31KT 6SM -FZRA BR OVC009 RMK SC8=
CYYG;2005-03-31 19:00;METAR CYYG 311900Z 01022G30KT 6SM -FZRA BR OVC010 M00/M02 A3013 RMK SC8 SLP206=
CYYG;2005-03-31 20:00;METAR CYYG 312000Z 02019G27KT 10SM -FZRA OVC009 M00/M02 A3014 RMK SC8 SLP211=
CYYG;2005-03-31 20:43;SPECI CYYG 312043Z 02019G26KT 12SM -FZDZ OVC009 RMK SC8 REFZRA=
CYYG;2005-03-31 21:00;METAR CYYG 312100Z 02019G28KT 12SM -FZDZ OVC009 M00/M02 A3016 RMK SC8 REFZRA SLP215=
CYYG;2005-03-31 22:00;METAR CYYG 312200Z 02018KT 15SM OVC011 M00/M02 A3017 RMK SC8 REFZDZ SLP218=
CYYG;2005-03-31 23:00;METAR CYYG 312300Z 03013G20KT 8SM BKN010 OVC024 M01/M03 A3016 RMK SC6SC2 SLP217=
CYYG;2005-04-01 00:00;METAR CYYG 010000Z 02015KT 8SM FEW010 OVC027 M00/M02 A3021 RMK SC2SC6 SLP234=
CYYG;2005-04-01 01:00;METAR CYYG 010100Z 02013G20KT 10SM FEW010 FEW025 OVC058 M00/M02 A3023 RMK SC1SC2SC6 SLP239=
CYYG;2005-04-01 02:00;METAR CYYG 010200Z 03010KT 10SM FEW010 OVC055 M00/M02 A3024 RMK SC2SC6 SLP244=
CYYG;2005-04-01 03:00;METAR CYYG 010300Z 02011KT 15SM FEW025 OVC062 M00/M02 A3023 RMK SC1SC7 SLP239=
CYYG;2005-04-01 04:00;METAR CYYG 010400Z 04013KT 10SM FEW060 M00/M02 A3020 RMK SC2 SLP229=
CYYG;2005-04-01 05:00;METAR CYYG 010500Z 05007KT 10SM BKN022 BKN060 M00/M02 A3019 RMK SC6SC2 SLP227=
CYYG;2005-04-01 06:00;METAR CYYG 010600Z 03007KT 15SM BKN022 M01/M03 A3020 RMK SC6 SLP231=
CYYG;2005-04-01 07:00;METAR CYYG 010700Z 04009KT 12SM FEW018 M01/M03 A3019 RMK SC1 SLP227=
CYYG;2005-04-01 08:00;METAR CYYG 010800Z 34004KT 12SM SKC M02/M03 A3021 RMK SLP234=
CYYG;2005-04-01 09:00;METAR CYYG 010900Z 02005KT 10SM SKC M03/M04 A3021 RMK FROIN SLP233=
CYYG;2005-04-01 10:00;METAR CYYG 011000Z 04006KT 10SM FEW150 FEW270 M02/M04 A3021 RMK AC1CI1 FROIN SLP233=
CYYG;2005-04-01 11:00;METAR CYYG 011100Z 03007KT 15SM FEW270 M01/M02 A3022 RMK CI1 SLP237=
CYYG;2005-04-01 12:00;METAR CYYG 011200Z 04007KT 15SM FEW270 00/M02 A3024 RMK CI1 SLP243=
CYYG;2005-04-01 13:00;METAR CYYG 011300Z 02004KT 15SM FEW030 FEW270 02/M01 A3024 RMK SC1CI1 SLP243=
CYYG;2005-04-01 14:00;METAR CYYG 011400Z 32003KT 15SM FEW030 SCT270 03/00 A3023 RMK SC2CI1 SLP241=
CYYG;2005-04-01 15:00;METAR CYYG 011500Z 07003KT 15SM FEW030 SCT270 05/01 A3022 RMK SC2CI1 SLP236=
CYYG;2005-04-01 16:00;METAR CYYG 011600Z 08005KT 15SM FEW030 SCT270 06/02 A3021 RMK SC2CI2 SLP232=
CYYG;2005-04-01 17:00;METAR CYYG 011700Z 10002KT 15SM FEW030 BKN270 07/02 A3021 RMK SC2CI2 SLP232=
CYYG;2005-04-01 18:00;METAR CYYG 011800Z 16007KT 15SM FEW030 BKN270 07/02 A3020 RMK SC2CI3 SLP229=
CYYG;2005-04-01 19:00;METAR CYYG 011900Z 21009KT 15SM SCT030 BKN270 06/01 A3020 RMK SC3CI2 SLP229=
CYYG;2005-04-01 20:00;METAR CYYG 012000Z 17004KT 15SM SCT024 BKN270 05/01 A3019 RMK SC4CI2 SLP225=
CYYG;2005-04-01 21:00;METAR CYYG 012100Z 20003KT 15SM BKN024 BKN270 06/02 A3019 RMK SC5CI2 SLP226=
CYYG;2005-04-01 22:00;METAR CYYG 012200Z 20004KT 15SM SCT024 BKN130 BKN270 05/01 A3020 RMK SC4AC2CI2 SLP228=
CYYG;2005-04-01 23:00;METAR CYYG 012300Z 15004KT 15SM FEW030 SCT080 OVC130 04/00 A3018 RMK SC1AC3AC5 VIRGA SLP223=
CYYG;2005-04-02 00:00;METAR CYYG 020000Z 12005KT 15SM FEW130 OVC270 02/M00 A3017 RMK AC1CS6 SLP220=
CYYG;2005-04-02 01:00;METAR CYYG 020100Z 18006KT 15SM BKN070 OVC110 02/M00 A3020 RMK AC5AC3 SLP227=
CYYG;2005-04-02 02:00;METAR CYYG 020200Z 16012KT 15SM BKN080 OVC100 03/M00 A3017 RMK AC6AC2 SLP217=
CYYG;2005-04-02 03:00;METAR CYYG 020300Z 17010KT 15SM OVC068 03/M01 A3018 RMK AC8 SLP221=
CYYG;2005-04-02 04:00;METAR CYYG 020400Z 17012KT 15SM FEW015 OVC050 03/M01 A3020 RMK SC1SC8 SLP228=
CYYG;2005-04-02 04:23;SPECI CYYG 020423Z 17011KT 10SM -SHRA BKN024 OVC050 RMK SC6SC2=
CYYG;2005-04-02 05:00;METAR CYYG 020500Z 18013KT 10SM -SHRA BKN016 OVC026 02/M01 A3021 RMK SC6SC2 SLP233=
CYYG;2005-04-02 06:00;METAR CYYG 020600Z 18008KT 10SM -SHRA OVC016 01/M01 A3022 RMK SC8 SLP235=
CYYG;2005-04-02 06:20;SPECI CYYG 020620Z 18008KT 10SM OVC016 RMK SC8=
CYYG;2005-04-02 07:00;METAR CYYG 020700Z 18007KT 10SM OVC016 01/M01 A3021 RMK SC8 SLP231=
CYYG;2005-04-02 08:00;METAR CYYG 020800Z 21003KT 10SM OVC016 01/M01 A3024 RMK SC8 SLP242=
CYYG;2005-04-02 09:00;METAR CYYG 020900Z 18007KT 10SM BKN030 OVC042 01/M01 A3023 RMK SC6SC2 SLP238=
CYYG;2005-04-02 10:00;METAR CYYG 021000Z 18006KT 15SM BKN032 OVC045 01/M01 A3022 RMK SC7SC1 SLP235=
CYYG;2005-04-02 11:00;METAR CYYG 021100Z 17008KT 15SM BKN031 01/M02 A3021 RMK SC7 SLP233=
CYYG;2005-04-02 12:00;METAR CYYG 021200Z 18009KT 15SM BKN034 BKN270 01/M02 A3022 RMK SC5CI2 SLP236=
CYYG;2005-04-02 14:00;METAR CYYG 021400Z 14009KT 15SM SCT033 BKN270 04/M00 A3019 RMK SC3CI2 SLP224=
CYYG;2005-04-02 15:00;METAR CYYG 021500Z 22005KT 15SM BKN040 BKN270 04/M00 A3023 RMK SC5CI2 SLP238=
CYYG;2005-04-02 16:00;METAR CYYG 021600Z 18004KT 15SM BKN050 BKN270 05/M00 A3021 RMK SC5CI2 SLP233=
CYYG;2005-04-02 17:00;METAR CYYG 021700Z 15002KT 15SM BKN055 BKN270 07/01 A3021 RMK SC5CI2 SLP233=
CYYG;2005-04-02 18:00;METAR CYYG 021800Z 15005KT 15SM BKN055 BKN270 08/02 A3022 RMK SC5CI2 SLP234=
CYYG;2005-04-02 19:00;METAR CYYG 021900Z 18005KT 15SM SCT055 BKN270 09/03 A3021 RMK SC3CI2 SLP233=
CYYG;2005-04-02 20:00;METAR CYYG 022000Z 17005KT 15SM FEW055 BKN270 10/03 A3020 RMK SC2CI2 SLP230=
CYYG;2005-04-02 21:00;METAR CYYG 022100Z 15006KT 15SM FEW160 BKN270 09/03 A3020 RMK AC2CI2 SLP230=
CYYG;2005-04-02 22:00;METAR CYYG 022200Z 09004KT 15SM FEW160 BKN270 07/02 A3020 RMK AC2CI2 SLP227=
CYYG;2005-04-02 23:00;METAR CYYG 022300Z 13005KT 15SM BKN170 OVC270 07/01 A3020 RMK AC5CI2 SLP227=
CYYG;2005-04-03 00:00;METAR CYYG 030000Z 14007KT 15SM BKN170 OVC270 06/M01 A3020 RMK AC5CI2 SLP230=
CYYG;2005-04-03 01:00;METAR CYYG 030100Z 15008KT 15SM SCT170 OVC270 05/M02 A3020 RMK AC4CI2 SLP228=
CYYG;2005-04-03 02:00;METAR CYYG 030200Z 14009KT 15SM FEW170 OVC260 04/M04 A3020 RMK AC2CI2 SLP227=
CYYG;2005-04-03 03:00;METAR CYYG 030300Z 15009KT 15SM OVC260 03/M03 A3019 RMK CI5 SLP226=
CYYG;2005-04-03 04:00;METAR CYYG 030400Z 15009KT 15SM SCT170 OVC270 03/M03 A3020 RMK AC3CI2 SLP228=
CYYG;2005-04-03 05:00;METAR CYYG 030500Z 17010KT 15SM BKN190 OVC270 02/M02 A3019 RMK AC5CI2 SLP226=
CYYG;2005-04-03 06:00;METAR CYYG 030600Z 17008KT 15SM BKN190 OVC260 01/M02 A3017 RMK AC5CI2 SLP217=
CYYG;2005-04-03 07:00;METAR CYYG 030700Z 12006KT 15SM BKN190 OVC260 01/M02 A3014 RMK AC6CI2 SLP207=
CYYG;2005-04-03 08:00;METAR CYYG 030800Z 14006KT 15SM BKN190 OVC260 01/M03 A3014 RMK AC6CI2 SLP209=
CYYG;2005-04-03 09:00;METAR CYYG 030900Z 13006KT 15SM BKN190 BKN260 00/M03 A3012 RMK AC5CI1 SLP203=
CYYG;2005-04-03 09:54;SPECI CYYG 030954Z 14005KT 15SM BKN010 RMK SC7=
CYYG;2005-04-03 10:00;METAR CYYG 031000Z 15005KT 15SM BKN010 00/M02 A3014 RMK SC7 SLP210=
CYYG;2005-04-03 11:00;METAR CYYG 031100Z 15007KT 15SM OVC007 01/M00 A3014 RMK ST8 SLP207=
CYYG;2005-04-03 12:00;METAR CYYG 031200Z 13012KT 15SM OVC006 02/00 A3010 RMK ST8 SLP196=
CYYG;2005-04-03 12:41;SPECI CYYG 031241Z 14014KT 15SM FEW006 FEW010 SCT160 BKN300 RMK SF2SF1AC2CI2=
CYYG;2005-04-03 12:49;SPECI CYYG 031249Z 14014G19KT 15SM FEW006 BKN009 BKN300 RMK SF2SF3CI2=
CYYG;2005-04-03 13:00;METAR CYYG 031300Z 14014KT 15SM SCT009 BKN017 BKN300 03/01 A3008 RMK SF3SC2CI0 SLP187=
CYYG;2005-04-03 14:00;METAR CYYG 031400Z 13013KT 15SM BKN012 BKN300 04/02 A3005 RMK SC6CI1 SLP178=
CYYG;2005-04-03 15:00;METAR CYYG 031500Z 14017KT 15SM BKN012 BKN280 06/03 A3005 RMK SC6CI1 SLP177=
CYYG;2005-04-03 16:00;METAR CYYG 031600Z 14013KT 15SM OVC012 07/04 A3004 RMK SC8 SLP176=
CYYG;2005-04-03 17:00;METAR CYYG 031700Z 14016KT 15SM BKN011 OVC280 08/06 A3001 RMK SC7CI1 SLP165=
CYYG;2005-04-03 18:00;METAR CYYG 031800Z 15013KT 15SM BKN010 OVC280 08/06 A3000 RMK SC7CI1 SLP162=
CYYG;2005-04-03 18:20;SPECI CYYG 031820Z 14015G21KT 15SM -SHRA BKN009 OVC280 RMK SC7CI1=
CYYG;2005-04-03 18:44;SPECI CYYG 031844Z 14013G18KT 15SM BKN009 RMK SC7=
CYYG;2005-04-03 19:00;METAR CYYG 031900Z 14015KT 15SM BKN009 07/06 A2997 RMK SC7 SLP151=
CYYG;2005-04-03 20:00;METAR CYYG 032000Z 14013G20KT 15SM BKN008 07/06 A2995 RMK SC7 SLP145=
CYYG;2005-04-03 21:00;METAR CYYG 032100Z 13012G19KT 15SM BKN006 06/05 A2993 RMK ST7 SLP137=
CYYG;2005-04-03 22:00;METAR CYYG 032200Z 12011KT 15SM BKN006 06/05 A2990 RMK ST7 SLP128=
CYYG;2005-04-03 23:00;METAR CYYG 032300Z 11010KT 15SM OVC005 05/05 A2989 RMK ST8 SLP125=
CYYG;2005-04-04 00:00;METAR CYYG 040000Z 10012G18KT 15SM OVC005 05/05 A2987 RMK ST8 SLP116=
CYYG;2005-04-04 01:00;METAR CYYG 040100Z 13016KT 15SM BKN007 OVC011 06/05 A2985 RMK ST6SC2 SLP110=
CYYG;2005-04-04 01:28;SPECI CYYG 040128Z 13021G28KT 10SM -SHRA OVC005 RMK SF8=
CYYG;2005-04-04 02:00;METAR CYYG 040200Z 12019G25KT 12SM -SHRA OVC003 05/04 A2983 RMK SF8 SLP102=
CYYG;2005-04-04 02:20;SPECI CYYG 040220Z 12018G24KT 12SM -SHRA OVC002 RMK SF8=
CYYG;2005-04-04 03:00;METAR CYYG 040300Z 12020G25KT 3SM -SHRA BR OVC002 05/04 A2979 RMK SF8 SLP090=
CYYG;2005-04-04 04:00;METAR CYYG 040400Z 11016G25KT 8SM -SHRA OVC003 05/04 A2975 RMK SF8 SLP077=
CYYG;2005-04-04 05:00;METAR CYYG 040500Z 11015G20KT 8SM -RA OVC003 05/04 A2974 RMK SF8 RERA SLP071=
CYYG;2005-04-04 08:00;METAR CYYG 040800Z 12009KT 15SM -SHRA OVC004 06/05 A2969 RMK SF8 SLP056=
CYYG;2005-04-04 08:48;SPECI CYYG 040848Z 12009KT 15SM OVC005 RMK SF8=
CYYG;2005-04-04 09:00;METAR CYYG 040900Z 13010KT 15SM OVC007 07/06 A2968 RMK SF8 SLP052=
CYYG;2005-04-04 10:00;METAR CYYG 041000Z 14012KT 15SM OVC006 07/07 A2969 RMK SF8 SLP056=
CYYG;2005-04-04 10:08;SPECI CYYG 041008Z 13010KT 15SM OVC005 RMK SF8=
CYYG;2005-04-04 10:18;SPECI CYYG 041018Z 14008KT 15SM OVC004 RMK SF8=
CYYG;2005-04-04 11:00;METAR CYYG 041100Z 14010G15KT 10SM OVC002 07/07 A2969 RMK SF8 SLP056=
CYYG;2005-04-04 11:16;SPECI CYYG 041116Z 15011G16KT 2SM BR OVC002 RMK ST8=
CYYG;2005-04-04 11:23;SPECI CYYG 041123Z 15012G17KT 1SM BR OVC002 RMK FG2ST6=
CYYG;2005-04-04 11:29;SPECI CYYG 041129Z 15012G17KT 1/2SM FG OVC002 RMK FG4ST4=
CYYG;2005-04-04 12:00;METAR CYYG 041200Z 15014KT 1/4SM FG VV002 08/07 A2968 RMK FG8 RVR RWY03 2800 FT SLP053=
CYYG;2005-04-04 12:37;SPECI CYYG 041237Z 16016G21KT 1/4SM FG VV001 RMK FG8 RVR RWY03 2600 FT=
CYYG;2005-04-04 13:00;METAR CYYG 041300Z 17014G19KT 1/2SM FG VV001 08/07 A2970 RMK FG8 RVR RWY03 3000 FT SLP059=
CYYG;2005-04-04 13:07;SPECI CYYG 041307Z 16014KT 1 1/2SM BR OVC002 RMK FG2ST6=
CYYG;2005-04-04 13:12;SPECI CYYG 041312Z 16013G18KT 2SM BR OVC002 RMK ST8=
CYYG;2005-04-04 13:16;SPECI CYYG 041316Z 17014KT 3SM BR OVC002 RMK ST8=
CYYG;2005-04-04 13:33;SPECI CYYG 041333Z 16012G17KT 5SM BR BKN003 BKN007 RMK SF6SF2=
CYYG;2005-04-04 14:00;METAR CYYG 041400Z 16012G17KT 10SM BKN003 BKN007 BKN140 09/08 A2970 RMK SF5SF2AC1 SLP059=
CYYG;2005-04-04 14:11;SPECI CYYG 041411Z 16012KT 15SM SCT005 BKN140 RMK SF4AC2=
CYYG;2005-04-04 15:00;METAR CYYG 041500Z 16014KT 15SM FEW005 FEW009 BKN110 10/08 A2971 RMK SF1SF1AC5 SLP063=
CYYG;2005-04-04 16:00;METAR CYYG 041600Z 16016G21KT 15SM FEW010 SCT110 11/06 A2970 RMK CU1AC3 SLP059=
CYYG;2005-04-04 17:00;METAR CYYG 041700Z 16015G20KT 15SM BKN052 BKN110 12/06 A2968 RMK SC6AC1 SLP052=
CYYG;2005-04-04 17:47;SPECI CYYG 041747Z 17018G24KT 15SM -SHRA BKN044 RMK SC7=
CYYG;2005-04-04 18:00;METAR CYYG 041800Z 17016G21KT 15SM -SHRA BKN044 10/06 A2968 RMK SC6 SLP053=
CYYG;2005-04-04 18:26;SPECI CYYG 041826Z 18015KT 15SM VCSH OVC040 RMK SC8=
CYYG;2005-04-04 18:48;SPECI CYYG 041848Z 17017G25KT 15SM -SHRA BKN040TCU RMK TCU6=
CYYG;2005-04-04 19:00;METAR CYYG 041900Z 17017KT 15SM -SHRA FEW040TCU BKN071 09/05 A2968 RMK TCU2AC3 SLP051=
CYYG;2005-04-04 20:00;METAR CYYG 042000Z 18015G20KT 15SM -SHRA FEW028TCU BKN048 BKN071 08/05 A2968 RMK TCU2SC3AC2 SLP053=
CYYG;2005-04-04 20:30;SPECI CYYG 042030Z 17018G24KT 15SM FEW028 SCT051 RMK SC2SC2=
CYYG;2005-04-04 21:00;METAR CYYG 042100Z 18019G25KT 15SM FEW028 FEW048 09/03 A2967 RMK SC1SC2 SLP049=
CYYG;2005-04-04 22:00;METAR CYYG 042200Z 20018KT 15SM FEW028 SCT050 07/01 A2970 RMK SC1SC2 SLP058=
CYYG;2005-04-04 23:00;METAR CYYG 042300Z 19016KT 15SM FEW050 SCT170 05/M01 A2973 RMK SC1AC2 SLP069=
CYYG;2005-04-05 00:00;METAR CYYG 050000Z 18010KT 15SM BKN170 04/M00 A2976 RMK AC3 SLP079=
CYYG;2005-04-05 01:00;METAR CYYG 050100Z 18012KT 15SM SCT170 04/M00 A2977 RMK AC2 SLP081=
CYYG;2005-04-05 02:00;METAR CYYG 050200Z 18010KT 15SM SCT160 03/M00 A2977 RMK AC2 SLP083=
CYYG;2005-04-05 03:00;METAR CYYG 050300Z 18008KT 15SM FEW035 SCT160 03/00 A2978 RMK SC2AC1 SLP086=
CYYG;2005-04-05 04:00;METAR CYYG 050400Z 17010KT 15SM SCT036 03/00 A2978 RMK SC3 SLP085=
CYYG;2005-04-05 06:00;METAR CYYG 050600Z 18010KT 15SM FEW030 SCT090 02/00 A2979 RMK SC2AC1 SLP088=
CYYG;2005-04-05 07:00;METAR CYYG 050700Z 17009KT 15SM FEW030 SCT170 02/01 A2979 RMK SC2AC1 SLP088=
CYYG;2005-04-05 08:00;METAR CYYG 050800Z 16008KT 15SM BKN029 02/00 A2979 RMK SC5 SLP088=
CYYG;2005-04-05 09:00;METAR CYYG 050900Z 18007KT 15SM SCT030 02/M00 A2979 RMK SC3 SLP089=
CYYG;2005-04-05 10:00;METAR CYYG 051000Z 18005KT 15SM FEW030 FEW100 FEW300 00/M01 A2981 RMK SC1AC1CI1 SLP095=
CYYG;2005-04-05 11:00;METAR CYYG 051100Z 19006KT 15SM FEW028 FEW300 01/M00 A2982 RMK SC1CC1 SLP101=
CYYG;2005-04-05 12:00;METAR CYYG 051200Z 18008KT 15SM FEW028 FEW300 03/02 A2983 RMK SC1CC1 SLP103=
CYYG;2005-04-05 13:00;METAR CYYG 051300Z 20010KT 15SM FEW028 FEW060 BKN074 BKN300 04/01 A2984 RMK SC1SC2AC3CI1 SLP107=
CYYG;2005-04-05 14:00;METAR CYYG 051400Z 19006KT 15SM BKN024 BKN046 BKN074 03/01 A2985 RMK SC5SC2AC1 SLP109=
CYYG;2005-04-05 15:00;METAR CYYG 051500Z 22005KT 15SM BKN018 OVC032 05/02 A2984 RMK SC6SC2 SLP107=
CYYG;2005-04-05 16:00;METAR CYYG 051600Z 23012KT 15SM SCT018 BKN033 07/03 A2984 RMK SC3SC4 SLP106=
CYYG;2005-04-05 17:00;METAR CYYG 051700Z 22013G18KT 15SM BKN018 BKN030 07/03 A2985 RMK SC6SC2 SLP109=
CYYG;2005-04-05 18:00;METAR CYYG 051800Z 23009KT 15SM SCT017 OVC032 07/03 A2985 RMK SC4SC4 SLP111=
CYYG;2005-04-05 19:00;METAR CYYG 051900Z 22008KT 15SM FEW018 OVC023 07/03 A2987 RMK CU1SC7 SLP115=
CYYG;2005-04-05 20:00;METAR CYYG 052000Z 21007KT 15SM FEW019 BKN031 07/03 A2987 RMK CU1SC6 SLP117=
CYYG;2005-04-05 21:00;METAR CYYG 052100Z 23006KT 15SM FEW027 BKN031 07/03 A2988 RMK SC1SC6 SLP121=
CYYG;2005-04-05 22:00;METAR CYYG 052200Z 24007KT 15SM SCT031 BKN044 07/03 A2991 RMK SC4SC2 SLP129=
CYYG;2005-04-05 23:00;METAR CYYG 052300Z 23006KT 15SM BKN041 06/03 A2993 RMK SC6 SLP135=
CYYG;2005-04-06 00:00;METAR CYYG 060000Z 25005KT 15SM BKN045 06/03 A2996 RMK SC7 SLP145=
CYYG;2005-04-06 01:00;METAR CYYG 060100Z 24007KT 15SM BKN048 05/03 A2997 RMK SC7 SLP150=
CYYG;2005-04-06 02:00;METAR CYYG 060200Z 25007KT 15SM SCT048 BKN073 05/02 A2998 RMK SC3AC2 SLP153=
CYYG;2005-04-06 03:00;METAR CYYG 060300Z 26008KT 15SM SCT048 BKN071 05/02 A2999 RMK SC3AC4 SLP156=
CYYG;2005-04-06 04:00;METAR CYYG 060400Z 26007KT 15SM FEW048 BKN067 04/02 A2999 RMK SC2AC5 SLP156=
CYYG;2005-04-06 05:00;METAR CYYG 060500Z 25006KT 15SM BKN065 04/02 A2998 RMK SC7 SLP153=
CYYG;2005-04-06 06:00;METAR CYYG 060600Z 23005KT 15SM BKN063 04/01 A2999 RMK SC7 SLP156=
CYYG;2005-04-06 07:00;METAR CYYG 060700Z 24005KT 15SM BKN058 03/01 A3000 RMK SC7 SLP161=
CYYG;2005-04-06 08:00;METAR CYYG 060800Z 26005KT 15SM BKN051 03/01 A3002 RMK SC7 SLP166=
CYYG;2005-04-06 09:00;METAR CYYG 060900Z 27006KT 15SM BKN048 04/01 A3004 RMK SC7 SLP172=
CYYG;2005-04-06 10:00;METAR CYYG 061000Z 27006KT 15SM FEW048 03/00 A3006 RMK SC2 SLP181=
CYYG;2005-04-06 11:00;METAR CYYG 061100Z 27006KT 15SM FEW050 04/00 A3008 RMK SC1 SLP188=
CYYG;2005-04-06 12:00;METAR CYYG 061200Z 27008KT 15SM FEW050 05/00 A3009 RMK SC1 SLP192=
CYYG;2005-04-06 13:00;METAR CYYG 061300Z 24005KT 15SM FEW050 08/01 A3010 RMK SC1 SLP194=
CYYG;2005-04-06 14:00;METAR CYYG 061400Z 24006KT 15SM SKC 09/00 A3010 RMK SLP195=
CYYG;2005-04-06 15:00;METAR CYYG 061500Z 22008KT 15SM SKC 10/M00 A3009 RMK SLP192=
CYYG;2005-04-06 16:00;METAR CYYG 061600Z 22009KT 15SM SKC 10/M01 A3009 RMK SLP189=
CYYG;2005-04-06 17:00;METAR CYYG 061700Z 22008KT 15SM FEW028 11/M03 A3007 RMK CF1 SLP183=
CYYG;2005-04-06 18:00;METAR CYYG 061800Z 19012KT 15SM FEW028 12/M01 A3005 RMK CF1 SLP178=
CYYG;2005-04-06 19:00;METAR CYYG 061900Z 18010KT 15SM FEW030 11/M03 A3004 RMK CF1 SLP172=
CYYG;2005-04-06 20:00;METAR CYYG 062000Z 21010KT 15SM FEW030 12/M01 A3001 RMK CF1 SLP164=
CYYG;2005-04-06 21:00;METAR CYYG 062100Z 21012KT 15SM FEW030 11/M01 A3000 RMK SC1 SLP161=
CYYG;2005-04-06 22:00;METAR CYYG 062200Z 23006KT 15SM FEW030 09/M01 A3001 RMK SC1 SLP163=
CYYG;2005-04-06 23:00;METAR CYYG 062300Z 25010KT 15SM FEW030 08/M03 A3002 RMK SC1 SLP167=
CYYG;2005-04-07 00:00;METAR CYYG 070000Z 25013G19KT 15SM FEW030 07/M04 A3003 RMK SC1 SLP170=
CYYG;2005-04-07 01:00;METAR CYYG 070100Z 24010G18KT 15SM FEW030 06/M03 A3003 RMK SC1 SLP169=
CYYG;2005-04-07 02:00;METAR CYYG 070200Z 24012G19KT 15SM FEW083 06/M03 A3001 RMK AC1 SLP164=
CYYG;2005-04-07 03:00;METAR CYYG 070300Z 27012KT 15SM FEW080 05/M01 A3004 RMK AC1 SLP174=
CYYG;2005-04-07 05:00;METAR CYYG 070500Z 33011G16KT 15SM SKC 03/M04 A3006 RMK SLP182=
CYYG;2005-04-07 06:00;METAR CYYG 070600Z 33010KT 15SM SKC 02/M05 A3008 RMK SLP187=
CYYG;2005-04-07 07:00;METAR CYYG 070700Z 32007KT 15SM SCT180 01/M05 A3009 RMK CI4 SLP191=
CYYG;2005-04-07 08:00;METAR CYYG 070800Z 32005KT 15SM BKN180 01/M06 A3009 RMK CI4 SLP192=
CYYG;2005-04-07 09:00;METAR CYYG 070900Z 27003KT 15SM SCT160 01/M06 A3012 RMK AC2 SLP200=
CYYG;2005-04-07 10:00;METAR CYYG 071000Z 27004KT 15SM FEW160 BKN300 00/M06 A3014 RMK AC2CS3 CONTRAILS SLP207=
CYYG;2005-04-07 11:00;METAR CYYG 071100Z 25003KT 15SM FEW160 BKN300 01/M05 A3015 RMK AC1CS2 SLP212=
CYYG;2005-04-07 12:00;METAR CYYG 071200Z 31007KT 15SM FEW160 BKN300 03/M06 A3016 RMK AC1CS3 SLP216=
CYYG;2005-04-07 13:00;METAR CYYG 071300Z 31005KT 15SM FEW160 BKN300 03/M06 A3017 RMK AC1CS6 SLP217=
CYYG;2005-04-07 14:00;METAR CYYG 071400Z 30003KT 15SM FEW160 BKN300 04/M06 A3014 RMK AC2CS5 SLP210=
CYYG;2005-04-07 15:00;METAR CYYG 071500Z 22003KT 15SM FEW110 FEW140 BKN300 05/M05 A3014 RMK AC1AC2CS4 SLP208=
CYYG;2005-04-07 16:00;METAR CYYG 071600Z 18010KT 15SM FEW110 FEW140 BKN300 04/M05 A3012 RMK AC2AC1CS4 SLP201=
CYYG;2005-04-07 17:00;METAR CYYG 071700Z 17005KT 15SM OVC090 04/M06 A3009 RMK AS8 SLP192=
CYYG;2005-04-07 18:00;METAR CYYG 071800Z 00000KT 15SM OVC090 04/M07 A3006 RMK AC8 SLP183=
CYYG;2005-04-07 19:00;METAR CYYG 071900Z 07003KT 15SM OVC075 05/M06 A3006 RMK AC8 VIRGA SLP181=
CYYG;2005-04-07 20:00;METAR CYYG 072000Z 06005KT 15SM BKN081 OVC280 05/M05 A3002 RMK AC7CI1 SLP168=
CYYG;2005-04-07 21:00;METAR CYYG 072100Z 08005KT 15SM BKN055 OVC280 05/M02 A2997 RMK SC7CI1 SLP152=
CYYG;2005-04-07 21:46;SPECI CYYG 072146Z 13007KT 12SM -RA OVC046 RMK SC8=
CYYG;2005-04-07 22:00;METAR CYYG 072200Z 13007KT 12SM -SHRA OVC047 03/M03 A2996 RMK SC8 SLP147=
CYYG;2005-04-08 00:00;METAR CYYG 080000Z 11007KT 10SM -SHRA OVC023 02/01 A2985 RMK SC8 PRESFR SLP111=
CYYG;2005-04-08 00:20;SPECI CYYG 080020Z 09006KT 15SM OVC018 RMK SC8=
CYYG;2005-04-08 01:10;SPECI CYYG 080110Z 13004KT 15SM OVC011 RMK SC8=
CYYG;2005-04-08 01:30;SPECI CYYG 080130Z 14005KT 12SM OVC008 RMK SC8=
CYYG;2005-04-08 02:24;SPECI CYYG 080224Z 15006KT 10SM -SHRA OVC005 RMK SF8=
CYYG;2005-04-08 05:47;SPECI CYYG 080547Z 20008KT 6SM -DZ BR BKN005 OVC011 RMK SF6SC2=
CYYG;2005-04-08 07:00;METAR CYYG 080700Z 19010KT 10SM -DZ OVC007 05/04 A2964 RMK SF8 SLP039=
CYYG;2005-04-08 08:00;METAR CYYG 080800Z 19008KT 8SM -DZ OVC007 04/04 A2962 RMK SF8 SLP031=
CYYG;2005-04-08 09:00;METAR CYYG 080900Z 19007KT 6SM -DZ BR OVC006 05/04 A2960 RMK SF8 SLP025=
CYYG;2005-04-08 09:13;SPECI CYYG 080913Z 21006KT 4SM -DZ BR OVC004 RMK SF8=
CYYG;2005-04-08 09:30;SPECI CYYG 080930Z 23005KT 2SM -DZ BR OVC002 RMK SF8=
CYYG;2005-04-08 10:00;METAR CYYG 081000Z 22003KT 1 1/2SM -DZ BR OVC002 05/04 A2962 RMK SF8 SLP032=
CYYG;2005-04-08 10:14;SPECI CYYG 081014Z 22003KT 1 1/2SM -RA BR BKN002 OVC006 RMK SF6SF2=
CYYG;2005-04-08 10:51;SPECI CYYG 081051Z 24004KT 3SM -RA BR OVC004 RMK SF8=
CYYG;2005-04-08 11:00;METAR CYYG 081100Z 25008KT 4SM -RA BR OVC004 06/06 A2963 RMK SF8 SLP036=
CYYG;2005-04-08 11:54;SPECI CYYG 081154Z 29010KT 10SM -DZ BKN004 OVC009 RMK SF7SC1=
CYYG;2005-04-08 12:00;METAR CYYG 081200Z 29011KT 10SM -DZ BKN004 OVC009 05/04 A2964 RMK SF7SC1 SLP038=
CYYG;2005-04-08 12:29;SPECI CYYG 081229Z 27009KT 15SM SCT004 BKN010 OVC032 RMK SF3SC2SC2=
CYYG;2005-04-08 13:00;METAR CYYG 081300Z 28014G19KT 15SM FEW004 BKN008 OVC032 04/03 A2967 RMK SF2SF4SC2 SLP050=
CYYG;2005-04-08 14:00;METAR CYYG 081400Z 29010G16KT 15SM FEW004 OVC008 02/M00 A2974 RMK SF2SF6 PRESRR SLP071=
CYYG;2005-04-08 16:00;METAR CYYG 081600Z 30011KT 15SM OVC009 03/00 A2977 RMK SC8 SLP082=
CYYG;2005-04-08 16:44;SPECI CYYG 081644Z 32010G16KT 15SM OVC010 RMK SC8=
CYYG;2005-04-08 17:00;METAR CYYG 081700Z 33010G16KT 15SM OVC008 03/01 A2979 RMK SC8 SLP091=
CYYG;2005-04-08 18:00;METAR CYYG 081800Z 33011KT 15SM OVC009 02/M00 A2983 RMK SC8 SLP102=
CYYG;2005-04-08 18:37;SPECI CYYG 081837Z 33007KT 15SM OVC010 RMK SC8=
CYYG;2005-04-08 19:00;METAR CYYG 081900Z 34007KT 15SM OVC011 03/M00 A2985 RMK SC8 SLP108=
CYYG;2005-04-08 20:00;METAR CYYG 082000Z 29005KT 15SM BKN012 BKN020 04/00 A2985 RMK SC5SC2 SLP111=
CYYG;2005-04-08 21:00;METAR CYYG 082100Z 28006KT 15SM SCT012 BKN026 04/M00 A2986 RMK SC3SC4 SLP112=
CYYG;2005-04-08 22:00;METAR CYYG 082200Z 00000KT 15SM BKN027 BKN300 04/00 A2987 RMK SC5CI1 SLP117=
CYYG;2005-04-08 23:00;METAR CYYG 082300Z 16005KT 15SM FEW027 FEW300 02/M01 A2988 RMK SC1CI1 SLP120=
CYYG;2005-04-09 00:00;METAR CYYG 090000Z 18006KT 15SM FEW300 M00/M02 A2990 RMK CI1 SLP129=
CYYG;2005-04-09 01:00;METAR CYYG 090100Z 18004KT 15SM FEW300 M00/M02 A2991 RMK CI1 SLP132=
CYYG;2005-04-09 02:00;METAR CYYG 090200Z 20005KT 15SM SKC M00/M02 A2992 RMK SLP135=
CYYG;2005-04-09 03:00;METAR CYYG 090300Z 18004KT 15SM SKC M01/M02 A2992 RMK SLP135=
CYYG;2005-04-09 04:00;METAR CYYG 090400Z 21007KT 15SM SKC 00/M01 A2992 RMK SLP134=
CYYG;2005-04-09 05:00;METAR CYYG 090500Z 21008KT 15SM FEW082 00/M01 A2992 RMK AC2 SLP133=
CYYG;2005-04-09 06:00;METAR CYYG 090600Z 25008KT 15SM FEW075 01/M01 A2991 RMK AC2 SLP130=
CYYG;2005-04-09 07:00;METAR CYYG 090700Z 24007KT 15SM FEW063 BKN074 01/M01 A2991 RMK SC2AC3 SLP131=
CYYG;2005-04-09 08:00;METAR CYYG 090800Z 25005KT 15SM BKN059 01/M01 A2992 RMK SC6 SLP133=
CYYG;2005-04-09 09:00;METAR CYYG 090900Z 27007KT 15SM SCT054 01/M01 A2992 RMK SC3 SLP135=
CYYG;2005-04-09 10:00;METAR CYYG 091000Z 27006KT 15SM SCT054 00/M02 A2995 RMK SC3 SLP145=
CYYG;2005-04-09 11:00;METAR CYYG 091100Z 28008KT 15SM BKN064 02/M02 A2998 RMK SC5 SLP154=
CYYG;2005-04-09 12:00;METAR CYYG 091200Z 29010KT 15SM SCT064 03/M01 A2999 RMK SC3 SLP158=
CYYG;2005-04-09 13:00;METAR CYYG 091300Z 30009KT 15SM FEW060 03/M02 A3001 RMK SC2 SLP163=
CYYG;2005-04-09 14:00;METAR CYYG 091400Z 31010G15KT 15SM FEW060 04/M02 A3001 RMK SC2 SLP165=
CYYG;2005-04-09 15:00;METAR CYYG 091500Z 28009KT 15SM FEW030 04/M03 A3002 RMK SC2 SLP167=
CYYG;2005-04-09 16:00;METAR CYYG 091600Z 33009KT 15SM BKN040 05/M02 A3002 RMK SC5 SLP169=
CYYG;2005-04-09 17:00;METAR CYYG 091700Z 35012KT 15SM BKN032 04/M04 A3003 RMK SC6 SLP172=
CYYG;2005-04-09 18:00;METAR CYYG 091800Z 35011KT 15SM BKN042 04/M04 A3004 RMK SC6 SLP173=
CYYG;2005-04-09 19:00;METAR CYYG 091900Z 01010KT 15SM BKN053 04/M05 A3004 RMK SC5 SLP176=
CYYG;2005-04-09 20:00;METAR CYYG 092000Z 01010KT 15SM FEW050 03/M05 A3006 RMK SC1 SLP182=
CYYG;2005-04-09 21:00;METAR CYYG 092100Z 01009KT 15SM FEW040 03/M06 A3007 RMK SC1 SLP184=
CYYG;2005-04-09 22:00;METAR CYYG 092200Z 01006KT 15SM FEW050 02/M06 A3007 RMK SC1 SLP185=
CYYG;2005-04-10 00:00;METAR CYYG 100000Z 08003KT 15SM SKC M00/M07 A3010 RMK SLP195=
CYYG;2005-04-10 01:00;METAR CYYG 100100Z 17004KT 15SM SKC M01/M07 A3012 RMK SLP203=
CYYG;2005-04-10 02:00;METAR CYYG 100200Z 16004KT 15SM SKC M01/M07 A3012 RMK SLP202=
CYYG;2005-04-10 03:00;METAR CYYG 100300Z 17005KT 15SM SKC M02/M06 A3011 RMK SLP199=
CYYG;2005-04-10 04:00;METAR CYYG 100400Z 18005KT 15SM SKC M02/M05 A3010 RMK SLP195=
CYYG;2005-04-10 05:00;METAR CYYG 100500Z 21004KT 15SM BKN120 BKN150 M01/M04 A3008 RMK AC5AC2 SLP187=
CYYG;2005-04-10 06:00;METAR CYYG 100600Z 17004KT 15SM OVC110 M01/M03 A3005 RMK AC8 SLP178=
CYYG;2005-04-10 07:00;METAR CYYG 100700Z 17009KT 15SM OVC120 M00/M04 A3004 RMK AC8 SLP176=
CYYG;2005-04-10 08:00;METAR CYYG 100800Z 18007KT 15SM OVC120 M00/M04 A3003 RMK AC8 SLP170=
CYYG;2005-04-10 09:00;METAR CYYG 100900Z 17006KT 15SM BKN110 M00/M04 A3002 RMK AC6 SLP167=
CYYG;2005-04-10 10:00;METAR CYYG 101000Z 20006KT 15SM BKN100 01/M03 A3002 RMK AC6 SLP169=
CYYG;2005-04-10 11:00;METAR CYYG 101100Z 19009KT 15SM BKN084 BKN240 01/M02 A3003 RMK AC6CI0 SLP171=
CYYG;2005-04-10 12:00;METAR CYYG 101200Z 22013KT 15SM BKN080 BKN240 02/M03 A3002 RMK AC6CI0 SLP168=
CYYG;2005-04-10 13:00;METAR CYYG 101300Z 20015KT 15SM FEW080 BKN240 05/M02 A2998 RMK AC2CI1 SLP156=
CYYG;2005-04-10 14:00;METAR CYYG 101400Z 20015KT 15SM FEW080 FEW240 05/M02 A2997 RMK AC1CI0 SLP151=
CYYG;2005-04-10 15:00;METAR CYYG 101500Z 19016KT 15SM FEW080 SCT240 08/M01 A2994 RMK AC2CI1 SLP142=
CYYG;2005-04-10 16:00;METAR CYYG 101600Z 20016KT 15SM SCT090 BKN240 10/M00 A2992 RMK AC3CI2 SLP133=
CYYG;2005-04-10 17:00;METAR CYYG 101700Z 19016KT 15SM SCT100 BKN240 09/M01 A2989 RMK AC3CI2 SLP124=
CYYG;2005-04-10 18:00;METAR CYYG 101800Z 21012KT 15SM BKN089 OVC240 11/M01 A2989 RMK AC5CI2 SLP122=
CYYG;2005-04-10 19:00;METAR CYYG 101900Z 25015G22KT 15SM BKN090 BKN240 12/M03 A2987 RMK AC6CI0 SLP115=
CYYG;2005-04-10 20:00;METAR CYYG 102000Z 35020G28KT 15SM BKN070 04/M02 A2992 RMK AC6 SLP133=
CYYG;2005-04-10 21:00;METAR CYYG 102100Z 35013G20KT 15SM SCT070 05/M05 A2993 RMK AC4 SLP136=
CYYG;2005-04-10 22:00;METAR CYYG 102200Z 36008KT 15SM FEW070 03/M06 A2995 RMK AC2 SLP145=
CYYG;2005-04-10 23:00;METAR CYYG 102300Z 35008KT 15SM SCT067 BKN088 03/M06 A2997 RMK AC3AC2 SLP151=
CYYG;2005-04-11 00:00;METAR CYYG 110000Z 34005KT 15SM FEW067 SCT080 02/M05 A2999 RMK AC2AC2 SLP157=
CYYG;2005-04-11 01:00;METAR CYYG 110100Z 33006KT 15SM FEW067 FEW080 01/M05 A3000 RMK AC1AC1 SLP161=
CYYG;2005-04-11 02:00;METAR CYYG 110200Z 32010G15KT 15SM SKC 01/M06 A3000 RMK SLP161=
CYYG;2005-04-11 03:00;METAR CYYG 110300Z 31010KT 15SM SKC 00/M06 A2999 RMK SLP158=
CYYG;2005-04-11 04:00;METAR CYYG 110400Z 33013G19KT 15SM BKN026 M00/M04 A2999 RMK SC6 SLP158=
CYYG;2005-04-11 04:26;SPECI CYYG 110426Z 34010G18KT 15SM -SHSN BKN011 OVC026 RMK SC5SC3=
CYYG;2005-04-11 06:00;METAR CYYG 110600Z 30004KT 15SM FEW025 BKN036 M01/M04 A2998 RMK SC2SC4 SLP153=
CYYG;2005-04-11 07:00;METAR CYYG 110700Z 28005KT 15SM -SHSN BKN041 M01/M04 A2997 RMK SC6 SLP150=
CYYG;2005-04-11 08:00;METAR CYYG 110800Z 31009G16KT 15SM -SHSN BKN044 M01/M04 A2995 RMK SC6 SLP143=
CYYG;2005-04-11 09:00;METAR CYYG 110900Z 32012G17KT 15SM -SHSN FEW022 BKN043 M01/M05 A2994 RMK SC2SC5 SLP142=
CYYG;2005-04-11 09:17;SPECI CYYG 110917Z 32013G18KT 15SM -SHSN DRSN BKN013 BKN046 RMK SC5SC2=
CYYG;2005-04-11 09:21;SPECI CYYG 110921Z 32015KT 10SM -SHSN DRSN SCT013 BKN044 RMK SC3SC4=
CYYG;2005-04-11 10:00;METAR CYYG 111000Z 31010G17KT 12SM -SHSN DRSN FEW013 BKN022 OVC040 M01/M04 A2995 RMK SC2SC3SC3 SLP143=
CYYG;2005-04-11 10:47;SPECI CYYG 111047Z 32012G18KT 12SM -SHSN BKN012 OVC040 RMK SC6SC2=
CYYG;2005-04-11 11:00;METAR CYYG 111100Z 31012KT 8SM -SHSN BKN012 OVC040 M01/M04 A2996 RMK SC6SC2 SLP146=
CYYG;2005-04-11 12:00;METAR CYYG 111200Z 31013KT 8SM -SHSN OVC011 M01/M04 A2996 RMK SC8 SLP146=
CYYG;2005-04-11 12:33;SPECI CYYG 111233Z 31011G17KT 2SM -SHSN OVC010 RMK SC8=
CYYG;2005-04-11 12:55;SPECI CYYG 111255Z 31009G16KT 8SM -SHSN OVC010 RMK SC8=
CYYG;2005-04-11 13:00;METAR CYYG 111300Z 30012G17KT 10SM -SHSN OVC010 M01/M04 A2996 RMK SC8 SLP146=
CYYG;2005-04-11 14:00;METAR CYYG 111400Z 30010G17KT 8SM -SHSN OVC011 M00/M03 A2995 RMK SC8 SLP143=
CYYG;2005-04-11 15:00;METAR CYYG 111500Z 28010KT 8SM -SHSN BKN012 OVC022 01/M02 A2993 RMK SC6SC2 SLP136=
CYYG;2005-04-11 15:27;SPECI CYYG 111527Z 28009KT 2SM -SHSN BKN010 OVC022 RMK SC6SC2=
CYYG;2005-04-11 16:00;METAR CYYG 111600Z 34008KT 3SM -SHSN OVC017 M00/M03 A2991 RMK SC8 VIS N 15 SLP132=
CYYG;2005-04-11 17:00;METAR CYYG 111700Z 04003KT 15SM -SHSN BKN022 01/M03 A2991 RMK SC7 VIS W 6 SLP131=
CYYG;2005-04-11 18:00;METAR CYYG 111800Z 05005KT 15SM -SHSN BKN022 BKN040 02/M03 A2991 RMK SC6SC2 SLP130=
CYYG;2005-04-11 18:28;SPECI CYYG 111828Z 04014KT 15SM BKN016 BKN035 RMK SC5SC2=
CYYG;2005-04-11 19:00;METAR CYYG 111900Z 05013KT 15SM FEW016 BKN025 OVC045 M00/M03 A2992 RMK SC2SC4SC2 SLP135=
CYYG;2005-04-11 20:00;METAR CYYG 112000Z 05016KT 15SM FEW015 SCT030 BKN045 01/M03 A2992 RMK SC2SC2SC3 SLP135=
CYYG;2005-04-11 20:49;SPECI CYYG 112049Z 05013G19KT 15SM -SHSN FEW015 SCT032 OVC042 RMK SC2SC2SC5=
CYYG;2005-04-11 21:00;METAR CYYG 112100Z 04013G20KT 8SM -SHSN SCT010 OVC042 M00/M02 A2993 RMK SF3SC5 SLP139=
CYYG;2005-04-11 21:14;SPECI CYYG 112114Z 04014G20KT 2SM -SHSN BKN007 OVC042 RMK SF5SC3=
CYYG;2005-04-11 21:21;SPECI CYYG 112121Z 04012KT 3/4SM -SHSN OVC006 RMK SN2SF6 RVR RWY03 4000 FT=
CYYG;2005-04-11 22:00;METAR CYYG 112200Z 04014KT 1 1/2SM -SHSN BKN006 OVC010 M00/M02 A2993 RMK SF7SC1 SLP139=
CYYG;2005-04-11 23:00;METAR CYYG 112300Z 03015KT 15SM -SHSN BKN006 OVC018 M00/M02 A2993 RMK SF7SC1 SLP139=
CYYG;2005-04-11 23:24;SPECI CYYG 112324Z 03015KT 15SM BKN006 OVC047 RMK SF6SC2=
CYYG;2005-04-11 23:31;SPECI CYYG 112331Z 03014KT 15SM FEW006 OVC048 RMK SF2SC6=
CYYG;2005-04-12 00:20;SPECI CYYG 120020Z 02015KT 15SM BKN008 OVC050 RMK SF6SC2=
CYYG;2005-04-12 00:28;SPECI CYYG 120028Z 02013G18KT 10SM -SHSN BKN008 BKN027 OVC050 RMK SF6SC2SC1=
CYYG;2005-04-12 01:00;METAR CYYG 120100Z 01013G20KT 6SM -SN FEW008 OVC050 M00/M02 A2992 RMK SF2SC6 SLP134=
CYYG;2005-04-12 01:32;SPECI CYYG 120132Z 02018KT 4SM -SN OVC012 RMK SC8=
CYYG;2005-04-12 02:00;METAR CYYG 120200Z 03016G21KT 4SM -SN OVC009 M00/M02 A2990 RMK SC8 SLP126=
CYYG;2005-04-12 02:25;SPECI CYYG 120225Z 02017KT 1 1/2SM -SN OVC007 RMK SN2SF6=
CYYG;2005-04-12 02:54;SPECI CYYG 120254Z 02018G24KT 5/8SM -SN OVC007 RMK SN6SF2=
CYYG;2005-04-12 03:00;METAR CYYG 120300Z 02019G24KT 5/8SM -SN OVC007 M01/M02 A2988 RMK SN6SF2 /S01/ SLP120=
CYYG;2005-04-12 03:24;SPECI CYYG 120324Z 03018G25KT 1/4SM +SN DRSN VV003 RMK SN8=
CYYG;2005-04-12 03:35;SPECI CYYG 120335Z 02017G26KT 1SM -SN DRSN OVC007 RESN RMK SN4SF4=
CYYG;2005-04-12 04:00;METAR CYYG 120400Z 02018G27KT 1SM -SN DRSN OVC008 M01/M03 A2985 RESN RMK SN4SC4 /S02/ SLP110=
CYYG;2005-04-12 04:13;SPECI CYYG 120413Z 02014G27KT 3/8SM SN DRSN VV004 RMK SN8=
CYYG;2005-04-12 05:00;METAR CYYG 120500Z 03020G31KT 5/8SM -SN DRSN OVC006 M02/M04 A2980 RESN RMK SN4SC4 /S04/ SLP095=
CYYG;2005-04-12 06:00;METAR CYYG 120600Z 03021G30KT 2 1/2SM -SN DRSN OVC010 M02/M04 A2975 RMK SC8 /S05/ SLP078=
CYYG;2005-04-12 06:20;SPECI CYYG 120620Z 03021G28KT 3/4SM -SN DRSN OVC008 RMK SN2SC6=
CYYG;2005-04-12 06:31;SPECI CYYG 120631Z 03020G30KT 1/4SM +SN DRSN VV003 RMK SN8=
CYYG;2005-04-12 06:52;SPECI CYYG 120652Z 02023G28KT 1/2SM SN DRSN VV005 RESN RMK SN8=
CYYG;2005-04-12 07:00;METAR CYYG 120700Z 02021G28KT 1/2SM SN DRSN VV005 M02/M04 A2971 RESN RMK SN8 /S02/ SLP064=
CYYG;2005-04-12 07:41;SPECI CYYG 120741Z 02018G25KT 3/4SM -SN DRSN OVC010 RESN RMK SN5SC3=
CYYG;2005-04-12 08:00;METAR CYYG 120800Z 03020G28KT 1 1/2SM -SN DRSN OVC009 M02/M03 A2968 RESN RMK SN2SC6 /S03/ SLP052=
CYYG;2005-04-12 08:18;SPECI CYYG 120818Z 03021G27KT 2 1/2SM -SN DRSN OVC009 RMK SC8=
CYYG;2005-04-12 09:00;METAR CYYG 120900Z 03022G30KT 2SM -SN DRSN OVC008 M01/M03 A2964 RMK SC8 /S04/ SLP039=
CYYG;2005-04-12 10:00;METAR CYYG 121000Z 04017G22KT 2SM -SN DRSN SCT004 OVC007 M01/M03 A2963 RMK SF3SF5 SLP034=
CYYG;2005-04-12 11:00;METAR CYYG 121100Z 03011KT 1 1/2SM -SN DRSN BKN005 OVC012 M01/M03 A2963 RMK SN2SF3SC3 /S05/ SLP036=
CYYG;2005-04-12 12:00;METAR CYYG 121200Z 05007KT 1 1/2SM -SN SCT005 BKN009 OVC014 M00/M01 A2963 RMK SN2SF2SF2SC2 SLP037=
CYYG;2005-04-12 13:00;METAR CYYG 121300Z 10003KT 5SM -SN BKN006 OVC011 00/M01 A2965 RMK SF6SC2 SLP041=
CYYG;2005-04-12 13:03;SPECI CYYG 121303Z 11004KT 5SM -SN BKN003 BKN006 OVC025 RMK SF5SF2SC2=
CYYG;2005-04-12 13:14;SPECI CYYG 121314Z 11003KT 8SM -SN FEW003 BKN005 OVC025 RMK SF2SF4SC2=
CYYG;2005-04-12 13:36;SPECI CYYG 121336Z 16005KT 15SM FEW003 BKN007 BKN028 RMK SF2SF4SC2=
CYYG;2005-04-12 13:44;SPECI CYYG 121344Z 16004KT 15SM -SN BKN007 BKN028 RMK SF5SC2=
CYYG;2005-04-12 14:00;METAR CYYG 121400Z 18006KT 15SM -SN BKN006 BKN012 BKN028 01/M01 A2966 RMK SF5SC2SC1 SLP046=
CYYG;2005-04-12 14:12;SPECI CYYG 121412Z 17007KT 15SM FEW008 SCT028 BKN055 RMK SF2SC1SC1=
CYYG;2005-04-12 15:00;METAR CYYG 121500Z 17012KT 15SM FEW012 SCT020 SCT055 02/M01 A2969 RMK CF1SC2SC1 SLP055=
CYYG;2005-04-12 15:16;SPECI CYYG 121516Z 17014KT 15SM FEW010 BKN013 RMK CF1SC6=
CYYG;2005-04-12 16:00;METAR CYYG 121600Z 17012KT 15SM FEW012 FEW300 01/M02 A2972 RMK CF2CI1 SLP066=
CYYG;2005-04-12 17:00;METAR CYYG 121700Z 16013KT 15SM FEW017 BKN025 03/M01 A2974 RMK CU2SC4 SLP074=
CYYG;2005-04-12 18:00;METAR CYYG 121800Z 15013KT 15SM FEW015 BKN027 03/M03 A2977 RMK CU1SC6 SLP084=
CYYG;2005-04-12 19:00;METAR CYYG 121900Z 16010KT 15SM FEW027 BKN043 04/M03 A2979 RMK SC2SC4 SLP091=
CYYG;2005-04-12 20:00;METAR CYYG 122000Z 17008KT 15SM FEW033 BKN048 04/M02 A2979 RMK SC2SC3 SLP091=
CYYG;2005-04-12 21:00;METAR CYYG 122100Z 17010KT 15SM FEW028 BKN044 04/M02 A2982 RMK CU2SC4 SLP099=
CYYG;2005-04-12 22:00;METAR CYYG 122200Z 10006KT 15SM FEW035 BKN048 04/M02 A2984 RMK CU2SC5 SLP106=
CYYG;2005-04-12 23:00;METAR CYYG 122300Z 11006KT 15SM FEW035 BKN045 BKN120 03/M02 A2986 RMK SC2SC4AC1 SLP113=
CYYG;2005-04-13 00:00;METAR CYYG 130000Z 08005KT 15SM FEW045 01/M03 A2988 RMK SC2 SLP122=
CYYG;2005-04-13 01:00;METAR CYYG 130100Z 00000KT 15SM FEW045 SCT250 00/M03 A2989 RMK SC1CI2 SLP124=
CYYG;2005-04-13 02:00;METAR CYYG 130200Z 10003KT 15SM FEW045 FEW250 M00/M03 A2989 RMK SC1CI1 SLP124=
CYYG;2005-04-13 03:00;METAR CYYG 130300Z 11003KT 15SM FEW250 M01/M03 A2988 RMK CI0 FROIN SLP121=
CYYG;2005-04-13 04:00;METAR CYYG 130400Z 00000KT 15SM BKN250 M02/M04 A2988 RMK CI2 FROIN SLP120=
CYYG;2005-04-13 05:00;METAR CYYG 130500Z 00000KT 15SM SCT250 M03/M04 A2987 RMK CI1 FROIN SLP116=
CYYG;2005-04-13 06:00;METAR CYYG 130600Z 27003KT 15SM BKN250 M02/M03 A2985 RMK CI3 FROIN SLP112=
CYYG;2005-04-13 07:00;METAR CYYG 130700Z 24005KT 15SM OVC150 M02/M03 A2983 RMK AC8 FROIN SLP103=
CYYG;2005-04-13 08:00;METAR CYYG 130800Z 25005KT 15SM OVC150 M01/M04 A2981 RMK AC8 SLP098=
CYYG;2005-04-13 09:00;METAR CYYG 130900Z 28004KT 15SM OVC120 M01/M04 A2981 RMK AC8 SLP098=
CYYG;2005-04-13 10:00;METAR CYYG 131000Z 24005KT 15SM BKN120 M01/M04 A2982 RMK AC6 SLP102=
CYYG;2005-04-13 11:00;METAR CYYG 131100Z 28004KT 15SM FEW010 BKN120 M00/M03 A2984 RMK SC1AC6 SLP106=
CYYG;2005-04-13 12:00;METAR CYYG 131200Z 29006KT 15SM FEW010 BKN120 00/M02 A2982 RMK SC1AC4 SLP102=
CYYG;2005-04-13 13:00;METAR CYYG 131300Z 27007KT 15SM FEW012 BKN120 01/M02 A2981 RMK SC2AC3 SLP098=
CYYG;2005-04-13 14:00;METAR CYYG 131400Z 27009KT 15SM FEW012 BKN120 02/M01 A2979 RMK SC2AC3 SLP091=
CYYG;2005-04-13 15:00;METAR CYYG 131500Z 25013KT 15SM BKN009 BKN120 01/M01 A2979 RMK SC5AC2 SLP090=
CYYG;2005-04-13 15:52;SPECI CYYG 131552Z 24013KT 15SM OVC011 RMK SC8=
CYYG;2005-04-13 16:00;METAR CYYG 131600Z 24011G16KT 15SM OVC010 01/M01 A2977 RMK SC8 SLP085=
CYYG;2005-04-13 17:00;METAR CYYG 131700Z 25013G19KT 15SM SCT012 BKN097 03/M01 A2977 RMK SC3AC3 SLP084=
CYYG;2005-04-13 18:00;METAR CYYG 131800Z 25016G21KT 15SM FEW015 BKN100 05/M01 A2976 RMK SC2AC4 SLP078=
CYYG;2005-04-13 19:00;METAR CYYG 131900Z 25013G21KT 15SM FEW025 BKN160 05/M02 A2975 RMK SC2AC4 SLP075=
CYYG;2005-04-13 20:00;METAR CYYG 132000Z 26013G18KT 15SM FEW025 SCT160 BKN270 05/M02 A2974 RMK SC1AC2CI4 SLP073=
CYYG;2005-04-13 21:00;METAR CYYG 132100Z 25012G17KT 15SM FEW030 SCT160 BKN270 04/M02 A2974 RMK SC1AC2CI3 SLP074=
CYYG;2005-04-13 22:00;METAR CYYG 132200Z 24011G17KT 15SM FEW080 SCT270 04/M02 A2975 RMK AC2CI1 SLP076=
CYYG;2005-04-13 23:00;METAR CYYG 132300Z 24009G16KT 15SM FEW080 BKN270 03/M03 A2975 RMK AC1CI2 SLP077=
CYYG;2005-04-14 00:00;METAR CYYG 140000Z 25013KT 15SM BKN140 BKN270 03/M03 A2977 RMK AC5CI1 SLP082=
CYYG;2005-04-14 01:00;METAR CYYG 140100Z 25013G18KT 15SM BKN030 BKN120 BKN270 03/M03 A2977 RMK SC5AC1CI0 SLP081=
CYYG;2005-04-14 02:00;METAR CYYG 140200Z 23009KT 15SM BKN040 OVC090 02/M02 A2976 RMK SC7AC1 SLP080=
CYYG;2005-04-14 03:00;METAR CYYG 140300Z 23007KT 15SM FEW030 OVC042 02/M02 A2976 RMK SC2SC6 SLP079=
CYYG;2005-04-14 04:00;METAR CYYG 140400Z 25009KT 15SM -SHSN OVC025 02/M02 A2976 RMK SC8 SLP079=
CYYG;2005-04-14 05:00;METAR CYYG 140500Z 24007KT 2SM -SHRA BR OVC011 01/M00 A2976 RMK SC8 SLP079=
CYYG;2005-04-14 05:23;SPECI CYYG 140523Z 25007KT 2 1/2SM -DZ BR BKN003 OVC010 RMK SF7SC1=
CYYG;2005-04-14 06:00;METAR CYYG 140600Z 26006KT 2 1/2SM -DZ BR OVC003 01/00 A2976 RMK SF8 SLP080=
CYYG;2005-04-14 06:37;SPECI CYYG 140637Z 25005KT 2 1/2SM -SHRA BR BKN002 OVC012 RMK SF6SC2=
CYYG;2005-04-14 07:00;METAR CYYG 140700Z 28004KT 5SM -SHRA BR SCT002 BKN012 OVC030 01/00 A2977 RMK SF3SC3SC2 SLP081=
CYYG;2005-04-14 07:12;SPECI CYYG 140712Z 29004KT 12SM FEW012 OVC055 RMK SC2SC6=
CYYG;2005-04-14 08:00;METAR CYYG 140800Z 33007KT 10SM BKN004 OVC035 02/00 A2978 RMK SF6SC2 SLP087=
CYYG;2005-04-14 08:42;SPECI CYYG 140842Z 34011G16KT 15SM FEW004 OVC020 RMK SF2SC6=
CYYG;2005-04-14 09:00;METAR CYYG 140900Z 35017G22KT 15SM FEW004 FEW025 BKN062 01/M02 A2979 RMK SF1SC2SC6 SLP091=
CYYG;2005-04-14 10:00;METAR CYYG 141000Z 36016G24KT 15SM FEW034 BKN065 BKN240 M00/M04 A2985 RMK SC2SC3CI1 SLP108=
CYYG;2005-04-14 11:00;METAR CYYG 141100Z 35015G25KT 15SM SCT032 BKN052 M01/M05 A2990 RMK SC3SC2 SLP127=
CYYG;2005-04-14 12:00;METAR CYYG 141200Z 35017G30KT 15SM FEW030 FEW120 M01/M06 A2993 RMK SC2AC1 SLP138=
CYYG;2005-04-14 13:00;METAR CYYG 141300Z 36020G29KT 15SM FEW030 FEW120 M01/M09 A2998 RMK SC2AC1 SLP154=
CYYG;2005-04-14 14:00;METAR CYYG 141400Z 35023G29KT 15SM BKN030 M01/M08 A3000 RMK SC6 SLP162=
CYYG;2005-04-14 15:00;METAR CYYG 141500Z 35015KT 15SM FEW033 SCT120 M00/M08 A3001 RMK SC2AC0 SLP166=
CYYG;2005-04-14 16:00;METAR CYYG 141600Z 36018G29KT 15SM FEW030 SCT260 M01/M09 A3004 RMK SC2CI1 SLP176=
CYYG;2005-04-14 17:00;METAR CYYG 141700Z 35017G27KT 15SM FEW030 SCT260 M00/M10 A3007 RMK CF1CI1 SLP186=
CYYG;2005-04-14 18:00;METAR CYYG 141800Z 33016G24KT 15SM FEW036 FEW260 00/M08 A3010 RMK CF1CI1 SLP196=
CYYG;2005-04-14 19:00;METAR CYYG 141900Z 35020G31KT 15SM FEW020 FEW260 M00/M10 A3012 RMK CF0CI1 SLP200=
CYYG;2005-04-14 20:00;METAR CYYG 142000Z 34014G22KT 15SM FEW260 00/M09 A3014 RMK CI1 SLP209=
CYYG;2005-04-14 21:00;METAR CYYG 142100Z 36014KT 15SM FEW260 M00/M09 A3016 RMK CI1 SLP216=
CYYG;2005-04-14 22:00;METAR CYYG 142200Z 36007KT 15SM SCT260 M01/M08 A3019 RMK CI1 SLP224=
CYYG;2005-04-14 23:00;METAR CYYG 142300Z 35005KT 15SM FEW260 M02/M09 A3020 RMK CI1 SLP230=
CYYG;2005-04-15 00:00;METAR CYYG 150000Z 30002KT 15SM FEW260 M03/M08 A3022 RMK CI1 SLP237=
CYYG;2005-04-15 01:00;METAR CYYG 150100Z 27006KT 15SM FEW260 M04/M08 A3023 RMK CI1 SLP240=
CYYG;2005-04-15 02:00;METAR CYYG 150200Z 28008KT 15SM FEW260 M02/M09 A3024 RMK CI1 SLP242=
CYYG;2005-04-15 03:00;METAR CYYG 150300Z 28008KT 15SM SKC M02/M09 A3024 RMK SLP244=
CYYG;2005-04-15 04:00;METAR CYYG 150400Z 28006KT 15SM SKC M03/M09 A3025 RMK SLP247=
CYYG;2005-04-15 05:00;METAR CYYG 150500Z 30008KT 15SM SKC M01/M09 A3025 RMK SLP248=
CYYG;2005-04-15 06:00;METAR CYYG 150600Z 31008KT 15SM SKC M01/M09 A3026 RMK SLP249=
CYYG;2005-04-15 07:00;METAR CYYG 150700Z 33007KT 15SM SKC M01/M09 A3027 RMK SLP252=
CYYG;2005-04-15 08:00;METAR CYYG 150800Z 34008KT 15SM SKC M02/M08 A3028 RMK SLP257=
CYYG;2005-04-15 09:00;METAR CYYG 150900Z 34008KT 15SM FEW260 M02/M07 A3030 RMK CI0 SLP264=
CYYG;2005-04-15 11:00;METAR CYYG 151100Z 34010KT 15SM FEW260 M01/M08 A3038 RMK CI0 SLP290=
CYYG;2005-04-15 12:00;METAR CYYG 151200Z 01015G22KT 15SM FEW260 M00/M10 A3040 RMK CI0 SLP297=
CYYG;2005-04-15 13:00;METAR CYYG 151300Z 34015G20KT 15SM FEW030 00/M11 A3043 RMK CU1 SLP306=
CYYG;2005-04-15 14:00;METAR CYYG 151400Z 35016KT 15SM FEW030 00/M10 A3045 RMK CU1 SLP314=
CYYG;2005-04-15 15:00;METAR CYYG 151500Z 36015KT 15SM FEW035 01/M10 A3046 RMK CU2 SLP316=
CYYG;2005-04-15 16:00;METAR CYYG 151600Z 35014G19KT 15SM FEW040 01/M11 A3047 RMK CU1 SLP319=
CYYG;2005-04-15 17:00;METAR CYYG 151700Z 36014KT 15SM FEW040 01/M10 A3047 RMK CU1 SLP322=
CYYG;2005-04-15 18:00;METAR CYYG 151800Z 32010G18KT 15SM FEW040 01/M09 A3048 RMK CU1 SLP324=
CYYG;2005-04-15 19:00;METAR CYYG 151900Z 33013KT 15SM FEW040 01/M12 A3048 RMK CF1 SLP324=
CYYG;2005-04-15 20:00;METAR CYYG 152000Z 34010G16KT 15SM FEW040 01/M12 A3048 RMK CF1 SLP323=
CYYG;2005-04-15 21:00;METAR CYYG 152100Z 01009KT 15SM SKC 01/M12 A3047 RMK SLP322=
CYYG;2005-04-15 22:00;METAR CYYG 152200Z 35007KT 15SM SKC 00/M12 A3049 RMK SLP328=
CYYG;2005-04-15 23:00;METAR CYYG 152300Z 04008KT 15SM SKC M02/M09 A3052 RMK SLP336=
CYYG;2005-04-16 00:00;METAR CYYG 160000Z 03002KT 15SM SKC M04/M08 A3054 RMK SLP344=
CYYG;2005-04-16 01:00;METAR CYYG 160100Z 00000KT 15SM SKC M03/M08 A3055 RMK SLP348=
CYYG;2005-04-16 02:00;METAR CYYG 160200Z 24003KT 15SM SKC M04/M09 A3055 RMK SLP349=
CYYG;2005-04-16 03:00;METAR CYYG 160300Z 23003KT 15SM SKC M03/M07 A3055 RMK SLP349=
CYYG;2005-04-16 04:00;METAR CYYG 160400Z 24005KT 15SM SKC M03/M10 A3055 RMK SLP348=
CYYG;2005-04-16 05:00;METAR CYYG 160500Z 24008KT 15SM SKC M04/M08 A3055 RMK SLP348=
CYYG;2005-04-16 06:00;METAR CYYG 160600Z 25008KT 15SM SKC M03/M07 A3055 RMK SLP346=
CYYG;2005-04-16 07:00;METAR CYYG 160700Z 25008KT 15SM SKC M02/M08 A3055 RMK SLP347=
CYYG;2005-04-16 08:00;METAR CYYG 160800Z 24006KT 15SM SKC M02/M08 A3055 RMK SLP347=
CYYG;2005-04-16 09:00;METAR CYYG 160900Z 23007KT 15SM SKC M02/M08 A3055 RMK SLP347=
CYYG;2005-04-16 10:00;METAR CYYG 161000Z 24006KT 15SM SKC M01/M08 A3057 RMK SLP354=
CYYG;2005-04-16 11:00;METAR CYYG 161100Z 23007KT 15SM SKC 01/M07 A3056 RMK SLP352=
CYYG;2005-04-16 12:00;METAR CYYG 161200Z 24007KT 15SM SKC 03/M06 A3057 RMK SLP353=
CYYG;2005-04-16 13:00;METAR CYYG 161300Z 24008KT 15SM SKC 05/M07 A3057 RMK SLP355=
CYYG;2005-04-16 14:00;METAR CYYG 161400Z 25009KT 15SM SKC 07/M07 A3057 RMK SLP354=
CYYG;2005-04-16 15:00;METAR CYYG 161500Z 26010KT 15SM SKC 08/M09 A3055 RMK SLP348=
CYYG;2005-04-16 16:00;METAR CYYG 161600Z 26010KT 15SM SKC 10/M08 A3052 RMK SLP339=
CYYG;2005-04-16 17:00;METAR CYYG 161700Z 27006KT 15SM SKC 11/M07 A3050 RMK SLP330=
CYYG;2005-04-16 18:00;METAR CYYG 161800Z 23007KT 15SM SKC 12/M07 A3048 RMK SLP323=
CYYG;2005-04-16 19:00;METAR CYYG 161900Z 25009KT 15SM SKC 13/M07 A3045 RMK SLP314=
CYYG;2005-04-16 20:00;METAR CYYG 162000Z 23007KT 15SM SKC 13/M07 A3042 RMK SLP303=
CYYG;2005-04-16 21:00;METAR CYYG 162100Z 25003KT 15SM SKC 14/M07 A3038 RMK SLP289=
CYYG;2005-04-16 22:00;METAR CYYG 162200Z 19007KT 15SM SKC 11/M06 A3036 RMK SLP284=
CYYG;2005-04-16 23:00;METAR CYYG 162300Z 23003KT 15SM FEW250 09/M07 A3035 RMK CI1 SLP280=
CYYG;2005-04-17 00:00;METAR CYYG 170000Z 19007KT 15SM SKC 04/M06 A3036 RMK SLP283=
CYYG;2005-04-17 01:00;METAR CYYG 170100Z 22005KT 15SM SKC 05/M05 A3036 RMK SLP282=
CYYG;2005-04-17 02:00;METAR CYYG 170200Z 21005KT 15SM SKC 05/M05 A3034 RMK SLP276=
CYYG;2005-04-17 03:00;METAR CYYG 170300Z 24007KT 15SM SKC 05/M05 A3032 RMK SLP269=
CYYG;2005-04-17 04:00;METAR CYYG 170400Z 22006KT 15SM SKC 04/M05 A3031 RMK SLP265=
CYYG;2005-04-17 05:00;METAR CYYG 170500Z 23008KT 15SM SKC 03/M05 A3029 RMK SLP260=
CYYG;2005-04-17 07:00;METAR CYYG 170700Z 23010KT 15SM SKC 03/M06 A3026 RMK SLP249=
CYYG;2005-04-17 09:00;METAR CYYG 170900Z 22010KT 15SM FEW260 01/M04 A3021 RMK CI0 SLP233=
CYYG;2005-04-17 10:00;METAR CYYG 171000Z 22007KT 15SM SCT260 01/M02 A3020 RMK CI1 SLP228=
CYYG;2005-04-17 11:00;METAR CYYG 171100Z 22007KT 15SM BKN310 03/M02 A3019 RMK CI2 SLP224=
CYYG;2005-04-17 12:00;METAR CYYG 171200Z 21005KT 15SM BKN310 05/M01 A3016 RMK CI2 CONTRAILS SLP216=
CYYG;2005-04-17 13:00;METAR CYYG 171300Z 20006KT 15SM BKN310 07/00 A3014 RMK CI3 SLP208=
CYYG;2005-04-17 14:00;METAR CYYG 171400Z 18008KT 15SM BKN310 10/01 A3010 RMK CI2 SLP194=
CYYG;2005-04-17 15:00;METAR CYYG 171500Z 22006KT 15SM BKN310 12/01 A3007 RMK CI2 CONTRAILS SLP183=
CYYG;2005-04-17 16:00;METAR CYYG 171600Z 22008KT 15SM BKN310 13/01 A3004 RMK CI2 CONTRAILS SLP174=
CYYG;2005-04-17 17:00;METAR CYYG 171700Z 22007KT 15SM BKN310 15/01 A3001 RMK CI2 CONTRAILS SLP162=
CYYG;2005-04-17 18:00;METAR CYYG 171800Z 22008KT 15SM BKN310 16/M03 A2997 RMK CI2 SLP149=
CYYG;2005-04-17 19:00;METAR CYYG 171900Z 20009KT 15SM BKN310 17/M03 A2993 RMK CI2 SLP135=
CYYG;2005-04-17 20:00;METAR CYYG 172000Z 21008KT 15SM BKN310 17/M03 A2990 RMK CI2 SLP126=
CYYG;2005-04-17 21:00;METAR CYYG 172100Z 21007KT 15SM BKN310 16/M04 A2988 RMK CI2 SLP119=
CYYG;2005-04-17 22:00;METAR CYYG 172200Z 19008KT 15SM BKN310 15/M04 A2985 RMK CI2 SLP110=
CYYG;2005-04-17 23:00;METAR CYYG 172300Z 20006KT 15SM BKN310 12/M07 A2984 RMK CI2 SLP107=
CYYG;2005-04-18 00:00;METAR CYYG 180000Z 20006KT 15SM BKN310 09/M05 A2983 RMK CI2 SLP103=
CYYG;2005-04-18 01:00;METAR CYYG 180100Z 21005KT 15SM SCT310 08/M03 A2981 RMK CI2 SLP096=
CYYG;2005-04-18 02:00;METAR CYYG 180200Z 22007KT 15SM SCT310 08/M03 A2979 RMK CI2 SLP090=
CYYG;2005-04-18 04:00;METAR CYYG 180400Z 25012G17KT 15SM FEW100 SCT310 07/M02 A2974 RMK AC1CI2 SLP070=
CYYG;2005-04-18 05:00;METAR CYYG 180500Z 30005KT 15SM FEW085 FEW140 BKN310 07/M01 A2971 RMK AC2CI1CI1 SLP063=
CYYG;2005-04-18 06:00;METAR CYYG 180600Z 32011G16KT 15SM FEW085 FEW140 BKN310 09/M01 A2971 RMK AC2AC1CI1 SLP061=
CYYG;2005-04-18 07:00;METAR CYYG 180700Z 33013G18KT 15SM FEW100 BKN250 09/M01 A2971 RMK AC2CI1 SLP061=
CYYG;2005-04-18 08:00;METAR CYYG 180800Z 33015G22KT 15SM FEW100 BKN250 07/M02 A2972 RMK AC2CI1 SLP064=
CYYG;2005-04-18 09:00;METAR CYYG 180900Z 34013G20KT 15SM FEW098 BKN250 06/M03 A2974 RMK AC2CI1 SLP071=
CYYG;2005-04-18 10:00;METAR CYYG 181000Z 33014G21KT 15SM FEW100 05/M03 A2976 RMK AC2 SLP078=
CYYG;2005-04-18 11:00;METAR CYYG 181100Z 34015G28KT 15SM FEW100 06/M03 A2979 RMK AC1 SLP089=
CYYG;2005-04-18 12:00;METAR CYYG 181200Z 34017G26KT 15SM SKC 06/M03 A2981 RMK SLP095=
CYYG;2005-04-18 13:00;METAR CYYG 181300Z 35017G27KT 15SM SKC 06/M03 A2982 RMK SLP099=
CYYG;2005-04-18 15:00;METAR CYYG 181500Z 35014G21KT 15SM FEW020 07/M03 A2983 RMK CF1 SLP103=
CYYG;2005-04-18 16:00;METAR CYYG 181600Z 34018G25KT 15SM FEW020 FEW300 06/M04 A2982 RMK CF1CI1 SLP099=
CYYG;2005-04-18 18:00;METAR CYYG 181800Z 35013G19KT 15SM FEW020 FEW100 FEW300 07/M04 A2978 RMK CF1AC1CI1 SLP085=
CYYG;2005-04-18 19:00;METAR CYYG 181900Z 02016G22KT 15SM FEW025 FEW100 FEW300 06/M03 A2978 RMK CF1AC1CI1 SLP086=
CYYG;2005-04-18 19:15;SPECI CYYG 181915Z 04021KT 15SM FEW025 FEW100 FEW300 RMK CF1AC1CI1=
CYYG;2005-04-18 20:00;METAR CYYG 182000Z 02017G22KT 15SM FEW030 FEW100 FEW300 03/M05 A2980 RMK CF1AC1CI1 SLP094=
CYYG;2005-04-18 21:00;METAR CYYG 182100Z 01013G25KT 15SM FEW030 FEW100 FEW300 03/M06 A2983 RMK CF1AC1CI1 SLP104=
CYYG;2005-04-18 22:00;METAR CYYG 182200Z 01012G17KT 15SM FEW100 01/M06 A2985 RMK AC1 SLP110=
CYYG;2005-04-18 23:00;METAR CYYG 182300Z 36010G17KT 15SM FEW250 00/M07 A2987 RMK CI1 SLP116=
CYYG;2005-04-19 00:00;METAR CYYG 190000Z 34004KT 15SM SKC M01/M06 A2989 RMK SLP123=
CYYG;2005-04-19 01:00;METAR CYYG 190100Z 34005KT 15SM SKC M01/M07 A2989 RMK SLP123=
CYYG;2005-04-19 02:00;METAR CYYG 190200Z 31004KT 15SM SKC M01/M06 A2988 RMK SLP122=
CYYG;2005-04-19 03:00;METAR CYYG 190300Z 28005KT 15SM SKC M02/M07 A2988 RMK SLP122=
CYYG;2005-04-19 04:00;METAR CYYG 190400Z 28007KT 15SM SKC M01/M07 A2988 RMK SLP121=
CYYG;2005-04-19 05:00;METAR CYYG 190500Z 27006KT 15SM SKC M02/M07 A2988 RMK SLP120=
CYYG;2005-04-19 06:00;METAR CYYG 190600Z 27007KT 15SM SKC M02/M06 A2988 RMK SLP121=
CYYG;2005-04-19 08:00;METAR CYYG 190800Z 30005KT 15SM SKC M01/M06 A2989 RMK SLP123=
CYYG;2005-04-19 09:00;METAR CYYG 190900Z 29003KT 15SM FEW260 M03/M07 A2990 RMK CI0 SLP126=
CYYG;2005-04-19 10:00;METAR CYYG 191000Z 31004KT 15SM BKN260 M01/M06 A2991 RMK CI1 SLP131=
CYYG;2005-04-19 11:00;METAR CYYG 191100Z 32005KT 15SM SCT260 01/M04 A2993 RMK CI1 SLP137=
CYYG;2005-04-19 12:00;METAR CYYG 191200Z 34011KT 15SM FEW030 FEW260 03/M05 A2993 RMK CF1CI0 SLP139=
CYYG;2005-04-19 13:00;METAR CYYG 191300Z 32008KT 15SM FEW030 FEW260 04/M05 A2994 RMK CU1CI1 SLP140=
CYYG;2005-04-19 14:00;METAR CYYG 191400Z 34012KT 15SM FEW030 FEW260 04/M06 A2994 RMK CU1CI1 SLP142=
CYYG;2005-04-19 15:00;METAR CYYG 191500Z 34012G18KT 15SM FEW030 FEW260 05/M06 A2995 RMK CU1CI0 SLP144=
CYYG;2005-04-19 16:00;METAR CYYG 191600Z 36010KT 15SM FEW030 FEW260 06/M05 A2993 RMK CU1CI0 SLP138=
CYYG;2005-04-19 17:00;METAR CYYG 191700Z 34009G16KT 15SM FEW100 FEW260 07/M05 A2992 RMK AC1CI0 SLP134=
CYYG;2005-04-19 18:00;METAR CYYG 191800Z 34007KT 15SM FEW100 FEW260 06/M05 A2992 RMK AC1CI0 SLP134=
CYYG;2005-04-19 19:00;METAR CYYG 191900Z 36006KT 15SM FEW100 SCT260 07/M05 A2989 RMK AC1CI0 SLP125=
CYYG;2005-04-19 20:00;METAR CYYG 192000Z 00000KT 15SM FEW260 09/M04 A2986 RMK CI1 SLP115=
CYYG;2005-04-19 21:00;METAR CYYG 192100Z 14006KT 15SM FEW260 09/M03 A2985 RMK CI1 SLP109=
CYYG;2005-04-19 23:00;METAR CYYG 192300Z 17006KT 15SM FEW070 SCT260 04/M03 A2983 RMK AC1CI2 SLP104=
CYYG;2005-04-20 00:00;METAR CYYG 200000Z 18006KT 15SM FEW070 SCT220 03/M03 A2983 RMK AC1CI2 SLP103=
CYYG;2005-04-20 01:00;METAR CYYG 200100Z 16007KT 15SM FEW220 03/M04 A2981 RMK CI2 SLP097=
CYYG;2005-04-20 02:00;METAR CYYG 200200Z 16008KT 15SM SCT100 BKN220 05/M03 A2979 RMK AC3CI2 SLP088=
CYYG;2005-04-20 03:00;METAR CYYG 200300Z 18010KT 15SM BKN100 06/M02 A2974 RMK AC6 SLP073=
CYYG;2005-04-20 04:00;METAR CYYG 200400Z 19007KT 15SM BKN079 06/02 A2973 RMK AC7 SLP069=
CYYG;2005-04-20 06:00;METAR CYYG 200600Z 23010KT 15SM OVC068 10/M04 A2966 RMK AC8 SLP043=
CYYG;2005-04-20 07:00;METAR CYYG 200700Z 23012G19KT 15SM OVC068 10/M03 A2963 RMK AC8 SLP033=
CYYG;2005-04-20 08:00;METAR CYYG 200800Z 23011KT 15SM BKN070 OVC220 10/M01 A2959 RMK AC6CI2 SLP022=
CYYG;2005-04-20 10:00;METAR CYYG 201000Z 25011G16KT 15SM BKN094 BKN110 10/01 A2957 RMK AC6AC2 SLP014=
CYYG;2005-04-20 10:12;SPECI CYYG 201012Z 25011KT 15SM -RA FEW060 BKN077 OVC088 RMK SC1AC6AC2=
CYYG;2005-04-20 11:00;METAR CYYG 201100Z 25008KT 15SM -SHRA FEW064 BKN078 BKN300 09/03 A2958 RMK SC2AC4CI1 SLP018=
CYYG;2005-04-20 11:21;SPECI CYYG 201121Z 25010KT 15SM BKN065 RMK SC7=
CYYG;2005-04-20 12:00;METAR CYYG 201200Z 26012KT 15SM BKN063 BKN110 BKN300 10/04 A2958 RMK SC5AC2CI1 SLP019=
CYYG;2005-04-20 13:00;METAR CYYG 201300Z 27008KT 15SM BKN039 OVC068 12/05 A2959 RMK SC5AC3 SLP021=
CYYG;2005-04-20 13:13;SPECI CYYG 201313Z 29011G16KT 15SM -SHRA FEW039 BKN064 OVC080 RMK SC2SC3AC2=
CYYG;2005-04-20 13:40;SPECI CYYG 201340Z 30010KT 15SM FEW039 BKN064 RMK SC2SC6=
CYYG;2005-04-20 14:00;METAR CYYG 201400Z 31009KT 15SM OVC058 11/05 A2960 RMK SC8 SLP023=
CYYG;2005-04-20 15:00;METAR CYYG 201500Z 30012KT 15SM FEW032 OVC053 11/05 A2961 RMK SC2SC6 SLP029=
CYYG;2005-04-20 16:00;METAR CYYG 201600Z 33012G17KT 15SM FEW021 BKN038 BKN100 11/05 A2963 RMK CU2SC4AC2 SLP034=
CYYG;2005-04-20 17:00;METAR CYYG 201700Z 36009G16KT 15SM FEW027 FEW038 BKN300 13/06 A2962 RMK CU2SC1CI2 SLP031=
CYYG;2005-04-20 18:00;METAR CYYG 201800Z 34012G19KT 15SM FEW027 BKN300 12/05 A2964 RMK SC2CI2 SLP039=
CYYG;2005-04-20 19:00;METAR CYYG 201900Z 33010G15KT 15SM FEW033 BKN300 12/05 A2964 RMK SC2CI1 SLP038=
CYYG;2005-04-20 20:00;METAR CYYG 202000Z 33009KT 15SM FEW033 BKN300 12/04 A2965 RMK SC2CI1 SLP042=
CYYG;2005-04-20 21:00;METAR CYYG 202100Z 36011KT 15SM FEW035 BKN300 09/00 A2967 RMK SC1CI2 SLP047=
CYYG;2005-04-20 22:00;METAR CYYG 202200Z 36008G16KT 15SM FEW035 BKN300 07/M02 A2969 RMK SC1CI2 SLP055=
CYYG;2005-04-20 23:00;METAR CYYG 202300Z 04006KT 15SM FEW035 FEW170 BKN300 05/M01 A2971 RMK SC1AC1CI2 SLP062=
CYYG;2005-04-21 00:00;METAR CYYG 210000Z 04004KT 15SM FEW160 BKN300 03/M01 A2972 RMK AC2CI2 SLP066=
CYYG;2005-04-21 01:00;METAR CYYG 210100Z 09005KT 15SM FEW160 OVC300 03/M01 A2974 RMK AC2CI2 SLP072=
CYYG;2005-04-21 02:00;METAR CYYG 210200Z 09005KT 15SM SCT140 OVC280 02/M02 A2976 RMK AC3CI2 SLP078=
CYYG;2005-04-21 03:00;METAR CYYG 210300Z 08002KT 15SM BKN120 OVC160 02/M03 A2978 RMK AC5AC3 SLP086=
CYYG;2005-04-21 04:00;METAR CYYG 210400Z 09006KT 15SM FEW045 OVC100 02/M04 A2976 RMK SC2AC6 SLP080=
CYYG;2005-04-21 05:00;METAR CYYG 210500Z 13007KT 15SM OVC045 02/M04 A2975 RMK SC8 SLP075=
CYYG;2005-04-21 06:00;METAR CYYG 210600Z 13005KT 15SM FEW016 OVC032 01/M02 A2974 RMK SC2SC6 SLP071=
CYYG;2005-04-21 06:12;SPECI CYYG 210612Z 14005KT 12SM -SHSN FEW013 OVC027 RMK SC2SC6=
CYYG;2005-04-21 07:00;METAR CYYG 210700Z 09006KT 6SM -SHSN OVC015 M01/M02 A2974 RMK SC8 SLP074=
CYYG;2005-04-21 07:49;SPECI CYYG 210749Z 05005KT 1 1/4SM -SN VV012 RMK SN8=
CYYG;2005-04-21 08:00;METAR CYYG 210800Z 05005KT 1SM -SN VV010 M01/M02 A2973 RMK SN8 /S01/ RVR RWY03 5500 FT SLP068=
CYYG;2005-04-21 09:00;METAR CYYG 210900Z 05007KT 1SM -SN VV010 M01/M02 A2971 RMK SN8 /S03/ RVR RWY03 6000 FT SLP063=
CYYG;2005-04-21 09:54;SPECI CYYG 210954Z 09005KT 3SM -SN FEW012 BKN033 RMK SF2SC5 VIS SE 1=
CYYG;2005-04-21 10:00;METAR CYYG 211000Z 09005KT 6SM -SN FEW012 BKN033 M01/M03 A2971 RMK SF2SC5 VIS SE-S 1 /S05/ SLP062=
CYYG;2005-04-21 10:16;SPECI CYYG 211016Z 09004KT 15SM FEW003 BKN042 BKN300 RMK SF1SC5CI2=
CYYG;2005-04-21 11:00;METAR CYYG 211100Z 00000KT 15SM FEW003 BKN072 OVC300 M01/M02 A2972 RMK SF1AC6CI1 SLP066=
CYYG;2005-04-21 12:00;METAR CYYG 211200Z 00000KT 15SM FEW005 FEW047 OVC078 M01/M02 A2971 RMK SF1SC1AC6 SLP062=
CYYG;2005-04-21 13:00;METAR CYYG 211300Z 36003KT 15SM FEW005 SCT043 OVC080 00/M02 A2971 RMK SF1SC2AC5 SLP061=
CYYG;2005-04-21 14:00;METAR CYYG 211400Z 36009KT 15SM FEW010 BKN049 BKN080 BKN300 01/M04 A2972 RMK CF1SC5AC1CI1 SLP066=
CYYG;2005-04-21 15:00;METAR CYYG 211500Z 36009KT 15SM FEW010 BKN037 OVC080 01/M04 A2973 RMK CF1SC5AC2 SLP070=
CYYG;2005-04-21 16:00;METAR CYYG 211600Z 35010KT 15SM FEW010 BKN044 BKN080 01/M06 A2974 RMK CF1SC5AC2 SLP071=
CYYG;2005-04-21 17:00;METAR CYYG 211700Z 36009G17KT 15SM FEW029 SCT042 02/M04 A2974 RMK CU2SC2 SLP072=
CYYG;2005-04-21 18:00;METAR CYYG 211800Z 35010G15KT 15SM FEW032 02/M04 A2973 RMK CU2 SLP070=
CYYG;2005-04-21 19:00;METAR CYYG 211900Z 36005KT 15SM FEW032 03/M03 A2972 RMK CU1 SLP067=
CYYG;2005-04-21 20:00;METAR CYYG 212000Z 33012G17KT 15SM FEW032 03/M06 A2973 RMK CU1 SLP068=
CYYG;2005-04-21 21:00;METAR CYYG 212100Z 35009KT 15SM FEW032 03/M06 A2974 RMK CF1 SLP071=
CYYG;2005-04-21 22:00;METAR CYYG 212200Z 33008KT 15SM FEW030 03/M07 A2974 RMK SC1 SLP073=
CYYG;2005-04-21 23:00;METAR CYYG 212300Z 30006KT 15SM FEW050 02/M07 A2975 RMK SC1 SLP077=
CYYG;2005-04-22 00:00;METAR CYYG 220000Z 24004KT 15SM FEW070 01/M04 A2978 RMK AC1 SLP088=
CYYG;2005-04-22 01:00;METAR CYYG 220100Z 25005KT 15SM FEW070 00/M04 A2981 RMK AC1 SLP096=
CYYG;2005-04-22 02:00;METAR CYYG 220200Z 28005KT 15SM FEW070 M00/M06 A2981 RMK AC1 SLP096=
CYYG;2005-04-22 03:00;METAR CYYG 220300Z 28006KT 15SM SKC M00/M06 A2981 RMK SLP097=
CYYG;2005-04-22 04:00;METAR CYYG 220400Z 27007KT 15SM SKC M00/M06 A2981 RMK SLP097=
CYYG;2005-04-22 07:00;METAR CYYG 220700Z 25008KT 15SM SKC M00/M06 A2981 RMK SLP096=
CYYG;2005-04-22 08:00;METAR CYYG 220800Z 27008KT 15SM SKC M01/M07 A2982 RMK SLP099=
CYYG;2005-04-22 09:00;METAR CYYG 220900Z 28008KT 15SM SKC M01/M06 A2982 RMK SLP101=
CYYG;2005-04-22 10:00;METAR CYYG 221000Z 26007KT 15SM SKC M00/M07 A2984 RMK SLP107=
CYYG;2005-04-22 11:00;METAR CYYG 221100Z 26007KT 15SM SKC M00/M07 A2986 RMK SLP114=
CYYG;2005-04-22 12:00;METAR CYYG 221200Z 27015KT 15SM SKC 02/M08 A2987 RMK SLP117=
CYYG;2005-04-22 13:00;METAR CYYG 221300Z 27015KT 15SM SKC 03/M09 A2987 RMK SLP116=
CYYG;2005-04-22 14:00;METAR CYYG 221400Z 27013G21KT 15SM SKC 04/M09 A2987 RMK SLP117=
CYYG;2005-04-22 15:00;METAR CYYG 221500Z 25015KT 15SM SKC 05/M11 A2986 RMK SLP114=
CYYG;2005-04-22 16:00;METAR CYYG 221600Z 26013G20KT 15SM FEW300 07/M13 A2985 RMK CI0 SLP111=
CYYG;2005-04-22 17:00;METAR CYYG 221700Z 23014G21KT 15SM FEW300 08/M09 A2985 RMK CI1 SLP110=
CYYG;2005-04-22 18:00;METAR CYYG 221800Z 25014G21KT 15SM FEW300 09/M08 A2985 RMK CI1 SLP109=
CYYG;2005-04-22 20:00;METAR CYYG 222000Z 25018KT 15SM SKC 09/M07 A2985 RMK SLP108=
CYYG;2005-04-22 21:00;METAR CYYG 222100Z 25018G24KT 15SM SKC 09/M07 A2985 RMK SLP109=
CYYG;2005-04-22 22:00;METAR CYYG 222200Z 25018KT 15SM FEW300 08/M07 A2985 RMK CI1 SLP110=
CYYG;2005-04-22 23:00;METAR CYYG 222300Z 25010G17KT 15SM FEW330 06/M07 A2987 RMK CI1 CONTRAILS SLP116=
CYYG;2005-04-23 00:00;METAR CYYG 230000Z 25012KT 15SM FEW330 06/M07 A2989 RMK CI1 CONTRAILS SLP123=
CYYG;2005-04-23 01:00;METAR CYYG 230100Z 24010KT 15SM SCT330 05/M06 A2992 RMK CI1 CONTRAILS SLP132=
CYYG;2005-04-23 02:00;METAR CYYG 230200Z 25009KT 15SM BKN330 04/M05 A2993 RMK CS2 HALO CONTRAILS SLP137=
CYYG;2005-04-23 03:00;METAR CYYG 230300Z 25011KT 15SM BKN330 04/M04 A2994 RMK CI2 CONTRAILS SLP141=
CYYG;2005-04-23 04:00;METAR CYYG 230400Z 25009KT 15SM BKN330 03/M04 A2997 RMK CI1 SLP149=
CYYG;2005-04-23 05:00;METAR CYYG 230500Z 25009KT 15SM SCT330 03/M02 A2996 RMK CI0 SLP148=
CYYG;2005-04-23 06:00;METAR CYYG 230600Z 25010KT 15SM FEW330 03/M01 A2997 RMK CI0 SLP150=
CYYG;2005-04-23 07:00;METAR CYYG 230700Z 24008KT 15SM BKN330 02/M01 A2999 RMK CS1 HALO SLP156=
CYYG;2005-04-23 08:00;METAR CYYG 230800Z 25008KT 15SM OVC330 03/M02 A2999 RMK CS2 HALO SLP156=
CYYG;2005-04-23 09:00;METAR CYYG 230900Z 24007KT 15SM FEW180 OVC300 02/M02 A3001 RMK AC2CS3 SLP163=
CYYG;2005-04-23 10:00;METAR CYYG 231000Z 23008KT 15SM FEW180 BKN280 03/M04 A3002 RMK AC2CS3 SLP167=
CYYG;2005-04-23 11:00;METAR CYYG 231100Z 21006KT 15SM FEW180 BKN280 04/M03 A3004 RMK AC2CS3 SLP173=
CYYG;2005-04-23 12:00;METAR CYYG 231200Z 21006KT 15SM FEW180 SCT280 06/M03 A3004 RMK AC1CI2 SLP172=
CYYG;2005-04-23 13:00;METAR CYYG 231300Z 21005KT 15SM FEW180 BKN280 08/M02 A3003 RMK AC1CI6 SLP171=
CYYG;2005-04-23 14:00;METAR CYYG 231400Z 21006KT 15SM OVC090 07/M02 A3005 RMK AS8 SLP177=
CYYG;2005-04-23 15:00;METAR CYYG 231500Z 21009KT 15SM BKN045 OVC090 07/M03 A3006 RMK NS6AS2 SLP183=
CYYG;2005-04-23 17:00;METAR CYYG 231700Z 00000KT 15SM OVC061 09/M03 A3008 RMK NS8 SLP188=
CYYG;2005-04-23 18:00;METAR CYYG 231800Z 14004KT 15SM FEW060 OVC080 10/M03 A3007 RMK NS2AS6 SLP185=
CYYG;2005-04-23 19:00;METAR CYYG 231900Z 19007KT 15SM OVC060 09/M05 A3007 RMK SC8 SLP183=
CYYG;2005-04-23 20:00;METAR CYYG 232000Z 19008KT 15SM OVC054 09/M04 A3007 RMK SC8 SLP184=
CYYG;2005-04-23 21:00;METAR CYYG 232100Z 18004KT 15SM OVC048 08/M02 A3006 RMK SC8 SLP183=
CYYG;2005-04-23 22:00;METAR CYYG 232200Z 18007KT 15SM OVC045 07/M00 A3007 RMK SC8 SLP186=
CYYG;2005-04-23 23:00;METAR CYYG 232300Z 14003KT 15SM OVC040 07/01 A3007 RMK SC8 SLP186=
CYYG;2005-04-24 00:00;METAR CYYG 240000Z 14006KT 15SM OVC033 07/01 A3007 RMK SC8 SLP184=
CYYG;2005-04-24 01:00;METAR CYYG 240100Z 13006KT 15SM OVC031 07/01 A3007 RMK SC8 SLP183=
CYYG;2005-04-24 01:34;SPECI CYYG 240134Z 13006KT 15SM -SHRA OVC024 RMK SC8=
CYYG;2005-04-24 02:00;METAR CYYG 240200Z 12007KT 15SM -SHRA BKN021 OVC027 07/01 A3006 RMK SC6SC2 SLP182=
CYYG;2005-04-24 03:00;METAR CYYG 240300Z 12006KT 15SM -SHRA BKN016 OVC021 07/02 A3006 RMK SC6SC2 SLP180=
CYYG;2005-04-24 04:00;METAR CYYG 240400Z 13009KT 15SM -SHRA BKN016 OVC021 07/03 A3004 RMK SC6SC2 SLP175=
CYYG;2005-04-24 05:00;METAR CYYG 240500Z 14011KT 15SM -SHRA OVC020 07/04 A3004 RMK SC8 SLP172=
CYYG;2005-04-24 06:00;METAR CYYG 240600Z 12009KT 15SM -SHRA OVC018 07/04 A3002 RMK SC8 SLP168=
CYYG;2005-04-24 07:00;METAR CYYG 240700Z 13009KT 12SM -SHRA OVC017 06/05 A3002 RMK SC8 SLP168=
CYYG;2005-04-24 08:00;METAR CYYG 240800Z 13009KT 12SM -SHRA FEW003 OVC015 06/05 A3002 RMK SF2SC6 SLP166=
CYYG;2005-04-24 08:20;SPECI CYYG 240820Z 12009KT 8SM -RA BKN003 OVC014 RMK SF5SC3=
CYYG;2005-04-24 09:00;METAR CYYG 240900Z 12007KT 15SM -RA SCT003 OVC022 06/05 A3001 RERA RMK SF3SC5 SLP164=
CYYG;2005-04-24 09:55;SPECI CYYG 240955Z 11009KT 15SM FEW003 OVC027 RMK SF2SC6=
CYYG;2005-04-24 10:00;METAR CYYG 241000Z 12008KT 15SM FEW003 OVC027 06/05 A3001 RMK SF2SC6 SLP162=
CYYG;2005-04-24 10:21;SPECI CYYG 241021Z 13009KT 15SM -SHRA FEW003 OVC030 RMK SF2SC6 VIS LWR N=
CYYG;2005-04-24 11:00;METAR CYYG 241100Z 12009KT 15SM -SHRA FEW003 OVC030 07/06 A3001 RMK SF2SC6 SLP164=
CYYG;2005-04-24 11:20;SPECI CYYG 241120Z 12008KT 15SM -SHRA BKN008 OVC030 RMK SF5SC3=
CYYG;2005-04-24 12:00;METAR CYYG 241200Z 13010KT 10SM -SHRA OVC005 08/07 A3000 RMK SF8 SLP160=
CYYG;2005-04-24 12:17;SPECI CYYG 241217Z 13011KT 6SM -SHRA BR OVC002 RMK SF8 VIS HIER W=
CYYG;2005-04-24 12:21;SPECI CYYG 241221Z 13011KT 6SM -DZ BR OVC002 RMK SF8 VIS HIER W=
CYYG;2005-04-24 13:00;METAR CYYG 241300Z 13012KT 5SM -DZ BR OVC002 08/08 A2999 RMK SF8 SLP157=
CYYG;2005-04-24 13:12;SPECI CYYG 241312Z 13011KT 1 1/2SM -DZ BR OVC002 RMK SF8=
CYYG;2005-04-24 13:31;SPECI CYYG 241331Z 14010KT 3SM BR OVC003 RMK SF8=
CYYG;2005-04-24 14:00;METAR CYYG 241400Z 14010G15KT 6SM BR OVC003 09/09 A3000 RMK SF8 SLP161=
CYYG;2005-04-24 14:25;SPECI CYYG 241425Z 14009KT 10SM OVC005 RMK SF8=
CYYG;2005-04-24 15:00;METAR CYYG 241500Z 14011KT 15SM BKN009 13/12 A2999 RMK SC6 SLP157=
CYYG;2005-04-24 15:12;SPECI CYYG 241512Z 14011G16KT 15SM SCT009 BKN220 RMK SC3CI2=
CYYG;2005-04-24 16:00;METAR CYYG 241600Z 15018KT 15SM FEW010 BKN220 16/12 A2997 RMK SC2CI3 SLP149=
CYYG;2005-04-24 17:00;METAR CYYG 241700Z 15020G25KT 15SM FEW010 BKN250 16/11 A2996 RMK SC1CI4 SLP147=
CYYG;2005-04-24 18:00;METAR CYYG 241800Z 16018G24KT 15SM FEW020 SCT250 18/11 A2995 RMK SC1CI3 SLP144=
CYYG;2005-04-24 19:00;METAR CYYG 241900Z 14013KT 15SM BKN034 BKN250 17/11 A2995 RMK SC5CI2 SLP142=
CYYG;2005-04-24 20:00;METAR CYYG 242000Z 14012KT 15SM BKN026 BKN250 15/11 A2994 RMK SC6CI1 SLP140=
CYYG;2005-04-24 20:02;SPECI CYYG 242002Z 14010KT 15SM -SHRA BKN026 OVC250 RMK SC6CI2=
CYYG;2005-04-24 20:46;SPECI CYYG 242046Z 13011KT 15SM BKN022 OVC250 RMK SC6CI2=
CYYG;2005-04-24 21:00;METAR CYYG 242100Z 13010KT 15SM BKN021 OVC250 14/11 A2994 RMK SC6CI2 SLP139=
CYYG;2005-04-24 22:00;METAR CYYG 242200Z 12011KT 15SM FEW008 BKN017 OVC042 13/11 A2994 RMK SF1SC6SC2 SLP140=
CYYG;2005-04-24 22:52;SPECI CYYG 242252Z 12009KT 15SM BKN007 OVC020 RMK SF6SC2=
CYYG;2005-04-24 23:00;METAR CYYG 242300Z 13011KT 15SM OVC007 11/10 A2994 RMK SF8 SLP139=
CYYG;2005-04-25 00:00;METAR CYYG 250000Z 14010KT 15SM OVC005 10/09 A2995 RMK SF8 WS RWY03 SLP144=
CYYG;2005-04-25 00:18;SPECI CYYG 250018Z 14010KT 10SM OVC004 RMK SF8 WS RWY03=
CYYG;2005-04-25 00:41;SPECI CYYG 250041Z 13008KT 2 1/2SM BR OVC003 RMK SF8=
CYYG;2005-04-25 01:00;METAR CYYG 250100Z 13009KT 2 1/2SM BR OVC003 09/09 A2995 RMK SF8 SLP143=
CYYG;2005-04-25 01:06;SPECI CYYG 250106Z 12008KT 1 1/2SM BR OVC002 RMK SF8=
CYYG;2005-04-25 01:25;SPECI CYYG 250125Z 13010KT 1SM BR VV002 RMK FG8=
CYYG;2005-04-25 01:35;SPECI CYYG 250135Z 12010KT 1/2SM FG VV002 RMK FG8=
CYYG;2005-04-25 02:00;METAR CYYG 250200Z 12008KT 1/2SM FG VV002 09/08 A2994 RMK FG8 SLP139=
CYYG;2005-04-25 02:08;SPECI CYYG 250208Z 12011KT 3/8SM FG VV002 RMK FG8=
CYYG;2005-04-25 02:27;SPECI CYYG 250227Z 11011KT 1/4SM FG VV001 RMK FG8=
CYYG;2005-04-25 03:00;METAR CYYG 250300Z 11011KT 1/4SM FG VV001 08/08 A2992 RMK FG8 SLP133=
CYYG;2005-04-25 03:53;SPECI CYYG 250353Z 11010KT 1SM BR OVC002 RMK FG4SF4=
CYYG;2005-04-25 04:00;METAR CYYG 250400Z 11011KT 1SM BR OVC002 08/08 A2990 RMK FG4SF4 SLP127=
CYYG;2005-04-25 04:46;SPECI CYYG 250446Z 11011KT 2SM BR OVC002 RMK SF8=
CYYG;2005-04-25 06:00;METAR CYYG 250600Z 11012KT 2SM BR OVC002 08/08 A2985 RMK SF8 SLP110=
CYYG;2005-04-25 06:21;SPECI CYYG 250621Z 11011KT 1/2SM FG VV002 RMK FG8=
CYYG;2005-04-25 07:00;METAR CYYG 250700Z 10012G17KT 1/2SM FG VV002 07/06 A2982 RMK FG8 SLP100=
CYYG;2005-04-25 08:00;METAR CYYG 250800Z 10012KT 1/2SM FG VV002 07/07 A2980 RMK FG8 SLP092=
CYYG;2005-04-25 08:24;SPECI CYYG 250824Z 11012KT 2SM BR OVC002 RMK SF8=
CYYG;2005-04-25 08:37;SPECI CYYG 250837Z 11016KT 2 1/2SM -SHRA BR OVC003 RMK SF8=
CYYG;2005-04-25 09:00;METAR CYYG 250900Z 11013G19KT 5SM BR OVC003 08/07 A2977 RMK SF8 SLP083=
CYYG;2005-04-25 09:07;SPECI CYYG 250907Z 11012G17KT 15SM OVC004 RMK SF8=
CYYG;2005-04-25 09:19;SPECI CYYG 250919Z 11011G16KT 10SM -SHRA OVC005 RMK SF8=
CYYG;2005-04-25 10:00;METAR CYYG 251000Z 11014G19KT 15SM -SHRA OVC005 08/07 A2975 RMK SF8 SLP075=
CYYG;2005-04-25 10:39;SPECI CYYG 251039Z 11014G21KT 15SM -SHRA OVC004 RMK SF8=
CYYG;2005-04-25 11:00;METAR CYYG 251100Z 13010G16KT 10SM -SHRA OVC004 08/08 A2976 RMK SF8 SLP078=
CYYG;2005-04-25 12:00;METAR CYYG 251200Z 11012G19KT 10SM -SHRA BKN004 OVC006 08/08 A2973 RERA RMK SF6SF2 SLP067=
CYYG;2005-04-25 13:00;METAR CYYG 251300Z 11015G22KT 10SM -SHRA BKN004 OVC007 09/09 A2970 RMK SF6SF2 SLP057=
CYYG;2005-04-25 14:54;SPECI CYYG 251454Z 12021G28KT 12SM -SHRA SCT004 BKN007 OVC012 RMK SF3SF3SC2=
CYYG;2005-04-25 15:00;METAR CYYG 251500Z 12020G28KT 12SM -SHRA SCT004 BKN007 OVC012 11/10 A2967 RMK SF3SF4SC1 SLP049=
CYYG;2005-04-25 16:00;METAR CYYG 251600Z 12017G22KT 10SM -SHRA FEW004 OVC006 10/10 A2967 RMK SF2SF6 SLP048=
CYYG;2005-04-25 17:00;METAR CYYG 251700Z 13017G24KT 3SM SHRA BR BKN004 BKN007 OVC017 10/09 A2966 RMK SF5SF2SC2 SLP046=
CYYG;2005-04-25 18:00;METAR CYYG 251800Z 12016G21KT 3SM SHRA BR FEW004 OVC007 09/08 A2966 RMK SF2SF6 /R15/ SLP043=
CYYG;2005-04-25 19:00;METAR CYYG NIL=
CYYG;2005-04-25 20:00;METAR CYYG NIL=
CYYG;2005-04-25 20:26;SPECI CYYG 252026Z 13014KT 15SM BKN004 OVC007 RMK SF5SF3=
CYYG;2005-04-25 21:00;METAR CYYG NIL=
CYYG;2005-04-25 22:00;METAR CYYG 252200Z 16010KT 15SM OVC005 09/08 A2965 RMK SF8 SLP040=
CYYG;2005-04-25 23:00;METAR CYYG 252300Z 25011KT 15SM OVC005 09/08 A2967 RMK SF8 SLP047=
CYYG;2005-04-25 23:18;SPECI CYYG 252318Z 25006KT 15SM OVC012 RMK SC8=
CYYG;2005-04-26 00:00;METAR CYYG 260000Z 25004KT 15SM OVC017 08/04 A2970 RMK SC8 SLP057=
CYYG;2005-04-26 01:00;METAR CYYG 260100Z 22006KT 15SM OVC028 07/04 A2973 RMK SC8 SLP069=
CYYG;2005-04-26 02:00;METAR CYYG 260200Z 25003KT 15SM OVC037 07/04 A2974 RMK SC8 SLP073=
CYYG;2005-04-26 03:00;METAR CYYG 260300Z 23004KT 15SM OVC048 07/04 A2976 RMK SC8 SLP078=
CYYG;2005-04-26 04:00;METAR CYYG 260400Z 20002KT 15SM OVC054 06/04 A2978 RMK SC8 SLP086=
CYYG;2005-04-26 05:00;METAR CYYG 260500Z 20005KT 15SM OVC040 06/04 A2980 RMK SC8 SLP092=
CYYG;2005-04-26 06:00;METAR CYYG 260600Z 23004KT 15SM OVC035 05/03 A2980 RMK SC8 SLP094=
CYYG;2005-04-26 07:00;METAR CYYG 260700Z 23005KT 15SM BKN034 05/02 A2983 RMK SC6 SLP103=
CYYG;2005-04-26 08:00;METAR CYYG 260800Z 25008KT 15SM SCT034 BKN230 05/02 A2983 RMK SC3CI2 SLP104=
CYYG;2005-04-26 09:00;METAR CYYG 260900Z 25006KT 15SM FEW034 OVC250 04/02 A2984 RMK SC2CI6 SLP105=
CYYG;2005-04-26 10:00;METAR CYYG 261000Z 23004KT 15SM BKN300 04/02 A2987 RMK CI3 SLP116=
CYYG;2005-04-26 11:00;METAR CYYG 261100Z 23006KT 15SM BKN230 05/02 A2990 RMK CS7 HALO SLP127=
CYYG;2005-04-26 12:00;METAR CYYG 261200Z 24010KT 15SM FEW015 BKN250 06/03 A2993 RMK SC2CS6=
CYYG;2005-04-26 12:36;SPECI CYYG 261236Z 25011KT 15SM BKN014 BKN250 RMK SC5CS1=
CYYG;2005-04-26 13:00;METAR CYYG 261300Z 24010KT 15SM BKN014 BKN250 06/03 A2996 RMK SC5CS1 SLP145=
CYYG;2005-04-26 13:45;SPECI CYYG 261345Z 24008KT 15SM SCT014 BKN250 RMK SC3CS2=
CYYG;2005-04-26 14:00;METAR CYYG 261400Z 26007KT 15SM SCT014 BKN250 07/03 A2997 RMK SC4CS2 SLP150=
CYYG;2005-04-26 15:00;METAR CYYG NIL=
CYYG;2005-04-26 16:00;METAR CYYG 261600Z 24003KT 15SM FEW020 SCT250 10/05 A2999 RMK CU2CS0 SLP158=
CYYG;2005-04-26 17:00;METAR CYYG 261700Z 28006KT 15SM SCT028 SCT250 11/04 A3001 RMK CU3CS1 SLP162=
CYYG;2005-04-26 18:00;METAR CYYG 261800Z 30004KT 15SM BKN038 BKN250 11/03 A3001 RMK CU6CI1 SLP165=
CYYG;2005-04-26 19:00;METAR CYYG 261900Z 33006KT 15SM SCT045 SCT060 SCT250 13/02 A3003 RMK CU3SC1CI1 SLP169=
CYYG;2005-04-26 20:00;METAR CYYG 262000Z 02009KT 15SM BKN050 BKN060 BKN250 11/04 A3005 RMK CU5SC1CI1 SLP176=
CYYG;2005-04-26 21:00;METAR CYYG 262100Z 04007KT 15SM SCT060 SCT250 09/04 A3007 RMK SC3CI1 SLP185=
CYYG;2005-04-26 22:00;METAR CYYG 262200Z 03006KT 15SM FEW060 FEW250 09/04 A3010 RMK SC2CI1 SLP193=
CYYG;2005-04-26 23:00;METAR CYYG 262300Z 04007KT 15SM FEW250 06/03 A3011 RMK CI1 SLP198=
CYYG;2005-04-27 00:00;METAR CYYG 270000Z 02004KT 15SM FEW250 05/02 A3014 RMK CI1 SLP208=
CYYG;2005-04-27 01:00;METAR CYYG 270100Z 04003KT 15SM FEW250 04/02 A3016 RMK CI1 SLP216=
CYYG;2005-04-27 02:00;METAR CYYG 270200Z 00000KT 15SM FEW250 03/02 A3018 RMK CI1 SLP221=
CYYG;2005-04-27 03:00;METAR CYYG 270300Z 00000KT 15SM SKC 03/01 A3020 RMK SLP228=
CYYG;2005-04-27 04:00;METAR CYYG 270400Z 13003KT 15SM SKC 03/01 A3022 RMK SLP235=
CYYG;2005-04-27 05:00;METAR CYYG 270500Z 00000KT 15SM FEW066 04/02 A3022 RMK AC2 SLP236=
CYYG;2005-04-27 06:00;METAR CYYG 270600Z 23002KT 15SM BKN067 04/02 A3023 RMK AC5 SLP237=
CYYG;2005-04-27 08:00;METAR CYYG 270800Z 00000KT 15SM BKN067 03/01 A3025 RMK AC5 SLP244=
CYYG;2005-04-27 09:00;METAR CYYG 270900Z 01004KT 12SM FEW067 01/00 A3026 RMK AC2 SLP248=
CYYG;2005-04-27 09:30;SPECI CYYG 270930Z 03009KT 1SM BR FEW067 RMK FG2AC1 RVR RWY03 5000 FT=
CYYG;2005-04-27 09:34;SPECI CYYG 270934Z 03008KT 1/2SM FG SKC RMK FG6 RVR RWY03 2000 FT=
CYYG;2005-04-27 09:39;SPECI CYYG 270939Z 03007KT 1/2SM FG SKC RMK FG6 RVR RWY03 1400 FT=
CYYG;2005-04-27 10:00;METAR CYYG 271000Z 03007KT 1/8SM FG SKC 00/M01 A3028 RMK FG6 RVR RWY03 1100 FT SLP254=
CYYG;2005-04-27 11:00;METAR CYYG 271100Z 03008KT 1/8SM FG VV001 01/M00 A3029 RMK FG8 RVR RWY03 1100 FT SLP260=
CYYG;2005-04-27 11:47;SPECI CYYG 271147Z 03007KT 1/4SM FG SKC RMK FG6 RVR RWY03 1800 FT=
CYYG;2005-04-27 12:00;METAR CYYG 271200Z 04008KT 1/4SM FG SKC 01/00 A3030 RMK FG6 RVR RWY03 3000 FT SLP263=
CYYG;2005-04-27 12:11;SPECI CYYG 271211Z 03008KT 1/2SM FG SKC RMK FG6=
CYYG;2005-04-27 12:25;SPECI CYYG 271225Z 05005KT 3/4SM BR SKC RMK FG6 RVR RWY03 4500FT=
CYYG;2005-04-27 12:30;SPECI CYYG 271230Z 03005KT 1SM BR BKN002 RMK FG3SF4=
CYYG;2005-04-27 12:50;SPECI CYYG 271250Z 06005KT 2SM BR OVC002 RMK ST8=
CYYG;2005-04-27 13:00;METAR CYYG 271300Z 06004KT 3SM BR OVC003 03/02 A3031 RMK ST8 SUN OCNL VISBL SLP264=
CYYG;2005-04-27 13:34;SPECI CYYG 271334Z 08006KT 8SM BKN005 RMK SF7=
CYYG;2005-04-27 13:46;SPECI CYYG 271346Z 10006KT 12SM SCT005 RMK CF4=
CYYG;2005-04-27 14:00;METAR CYYG 271400Z 08005KT 15SM FEW006 06/03 A3030 RMK CF2 SLP263=
CYYG;2005-04-27 15:00;METAR CYYG 271500Z 08004KT 15SM FEW006 08/04 A3031 RMK SF1 SLP266=
CYYG;2005-04-27 16:00;METAR CYYG 271600Z 01005KT 15SM FEW006 FEW022 FEW300 10/05 A3029 RMK SF1CF1CI1 SLP260=
CYYG;2005-04-27 18:00;METAR CYYG 271800Z 03011KT 15SM FEW006 FEW030 FEW300 08/03 A3030 RMK SF1CU1CI0 FG BANK NW-NE SLP262=
CYYG;2005-04-27 19:00;METAR CYYG 271900Z 03008KT 15SM FEW006 FEW040 SCT300 07/03 A3030 RMK SF1CU1CI1 FG BANK NW-NE SLP262=
CYYG;2005-04-27 20:00;METAR CYYG 272000Z 04012KT 15SM FEW006 FEW040 SCT300 05/02 A3028 RMK SF1CU1CI1 FG BANK NW-NE SLP255=
CYYG;2005-04-27 21:00;METAR CYYG 272100Z 02012KT 15SM FEW006 FEW300 04/01 A3026 RMK SF1CI1 FG BANK NW-NE SLP250=
CYYG;2005-04-27 22:00;METAR CYYG 272200Z 02011KT 15SM FEW004 SCT300 03/01 A3024 RMK SF1CI1 FG BANK NW-NE SLP243=
CYYG;2005-04-27 23:00;METAR CYYG 272300Z 02006KT 10SM PRFG BKN300 01/M00 A3027 RMK FG2CI2 FG BANK W-N SLP251=
CYYG;2005-04-28 00:00;METAR CYYG 280000Z 07005KT 15SM BKN300 01/00 A3027 RMK CI2 SLP252=
CYYG;2005-04-28 01:00;METAR CYYG 280100Z 12008KT 15SM BKN300 04/01 A3026 RMK CI2 SLP248=
CYYG;2005-04-28 02:00;METAR CYYG 280200Z 14007KT 15SM BKN300 04/01 A3027 RMK CI3 SLP252=
CYYG;2005-04-28 03:00;METAR CYYG 280300Z 14010KT 15SM BKN300 04/01 A3027 RMK CI3 SLP253=
CYYG;2005-04-28 04:00;METAR CYYG 280400Z 12010KT 15SM SCT015 BKN300 03/00 A3027 RMK SC3CI2 SLP251=
CYYG;2005-04-28 05:00;METAR CYYG 280500Z 11009KT 15SM SCT015 BKN300 02/00 A3025 RMK SC3CI2 SLP246=
CYYG;2005-04-28 06:00;METAR CYYG 280600Z 13010G15KT 15SM SCT010 BKN300 02/00 A3024 RMK SF4CI2 SLP241=
CYYG;2005-04-28 06:12;SPECI CYYG 280612Z 13008KT 15SM OVC010 RMK SF8=
CYYG;2005-04-28 08:00;METAR CYYG 280800Z 13012G20KT 15SM OVC008 02/M00 A3021 RMK SF8 SLP232=
CYYG;2005-04-28 09:00;METAR CYYG 280900Z 13012KT 15SM OVC011 02/M01 A3021 RMK SC8 SLP232=
CYYG;2005-04-28 10:00;METAR CYYG 281000Z 13007G15KT 15SM OVC011 02/M00 A3020 RMK SC8 SLP230=
CYYG;2005-04-28 11:00;METAR CYYG 281100Z 12010G16KT 15SM OVC011 02/M00 A3022 RMK SC8 SLP234=
CYYG;2005-04-28 12:00;METAR CYYG 281200Z 13013G21KT 15SM OVC010 03/M00 A3020 RMK SC8 SLP228=
CYYG;2005-04-28 13:00;METAR CYYG 281300Z 13015G20KT 15SM OVC012 03/M01 A3019 RMK SC8 SLP226=
CYYG;2005-04-28 14:23;SPECI CYYG 281423Z 11016KT 15SM OVC016 RMK SC8=
CYYG;2005-04-28 15:00;METAR CYYG 281500Z 12015G21KT 15SM OVC016 04/00 A3017 RMK SC8 SLP219=
CYYG;2005-04-28 17:00;METAR CYYG 281700Z 12019G24KT 15SM SCT021 BKN030 OVC280 06/00 A3012 RMK SC3SC3CI1 SLP201=
CYYG;2005-04-28 18:00;METAR CYYG 281800Z 12019G26KT 15SM SCT021 OVC030 06/00 A3011 RMK SC3SC5 SLP199=
CYYG;2005-04-28 19:00;METAR CYYG 281900Z 11023G28KT 15SM FEW020 FEW030 BKN150 07/01 A3007 RMK SC1SC2AC5 SLP185=
CYYG;2005-04-28 20:00;METAR CYYG 282000Z 13020G25KT 15SM FEW020 BKN026 BKN250 07/01 A3006 RMK SC1SC6CI1 SLP182=
CYYG;2005-04-28 21:00;METAR CYYG 282100Z 12019G26KT 15SM FEW020 BKN030 05/00 A3006 RMK SC1SC6 SLP181=
CYYG;2005-04-28 22:00;METAR CYYG 282200Z 13022G28KT 15SM FEW030 BKN150 04/M01 A3004 RMK SC2AC5 SLP175=
CYYG;2005-04-28 23:00;METAR CYYG 282300Z 12020G29KT 15SM BKN035 BKN150 04/M01 A3003 RMK SC5AC2 SLP170=
CYYG;2005-04-29 00:00;METAR CYYG 290000Z 12018G28KT 15SM OVC031 03/M00 A3002 RMK SC8 SLP168=
CYYG;2005-04-29 01:00;METAR CYYG 290100Z 12022G29KT 15SM OVC030 03/M01 A3001 RMK SC8 SLP164=
CYYG;2005-04-29 02:00;METAR CYYG 290200Z 12023G30KT 15SM BKN013 OVC030 03/M01 A2998 RMK SC5SC3 SLP154=
CYYG;2005-04-29 03:00;METAR CYYG 290300Z 12022G31KT 15SM OVC013 03/M00 A2995 RMK SC8 SLP145=
CYYG;2005-04-29 03:38;SPECI CYYG 290338Z 12018G29KT 10SM -SHRA OVC012 RMK SC8=
CYYG;2005-04-29 04:00;METAR CYYG 290400Z 11023G29KT 8SM -SHRA OVC012 03/01 A2991 RMK SC8 SLP132=
CYYG;2005-04-29 05:00;METAR CYYG 290500Z 10021G29KT 8SM -SHRA OVC012 04/01 A2986 RMK SC8 SLP115=
CYYG;2005-04-29 06:00;METAR CYYG 290600Z 11025G34KT 8SM -SHRA OVC011 04/01 A2982 RMK SC8 SLP098=
CYYG;2005-04-29 07:00;METAR CYYG 290700Z 12029G40KT 8SM -SHRA OVC010 04/02 A2977 RMK SC8 SLP081=
CYYG;2005-04-29 08:00;METAR CYYG 290800Z 13021G30KT 8SM -SHRA OVC010 04/02 A2978 RMK SC8 SLP086=
CYYG;2005-04-29 09:00;METAR CYYG 290900Z 13020G32KT 15SM -SHRA OVC014 04/03 A2976 RMK SC8 SLP080=
CYYG;2005-04-29 09:07;SPECI CYYG 290907Z 13022G32KT 15SM OVC013 RMK SC8=
CYYG;2005-04-29 10:00;METAR CYYG 291000Z 14019G26KT 15SM OVC010 05/03 A2979 RMK SC8 SLP090=
CYYG;2005-04-29 11:00;METAR CYYG 291100Z 16018G26KT 10SM -DZ OVC008 06/04 A2983 RMK SF8 SLP103=
CYYG;2005-04-29 11:34;SPECI CYYG 291134Z 16016G24KT 15SM SCT008 OVC018 RMK SF4SC4=
CYYG;2005-04-29 12:00;METAR CYYG 291200Z 17018G25KT 15SM FEW008 BKN018 06/05 A2985 RMK SF2SC2 SLP109=
CYYG;2005-04-29 13:00;METAR CYYG 291300Z 17019G25KT 15SM FEW018 08/05 A2987 RMK SC2 SLP115=
CYYG;2005-04-29 14:00;METAR CYYG 291400Z 18022KT 15SM FEW018 09/05 A2989 RMK SC2 SLP122=
CYYG;2005-04-29 15:00;METAR CYYG 291500Z 18018G26KT 15SM FEW018 FEW030 10/06 A2990 RMK SC1SC1 SLP128=
CYYG;2005-04-29 16:00;METAR CYYG 291600Z 18020G25KT 15SM FEW018 SCT030 12/06 A2990 RMK SC1SC2 SLP127=
CYYG;2005-04-29 17:00;METAR CYYG 291700Z 17015G20KT 15SM FEW020 SCT080 13/06 A2992 RMK SC1AC2 SLP132=
CYYG;2005-04-29 18:00;METAR CYYG 291800Z 18018KT 15SM BKN040 12/M02 A2993 RMK SC5 SLP136=
CYYG;2005-04-29 20:00;METAR CYYG 292000Z 16009KT 15SM FEW030 SCT090 09/06 A2997 RMK SC2AC2 SLP151=
CYYG;2005-04-29 21:00;METAR CYYG 292100Z 17010KT 15SM FEW030 FEW090 11/05 A2998 RMK SC1AC1 SLP154=
CYYG;2005-04-29 22:00;METAR CYYG 292200Z 15006KT 15SM FEW057 SCT250 10/04 A3001 RMK SC2CI1 SLP163=
CYYG;2005-04-29 23:00;METAR CYYG 292300Z 22007KT 15SM FEW060 SCT250 09/05 A3003 RMK SC2CI1 SLP171=
CYYG;2005-04-30 00:00;METAR CYYG 300000Z 26006KT 15SM FEW060 FEW250 08/02 A3007 RMK SC1CI0 SLP185=
CYYG;2005-04-30 01:00;METAR CYYG 300100Z 26006KT 15SM BKN062 07/01 A3011 RMK SC5 SLP198=
CYYG;2005-04-30 02:00;METAR CYYG 300200Z 23004KT 15SM FEW045 07/01 A3014 RMK SC2 SLP206=
CYYG;2005-04-30 03:00;METAR CYYG 300300Z 23006KT 15SM FEW045 07/01 A3015 RMK SC1 SLP212=
CYYG;2005-04-30 04:00;METAR CYYG 300400Z 16005KT 15SM SKC 05/00 A3018 RMK SLP220=
CYYG;2005-04-30 05:00;METAR CYYG 300500Z 18003KT 15SM SKC 05/02 A3019 RMK SLP223=
CYYG;2005-04-30 06:00;METAR CYYG 300600Z 18006KT 15SM SKC 04/01 A3019 RMK SLP225=
CYYG;2005-04-30 07:00;METAR CYYG 300700Z 18005KT 15SM SKC 03/01 A3020 RMK SLP227=
CYYG;2005-04-30 08:00;METAR CYYG 300800Z 13006KT 15SM FEW250 03/01 A3021 RMK CI0 SLP232=
CYYG;2005-04-30 09:00;METAR CYYG 300900Z 14006KT 15SM FEW120 FEW250 02/01 A3022 RMK AC1CI0 SLP236=
CYYG;2005-04-30 10:00;METAR CYYG 301000Z 15005KT 15SM FEW120 FEW250 04/02 A3024 RMK AC1CI0 SLP242=
CYYG;2005-04-30 11:00;METAR CYYG 301100Z 18008KT 15SM FEW130 06/03 A3026 RMK AC1 SLP248=
CYYG;2005-04-30 12:00;METAR CYYG 301200Z 19006KT 15SM FEW130 FEW250 08/03 A3026 RMK AC1CI0 SLP248=
CYYG;2005-04-30 13:00;METAR CYYG 301300Z 18010KT 15SM FEW110 FEW250 09/02 A3026 RMK AC1CI0 SLP249=
CYYG;2005-04-30 14:00;METAR CYYG 301400Z 16013KT 15SM SCT120 BKN250 10/01 A3027 RMK AC3CI0 SLP251=
CYYG;2005-04-30 15:00;METAR CYYG 301500Z 18013KT 15SM BKN110 BKN250 10/02 A3028 RMK AC5CI0 SLP254=
CYYG;2005-04-30 16:00;METAR CYYG 301600Z 17013KT 15SM SCT110 BKN250 10/03 A3026 RMK AC3CI1 SLP248=
CYYG;2005-04-30 18:00;METAR CYYG 301800Z 17012KT 15SM SCT052 BKN250 11/04 A3025 RMK SC3CI2 SLP244=
CYYG;2005-04-30 19:00;METAR CYYG 301900Z 17011G16KT 15SM SCT024 BKN050 OVC250 11/04 A3024 RMK SC3SC3CI1 SLP241=
CYYG;2005-04-30 20:00;METAR CYYG 302000Z 16009KT 15SM BKN023 OVC050 10/04 A3024 RMK SC6SC2 SLP242=
CYYG;2005-04-30 21:00;METAR CYYG 302100Z 15011KT 15SM BKN021 OVC050 10/04 A3022 RMK SC6SC2 SLP235=
CYYG;2005-04-30 22:00;METAR CYYG 302200Z 18016KT 15SM OVC017 09/06 A3021 RMK SC8 SLP231=
CYYG;2005-04-30 22:11;SPECI CYYG 302211Z 18014G19KT 15SM -SHRA OVC016 RMK SC8=
CYYG;2005-04-30 23:00;METAR CYYG 302300Z 16013G18KT 15SM -SHRA OVC019 08/06 A3021 RMK SC8 SLP232=
CYYG;2005-04-30 23:43;SPECI CYYG 302343Z 17011KT 15SM FEW014 FEW038 SCT095 BKN110 RMK SC1SC1AC2AC4=
CYYG;2005-05-01 00:00;METAR CYYG 010000Z 17012KT 15SM FEW042 BKN110 07/05 A3020 RMK SC2AC6 SLP230=
CYYG;2005-05-01 01:00;METAR CYYG 010100Z 18008KT 15SM -SHRA BKN037 OVC110 07/05 A3021 RMK SC6AC2 SLP231=
CYYG;2005-05-01 01:31;SPECI CYYG 010131Z 17011KT 15SM -RA BKN011 OVC054 RMK SC5SC3=
CYYG;2005-05-01 01:40;SPECI CYYG 010140Z 16009KT 15SM FEW011 SCT054 OVC070 RMK SC2SC2AC5=
CYYG;2005-05-01 01:50;SPECI CYYG 010150Z 17012KT 15SM -RA FEW011 OVC061 RMK SC2SC6=
CYYG;2005-05-01 02:00;METAR CYYG 010200Z 16012KT 15SM -RA FEW011 OVC060 08/05 A3019 RMK SC2SC6 SLP225=
CYYG;2005-05-01 02:29;SPECI CYYG 010229Z 16010KT 15SM FEW022 OVC057 RMK SC2SC6=
CYYG;2005-05-01 03:00;METAR CYYG 010300Z 16012KT 15SM FEW014 FEW057 SCT090 OVC170 08/04 A3017 RMK SC2SC1AC2AC4 SLP217=
CYYG;2005-05-01 04:00;METAR CYYG 010400Z 16012G17KT 15SM BKN053 OVC100 08/03 A3013 RMK SC6AC2 SLP205=
CYYG;2005-05-01 05:00;METAR CYYG 010500Z 17014G19KT 15SM FEW058 OVC090 08/04 A3012 RMK SC2AC6 SLP201=
CYYG;2005-05-01 05:48;SPECI CYYG 010548Z 16017KT 15SM -RA OVC075 RMK AC8=
CYYG;2005-05-01 06:00;METAR CYYG 010600Z 16017KT 15SM -RA OVC075 08/04 A3011 RMK AC8 SLP197=
CYYG;2005-05-01 07:00;METAR CYYG 010700Z 16014KT 15SM -RA SCT055 OVC076 07/05 A3010 RMK SC3AC5 SLP193=
CYYG;2005-05-01 08:00;METAR CYYG 010800Z 16015G20KT 15SM -RA OVC066 07/05 A3008 RMK AC8 SLP186=
CYYG;2005-05-01 09:00;METAR CYYG 010900Z 15013G18KT 10SM -RA OVC056 07/05 A3004 RMK NS8 SLP175=
CYYG;2005-05-01 10:00;METAR CYYG 011000Z 15018KT 10SM -RA OVC062 07/06 A3001 RMK NS8 SLP163=
CYYG;2005-05-01 11:00;METAR CYYG 011100Z 16022G28KT 10SM -RA OVC060 07/05 A2996 RMK NS8 SLP145=
CYYG;2005-05-01 12:00;METAR CYYG 011200Z 15020G26KT 15SM -RA BKN063 OVC090 07/05 A2995 RMK SC6AC2 SLP142=
CYYG;2005-05-01 12:55;SPECI CYYG 011255Z 15020G30KT 15SM BKN052 OVC090 RMK SC6AC2=
CYYG;2005-05-01 13:00;METAR CYYG 011300Z 15020G30KT 15SM BKN052 OVC090 08/05 A2991 RMK SC6AC2 SLP131=
CYYG;2005-05-01 14:00;METAR CYYG 011400Z 16020G30KT 15SM FEW050 BKN066 OVC090 08/06 A2990 RMK SC2AC4AC2 SLP128=
CYYG;2005-05-01 15:00;METAR CYYG 011500Z 15018G28KT 15SM FEW034 BKN051 OVC066 09/06 A2988 RMK SC2SC3AC3 SLP119=
CYYG;2005-05-01 16:00;METAR CYYG 011600Z 16023G29KT 15SM SCT028 BKN046 OVC066 11/06 A2984 RMK SC3SC3AC2 SLP105=
CYYG;2005-05-01 17:00;METAR CYYG 011700Z 16024G30KT 15SM BKN020 OVC046 12/08 A2978 RMK SC6SC2 SLP087=
CYYG;2005-05-01 18:00;METAR CYYG 011800Z 16019G25KT 15SM BKN018 OVC038 11/09 A2977 RMK SC6SC2 SLP080=
CYYG;2005-05-01 18:27;SPECI CYYG 011827Z 17020G26KT 12SM -SHRA BKN016 OVC030 RMK SC6SC2=
CYYG;2005-05-01 19:00;METAR CYYG 011900Z 17019G25KT 12SM -SHRA OVC018 11/10 A2973 RMK SC8 SLP068=
CYYG;2005-05-01 20:00;METAR CYYG 012000Z 17019G25KT 15SM -SHRA BKN016 OVC055 11/10 A2971 RMK SC6SC2 SLP063=
CYYG;2005-05-01 22:00;METAR CYYG 012200Z 17017KT 10SM -RA FEW007 BKN014 OVC040 11/10 A2965 RMK SF1SC6SC1 SLP042=
CYYG;2005-05-01 23:00;METAR CYYG 012300Z 17018KT 15SM -RA BKN015 BKN066 OVC250 12/11 A2961 RMK SC5AC2CI2 SLP027=
CYYG;2005-05-01 23:09;SPECI CYYG 012309Z 18020KT 15SM FEW015 BKN063 OVC080 RMK SC1SC5AC2=
CYYG;2005-05-02 00:00;METAR CYYG 020000Z 18023G33KT 15SM BKN028 OVC110 12/11 A2960 RMK SC6AC2 SLP025=
CYYG;2005-05-02 00:07;SPECI CYYG 020007Z 18023G30KT 15SM -RA BKN026 OVC032 RMK SC6SC2=
CYYG;2005-05-02 01:51;SPECI CYYG 020151Z 23013G24KT 5SM -RA BR BKN005 OVC011 RMK SF5SC3=
CYYG;2005-05-02 02:00;METAR CYYG 020200Z 23014G24KT 5SM -RA BR BKN005 OVC011 11/11 A2962 RMK SF6SC2 SLP032=
CYYG;2005-05-02 02:24;SPECI CYYG 020224Z 24012G20KT 15SM -DZ OVC006 RMK SF8=
CYYG;2005-05-02 03:00;METAR CYYG 020300Z 24009G16KT 15SM OVC007 10/10 A2963 RMK SF8 SLP036=
CYYG;2005-05-02 04:00;METAR CYYG 020400Z 21010KT 15SM OVC007 10/09 A2963 RMK ST8 SLP036=
CYYG;2005-05-02 04:45;SPECI CYYG 020445Z 22006KT 15SM OVC004 RMK ST8=
CYYG;2005-05-02 06:00;METAR CYYG 020600Z 24009KT 15SM OVC004 10/09 A2965 RMK ST8 SLP042=
CYYG;2005-05-02 06:53;SPECI CYYG 020653Z 25011KT 5SM -DZ BR OVC003 RMK ST8=
CYYG;2005-05-02 07:00;METAR CYYG 020700Z 24011KT 5SM -DZ BR OVC003 09/08 A2967 RMK ST8 SLP048=
CYYG;2005-05-02 08:00;METAR CYYG 020800Z 25009KT 15SM SCT005 BKN030 08/07 A2970 RMK SF3SC4 SLP057=
CYYG;2005-05-02 08:09;SPECI CYYG 020809Z 25007KT 15SM BKN006 BKN028 RMK SF5SC2=
CYYG;2005-05-02 08:42;SPECI CYYG 020842Z 25010KT 15SM FEW007 SCT046 BKN250 RMK SF2SC2CI0=
CYYG;2005-05-02 09:00;METAR CYYG 020900Z 25009KT 15SM FEW007 FEW046 BKN250 07/06 A2972 RMK SF2SC1CI0 SLP064=
CYYG;2005-05-02 11:00;METAR CYYG 021100Z 24009G18KT 15SM FEW250 08/05 A2977 RMK CI1 SLP083=
CYYG;2005-05-02 12:00;METAR CYYG 021200Z 25012KT 15SM FEW025 FEW250 08/05 A2980 RMK SC2CI1 SLP093=
CYYG;2005-05-02 13:00;METAR CYYG 021300Z 25011G16KT 15SM FEW025 FEW250 10/05 A2982 RMK SC2CI1 SLP098=
CYYG;2005-05-02 14:00;METAR CYYG 021400Z 23011KT 15SM FEW030 11/05 A2982 RMK SC2 SLP099=
CYYG;2005-05-02 15:00;METAR CYYG 021500Z 23014KT 15SM FEW032 11/05 A2984 RMK SC2 SLP105=
CYYG;2005-05-02 16:00;METAR CYYG 021600Z 23014KT 15SM FEW034 12/04 A2985 RMK SC2 SLP107=
CYYG;2005-05-02 17:00;METAR CYYG 021700Z 24012G18KT 15SM FEW035 14/03 A2983 RMK SC2 SLP103=
CYYG;2005-05-02 18:00;METAR CYYG 021800Z 24014G24KT 15SM FEW035 15/02 A2984 RMK SC2 SLP104=
CYYG;2005-05-02 19:00;METAR CYYG 021900Z 26015G24KT 15SM FEW035 15/01 A2984 RMK SC2 SLP106=
CYYG;2005-05-02 20:00;METAR CYYG 022000Z 23013KT 15SM FEW035 14/02 A2985 RMK SC2 SLP107=
CYYG;2005-05-02 21:00;METAR CYYG 022100Z 25016KT 15SM FEW035 13/M01 A2985 RMK SC1 SLP110=
CYYG;2005-05-02 22:00;METAR CYYG 022200Z 25013KT 15SM FEW035 FEW300 13/M02 A2986 RMK SC1CI1 SLP113=
CYYG;2005-05-02 23:00;METAR CYYG 022300Z 27009KT 15SM FEW035 FEW240 BKN300 11/M01 A2987 RMK SC1CI1CI1 SLP115=
CYYG;2005-05-03 00:00;METAR CYYG 030000Z 25006KT 15SM BKN300 09/M01 A2989 RMK CI2 SLP123=
CYYG;2005-05-03 01:00;METAR CYYG 030100Z 23007KT 15SM OVC200 09/M01 A2991 RMK CS6 SLP130=
CYYG;2005-05-03 02:00;METAR CYYG 030200Z 22008KT 15SM OVC170 08/00 A2992 RMK AS6 SLP134=
CYYG;2005-05-03 03:00;METAR CYYG 030300Z 22009KT 15SM OVC160 07/00 A2993 RMK AS7 SLP138=
CYYG;2005-05-03 04:00;METAR CYYG 030400Z 23007KT 15SM OVC180 07/M00 A2993 RMK AS6 SLP136=
CYYG;2005-05-03 05:00;METAR CYYG 030500Z 23008KT 15SM OVC180 07/M01 A2992 RMK AS6 SLP132=
CYYG;2005-05-03 06:00;METAR CYYG 030600Z 25009KT 15SM OVC160 06/M01 A2990 RMK AS6 SLP125=
CYYG;2005-05-03 07:00;METAR CYYG 030700Z 24009KT 15SM OVC170 06/M00 A2989 RMK AS6 SLP122=
CYYG;2005-05-03 08:00;METAR CYYG 030800Z 23009KT 15SM OVC160 05/00 A2989 RMK AS6 SLP122=
CYYG;2005-05-03 09:00;METAR CYYG 030900Z 20006KT 15SM SCT160 BKN250 04/M00 A2991 RMK AS3CI2 SLP130=
CYYG;2005-05-03 10:00;METAR CYYG 031000Z 21007KT 15SM SCT250 06/01 A2992 RMK CI2 SLP134=
CYYG;2005-05-03 11:00;METAR CYYG 031100Z 18009KT 15SM FEW250 08/02 A2993 RMK CI1 SLP136=
CYYG;2005-05-03 12:00;METAR CYYG 031200Z 20011KT 15SM SKC 09/01 A2993 RMK SLP135=
CYYG;2005-05-03 13:00;METAR CYYG 031300Z 21011G16KT 15SM FEW250 10/02 A2993 RMK CI0 SLP135=
CYYG;2005-05-03 14:00;METAR CYYG 031400Z 20013G19KT 15SM FEW250 12/02 A2993 RMK CI1 SLP135=
CYYG;2005-05-03 15:00;METAR CYYG 031500Z 20012KT 15SM FEW250 13/03 A2993 RMK CI2 SLP138=
CYYG;2005-05-03 16:00;METAR CYYG 031600Z 20016KT 15SM FEW030 SCT250 15/04 A2991 RMK SC2CI2 SLP129=
CYYG;2005-05-03 17:00;METAR CYYG 031700Z 26011G17KT 15SM FEW030 BKN082 14/04 A2992 RMK SC2AC4 SLP133=
CYYG;2005-05-03 18:00;METAR CYYG 031800Z 27011G16KT 15SM FEW030 OVC061 12/04 A2995 RMK SC2SC6 SLP144=
CYYG;2005-05-03 18:23;SPECI CYYG 031823Z 26012G18KT 15SM -SHRA SCT049 OVC058 RMK SC4SC4=
CYYG;2005-05-03 18:44;SPECI CYYG 031844Z 27011KT 15SM SCT049 OVC069 RMK SC4AC4=
CYYG;2005-05-03 19:00;METAR CYYG 031900Z 26010KT 15SM SCT049 OVC078 10/04 A2996 RMK SC3AC5 SLP147=
CYYG;2005-05-03 20:00;METAR CYYG 032000Z 25011KT 15SM FEW049 BKN078 11/05 A2996 RMK SC2AC4 SLP148=
CYYG;2005-05-03 21:00;METAR CYYG 032100Z 26013KT 15SM FEW050 BKN082 10/04 A2996 RMK SC2AC6 SLP146=
CYYG;2005-05-03 22:00;METAR CYYG 032200Z 26010KT 15SM FEW035 BKN070 BKN150 10/04 A2997 RMK SC1AC5AC2 ACC ASOCTD SLP149=
CYYG;2005-05-03 23:00;METAR CYYG 032300Z 25006KT 15SM SCT080 BKN250 10/05 A2999 RMK AC3CI3 ACC ASOCTD SLP157=
CYYG;2005-05-04 01:00;METAR CYYG 040100Z 21005KT 15SM FEW080 BKN250 08/04 A3004 RMK AC1CI5 SLP174=
CYYG;2005-05-04 02:00;METAR CYYG 040200Z 22008KT 15SM SCT250 07/04 A3005 RMK CI2 SLP178=
CYYG;2005-05-04 03:00;METAR CYYG 040300Z 23006KT 15SM FEW250 06/03 A3007 RMK CI1 SLP183=
CYYG;2005-05-04 04:00;METAR CYYG 040400Z 23004KT 15SM SCT250 06/02 A3008 RMK CI2 SLP188=
CYYG;2005-05-04 05:00;METAR CYYG 040500Z 22005KT 15SM FEW060 SCT250 05/02 A3009 RMK SC2CI0 SLP191=
CYYG;2005-05-04 07:00;METAR CYYG 040700Z 23007KT 15SM FEW010 05/03 A3011 RMK SF1 SLP197=
CYYG;2005-05-04 07:12;SPECI CYYG 040712Z 23006KT 15SM FEW005 RMK SF1=
CYYG;2005-05-04 07:33;SPECI CYYG 040733Z 25009KT 12SM BKN005 RMK SF6=
CYYG;2005-05-04 08:00;METAR CYYG 040800Z 24009KT 12SM OVC004 04/03 A3012 RMK ST8 SLP201=
CYYG;2005-05-04 08:29;SPECI CYYG 040829Z 25008KT 8SM FEW004 FEW250 RMK SF1CI0=
CYYG;2005-05-04 09:00;METAR CYYG 040900Z 23007KT 10SM FEW004 FEW060 FEW250 04/03 A3014 RMK SF1SC1CI1 SLP208=
CYYG;2005-05-04 10:00;METAR CYYG 041000Z 23006KT 12SM FEW004 SCT250 04/03 A3017 RMK SF1CI1 SLP216=
CYYG;2005-05-04 11:00;METAR CYYG 041100Z 23006KT 12SM FEW004 SCT250 06/04 A3019 RMK SF1CI1 SLP224=
CYYG;2005-05-04 12:00;METAR CYYG 041200Z 24003KT 15SM FEW010 FEW250 08/04 A3020 RMK SF1CI1 SLP230=
CYYG;2005-05-04 13:00;METAR CYYG 041300Z 20003KT 15SM FEW010 FEW250 10/05 A3020 RMK SF1CI1 SLP230=
CYYG;2005-05-04 14:00;METAR CYYG 041400Z 22006KT 15SM FEW020 11/05 A3022 RMK CF1 SLP234=
CYYG;2005-05-04 15:00;METAR CYYG 041500Z 18009KT 15SM FEW025 12/05 A3023 RMK CU1 SLP236=
CYYG;2005-05-04 16:00;METAR CYYG 041600Z 20011KT 15SM FEW030 13/02 A3023 RMK CU2 SLP236=
CYYG;2005-05-04 17:00;METAR CYYG 041700Z 21006KT 15SM FEW030 14/00 A3022 RMK CU2 SLP234=
CYYG;2005-05-04 18:00;METAR CYYG 041800Z 19013KT 15SM FEW030 BKN110 14/00 A3023 RMK CU2AC6 SLP237=
CYYG;2005-05-04 19:00;METAR CYYG 041900Z 20011KT 15SM FEW030 OVC080 12/02 A3023 RMK CU2AC6 SLP239=
CYYG;2005-05-04 20:00;METAR CYYG 042000Z 22003KT 15SM FEW030 BKN080 13/01 A3023 RMK CU1AC6 SLP238=
CYYG;2005-05-04 21:00;METAR CYYG 042100Z 18009KT 15SM BKN075 BKN250 13/02 A3023 RMK AC5CI1 SLP240=
CYYG;2005-05-04 22:00;METAR CYYG 042200Z 21005KT 15SM BKN080 BKN250 13/01 A3024 RMK AC5CI1 SLP243=
CYYG;2005-05-05 00:00;METAR CYYG 050000Z 26003KT 15SM BKN072 BKN250 10/02 A3028 RMK AC5CI0 SLP257=
CYYG;2005-05-05 01:00;METAR CYYG 050100Z 28003KT 15SM BKN062 BKN072 10/02 A3030 RMK SC5AC2 SLP261=
CYYG;2005-05-05 02:00;METAR CYYG 050200Z 00000KT 15SM BKN074 BKN094 08/03 A3030 RMK AC5AC2 SLP263=
CYYG;2005-05-05 03:00;METAR CYYG 050300Z 22004KT 15SM BKN080 OVC110 09/02 A3031 RMK AC6AC2 SLP265=
CYYG;2005-05-05 04:00;METAR CYYG 050400Z 25007KT 15SM OVC090 08/03 A3032 RMK AC8 SLP268=
CYYG;2005-05-05 05:00;METAR CYYG 050500Z 25006KT 15SM OVC087 07/02 A3031 RMK AC8 SLP265=
CYYG;2005-05-05 06:00;METAR CYYG 050600Z 27005KT 15SM BKN087 06/02 A3031 RMK AC6 SLP264=
CYYG;2005-05-05 07:00;METAR CYYG 050700Z 30002KT 15SM BKN100 05/02 A3031 RMK AC6 SLP265=
CYYG;2005-05-05 08:00;METAR CYYG 050800Z 16005KT 15SM BKN100 04/01 A3032 RMK AC7 SLP270=
CYYG;2005-05-05 09:00;METAR CYYG 050900Z 21002KT 15SM BKN100 05/03 A3033 RMK AC6 SLP274=
CYYG;2005-05-05 10:00;METAR CYYG 051000Z 34003KT 15SM BKN100 05/03 A3036 RMK AC6 SLP282=
CYYG;2005-05-05 11:00;METAR CYYG 051100Z 36003KT 15SM BKN100 07/03 A3039 RMK AC7 SLP291=
CYYG;2005-05-05 12:00;METAR CYYG 051200Z 35003KT 15SM BKN100 09/04 A3040 RMK AC7 SLP296=
CYYG;2005-05-05 13:00;METAR CYYG 051300Z 03003KT 15SM SCT100 11/04 A3040 RMK AC3 SLP296=
CYYG;2005-05-05 14:00;METAR CYYG 051400Z 35008KT 15SM FEW030 FEW100 13/02 A3041 RMK CU1AC2 SLP300=
CYYG;2005-05-05 15:00;METAR CYYG 051500Z 01010KT 15SM FEW030 FEW100 14/04 A3042 RMK CU1AC1 SLP303=
CYYG;2005-05-05 16:00;METAR CYYG 051600Z 01010G15KT 15SM FEW034 FEW100 13/03 A3042 RMK CU1AC1 SLP304=
CYYG;2005-05-05 17:00;METAR CYYG 051700Z 36010KT 15SM FEW036 FEW100 12/02 A3043 RMK CU1AC1 SLP306=
CYYG;2005-05-05 18:00;METAR CYYG 051800Z 01009KT 15SM FEW036 FEW100 13/M00 A3044 RMK CU1AC1 SLP308=
CYYG;2005-05-05 19:00;METAR CYYG 051900Z 03011KT 15SM FEW040 FEW100 13/M04 A3043 RMK CU1AC1 SLP307=
CYYG;2005-05-05 20:00;METAR CYYG 052000Z 04008KT 15SM FEW040 FEW100 13/M01 A3042 RMK CU1AC1 SLP302=
CYYG;2005-05-05 21:00;METAR CYYG 052100Z 04008KT 15SM FEW040 FEW100 12/M02 A3043 RMK CU1AC1 SLP305=
CYYG;2005-05-05 22:00;METAR CYYG 052200Z 05004KT 15SM FEW100 11/M03 A3044 RMK AC1 SLP308=
CYYG;2005-05-05 23:00;METAR CYYG 052300Z 02002KT 15SM FEW100 10/M02 A3044 RMK AC1 SLP309=
CYYG;2005-05-06 00:00;METAR CYYG 060000Z 00000KT 15SM FEW100 08/M01 A3045 RMK AC1 SLP314=
CYYG;2005-05-06 01:00;METAR CYYG 060100Z 00000KT 15SM FEW100 06/02 A3047 RMK AC1 SLP319=
CYYG;2005-05-06 02:00;METAR CYYG 060200Z 21006KT 15SM SKC 08/01 A3048 RMK SLP322=
CYYG;2005-05-06 03:00;METAR CYYG 060300Z 22005KT 15SM SKC 07/02 A3048 RMK SLP322=
CYYG;2005-05-06 04:00;METAR CYYG 060400Z 22007KT 15SM SKC 07/02 A3048 RMK SLP322=
CYYG;2005-05-06 05:00;METAR CYYG 060500Z 23006KT 15SM SKC 06/01 A3047 RMK SLP318=
CYYG;2005-05-06 06:00;METAR CYYG 060600Z 23005KT 15SM SKC 06/M00 A3046 RMK SLP316=
CYYG;2005-05-06 07:00;METAR CYYG 060700Z 23004KT 15SM SKC 06/M01 A3047 RMK SLP318=
CYYG;2005-05-06 08:00;METAR CYYG 060800Z 22007KT 15SM SKC 06/01 A3047 RMK SLP319=
CYYG;2005-05-06 09:00;METAR CYYG 060900Z 22006KT 15SM FEW100 06/00 A3047 RMK AC1 TR AC SLP321=
CYYG;2005-05-06 10:00;METAR CYYG 061000Z 00000KT 15SM FEW100 FEW320 06/02 A3048 RMK AC1CI0 SLP322=
CYYG;2005-05-06 11:00;METAR CYYG 061100Z 21003KT 15SM FEW100 FEW320 07/03 A3049 RMK AC1CI0 SLP326=
CYYG;2005-05-06 12:00;METAR CYYG 061200Z 21003KT 15SM FEW100 FEW320 11/04 A3049 RMK AC1CI0 SLP326=
CYYG;2005-05-06 13:00;METAR CYYG 061300Z 31004KT 15SM FEW020 FEW320 14/04 A3048 RMK CU1CI1 SLP324=
CYYG;2005-05-06 15:00;METAR CYYG 061500Z 17009KT 15SM FEW060 SCT320 15/04 A3048 RMK CU2CI0 SLP324=
CYYG;2005-05-06 16:00;METAR CYYG 061600Z 20009KT 15SM FEW060 BKN320 16/02 A3048 RMK SC2CI1 SLP322=
CYYG;2005-05-06 17:00;METAR CYYG 061700Z 18009KT 15SM FEW065 BKN320 16/M00 A3047 RMK SC1CI1 SLP319=
CYYG;2005-05-06 18:00;METAR CYYG 061800Z 21009KT 15SM FEW065 BKN320 16/M01 A3046 RMK SC1CI1 SLP316=
CYYG;2005-05-06 19:00;METAR CYYG 061900Z 22005KT 15SM FEW065 SCT320 17/M00 A3044 RMK SC1CI0 SLP309=
CYYG;2005-05-06 20:00;METAR CYYG 062000Z 05007G15KT 15SM FEW065 FEW320 16/M01 A3042 RMK SC1CI0 SLP303=
CYYG;2005-05-06 21:00;METAR CYYG 062100Z 03003KT 15SM FEW065 SCT320 16/M03 A3041 RMK SC1CI1 SLP299=
CYYG;2005-05-06 22:00;METAR CYYG 062200Z 08007KT 15SM FEW065 SCT320 15/M04 A3041 RMK SC1CI1 SLP300=
CYYG;2005-05-06 23:00;METAR CYYG 062300Z 07007KT 15SM FEW250 12/M02 A3041 RMK CI1 SLP301=
CYYG;2005-05-07 00:00;METAR CYYG 070000Z 12005KT 15SM SCT250 10/M04 A3042 RMK CI2 SLP302=
CYYG;2005-05-07 01:00;METAR CYYG 070100Z 14006KT 15SM SCT250 09/01 A3042 RMK CI2 SLP304=
CYYG;2005-05-07 02:00;METAR CYYG 070200Z 14006KT 15SM FEW250 09/00 A3041 RMK CI2 SLP298=
CYYG;2005-05-07 03:00;METAR CYYG 070300Z 12004KT 15SM FEW250 08/00 A3039 RMK CI2 SLP293=
CYYG;2005-05-07 04:00;METAR CYYG 070400Z 15003KT 15SM FEW250 08/01 A3040 RMK CI2 SLP296=
CYYG;2005-05-07 05:00;METAR CYYG 070500Z 18004KT 15SM FEW220 08/02 A3039 RMK CI2 SLP290=
CYYG;2005-05-07 06:00;METAR CYYG 070600Z 19004KT 15SM SCT220 07/02 A3037 RMK CI3 SLP286=
CYYG;2005-05-07 07:00;METAR CYYG 070700Z 18003KT 15SM SCT220 07/02 A3036 RMK CI3 SLP282=
CYYG;2005-05-07 08:00;METAR CYYG 070800Z 17004KT 15SM BKN220 06/03 A3035 RMK CI6 SLP278=
CYYG;2005-05-07 09:00;METAR CYYG 070900Z 15004KT 15SM BKN220 06/02 A3034 RMK CI5 SLP274=
CYYG;2005-05-07 10:00;METAR CYYG 071000Z 20003KT 15SM OVC210 07/03 A3034 RMK CS7 HALO SLP275=
CYYG;2005-05-07 11:00;METAR CYYG 071100Z 18005KT 15SM OVC210 09/03 A3035 RMK CS7 HALO SLP277=
CYYG;2005-05-07 12:00;METAR CYYG 071200Z 19004KT 15SM OVC210 10/03 A3034 RMK CS7 HALO SLP276=
CYYG;2005-05-07 13:00;METAR CYYG 071300Z 16008KT 15SM OVC210 11/03 A3034 RMK CS8 HALO SLP276=
CYYG;2005-05-07 14:00;METAR CYYG 071400Z 17007KT 15SM OVC170 12/M02 A3033 RMK AS8 SLP272=
CYYG;2005-05-07 15:00;METAR CYYG 071500Z 15005KT 15SM OVC170 13/01 A3031 RMK AS8 SLP263=
CYYG;2005-05-07 16:00;METAR CYYG 071600Z 12007KT 15SM OVC150 14/01 A3027 RMK AS8 SLP252=
CYYG;2005-05-07 17:00;METAR CYYG 071700Z 11013KT 15SM OVC100 14/01 A3025 RMK AS8 SLP246=
CYYG;2005-05-07 18:00;METAR CYYG 071800Z 12012KT 15SM OVC095 13/00 A3022 RMK AS8 SLP234=
CYYG;2005-05-07 19:00;METAR CYYG 071900Z 12012KT 15SM OVC070 13/00 A3021 RMK AS8 SLP231=
CYYG;2005-05-07 19:53;SPECI CYYG 071953Z 14010G16KT 15SM -RA OVC040 RMK NS8=
CYYG;2005-05-07 20:00;METAR CYYG 072000Z 12013G21KT 15SM -RA OVC035 11/M01 A3021 RMK NS8 SLP232=
CYYG;2005-05-07 20:24;SPECI CYYG 072024Z 18014KT 15SM -RA OVC030 RMK NS8 WSHFT 2020=
CYYG;2005-05-07 21:00;METAR CYYG 072100Z 15018G26KT 120V180 10SM -RA OVC030 08/01 A3023 RMK NS8 SLP238=
CYYG;2005-05-07 22:00;METAR CYYG 072200Z 12016G21KT 10SM -RA BKN023 OVC035 06/03 A3023 RMK SC5NS3 SLP239=
CYYG;2005-05-07 23:00;METAR CYYG 072300Z 10013G18KT 10SM -RA OVC017 05/03 A3023 RMK SC8 SLP239=
CYYG;2005-05-08 00:00;METAR CYYG 080000Z 10013KT 10SM -RA OVC025 05/02 A3022 RMK SC8 SLP234=
CYYG;2005-05-08 01:00;METAR CYYG 080100Z 09014G24KT 10SM -RA OVC035 05/02 A3020 RMK SC8 SLP227=
CYYG;2005-05-08 02:00;METAR CYYG 080200Z 08012G18KT 10SM -RA BKN030 OVC055 04/02 A3017 RMK SC6SC2 SLP219=
CYYG;2005-05-08 03:00;METAR CYYG 080300Z 07015KT 10SM -RA BKN030 OVC043 04/02 A3014 RMK SC6SC2 SLP206=
CYYG;2005-05-08 04:00;METAR CYYG 080400Z 07013G20KT 10SM -RA OVC049 04/02 A3009 RMK SC8 SLP191=
CYYG;2005-05-08 05:00;METAR CYYG 080500Z 07016G21KT 12SM -RA OVC049 05/02 A3008 RMK SC8 SLP187=
CYYG;2005-05-08 06:00;METAR CYYG 080600Z 06014G19KT 10SM -RA OVC045 05/02 A3005 RMK SC8 SLP178=
CYYG;2005-05-08 07:00;METAR CYYG 080700Z 06013KT 10SM -RA OVC043 04/02 A3005 RMK SC8 SLP176=
CYYG;2005-05-08 09:00;METAR CYYG 080900Z 08014KT 10SM -RA OVC047 05/02 A3002 RMK SC8 SLP167=
CYYG;2005-05-08 10:00;METAR CYYG 081000Z 08013G20KT 10SM -RA OVC043 05/02 A3003 RMK SC8 SLP169=
CYYG;2005-05-08 11:00;METAR CYYG 081100Z 07015G20KT 8SM -RA OVC042 05/03 A3004 RMK SC8 SLP172=
CYYG;2005-05-08 12:00;METAR CYYG 081200Z 07013KT 10SM -RA OVC040 06/03 A3004 RMK SC8 SLP175=
CYYG;2005-05-08 13:00;METAR CYYG 081300Z 07018KT 6SM -RA BR OVC048 06/03 A3004 RMK SC8 SLP174=
CYYG;2005-05-08 14:33;SPECI CYYG 081433Z 08019G25KT 15SM BKN034 OVC070 RMK SC7AC1=
CYYG;2005-05-08 15:00;METAR CYYG 081500Z 09016G22KT 15SM BKN036 OVC070 08/02 A3005 RMK SC6AC2 SLP176=
CYYG;2005-05-08 15:16;SPECI CYYG 081516Z 09021G28KT 15SM -RA OVC033 RMK SC8=
CYYG;2005-05-08 16:00;METAR CYYG 081600Z 08017KT 12SM -RA OVC031 07/02 A3004 RMK SC8 SLP175=
CYYG;2005-05-08 17:00;METAR CYYG 081700Z 08020G26KT 15SM OVC031 08/03 A3004 RMK SC8 SLP174=
CYYG;2005-05-08 18:00;METAR CYYG 081800Z 09019G26KT 15SM OVC033 08/03 A3005 RMK SC8 SLP178=
CYYG;2005-05-08 19:00;METAR CYYG 081900Z 08018G25KT 15SM VCSH BKN036 OVC055 09/03 A3005 RMK SC6SC2 SLP177=
CYYG;2005-05-08 19:06;SPECI CYYG 081906Z 09018G26KT 15SM -SHRA BKN035 OVC055 RMK SC6SC2=
CYYG;2005-05-08 20:00;METAR CYYG 082000Z 08014G21KT 12SM -RA BKN034 OVC054 07/04 A3005 RMK SC5SC3 SLP178=
CYYG;2005-05-08 21:00;METAR CYYG 082100Z 09013G18KT 12SM -RA SCT035 OVC052 07/03 A3006 RMK SC4SC4 SLP180=
CYYG;2005-05-08 22:00;METAR CYYG 082200Z 07013KT 12SM -RA FEW035 OVC060 06/03 A3006 RMK SC2SC6 SLP181=
CYYG;2005-05-09 00:00;METAR CYYG 090000Z 05009KT 10SM -RA FEW035 OVC060 05/02 A3009 RMK SC2SC6 SLP190=
CYYG;2005-05-09 01:00;METAR CYYG 090100Z 04010KT 12SM -RA BKN060 OVC085 04/02 A3009 RMK SC6AC2 SLP191=
CYYG;2005-05-09 02:00;METAR CYYG 090200Z 04010KT 12SM OVC060 04/01 A3008 RMK SC8 INTMT -RA SLP189=
CYYG;2005-05-09 02:08;SPECI CYYG 090208Z 05009G15KT 12SM OVC060 RMK SC8=
CYYG;2005-05-09 03:00;METAR CYYG 090300Z 05008KT 15SM OVC050 04/02 A3008 RMK SC8 SLP188=
CYYG;2005-05-09 03:56;SPECI CYYG 090356Z 04010KT 12SM -SHRA OVC047 RMK SC8=
CYYG;2005-05-09 04:00;METAR CYYG 090400Z 04009KT 12SM -SHRA OVC047 04/02 A3008 RMK SC8 SLP187=
CYYG;2005-05-09 05:00;METAR CYYG 090500Z 05008KT 10SM -RA FEW045 OVC070 05/02 A3007 RMK SC2AC6 SLP185=
CYYG;2005-05-09 06:00;METAR CYYG 090600Z 06008KT 15SM -RA OVC073 05/02 A3006 RMK AC8 SLP181=
CYYG;2005-05-09 07:00;METAR CYYG 090700Z 04008KT 12SM -RA BKN023 OVC032 05/03 A3006 RMK SC6SC2 SLP182=
CYYG;2005-05-09 08:00;METAR CYYG 090800Z 04008KT 12SM -RA OVC024 05/03 A3006 RMK SC8 SLP181=
CYYG;2005-05-09 08:15;SPECI CYYG 090815Z 05008KT 15SM OVC024 RMK SC8=
CYYG;2005-05-09 09:00;METAR CYYG 090900Z 03007KT 15SM OVC024 05/04 A3007 RMK SC8 SLP184=
CYYG;2005-05-09 09:27;SPECI CYYG 090927Z 02006KT 15SM FEW004 OVC022 RMK SF1SC8=
CYYG;2005-05-09 10:00;METAR CYYG 091000Z 02007KT 15SM FEW004 OVC021 04/03 A3008 RMK SF1SC7 SLP188=
CYYG;2005-05-09 11:00;METAR CYYG 091100Z 06007KT 15SM FEW004 OVC028 07/05 A3008 RMK SF1SC7 SLP188=
CYYG;2005-05-09 12:00;METAR CYYG 091200Z 01007KT 15SM FEW004 BKN028 OVC045 07/06 A3009 RMK SF1SC4SC3 SLP192=
CYYG;2005-05-09 13:00;METAR CYYG 091300Z 02008KT 15SM BKN022 OVC045 07/06 A3010 RMK SC5SC3 SLP195=
CYYG;2005-05-09 14:00;METAR CYYG 091400Z 04009KT 15SM FEW020 OVC050 09/07 A3010 RMK SC2SC6 SLP195=
CYYG;2005-05-09 15:00;METAR CYYG 091500Z 06009KT 15SM FEW020 SCT050 BKN250 11/07 A3010 RMK SC1SC3CI2 SLP193=
CYYG;2005-05-09 16:00;METAR CYYG 091600Z 36008KT 15SM FEW020 FEW050 BKN250 09/07 A3010 RMK SC1CU1CI1 SLP193=
CYYG;2005-05-09 17:00;METAR CYYG 091700Z 36011KT 15SM FEW050 BKN250 10/07 A3009 RMK CU1CI1 SLP191=
CYYG;2005-05-09 18:00;METAR CYYG 091800Z 36010KT 15SM FEW020 FEW130 BKN250 09/06 A3008 RMK SC1AC1CI0 SLP186=
CYYG;2005-05-09 19:00;METAR CYYG 091900Z 01010KT 15SM FEW010 FEW130 BKN250 09/05 A3006 RMK SC1AC1CI1 SLP179=
CYYG;2005-05-09 20:00;METAR CYYG 092000Z 02013KT 15SM FEW010 FEW110 BKN250 10/05 A3006 RMK SF1AC1CI1 SLP180=
CYYG;2005-05-09 21:00;METAR CYYG 092100Z 02012KT 15SM FEW010 FEW110 BKN250 09/05 A3006 RMK SF1AC1CI2 SLP180=
CYYG;2005-05-09 22:00;METAR CYYG 092200Z 01009KT 15SM FEW010 FEW110 SCT250 06/04 A3006 RMK SF1AC1CI1 SLP181=
CYYG;2005-05-09 22:50;SPECI CYYG 092250Z 36010KT 15SM FEW002 FEW100 BKN250 RMK SF2AC1CI1 FOG BANK W-NE MOVG SW=
CYYG;2005-05-09 23:00;METAR CYYG 092300Z 36010KT 12SM BKN002 04/02 A3008 RMK SF3 FOG BANK W-NE MOVG S VIS N 2 SLP187=
CYYG;2005-05-09 23:09;SPECI CYYG 092309Z 36008KT 10SM PRFG OVC002 RMK SF6 FOG BANK N MOVG S VIS N1=
CYYG;2005-05-10 00:00;METAR CYYG 100000Z 01009KT 3SM BR OVC002 03/02 A3008 RMK SF8 SLP189=
CYYG;2005-05-10 00:11;SPECI CYYG 100011Z 36007KT 2SM BR OVC002 RMK SF8=
CYYG;2005-05-10 00:24;SPECI CYYG 100024Z 36005KT 1SM BR VV002 RMK FG8 RVR RWY03 5000 FT=
CYYG;2005-05-10 00:38;SPECI CYYG 100038Z 01006KT 1/2SM FG VV002 RMK FG8 RVR RWY03 3000 FT=
CYYG;2005-05-10 01:00;METAR CYYG 100100Z 01005KT 3/8SM FG VV001 03/02 A3009 RMK FG8 RVR RWY03 2000 FT SLP192=
CYYG;2005-05-10 02:00;METAR CYYG 100200Z 01006KT 3/8SM FG VV001 02/01 A3009 RMK FG8 RVR RWY03 2400 FT SLP190=
CYYG;2005-05-10 03:00;METAR CYYG 100300Z 36006KT 3/8SM FG VV001 02/00 A3009 RMK FG8 RVR RWY03 2000 FT SLP191=
CYYG;2005-05-10 04:00;METAR CYYG 100400Z 35006KT 3/8SM FG VV001 02/00 A3008 RMK FG8 RVR RWY03 1800 FT SLP189=
CYYG;2005-05-10 06:00;METAR CYYG 100600Z 36005KT 3/8SM FG VV001 02/01 A3006 RMK FG8 RVR RWY03 1800 FT SLP183=
CYYG;2005-05-10 07:00;METAR CYYG 100700Z 35004KT 1/4SM FG VV001 02/01 A3006 RMK FG8 RVR RWY03 1600 FT SLP183=
CYYG;2005-05-10 08:00;METAR CYYG 100800Z 36005KT 3/8SM FG VV001 03/02 A3007 RMK FG8 RVR RWY03 2200 FT SLP186=
CYYG;2005-05-10 09:00;METAR CYYG 100900Z 01006KT 1/4SM FG VV001 03/02 A3009 RMK FG8 RVR RWY03 1800 FT SLP191=
CYYG;2005-05-10 10:00;METAR CYYG 101000Z 01005KT 5/8SM BR VV002 04/03 A3010 RMK FG8 RVR RWY03 4000 FT SLP194=
CYYG;2005-05-10 10:30;SPECI CYYG 101030Z 04006KT 1SM BR VV002 RMK FG8=
CYYG;2005-05-10 11:00;METAR CYYG 101100Z 02007KT 1SM BR VV003 05/04 A3011 RMK FG8 SLP199=
CYYG;2005-05-10 11:48;SPECI CYYG 101148Z 04004KT 6SM BR OVC003 RMK SF8=
CYYG;2005-05-10 12:00;METAR CYYG 101200Z 02004KT 8SM OVC003 06/05 A3011 RMK SF8 SLP199=
CYYG;2005-05-10 13:00;METAR CYYG 101300Z 02005KT 12SM SCT003 OVC006 07/06 A3012 RMK SF3SF5 SLP202=
CYYG;2005-05-10 13:20;SPECI CYYG 101320Z 36005KT 12SM BKN007 OVC035 RMK SF6SC2=
CYYG;2005-05-10 14:00;METAR CYYG 101400Z 36004KT 15SM BKN008 BKN016 OVC035 08/06 A3012 RMK SF5SC2SC2 SLP201=
CYYG;2005-05-10 14:32;SPECI CYYG 101432Z 01004KT 15SM BKN011 BKN016 BKN035 RMK SC5SC2SC1=
CYYG;2005-05-10 15:00;METAR CYYG 101500Z 33004KT 15SM BKN011 BKN018 BKN035 10/07 A3012 RMK SC5SC2SC1 SLP202=
CYYG;2005-05-10 16:00;METAR CYYG 101600Z 03004KT 15SM SCT011 BKN016 BKN032 12/08 A3011 RMK SC3SC3SC1 SLP198=
CYYG;2005-05-10 17:00;METAR CYYG 101700Z 36008KT 15SM FEW011 BKN018 BKN032 13/08 A3010 RMK SC2SC5SC1 SLP195=
CYYG;2005-05-10 18:00;METAR CYYG 101800Z 36008KT 15SM FEW010 BKN021 12/08 A3009 RMK SC1SC6 SLP191=
CYYG;2005-05-10 19:00;METAR CYYG 101900Z 36011KT 15SM SCT021 BKN300 11/07 A3009 RMK SC3CI0 SLP189=
CYYG;2005-05-10 20:00;METAR CYYG 102000Z 03010G16KT 15SM FEW021 SCT300 10/07 A3008 RMK SC1CI0 SLP187=
CYYG;2005-05-10 21:00;METAR CYYG 102100Z 04012KT 15SM FEW015 SCT300 09/06 A3008 RMK SC2CI0 SLP186=
CYYG;2005-05-10 21:22;SPECI CYYG 102122Z 04012KT 15SM SCT006 BKN300 RMK SC3CI0=
CYYG;2005-05-10 21:27;SPECI CYYG 102127Z 04013KT 15SM BKN006 BKN080 RMK SF6AC1=
CYYG;2005-05-10 21:51;SPECI CYYG 102151Z 04013KT 15SM BKN004 BKN080 RMK SC6AC1=
CYYG;2005-05-10 22:00;METAR CYYG 102200Z 04013KT 12SM BKN004 08/06 A3007 RMK SF7 SLP185=
CYYG;2005-05-10 22:33;SPECI CYYG 102233Z 04012G17KT 10SM OVC003 RMK SF8 VIS NE 3=
CYYG;2005-05-10 22:48;SPECI CYYG 102248Z 04011KT 6SM BR OVC002 RMK SF8 VIS NW-NE 1=
CYYG;2005-05-10 23:00;METAR CYYG 102300Z 05010G15KT 2 1/2SM BR OVC002 06/06 A3008 RMK SF8 VIS NW-NE 3/4 SLP186=
CYYG;2005-05-10 23:06;SPECI CYYG 102306Z 05011KT 1/2SM FG VV002 RMK FG8 RVR RWY03 2600 FT=
CYYG;2005-05-11 00:00;METAR CYYG 110000Z 05011KT 1/2SM FG VV002 06/05 A3007 RMK FG8 RVR RWY03 2800 FT SLP186=
CYYG;2005-05-11 01:00;METAR CYYG 110100Z 02007KT 5/8SM BR VV002 05/05 A3008 RMK FG8 RVR RWY03 3500 FT SLP189=
CYYG;2005-05-11 01:49;SPECI CYYG 110149Z 03005KT 1/2SM FG VV002 RMK FG8 RVR RWY03 2400 FT=
CYYG;2005-05-11 02:00;METAR CYYG 110200Z 04006KT 3/8SM FG VV001 05/04 A3008 RMK FG8 RVR RWY03 1800 FT SLP187=
CYYG;2005-05-11 03:00;METAR CYYG 110300Z 36004KT 1/4SM FG VV001 05/04 A3006 RMK FG8 RVR RWY03 1400 FT SLP182=
CYYG;2005-05-11 04:00;METAR CYYG 110400Z 01003KT 1/4SM FG VV001 04/03 A3006 RMK FG8 RVR RWY03 1200 FT SLP180=
CYYG;2005-05-11 05:00;METAR CYYG 110500Z 34003KT 1/4SM FG VV001 04/03 A3005 RMK FG8 RVR RWY03 1200 FT SLP176=
CYYG;2005-05-11 06:00;METAR CYYG 110600Z 03005KT 3/8SM FG VV001 04/03 A3004 RMK FG8 RVR RWY 03 1800 FT SLP173=
CYYG;2005-05-11 07:00;METAR CYYG 110700Z 36002KT 1/4SM FG VV001 03/02 A3004 RMK FG8 RVR RWY03 1200 FT SLP172=
CYYG;2005-05-11 07:34;SPECI CYYG 110734Z 34002KT 1/2SM FG VV002 RMK FG8 RVR RWY03 2800 FT=
CYYG;2005-05-11 08:00;METAR CYYG 110800Z 34002KT 5/8SM BR SKC 02/01 A3002 RMK FG7 RVR RWY03 3000 FT SLP167=
CYYG;2005-05-11 08:21;SPECI CYYG 110821Z 31003KT 3/4SM BR SKC RMK FG6 RVR RWY03 4000 FT=
CYYG;2005-05-11 08:37;SPECI CYYG 110837Z 32002KT 1 1/4SM BR SCT030 RMK FG2SC2 VIS NE 1/2=
CYYG;2005-05-11 09:00;METAR CYYG 110900Z 04002KT 1SM BR BKN030 02/01 A3003 RMK FG3SC1 VIS N-NE 3/8 RVR RWY03 5000 FT SLP169=
CYYG;2005-05-11 09:31;SPECI CYYG 110931Z 36002KT 3/4SM BR OVC013 RMK FG5SC2 RVR RWY03 5500 FT=
CYYG;2005-05-11 10:00;METAR CYYG 111000Z 34003KT 3/4SM BR OVC012 03/02 A3002 RMK FG3SC4 VIS NW-NE 1/2 RVR RWY03 P6000 FT SLP168=
CYYG;2005-05-11 10:13;SPECI CYYG 111013Z 33004KT 8SM PRFG OVC011 RMK FG2SC6 FOG BANK N-NE=
CYYG;2005-05-11 11:00;METAR CYYG 111100Z 34003KT 8SM PRFG OVC010 05/05 A3002 RMK FG2SC6 FOG BANK NW-NE SLP168=
CYYG;2005-05-11 12:00;METAR CYYG 111200Z 01005KT 4SM BR SCT002 OVC008 07/07 A3001 RMK SF4SC4 SLP164=
CYYG;2005-05-11 13:00;METAR CYYG 111300Z 35005KT 4SM BR SCT002 OVC006 08/08 A3001 RMK SF4SC4 SLP164=
CYYG;2005-05-11 13:06;SPECI CYYG 111306Z 36003KT 3SM BR OVC003 RMK SF8=
CYYG;2005-05-11 13:27;SPECI CYYG 111327Z 03006KT 15SM OVC006 RMK SF8=
CYYG;2005-05-11 14:00;METAR CYYG 111400Z 02006KT 15SM OVC006 09/08 A3000 RMK SC8 SLP160=
CYYG;2005-05-11 15:00;METAR CYYG 111500Z 03006KT 15SM OVC006 09/08 A2999 RMK SC8 SLP157=
CYYG;2005-05-11 15:35;SPECI CYYG 111535Z 35005KT 15SM BKN010 RMK SC6=
CYYG;2005-05-11 16:00;METAR CYYG 111600Z 33004KT 15SM BKN011 11/09 A2997 RMK SC6 SLP151=
CYYG;2005-05-11 17:00;METAR CYYG 111700Z 04002KT 15SM SCT015 14/10 A2994 RMK SC4 SLP141=
CYYG;2005-05-11 18:00;METAR CYYG 111800Z 31003KT 15SM SCT020 15/11 A2993 RMK SC3 SLP135=
CYYG;2005-05-11 19:00;METAR CYYG 111900Z 32005KT 15SM FEW020 SCT250 16/12 A2990 RMK SC2CI1 SLP128=
CYYG;2005-05-11 20:00;METAR CYYG 112000Z 01008KT 15SM FEW033 SCT250 15/11 A2991 RMK SC2CI2 SLP129=
CYYG;2005-05-11 21:00;METAR CYYG 112100Z 01007KT 15SM SCT035 SCT250 14/10 A2990 RMK SC3CI1 SLP128=
CYYG;2005-05-11 22:00;METAR CYYG 112200Z 03006KT 15SM FEW035 SCT250 12/08 A2989 RMK SC1CI1 SLP123=
CYYG;2005-05-11 23:00;METAR CYYG 112300Z 02004KT 15SM FEW035 BKN250 09/06 A2988 RMK SC1CI2 SLP119=
CYYG;2005-05-12 00:00;METAR CYYG 120000Z 09002KT 15SM BKN250 08/06 A2987 RMK CI2 SLP118=
CYYG;2005-05-12 01:00;METAR CYYG 120100Z 11003KT 15SM BKN250 08/06 A2988 RMK CI2 SLP120=
CYYG;2005-05-12 02:00;METAR CYYG 120200Z 13004KT 15SM BKN250 08/07 A2986 RMK CI2 SLP114=
CYYG;2005-05-12 03:00;METAR CYYG 120300Z 18005KT 15SM SCT250 08/07 A2986 RMK CI2 SLP112=
CYYG;2005-05-12 04:00;METAR CYYG 120400Z 22004KT 15SM SCT250 08/07 A2985 RMK CI2 SLP110=
CYYG;2005-05-12 05:00;METAR CYYG 120500Z 32004KT 15SM SCT250 08/07 A2983 RMK CI2 SLP102=
CYYG;2005-05-12 06:00;METAR CYYG 120600Z 20005KT 15SM SCT250 07/06 A2980 RMK CI2 SLP092=
CYYG;2005-05-12 07:00;METAR CYYG 120700Z 22008KT 15SM SKC 08/07 A2979 RMK SLP088=
CYYG;2005-05-12 08:00;METAR CYYG 120800Z 21008KT 15SM SKC 08/07 A2977 RMK SLP080=
CYYG;2005-05-12 09:00;METAR CYYG 120900Z 22008KT 15SM SCT250 08/06 A2976 RMK CI2 SLP078=
CYYG;2005-05-12 10:00;METAR CYYG 121000Z 22008KT 15SM FEW100 BKN250 08/06 A2977 RMK AC1CI2 SLP080=
CYYG;2005-05-12 11:00;METAR CYYG 121100Z 23009KT 15SM FEW100 BKN250 09/07 A2978 RMK AC2CI2 SLP084=
CYYG;2005-05-12 12:00;METAR CYYG 121200Z 26007KT 15SM BKN012 BKN095 09/06 A2980 RMK SC5AC2 SLP092=
CYYG;2005-05-12 12:56;SPECI CYYG 121256Z 34012G20KT 12SM -SHRA OVC009 RMK SC8=
CYYG;2005-05-12 13:00;METAR CYYG 121300Z 32014G20KT 12SM -SHRA OVC009 08/06 A2982 RMK SC8 SLP101=
CYYG;2005-05-12 13:28;SPECI CYYG 121328Z 32017G22KT 15SM OVC014 RMK SC8=
CYYG;2005-05-12 13:43;SPECI CYYG 121343Z 32013G25KT 15SM OVC020 RMK SC8=
CYYG;2005-05-12 14:00;METAR CYYG 121400Z 32015G25KT 8SM -SHRA OVC015 06/04 A2984 RMK SC8 SLP107=
CYYG;2005-05-12 15:00;METAR CYYG 121500Z 32015G22KT 7SM -SHRA OVC011 05/03 A2987 RMK SC8 SLP116=
CYYG;2005-05-12 16:00;METAR CYYG 121600Z 32014G20KT 12SM -SHRA BKN013 OVC025 04/02 A2990 RMK SC6SC2 SLP125=
CYYG;2005-05-12 16:46;SPECI CYYG 121646Z 32020G25KT 8SM -SHRASN BKN011 OVC020 RMK SC7SC1=
CYYG;2005-05-12 17:00;METAR CYYG 121700Z 33014G24KT 8SM -SHRASN OVC011 02/01 A2992 RMK SC8 SLP133=
CYYG;2005-05-12 17:45;SPECI CYYG 121745Z 33017G24KT 15SM BKN015 BKN064 RMK SC6SC2=
CYYG;2005-05-12 18:00;METAR CYYG 121800Z 32017G27KT 15SM BKN025 BKN064 04/M00 A2992 RMK SC5SC2 SLP134=
CYYG;2005-05-12 19:00;METAR CYYG 121900Z 33020G30KT 15SM SCT025 BKN120 05/M01 A2992 RMK SC3AC2 SLP134=
CYYG;2005-05-12 20:00;METAR CYYG 122000Z 32019G27KT 15SM FEW025 SCT120 06/M02 A2994 RMK SC2AC2 SLP140=
CYYG;2005-05-12 21:00;METAR CYYG 122100Z 33022G33KT 15SM FEW030 FEW120 05/M04 A2996 RMK SC1AC2 SLP146=
CYYG;2005-05-12 22:00;METAR CYYG 122200Z 32022G33KT 15SM FEW020 FEW120 04/M05 A2998 RMK SC1ACC1 LN ACC E-SE SLP153=
CYYG;2005-05-13 01:00;METAR CYYG 130100Z 32021G30KT 15SM FEW020 02/M08 A3004 RMK SC2 SLP174=
CYYG;2005-05-13 02:00;METAR CYYG 130200Z 33020G30KT 15SM FEW020 BKN055 02/M08 A3005 RMK SC1SC6 SLP178=
CYYG;2005-05-13 03:00;METAR CYYG 130300Z 33013G26KT 15SM BKN050 01/M08 A3005 RMK SC7 SLP179=
CYYG;2005-05-13 04:00;METAR CYYG 130400Z 33019G28KT 15SM BKN047 01/M09 A3005 RMK SC6 SLP178=
CYYG;2005-05-13 05:00;METAR CYYG 130500Z 34014G27KT 15SM BKN047 01/M09 A3004 RMK SC7 SLP176=
CYYG;2005-05-13 06:00;METAR CYYG 130600Z 32014G24KT 15SM SCT045 00/M09 A3003 RMK SC3 SLP171=
CYYG;2005-05-13 06:33;SPECI CYYG 130633Z 32016G28KT 15SM -SHSN BKN045 RMK SC6=
CYYG;2005-05-13 07:00;METAR CYYG 130700Z 32015G26KT 15SM -SHSN BKN045 M00/M10 A3002 RMK SC5 SLP167=
CYYG;2005-05-13 07:21;SPECI CYYG 130721Z 32015G22KT 15SM BKN045 RMK SC6=
CYYG;2005-05-13 08:00;METAR CYYG 130800Z 33018G24KT 15SM BKN045 M00/M10 A3001 RMK SC7 SLP166=
CYYG;2005-05-13 08:17;SPECI CYYG 130817Z 33018G25KT 15SM -SHSN BKN050 RMK SC7 CU ASOCTD=
CYYG;2005-05-13 09:00;METAR CYYG 130900Z 32012G22KT 15SM -SHSN BKN050 M01/M09 A3002 RMK SC7 CU ASOCTD SLP168=
CYYG;2005-05-13 10:00;METAR CYYG 131000Z 32014G20KT 15SM -SHSN BKN039 M01/M09 A3003 RMK SC7 SLP170=
CYYG;2005-05-13 11:00;METAR CYYG 131100Z 32016G28KT 15SM -SHSN BKN050 M01/M09 A3003 RMK SC7 SLP170=
CYYG;2005-05-13 12:00;METAR CYYG 131200Z 33020G27KT 15SM -SHSN BKN038 M00/M10 A3002 RMK SC7 SLP167=
CYYG;2005-05-13 13:00;METAR CYYG 131300Z 32017G26KT 15SM -SHSN BKN041 00/M10 A3001 RMK SC7 SLP164=
CYYG;2005-05-13 14:00;METAR CYYG 131400Z 32017G25KT 15SM -SHSN BKN044 01/M09 A3000 RMK SC7 SLP162=
CYYG;2005-05-13 15:00;METAR CYYG 131500Z 32019G28KT 15SM BKN043 01/M09 A2999 RMK SC7 SLP158=
CYYG;2005-05-13 16:00;METAR CYYG 131600Z 31019G29KT 15SM -SHSN BKN052 01/M08 A2996 RMK SC7 SLP148=
CYYG;2005-05-13 16:31;SPECI CYYG 131631Z 32021G31KT 15SM BKN049 RMK SC7=
CYYG;2005-05-13 17:00;METAR CYYG 131700Z 32021G29KT 15SM SCT049 BKN061 02/M09 A2993 RMK SC4SC3 SLP139=
CYYG;2005-05-13 18:00;METAR CYYG 131800Z 34022G31KT 15SM OVC053 02/M10 A2992 RMK SC8 SLP134=
CYYG;2005-05-13 18:27;SPECI CYYG 131827Z 36017G26KT 8SM -SHSN OVC044 RMK SC8=
CYYG;2005-05-13 19:00;METAR CYYG 131900Z 34015G27KT 15SM -SHSN SCT016 OVC044 M00/M04 A2993 RMK SC3SC5 SLP136=
CYYG;2005-05-13 19:36;SPECI CYYG 131936Z 35014G19KT 4SM -SHSN OVC012 RMK SC8=
CYYG;2005-05-13 19:48;SPECI CYYG 131948Z 35012G22KT 1SM -SHSN OVC010 RMK SC8=
CYYG;2005-05-13 20:00;METAR CYYG 132000Z 33014KT 3SM -SHSN OVC012 M01/M04 A2991 RMK SC8 SLP131=
CYYG;2005-05-13 20:52;SPECI CYYG 132052Z 34016G21KT 1 1/2SM -SHSN OVC007 RMK SF8=
CYYG;2005-05-13 21:00;METAR CYYG 132100Z 34013G22KT 2SM -SHSN OVC009 M01/M04 A2991 RMK SF8 SLP131=
CYYG;2005-05-13 21:14;SPECI CYYG 132114Z 32014G21KT 3SM -SHSN SCT009 OVC040 RMK SF4SC4=
CYYG;2005-05-13 22:00;METAR CYYG 132200Z 34012G19KT 15SM VCSH BKN012 BKN040 BKN250 M00/M04 A2990 RMK CU5SC1CI1 SHS SE-W SLP127=
CYYG;2005-05-13 22:20;SPECI CYYG 132220Z 33012G24KT 15SM BKN025 BKN080 RMK CU5AC2=
CYYG;2005-05-13 23:00;METAR CYYG 132300Z 33013G22KT 15SM FEW025 BKN082 01/M05 A2990 RMK CU2AC5 SLP129=
CYYG;2005-05-14 00:00;METAR CYYG 140000Z 33017G22KT 15SM FEW025 OVC080 01/M06 A2990 RMK CU1AC8 VIRGA SLP129=
CYYG;2005-05-14 01:00;METAR CYYG 140100Z 34018G29KT 15SM OVC080 01/M06 A2990 RMK AC8 MOON VISBL SLP129=
CYYG;2005-05-14 02:00;METAR CYYG 140200Z 34018G26KT 15SM BKN035 OVC110 01/M05 A2990 RMK SC6AC2 SLP126=
CYYG;2005-05-14 02:15;SPECI CYYG 140215Z 34018KT 15SM -SHSN OVC030 RMK SC8=
CYYG;2005-05-14 03:00;METAR CYYG 140300Z 33015KT 15SM -SHSN OVC021 01/M04 A2987 RMK SC8 SLP118=
CYYG;2005-05-14 04:00;METAR CYYG 140400Z 34013G27KT 15SM -SHSN BKN025 OVC110 00/M04 A2985 RMK SC6AC2 SLP111=
CYYG;2005-05-14 05:00;METAR CYYG 140500Z 34011G19KT 12SM -SHSN OVC020 00/M03 A2983 RMK SC8 SLP105=
CYYG;2005-05-14 06:00;METAR CYYG 140600Z 34012G18KT 15SM -SHSN OVC020 00/M03 A2982 RMK SC8 SLP101=
CYYG;2005-05-14 06:45;SPECI CYYG 140645Z 34013KT 10SM -SHSN OVC010 RMK SC8=
CYYG;2005-05-14 07:00;METAR CYYG 140700Z 34011G17KT 5SM -SHSN OVC010 M00/M03 A2982 RMK SC8 SLP101=
CYYG;2005-05-14 07:42;SPECI CYYG 140742Z 33012G19KT 1/2SM SHSN VV005 RMK SN8=
CYYG;2005-05-14 07:48;SPECI CYYG 140748Z 33016G21KT 1 1/2SM -SHSN OVC008 RESN RMK SN2SC6=
CYYG;2005-05-14 08:00;METAR CYYG 140800Z 34014KT 12SM -SHSN BKN008 OVC040 M00/M02 A2983 RESN RMK SC6SC2 SLP105=
CYYG;2005-05-14 08:23;SPECI CYYG 140823Z 35011G17KT 15SM -SHSN FEW008 OVC040 RMK SC1SC7=
CYYG;2005-05-14 09:00;METAR CYYG 140900Z 33012G18KT 15SM BKN020 OVC040 01/M03 A2985 RMK SC6SC2 SLP111=
CYYG;2005-05-14 10:00;METAR CYYG 141000Z 35011G18KT 15SM -SHSN OVC026 01/M03 A2986 RMK SC8 SLP114=
CYYG;2005-05-14 11:00;METAR CYYG 141100Z 34012G19KT 15SM -SHSN OVC023 02/M03 A2988 RMK SC8 SLP122=
CYYG;2005-05-14 11:23;SPECI CYYG 141123Z 35011G17KT 15SM OVC024 RMK SC8=
CYYG;2005-05-14 12:00;METAR CYYG 141200Z 35016G21KT 15SM OVC026 02/M04 A2989 RMK SC8 SLP124=
CYYG;2005-05-14 13:00;METAR CYYG 141300Z 36018G25KT 15SM OVC022 02/M03 A2989 RMK SC8 SLP125=
CYYG;2005-05-14 14:00;METAR CYYG 141400Z 35014G22KT 15SM OVC022 03/M02 A2990 RMK SC8 SLP128=
CYYG;2005-05-14 15:00;METAR CYYG 141500Z 36016G27KT 15SM OVC021 04/M02 A2990 RMK SC8 SLP128=
CYYG;2005-05-14 16:00;METAR CYYG 141600Z 34014G20KT 15SM OVC020 04/M01 A2989 RMK SC8 SLP124=
CYYG;2005-05-14 17:00;METAR CYYG 141700Z 33017KT 15SM BKN021 05/M00 A2987 RMK SC6 SLP116=
CYYG;2005-05-14 18:00;METAR CYYG 141800Z 34016G24KT 15SM SCT020 BKN250 05/M01 A2986 RMK SC3CI1 SLP115=
CYYG;2005-05-14 19:00;METAR CYYG 141900Z 34014G20KT 15SM FEW020 SCT087 BKN250 05/M01 A2988 RMK SC2AC2CI2 SLP120=
CYYG;2005-05-14 20:00;METAR CYYG 142000Z 34012G18KT 15SM FEW030 BKN090 BKN250 05/M01 A2987 RMK SC2AC4CI1 SLP119=
CYYG;2005-05-14 21:00;METAR CYYG 142100Z 34012G20KT 15SM FEW035 BKN085 06/M01 A2987 RMK SC2AC5 SLP116=
CYYG;2005-05-14 22:00;METAR CYYG 142200Z 34011G17KT 15SM BKN027 06/M01 A2987 RMK SC7 SLP116=
CYYG;2005-05-14 23:00;METAR CYYG 142300Z 34011G19KT 15SM BKN023 05/M01 A2986 RMK SC7 SLP114=
CYYG;2005-05-15 00:00;METAR CYYG 150000Z 34014G19KT 15SM OVC015 06/M01 A2985 RMK SC8 SLP109=
CYYG;2005-05-15 01:00;METAR CYYG 150100Z 35012G24KT 15SM OVC012 05/01 A2984 RMK SC8 SLP107=
CYYG;2005-05-15 02:00;METAR CYYG 150200Z 35011G17KT 15SM OVC008 04/02 A2985 RMK SF8 SLP109=
CYYG;2005-05-15 03:00;METAR CYYG 150300Z 35011G19KT 10SM OVC005 04/03 A2983 RMK SF8 SLP104=
CYYG;2005-05-15 03:15;SPECI CYYG 150315Z 35010G19KT 4SM BR OVC003 RMK SF8=
CYYG;2005-05-15 04:00;METAR CYYG 150400Z 36012G18KT 2SM BR BKN002 OVC004 04/02 A2983 RMK SF6SF2 SLP104=
CYYG;2005-05-15 05:00;METAR CYYG 150500Z 35008G17KT 1SM -DZ BR OVC002 03/02 A2985 RMK SF8 SLP109=
CYYG;2005-05-15 06:00;METAR CYYG 150600Z 35010KT 1SM -DZ BR OVC002 04/03 A2985 RMK SF8 SLP110=
CYYG;2005-05-15 07:00;METAR CYYG 150700Z 35008KT 3/4SM -DZ BR OVC002 04/03 A2988 RMK SF8 SLP120=
CYYG;2005-05-15 08:00;METAR CYYG 150800Z 36008KT 3/4SM -DZ BR OVC001 03/02 A2989 RMK SF8 RVR RWY 03 4000FT SLP124=
CYYG;2005-05-15 09:00;METAR CYYG 150900Z 35007KT 1SM BR OVC003 03/02 A2992 RMK SF8 SLP134=
CYYG;2005-05-15 10:00;METAR CYYG 151000Z 36006KT 1 1/2SM BR BKN003 OVC022 03/02 A2995 RMK SF6SC2 SLP143=
CYYG;2005-05-15 11:00;METAR CYYG 151100Z 01006KT 2SM BR OVC004 04/03 A2998 RMK SF8 SLP152=
CYYG;2005-05-15 11:35;SPECI CYYG 151135Z 04007KT 2 1/2SM BR OVC005 RMK SF8=
CYYG;2005-05-15 12:00;METAR CYYG 151200Z 03005KT 3SM BR BKN006 OVC022 05/04 A2998 RMK SF6SC2 SLP152=
CYYG;2005-05-15 12:50;SPECI CYYG 151250Z 04004KT 5SM BR SCT006 BKN025 RMK SF3SC4=
CYYG;2005-05-15 13:00;METAR CYYG 151300Z 07006KT 8SM FEW006 BKN024 07/05 A2999 RMK SF2SC6 SLP156=
CYYG;2005-05-15 14:00;METAR CYYG 151400Z 04004KT 12SM FEW015 BKN025 09/05 A2999 RMK SC2SC6 SLP156=
CYYG;2005-05-15 15:00;METAR CYYG 151500Z 06007KT 15SM OVC022 09/05 A2998 RMK SC8 SLP154=
CYYG;2005-05-15 16:00;METAR CYYG 151600Z 06004KT 15SM OVC022 10/05 A2999 RMK SC8 SLP158=
CYYG;2005-05-15 17:00;METAR CYYG 151700Z 03007KT 15SM OVC021 10/05 A2999 RMK SC8 SLP158=
CYYG;2005-05-15 18:00;METAR CYYG 151800Z 03008KT 15SM OVC021 09/04 A3000 RMK SC8 SLP159=
CYYG;2005-05-15 20:00;METAR CYYG 152000Z 04010KT 15SM OVC030 09/03 A3000 RMK SC8 SLP160=
CYYG;2005-05-15 21:00;METAR CYYG 152100Z 05009KT 15SM OVC030 08/03 A3000 RMK SC8 SLP161=
CYYG;2005-05-15 22:00;METAR CYYG 152200Z 02008KT 15SM OVC030 07/03 A3002 RMK SC8 SLP166=
CYYG;2005-05-15 23:00;METAR CYYG 152300Z 04005KT 15SM BKN030 OVC120 06/03 A3002 RMK SC6AC1 SLP166=
CYYG;2005-05-16 00:00;METAR CYYG 160000Z 03006KT 15SM SCT030 BKN180 04/02 A3001 RMK SC3AC2 SLP165=
CYYG;2005-05-16 01:00;METAR CYYG 160100Z 07007KT 15SM FEW030 BKN180 05/02 A3002 RMK SC2AC2 SLP169=
CYYG;2005-05-16 02:00;METAR CYYG 160200Z 06005KT 15SM FEW030 SCT180 04/01 A3002 RMK SC2AC2 SLP168=
CYYG;2005-05-16 03:00;METAR CYYG 160300Z 07005KT 15SM BKN150 04/01 A3002 RMK AC2 SLP167=
CYYG;2005-05-16 04:00;METAR CYYG 160400Z 05003KT 15SM BKN150 03/01 A3002 RMK AC3 SLP167=
CYYG;2005-05-16 05:00;METAR CYYG 160500Z 09002KT 15SM BKN150 03/01 A3002 RMK AC3 SLP166=
CYYG;2005-05-16 06:00;METAR CYYG 160600Z 02003KT 15SM SCT150 02/00 A3001 RMK AC2 SLP165=
CYYG;2005-05-16 07:00;METAR CYYG 160700Z 02004KT 15SM SCT150 02/00 A3000 RMK AC2 SLP161=
CYYG;2005-05-16 08:00;METAR CYYG 160800Z 02003KT 15SM SCT150 BKN210 02/01 A3001 RMK AC2CI2 SLP162=
CYYG;2005-05-16 08:33;SPECI CYYG 160833Z 04007KT 1SM BR FEW001 OVC004 RMK SF2SF2 APT IN SHALLOW FOG BANK=
CYYG;2005-05-16 08:38;SPECI CYYG 160838Z 05007KT 1/2SM FG VV001 RMK FG8 RVR RWY 03 2600FT=
CYYG;2005-05-16 08:54;SPECI CYYG 160854Z 04007KT 1/4SM FG VV001 RMK FG8 RVR RWY 03 2000FT=
CYYG;2005-05-16 09:00;METAR CYYG 160900Z 04006KT 1/4SM FG VV001 03/02 A3000 RMK FG8 RVR RWY 03 2000FT SLP161=
CYYG;2005-05-16 10:00;METAR CYYG 161000Z 04003KT 1/2SM FG VV002 02/01 A3001 RMK FG8 RVR RWY03 3500 FT SLP163=
CYYG;2005-05-16 10:35;SPECI CYYG 161035Z 02005KT 1SM BR OVC003 RMK SF8=
CYYG;2005-05-16 11:00;METAR CYYG 161100Z 04007KT 1SM BR OVC003 03/02 A3002 RMK SF8 SLP167=
CYYG;2005-05-16 11:38;SPECI CYYG 161138Z 04007KT 2SM BR OVC003 RMK SF8=
CYYG;2005-05-16 11:46;SPECI CYYG 161146Z 04007KT 4SM BR OVC003 RMK SF8=
CYYG;2005-05-16 12:00;METAR CYYG 161200Z 05008KT 10SM OVC003 03/02 A3001 RMK SF8 SLP166=
CYYG;2005-05-16 12:50;SPECI CYYG 161250Z 04007KT 15SM BKN004 OVC100 RMK SF6AC2=
CYYG;2005-05-16 13:00;METAR CYYG 161300Z 03006KT 15SM BKN005 OVC100 05/03 A3001 RMK SF6AC2 SLP164=
CYYG;2005-05-16 14:00;METAR CYYG 161400Z 02004KT 15SM SCT005 OVC096 06/03 A3001 RMK SF4AC4 SLP165=
CYYG;2005-05-16 15:00;METAR CYYG 161500Z 02005KT 15SM FEW005 OVC096 07/04 A3000 RMK SF2AC6 SLP161=
CYYG;2005-05-16 16:00;METAR CYYG 161600Z 02005KT 15SM FEW005 OVC087 08/04 A2999 RMK SF1AC7 SLP158=
CYYG;2005-05-16 17:00;METAR CYYG 161700Z 01003KT 15SM OVC081 08/05 A2999 RMK AC8 SLP156=
CYYG;2005-05-16 19:00;METAR CYYG 161900Z 02008KT 15SM OVC068 06/03 A2995 RMK AC8 SLP143=
CYYG;2005-05-16 20:00;METAR CYYG 162000Z 36007KT 15SM OVC063 05/03 A2996 RMK SC8 SLP148=
CYYG;2005-05-16 21:00;METAR CYYG 162100Z 02007KT 12SM -SHRA OVC055 04/03 A2995 RMK SC8 SLP143=
CYYG;2005-05-16 22:00;METAR CYYG 162200Z 00000KT 4SM -SHRA BR OVC055 04/04 A2996 RMK SC8 SLP147=
CYYG;2005-05-16 23:00;METAR CYYG 162300Z 01004KT 6SM -SHRA BR OVC053 04/04 A2997 RMK SC8 SLP152=
CYYG;2005-05-17 00:00;METAR CYYG 170000Z 00000KT 5SM -SHRA BR FEW006 OVC030 04/03 A2998 RMK SF2SC6 SLP154=
CYYG;2005-05-17 00:09;SPECI CYYG 170009Z 00000KT 4SM -SHRA BR BKN005 OVC030 RMK SF6SC2=
CYYG;2005-05-17 01:00;METAR CYYG 170100Z 01002KT 7SM -SHRA BKN009 OVC042 04/04 A2998 RMK SF5SC3 SLP154=
CYYG;2005-05-17 02:00;METAR CYYG 170200Z 36003KT 7SM -SHRA SCT009 OVC039 04/04 A2997 RMK SF4SC4 SLP150=
CYYG;2005-05-17 03:00;METAR CYYG 170300Z 34004KT 5SM -SHRA BR BKN009 OVC035 04/03 A2997 RMK SF6SC2 SLP149=
CYYG;2005-05-17 03:24;SPECI CYYG 170324Z 35003KT 5SM -SHRA BR OVC004 RMK SF8=
CYYG;2005-05-17 04:00;METAR CYYG 170400Z 35004KT 4SM -SHRA BR OVC004 04/04 A2996 RMK SF8 SLP147=
CYYG;2005-05-17 06:00;METAR CYYG 170600Z 36005KT 6SM -SHRA BR OVC004 04/03 A2996 RMK SC8 SLP148=
CYYG;2005-05-17 07:00;METAR CYYG 170700Z 35004KT 5SM -SHRA BR OVC005 04/03 A2998 RMK SC8 SLP152=
CYYG;2005-05-17 08:00;METAR CYYG 170800Z 36003KT 5SM -SHRA BR OVC008 04/03 A2998 RMK SF8 SLP153=
CYYG;2005-05-17 08:26;SPECI CYYG 170826Z 34004KT 5SM -DZ BR OVC010 RMK SF8=
CYYG;2005-05-17 08:54;SPECI CYYG 170854Z 34004KT 3SM -DZ BR OVC002 RMK SF8=
CYYG;2005-05-17 09:00;METAR CYYG 170900Z 34005KT 2 1/2SM -DZ BR OVC003 04/03 A3000 RMK SF8 SLP161=
CYYG;2005-05-17 10:00;METAR CYYG 171000Z 34006KT 2 1/2SM -DZ BR BKN003 OVC019 04/03 A3001 RMK SF7SC1 SLP166=
CYYG;2005-05-17 11:00;METAR CYYG 171100Z 36006KT 2 1/2SM -DZ BR OVC003 05/04 A3003 RMK ST8 SLP172=
CYYG;2005-05-17 12:00;METAR CYYG 171200Z 36005KT 4SM -DZ BR OVC002 05/04 A3004 RMK ST8 SLP176=
CYYG;2005-05-17 12:23;SPECI CYYG 171223Z 01005KT 6SM -DZ BR OVC003 RMK ST8=
CYYG;2005-05-17 12:40;SPECI CYYG 171240Z 03006KT 12SM BKN004 OVC024 RMK SF7SC1=
CYYG;2005-05-17 13:00;METAR CYYG 171300Z 36005KT 15SM OVC005 06/05 A3005 RMK SF8 SLP178=
CYYG;2005-05-17 14:00;METAR CYYG 171400Z 36006KT 15SM OVC005 07/05 A3005 RMK SF8 SLP179=
CYYG;2005-05-17 15:00;METAR CYYG 171500Z 34002KT 15SM OVC005 07/05 A3006 RMK SF8 SLP182=
CYYG;2005-05-17 15:17;SPECI CYYG 171517Z 36005KT 15SM OVC006 RMK SF8=
CYYG;2005-05-17 16:00;METAR CYYG 171600Z 36006KT 15SM OVC006 07/05 A3006 RMK SF8 SLP182=
CYYG;2005-05-17 17:00;METAR CYYG 171700Z 36007KT 15SM OVC007 08/06 A3006 RMK SC8 SLP183=
CYYG;2005-05-17 17:30;SPECI CYYG 171730Z 03005KT 15SM BKN008 OVC024 RMK SC7SC1=
CYYG;2005-05-17 18:00;METAR CYYG 171800Z 01005KT 15SM BKN011 OVC040 09/06 A3006 RMK SC7SC1 SLP182=
CYYG;2005-05-17 19:00;METAR CYYG 171900Z 02007KT 15SM BKN013 OVC040 09/06 A3006 RMK SC6SC2 SLP181=
CYYG;2005-05-17 19:23;SPECI CYYG 171923Z 02008KT 15SM SCT013 OVC033 RMK SC3SC5=
CYYG;2005-05-17 20:00;METAR CYYG 172000Z 36006KT 15SM FEW015 OVC037 09/05 A3006 RMK SC2SC6 SLP182=
CYYG;2005-05-17 21:00;METAR CYYG 172100Z 01005KT 15SM BKN022 OVC035 09/05 A3007 RMK SC5SC3 SLP185=
CYYG;2005-05-17 22:00;METAR CYYG 172200Z 35004KT 15SM BKN034 07/04 A3009 RMK SC7 SLP191=
CYYG;2005-05-17 23:00;METAR CYYG 172300Z 02004KT 15SM BKN036 07/04 A3010 RMK SC7 SLP194=
CYYG;2005-05-18 00:00;METAR CYYG 180000Z 02005KT 15SM BKN036 05/03 A3012 RMK SC6 SLP200=
CYYG;2005-05-18 01:00;METAR CYYG 180100Z 02002KT 15SM SCT035 04/03 A3012 RMK SC4 SLP202=
CYYG;2005-05-18 02:00;METAR CYYG 180200Z 00000KT 15SM SCT035 04/03 A3012 RMK SC3 SLP201=
CYYG;2005-05-18 04:00;METAR CYYG 180400Z 00000KT 15SM SCT035 03/01 A3011 RMK SC3 SLP198=
CYYG;2005-05-18 05:00;METAR CYYG 180500Z 00000KT 15SM FEW035 03/01 A3011 RMK SC2 SLP198=
CYYG;2005-05-18 06:00;METAR CYYG 180600Z 05004KT 15SM FEW035 01/M00 A3011 RMK SC2 SLP199=
CYYG;2005-05-18 07:00;METAR CYYG 180700Z 00000KT 15SM FEW035 02/M01 A3011 RMK SC2 SLP198=
CYYG;2005-05-18 08:00;METAR CYYG 180800Z 21002KT 15SM FEW035 02/01 A3011 RMK SC2 SLP198=
CYYG;2005-05-18 09:00;METAR CYYG 180900Z 00000KT 15SM MIFG BKN037 01/M01 A3012 RMK SC5 F BNK OVR CITY SLP202=
CYYG;2005-05-18 10:00;METAR CYYG 181000Z 00000KT 15SM MIFG BKN037 03/02 A3013 RMK SC6 SLP204=
CYYG;2005-05-18 10:27;SPECI CYYG 181027Z 00000KT 10SM MIFG FEW002 BKN037 RMK SF2SC5=
CYYG;2005-05-18 11:00;METAR CYYG 181100Z 00000KT 10SM FEW002 BKN040 05/04 A3014 RMK SF1SC6 SLP208=
CYYG;2005-05-18 12:00;METAR CYYG 181200Z 30002KT 12SM FEW003 BKN042 08/06 A3014 RMK SF1SC5 SLP209=
CYYG;2005-05-18 13:00;METAR CYYG 181300Z 16004KT 15SM SCT015 BKN045 10/06 A3014 RMK CU3SC4 F BNK S SLP210=
CYYG;2005-05-18 14:00;METAR CYYG 181400Z 18004KT 15SM SCT015 BKN045 BKN095 10/07 A3014 RMK CU3SC2AC2 SLP210=
CYYG;2005-05-18 15:00;METAR CYYG 181500Z 24003KT 15SM FEW020 BKN045 BKN100 12/08 A3014 RMK CU2SC3AC2 SLP207=
CYYG;2005-05-18 16:00;METAR CYYG 181600Z 06005KT 15SM SCT025 BKN045 BKN100 12/07 A3012 RMK CU3SC2AC1 SLP203=
CYYG;2005-05-18 17:00;METAR CYYG 181700Z 05007KT 15SM BKN026 BKN045 BKN100 13/07 A3011 RMK CU5SC1AC1 SLP197=
CYYG;2005-05-18 18:00;METAR CYYG 181800Z 36006KT 15SM BKN029 BKN045 BKN100 BKN280 13/06 A3010 RMK CU5SC1AC1CI0 SLP193=
CYYG;2005-05-18 19:00;METAR CYYG 181900Z 05008KT 15SM FEW030 SCT045 SCT100 BKN280 14/06 A3009 RMK CU2SC1AC1CI1 SLP190=
CYYG;2005-05-18 20:00;METAR CYYG 182000Z 03009KT 15SM FEW030 BKN043 BKN100 BKN280 12/05 A3009 RMK CU2SC4AC1CI0 SLP191=
CYYG;2005-05-18 21:00;METAR CYYG 182100Z 04009KT 15SM FEW030 FEW100 BKN280 11/05 A3009 RMK CU1AC2CI0 SLP190=
CYYG;2005-05-18 21:27;SPECI CYYG 182127Z 02010KT 15SM FEW003 FEW030 FEW100 BKN280 RMK SF1SC1AC2CI0 F BNK NW-NE=
CYYG;2005-05-18 22:00;METAR CYYG 182200Z 36007KT 15SM FEW030 BKN100 BKN280 08/05 A3009 RMK SC1AC4CI1 F BNK NW-NE SLP192=
CYYG;2005-05-18 22:33;SPECI CYYG 182233Z 02008KT 15SM VCFG FEW003 SCT030 BKN100 RMK SF1SC3AC3 VIS NW-NE 2F=
CYYG;2005-05-18 22:43;SPECI CYYG 182243Z 02008KT 15SM VCFG SCT002 BKN030 RMK SF4SC3 VIS NW-E 2F=
CYYG;2005-05-18 23:00;METAR CYYG 182300Z 02008KT 2SM BR OVC002 05/04 A3010 RMK SF8 VIS S 10 SLP196=
CYYG;2005-05-18 23:46;SPECI CYYG 182346Z 02005KT 1 1/2SM BR OVC002 RMK SF8=
CYYG;2005-05-19 00:00;METAR CYYG 190000Z 36004KT 1/2SM FG VV001 04/03 A3011 RMK FG8 RVR RWY03 2200FT SLP197=
CYYG;2005-05-19 01:00;METAR CYYG 190100Z 36003KT 1/2SM FG VV001 04/03 A3012 RMK FG8 RVR RWY03 2000FT SLP201=
CYYG;2005-05-19 02:00;METAR CYYG 190200Z 04005KT 1/2SM FG VV001 04/03 A3011 RMK FG8 RVR RWY03 2200FT SLP199=
CYYG;2005-05-19 03:00;METAR CYYG 190300Z 35003KT 1/4SM FG VV001 04/03 A3010 RMK FG8 RVR RWY03 1600FT SLP194=
CYYG;2005-05-19 03:33;SPECI CYYG 190333Z 36004KT 1/2SM FG VV001 RMK FG8 RVR RWY03 2600FT=
CYYG;2005-05-19 04:00;METAR CYYG 190400Z 01005KT 1/2SM FG VV001 04/03 A3009 RMK FG8 RVR RWY03 3000FT SLP192=
CYYG;2005-05-19 05:00;METAR CYYG 190500Z 03006KT 1/2SM FG VV001 04/03 A3008 RMK FG8 RVR RWY03 2200FT SLP188=
CYYG;2005-05-19 06:00;METAR CYYG 190600Z 36004KT 1/2SM FG VV001 04/03 A3008 RMK FG8 SLP186=
CYYG;2005-05-19 07:00;METAR CYYG 190700Z 01005KT 1/4SM FG VV001 04/02 A3008 RMK FG8 RVR RWY03 1400FT SLP186=
CYYG;2005-05-19 08:00;METAR CYYG 190800Z 36004KT 1/4SM FG VV001 04/03 A3008 RMK FG8 RVR RWY03 1600FT SLP188=
CYYG;2005-05-19 09:00;METAR CYYG 190900Z 02009KT 1/4SM FG VV001 04/02 A3008 RMK FG8 RVR RWY03 1200FT SLP187=
CYYG;2005-05-19 10:00;METAR CYYG 191000Z 03007KT 1/4SM FG VV001 04/03 A3009 RMK FG8 RVR RWY 03 26OOFT SLP190=
CYYG;2005-05-19 11:00;METAR CYYG 191100Z 02006KT 1/4SM FG VV001 05/04 A3009 RMK FG8 RVR RWY 03 1400FT SLP189=
CYYG;2005-05-19 11:17;SPECI CYYG 191117Z 01007KT 1/2SM FG OVC002 RMK SF8 RVR RWY03 4000FT=
CYYG;2005-05-19 12:00;METAR CYYG 191200Z 01006KT 1/2SM FG OVC001 05/04 A3009 RMK SF8 SLP193=
CYYG;2005-05-19 12:19;SPECI CYYG 191219Z 02007KT 4SM BR OVC002 RMK SF8=
CYYG;2005-05-19 12:48;SPECI CYYG 191248Z 36005KT 8SM OVC004 RMK SF8 VIS 4F NE-NW=
CYYG;2005-05-19 13:00;METAR CYYG 191300Z 02008KT 8SM OVC004 07/06 A3009 RMK SF8 SLP190=
CYYG;2005-05-19 14:00;METAR CYYG 191400Z 01009KT 10SM OVC005 06/05 A3008 RMK SF8 SLP189=
CYYG;2005-05-19 15:00;METAR CYYG 191500Z 36009KT 10SM OVC004 06/05 A3007 RMK SF8 VIS NE-NW 4F SLP185=
CYYG;2005-05-19 16:00;METAR CYYG 191600Z 36010KT 8SM OVC004 06/05 A3006 RMK SF8 SLP182=
CYYG;2005-05-19 17:00;METAR CYYG 191700Z 35010KT 8SM BKN003 OVC030 07/06 A3004 RMK SF6SC2 SLP176=
CYYG;2005-05-19 17:24;SPECI CYYG 191724Z 36008KT 8SM -SHRA BKN004 OVC030 RMK SF6SC2=
CYYG;2005-05-19 18:00;METAR CYYG 191800Z 01010KT 15SM OVC006 08/06 A3003 RMK SF8 SLP169=
CYYG;2005-05-19 19:00;METAR CYYG 191900Z 36010KT 4SM -DZ BR OVC003 07/05 A3001 RMK SF8 SLP162=
CYYG;2005-05-19 20:00;METAR CYYG 192000Z 02009KT 10SM BKN006 OVC093 08/06 A3000 RMK SF5AC3 SLP159=
CYYG;2005-05-19 21:00;METAR CYYG 192100Z 03011KT 15SM SCT006 OVC070 06/04 A2999 RMK SF3AC5 SLP158=
CYYG;2005-05-19 21:48;SPECI CYYG 192148Z 02011KT 15SM BKN006 OVC070 RMK SF6AC2=
CYYG;2005-05-19 22:00;METAR CYYG 192200Z 02013KT 15SM OVC007 OVC075 06/04 A2997 RMK SF6AC2 SLP151=
CYYG;2005-05-19 22:49;SPECI CYYG 192249Z 03012G19KT 6SM BR BKN005 BKN016 OVC075 RMK SF6SC2AC1=
CYYG;2005-05-19 23:00;METAR CYYG 192300Z 03015KT 5SM BR BKN005 OVC016 05/04 A2998 RMK SF6SC2 SLP153=
CYYG;2005-05-19 23:23;SPECI CYYG 192323Z 02015KT 3SM -DZ BR OVC005 RMK SF8=
CYYG;2005-05-20 00:00;METAR CYYG 200000Z 01016KT 3SM -DZ BR OVC004 05/03 A2997 RMK SF8 SLP149=
CYYG;2005-05-20 00:38;SPECI CYYG 200038Z 01011G19KT 3SM -RA BR OVC003 RMK SF8=
CYYG;2005-05-20 01:00;METAR CYYG 200100Z 01011G17KT 4SM -RA BR OVC003 04/03 A2996 RMK SF8 SLP147=
CYYG;2005-05-20 02:00;METAR CYYG 200200Z 36010G17KT 8SM -RA OVC003 04/03 A2994 RMK SF8 SLP139=
CYYG;2005-05-20 03:00;METAR CYYG 200300Z 36010G18KT 8SM -RA OVC003 04/03 A2991 RMK SF8 SLP129=
CYYG;2005-05-20 04:00;METAR CYYG 200400Z 36013KT 8SM -RA OVC003 05/04 A2988 RMK SF8 SLP121=
CYYG;2005-05-20 05:00;METAR CYYG 200500Z 35011G20KT 10SM -RA OVC003 04/03 A2986 RMK SF8 SLP112=
CYYG;2005-05-20 06:00;METAR CYYG 200600Z 35013G19KT 10SM -RA OVC003 04/03 A2984 RERA RMK SF8 SLP106=
CYYG;2005-05-20 08:00;METAR CYYG 200800Z 35010G18KT 6SM -RA BR OVC004 03/03 A2979 RMK SF8 SLP091=
CYYG;2005-05-20 10:00;METAR CYYG 201000Z 35013G21KT 3SM -RA BR OVC004 04/03 A2977 RMK SF8 SLP082=
CYYG;2005-05-20 11:41;SPECI CYYG 201141Z 36014G22KT 1SM -RA BR OVC003 RMK SF8=
CYYG;2005-05-20 12:00;METAR CYYG 201200Z 36011G18KT 1SM -RA BR OVC003 04/04 A2977 RMK SF8 SLP082=
CYYG;2005-05-20 13:00;METAR CYYG 201300Z 36016G22KT 3/4SM -SHRA BR OVC002 04/04 A2977 RMK SF8 RVR RWY03 6000FT SLP081=
CYYG;2005-05-20 14:00;METAR CYYG 201400Z 36012G17KT 3/4SM -SHRA BR OVC002 04/04 A2977 RMK SF8 SLP084=
CYYG;2005-05-20 15:00;METAR CYYG 201500Z 36011G16KT 3/4SM -SHRA BR OVC002 05/05 A2978 RMK SF8 RVR RWY 03 5500FT SLP085=
CYYG;2005-05-20 16:00;METAR CYYG 201600Z 35013KT 1SM -SHRA BR OVC003 05/05 A2979 RMK SF8 SLP088=
CYYG;2005-05-20 17:00;METAR CYYG 201700Z 36013G18KT 1SM -RA BR OVC003 04/04 A2979 RMK SF8 SLP090=
CYYG;2005-05-20 18:00;METAR CYYG 201800Z 34012G17KT 1 1/2SM -RA BR OVC003 05/05 A2979 RMK SF8 SLP091=
CYYG;2005-05-20 19:00;METAR CYYG 201900Z 33011G17KT 1 1/2SM -DZ BR OVC003 05/05 A2980 RMK SF8 SLP093=
CYYG;2005-05-20 20:00;METAR CYYG 202000Z 34013G18KT 1SM -DZ BR OVC003 04/04 A2982 RMK SF8 SLP099=
CYYG;2005-05-20 21:00;METAR CYYG 202100Z 33011G16KT 2SM -DZ BR OVC005 04/04 A2985 RMK SF8 SLP108=
CYYG;2005-05-20 22:00;METAR CYYG 202200Z 34011KT 2SM -DZ BR OVC004 04/04 A2985 RMK SF8 SLP108=
CYYG;2005-05-20 22:48;SPECI CYYG 202248Z 32010KT 1SM -DZ BR OVC003 RMK SF8=
CYYG;2005-05-20 23:00;METAR CYYG 202300Z 32010KT 1/2SM -DZ FG OVC002 04/04 A2985 RMK SF8 RVR RWY03 3000 FT SLP111=
CYYG;2005-05-21 00:00;METAR CYYG 210000Z 32013KT 1/2SM FG OVC002 03/03 A2986 RMK SF8 RVR RWY03 3000 FT SLP113=
CYYG;2005-05-21 01:00;METAR CYYG 210100Z 33011KT 3/8SM -DZ FG VV002 03/03 A2987 RMK FG8 RVR RWY03 2800 FT SLP116=
CYYG;2005-05-21 02:00;METAR CYYG 210200Z 31010KT 3/8SM -DZ FG VV002 03/03 A2987 RMK FG8 RVR RWY03 2800 FT SLP117=
CYYG;2005-05-21 02:22;SPECI CYYG 210222Z 32008KT 3/4SM -DZ BR OVC003 RMK SF8 RVR RWY03 4500 FT=
CYYG;2005-05-21 02:31;SPECI CYYG 210231Z 31010KT 1SM -DZ BR OVC003 RMK SF8 RVR RWY03 P6000 FT=
CYYG;2005-05-21 02:49;SPECI CYYG 210249Z 32008KT 1 1/2SM -DZ BR OVC003 RMK SF8=
CYYG;2005-05-21 03:00;METAR CYYG 210300Z 31009KT 2 1/2SM -DZ BR OVC004 03/03 A2987 RMK SF8 SLP118=
CYYG;2005-05-21 03:41;SPECI CYYG 210341Z 32006KT 10SM OVC005 RMK SF8=
CYYG;2005-05-21 04:00;METAR CYYG 210400Z 32006KT 10SM OVC005 03/03 A2987 RMK SF8 SLP116=
CYYG;2005-05-21 05:00;METAR CYYG 210500Z 33008KT 3SM BR OVC004 03/03 A2986 RMK SF8 SLP114=
CYYG;2005-05-21 06:00;METAR CYYG 210600Z 33008KT 2SM BR OVC003 03/03 A2987 RMK SF8 SLP117=
CYYG;2005-05-21 06:16;SPECI CYYG 210616Z 33007KT 3/4SM BR VV002 RMK FG8 RVR RWY03 4500 FT=
CYYG;2005-05-21 07:32;SPECI CYYG 210732Z 32005KT 1/2SM FG VV002 RMK FG8 RVR RWY03 2800 FT=
CYYG;2005-05-21 08:34;SPECI CYYG 210834Z 34005KT 1/4SM FG VV001 RMK FG8 RVR RWY03 1600 FT=
CYYG;2005-05-21 09:00;METAR CYYG 210900Z 34005KT 1/4SM FG VV001 04/03 A2992 RMK FG8 RVR RWY03 1400 FT SLP132=
CYYG;2005-05-21 09:48;SPECI CYYG 210948Z 35004KT 3/8SM -DZ FG VV002 RMK FG8 RVR RWY03 2000 FT=
CYYG;2005-05-21 11:19;SPECI CYYG 211119Z 36005KT 6SM BR OVC004 RMK SF8=
CYYG;2005-05-21 11:49;SPECI CYYG 211149Z 02007KT 2SM BR OVC002 RMK SF8=
CYYG;2005-05-21 13:46;SPECI CYYG 211346Z 03006KT 10SM OVC008 RMK SF8=
CYYG;2005-05-21 15:00;METAR CYYG 211500Z 02008KT 6SM BR OVC007 08/08 A3003 RMK SF8 VIS 2F NE-NW SLP171=
CYYG;2005-05-21 16:00;METAR CYYG 211600Z 36010KT 8SM OVC007 A3004 RMK SF8 SLP175=
CYYG;2005-05-21 17:00;METAR CYYG 211700Z 04009KT 8SM OVC008 08/07 A3006 RMK SF8 SLP179=
CYYG;2005-05-21 18:00;METAR CYYG 211800Z 04008KT 10SM OVC009 08/07 A3006 RMK SF8 SLP183=
CYYG;2005-05-21 19:00;METAR CYYG 211900Z 04007KT 15SM OVC013 09/07 A3008 RMK SC8 SLP187=
CYYG;2005-05-21 20:00;METAR CYYG 212000Z 01008KT 15SM FEW008 OVC018 08/07 A3009 RMK SF2SC6 SLP190=
CYYG;2005-05-21 21:00;METAR CYYG 212100Z 02012KT 8SM FEW008 OVC019 06/06 A3009 RMK SF2SC6 SLP193=
CYYG;2005-05-21 22:00;METAR CYYG 212200Z 03012KT 12SM FEW008 SCT020 OVC046 06/05 A3010 RMK SF1SC3SC4 SLP195=
CYYG;2005-05-21 23:00;METAR CYYG 212300Z 04014KT 12SM FEW008 SCT046 OVC200 05/05 A3009 RMK SF1SC3CI4 SLP193=
CYYG;2005-05-22 00:00;METAR CYYG 220000Z 03012KT 10SM FEW008 SCT045 BKN200 04/04 A3012 RMK SF1SC2CI4 SLP201=
CYYG;2005-05-22 00:26;SPECI CYYG 220026Z 02011KT 10SM FEW002 SCT045 BKN200 RMK SF2SC2CI3=
CYYG;2005-05-22 01:00;METAR CYYG 220100Z 03011KT 10SM BKN003 OVC200 04/04 A3012 RMK SF6CI2 SLP203=
CYYG;2005-05-22 02:00;METAR CYYG 220200Z 05009KT 10SM BKN003 04/04 A3012 RMK SF7 SLP202=
CYYG;2005-05-22 02:31;SPECI CYYG 220231Z 06007KT 12SM BKN004 BKN038 RMK SF6SC2=
CYYG;2005-05-22 03:00;METAR CYYG 220300Z 04009KT 12SM BKN004 BKN036 04/04 A3012 RMK SF5SC2 SLP203=
CYYG;2005-05-22 03:18;SPECI CYYG 220318Z 04008KT 12SM SCT004 BKN036 RMK SF4SC3=
CYYG;2005-05-22 04:00;METAR CYYG 220400Z 07008KT 12SM FEW004 BKN036 BKN220 04/04 A3012 RMK SF2SC3CI2 SLP200=
CYYG;2005-05-22 05:00;METAR CYYG 220500Z 07009KT 12SM FEW004 SCT036 OVC210 04/04 A3011 RMK SF2SC2CI3 SLP197=
CYYG;2005-05-22 06:00;METAR CYYG 220600Z 08008KT 12SM FEW004 SCT036 OVC220 05/05 A3010 RMK SF2SC2CI3 SLP195=
CYYG;2005-05-22 07:00;METAR CYYG 220700Z 08010KT 12SM SCT035 OVC180 05/05 A3009 RMK SC3AC3 SLP192=
CYYG;2005-05-22 08:00;METAR CYYG 220800Z 07009KT 15SM OVC130 05/05 A3009 RMK AC8 SLP192=
CYYG;2005-05-22 09:00;METAR CYYG 220900Z 06009KT 15SM SCT065 OVC110 06/06 A3009 RMK SC3AC5 SLP193=
CYYG;2005-05-22 10:00;METAR CYYG 221000Z 07011KT 15SM -RA FEW065 OVC080 06/05 A3010 RMK SC2AS6 SLP194=
CYYG;2005-05-22 11:00;METAR CYYG 221100Z 09010KT 15SM -RA FEW017 OVC070 07/06 A3010 RMK SC2AS6 SLP194=
CYYG;2005-05-22 12:00;METAR CYYG 221200Z 10014G19KT 12SM -RA FEW010 OVC036 07/07 A3009 RMK SC2NS6 SLP193=
CYYG;2005-05-22 13:00;METAR CYYG 221300Z 09018KT 12SM -RA SCT011 OVC040 08/07 A3009 RMK SC3NS5 SLP191=
CYYG;2005-05-22 14:00;METAR CYYG 221400Z 10021KT 15SM -RA BKN013 BKN045 OVC070 08/06 A3010 RMK SC5SC2AS2 SLP196=
CYYG;2005-05-22 15:00;METAR CYYG 221500Z 10015G27KT 10SM -RA BKN014 OVC021 08/07 A3011 RMK SC6SC2 SLP199=
CYYG;2005-05-22 16:00;METAR CYYG 221600Z 10019G26KT 12SM -RA BKN014 OVC045 08/07 A3011 RMK SC7SC1 SLP197=
CYYG;2005-05-22 17:00;METAR CYYG 221700Z 11014G27KT 15SM -RA BKN013 OVC070 08/07 A3010 RMK SC6AC2 PEAK G30 PST HR SLP194=
CYYG;2005-05-22 18:00;METAR CYYG 221800Z 10017G22KT 15SM BKN012 OVC080 08/07 A3009 RMK SC7AC1 SLP191=
CYYG;2005-05-22 18:19;SPECI CYYG 221819Z 10017G24KT 15SM -RA BKN014 OVC080 RMK SC7AC1=
CYYG;2005-05-22 18:45;SPECI CYYG 221845Z 10015G24KT 15SM -SHRA FEW016 OVC095 RMK SC2AC6=
CYYG;2005-05-22 19:00;METAR CYYG 221900Z 10020G26KT 15SM -SHRA FEW016 OVC095 09/07 A3006 RMK SC2AC6 SLP182=
CYYG;2005-05-22 20:00;METAR CYYG 222000Z 10017G22KT 15SM -SHRA FEW020 OVC100 09/07 A3008 RMK SC1AC7 SLP187=
CYYG;2005-05-22 22:00;METAR CYYG 222200Z 09018G27KT 15SM FEW012 FEW020 BKN100 OVC200 08/06 A3007 RMK SF1SC1AC4CS2 SLP184=
CYYG;2005-05-22 23:00;METAR CYYG 222300Z 10018KT 15SM FEW014 BKN094 OVC200 07/06 A3008 RMK SF1AC6CS2 SLP187=
CYYG;2005-05-22 23:07;SPECI CYYG 222307Z 10019KT 15SM -SHRA FEW014 BKN090 OVC200 RMK SF1AC6CS2=
CYYG;2005-05-23 00:00;METAR CYYG 230000Z 10011G18KT 15SM -SHRA SCT013 BKN096 OVC150 07/06 A3009 RMK SC3AC4AC1 SLP192=
CYYG;2005-05-23 00:19;SPECI CYYG 230019Z 09013G18KT 15SM SCT011 BKN100 OVC150 RMK SC3AC4AC1=
CYYG;2005-05-23 01:00;METAR CYYG 230100Z 10017KT 15SM FEW010 BKN100 OVC140 07/05 A3009 RMK SC2AC5AC1 SLP190=
CYYG;2005-05-23 02:00;METAR CYYG 230200Z 10016KT 15SM FEW012 BKN110 07/05 A3008 RMK SC2AC6 SLP188=
CYYG;2005-05-23 03:00;METAR CYYG 230300Z 10011G18KT 15SM SCT013 BKN110 06/05 A3007 RMK SC3AC4 SLP185=
CYYG;2005-05-23 04:00;METAR CYYG 230400Z 11014G21KT 15SM SCT011 OVC074 06/05 A3007 RMK SC4AC4 SLP183=
CYYG;2005-05-23 05:00;METAR CYYG 230500Z 11014KT 15SM BKN012 OVC076 06/05 A3006 RMK SC5AC3 SLP179=
CYYG;2005-05-23 06:00;METAR CYYG 230600Z 09017KT 15SM OVC010 06/05 A3004 RMK SC8 SLP175=
CYYG;2005-05-23 07:00;METAR CYYG 230700Z 10018KT 15SM OVC011 06/05 A3004 RMK SC8 SLP172=
CYYG;2005-05-23 08:00;METAR CYYG 230800Z 10015G21KT 15SM SCT012 BKN080 06/05 A3004 RMK SC4AC2 SLP172=
CYYG;2005-05-23 09:00;METAR CYYG 230900Z 08013KT 15SM FEW010 SCT080 BKN250 05/05 A3004 RMK SF2AC2CI3 SLP172=
CYYG;2005-05-23 10:00;METAR CYYG 231000Z 09015KT 15SM FEW010 OVC250 06/04 A3003 RMK SF2CI6 SLP171=
CYYG;2005-05-23 10:50;SPECI CYYG 231050Z 10019G24KT 15SM BKN013 OVC250 RMK SC6CI2=
CYYG;2005-05-23 11:00;METAR CYYG 231100Z 11018G29KT 15SM BKN012 OVC250 07/05 A3004 RMK SC6CI2 SLP175=
CYYG;2005-05-23 12:00;METAR CYYG 231200Z 10019G25KT 15SM BKN014 OVC250 08/05 A3006 RMK SC6CI1 SLP180=
CYYG;2005-05-23 13:00;METAR CYYG 231300Z 10012G21KT 15SM BKN016 OVC250 09/05 A3007 RMK SC6CI1 SLP183=
CYYG;2005-05-23 14:00;METAR CYYG 231400Z 09018G23KT 15SM BKN018 BKN140 OVC250 10/05 A3006 RMK SC5AC1CI2 SLP182=
CYYG;2005-05-23 15:00;METAR CYYG 231500Z 10016G21KT 15SM BKN022 BKN140 BKN250 10/05 A3006 RMK SC5AC1CI2 SLP180=
CYYG;2005-05-23 16:00;METAR CYYG 231600Z 09016G27KT 15SM FEW025 FEW140 BKN250 12/06 A3005 RMK SC1AC2CS3 SLP176=
CYYG;2005-05-23 17:00;METAR CYYG 231700Z 08016KT 15SM FEW025 FEW140 BKN250 14/07 A3004 RMK SC1AC1CS5 SLP174=
CYYG;2005-05-23 18:00;METAR CYYG 231800Z 10016G21KT 15SM FEW025 FEW100 BKN250 14/05 A3004 RMK SC1AC1CS3 SLP175=
CYYG;2005-05-23 19:00;METAR CYYG 231900Z 08015G20KT 15SM FEW100 BKN250 14/05 A3004 RMK AC1CS6 SLP174=
CYYG;2005-05-23 20:00;METAR CYYG 232000Z 08012G18KT 15SM FEW100 BKN250 13/05 A3005 RMK AC1CS6 SLP177=
CYYG;2005-05-23 21:00;METAR CYYG 232100Z 10013G20KT 15SM FEW100 BKN250 13/04 A3005 RMK AC1CS6 SLP177=
CYYG;2005-05-23 22:00;METAR CYYG 232200Z 09009KT 15SM FEW100 BKN250 12/05 A3006 RMK AC1CS5 SLP179=
CYYG;2005-05-23 23:00;METAR CYYG 232300Z 09010KT 15SM FEW100 BKN250 11/04 A3006 RMK AC1CS5 SLP179=
CYYG;2005-05-24 00:00;METAR CYYG 240000Z 09013KT 15SM FEW120 BKN250 09/03 A3006 RMK AC1CS4 SLP180=
CYYG;2005-05-24 01:00;METAR CYYG 240100Z 09010KT 15SM FEW120 BKN250 08/02 A3007 RMK AC1CS3 SLP183=
CYYG;2005-05-24 02:00;METAR CYYG 240200Z 09008KT 15SM BKN250 07/03 A3008 RMK CS3 SLP186=
CYYG;2005-05-24 03:00;METAR CYYG 240300Z 10011KT 15SM BKN250 06/03 A3009 RMK CS2 SLP189=
CYYG;2005-05-24 04:00;METAR CYYG 240400Z 11016KT 15SM FEW015 BKN240 05/03 A3009 RMK SF2CS2 SLP192=
CYYG;2005-05-24 05:00;METAR CYYG 240500Z 12014G19KT 15SM SCT013 BKN230 05/03 A3010 RMK SF3CS1 SLP194=
CYYG;2005-05-24 07:00;METAR CYYG 240700Z 11009G15KT 15SM BKN015 04/03 A3012 RMK SC7 SLP199=
CYYG;2005-05-24 08:00;METAR CYYG 240800Z 11011G17KT 15SM BKN015 05/03 A3012 RMK SC7 SLP199=
CYYG;2005-05-24 09:00;METAR CYYG 240900Z 11014G19KT 15SM BKN018 05/03 A3012 RMK SC7 SLP202=
CYYG;2005-05-24 10:00;METAR CYYG 241000Z 10011G16KT 15SM BKN019 05/03 A3014 RMK SC7 SLP206=
CYYG;2005-05-24 11:00;METAR CYYG 241100Z 09013G18KT 15SM BKN019 06/03 A3015 RMK SC7 SLP210=
CYYG;2005-05-24 12:00;METAR CYYG 241200Z 09013G19KT 15SM OVC021 07/03 A3016 RMK SC8 SLP214=
CYYG;2005-05-24 13:00;METAR CYYG 241300Z 09012G19KT 15SM BKN024 08/03 A3016 RMK SC7 SLP215=
CYYG;2005-05-24 14:00;METAR CYYG 241400Z 09015KT 15SM BKN026 09/04 A3017 RMK SC7 SLP216=
CYYG;2005-05-24 15:00;METAR CYYG 241500Z 10012KT 15SM BKN028 10/04 A3017 RMK SC7 SLP218=
CYYG;2005-05-24 16:00;METAR CYYG 241600Z 10015KT 15SM FEW028 BKN300 10/04 A3017 RMK SC2CI1 SLP217=
CYYG;2005-05-24 17:00;METAR CYYG 241700Z 11012G18KT 15SM FEW028 BKN300 10/04 A3017 RMK SC2CI1 SLP218=
CYYG;2005-05-24 18:00;METAR CYYG 241800Z 11011KT 15SM BKN026 BKN300 10/05 A3017 RMK SC5CI0 SLP220=
CYYG;2005-05-24 19:00;METAR CYYG 241900Z 09011G16KT 15SM SCT026 BKN300 11/05 A3017 RMK SC4CI2 SLP220=
CYYG;2005-05-24 20:00;METAR CYYG 242000Z 09010KT 15SM FEW026 BKN300 11/05 A3017 RMK SC2CI2 SLP219=
CYYG;2005-05-24 21:00;METAR CYYG 242100Z 10011KT 15SM FEW026 BKN300 10/04 A3017 RMK SC2CI2 SLP219=
CYYG;2005-05-24 22:00;METAR CYYG 242200Z 10008KT 15SM FEW028 BKN300 09/04 A3018 RMK SC2CI2 SLP221=
CYYG;2005-05-24 23:00;METAR CYYG 242300Z 09009KT 15SM FEW028 BKN300 09/04 A3018 RMK SC2CI1 SLP221=
CYYG;2005-05-25 00:00;METAR CYYG 250000Z 10010KT 15SM FEW026 SCT300 08/04 A3018 RMK SC2CI1 SLP223=
CYYG;2005-05-25 01:00;METAR CYYG 250100Z 08007KT 15SM FEW027 SCT300 06/04 A3019 RMK SC2CI1 SLP225=
CYYG;2005-05-25 02:00;METAR CYYG 250200Z 10008KT 15SM FEW025 SCT280 05/04 A3019 RMK SC2CI1 SLP224=
CYYG;2005-05-25 03:00;METAR CYYG 250300Z 11008KT 15SM FEW025 FEW280 04/04 A3019 RMK SC1CI1 SLP225=
CYYG;2005-05-25 04:00;METAR CYYG 250400Z 10005KT 15SM FEW013 FEW019 04/04 A3019 RMK SC2SC1 SLP226=
CYYG;2005-05-25 05:00;METAR CYYG 250500Z 09005KT 15SM SCT015 05/04 A3019 RMK SC3 SLP224=
CYYG;2005-05-25 06:00;METAR CYYG 250600Z 11008KT 15SM BKN013 05/03 A3019 RMK SC6 SLP224=
CYYG;2005-05-25 07:00;METAR CYYG 250700Z 09006KT 15SM OVC015 04/03 A3018 RMK SC8 SLP221=
CYYG;2005-05-25 08:00;METAR CYYG 250800Z 09007KT 15SM OVC014 04/03 A3018 RMK SC8 SLP221=
CYYG;2005-05-25 09:00;METAR CYYG 250900Z 10009KT 15SM BKN013 04/03 A3019 RMK SC6 SLP225=
CYYG;2005-05-25 10:00;METAR CYYG 251000Z 10010G15KT 15SM BKN010 BKN300 05/03 A3020 RMK SC6CI0 SLP229=
CYYG;2005-05-25 11:00;METAR CYYG 251100Z 09010KT 15SM SCT013 BKN300 06/03 A3020 RMK SC3CI1 SLP229=
CYYG;2005-05-25 12:00;METAR CYYG 251200Z 08011KT 15SM FEW016 BKN300 07/04 A3021 RMK CF1CI2 SLP231=
CYYG;2005-05-25 13:00;METAR CYYG 251300Z 11011KT 15SM FEW018 BKN300 09/04 A3020 RMK CF1CI2 SLP230=
CYYG;2005-05-25 14:00;METAR CYYG 251400Z 13013KT 15SM FEW020 BKN300 09/03 A3021 RMK CU1CI2 SLP233=
CYYG;2005-05-25 15:00;METAR CYYG 251500Z 13011G18KT 15SM FEW020 BKN300 12/03 A3022 RMK SC1CI2 SLP235=
CYYG;2005-05-25 16:00;METAR CYYG 251600Z 09014KT 15SM BKN300 12/02 A3023 RMK CI2 SLP238=
CYYG;2005-05-25 17:00;METAR CYYG 251700Z 10012G18KT 15SM BKN300 13/03 A3022 RMK CI2 SLP235=
CYYG;2005-05-25 18:00;METAR CYYG 251800Z 12013G18KT 15SM BKN250 13/01 A3021 RMK CI5 SLP231=
CYYG;2005-05-25 19:00;METAR CYYG 251900Z 12010KT 15SM BKN250 13/02 A3020 RMK CI5 SLP228=
CYYG;2005-05-25 20:00;METAR CYYG 252000Z 09011G17KT 15SM FEW160 BKN250 14/00 A3019 RMK AC2CI2 SLP223=
CYYG;2005-05-25 21:00;METAR CYYG 252100Z 11013KT 15SM FEW160 BKN250 14/00 A3018 RMK AC2CI1 SLP222=
CYYG;2005-05-25 22:00;METAR CYYG 252200Z 12012KT 15SM FEW160 BKN250 12/M00 A3019 RMK AC2CI1 SLP224=
CYYG;2005-05-25 23:00;METAR CYYG 252300Z 09008KT 15SM FEW160 BKN250 10/01 A3020 RMK AC1CI2 SLP226=
CYYG;2005-05-26 00:00;METAR CYYG 260000Z 09007KT 15SM FEW160 BKN250 08/01 A3020 RMK AC2CI2 SLP229=
CYYG;2005-05-26 01:00;METAR CYYG 260100Z 09006KT 15SM FEW160 BKN250 07/02 A3020 RMK AC2CI2 SLP229=
CYYG;2005-05-26 02:00;METAR CYYG 260200Z 10006KT 15SM FEW160 SCT250 06/01 A3019 RMK AC1CI1 SLP226=
CYYG;2005-05-26 03:00;METAR CYYG 260300Z 10006KT 15SM FEW160 SCT250 05/01 A3019 RMK AC1CI1 SLP225=
CYYG;2005-05-26 04:00;METAR CYYG 260400Z 09010KT 15SM SCT110 BKN250 05/02 A3017 RMK AC3CI1 SLP219=
CYYG;2005-05-26 05:00;METAR CYYG 260500Z 09008KT 15SM SCT120 BKN250 05/02 A3016 RMK AC3CI1 SLP213=
CYYG;2005-05-26 06:00;METAR CYYG 260600Z 11008KT 15SM SCT120 BKN250 05/03 A3016 RMK AC3CI1 SLP213=
CYYG;2005-05-26 07:00;METAR CYYG 260700Z 10009KT 15SM BKN140 OVC250 04/03 A3015 RMK AC6CI1 SLP210=
CYYG;2005-05-26 08:00;METAR CYYG 260800Z 09010KT 15SM SCT150 BKN250 04/02 A3015 RMK AC4CI1 SLP210=
CYYG;2005-05-26 09:00;METAR CYYG 260900Z 07008KT 15SM BKN009 BKN150 04/03 A3015 RMK SC5AC2 SLP211=
CYYG;2005-05-26 10:00;METAR CYYG 261000Z 09009KT 15SM BKN010 BKN150 05/03 A3015 RMK SC6AC2 SLP211=
CYYG;2005-05-26 11:00;METAR CYYG 261100Z 09012KT 15SM BKN010 BKN150 06/04 A3014 RMK SC6AC2 SLP208=
CYYG;2005-05-26 12:00;METAR CYYG 261200Z 09013KT 15SM BKN010 BKN017 BKN150 08/05 A3013 RMK SC5SC2AC1 SLP204=
CYYG;2005-05-26 13:00;METAR CYYG 261300Z 09010G17KT 15SM OVC013 08/06 A3013 RMK SC8 SLP204=
CYYG;2005-05-26 13:27;SPECI CYYG 261327Z 09012KT 3SM -DZ BR OVC013 RMK SC8=
CYYG;2005-05-26 13:50;SPECI CYYG 261350Z 09013KT 3SM -RA BR OVC012 RMK SF8=
CYYG;2005-05-26 14:00;METAR CYYG 261400Z 09011KT 4SM -RA BR OVC013 08/07 A3012 RMK SC8 SLP202=
CYYG;2005-05-26 15:00;METAR CYYG 261500Z 08013KT 15SM -RA OVC013 08/07 A3010 RMK SC8 SLP195=
CYYG;2005-05-26 15:23;SPECI CYYG 261523Z 08014G20KT 15SM OVC015 RMK SC8=
CYYG;2005-05-26 16:00;METAR CYYG 261600Z 09012KT 15SM OVC016 10/08 A3009 RMK SC8 SLP190=
CYYG;2005-05-26 17:00;METAR CYYG 261700Z 09014KT 15SM BKN019 OVC036 12/09 A3006 RMK SC6SC2 SLP182=
CYYG;2005-05-26 17:09;SPECI CYYG 261709Z 09011G17KT 15SM -RA BKN020 OVC036 RMK SC6SC2=
CYYG;2005-05-26 18:00;METAR CYYG 261800Z 08014KT 10SM -RA BKN020 OVC036 12/09 A3004 RMK SC6SC2 SLP175=
CYYG;2005-05-26 19:00;METAR CYYG 261900Z 10016G22KT 15SM -RA BKN020 OVC034 12/09 A3002 RMK SC6SC2 SLP166=
CYYG;2005-05-26 19:13;SPECI CYYG 261913Z 09014G20KT 15SM SCT020 OVC032 RMK SC4SC4=
CYYG;2005-05-26 20:00;METAR CYYG 262000Z 11013G25KT 15SM BKN020 OVC032 13/10 A2999 RMK SC6SC2 SLP158=
CYYG;2005-05-26 21:00;METAR CYYG 262100Z 09014G24KT 15SM BKN016 OVC054 13/09 A2997 RMK SC6SC2 SLP151=
CYYG;2005-05-26 22:48;SPECI CYYG 262248Z 09014G21KT 6SM -RA OVC016 RMK SC8=
CYYG;2005-05-26 23:00;METAR CYYG 262300Z 09015G22KT 6SM -RA OVC018 12/10 A2994 RMK SC8 SLP141=
CYYG;2005-05-26 23:49;SPECI CYYG 262349Z 09015G21KT 10SM OVC012 RMK SC8=
CYYG;2005-05-27 00:00;METAR CYYG 270000Z 09013KT 10SM OVC014 11/10 A2993 RMK SC8 SLP135=
CYYG;2005-05-27 01:00;METAR CYYG 270100Z 09013G22KT 15SM -RA OVC012 10/09 A2991 RMK SC8 SLP131=
CYYG;2005-05-27 02:00;METAR CYYG 270200Z 09016G21KT 15SM -RA OVC010 10/10 A2989 RMK SC8 SLP124=
CYYG;2005-05-27 03:00;METAR CYYG 270300Z 08015G24KT 15SM -SHRA OVC008 10/10 A2985 RMK SF8 SLP111=
CYYG;2005-05-27 04:00;METAR CYYG 270400Z 08015KT 15SM -SHRA BKN008 OVC012 10/10 A2983 RMK SF6SC2 SLP102=
CYYG;2005-05-27 05:00;METAR CYYG 270500Z 09013G21KT 15SM -SHRA OVC009 10/10 A2980 RMK SF8 SLP093=
CYYG;2005-05-27 06:00;METAR CYYG 270600Z 09013G19KT 10SM -SHRA OVC010 10/10 A2978 RMK SC8 SLP084=
CYYG;2005-05-27 07:00;METAR CYYG 270700Z 10014G24KT 15SM -SHRA OVC008 10/10 A2975 RMK SF8 SLP075=
CYYG;2005-05-27 08:00;METAR CYYG 270800Z 10016KT 15SM OVC008 10/10 A2974 RMK SF8 SLP072=
CYYG;2005-05-27 09:00;METAR CYYG 270900Z 11014KT 15SM OVC007 10/10 A2974 RMK SF8 SLP072=
CYYG;2005-05-27 10:00;METAR CYYG 271000Z 11012G18KT 15SM OVC008 10/10 A2974 RMK SC8 SLP070=
CYYG;2005-05-27 11:00;METAR CYYG 271100Z 12011G16KT 15SM VCSH OVC007 10/10 A2975 RMK SC8 SLP074=
CYYG;2005-05-27 12:00;METAR CYYG 271200Z 11011KT 15SM OVC006 11/10 A2974 RMK SC8 SLP072=
CYYG;2005-05-27 13:00;METAR CYYG 271300Z 11008KT 15SM OVC006 12/12 A2972 RMK SC8 SLP066=
CYYG;2005-05-27 14:00;METAR CYYG 271400Z 12009KT 15SM OVC006 13/12 A2971 RMK SC8 SLP063=
CYYG;2005-05-27 15:00;METAR CYYG 271500Z 09006KT 15SM BKN008 BKN078 15/14 A2971 RMK SC6AC1 SLP060=
CYYG;2005-05-27 15:18;SPECI CYYG 271518Z 08006KT 15SM BKN010 BKN080 RMK SC5AC1=
CYYG;2005-05-27 15:30;SPECI CYYG 271530Z 09008KT 15SM SCT012 BKN080 RMK SC4AC2=
CYYG;2005-05-27 16:00;METAR CYYG 271600Z 10008KT 15SM BKN013 BKN080 17/14 A2969 RMK SC5AC2 SLP056=
CYYG;2005-05-27 17:00;METAR CYYG 271700Z 08011KT 15SM SCT014 BKN080 17/14 A2969 RMK SC4AC2 SLP053=
CYYG;2005-05-27 18:00;METAR CYYG 271800Z 08008KT 15SM SCT014 BKN092 16/14 A2967 RMK SC4AC3 SLP049=
CYYG;2005-05-27 19:00;METAR CYYG 271900Z 02007KT 15SM FEW014 BKN040 OVC090 14/11 A2967 RMK SC2SC3AC2 SLP048=
CYYG;2005-05-27 20:00;METAR CYYG 272000Z 01006KT 15SM FEW014 BKN040 OVC085 12/11 A2966 RMK SC1SC4AC3 SLP046=
CYYG;2005-05-27 21:00;METAR CYYG 272100Z 01006KT 15SM FEW014 BKN040 OVC090 12/11 A2966 RMK SC1SC4AC3 SLP046=
CYYG;2005-05-27 21:06;SPECI CYYG 272106Z 02007KT 15SM -SHRA BKN014 OVC040 RMK SC6SC2=
CYYG;2005-05-27 22:00;METAR CYYG 272200Z 01005KT 15SM -SHRA BKN014 OVC042 11/10 A2966 RMK SC6SC2 SLP045=
CYYG;2005-05-27 23:00;METAR CYYG 272300Z 35007KT 15SM -SHRA SCT015 BKN048 09/08 A2965 RMK SC3SC4 SLP042=
CYYG;2005-05-27 23:23;SPECI CYYG 272323Z 35008KT 15SM FEW015 SCT050 BKN110 RMK SC2SC2AC2=
CYYG;2005-05-28 00:00;METAR CYYG 280000Z 08003KT 15SM SCT019 BKN056 BKN120 07/07 A2966 RMK SC3SC2AC2 SLP043=
CYYG;2005-05-28 01:00;METAR CYYG 280100Z 34009KT 15SM BKN023 BKN047 BKN120 06/06 A2966 RMK SC5SC2AC1 SLP044=
CYYG;2005-05-28 02:00;METAR CYYG 280200Z 36004KT 15SM BKN023 BKN060 06/06 A2966 RMK SC6SC2 SLP046=
CYYG;2005-05-28 03:00;METAR CYYG 280300Z 36006KT 15SM BKN024 BKN076 06/05 A2965 RMK SC5AC2 SLP042=
CYYG;2005-05-28 04:00;METAR CYYG 280400Z 34006KT 15SM SCT012 OVC026 05/05 A2964 RMK SC4SC4 SLP039=
CYYG;2005-05-28 04:48;SPECI CYYG 280448Z 33006KT 15SM FEW007 OVC015 RMK SF2SC6=
CYYG;2005-05-28 05:00;METAR CYYG 280500Z 34007KT 12SM FEW003 SCT007 OVC015 05/05 A2964 RMK SF2SF2SC4 SLP037=
CYYG;2005-05-28 05:12;SPECI CYYG 280512Z 34004KT 3SM BR BKN003 OVC007 RMK SF5SF3=
CYYG;2005-05-28 05:22;SPECI CYYG 280522Z 33003KT 2SM BR OVC002 RMK ST8=
CYYG;2005-05-28 05:34;SPECI CYYG 280534Z 34004KT 1SM BR OVC002 RMK ST8 RVR RWY03 5000 FT=
CYYG;2005-05-28 06:00;METAR CYYG 280600Z 34004KT 1SM BR OVC002 05/05 A2965 RMK ST8 RVR RWY03 P6000 FT SLP041=
CYYG;2005-05-28 07:00;METAR CYYG 280700Z 36004KT 3/4SM BR OVC002 05/05 A2966 RMK ST8 RVR RWY03 3500 FT SLP044=
CYYG;2005-05-28 08:00;METAR CYYG 280800Z 31005KT 2SM BR BKN002 OVC007 05/05 A2964 RMK SF6SF2 SLP039=
CYYG;2005-05-28 08:38;SPECI CYYG 280838Z 30004KT 3SM BR BKN003 OVC007 RMK SF5SF3=
CYYG;2005-05-28 10:00;METAR CYYG 281000Z 28004KT 6SM BR OVC004 06/06 A2965 RMK SF8 VIS NW-NE 3 SLP042=
CYYG;2005-05-28 10:12;SPECI CYYG 281012Z 29004KT 1 1/2SM BR VV002 RMK FG8=
CYYG;2005-05-28 10:20;SPECI CYYG 281020Z 28005KT 1/2SM FG VV002 RMK FG8 RVR RWY03 2600FT=
CYYG;2005-05-28 11:00;METAR CYYG 281100Z 31005KT 3SM BR OVC002 07/07 A2965 RMK SF8 SLP042=
CYYG;2005-05-28 11:29;SPECI CYYG 281129Z 30004KT 5SM BR OVC003 RMK SF8=
CYYG;2005-05-28 12:00;METAR CYYG 281200Z 30003KT 5SM BR OVC003 07/07 A2967 RMK SF8 SLP048=
CYYG;2005-05-28 13:00;METAR CYYG 281300Z 32005KT 3SM BR OVC003 08/08 A2967 RMK SF8 SLP048=
CYYG;2005-05-28 14:00;METAR CYYG 281400Z 36005KT 3SM BR OVC003 08/08 A2967 RMK SF8 SLP049=
CYYG;2005-05-28 14:29;SPECI CYYG 281429Z 30006KT 10SM OVC005 RMK SF8=
CYYG;2005-05-28 15:00;METAR CYYG 281500Z 29005KT 15SM OVC006 09/09 A2967 RMK SC8 SLP048=
CYYG;2005-05-28 16:00;METAR CYYG 281600Z 32004KT 15SM OVC008 10/10 A2967 RMK SC8 VIS LWR E SLP050=
CYYG;2005-05-28 17:00;METAR CYYG 281700Z 27003KT 15SM OVC008 11/10 A2967 RMK SC8 SLP050=
CYYG;2005-05-28 18:00;METAR CYYG 281800Z 30005KT 15SM OVC009 12/11 A2967 RMK SC8 SLP048=
CYYG;2005-05-28 18:08;SPECI CYYG 281808Z 29005KT 15SM OVC011 RMK SC8=
CYYG;2005-05-28 19:00;METAR CYYG 281900Z 36008KT 15SM OVC011 09/08 A2969 RMK SC8 SLP054=
CYYG;2005-05-28 20:00;METAR CYYG 282000Z 33008KT 15SM OVC013 09/08 A2969 RMK SC8 SLP055=
CYYG;2005-05-28 20:18;SPECI CYYG 282018Z 33007KT 15SM VCSH OVC009 RMK SC8=
CYYG;2005-05-28 21:00;METAR CYYG 282100Z 36007KT 6SM BR OVC007 07/07 A2970 RMK SF8 SLP060=
CYYG;2005-05-28 21:26;SPECI CYYG 282126Z 36007KT 3SM -DZ BR OVC003 RMK SF8=
CYYG;2005-05-28 22:00;METAR CYYG 282200Z 36005KT 2SM -DZ BR OVC002 07/07 A2971 RMK ST8 SLP063=
CYYG;2005-05-28 22:12;SPECI CYYG 282212Z 36007KT 3SM BR OVC004 RMK ST8=
CYYG;2005-05-28 22:37;SPECI CYYG 282237Z 36007KT 3/4SM BR OVC003 RMK FG2ST6=
CYYG;2005-05-28 22:48;SPECI CYYG 282248Z 36006KT 1/4SM FG VV002 RMK FG8=
CYYG;2005-05-28 23:00;METAR CYYG 282300Z 36005KT 1/8SM FG VV002 07/07 A2971 RMK FG8 RVR RWY03 3000 FT SLP064=
CYYG;2005-05-29 00:00;METAR CYYG 290000Z 34003KT 1/8SM FG VV001 07/07 A2973 RMK FG8 RVR RWY03 1600 FT SLP069=
CYYG;2005-05-29 01:00;METAR CYYG 290100Z 31003KT 1/2SM FG VV001 07/07 A2975 RMK FG8 RVR RWY03 3000 FT SLP075=
CYYG;2005-05-29 02:00;METAR CYYG 290200Z 32003KT 1/2SM FG VV002 07/07 A2975 RMK FG8 RVR RWY03 3500 FT SLP077=
CYYG;2005-05-29 02:29;SPECI CYYG 290229Z 33003KT 3/4SM -DZ BR VV002 RMK FG8 RVR RWY03 5000 FT=
CYYG;2005-05-29 03:00;METAR CYYG 290300Z 33005KT 3/4SM -DZ BR VV002 07/07 A2975 RMK FG8 RVR RWY03 4000 FT SLP076=
CYYG;2005-05-29 04:00;METAR CYYG 290400Z 31004KT 1SM -DZ BR OVC003 07/07 A2975 RMK ST8 RVR RWY03 5500 FT SLP077=
CYYG;2005-05-29 05:00;METAR CYYG 290500Z 36004KT 2SM -DZ BR OVC002 06/06 A2976 RMK ST8 SLP079=
CYYG;2005-05-29 06:00;METAR CYYG 290600Z 34003KT 3SM -DZ BR BKN002 OVC028 06/06 A2976 RMK SF6SC2 SLP077=
CYYG;2005-05-29 06:04;SPECI CYYG 290604Z 34003KT 10SM BKN002 OVC028 RMK SF6SC2=
CYYG;2005-05-29 07:00;METAR CYYG 290700Z 34002KT 15SM BKN002 OVC027 07/07 A2975 RMK SF6SC2 SLP076=
CYYG;2005-05-29 08:00;METAR CYYG 290800Z 03002KT 10SM OVC003 07/07 A2977 RMK ST8 SLP080=
CYYG;2005-05-29 08:29;SPECI CYYG 290829Z 02004KT 1/2SM FG OVC002 RMK FG4ST4=
CYYG;2005-05-29 08:44;SPECI CYYG 290844Z 02002KT 1/4SM FG OVC002 RMK FG4ST4=
CYYG;2005-05-29 09:00;METAR CYYG 290900Z 36002KT 1/4SM FG OVC002 06/06 A2978 RMK FG4ST4 RVR RWY03 5000 FT SLP087=
CYYG;2005-05-29 10:00;METAR CYYG 291000Z 02002KT 1/2SM FG VV002 06/06 A2979 RMK FG8 RVR RWY03 5000FT SLP090=
CYYG;2005-05-29 11:00;METAR CYYG 291100Z 00000KT 1SM BR VV002 06/06 A2980 RMK FG8 RVR RWY03 P6000FT SLP092=
CYYG;2005-05-29 11:14;SPECI CYYG 291114Z 01002KT 3SM BR OVC002 RMK SF8=
CYYG;2005-05-29 12:00;METAR CYYG 291200Z 06002KT 3SM BR OVC002 07/07 A2982 RMK SF8 SLP098=
CYYG;2005-05-29 12:40;SPECI CYYG 291240Z 07004KT 3/4SM BR VV003 RMK FG8 RVR RWY03 5000FT=
CYYG;2005-05-29 13:00;METAR CYYG 291300Z 09005KT 3/4SM BR VV002 08/08 A2982 RMK FG8 RVR RWY03 5000FT SLP100=
CYYG;2005-05-29 13:41;SPECI CYYG 291341Z 10005KT 2SM BR OVC003 RMK SF8=
CYYG;2005-05-29 14:00;METAR CYYG 291400Z 12004KT 2SM BR OVC003 10/10 A2982 RMK SF8 SLP099=
CYYG;2005-05-29 15:00;METAR CYYG 291500Z 11005KT 4SM BR OVC005 11/11 A2983 RMK SF8 SLP103=
CYYG;2005-05-29 15:03;SPECI CYYG 291503Z 12004KT 1 1/2SM BR OVC007 RMK SF8=
CYYG;2005-05-29 15:13;SPECI CYYG 291513Z 11009KT 3/4SM BR OVC004 RMK SF8 RVR RWY03 5000FT=
CYYG;2005-05-29 15:37;SPECI CYYG 291537Z 12008KT 4SM BR BKN007 RMK SF7=
CYYG;2005-05-29 15:49;SPECI CYYG 291549Z 13008KT 12SM BKN011 RMK SF7 VIS LWR NW=
CYYG;2005-05-29 16:00;METAR CYYG 291600Z 11009KT 15SM BKN012 12/12 A2983 RMK SC7 SLP104=
CYYG;2005-05-29 17:00;METAR CYYG 291700Z 13005KT 15SM BKN020 14/12 A2983 RMK SC7 SLP102=
CYYG;2005-05-29 17:34;SPECI CYYG 291734Z 12008KT 15SM OVC013 RMK SC8=
CYYG;2005-05-29 18:00;METAR CYYG 291800Z 17004KT 15SM OVC014 12/11 A2983 RMK SC8 SLP102=
CYYG;2005-05-29 19:00;METAR CYYG 291900Z 25004KT 15SM OVC016 12/11 A2982 RMK SC8 SLP100=
CYYG;2005-05-29 20:00;METAR CYYG 292000Z 20003KT 15SM OVC024 13/11 A2982 RMK SC8 SLP099=
CYYG;2005-05-29 21:00;METAR CYYG 292100Z 11005KT 15SM BKN022 13/10 A2981 RMK SC7 SLP097=
CYYG;2005-05-29 22:00;METAR CYYG 292200Z 14008KT 15SM FEW022 FEW110 BKN300 13/10 A2982 RMK SC2AC1CI0 SLP099=
CYYG;2005-05-29 23:00;METAR CYYG 292300Z 15006KT 15SM FEW019 FEW110 BKN300 12/10 A2983 RMK SC1AC2CI0 SLP103=
CYYG;2005-05-30 00:00;METAR CYYG 300000Z 13002KT 15SM FEW019 FEW120 SCT300 11/09 A2983 RMK SC1AC1CI0 SLP104=
CYYG;2005-05-30 01:00;METAR CYYG 300100Z 00000KT 15SM FEW019 FEW120 BKN300 09/09 A2985 RMK SC1AC1CI0 SLP109=
CYYG;2005-05-30 02:00;METAR CYYG 300200Z 12003KT 15SM FEW019 FEW120 BKN300 09/09 A2985 RMK SC1AC1CI0 SLP109=
CYYG;2005-05-30 03:00;METAR CYYG 300300Z 13004KT 15SM FEW120 SCT300 08/08 A2985 RMK AC1CI1 SLP108=
CYYG;2005-05-30 04:00;METAR CYYG 300400Z 12004KT 15SM FEW300 07/07 A2985 RMK CI1 SLP108=
CYYG;2005-05-30 05:00;METAR CYYG 300500Z 00000KT 15SM SKC 06/06 A2984 RMK SLP107=
CYYG;2005-05-30 06:00;METAR CYYG 300600Z 16002KT 15SM SKC 07/07 A2985 RMK SLP109=
CYYG;2005-05-30 07:00;METAR CYYG 300700Z 20002KT 15SM BKN210 07/07 A2986 RMK CI1 SLP112=
CYYG;2005-05-30 08:00;METAR CYYG 300800Z 00000KT 15SM MIFG BKN210 04/04 A2986 RMK CI1 SLP114=
CYYG;2005-05-30 09:00;METAR CYYG 300900Z 00000KT 15SM MIFG FEW100 FEW210 04/04 A2987 RMK AC1CI0 SLP117=
CYYG;2005-05-30 09:03;SPECI CYYG 300903Z 00000KT 1/4SM FG FEW100 FEW210 RMK FG1AC1CI0 RVR RWY03 2200 FT=
CYYG;2005-05-30 09:20;SPECI CYYG 300920Z 00000KT 1/8SM FG FEW210 RMK FG1CI1 RVR RWY03 1100 FT=
CYYG;2005-05-30 09:35;SPECI CYYG 300935Z 00000KT 15SM MIFG FEW210 RMK CI0=
CYYG;2005-05-30 10:00;METAR CYYG 301000Z 00000KT 15SM MIFG FEW210 07/07 A2988 RMK CI0 SLP121=
CYYG;2005-05-30 11:00;METAR CYYG 301100Z 22002KT 15SM FEW210 09/09 A2990 RMK CI0 SLP125=
CYYG;2005-05-30 13:00;METAR CYYG 301300Z 23003KT 15SM FEW012 FEW200 11/09 A2992 RMK SC2CI0 SLP132=
CYYG;2005-05-30 14:00;METAR CYYG 301400Z 14005KT 15SM FEW012 FEW200 13/10 A2992 RMK SC1CI0 SLP132=
CYYG;2005-05-30 15:00;METAR CYYG 301500Z 11005KT 15SM FEW012 15/11 A2992 RMK SC1 SLP132=
CYYG;2005-05-30 16:00;METAR CYYG 301600Z 13004KT 15SM FEW012 16/09 A2992 RMK SC1 SLP132=
CYYG;2005-05-30 17:00;METAR CYYG 301700Z 16007KT 15SM FEW012 17/09 A2992 RMK SC1 SLP133=
CYYG;2005-05-30 18:00;METAR CYYG 301800Z 21003KT 15SM FEW020 FEW200 17/09 A2992 RMK SC1CI1 SLP132=
CYYG;2005-05-30 19:00;METAR CYYG 301900Z 13003KT 15SM FEW020 FEW120 SCT200 17/10 A2992 RMK SC1AC1CI1 SLP132=
CYYG;2005-05-30 20:00;METAR CYYG 302000Z 03007KT 15SM FEW020 FEW120 SCT200 16/10 A2992 RMK SC1AC1CI1 SLP132=
CYYG;2005-05-30 21:00;METAR CYYG 302100Z 35004KT 15SM SCT100 BKN200 17/10 A2992 RMK AC3CI1 SLP134=
CYYG;2005-05-30 22:00;METAR CYYG 302200Z 02005KT 15SM SCT120 BKN250 15/09 A2993 RMK AC3CI1 SLP137=
CYYG;2005-05-30 23:00;METAR CYYG 302300Z 02004KT 15SM SCT130 BKN250 15/09 A2995 RMK AC4CI1 SLP142=
CYYG;2005-05-31 00:00;METAR CYYG 310000Z 36002KT 15SM SCT130 BKN250 12/08 A2996 RMK AC4CI1 SLP148=
CYYG;2005-05-31 01:00;METAR CYYG 310100Z 25002KT 15SM BKN140 BKN250 10/08 A2998 RMK AC5CI1 SLP155=
CYYG;2005-05-31 02:00;METAR CYYG 310200Z 13006KT 15SM BKN140 BKN250 10/08 A3000 RMK AC5CI1 SLP160=
CYYG;2005-05-31 03:00;METAR CYYG 310300Z 18004KT 15SM BKN140 BKN250 10/09 A3001 RMK AC5CI1 SLP163=
CYYG;2005-05-31 04:00;METAR CYYG 310400Z 20004KT 15SM BKN110 10/09 A3001 RMK AC6 SLP163=
CYYG;2005-05-31 05:00;METAR CYYG 310500Z 24004KT 15SM SCT110 BKN150 11/10 A3001 RMK AC3AC3 SLP165=
CYYG;2005-05-31 06:00;METAR CYYG 310600Z 26004KT 15SM SCT092 BKN150 11/09 A3002 RMK AC3AC3 SLP165=
CYYG;2005-05-31 07:00;METAR CYYG 310700Z 26003KT 15SM SCT092 BKN150 10/09 A3003 RMK AC4AC3 SLP169=
CYYG;2005-05-31 08:00;METAR CYYG 310800Z 23004KT 15SM BKN095 BKN150 10/09 A3004 RMK AC5AC2 SLP174=
CYYG;2005-05-31 09:00;METAR CYYG 310900Z 26004KT 15SM BKN095 BKN150 10/09 A3007 RMK AC6AC2 SLP185=
CYYG;2005-05-31 10:00;METAR CYYG 311000Z 00000KT 15SM BKN085 10/09 A3009 RMK AC7 SLP192=
CYYG;2005-05-31 11:00;METAR CYYG 311100Z 00000KT 15SM BKN090 11/10 A3011 RMK AC6 SLP196=
CYYG;2005-05-31 12:00;METAR CYYG 311200Z 23002KT 15SM -SHRA BKN090 12/10 A3011 RMK AC6 SLP198=
CYYG;2005-05-31 13:00;METAR CYYG 311300Z 00000KT 15SM BKN110 14/11 A3013 RMK AC6 SLP204=
CYYG;2005-05-31 14:00;METAR CYYG 311400Z 00000KT 15SM BKN100 16/11 A3012 RMK AC6 SLP202=
CYYG;2005-05-31 15:00;METAR CYYG 311500Z 12003KT 15SM BKN090 17/10 A3013 RMK AC5 SLP205=
CYYG;2005-05-31 16:00;METAR CYYG 311600Z 05003KT 15SM BKN090 18/11 A3014 RMK AC5 SLP206=
CYYG;2005-05-31 17:00;METAR CYYG 311700Z 16004KT 15SM FEW030 SCT100 BKN200 19/11 A3013 RMK SC2AC2CI0 SLP204=
CYYG;2005-05-31 18:00;METAR CYYG 311800Z 18003KT 15SM FEW030 SCT100 BKN200 20/11 A3013 RMK SC2AC2CI0 SLP204=
CYYG;2005-05-31 19:00;METAR CYYG 311900Z 19003KT 15SM FEW030 SCT090 BKN240 20/11 A3014 RMK SC1AC2CI2 SLP206=
CYYG;2005-05-31 21:00;METAR CYYG 312100Z 18005KT 15SM SCT098 BKN240 19/10 A3014 RMK AC3CI1 SLP207=
CYYG;2005-05-31 22:00;METAR CYYG 312200Z 08002KT 15SM SCT090 BKN240 19/10 A3014 RMK AC3CI1 SLP207=
CYYG;2005-05-31 23:00;METAR CYYG 312300Z 11003KT 15SM SCT090 BKN240 18/10 A3014 RMK AC3CI1 SLP206=
CYYG;2005-06-01 00:00;METAR CYYG 010000Z 12003KT 15SM FEW085 BKN240 15/10 A3014 RMK AC2CI1 SLP207=
CYYG;2005-06-01 01:00;METAR CYYG 010100Z 14003KT 15SM FEW085 BKN240 14/10 A3015 RMK AC2CI1 SLP211=
CYYG;2005-06-01 02:00;METAR CYYG 010200Z 20002KT 15SM FEW085 BKN240 11/09 A3016 RMK AC2CI1 SLP215=
CYYG;2005-06-01 03:00;METAR CYYG 010300Z 22003KT 15SM SKC 11/10 A3017 RMK SLP217=
CYYG;2005-06-01 04:00;METAR CYYG 010400Z 21004KT 15SM SKC 10/09 A3017 RMK SLP217=
CYYG;2005-06-01 05:00;METAR CYYG 010500Z 18004KT 15SM SKC 10/07 A3017 RMK SLP218=
CYYG;2005-06-01 06:00;METAR CYYG 010600Z 21005KT 15SM SKC 11/08 A3016 RMK SLP214=
CYYG;2005-06-01 07:00;METAR CYYG 010700Z 25005KT 15SM SKC 10/08 A3016 RMK SLP213=
CYYG;2005-06-01 08:00;METAR CYYG 010800Z 24008KT 15SM FEW300 10/08 A3015 RMK CI0 SLP212=
CYYG;2005-06-01 09:00;METAR CYYG 010900Z 23005KT 15SM FEW300 10/08 A3016 RMK CI0 SLP214=
CYYG;2005-06-01 10:00;METAR CYYG 011000Z 26005KT 15SM FEW300 12/09 A3017 RMK CI1 SLP216=
CYYG;2005-06-01 11:00;METAR CYYG 011100Z 27004KT 15SM FEW300 14/10 A3017 RMK CI0 SLP217=
CYYG;2005-06-01 12:00;METAR CYYG 011200Z 26004KT 15SM FEW300 17/11 A3018 RMK CI1 SLP220=
CYYG;2005-06-01 13:00;METAR CYYG 011300Z 27008KT 15SM SKC 20/09 A3018 RMK SLP220=
CYYG;2005-06-01 14:00;METAR CYYG 011400Z 27007KT 15SM SKC 21/10 A3017 RMK SLP218=
CYYG;2005-06-01 15:00;METAR CYYG 011500Z 29003KT 15SM FEW025 21/10 A3017 RMK CF1 SLP218=
CYYG;2005-06-01 16:00;METAR CYYG 011600Z 29005KT 15SM FEW025 23/11 A3015 RMK CF1 SLP211=
CYYG;2005-06-01 17:00;METAR CYYG 011700Z 27005KT 15SM FEW025 23/12 A3014 RMK CU1 SLP207=
CYYG;2005-06-01 18:00;METAR CYYG 011800Z 34007KT 15SM FEW045 24/09 A3012 RMK CU1 SLP201=
CYYG;2005-06-01 19:00;METAR CYYG 011900Z 27007KT 15SM FEW045 24/09 A3012 RMK CU1 SLP199=
CYYG;2005-06-01 20:00;METAR CYYG 012000Z 30007KT 15SM FEW050 24/08 A3011 RMK CU1 SLP195=
CYYG;2005-06-01 21:00;METAR CYYG 012100Z 25009KT 15SM FEW050 FEW100 24/10 A3010 RMK CU1AC1 SLP192=
CYYG;2005-06-01 22:00;METAR CYYG 012200Z 24008KT 15SM SKC 23/10 A3009 RMK SLP191=
CYYG;2005-06-01 23:00;METAR CYYG 012300Z 24005KT 15SM SKC 22/10 A3009 RMK SLP191=
CYYG;2005-06-02 00:00;METAR CYYG 020000Z 25008KT 15SM FEW280 19/09 A3010 RMK CI1 SLP192=
CYYG;2005-06-02 01:00;METAR CYYG 020100Z 25009KT 15SM FEW280 18/09 A3010 RMK CI1 SLP193=
CYYG;2005-06-02 02:00;METAR CYYG 020200Z 25011KT 15SM SKC 17/08 A3010 RMK SLP194=
CYYG;2005-06-02 03:00;METAR CYYG 020300Z 25008KT 15SM SKC 16/09 A3010 RMK SLP192=
CYYG;2005-06-02 04:00;METAR CYYG 020400Z 26009KT 15SM SKC 15/09 A3009 RMK SLP190=
CYYG;2005-06-02 05:00;METAR CYYG 020500Z 26010G15KT 15SM SKC 15/00 A3009 RMK SLP189=
CYYG;2005-06-02 06:00;METAR CYYG 020600Z 27011KT 15SM SKC 15/09 A3009 RMK SLP189=
CYYG;2005-06-02 07:00;METAR CYYG 020700Z 27013KT 15SM FEW100 15/09 A3008 RMK AC2 SLP186=
CYYG;2005-06-02 09:00;METAR CYYG 020900Z 27013G19KT 15SM FEW100 14/09 A3009 RMK AC2 SLP188=
CYYG;2005-06-02 10:00;METAR CYYG 021000Z 27013G18KT 15SM FEW100 15/10 A3009 RMK AC1 SLP188=
CYYG;2005-06-02 11:00;METAR CYYG 021100Z 27011G16KT 15SM FEW100 17/10 A3009 RMK AC1 SLP189=
CYYG;2005-06-02 12:00;METAR CYYG 021200Z 27011G18KT 15SM SKC 20/11 A3009 RMK SLP190=
CYYG;2005-06-02 13:00;METAR CYYG 021300Z 27012G18KT 15SM FEW310 21/10 A3008 RMK CI0 SLP187=
CYYG;2005-06-02 14:00;METAR CYYG 021400Z 26013KT 15SM FEW310 23/11 A3007 RMK CI0 SLP183=
CYYG;2005-06-02 15:00;METAR CYYG 021500Z 26008G15KT 15SM SKC 24/13 A3007 RMK SLP183=
CYYG;2005-06-02 16:00;METAR CYYG 021600Z 25011KT 15SM SKC 24/13 A3005 RMK SLP177=
CYYG;2005-06-02 17:00;METAR CYYG 021700Z 25011KT 15SM SKC 25/12 A3004 RMK SLP173=
CYYG;2005-06-02 18:00;METAR CYYG 021800Z 24013KT 15SM FEW040 25/12 A3002 RMK CF1 SLP167=
CYYG;2005-06-02 19:00;METAR CYYG 021900Z 26009G22KT 15SM FEW040 FEW080 FEW310 26/11 A3001 RMK CF1AC1CI0 SLP164=
CYYG;2005-06-02 20:00;METAR CYYG 022000Z 25012KT 15SM FEW080 SCT310 25/10 A3000 RMK AC1CI1 SLP159=
CYYG;2005-06-02 22:00;METAR CYYG 022200Z 25008KT 15SM FEW080 22/11 A2998 RMK AC1 K ALF SLP154=
CYYG;2005-06-02 23:00;METAR CYYG 022300Z 25006KT 15SM FEW080 20/10 A2999 RMK AC1 K ALF SLP156=
CYYG;2005-06-03 00:00;METAR CYYG 030000Z 25008KT 15SM FEW280 19/09 A2999 RMK CI2 SLP155=
CYYG;2005-06-03 01:00;METAR CYYG 030100Z 25012G17KT 15SM FEW280 18/07 A3000 RMK CI2 SLP158=
CYYG;2005-06-03 02:00;METAR CYYG 030200Z 24011G16KT 15SM SKC 17/07 A3000 RMK SLP158=
CYYG;2005-06-03 03:00;METAR CYYG 030300Z 21010KT 15SM FEW080 16/07 A2999 RMK AC1 SLP157=
CYYG;2005-06-03 04:00;METAR CYYG 030400Z 25010G15KT 15SM FEW100 15/08 A3000 RMK AC1 SLP159=
CYYG;2005-06-03 05:00;METAR CYYG 030500Z 26011G17KT 15SM FEW100 14/08 A2999 RMK AC1 SLP157=
CYYG;2005-06-03 06:00;METAR CYYG 030600Z 27008KT 15SM SKC 13/08 A2999 RMK SLP155=
CYYG;2005-06-03 07:00;METAR CYYG 030700Z 25010KT 15SM FEW110 12/07 A2997 RMK AC2 SLP150=
CYYG;2005-06-03 08:00;METAR CYYG 030800Z 24010KT 15SM FEW110 SCT280 12/08 A2997 RMK AC1CI3 SLP148=
CYYG;2005-06-03 09:00;METAR CYYG 030900Z 25010KT 15SM FEW110 SCT280 11/08 A2997 RMK AC1CI2 SLP150=
CYYG;2005-06-03 10:00;METAR CYYG 031000Z 25012KT 15SM FEW120 BKN300 12/09 A2998 RMK AC2CI1 SLP152=
CYYG;2005-06-03 11:00;METAR CYYG 031100Z 25012KT 15SM FEW110 BKN300 13/10 A2998 RMK AC2CI1 SLP151=
CYYG;2005-06-03 12:00;METAR CYYG 031200Z 24011G16KT 15SM FEW110 BKN300 16/11 A2996 RMK AC1CS2 SLP147=
CYYG;2005-06-03 13:00;METAR CYYG 031300Z 25013G18KT 15SM FEW110 BKN300 17/11 A2996 RMK AC1CS2 SLP145=
CYYG;2005-06-03 14:00;METAR CYYG 031400Z 24013G19KT 15SM FEW110 BKN300 18/12 A2994 RMK AC1CS2 SLP139=
CYYG;2005-06-03 15:00;METAR CYYG 031500Z 25014G20KT 15SM FEW040 BKN300 21/12 A2992 RMK CU1CS2 SLP132=
CYYG;2005-06-03 16:00;METAR CYYG 031600Z 26011G21KT 15SM FEW110 BKN300 23/13 A2990 RMK AC1CS2 SLP126=
CYYG;2005-06-03 17:00;METAR CYYG 031700Z 25017G24KT 15SM FEW110 BKN300 23/13 A2988 RMK AC1CS2 SLP120=
CYYG;2005-06-03 18:00;METAR CYYG 031800Z 25019G24KT 15SM BKN300 23/13 A2987 RMK CS3 SLP116=
CYYG;2005-06-03 19:00;METAR CYYG 031900Z 25017G25KT 15SM BKN300 23/13 A2985 RMK CS3 SLP110=
CYYG;2005-06-03 20:00;METAR CYYG 032000Z 26014G20KT 15SM FEW100 BKN300 24/14 A2984 RMK AC1CS2 SLP105=
CYYG;2005-06-03 21:00;METAR CYYG 032100Z 25014G20KT 15SM FEW100 BKN300 23/14 A2983 RMK AC1CI2 SLP103=
CYYG;2005-06-03 22:00;METAR CYYG 032200Z 24014G21KT 15SM FEW300 22/13 A2982 RMK CI1 SLP098=
CYYG;2005-06-03 23:00;METAR CYYG 032300Z 24011G17KT 15SM FEW100 FEW300 20/12 A2983 RMK AC1CI1 SLP102=
CYYG;2005-06-04 00:00;METAR CYYG 040000Z 23011G17KT 15SM FEW100 FEW300 18/12 A2983 RMK AC1CI0 SLP101=
CYYG;2005-06-04 01:00;METAR CYYG 040100Z 23013G25KT 15SM FEW130 17/12 A2983 RMK AC1 SLP102=
CYYG;2005-06-04 02:00;METAR CYYG 040200Z 24011G16KT 15SM FEW140 16/10 A2982 RMK AC2 SLP098=
CYYG;2005-06-04 04:00;METAR CYYG 040400Z 24014KT 15SM FEW150 15/09 A2980 RMK AC1 SLP092=
CYYG;2005-06-04 05:00;METAR CYYG 040500Z 25013KT 15SM FEW160 14/10 A2978 RMK AC2 SLP085=
CYYG;2005-06-04 06:00;METAR CYYG 040600Z 25010G16KT 15SM FEW110 14/10 A2977 RMK AC2 SLP081=
CYYG;2005-06-04 07:00;METAR CYYG 040700Z 26009KT 15SM FEW110 14/10 A2977 RMK AC2 SLP079=
CYYG;2005-06-04 08:00;METAR CYYG 040800Z 26009KT 15SM FEW110 SCT150 15/10 A2978 RMK AC2AC2 SLP083=
CYYG;2005-06-04 09:00;METAR CYYG 040900Z 27010G16KT 15SM FEW110 BKN150 BKN240 15/11 A2977 RMK AC2AC3CI0 SLP081=
CYYG;2005-06-04 10:00;METAR CYYG 041000Z 27006KT 15SM FEW130 BKN160 BKN300 15/11 A2979 RMK AC1AC5CI1 SLP088=
CYYG;2005-06-04 11:00;METAR CYYG 041100Z 28005KT 15SM BKN150 15/11 A2981 RMK AC6 SLP094=
CYYG;2005-06-04 12:00;METAR CYYG 041200Z 32005KT 15SM BKN160 BKN300 17/12 A2981 RMK AC5CI0 SLP096=
CYYG;2005-06-04 13:00;METAR CYYG 041300Z 35003KT 15SM BKN130 BKN300 18/13 A2981 RMK AC6CI0 SLP094=
CYYG;2005-06-04 14:00;METAR CYYG 041400Z 22006KT 15SM OVC120 18/14 A2981 RMK AC7 SLP094=
CYYG;2005-06-04 15:00;METAR CYYG 041500Z 01005KT 15SM OVC120 15/12 A2982 RMK AC6 SLP098=
CYYG;2005-06-04 16:00;METAR CYYG 041600Z 02009KT 15SM BKN120 15/10 A2984 RMK AC6 SLP106=
CYYG;2005-06-04 17:00;METAR CYYG 041700Z 03009KT 15SM BKN120 15/09 A2984 RMK AC6 SLP104=
CYYG;2005-06-04 18:00;METAR CYYG 041800Z 04011KT 15SM SCT120 BKN300 15/08 A2985 RMK AC3CI1 SLP107=
CYYG;2005-06-04 19:00;METAR CYYG 041900Z 04009KT 15SM FEW120 BKN300 14/06 A2987 RMK AC2CI2 SLP114=
CYYG;2005-06-04 20:00;METAR CYYG 042000Z 04009KT 15SM FEW120 BKN300 15/05 A2987 RMK AC2CI2 SLP116=
CYYG;2005-06-04 21:00;METAR CYYG 042100Z 05007KT 15SM OVC300 14/05 A2988 RMK CI5 SLP119=
CYYG;2005-06-04 22:00;METAR CYYG 042200Z 07005KT 15SM OVC300 13/05 A2989 RMK CI5 SLP122=
CYYG;2005-06-04 23:00;METAR CYYG 042300Z 06004KT 15SM FEW150 OVC300 12/04 A2989 RMK AC2CI4 SLP123=
CYYG;2005-06-05 00:00;METAR CYYG 050000Z 07003KT 15SM FEW090 FEW150 BKN300 12/03 A2990 RMK AC1AC2CI2 SLP127=
CYYG;2005-06-05 01:00;METAR CYYG 050100Z 08002KT 15SM SCT090 BKN300 10/03 A2993 RMK AC3CI2 SLP136=
CYYG;2005-06-05 02:00;METAR CYYG 050200Z 05002KT 15SM -SHRA BKN074 OVC300 10/06 A2993 RMK AC6CI0 SLP137=
CYYG;2005-06-05 02:50;SPECI CYYG 050250Z 11003KT 15SM BKN070 OVC120 RMK AC6AC2=
CYYG;2005-06-05 03:00;METAR CYYG 050300Z 08002KT 15SM BKN074 OVC120 10/05 A2994 RMK AC5AC2 SLP138=
CYYG;2005-06-05 04:00;METAR CYYG 050400Z 00000KT 15SM BKN075 OVC100 10/06 A2994 RMK AC6AC2 SLP138=
CYYG;2005-06-05 05:00;METAR CYYG 050500Z 08004KT 15SM BKN075 OVC100 10/03 A2991 RMK AC6AC2 SLP128=
CYYG;2005-06-05 06:00;METAR CYYG 050600Z 08003KT 15SM OVC078 09/03 A2990 RMK AC8 SLP125=
CYYG;2005-06-05 07:00;METAR CYYG 050700Z 06004KT 15SM OVC072 09/04 A2990 RMK AC8 SLP127=
CYYG;2005-06-05 08:00;METAR CYYG 050800Z 10003KT 15SM -SHRA OVC072 09/04 A2992 RMK AC8 SLP132=
CYYG;2005-06-05 09:00;METAR CYYG 050900Z 11006KT 15SM -SHRA OVC073 08/05 A2992 RMK AC8 SLP133=
CYYG;2005-06-05 10:00;METAR CYYG 051000Z 09006KT 15SM BKN072 08/04 A2994 RMK AC7 SLP140=
CYYG;2005-06-05 10:29;SPECI CYYG 051029Z 11004KT 15SM -SHRA OVC072 RMK AC8=
CYYG;2005-06-05 11:00;METAR CYYG 051100Z 13005KT 15SM OVC073 09/05 A2993 RMK AC8 SLP138=
CYYG;2005-06-05 12:00;METAR CYYG 051200Z 05004KT 15SM OVC073 09/06 A2996 RMK AC8 SLP147=
CYYG;2005-06-05 12:37;SPECI CYYG 051237Z 36004KT 15SM -SHRA OVC067 RMK AC8=
CYYG;2005-06-05 13:00;METAR CYYG 051300Z 33004KT 12SM -SHRA FEW067 OVC072 08/07 A2999 RMK AC2AC6 SLP157=
CYYG;2005-06-05 13:46;SPECI CYYG 051346Z 03002KT 15SM BKN072 OVC078 RMK AC6AC2=
CYYG;2005-06-05 14:00;METAR CYYG 051400Z 00000KT 15SM OVC073 09/07 A2998 RMK AC8 SLP154=
CYYG;2005-06-05 14:13;SPECI CYYG 051413Z 09004KT 15SM -SHRA OVC073 RMK AC8=
CYYG;2005-06-05 14:39;SPECI CYYG 051439Z 05006KT 15SM OVC073 RMK AC8=
CYYG;2005-06-05 15:00;METAR CYYG 051500Z 04005KT 15SM OVC074 10/08 A2999 RMK AC8 SLP157=
CYYG;2005-06-05 16:00;METAR CYYG 051600Z 01004KT 15SM FEW020 BKN074 11/08 A3000 RMK CU1AC7 SLP160=
CYYG;2005-06-05 17:00;METAR CYYG 051700Z 02006KT 15SM FEW020 BKN069 12/07 A3000 RMK CU1AC7 SLP159=
CYYG;2005-06-05 18:00;METAR CYYG 051800Z 36006KT 15SM FEW025 BKN070 12/07 A3001 RMK SC1AC6 SLP164=
CYYG;2005-06-05 19:00;METAR CYYG 051900Z 04010KT 15SM FEW025 BKN054 BKN070 12/05 A3003 RMK SC1SC4AC2 SLP169=
CYYG;2005-06-05 20:00;METAR CYYG 052000Z 04012KT 15SM FEW025 BKN059 BKN072 13/02 A3004 RMK CU1SC5AC1 SLP175=
CYYG;2005-06-05 21:00;METAR CYYG 052100Z 02010KT 15SM FEW059 BKN077 12/02 A3006 RMK SC2AC2 SLP180=
CYYG;2005-06-05 22:00;METAR CYYG 052200Z 03011KT 15SM FEW077 FEW300 11/06 A3008 RMK AC1CI0 SLP188=
CYYG;2005-06-05 23:00;METAR CYYG 052300Z 04010G15KT 15SM FEW077 SCT300 09/06 A3011 RMK AC1CI0 SLP196=
CYYG;2005-06-06 00:00;METAR CYYG 060000Z 05005KT 15SM SCT300 08/06 A3013 RMK CI1 SLP203=
CYYG;2005-06-06 01:00;METAR CYYG 060100Z 04003KT 15SM SCT300 06/05 A3016 RMK CI1 SLP213=
CYYG;2005-06-06 02:00;METAR CYYG 060200Z 04004KT 15SM SCT300 05/03 A3016 RMK CI1 SLP215=
CYYG;2005-06-06 03:00;METAR CYYG 060300Z 02003KT 15SM FEW300 03/02 A3017 RMK CI1 SLP217=
CYYG;2005-06-06 04:00;METAR CYYG 060400Z 03004KT 15SM FEW300 02/01 A3018 RMK CI0 SLP223=
CYYG;2005-06-06 05:00;METAR CYYG 060500Z 01003KT 15SM FEW300 02/01 A3018 RMK CI0 SLP223=
CYYG;2005-06-06 06:00;METAR CYYG 060600Z 35003KT 15SM FEW300 01/00 A3019 RMK CI0 SLP225=
CYYG;2005-06-06 07:00;METAR CYYG 060700Z 32002KT 15SM BKN300 01/00 A3020 RMK CI2 SLP229=
CYYG;2005-06-06 08:00;METAR CYYG 060800Z 34002KT 15SM MIFG BKN300 01/00 A3023 RMK CI1 FROIN SLP237=
CYYG;2005-06-06 08:30;SPECI CYYG 060830Z 00000KT 15SM MIFG FEW200 BKN300 RMK FU1CI1 FROIN=
CYYG;2005-06-06 09:00;METAR CYYG 060900Z 00000KT 15SM MIFG FEW060 BKN300 01/01 A3024 RMK FU1CI1 FROIN FG OVR RIVER SLP241=
CYYG;2005-06-06 10:00;METAR CYYG 061000Z 00000KT 15SM FEW060 BKN300 04/04 A3024 RMK SC1CI1 FG OVR RIVER SLP243=
CYYG;2005-06-06 11:00;METAR CYYG 061100Z 03004KT 15SM FEW060 BKN300 08/06 A3025 RMK SC1CI1 SLP247=
CYYG;2005-06-06 12:00;METAR CYYG 061200Z 10002KT 15SM FEW060 BKN300 11/04 A3026 RMK SC1CI1 SLP248=
CYYG;2005-06-06 13:00;METAR CYYG 061300Z 15004KT 15SM BKN300 13/02 A3025 RMK CI2 SLP246=
CYYG;2005-06-06 14:00;METAR CYYG 061400Z 18004KT 15SM BKN300 13/05 A3025 RMK CI2 SLP243=
CYYG;2005-06-06 15:00;METAR CYYG 061500Z 19008KT 15SM FEW100 FEW160 BKN300 14/03 A3024 RMK AC1AC1CI1 SLP242=
CYYG;2005-06-06 16:00;METAR CYYG 061600Z 18010G15KT 15SM FEW100 BKN300 14/01 A3023 RMK AC2CI1 SLP237=
CYYG;2005-06-06 17:00;METAR CYYG 061700Z 19008KT 15SM FEW100 BKN260 15/02 A3020 RMK AC2CC3 SLP228=
CYYG;2005-06-06 18:00;METAR CYYG 061800Z 13008KT 15SM FEW100 BKN260 16/01 A3016 RMK AC2CI3 SLP214=
CYYG;2005-06-06 19:00;METAR CYYG 061900Z 16006KT 15SM BKN150 BKN260 16/02 A3015 RMK AC6CI2 SLP211=
CYYG;2005-06-06 20:00;METAR CYYG 062000Z 17007KT 15SM BKN120 OVC150 15/03 A3013 RMK AC6AC2 SLP204=
CYYG;2005-06-06 21:00;METAR CYYG 062100Z 18011KT 15SM OVC100 13/04 A3012 RMK AC8 SLP202=
CYYG;2005-06-06 21:40;SPECI CYYG 062140Z 18011KT 15SM -RA OVC092 RMK AS8=
CYYG;2005-06-06 22:00;METAR CYYG 062200Z 18013KT 15SM -RA OVC085 12/05 A3013 RMK AS8 SLP205=
CYYG;2005-06-06 23:00;METAR CYYG 062300Z 17009KT 15SM -SHRA OVC075 10/07 A3012 RMK AC8 SLP202=
CYYG;2005-06-06 23:15;SPECI CYYG 062315Z 16010KT 15SM OVC075 RMK AC8=
CYYG;2005-06-07 00:00;METAR CYYG 070000Z 18014KT 15SM BKN070 OVC120 11/04 A3007 RMK AC5AC3 SLP184=
CYYG;2005-06-07 00:39;SPECI CYYG 070039Z 18017G22KT 15SM -SHRA BKN062 OVC110 RMK SC6AC2=
CYYG;2005-06-07 01:00;METAR CYYG 070100Z 18013G19KT 15SM OVC064 11/02 A3009 RMK SC8 SLP190=
CYYG;2005-06-07 01:22;SPECI CYYG 070122Z 17014KT 15SM -SHRA OVC063 RMK SC8=
CYYG;2005-06-07 02:00;METAR CYYG 070200Z 16011G18KT 15SM OVC064 10/02 A3006 RMK SC8 SLP181=
CYYG;2005-06-07 03:00;METAR CYYG 070300Z 16016KT 15SM OVC056 10/02 A3003 RMK SC8 SLP170=
CYYG;2005-06-07 03:23;SPECI CYYG 070323Z 16013G18KT 15SM OVC044 RMK SC8=
CYYG;2005-06-07 04:00;METAR CYYG 070400Z 17018KT 15SM OVC040 10/02 A2999 RMK SC8 SLP156=
CYYG;2005-06-07 05:00;METAR CYYG 070500Z 17017G25KT 15SM OVC038 09/02 A2994 RMK SC8 SLP141=
CYYG;2005-06-07 06:00;METAR CYYG 070600Z 17019G24KT 15SM OVC035 09/02 A2998 RMK SC8 PRESFR VIA CYH=
CYYG;2005-06-07 06:38;SPECI CYYG 070638Z 17015G21KT 15SM -SHRA OVC035 RMK SC8=
CYYG;2005-06-07 07:00;METAR CYYG 070700Z 18017KT 6SM -SHRA BR OVC030 08/05 A2989 RMK SC8=
CYYG;2005-06-07 07:04;SPECI CYYG 070704Z 18017KT 6SM -TSRA BR OVC030 RMK SC8 CB ASOCTD OCNL LTGIC=
CYYG;2005-06-07 08:00;METAR CYYG 070800Z 19019G25KT 5SM -TSRA BR SCT006 OVC015 09/08 A2985 RMK SF3SC5 RERA CB EMBDD OCNL LGTIC=
CYYG;2005-06-07 08:30;SPECI CYYG 070830Z 18016G21KT 5SM -SHRA BR BKN004 OVC015 RMK SF7SC1 RETS=
CYYG;2005-06-07 11:00;METAR CYYG 071100Z 18012KT 10SM -SHRA BKN009 OVC015 12/11 A2979 RMK SF5SC3 SLP088=
CYYG;2005-06-07 12:00;METAR CYYG 071200Z 18013G18KT 15SM -SHRA OVC011 12/11 A2976 RMK SC8 SLP078=
CYYG;2005-06-07 13:00;METAR CYYG 071300Z 18014KT 15SM -SHRA OVC010 13/13 A2973 RMK SC8 SLP069=
CYYG;2005-06-07 14:00;METAR CYYG 071400Z 18010KT 15SM OVC009 14/13 A2971 RMK SC8 SLP063=
CYYG;2005-06-07 15:00;METAR CYYG 071500Z 21014KT 15SM OVC009 15/15 A2970 RMK SC8 SLP059=
CYYG;2005-06-07 16:00;METAR CYYG 071600Z 22012G18KT 15SM OVC008 17/16 A2969 RMK SC8 SLP055=
CYYG;2005-06-07 17:00;METAR CYYG 071700Z 21013G18KT 15SM OVC011 18/16 A2967 RMK SC8 SLP048=
CYYG;2005-06-07 18:00;METAR CYYG 071800Z 22014G22KT 15SM OVC014 19/17 A2965 RMK SC8 SLP040=
CYYG;2005-06-07 19:00;METAR CYYG 071900Z 22016G21KT 15SM OVC014 19/17 A2963 RMK SC8 SLP036=
CYYG;2005-06-07 20:00;METAR CYYG 072000Z 22014G24KT 15SM OVC014 19/17 A2962 RMK SC8 SLP032=
CYYG;2005-06-07 20:32;SPECI CYYG 072032Z 22015G21KT 15SM BKN018 RMK SC6=
CYYG;2005-06-07 21:00;METAR CYYG 072100Z 22013G18KT 15SM BKN019 20/17 A2960 RMK SC6 SLP026=
CYYG;2005-06-07 22:00;METAR CYYG 072200Z 20011KT 10SM SCT020 19/17 A2959 RMK SC4 HAZE SLP022=
CYYG;2005-06-07 23:00;METAR CYYG 072300Z 22009KT 10SM FEW020 SCT100 19/17 A2959 RMK SC1AC3=
CYYG;2005-06-08 00:00;METAR CYYG 080000Z 21010KT 10SM SCT160 BKN250 17/16 A2960 RMK AC3CI2=
CYYG;2005-06-08 00:55;SPECI CYYG 080055Z 25010KT 5SM HZ FEW006 BKN080 RMK SF2AC3=
CYYG;2005-06-08 01:00;METAR CYYG 080100Z 25012KT 5SM HZ SCT006 BKN080 16/15 A2965 RMK SF3AC2 SLP041=
CYYG;2005-06-08 01:24;SPECI CYYG 080124Z 24015G24KT 7SM BKN008 OVC075 RMK SF5AC3=
CYYG;2005-06-08 01:45;SPECI CYYG 080145Z 24010G15KT 7SM -SHRA FEW008 OVC075 RMK SF2AC6=
CYYG;2005-06-08 02:00;METAR CYYG 080200Z 23010KT 10SM -SHRA FEW008 SCT075 OVC160 15/15 A2963 RMK SF1AC3AC4 SLP036=
CYYG;2005-06-08 03:00;METAR CYYG 080300Z 22009KT 15SM -SHRA FEW008 OVC110 15/14 A2961 RMK SF1AC7 SLP028=
CYYG;2005-06-08 03:46;SPECI CYYG 080346Z 22019KT 15SM FEW008 OVC070 RMK SF1AC8=
CYYG;2005-06-08 04:00;METAR CYYG 080400Z 22010G15KT 15SM BKN070 OVC120 16/15 A2961 RMK AC6AC2 SLP029=
CYYG;2005-06-08 05:00;METAR CYYG 080500Z 24012G17KT 15SM FEW006 OVC070 15/15 A2962 RMK SF2AC6 SLP031=
CYYG;2005-06-08 06:00;METAR CYYG 080600Z 25014KT 10SM BKN055 OVC070 15/14 A2961 RMK SC6AC2 SLP026=
CYYG;2005-06-08 07:00;METAR CYYG 080700Z 24009KT 10SM SCT110 OVC170 14/14 A2960 RMK AC3AC5 SLP025=
CYYG;2005-06-08 08:00;METAR CYYG 080800Z 25009KT 12SM FEW070 BKN120 14/13 A2962 RMK AC1AC6 SLP030=
CYYG;2005-06-08 09:00;METAR CYYG 080900Z 26009G15KT 12SM FEW005 FEW040 BKN150 13/13 A2964 RMK SF1SC2AC5 SLP037=
CYYG;2005-06-08 10:00;METAR CYYG 081000Z 26008KT 15SM BKN040 BKN150 14/14 A2967 RMK SC5AC2 SLP048=
CYYG;2005-06-08 11:00;METAR CYYG 081100Z 28009KT 15SM SCT050 BKN080 16/15 A2970 RMK SC4AC2 SLP056=
CYYG;2005-06-08 12:00;METAR CYYG 081200Z 29009KT 15SM FEW030 SCT050 BKN080 17/15 A2973 RMK SC2SC2AC2 SLP068=
CYYG;2005-06-08 13:00;METAR CYYG 081300Z 32010KT 15SM BKN024 17/12 A2974 RMK SC6 SLP073=
CYYG;2005-06-08 14:00;METAR CYYG 081400Z 33012G18KT 15SM BKN030 16/12 A2978 RMK SC6 SLP085=
CYYG;2005-06-08 16:00;METAR CYYG 081600Z 33007KT 15SM FEW012 BKN033 16/12 A2982 RMK CF1SC6 SLP100=
CYYG;2005-06-08 17:00;METAR CYYG 081700Z 36006KT 15SM FEW012 BKN034 16/12 A2983 RMK SC2SC5 SLP103=
CYYG;2005-06-08 18:00;METAR CYYG 081800Z 34007KT 15SM SCT034 BKN280 18/12 A2985 RMK SC3CI2 SLP110=
CYYG;2005-06-08 19:00;METAR CYYG 081900Z 35006KT 15SM FEW035 BKN280 17/11 A2987 RMK SC2CS3 SLP115=
CYYG;2005-06-08 20:00;METAR CYYG 082000Z 36004KT 15SM FEW035 OVC280 17/11 A2988 RMK SC2CS6 SLP119=
CYYG;2005-06-08 21:00;METAR CYYG 082100Z 36004KT 15SM FEW035 OVC280 17/11 A2990 RMK SC1CS7 SLP124=
CYYG;2005-06-08 22:00;METAR CYYG 082200Z 00000KT 15SM FEW150 OVC280 16/11 A2990 RMK AC2CS6 SLP127=
CYYG;2005-06-08 23:00;METAR CYYG 082300Z 11003KT 15SM FEW150 BKN300 16/12 A2992 RMK AC2CI2 SLP132=
CYYG;2005-06-09 00:00;METAR CYYG 090000Z 19003KT 15SM FEW150 BKN300 14/12 A2993 RMK AC2CI2 SLP137=
CYYG;2005-06-09 01:00;METAR CYYG 090100Z 21004KT 15SM FEW054 BKN300 14/12 A2995 RMK SC2CI1 SLP142=
CYYG;2005-06-09 02:00;METAR CYYG 090200Z 19002KT 15SM FEW054 SCT300 12/11 A2997 RMK SC1CI1 SLP148=
CYYG;2005-06-09 03:00;METAR CYYG 090300Z 18003KT 15SM FEW058 SCT300 11/11 A2999 RMK SC2CI0 SLP155=
CYYG;2005-06-09 04:00;METAR CYYG 090400Z 20005KT 15SM BKN055 12/11 A3000 RMK SC6 SLP160=
CYYG;2005-06-09 05:00;METAR CYYG 090500Z 20007KT 15SM BKN059 11/11 A3002 RMK SC6 SLP165=
CYYG;2005-06-09 06:00;METAR CYYG 090600Z 22006KT 15SM SCT055 11/11 A3002 RMK SC3 SLP167=
CYYG;2005-06-09 07:00;METAR CYYG 090700Z 23004KT 15SM SKC 11/11 A3004 RMK SLP173=
CYYG;2005-06-09 08:00;METAR CYYG 090800Z 25008KT 10SM SKC 11/11 A3005 RMK SLP177=
CYYG;2005-06-09 09:00;METAR CYYG 090900Z 25007KT 10SM FEW300 10/10 A3007 RMK CI0 SLP184=
CYYG;2005-06-09 10:00;METAR CYYG 091000Z 28004KT 4SM HZ FEW300 12/11 A3009 RMK CI1 SLP191=
CYYG;2005-06-09 11:00;METAR CYYG 091100Z 27005KT 4SM HZ FEW300 14/12 A3011 RMK CI1 SLP198=
CYYG;2005-06-09 12:00;METAR CYYG 091200Z 29004KT 6SM HZ SCT300 16/12 A3013 RMK CI2 SLP203=
CYYG;2005-06-09 13:00;METAR CYYG 091300Z 30002KT 6SM HZ BKN300 18/12 A3014 RMK CI2 SLP206=
CYYG;2005-06-09 14:00;METAR CYYG 091400Z 28006KT 6SM HZ BKN300 20/10 A3013 RMK CI3 SLP205=
CYYG;2005-06-09 15:00;METAR CYYG 091500Z 28008KT 6SM HZ BKN300 21/10 A3015 RMK CI3 SLP209=
CYYG;2005-06-09 16:00;METAR CYYG 091600Z 30007G17KT 6SM HZ FEW050 BKN300 22/11 A3016 RMK CU1CI2 SLP213=
CYYG;2005-06-09 17:00;METAR CYYG 091700Z 33005KT 8SM FEW050 BKN300 22/10 A3015 RMK CU1CI2 SLP211=
CYYG;2005-06-09 18:00;METAR CYYG 091800Z 00000KT 8SM BKN300 22/10 A3015 RMK CI2 HAZY SLP209=
CYYG;2005-06-09 19:00;METAR CYYG 091900Z 36008KT 10SM BKN300 21/09 A3015 RMK CI2 HAZY SLP209=
CYYG;2005-06-09 20:00;METAR CYYG 092000Z 05009KT 10SM OVC300 21/08 A3014 RMK CI2 HAZY SLP208=
CYYG;2005-06-09 21:00;METAR CYYG 092100Z 04009KT 10SM OVC260 20/07 A3014 RMK CI2 HAZY SLP208=
CYYG;2005-06-09 22:00;METAR CYYG 092200Z 05005KT 15SM FEW120 BKN300 19/08 A3014 RMK AC1CI1 SLP209=
CYYG;2005-06-09 23:00;METAR CYYG 092300Z 08006KT 15SM FEW120 BKN300 18/10 A3015 RMK AC1CI2 SLP210=
CYYG;2005-06-10 00:00;METAR CYYG 100000Z 11003KT 15SM FEW120 BKN300 16/10 A3014 RMK AC1CI1 SLP208=
CYYG;2005-06-10 01:00;METAR CYYG 100100Z 14006KT 15SM FEW120 BKN300 15/09 A3016 RMK AC1CI1 SLP212=
CYYG;2005-06-10 02:00;METAR CYYG 100200Z 13006KT 15SM SCT150 BKN300 14/08 A3016 RMK AC3CI0 SLP214=
CYYG;2005-06-10 03:00;METAR CYYG 100300Z 14006KT 15SM FEW150 BKN300 13/07 A3016 RMK AC1CI1 SLP212=
CYYG;2005-06-10 04:00;METAR CYYG 100400Z 15004KT 15SM FEW130 BKN300 13/07 A3016 RMK AC2CI0 SLP212=
CYYG;2005-06-10 05:00;METAR CYYG 100500Z 17003KT 15SM BKN110 BKN300 14/08 A3015 RMK AC5CI1 SLP209=
CYYG;2005-06-10 06:00;METAR CYYG 100600Z 20004KT 15SM FEW110 BKN130 BKN300 13/08 A3014 RMK AC2AC3CI1 SLP208=
CYYG;2005-06-10 07:00;METAR CYYG 100700Z 19006KT 15SM BKN140 13/11 A3014 RMK AC6 SLP205=
CYYG;2005-06-10 08:00;METAR CYYG 100800Z 19006KT 10SM FEW140 12/11 A3012 RMK AC2 SLP200=
CYYG;2005-06-10 09:00;METAR CYYG 100900Z 20005KT 10SM FEW110 SCT300 13/12 A3012 RMK AC2CI0 SLP198=
CYYG;2005-06-10 10:00;METAR CYYG 101000Z 19007KT 10SM FEW110 SCT280 16/13 A3010 RMK AC2CI0 SLP193=
CYYG;2005-06-10 11:00;METAR CYYG 101100Z 20008KT 10SM FEW070 SCT110 BKN280 16/14 A3009 RMK AC1AC3CI1 SLP189=
CYYG;2005-06-10 12:00;METAR CYYG 101200Z 21010KT 10SM FEW070 FEW110 BKN280 17/14 A3006 RMK AC1AC2CI1 SLP181=
CYYG;2005-06-10 13:00;METAR CYYG 101300Z 20010KT 10SM SCT082 BKN280 18/15 A3005 RMK AC3CI1 SLP175=
CYYG;2005-06-10 14:00;METAR CYYG 101400Z 20010KT 10SM BKN080 OVC280 19/15 A3004 RMK AC5CI0 SLP173=
CYYG;2005-06-10 15:00;METAR CYYG 101500Z 21012KT 8SM FEW080 BKN280 22/16 A3001 RMK AC2CI0 SLP163=
CYYG;2005-06-10 16:00;METAR CYYG 101600Z 20012KT 8SM FEW080 BKN280 23/17 A2999 RMK AC2CI0 SLP156=
CYYG;2005-06-10 17:00;METAR CYYG 101700Z 22012G17KT 10SM FEW080 BKN280 26/18 A2997 RMK AC2CI0 SLP149=
CYYG;2005-06-10 18:00;METAR CYYG 101800Z 24009G16KT 8SM SCT080 BKN280 27/19 A2996 RMK AC3CI0=
CYYG;2005-06-10 19:00;METAR CYYG 101900Z 24006KT 8SM FEW080 BKN280 26/19 A2993 RMK AC2CI2 HAZY SLP134=
CYYG;2005-06-10 20:00;METAR CYYG 102000Z 21013KT 8SM FEW100 OVC280 26/19 A2989 RMK AC2CI2 HAZY SLP123=
CYYG;2005-06-10 21:00;METAR CYYG 102100Z 23011KT 6SM HZ FEW100 OVC280 25/18 A2987 RMK AC2CI2 SLP114=
CYYG;2005-06-10 22:00;METAR CYYG 102200Z 22012KT 8SM FEW100 OVC280 24/18 A2985 RMK AC2CI2 HAZY SLP110=
CYYG;2005-06-10 23:00;METAR CYYG 102300Z 24014G21KT 12SM FEW100 FEW160 OVC280 22/17 A2985 RMK AC1AC2CI1 SLP107=
CYYG;2005-06-11 00:00;METAR CYYG 110000Z 25012KT 12SM FEW140 BKN230 OVC280 20/17 A2986 RMK AC2CC3CI1 SLP113=
CYYG;2005-06-11 01:00;METAR CYYG 110100Z 25013G22KT 12SM FEW140 BKN220 OVC280 19/17 A2986 RMK AC2CC4CI2 SLP112=
CYYG;2005-06-11 02:00;METAR CYYG 110200Z 26011G17KT 12SM BKN150 OVC220 18/16 A2986 RMK AC6CC2 SLP111=
CYYG;2005-06-11 03:00;METAR CYYG 110300Z 27009G15KT 12SM FEW012 OVC140 18/16 A2987 RMK SC2AC6 OCNL LTNG DIST N SLP117=
CYYG;2005-06-11 03:32;SPECI CYYG 110332Z 30005KT 12SM TS SCT015CB OVC130 RMK CB3AC5 CB W MOVG E=
CYYG;2005-06-11 03:51;SPECI CYYG 110351Z 27005KT 12SM -TSRA SCT015CB OVC120 RMK CB4AC4 LTGCG=
CYYG;2005-06-11 04:00;METAR CYYG 110400Z 28006KT 10SM -TSRA BKN019CB BKN070 OVC120 17/16 A2990 RMK CB5AC1AC2 LTGCG SLP126=
CYYG;2005-06-11 04:37;SPECI CYYG 110437Z 35006KT 12SM FEW040 OVC130 RETS RMK SC2AC6=
CYYG;2005-06-11 05:00;METAR CYYG 110500Z 29005KT 12SM SCT017 OVC130 16/16 A2990 RETS RMK SC3AC5 SLP125=
CYYG;2005-06-11 06:00;METAR CYYG 110600Z 01008KT 12SM SCT012 OVC140 15/15 A2991 RMK SC4AC4 SLP130=
CYYG;2005-06-11 06:19;SPECI CYYG 110619Z 36007G16KT 12SM FEW005 BKN012 OVC140 RMK SF1SC4AC3=
CYYG;2005-06-11 07:00;METAR CYYG 110700Z 01010KT 6SM BR FEW004 OVC014 12/12 A2996 RMK SF2SC6 SLP147=
CYYG;2005-06-11 08:00;METAR CYYG 110800Z 01010KT 3SM BR FEW002 BKN005 OVC020 10/10 A2998 RMK SF2SF6SC1 SLP153=
CYYG;2005-06-11 08:27;SPECI CYYG 110827Z 02011KT 2SM BR FEW002 OVC005 RMK SF2SF6=
CYYG;2005-06-11 08:49;SPECI CYYG 110849Z 02009G17KT 1SM BR BKN002 OVC005 RMK SF6SF2=
CYYG;2005-06-11 09:00;METAR CYYG 110900Z 04015KT 3SM BR OVC003 09/09 A2999 RMK SF8 VIS S 1 SLP157=
CYYG;2005-06-11 09:22;SPECI CYYG 110922Z 03012KT 2SM BR OVC002 RMK SF8 VIS E 1/2=
CYYG;2005-06-11 09:44;SPECI CYYG 110944Z 03015KT 5SM BR OVC003 RMK SF8=
CYYG;2005-06-11 10:00;METAR CYYG 111000Z 02009KT 10SM BKN004 09/08 A3002 RMK SF7 SLP167=
CYYG;2005-06-11 10:48;SPECI CYYG 111048Z 04012KT 15SM OVC007 RMK SF8=
CYYG;2005-06-11 11:00;METAR CYYG 111100Z 02011G16KT 15SM BKN007 09/08 A3005 RMK SF7 SLP176=
CYYG;2005-06-11 12:00;METAR CYYG 111200Z 02012KT 15SM OVC008 10/09 A3008 RMK SF8 SLP186=
CYYG;2005-06-11 12:11;SPECI CYYG 111211Z 03012KT 15SM OVC006 RMK SF8=
CYYG;2005-06-11 12:39;SPECI CYYG 111239Z 03011KT 15SM OVC008 RMK SF8=
CYYG;2005-06-11 13:00;METAR CYYG 111300Z 02009KT 15SM OVC010 10/09 A3010 RMK SC8 SLP194=
CYYG;2005-06-11 14:00;METAR CYYG 111400Z 04010KT 15SM OVC010 10/09 A3012 RMK SC8 SLP199=
CYYG;2005-06-11 15:00;METAR CYYG 111500Z 04006KT 15SM OVC013 11/09 A3012 RMK SC8 SLP202=
CYYG;2005-06-11 15:33;SPECI CYYG 111533Z 08006KT 15SM BKN015 OVC300 RMK SC7CI0=
CYYG;2005-06-11 16:00;METAR CYYG 111600Z 07005KT 15SM BKN015 OVC300 13/11 A3012 RMK SC6CI1 SLP201=
CYYG;2005-06-11 17:00;METAR CYYG 111700Z 09005KT 15SM FEW018 FEW040 BKN300 14/10 A3012 RMK SC2SC1CI2 SLP201=
CYYG;2005-06-11 18:00;METAR CYYG 111800Z 02007KT 15SM FEW020 BKN300 14/10 A3013 RMK SC1CI2 SLP203=
CYYG;2005-06-11 19:00;METAR CYYG 111900Z 04008KT 15SM FEW020 BKN300 14/10 A3014 RMK SC1CI2 SLP206=
CYYG;2005-06-11 20:00;METAR CYYG 112000Z 05010KT 15SM FEW020 BKN300 14/10 A3013 RMK SC1CI1 SLP205=
CYYG;2005-06-11 21:00;METAR CYYG 112100Z 05008KT 15SM FEW040 BKN300 13/09 A3012 RMK SC1CI2 SLP200=
CYYG;2005-06-11 22:00;METAR CYYG 112200Z 04006KT 15SM FEW030 BKN300 12/09 A3013 RMK SC1CI2 SLP203=
CYYG;2005-06-11 23:00;METAR CYYG 112300Z 05004KT 15SM FEW030 SCT300 11/09 A3013 RMK SC1CI2 SLP204=
CYYG;2005-06-12 00:00;METAR CYYG 120000Z 02003KT 15SM FEW030 SCT300 10/08 A3014 RMK SC1CI2 SLP207=
CYYG;2005-06-12 01:00;METAR CYYG 120100Z 07002KT 15SM FEW030 FEW300 08/08 A3015 RMK SC1CI2 SLP210=
CYYG;2005-06-12 02:00;METAR CYYG 120200Z 05002KT 15SM FEW030 FEW300 07/07 A3014 RMK SC1CI2 SLP208=
CYYG;2005-06-12 03:00;METAR CYYG 120300Z 11004KT 15SM FEW030 FEW300 08/08 A3013 RMK SC1CI2 SLP204=
CYYG;2005-06-12 04:00;METAR CYYG 120400Z 15005KT 15SM FEW030 09/08 A3013 RMK SC2 SLP203=
CYYG;2005-06-12 05:00;METAR CYYG 120500Z 15005KT 15SM FEW030 08/08 A3012 RMK SC2 SLP199=
CYYG;2005-06-12 06:00;METAR CYYG 120600Z 15006KT 15SM FEW030 09/09 A3009 RMK SC2 SLP191=
CYYG;2005-06-12 07:00;METAR CYYG 120700Z 16010KT 15SM FEW030 BKN300 10/10 A3007 RMK SC1CI2 SLP184=
CYYG;2005-06-12 08:00;METAR CYYG 120800Z 16009KT 15SM BKN300 11/10 A3007 RMK CI4 SLP184=
CYYG;2005-06-12 09:00;METAR CYYG 120900Z 17009KT 15SM FEW160 BKN300 11/10 A3006 RMK AC2CI3 SLP179=
CYYG;2005-06-12 10:00;METAR CYYG 121000Z 18010KT 15SM FEW030 SCT078 SCT300 12/10 A3006 RMK SC1ACC3CI0 ACC ASOCTD SLP179=
CYYG;2005-06-12 11:00;METAR CYYG 121100Z 18010KT 15SM FEW030 FEW075 BKN095 13/11 A3005 RMK SC2AC1AC5 ACC ASOCTD SLP176=
CYYG;2005-06-12 12:00;METAR CYYG 121200Z 18010G15KT 15SM FEW075 OVC095 13/10 A3002 RMK AC1AC8 SLP168=
CYYG;2005-06-12 13:00;METAR CYYG 121300Z 18010G15KT 15SM FEW030 SCT070 BKN095 15/11 A2998 RMK SC1AC2AC3 ACC ASOCTD SLP154=
CYYG;2005-06-12 14:00;METAR CYYG 121400Z 18012G17KT 15SM FEW030 BKN073 OVC120 17/12 A2996 RMK SC1AC6AC2 ACC ASOCTD SLP146=
CYYG;2005-06-12 14:51;SPECI CYYG 121451Z 18011KT 15SM -SHRA BKN060TCU OVC120 RMK TCU5AC3 VIS NW 5=
CYYG;2005-06-12 15:00;METAR CYYG 121500Z 19012KT 15SM -SHRA BKN060 OVC120 16/12 A2993 RMK SC6AC2 TCU ASOCTD VIS NW 5 SLP138=
CYYG;2005-06-12 15:52;SPECI CYYG 121552Z 22011KT 2 1/2SM +SHRA BR OVC040 RMK RA1SC7 TCU ASOCTD=
CYYG;2005-06-12 16:00;METAR CYYG 121600Z 20011KT 2 1/2SM +SHRA BR OVC035 13/13 A2992 RMK SC8 TCU ASOCTD VIS SW-W 10 SLP134=
CYYG;2005-06-12 16:17;SPECI CYYG 121617Z 18016G22KT 15SM -SHRA OVC030 RERA RMK SC8 TCU ASOCTD VIS N-SE 3=
CYYG;2005-06-12 18:00;METAR CYYG 121800Z 19010KT 15SM OVC028 16/15 A2985 RMK SC8 SLP107=
CYYG;2005-06-12 19:00;METAR CYYG 121900Z 20011KT 15SM BKN021 BKN140 17/15 A2981 RMK SC6AC1 SLP095=
CYYG;2005-06-12 20:00;METAR CYYG 122000Z 18008KT 15SM FEW025 BKN140 18/15 A2979 RMK SC1AC6 SLP089=
CYYG;2005-06-12 21:00;METAR CYYG 122100Z 22003KT 15SM FEW010 BKN020 19/17 A2978 RMK CF1SC7 SLP085=
CYYG;2005-06-12 22:00;METAR CYYG 122200Z 26010G15KT 15SM BKN015 BKN140 20/19 A2976 RMK SC5AC1 SLP079=
CYYG;2005-06-12 23:00;METAR CYYG 122300Z 25008KT 15SM SCT018 BKN140 20/18 A2976 RMK SC4AC2 SLP079=
CYYG;2005-06-13 00:00;METAR CYYG 130000Z 25004KT 15SM BKN039 19/18 A2977 RMK SC7 SLP080=
CYYG;2005-06-13 01:00;METAR CYYG 130100Z 27002KT 15SM BKN020 OVC038 19/18 A2977 RMK SC5SC3 SLP082=
CYYG;2005-06-13 02:00;METAR CYYG 130200Z 24002KT 15SM OVC019 18/18 A2976 RMK SC8 SLP078=
CYYG;2005-06-13 03:00;METAR CYYG 130300Z 00000KT 10SM OVC012 18/18 A2976 RMK SC8 SLP079=
CYYG;2005-06-13 04:00;METAR CYYG 130400Z 00000KT 8SM OVC013 17/17 A2975 RMK SC8 SLP074=
CYYG;2005-06-13 05:00;METAR CYYG 130500Z 27003KT 6SM BR OVC009 17/17 A2975 RMK SF8 SLP075=
CYYG;2005-06-13 05:14;SPECI CYYG 130514Z 36008KT 2 1/2SM BR OVC004 RMK SF8=
CYYG;2005-06-13 05:21;SPECI CYYG 130521Z 36006KT 1 1/2SM BR OVC002 RMK SF8=
CYYG;2005-06-13 05:24;SPECI CYYG 130524Z 01007KT 3/4SM -DZ BR VV001 RMK FG8 RVR RWY03 5000FT=
CYYG;2005-06-13 05:40;SPECI CYYG 130540Z 02009KT 1 1/2SM -DZ BR OVC003 RMK SF8=
CYYG;2005-06-13 06:00;METAR CYYG 130600Z 03009KT 1 1/2SM -DZ BR OVC003 13/12 A2974 RMK SF8 SLP072=
CYYG;2005-06-13 07:00;METAR CYYG 130700Z 01007KT 1 1/2SM -DZ BR OVC003 11/11 A2972 RMK SF8 SLP066=
CYYG;2005-06-13 08:00;METAR CYYG 130800Z 36008KT 3SM -DZ BR OVC004 11/11 A2973 RMK SF8 SLP067=
CYYG;2005-06-13 08:09;SPECI CYYG 130809Z 36006KT 2 1/2SM -SHRA BR OVC003 RMK SF8=
CYYG;2005-06-13 08:38;SPECI CYYG 130838Z 01006KT 5SM -SHRA BR OVC007 RMK SF8=
CYYG;2005-06-13 09:00;METAR CYYG 130900Z 36004KT 5SM -SHRA BR BKN004 OVC021 11/11 A2972 RMK SF7SC1 SLP065=
CYYG;2005-06-13 09:15;SPECI CYYG 130915Z 32003KT 6SM BR BKN009 OVC023 RMK SF6SC2=
CYYG;2005-06-13 09:37;SPECI CYYG 130937Z 00000KT 6SM BR SCT009 OVC024 RMK SF4SC4=
CYYG;2005-06-13 10:00;METAR CYYG 131000Z 00000KT 4SM BR SCT009 BKN025 12/12 A2971 RMK SF3SC4 SLP062=
CYYG;2005-06-13 10:45;SPECI CYYG 131045Z 36007KT 5SM BR BKN003 OVC025 RMK SF6SC2=
CYYG;2005-06-13 11:00;METAR CYYG 131100Z 36004KT 5SM BR BKN003 OVC025 12/12 A2973 RMK SF6SC2 SLP067=
CYYG;2005-06-13 11:32;SPECI CYYG 131132Z 35004KT 3SM -SHRA BR BKN003 OVC028 RMK SF6SC2=
CYYG;2005-06-13 12:00;METAR CYYG 131200Z 35004KT 4SM -SHRA BR BKN002 OVC029 11/11 A2973 RMK SF6SC2 SLP067=
CYYG;2005-06-13 13:00;METAR CYYG 131300Z 33009KT 5SM -SHRA BR BKN002 OVC028 11/11 A2974 RERA RMK SF6SC2 SLP072=
CYYG;2005-06-13 14:00;METAR CYYG 131400Z 07004KT 4SM -SHRA BR BKN002 BKN006 OVC028 12/12 A2972 RMK SF5SF2SC2 SLP066=
CYYG;2005-06-13 15:00;METAR CYYG 131500Z 03002KT 4SM BR BKN004 OVC028 12/12 A2971 RMK SF6SC2 SLP063=
CYYG;2005-06-13 16:00;METAR CYYG 131600Z 10005KT 3SM BR OVC004 13/13 A2971 RMK SF8 SLP062=
CYYG;2005-06-13 17:00;METAR CYYG 131700Z 08004KT 2SM BR OVC004 13/13 A2971 RMK SF8 SLP063=
CYYG;2005-06-13 17:35;SPECI CYYG 131735Z 11003KT 3SM -SHRA BR OVC004 RMK SF8=
CYYG;2005-06-13 18:00;METAR CYYG 131800Z 10005KT 5SM -DZ BR SCT002 OVC005 13/13 A2971 RMK SF3SF5 SLP061=
CYYG;2005-06-13 19:00;METAR CYYG 131900Z 11010KT 5SM -DZ BR FEW002 OVC005 13/13 A2971 RMK SF2SF6 SLP060=
CYYG;2005-06-13 20:00;METAR CYYG 132000Z 12009KT 3SM -DZ BR FEW003 OVC005 12/12 A2971 RMK SF2SF6 SLP060=
CYYG;2005-06-13 21:00;METAR CYYG 132100Z 12008KT 3SM -DZ BR FEW003 OVC005 12/12 A2971 RMK SF2SF6 SLP061=
CYYG;2005-06-13 21:39;SPECI CYYG 132139Z 11007KT 3SM -SHRA BR FEW003 OVC005 RMK SF2SF6=
CYYG;2005-06-13 22:00;METAR CYYG 132200Z 10010KT 3SM -SHRA BR FEW003 OVC007 11/11 A2973 RMK SF2SF6 SLP069=
CYYG;2005-06-13 23:00;METAR CYYG 132300Z 10008KT 5SM -SHRA BR OVC008 11/11 A2974 RMK SF8 SLP072=
CYYG;2005-06-14 00:00;METAR CYYG 140000Z 09007KT 6SM -SHRA BR OVC005 11/11 A2976 RMK SF8 SLP079=
CYYG;2005-06-14 01:00;METAR CYYG 140100Z 12009KT 6SM -SHRA BR OVC004 10/10 A2978 RMK SF8 SLP086=
CYYG;2005-06-14 01:30;SPECI CYYG 140130Z 12008KT 8SM -DZ BKN006 OVC029 RMK SF5SC3=
CYYG;2005-06-14 02:00;METAR CYYG 140200Z 12008KT 10SM -DZ BKN004 OVC028 10/10 A2980 RMK SF6SC2 SLP091=
CYYG;2005-06-14 02:43;SPECI CYYG 140243Z 11008KT 12SM FEW005 OVC035 RMK SF2SC6=
CYYG;2005-06-14 03:00;METAR CYYG 140300Z 12009KT 12SM FEW005 OVC036 10/10 A2980 RMK SF2SC6 SLP092=
CYYG;2005-06-14 04:00;METAR CYYG 140400Z 12009KT 15SM FEW005 OVC042 10/10 A2980 RMK SF2SC6 SLP091=
CYYG;2005-06-14 05:00;METAR CYYG 140500Z 10011KT 15SM SCT008 OVC040 10/10 A2983 RMK SF4SC4 SLP101=
CYYG;2005-06-14 06:00;METAR CYYG 140600Z 10007KT 15SM SCT008 OVC045 10/10 A2984 RMK SF3SC5 SLP105=
CYYG;2005-06-14 07:00;METAR CYYG 140700Z 10007KT 15SM FEW010 BKN075 10/09 A2984 RMK SF1AC6 SLP106=
CYYG;2005-06-14 08:00;METAR CYYG 140800Z 09006KT 15SM FEW010 BKN085 09/09 A2987 RMK SF1AC6 SLP114=
CYYG;2005-06-14 09:00;METAR CYYG 140900Z 10007KT 15SM FEW010 SCT085 BKN280 09/08 A2987 RMK SF1AC3CI1 SLP117=
CYYG;2005-06-14 10:00;METAR CYYG 141000Z 09009KT 15SM FEW010 SCT110 BKN300 10/09 A2988 RMK SF1AC2CI0 SLP121=
CYYG;2005-06-14 11:00;METAR CYYG 141100Z 10008KT 15SM BKN100 BKN300 10/08 A2990 RMK AC5CI0 SLP126=
CYYG;2005-06-14 12:00;METAR CYYG 141200Z 11011KT 15SM FEW030 BKN100 BKN300 12/08 A2990 RMK CU1AC6CI0 SLP126=
CYYG;2005-06-14 13:00;METAR CYYG 141300Z 11009KT 15SM FEW030 BKN100 BKN300 13/09 A2991 RMK CU1AC5CI0 SLP129=
CYYG;2005-06-14 14:00;METAR CYYG 141400Z 12010G15KT 15SM FEW030 SCT100 BKN300 15/09 A2991 RMK CU1AC4CI1 SLP129=
CYYG;2005-06-14 15:00;METAR CYYG 141500Z 13009G15KT 15SM FEW030 FEW100 FEW130 BKN300 16/08 A2991 RMK CU1AC1AC1CI0 SLP128=
CYYG;2005-06-14 16:00;METAR CYYG 141600Z 13014KT 15SM FEW030 FEW110 BKN300 17/06 A2991 RMK CU1AC2CI0 SLP128=
CYYG;2005-06-14 17:00;METAR CYYG 141700Z 13015KT 15SM FEW030 SCT110 BKN300 17/06 A2990 RMK CU1AC3CI2 SLP124=
CYYG;2005-06-14 18:00;METAR CYYG 141800Z 12011KT 15SM FEW030 FEW110 BKN300 18/07 A2990 RMK CU1AC2CI1 SLP125=
CYYG;2005-06-14 19:00;METAR CYYG 141900Z 13012KT 15SM FEW030 FEW110 BKN300 18/07 A2989 RMK CU1AC2CI0 SLP121=
CYYG;2005-06-14 20:00;METAR CYYG 142000Z 11009KT 15SM FEW030 FEW120 BKN300 18/08 A2989 RMK CU1AC2CI1 SLP121=
CYYG;2005-06-14 21:00;METAR CYYG 142100Z 06012KT 15SM FEW100 BKN300 16/06 A2989 RMK AC2CI1 SLP121=
CYYG;2005-06-14 22:00;METAR CYYG 142200Z 07009KT 15SM FEW100 BKN300 14/07 A2988 RMK AC2CI2 SLP119=
CYYG;2005-06-14 23:00;METAR CYYG 142300Z 06009KT 15SM FEW100 BKN300 13/06 A2990 RMK AC2CI1 SLP124=
CYYG;2005-06-15 00:00;METAR CYYG 150000Z 05009KT 15SM FEW100 BKN300 11/07 A2990 RMK AC2CI1 SLP126=
CYYG;2005-06-15 01:00;METAR CYYG 150100Z 06008KT 15SM SCT100 BKN300 09/06 A2990 RMK AC3CI1 SLP128=
CYYG;2005-06-15 02:00;METAR CYYG 150200Z 06005KT 15SM SCT100 BKN300 08/06 A2990 RMK AC3CI1 SLP128=
CYYG;2005-06-15 03:00;METAR CYYG 150300Z 06006KT 15SM SCT150 BKN300 08/06 A2990 RMK AC3CI1 SLP124=
CYYG;2005-06-15 04:00;METAR CYYG 150400Z 06006KT 15SM BKN150 OVC280 08/05 A2988 RMK AC5CI1 SLP120=
CYYG;2005-06-15 05:00;METAR CYYG 150500Z 04006KT 15SM SCT150 OVC280 06/05 A2988 RMK AC3CI2 SLP119=
CYYG;2005-06-15 06:00;METAR CYYG 150600Z 05006KT 15SM FEW150 OVC280 06/05 A2988 RMK AC2CI1 SLP120=
CYYG;2005-06-15 07:00;METAR CYYG 150700Z 05004KT 15SM FEW150 BKN280 07/06 A2988 RMK AC2CI1 SLP118=
CYYG;2005-06-15 08:00;METAR CYYG 150800Z 04003KT 15SM FEW150 BKN280 05/05 A2989 RMK AC2CI1 SLP123=
CYYG;2005-06-15 09:00;METAR CYYG 150900Z 08003KT 15SM FEW150 BKN280 06/06 A2988 RMK AC2CI1 SLP121=
CYYG;2005-06-15 10:00;METAR CYYG 151000Z 12006KT 15SM SCT005 BKN150 BKN280 08/07 A2990 RMK SF4AC2CI1 SLP125=
CYYG;2005-06-15 11:00;METAR CYYG 151100Z 09004KT 15SM FEW005 FEW150 BKN280 09/08 A2990 RMK SF1AC2CI1 SLP127=
CYYG;2005-06-15 12:00;METAR CYYG 151200Z 13002KT 15SM FEW008 FEW150 SCT280 12/09 A2991 RMK SF1AC1CI1 SLP131=
CYYG;2005-06-15 13:00;METAR CYYG 151300Z 11005KT 15SM FEW150 SCT280 14/08 A2990 RMK AC1CI1 SLP128=
CYYG;2005-06-15 14:00;METAR CYYG 151400Z 13005KT 15SM SCT220 16/08 A2990 RMK CI2 SLP127=
CYYG;2005-06-15 15:00;METAR CYYG 151500Z 13010G15KT 15SM BKN220 17/06 A2989 RMK CI2 SLP123=
CYYG;2005-06-15 16:00;METAR CYYG 151600Z 14012KT 15SM FEW030 FEW140 BKN220 19/08 A2989 RMK CF1AC2CI1 SLP121=
CYYG;2005-06-15 17:00;METAR CYYG 151700Z 15011KT 15SM FEW030 FEW140 BKN220 18/09 A2988 RMK CF1AC2CI1 SLP118=
CYYG;2005-06-15 18:00;METAR CYYG 151800Z 13012KT 15SM FEW030 FEW140 BKN220 19/09 A2987 RMK CF1AC2CI2 SLP116=
CYYG;2005-06-15 19:00;METAR CYYG 151900Z 11011KT 15SM FEW030 FEW140 BKN220 19/10 A2986 RMK CF1AC2CI2 SLP113=
CYYG;2005-06-15 20:00;METAR CYYG 152000Z 11012KT 15SM FEW140 BKN230 18/09 A2986 RMK AC2CI3 SLP112=
CYYG;2005-06-15 21:00;METAR CYYG 152100Z 12010KT 15SM FEW140 BKN240 17/09 A2987 RMK AC2CI3 SLP115=
CYYG;2005-06-15 22:00;METAR CYYG 152200Z 12013KT 15SM FEW140 BKN240 16/08 A2986 RMK AC2CI2 SLP113=
CYYG;2005-06-15 23:00;METAR CYYG 152300Z 12009KT 15SM FEW070 SCT140 BKN240 15/08 A2989 RMK AC2AC2CI2 SLP122=
CYYG;2005-06-16 00:00;METAR CYYG 160000Z 11009KT 15SM FEW140 BKN200 14/08 A2989 RMK AC2CI2 SLP123=
CYYG;2005-06-16 01:00;METAR CYYG 160100Z 13006KT 15SM FEW140 BKN200 13/08 A2991 RMK AC2CI2 SLP128=
CYYG;2005-06-16 02:00;METAR CYYG 160200Z 13007KT 15SM FEW140 BKN200 12/08 A2992 RMK AC2CI2 SLP131=
CYYG;2005-06-16 03:00;METAR CYYG 160300Z 13006KT 15SM BKN190 11/08 A2992 RMK CI5 SLP132=
CYYG;2005-06-16 04:00;METAR CYYG 160400Z 12011KT 15SM BKN170 10/07 A2990 RMK AC6 SLP127=
CYYG;2005-06-16 05:00;METAR CYYG 160500Z 11009KT 15SM BKN160 10/07 A2990 RMK AC6 SLP126=
CYYG;2005-06-16 06:00;METAR CYYG 160600Z 13009KT 15SM OVC140 09/07 A2990 RMK AC6 SLP124=
CYYG;2005-06-16 07:00;METAR CYYG 160700Z 12006KT 15SM OVC120 09/08 A2989 RMK AC6 SLP121=
CYYG;2005-06-16 08:00;METAR CYYG 160800Z 12006KT 15SM OVC100 09/08 A2988 RMK AC8 SLP118=
CYYG;2005-06-16 09:00;METAR CYYG 160900Z 13010G16KT 15SM FEW008 OVC085 09/07 A2989 RMK SF2AC6 SLP121=
CYYG;2005-06-16 09:06;SPECI CYYG 160906Z 13009KT 15SM -SHRA FEW008 OVC085 09/08 RMK SF2AC6=
CYYG;2005-06-16 10:00;METAR CYYG 161000Z 13009KT 15SM -SHRA FEW015 OVC092 09/08 A2989 RMK SC2AC6 SLP122=
CYYG;2005-06-16 10:43;SPECI CYYG 161043Z 13011KT 10SM -SHRA BKN011 OVC086 RMK SC5AC3=
CYYG;2005-06-16 11:00;METAR CYYG 161100Z 14009KT 15SM -SHRA BKN011 OVC086 09/08 A2991 RMK SC6AC2 SLP129=
CYYG;2005-06-16 11:39;SPECI CYYG 161139Z 13009G16KT 15SM BKN012 OVC017 RMK SC5SC3=
CYYG;2005-06-16 12:00;METAR CYYG 161200Z 13009KT 15SM FEW012 OVC016 10/09 A2990 RMK SC2SC6 SLP126=
CYYG;2005-06-16 12:04;SPECI CYYG 161204Z 13009G15KT 15SM -SHRA FEW008 OVC011 RMK SF2SC6=
CYYG;2005-06-16 12:47;SPECI CYYG 161247Z 11010KT 15SM -RA BKN009 OVC015 RMK SC6SC2=
CYYG;2005-06-16 13:00;METAR CYYG 161300Z 12009KT 15SM -RA OVC009 10/09 A2990 RMK SC8 SLP126=
CYYG;2005-06-16 13:49;SPECI CYYG 161349Z 11011G16KT 15SM -RA SCT010 BKN025 OVC063 RMK SC4SC2SC2=
CYYG;2005-06-16 14:00;METAR CYYG 161400Z 12011G17KT 15SM -RA FEW009 BKN012 OVC060 11/09 A2989 RMK SF1SC6SC1 SLP122=
CYYG;2005-06-16 15:00;METAR CYYG 161500Z 12013KT 15SM -RA FEW009 BKN013 OVC050 12/10 A2988 RMK SF1SC6SC1 SLP120=
CYYG;2005-06-16 16:00;METAR CYYG 161600Z 12013KT 8SM -RA OVC011 11/10 A2987 RMK SC8 SLP117=
CYYG;2005-06-16 17:00;METAR CYYG 161700Z 12013KT 10SM -RA BKN008 OVC014 11/10 A2986 RMK SF5SC3 SLP112=
CYYG;2005-06-16 17:43;SPECI CYYG 161743Z 13012G21KT 10SM -RA FEW008 OVC013 RMK SF2SC6=
CYYG;2005-06-16 18:00;METAR CYYG 161800Z 12015G20KT 15SM -RA BKN010 OVC014 11/10 A2985 RMK SC5SC3 SLP109=
CYYG;2005-06-16 19:00;METAR CYYG 161900Z 12013G19KT 15SM -RA BKN008 OVC012 11/10 A2984 RMK SF5SC3 SLP106=
CYYG;2005-06-16 19:48;SPECI CYYG 161948Z 12015KT 2 1/2SM -RA BR BKN008 OVC015 RMK SF6SC2=
CYYG;2005-06-16 20:00;METAR CYYG 162000Z 11013KT 2 1/2SM -RA BR OVC009 10/10 A2984 RMK SF8 SLP105=
CYYG;2005-06-16 20:16;SPECI CYYG 162016Z 11011G16KT 8SM -RA BKN009 OVC042 RMK SF5SC3 VIS LWR N-NE=
CYYG;2005-06-16 20:39;SPECI CYYG 162039Z 11008KT 15SM -RA FEW007 FEW015 OVC043 RMK SF1SC2SC6 VIS LWR NW-E=
CYYG;2005-06-16 21:00;METAR CYYG 162100Z 11011KT 15SM -RA FEW007 FEW014 OVC040 10/09 A2984 RMK SF1SC2SC6 SLP105=
CYYG;2005-06-16 21:52;SPECI CYYG 162152Z 12009KT 6SM -DZ BR FEW007 BKN010 OVC045 RMK SF1SF7SC1=
CYYG;2005-06-16 22:00;METAR CYYG 162200Z 12008KT 5SM -DZ BR FEW006 BKN009 OVC045 10/09 A2983 RMK SF2SF6SC1 SLP102=
CYYG;2005-06-16 22:39;SPECI CYYG 162239Z 12012G17KT 15SM SCT009 OVC025 RMK SF3SC5=
CYYG;2005-06-16 23:00;METAR CYYG 162300Z 11009G16KT 15SM SCT008 BKN021 OVC035 09/09 A2983 RMK SF3SC4SC1 SLP102=
CYYG;2005-06-16 23:44;SPECI CYYG 162344Z 11010KT 8SM -SHRA FEW008 BKN024 OVC035 RMK SF1SC6SC2=
CYYG;2005-06-17 00:00;METAR CYYG 170000Z 11008KT 8SM -SHRA FEW007 BKN010 OVC022 09/09 A2982 RMK SF2SC6SC1 SLP101=
CYYG;2005-06-17 00:13;SPECI CYYG 170013Z 10009KT 5SM -DZ BR BKN007 OVC018 RMK SF7SC1=
CYYG;2005-06-17 01:00;METAR CYYG 170100Z 08010G15KT 3SM -DZ BR FEW003 OVC006 09/08 A2982 RMK SF2SF6 SLP099=
CYYG;2005-06-17 01:54;SPECI CYYG 170154Z 08011G18KT 3SM -DZ BR BKN003 OVC006 RMK SF6SF2=
CYYG;2005-06-17 02:00;METAR CYYG 170200Z 08013G18KT 3SM -DZ BR BKN004 OVC011 09/08 A2981 RMK SF6SC2 SLP096=
CYYG;2005-06-17 03:00;METAR CYYG 170300Z 08009KT 4SM -DZ BR SCT004 OVC007 09/08 A2980 RMK SF4SF4 SLP093=
CYYG;2005-06-17 04:00;METAR CYYG 170400Z 08009KT 3SM -DZ BR SCT004 OVC007 09/08 A2978 RMK SF4SF4 SLP085=
CYYG;2005-06-17 05:00;METAR CYYG 170500Z 07008KT 2 1/2SM -DZ BR BKN004 OVC010 09/08 A2978 RMK SF7SC1 SLP084=
CYYG;2005-06-17 05:25;SPECI CYYG 170525Z 07009KT 2 1/2SM -SHRADZ BR OVC004 RMK SF8=
CYYG;2005-06-17 06:00;METAR CYYG 170600Z 07011KT 6SM -DZ BR OVC004 09/08 A2977 RMK SF8 SLP080=
CYYG;2005-06-17 06:26;SPECI CYYG 170626Z 07012G17KT 3SM -SHRADZ BR OVC006 RMK SF8=
CYYG;2005-06-17 07:00;METAR CYYG 170700Z 05008KT 3SM -SHRADZ BR OVC006 08/08 A2977 RMK SF8 SLP083=
CYYG;2005-06-17 07:03;SPECI CYYG 170703Z 05008KT 3SM -TSRADZ BR OVC006 RMK SF8 CB ASOCTD NW OCNL LTGIC=
CYYG;2005-06-17 07:41;SPECI CYYG 170741Z 07009KT 2 1/2SM -DZ BR BKN006 OVC013 RETS RMK SF6SC2 CB MOVD NE=
CYYG;2005-06-17 07:49;SPECI CYYG 170749Z 07009KT 2 1/2SM -SHRADZ BR BKN003 OVC010 RETS RMK SF7SC1=
CYYG;2005-06-17 08:00;METAR CYYG 170800Z 07009KT 2 1/2SM -SHRADZ BR BKN004 OVC008 09/08 A2976 RETS RMK SF7SC1 SLP078=
CYYG;2005-06-17 09:00;METAR CYYG 170900Z 06009KT 4SM -SHRADZ BR BKN005 OVC011 09/08 A2976 RMK SF7SC1 SLP079=
CYYG;2005-06-17 09:24;SPECI CYYG 170924Z 07010KT 10SM -DZ OVC005 RMK SF8=
CYYG;2005-06-17 10:00;METAR CYYG 171000Z 08010KT 15SM OVC008 09/09 A2977 RMK SF8 SLP080=
CYYG;2005-06-17 11:00;METAR CYYG 171100Z 08009KT 15SM OVC007 10/09 A2978 RMK SC8 SLP086=
CYYG;2005-06-17 12:00;METAR CYYG 171200Z 07008KT 15SM OVC008 10/10 A2978 RMK SC8 SLP085=
CYYG;2005-06-17 13:00;METAR CYYG 171300Z 07008KT 15SM OVC007 11/10 A2978 RMK SC8 SLP085=
CYYG;2005-06-17 14:00;METAR CYYG 171400Z 07006KT 15SM OVC009 12/11 A2977 RMK SC8 SLP082=
CYYG;2005-06-17 14:28;SPECI CYYG 171428Z 11007KT 15SM OVC010 RMK SC8=
CYYG;2005-06-17 15:00;METAR CYYG 171500Z 07006KT 15SM OVC010 12/11 A2979 RMK SC8 SLP090=
CYYG;2005-06-17 16:00;METAR CYYG 171600Z 08006KT 15SM OVC012 12/11 A2978 RMK SC8 SLP085=
CYYG;2005-06-17 17:00;METAR CYYG 171700Z 36006KT 15SM OVC011 12/11 A2979 RMK SC8 SLP088=
CYYG;2005-06-17 18:00;METAR CYYG 171800Z 04011KT 15SM OVC011 12/10 A2979 RMK SC8 SLP089=
CYYG;2005-06-17 18:06;SPECI CYYG 171806Z 04010KT 10SM -SHRA OVC012 RMK SC8=
CYYG;2005-06-17 19:04;SPECI CYYG 171904Z 06010KT 15SM OVC012 RMK SC8=
CYYG;2005-06-17 20:00;METAR CYYG 172000Z 03007KT 15SM OVC014 11/11 A2980 RMK SC8 SLP093=
CYYG;2005-06-17 21:00;METAR CYYG 172100Z 03010KT 15SM OVC010 11/11 A2979 RMK SC8 SLP090=
CYYG;2005-06-17 21:24;SPECI CYYG 172124Z 03010KT 15SM FEW004 OVC009 RMK SF1SC7=
CYYG;2005-06-17 22:00;METAR CYYG 172200Z 04010KT 15SM FEW004 OVC008 11/10 A2980 RMK SF2SC6 SLP091=
CYYG;2005-06-17 22:49;SPECI CYYG 172249Z 04008KT 15SM FEW007 BKN017 OVC044 RMK SF2SC3SC2=
CYYG;2005-06-17 23:00;METAR CYYG 172300Z 03007KT 15SM FEW007 BKN020 OVC044 10/10 A2980 RMK SF2SC3SC2 SLP093=
CYYG;2005-06-18 00:00;METAR CYYG 180000Z 05008KT 15SM FEW004 BKN023 OVC043 10/10 A2982 RMK SF2SC4SC2 SLP099=
CYYG;2005-06-18 00:42;SPECI CYYG 180042Z 05007KT 15SM FEW004 BKN013 OVC019 RMK SF1SC5SC2=
CYYG;2005-06-18 01:00;METAR CYYG 180100Z 04007KT 15SM BKN012 OVC019 10/10 A2983 RMK SC6SC2 SLP102=
CYYG;2005-06-18 01:23;SPECI CYYG 180123Z 05009KT 15SM BKN005 BKN011 OVC018 RMK SF5SC2SC2=
CYYG;2005-06-18 02:00;METAR CYYG 180200Z 06005KT 15SM FEW004 BKN010 OVC017 10/10 A2984 RMK SF2SC4SC2 SLP106=
CYYG;2005-06-18 03:00;METAR CYYG 180300Z 06004KT 15SM SCT009 OVC012 10/10 A2983 RMK SC3SC5 SLP103=
CYYG;2005-06-18 04:00;METAR CYYG 180400Z 03006KT 15SM BKN013 OVC017 10/10 A2983 RMK SC6SC2 SLP101=
CYYG;2005-06-18 05:00;METAR CYYG 180500Z 03005KT 10SM -DZ OVC012 10/10 A2983 RMK SC8 SLP102=
CYYG;2005-06-18 05:31;SPECI CYYG 180531Z 04004KT 5SM -DZ BR FEW002 BKN006 OVC014 RMK SF2SF5SC2=
CYYG;2005-06-18 06:00;METAR CYYG 180600Z 04006KT 5SM -DZ BR BKN006 OVC014 10/10 A2982 RMK SF6SC2 SLP100=
CYYG;2005-06-18 07:00;METAR CYYG 180700Z 06006KT 3SM -DZ BR BKN002 OVC009 10/10 A2982 RMK SF6SF2 SLP098=
CYYG;2005-06-18 08:00;METAR CYYG 180800Z 04006KT 3SM -DZ BR OVC002 10/10 A2983 RMK ST8 SLP101=
CYYG;2005-06-18 08:08;SPECI CYYG 180808Z 04007KT 2SM -DZ BR 002 RMK ST8=
CYYG;2005-06-18 09:00;METAR CYYG 180900Z 03006KT 2SM -DZ BR BKN002 OVC010 10/10 A2982 RMK SF6SF2 SLP099=
CYYG;2005-06-18 09:45;SPECI CYYG 180945Z 05003KT 1SM -DZ BR OVC002 RMK ST8 RVR RWY03 5000 FT=
CYYG;2005-06-18 10:00;METAR CYYG 181000Z 04005KT 1 1/2SM -DZ BR OVC004 10/10 A2985 RMK ST8 SLP108=
CYYG;2005-06-18 11:00;METAR CYYG 181100Z 04008KT 1 1/2SM -DZ BR OVC003 10/10 A2985 RMK ST8 SLP108=
CYYG;2005-06-18 12:00;METAR CYYG 181200Z 07008KT 3SM -DZ BR OVC003 10/10 A2985 RMK SF8 SLP110=
CYYG;2005-06-18 13:00;METAR CYYG 181300Z 05004KT 3SM -DZ BR OVC004 10/10 A2986 RMK SF8 SLP113=
CYYG;2005-06-18 14:00;METAR CYYG 181400Z 04005KT 3SM -DZ BR OVC004 11/11 A2983 RMK SF8 SLP104=
CYYG;2005-06-18 15:00;METAR CYYG 181500Z 00000KT 2SM -DZ BR OVC003 11/11 A2986 RMK SF8 SLP114=
CYYG;2005-06-18 16:00;METAR CYYG 181600Z 03004KT 2SM -DZ BR OVC003 12/12 A2985 RMK SF8 SLP108=
CYYG;2005-06-18 17:00;METAR CYYG 181700Z 11002KT 3SM -DZ BR OVC004 12/12 A2984 RMK SF8 SLP107=
CYYG;2005-06-18 18:00;METAR CYYG 181800Z 21004KT 2SM -DZ BR OVC005 13/13 A2985 RMK SF8 SLP107=
CYYG;2005-06-18 18:37;SPECI CYYG 181837Z 22004KT 6SM -DZ BR BKN006 OVC027 RMK SF6SC2=
CYYG;2005-06-18 19:00;METAR CYYG 181900Z 29004KT 10SM -DZ BKN005 OVC027 13/13 A2986 RMK SF7SC1 SLP112=
CYYG;2005-06-18 19:39;SPECI CYYG 181939Z 34004KT 3SM -DZ BR OVC003 RMK SF8=
CYYG;2005-06-18 20:00;METAR CYYG 182000Z 34005KT 3SM -DZ BR OVC003 12/12 A2987 RMK SF8 SLP117=
CYYG;2005-06-18 21:00;METAR CYYG 182100Z 33002KT 5SM -DZ BR OVC005 12/12 A2989 RMK SF8 SLP122=
CYYG;2005-06-18 21:15;SPECI CYYG 182115Z 33002KT 12SM BKN005 OVC030 RMK SF7SC1=
CYYG;2005-06-18 21:47;SPECI CYYG 182147Z 33003KT 15SM OVC006 RMK SF8=
CYYG;2005-06-18 22:00;METAR CYYG 182200Z 32003KT 15SM OVC005 12/12 A2989 RMK SF8 SLP124=
CYYG;2005-06-18 23:00;METAR CYYG 182300Z 34005KT 3SM BR OVC004 11/11 A2991 RMK SF8 SLP131=
CYYG;2005-06-18 23:08;SPECI CYYG 182308Z 34005KT 1 1/2SM -DZ BR OVC002 RMK FG2SF6=
CYYG;2005-06-19 00:00;METAR CYYG 190000Z 36004KT 1 1/2SM -DZ BR BKN002 OVC005 10/10 A2993 RMK FG2SF4SF2 SLP137=
CYYG;2005-06-19 01:00;METAR CYYG 190100Z 36004KT 1SM -DZ BR BKN002 OVC007 10/10 A2995 RMK FG2SF4SF2 SLP142=
CYYG;2005-06-19 01:45;SPECI CYYG 190145Z 03004KT 1/2SM -DZ FG VV002 RMK FG8 RVR RWY03 3000 FT=
CYYG;2005-06-19 02:00;METAR CYYG 190200Z 02002KT 1/2SM -DZ FG VV002 10/10 A2995 RMK FG8 SLP142=
CYYG;2005-06-19 03:00;METAR CYYG 190300Z 32002KT 1/2SM -DZ FG VV002 10/10 A2995 RMK FG8 RVR RWY03 3000 FT SLP143=
CYYG;2005-06-19 04:00;METAR CYYG 190400Z 26004KT 1SM -DZ BR SCT002 OVC016 10/10 A2996 RMK SF3SC5 SLP145=
CYYG;2005-06-19 05:00;METAR CYYG 190500Z 32004KT 3SM -DZ BR SCT002 OVC008 09/09 A2996 RMK SF3SF5 SLP148=
CYYG;2005-06-19 06:00;METAR CYYG 190600Z 32004KT 3SM -DZ BR SCT002 OVC009 09/09 A2996 RMK SF4SF4 SLP148=
CYYG;2005-06-19 07:00;METAR CYYG 190700Z 32005KT 2SM -DZ BR BKN002 OVC009 09/09 A2998 RMK SF6SF2 SLP154=
CYYG;2005-06-19 08:00;METAR CYYG 190800Z 03013KT 2SM -DZ BR OVC002 09/09 A3001 RMK SF8 SLP162=
CYYG;2005-06-19 09:00;METAR CYYG 190900Z 02012KT 3SM -DZ BR OVC003 09/09 A3002 RMK SF8 SLP167=
CYYG;2005-06-19 09:24;SPECI CYYG 190924Z 01009KT 3SM BR OVC003 RMK SF8=
CYYG;2005-06-19 10:00;METAR CYYG 191000Z 02011KT 5SM BR OVC003 09/09 A3004 RMK SF8 SLP174=
CYYG;2005-06-19 11:00;METAR CYYG 191100Z 02012G17KT 8SM OVC004 09/09 A3006 RMK SF8 SLP182=
CYYG;2005-06-19 11:48;SPECI CYYG 191148Z 02014G19KT 8SM OVC005 RMK SF8=
CYYG;2005-06-19 12:00;METAR CYYG 191200Z 03012KT 8SM OVC006 10/10 A3008 RMK SF8 SLP188=
CYYG;2005-06-19 13:00;METAR CYYG 191300Z 02013G19KT 10SM OVC006 09/09 A3011 RMK SF8 SLP198=
CYYG;2005-06-19 14:00;METAR CYYG 191400Z 02015G20KT 12SM OVC006 09/09 A3013 RMK SF8 SLP203=
CYYG;2005-06-19 15:00;METAR CYYG 191500Z 03017KT 15SM BKN009 11/09 A3014 RMK SC7 SLP206=
CYYG;2005-06-19 16:00;METAR CYYG 191600Z 02016G21KT 15SM BKN010 11/09 A3014 RMK SC7 SLP208=
CYYG;2005-06-19 17:00;METAR CYYG 191700Z 03015KT 15SM BKN014 12/10 A3015 RMK SC7 SLP211=
CYYG;2005-06-19 18:00;METAR CYYG 191800Z 36010G17KT 15SM BKN012 11/09 A3016 RMK SC7 SLP215=
CYYG;2005-06-19 19:00;METAR CYYG 191900Z 03012KT 15SM BKN015 12/09 A3018 RMK SC7 SLP220=
CYYG;2005-06-19 19:49;SPECI CYYG 191949Z 01010KT 15SM BKN012 RMK SC7=
CYYG;2005-06-19 20:00;METAR CYYG 192000Z 01009KT 15SM BKN011 11/09 A3018 RMK SC7 SLP221=
CYYG;2005-06-19 21:00;METAR CYYG 192100Z 02010KT 15SM BKN014 10/07 A3018 RMK SC6 SLP222=
CYYG;2005-06-19 21:20;SPECI CYYG 192120Z 02009KT 15SM BKN016 RMK SC6=
CYYG;2005-06-19 22:00;METAR CYYG 192200Z 02009KT 15SM SCT018 SCT250 11/08 A3019 RMK SC3CI1 SLP223=
CYYG;2005-06-19 23:00;METAR CYYG 192300Z 36004KT 15SM FEW012 SCT250 09/08 A3020 RMK SC2CI1 SLP227=
CYYG;2005-06-20 00:00;METAR CYYG 200000Z 36004KT 15SM FEW012 SCT250 08/07 A3021 RMK SC1CI1 SLP232=
CYYG;2005-06-20 01:00;METAR CYYG 200100Z 00000KT 15SM FEW250 07/07 A3022 RMK CI1 SLP235=
CYYG;2005-06-20 02:00;METAR CYYG 200200Z 03002KT 15SM FEW250 06/06 A3023 RMK CI1 SLP236=
CYYG;2005-06-20 05:00;METAR CYYG 200500Z 21003KT 15SM SCT004 07/07 A3021 RMK SF3 SLP231=
CYYG;2005-06-20 05:54;SPECI CYYG 200554Z 00000KT 15SM BKN005 RMK SF7=
CYYG;2005-06-20 06:00;METAR CYYG 200600Z 00000KT 15SM OVC005 07/07 A3021 RMK SF8 SLP230=
CYYG;2005-06-20 08:00;METAR CYYG 200800Z 21003KT 10SM BCFG SCT005 BKN250 06/06 A3020 RMK SF3CI1 SLP226=
CYYG;2005-06-20 09:00;METAR CYYG 200900Z 23004KT 10SM BCFG SCT250 06/06 A3021 RMK CI2 SLP232=
CYYG;2005-06-20 10:00;METAR CYYG 201000Z 20005KT 15SM FEW010 SCT250 08/08 A3021 RMK SC1CI0 SLP233=
CYYG;2005-06-20 11:00;METAR CYYG 201100Z 22009KT 15SM FEW010 SCT250 10/10 A3021 RMK SF2CI1 SLP231=
CYYG;2005-06-20 12:00;METAR CYYG 201200Z 20007KT 15SM FEW010 FEW250 12/10 A3021 RMK SF1CI0 SLP232=
CYYG;2005-06-20 13:00;METAR CYYG 201300Z 22006KT 15SM FEW012 FEW250 14/11 A3020 RMK SF1CI0 SLP228=
CYYG;2005-06-20 14:00;METAR CYYG 201400Z 19009KT 15SM FEW016 FEW250 15/11 A3018 RMK CF1CI1 SLP220=
CYYG;2005-06-20 15:00;METAR CYYG 201500Z 20008KT 15SM FEW260 16/12 A3016 RMK CI1 SLP213=
CYYG;2005-06-20 16:00;METAR CYYG 201600Z 21012KT 15SM FEW260 18/11 A3014 RMK CI1 SLP207=
CYYG;2005-06-20 17:00;METAR CYYG 201700Z 20009KT 15SM FEW260 19/13 A3012 RMK CI1 SLP202=
CYYG;2005-06-20 18:00;METAR CYYG 201800Z 20009KT 15SM FEW260 21/12 A3010 RMK CI1 SLP194=
CYYG;2005-06-20 19:00;METAR CYYG 201900Z 22009KT 15SM FEW260 22/13 A3006 RMK CI1 SLP181=
CYYG;2005-06-20 20:00;METAR CYYG 202000Z 20010KT 15SM FEW260 22/13 A3003 RMK CI1 SLP169=
CYYG;2005-06-20 21:00;METAR CYYG 202100Z 20011KT 15SM BKN260 21/12 A3000 RMK CI1 SLP160=
CYYG;2005-06-20 22:00;METAR CYYG 202200Z 22010KT 15SM SCT260 21/11 A2998 RMK CI1 SLP153=
CYYG;2005-06-20 23:00;METAR CYYG 202300Z 24010KT 15SM FEW260 20/11 A2998 RMK CI1 SLP154=
CYYG;2005-06-21 00:00;METAR CYYG 210000Z 24013G19KT 15SM FEW260 19/08 A2997 RMK CI1 SLP149=
CYYG;2005-06-21 01:00;METAR CYYG 210100Z 23014KT 15SM FEW260 17/09 A2997 RMK CI1 SLP148=
CYYG;2005-06-21 02:00;METAR CYYG 210200Z 22009KT 15SM FEW260 16/10 A2997 RMK CI1 SLP148=
CYYG;2005-06-21 03:00;METAR CYYG 210300Z 23010G16KT 15SM FEW260 15/10 A2995 RMK CI1 SLP143=
CYYG;2005-06-21 04:00;METAR CYYG 210400Z 23012KT 15SM FEW260 14/09 A2993 RMK CI1 SLP137=
CYYG;2005-06-21 05:00;METAR CYYG 210500Z 23012G17KT 15SM FEW260 14/09 A2992 RMK CI1 SLP131=
CYYG;2005-06-21 06:00;METAR CYYG 210600Z 23013G18KT 15SM FEW260 14/09 A2990 RMK CI1 SLP127=
CYYG;2005-06-21 07:00;METAR CYYG 210700Z 23011G16KT 15SM FEW260 14/09 A2989 RMK CI2 SLP123=
CYYG;2005-06-21 08:00;METAR CYYG 210800Z 25010KT 15SM FEW260 13/09 A2989 RMK CI2 SLP123=
CYYG;2005-06-21 09:00;METAR CYYG 210900Z 24009KT 15SM FEW260 13/09 A2988 RMK CI1 SLP120=
CYYG;2005-06-21 10:00;METAR CYYG 211000Z 23010G16KT 15SM FEW070 FEW220 FEW320 14/09 A2988 RMK AC1CC1CI0 SLP120=
CYYG;2005-06-21 11:00;METAR CYYG 211100Z 24010G16KT 15SM FEW220 BKN320 15/10 A2987 RMK CC1CI1 SLP115=
CYYG;2005-06-21 12:00;METAR CYYG 211200Z 23010KT 15SM BKN320 16/11 A2987 RMK CI2 SLP115=
CYYG;2005-06-21 13:00;METAR CYYG 211300Z 23010G15KT 15SM BKN320 17/12 A2986 RMK CI1 SLP111=
CYYG;2005-06-21 14:00;METAR CYYG 211400Z 23014G20KT 15SM BKN320 18/13 A2982 RMK CI1 CONTRAILS SLP100=
CYYG;2005-06-21 15:00;METAR CYYG 211500Z 24011G16KT 15SM BKN320 21/14 A2981 RMK CI1 CONTRAILS SLP094=
CYYG;2005-06-21 16:00;METAR CYYG 211600Z 25014KT 15SM FEW320 23/15 A2979 RMK CI0 CONTRAILS SLP090=
CYYG;2005-06-21 17:00;METAR CYYG 211700Z 24013G19KT 15SM FEW320 24/16 A2979 RMK CI0 SLP088=
CYYG;2005-06-21 18:00;METAR CYYG 211800Z 24013G19KT 15SM FEW320 24/15 A2977 RMK CI1 SLP082=
CYYG;2005-06-21 19:00;METAR CYYG 211900Z 25013G19KT 15SM FEW320 25/15 A2976 RMK CI1 SLP077=
CYYG;2005-06-21 20:00;METAR CYYG 212000Z 24014G20KT 15SM FEW320 25/14 A2973 RMK CI1 SLP066=
CYYG;2005-06-21 21:00;METAR CYYG 212100Z 23012KT 15SM SCT320 24/14 A2971 RMK CI1 SLP059=
CYYG;2005-06-21 22:00;METAR CYYG 212200Z 23013G20KT 15SM FEW320 23/14 A2969 RMK CI1 SLP053=
CYYG;2005-06-21 23:00;METAR CYYG 212300Z 24010G15KT 15SM FEW320 22/14 A2968 RMK CI1 SLP051=
CYYG;2005-06-22 00:00;METAR CYYG 220000Z 24015G20KT 15SM FEW320 20/13 A2967 RMK CI1 SLP048=
CYYG;2005-06-22 02:00;METAR CYYG 220200Z 22013G18KT 15SM FEW320 18/13 A2968 RMK CI1 SLP050=
CYYG;2005-06-22 03:00;METAR CYYG 220300Z 23014G19KT 15SM SCT300 17/12 A2967 RMK CI2 SLP046=
CYYG;2005-06-22 04:00;METAR CYYG 220400Z 24010G20KT 15SM SCT300 17/12 A2966 RMK CI2 SLP045=
CYYG;2005-06-22 05:00;METAR CYYG 220500Z 23016KT 15SM SCT300 17/12 A2964 RMK CI2 SLP037=
CYYG;2005-06-22 06:00;METAR CYYG 220600Z 25010KT 15SM BKN070 OVC300 16/13 A2965 RMK AC5CI1 SLP041=
CYYG;2005-06-22 07:00;METAR CYYG 220700Z 25013KT 15SM FEW070 BKN300 15/12 A2964 RMK AC2CI2 SLP037=
CYYG;2005-06-22 09:00;METAR CYYG 220900Z 25011KT 15SM FEW100 FEW230 BKN300 13/12 A2963 RMK AC2CI1CI1 SLP035=
CYYG;2005-06-22 10:00;METAR CYYG 221000Z 28007KT 15SM BKN048 OVC300 14/12 A2966 RMK SC6CI0 SLP042=
CYYG;2005-06-22 10:47;SPECI CYYG 221047Z 32007KT 15SM TS FEW022 BKN050 OVC300 RMK SC2SC6CI0 CB ASOCTD NW MOVG E OCNL LTGCG=
CYYG;2005-06-22 11:00;METAR CYYG 221100Z 34006KT 15SM TS FEW022 BKN050 OVC300 16/14 A2968 RMK SC1SC6CI0 CB ASOCTD NW MOVG E OCNL LTGCG SLP051=
CYYG;2005-06-22 11:22;SPECI CYYG 221122Z 34010KT 15SM FEW010 FEW022 OVC050 RETS RMK SC2SC1SC6 CB NE MOVG E OCNL LTGCG=
CYYG;2005-06-22 11:41;SPECI CYYG 221141Z 32010KT 15SM OVC009 RETS RMK SC8=
CYYG;2005-06-22 11:54;SPECI CYYG 221154Z 34007KT 15SM -SHRA BKN009 OVC050 RETS RMK SC5SC3=
CYYG;2005-06-22 12:00;METAR CYYG 221200Z 35008KT 15SM -SHRA BKN009 OVC050 16/15 A2970 RETS RMK SC5SC3 SLP056=
CYYG;2005-06-22 12:44;SPECI CYYG 221244Z 36011G18KT 15SM FEW009 OVC011 RMK SF2SC6=
CYYG;2005-06-22 13:00;METAR CYYG 221300Z 01007KT 15SM FEW009 FEW011 OVC055 15/13 A2972 RMK SF1SC2SC6 SLP064=
CYYG;2005-06-22 14:00;METAR CYYG 221400Z 36006KT 15SM VCSH OVC025 14/12 A2974 RMK SC8 SLP071=
CYYG;2005-06-22 14:11;SPECI CYYG 221411Z 01008KT 15SM -SHRA BKN025 OVC050 RMK SC7SC1=
CYYG;2005-06-22 15:00;METAR CYYG 221500Z 01009KT 15SM -SHRA BKN035 OVC050 14/12 A2975 RMK SC6SC2 SLP076=
CYYG;2005-06-22 15:38;SPECI CYYG 221538Z 36009KT 15SM FEW035 BKN100 RMK SC2AC6=
CYYG;2005-06-22 16:00;METAR CYYG 221600Z 36013KT 15SM BKN060 OVC100 15/11 A2977 RMK SC5AC3 SLP080=
CYYG;2005-06-22 17:00;METAR CYYG 221700Z 01011G16KT 15SM VCSH BKN060 OVC090 13/10 A2978 RMK SC5AC3 SLP084=
CYYG;2005-06-22 17:03;SPECI CYYG 221703Z 01010G16KT 15SM -SHRA BKN060 OVC090 RMK SC5AC3=
CYYG;2005-06-22 17:37;SPECI CYYG 221737Z 01010G15KT 15SM BKN046 OVC095 RMK SC5AC3=
CYYG;2005-06-22 18:00;METAR CYYG 221800Z 01009KT 15SM BKN045 OVC095 14/09 A2978 RMK SC6AC2 SLP085=
CYYG;2005-06-22 18:04;SPECI CYYG 221804Z 36010KT 15SM -SHRA BKN045 OVC095 RMK SC6AC2=
CYYG;2005-06-22 19:00;METAR CYYG 221900Z 36008KT 15SM -SHRA FEW045 OVC095 13/09 A2981 RMK SC2AC6 SLP094=
CYYG;2005-06-22 20:00;METAR CYYG 222000Z 36006KT 12SM -SHRA FEW045 OVC095 12/10 A2981 RMK SC1AC7 SLP096=
CYYG;2005-06-22 21:00;METAR CYYG 222100Z 02007KT 15SM VCSH BKN085 BKN110 11/09 A2982 RMK AC5AC2 SLP098=
CYYG;2005-06-22 22:00;METAR CYYG 222200Z 02005KT 15SM SCT085 BKN110 11/09 A2984 RMK AC3AC3 SLP105=
CYYG;2005-06-22 23:00;METAR CYYG 222300Z 01003KT 15SM FEW085 BKN110 12/09 A2986 RMK AC2AC4 SLP111=
CYYG;2005-06-23 00:00;METAR CYYG 230000Z 03002KT 15SM BKN110 11/09 A2987 RMK AC6 SLP114=
CYYG;2005-06-23 01:00;METAR CYYG 230100Z 34003KT 15SM BKN110 08/08 A2989 RMK AC5 SLP123=
CYYG;2005-06-23 02:00;METAR CYYG 230200Z 32003KT 15SM SCT110 07/06 A2990 RMK AC3 SLP127=
CYYG;2005-06-23 03:00;METAR CYYG 230300Z 30003KT 15SM SCT110 07/06 A2991 RMK AC3 SLP129=
CYYG;2005-06-23 04:00;METAR CYYG 230400Z 29004KT 15SM FEW110 FEW260 07/06 A2991 RMK AC2CI1 SLP129=
CYYG;2005-06-23 05:00;METAR CYYG 230500Z 30004KT 15SM FEW110 FEW260 08/06 A2990 RMK AC1CI2 SLP126=
CYYG;2005-06-23 06:00;METAR CYYG 230600Z 30004KT 15SM FEW260 08/06 A2990 RMK CI2 SLP127=
CYYG;2005-06-23 07:00;METAR CYYG 230700Z 29006KT 15SM FEW260 09/07 A2990 RMK CI1 SLP125=
CYYG;2005-06-23 08:00;METAR CYYG 230800Z 31006KT 15SM FEW260 08/07 A2990 RMK CI1 SLP126=
CYYG;2005-06-23 09:00;METAR CYYG 230900Z 32005KT 15SM FEW260 09/07 A2991 RMK CI1 SLP129=
CYYG;2005-06-23 10:00;METAR CYYG 231000Z 33006KT 15SM FEW260 11/08 A2992 RMK CI1 SLP132=
CYYG;2005-06-23 11:00;METAR CYYG 231100Z 34011KT 15SM FEW020 FEW120 FEW300 12/09 A2992 RMK SC1AC1CI1 SLP134=
CYYG;2005-06-23 12:00;METAR CYYG 231200Z 34009KT 15SM FEW020 FEW120 FEW300 13/09 A2993 RMK SC1AC1CI1 SLP138=
CYYG;2005-06-23 13:00;METAR CYYG 231300Z 33010KT 15SM FEW020 FEW300 14/10 A2994 RMK SC1CI1 SLP141=
CYYG;2005-06-23 14:00;METAR CYYG 231400Z 35011KT 15SM FEW020 FEW300 15/10 A2996 RMK SC1CI1 SLP146=
CYYG;2005-06-23 15:00;METAR CYYG 231500Z 34009G15KT 15SM FEW030 FEW300 15/10 A2997 RMK CU1CI0 SLP149=
CYYG;2005-06-23 16:00;METAR CYYG 231600Z 01011G16KT 15SM FEW030 FEW300 15/10 A2998 RMK CU1CI1 SLP152=
CYYG;2005-06-23 18:00;METAR CYYG 231800Z 36008KT 15SM FEW030 FEW300 16/10 A2996 RMK SC1CI1 SLP146=
CYYG;2005-06-23 19:00;METAR CYYG 231900Z 32009KT 15SM FEW030 FEW300 16/09 A2996 RMK SC1CI1 SLP146=
CYYG;2005-06-23 20:00;METAR CYYG 232000Z 34009KT 15SM FEW030 FEW300 17/08 A2996 RMK SC1CI1 SLP145=
CYYG;2005-06-23 21:00;METAR CYYG 232100Z 33006KT 15SM FEW030 FEW300 17/07 A2995 RMK SC1CI1 SLP142=
CYYG;2005-06-23 22:00;METAR CYYG 232200Z 34003KT 15SM FEW300 17/05 A2995 RMK CI1 SLP141=
CYYG;2005-06-23 23:00;METAR CYYG 232300Z 00000KT 15SM FEW300 16/07 A2995 RMK CI1 SLP141=
CYYG;2005-06-24 00:00;METAR CYYG 240000Z 00000KT 15SM FEW300 14/07 A2995 RMK CI1 SLP141=
CYYG;2005-06-24 01:00;METAR CYYG 240100Z 21005KT 15SM FEW300 14/08 A2997 RMK CI1 SLP149=
CYYG;2005-06-24 02:00;METAR CYYG 240200Z 23005KT 15SM FEW280 13/08 A2997 RMK CI1 SLP149=
CYYG;2005-06-24 03:00;METAR CYYG NIL=
CYYG;2005-06-24 04:00;METAR CYYG 240400Z 21007KT 15SM FEW280 12/09 A2995 RMK CI1 SLP141=
CYYG;2005-06-24 05:00;METAR CYYG 240500Z 22007KT 15SM FEW280 12/09 A2995 RMK CI1 SLP142=
CYYG;2005-06-24 06:00;METAR CYYG 240600Z 22007KT 15SM FEW280 12/09 A2995 RMK CI1 SLP142=
CYYG;2005-06-24 07:00;METAR CYYG 240700Z 22008KT 15SM SCT280 11/09 A2994 RMK CI2 SLP140=
CYYG;2005-06-24 08:00;METAR CYYG 240800Z 23005KT 15SM FEW180 SCT280 11/09 A2996 RMK AC1CI2 SLP144=
CYYG;2005-06-24 09:00;METAR CYYG 240900Z 23007KT 15SM FEW180 FEW280 11/09 A2996 RMK AC1CI1 SLP146=
CYYG;2005-06-24 10:00;METAR CYYG 241000Z 26007KT 15SM FEW170 FEW300 12/09 A2997 RMK AC1CI1 SLP149=
CYYG;2005-06-24 11:00;METAR CYYG 241100Z 26006KT 15SM FEW100 SCT300 15/10 A2998 RMK AC2CI0 SLP154=
CYYG;2005-06-24 12:00;METAR CYYG 241200Z 25006KT 15SM BKN140 BKN260 16/11 A2998 RMK AC2CI0 SLP153=
CYYG;2005-06-24 13:00;METAR CYYG 241300Z 25009KT 15SM FEW140 BKN260 18/12 A2999 RMK AC1CI2 SLP156=
CYYG;2005-06-24 14:00;METAR CYYG 241400Z 25008KT 15SM FEW140 BKN260 20/12 A2999 RMK AC1CI2 SLP155=
CYYG;2005-06-24 15:00;METAR CYYG 241500Z 28006KT 15SM BKN260 21/13 A2998 RMK CI2 SLP151=
CYYG;2005-06-24 16:00;METAR CYYG 241600Z 21011G16KT 15SM FEW100 BKN260 21/13 A2996 RMK AC1CI2 SLP146=
CYYG;2005-06-24 17:00;METAR CYYG 241700Z 22011KT 15SM FEW070 OVC260 22/13 A2994 RMK AC2CI2 SLP140=
CYYG;2005-06-24 18:00;METAR CYYG 241800Z 23010G15KT 15SM FEW070 OVC330 23/13 A2992 RMK AC1CI2 SLP133=
CYYG;2005-06-24 19:00;METAR CYYG 241900Z 23013G19KT 15SM BKN330 24/13 A2991 RMK CI2 SLP129=
CYYG;2005-06-24 20:00;METAR CYYG 242000Z 21009G15KT 15SM BKN330 23/15 A2990 RMK CI2 SLP126=
CYYG;2005-06-24 21:00;METAR CYYG 242100Z 23012KT 15SM FEW140 BKN330 23/12 A2988 RMK AC2CI2 SLP118=
CYYG;2005-06-24 22:00;METAR CYYG 242200Z 24015G24KT 15SM FEW140 OVC330 21/10 A2987 RMK AC2CI4 SLP117=
CYYG;2005-06-24 23:00;METAR CYYG 242300Z 23012G19KT 15SM VCSH SCT130 OVC330 20/09 A2985 RMK AC3CI4 SLP108=
CYYG;2005-06-24 23:21;SPECI CYYG 242321Z 23012KT 15SM -SHRA FEW040 BKN130 OVC330 RMK SC1AC4CI3=
CYYG;2005-06-25 00:00;METAR CYYG 250000Z 24014G21KT 15SM -SHRA FEW040 OVC120 20/09 A2982 RMK SC2AC6 SLP098=
CYYG;2005-06-25 01:00;METAR CYYG 250100Z 24011G17KT 15SM -SHRA FEW030 BKN080 OVC110 17/11 A2985 RMK SC1AC6AC2 SLP107=
CYYG;2005-06-25 01:27;SPECI CYYG 250127Z 25011G16KT 15SM -TSRA SCT032 OVC100 RMK SC3AC5 CB EMBD LTGIC W=
CYYG;2005-06-25 02:00;METAR CYYG 250200Z 25012KT 15SM -TSRA FEW025CB OVC110 15/13 A2985 RMK CB1AC7 CB E SLP108=
CYYG;2005-06-25 02:26;SPECI CYYG 250226Z 23010G17KT 15SM FEW020 OVC063 RETS RMK SC2SC6=
CYYG;2005-06-25 03:00;METAR CYYG 250300Z 23009KT 15SM FEW022 OVC064 15/13 A2983 RMK SC2SC6 SLP102=
CYYG;2005-06-25 04:00;METAR CYYG 250400Z 22009KT 15SM OVC060 16/12 A2982 RMK SC8 SLP098=
CYYG;2005-06-25 05:00;METAR CYYG 250500Z 23009KT 15SM OVC061 16/12 A2980 RMK SC8 SLP093=
CYYG;2005-06-25 06:00;METAR CYYG 250600Z 23008KT 15SM BKN060 OVC074 16/13 A2979 RMK SC6AC2 SLP088=
CYYG;2005-06-25 07:00;METAR CYYG 250700Z 23008KT 15SM SCT060 OVC110 16/13 A2979 RMK SC3AC5 SLP086=
CYYG;2005-06-25 08:00;METAR CYYG 250800Z 24005KT 15SM FEW060 SCT110 BKN280 15/13 A2979 RMK SC1AC3CI1 SLP087=
CYYG;2005-06-25 09:00;METAR CYYG 250900Z 20005KT 15SM FEW110 BKN280 15/13 A2979 RMK AC1CI1 SLP090=
CYYG;2005-06-25 10:00;METAR CYYG 251000Z 24007KT 15SM BKN280 16/13 A2981 RMK CI1 SLP095=
CYYG;2005-06-25 11:00;METAR CYYG 251100Z 24005KT 15SM BKN280 18/14 A2982 RMK CI1 SLP098=
CYYG;2005-06-25 12:00;METAR CYYG 251200Z 23006KT 15SM BKN280 20/15 A2982 RMK CI1 SLP098=
CYYG;2005-06-25 13:00;METAR CYYG 251300Z 25004KT 15SM OVC280 21/17 A2982 RMK CI2 SLP099=
CYYG;2005-06-25 14:00;METAR CYYG 251400Z 21006KT 15SM OVC280 22/17 A2982 RMK CI2 SLP097=
CYYG;2005-06-25 15:00;METAR CYYG 251500Z 21007KT 15SM FEW090 OVC280 24/18 A2978 RMK AC1CI2 SLP085=
CYYG;2005-06-25 16:00;METAR CYYG 251600Z 20006KT 15SM FEW090 OVC280 24/18 A2978 RMK AC1CI2 SLP083=
CYYG;2005-06-25 17:00;METAR CYYG 251700Z 23010KT 15SM FEW090 SCT280 25/18 A2976 RMK AC1CI1 SLP078=
CYYG;2005-06-25 18:00;METAR CYYG 251800Z 23008KT 15SM FEW090 BKN280 28/20 A2976 RMK AC1CI1 SLP077=
CYYG;2005-06-25 19:00;METAR CYYG 251900Z 24009KT 15SM BKN280 29/20 A2976 RMK CI2 SLP076=
CYYG;2005-06-25 20:00;METAR CYYG 252000Z 25013KT 15SM BKN280 29/19 A2976 RMK CI2 SLP077=
CYYG;2005-06-25 21:00;METAR CYYG 252100Z 25008KT 15SM FEW060 BKN280 27/19 A2976 RMK CU1CI2 SLP077=
CYYG;2005-06-25 22:00;METAR CYYG 252200Z 24008KT 15SM FEW070 BKN280 27/19 A2975 RMK CU2CI2 SLP075=
CYYG;2005-06-25 23:00;METAR CYYG 252300Z 24011KT 15SM FEW060 SCT110 BKN280 25/18 A2977 RMK SC2AC1CI1 TCU EMBD SLP079=
CYYG;2005-06-26 00:00;METAR CYYG 260000Z 23008KT 15SM FEW060TCU BKN150 BKN280 25/18 A2978 RMK TCU1AC4CI1 SLP083=
CYYG;2005-06-26 01:00;METAR CYYG 260100Z 25003KT 15SM BKN150 23/18 A2980 RMK AC7 SLP091=
CYYG;2005-06-26 02:00;METAR CYYG 260200Z 27002KT 15SM BKN130 23/18 A2982 RMK AC7 SLP096=
CYYG;2005-06-26 03:00;METAR CYYG 260300Z 27006KT 15SM BKN075 OVC130 23/18 A2983 RMK AC5AC3=
CYYG;2005-06-26 04:00;METAR CYYG 260400Z 30006KT 12SM SCT060 OVC140 25/19 A2984 RMK SC4AC4=
CYYG;2005-06-26 05:00;METAR CYYG 260500Z 26007KT 12SM FEW055 OVC130 23/19 A2985 RMK SC2AC6 SLP109=
CYYG;2005-06-26 06:00;METAR CYYG 260600Z 32004KT 15SM FEW055 SCT140 BKN280 21/19 A2986 RMK SC1AC2CI2 SLP112=
CYYG;2005-06-26 07:00;METAR CYYG 260700Z 34008KT 15SM FEW140 BKN280 21/19 A2989 RMK AC2CI1 SLP120=
CYYG;2005-06-26 08:00;METAR CYYG 260800Z 35009KT 15SM FEW070 FEW140 SCT280 20/18 A2992 RMK AC1AC1CI0 SLP130=
CYYG;2005-06-26 09:00;METAR CYYG 260900Z 02007KT 15SM MIFG FEW070 FEW140 BKN280 18/17 A2996 RMK AC1AC1CI1 SLP144=
CYYG;2005-06-26 10:00;METAR CYYG 261000Z 01007KT 6SM HZ FEW140 BKN280 18/16 A3000 RMK AC2CI1 SLP158=
CYYG;2005-06-26 11:00;METAR CYYG 261100Z 36007KT 10SM FEW140 BKN280 18/15 A3002 RMK AC1CI1 SLP165=
CYYG;2005-06-26 12:00;METAR CYYG 261200Z 03008KT 10SM FEW140 BKN280 18/15 A3005 RMK AC1CI1 SLP176=
CYYG;2005-06-26 13:00;METAR CYYG 261300Z 04008KT 15SM FEW020 BKN280 19/17 A3008 RMK CU1CI1 SLP185=
CYYG;2005-06-26 14:00;METAR CYYG 261400Z 05010KT 15SM FEW020 BKN280 20/17 A3009 RMK SC1CI1 SLP190=
CYYG;2005-06-26 15:00;METAR CYYG 261500Z 04008KT 15SM FEW020 FEW280 20/16 A3012 RMK CF1CI1 SLP198=
CYYG;2005-06-26 16:00;METAR CYYG 261600Z 01009KT 15SM FEW030 SCT280 20/15 A3014 RMK CU1CI2 SLP207=
CYYG;2005-06-26 17:00;METAR CYYG 261700Z 03010KT 15SM FEW030 SCT310 21/15 A3015 RMK CU1CI1 SLP209=
CYYG;2005-06-26 18:00;METAR CYYG 261800Z 04012KT 15SM FEW030 BKN310 20/15 A3016 RMK CU1CI1 SLP214=
CYYG;2005-06-26 19:00;METAR CYYG 261900Z 03011G16KT 15SM FEW030 FEW100 BKN310 19/14 A3018 RMK SC1AC1CI1 SLP221=
CYYG;2005-06-26 20:00;METAR CYYG 262000Z 03010KT 15SM FEW030 FEW100 BKN310 20/14 A3020 RMK SC1AC1CI2 SLP228=
CYYG;2005-06-26 21:00;METAR CYYG 262100Z 04008KT 15SM FEW030 SCT090 BKN310 18/13 A3021 RMK SC1AC3CI2 SLP230=
CYYG;2005-06-26 22:00;METAR CYYG 262200Z 03006KT 15SM FEW085 BKN120 BKN310 17/13 A3023 RMK AC2AC4CI2 SLP236=
CYYG;2005-06-26 23:00;METAR CYYG 262300Z 03006KT 15SM FEW085 SCT120 BKN310 16/13 A3024 RMK AC1AC2CI2 SLP239=
CYYG;2005-06-27 00:00;METAR CYYG 270000Z 05005KT 15SM SCT089 BKN120 BKN310 15/12 A3025 RMK AC3AC3CI0 SLP243=
CYYG;2005-06-27 01:00;METAR CYYG 270100Z 07005KT 15SM FEW090 BKN130 15/12 A3027 RMK AC2AC5 SLP252=
CYYG;2005-06-27 02:00;METAR CYYG 270200Z 10002KT 15SM SCT080 BKN130 15/11 A3029 RMK AC3AC4 SLP259=
CYYG;2005-06-27 03:00;METAR CYYG 270300Z 09002KT 15SM BKN078 BKN120 15/12 A3030 RMK AC6AC2 SLP262=
CYYG;2005-06-27 04:00;METAR CYYG 270400Z 00000KT 15SM OVC077 15/12 A3031 RMK AC8 SLP266=
CYYG;2005-06-27 05:00;METAR CYYG 270500Z 13003KT 15SM OVC078 15/11 A3032 RMK AC8 SLP267=
CYYG;2005-06-27 06:00;METAR CYYG 270600Z 16003KT 15SM BKN080 14/09 A3031 RMK AC7 SLP265=
CYYG;2005-06-27 07:00;METAR CYYG 270700Z 08003KT 15SM BKN096 14/10 A3032 RMK AC7 SLP267=
CYYG;2005-06-27 08:00;METAR CYYG 270800Z 07003KT 15SM BKN100 13/11 A3033 RMK AC6 SLP271=
CYYG;2005-06-27 09:00;METAR CYYG 270900Z 07004KT 15SM BKN086 BKN300 13/11 A3036 RMK AC6CI0 SLP280=
CYYG;2005-06-27 10:00;METAR CYYG 271000Z 09006KT 15SM SCT075 BKN099 BKN300 14/09 A3036 RMK AC3AC2CI0 SLP283=
CYYG;2005-06-27 11:00;METAR CYYG 271100Z 12004KT 15SM FEW077 SCT095 BKN300 15/08 A3038 RMK AC2AC2CI0 SLP287=
CYYG;2005-06-27 12:00;METAR CYYG 271200Z 16003KT 15SM FEW077 FEW095 BKN300 17/09 A3038 RMK AC1AC1CI0 SLP288=
CYYG;2005-06-27 13:00;METAR CYYG 271300Z 16004KT 15SM FEW077 BKN300 19/10 A3037 RMK AC1CI1 SLP286=
CYYG;2005-06-27 14:00;METAR CYYG 271400Z 13005KT 15SM FEW080 BKN300 21/11 A3036 RMK AC1CI2 SLP283=
CYYG;2005-06-27 15:00;METAR CYYG 271500Z 12003KT 15SM FEW080 BKN300 23/13 A3036 RMK AC1CI2 SLP280=
CYYG;2005-06-27 16:00;METAR CYYG 271600Z 18004KT 15SM FEW073 BKN300 24/14 A3035 RMK AC2CI1 SLP278=
CYYG;2005-06-27 17:00;METAR CYYG 271700Z 17007KT 15SM FEW083 BKN300 24/14 A3033 RMK ACC2CI2 SLP273=
CYYG;2005-06-27 18:00;METAR CYYG 271800Z 15009KT 15SM FEW079 BKN300 25/14 A3031 RMK ACC2CI2 SLP263=
CYYG;2005-06-27 19:00;METAR CYYG 271900Z 17008KT 15SM FEW079 BKN300 25/13 A3029 RMK ACC1CI2 SLP256=
CYYG;2005-06-27 20:00;METAR CYYG 272000Z 16010KT 15SM FEW050 BKN300 25/13 A3028 RMK CU1CI2 SLP253=
CYYG;2005-06-27 21:00;METAR CYYG 272100Z 18010KT 15SM BKN300 24/14 A3027 RMK CI2 SLP249=
CYYG;2005-06-27 22:00;METAR CYYG 272200Z 18008KT 15SM BKN300 24/15 A3025 RMK CI2 SLP245=
CYYG;2005-06-27 23:00;METAR CYYG 272300Z 20010G15KT 15SM BKN300 22/14 A3026 RMK CI2 SLP246=
CYYG;2005-06-28 00:00;METAR CYYG 280000Z 20012KT 15SM BKN300 21/13 A3025 RMK CI2 SLP244=
CYYG;2005-06-28 01:00;METAR CYYG 280100Z 19012KT 15SM BKN300 19/12 A3026 RMK CI2 SLP246=
CYYG;2005-06-28 02:00;METAR CYYG 280200Z 18014KT 15SM BKN300 18/10 A3024 RMK CI2 SLP241=
CYYG;2005-06-28 03:00;METAR CYYG 280300Z 18012KT 15SM SCT300 17/09 A3023 RMK CI2 SLP235=
CYYG;2005-06-28 04:00;METAR CYYG 280400Z 18008KT 15SM SCT300 16/09 A3021 RMK CI2 SLP230=
CYYG;2005-06-28 05:00;METAR CYYG 280500Z 17008KT 15SM SCT300 16/09 A3020 RMK CI2 SLP228=
CYYG;2005-06-28 06:00;METAR CYYG 280600Z 17010KT 15SM FEW300 16/11 A3019 RMK CI2 SLP223=
CYYG;2005-06-28 07:00;METAR CYYG 280700Z 19011KT 15SM FEW084 SCT300 15/13 A3018 RMK AC1CI1 SLP219=
CYYG;2005-06-28 08:00;METAR CYYG 280800Z 19012KT 15SM FEW095 BKN300 15/14 A3017 RMK AC2CI3 SLP218=
CYYG;2005-06-28 09:00;METAR CYYG 280900Z 20012KT 15SM SCT008 BKN095 OVC300 16/15 A3016 RMK SF3AC2CI2 SLP213=
CYYG;2005-06-28 09:10;SPECI CYYG 280910Z 21012KT 15SM BKN008 OVC095 RMK SF6AC2=
CYYG;2005-06-28 10:00;METAR CYYG 281000Z 22015G21KT 12SM OVC006 16/15 A3015 RMK SF8 SLP210=
CYYG;2005-06-28 11:00;METAR CYYG 281100Z 21014KT 12SM OVC007 16/15 A3014 RMK SF8 SLP207=
CYYG;2005-06-28 12:00;METAR CYYG 281200Z 22015KT 10SM OVC007 17/15 A3012 RMK SF8 SLP201=
CYYG;2005-06-28 13:00;METAR CYYG 281300Z 21016KT 10SM OVC010 19/16 A3011 RMK SF6 SLP195=
CYYG;2005-06-28 14:00;METAR CYYG 281400Z 23018KT 12SM OVC012 20/17 A3008 RMK SC6 SLP187=
CYYG;2005-06-28 15:00;METAR CYYG 281500Z 23014G21KT 15SM BKN012 22/19 A3007 RMK SC5 SLP182=
CYYG;2005-06-28 15:11;SPECI CYYG 281511Z 23011G21KT 15SM SCT015 RMK SC3=
CYYG;2005-06-28 16:00;METAR CYYG 281600Z 23016G24KT 15SM SCT015 23/20 A3004 RMK SC4 SLP173=
CYYG;2005-06-28 17:00;METAR CYYG 281700Z 22017G25KT 15SM FEW015 25/21 A3002 RMK SC2 HAZY SLP167=
CYYG;2005-06-28 18:00;METAR CYYG 281800Z 25018G25KT 15SM FEW015 25/21 A3002 RMK SC2 SLP165=
CYYG;2005-06-28 19:00;METAR CYYG 281900Z 25018KT 15SM FEW015 25/21 A3000 RMK CF1 SLP158=
CYYG;2005-06-28 20:00;METAR CYYG 282000Z 23016G26KT 15SM FEW020 25/20 A2998 RMK CF1 SLP152=
CYYG;2005-06-28 21:00;METAR CYYG 282100Z 24016G24KT 15SM FEW030 25/20 A2996 RMK CU1 SLP144=
CYYG;2005-06-28 22:00;METAR CYYG 282200Z 23013G21KT 15SM FEW030 24/18 A2995 RMK CF1 SLP141=
CYYG;2005-06-28 23:00;METAR CYYG 282300Z 24011G20KT 15SM FEW015 23/20 A2994 RMK CF1 SLP139=
CYYG;2005-06-29 00:00;METAR CYYG 290000Z 23011KT 15SM FEW012 22/19 A2993 RMK SC1 SLP135=
CYYG;2005-06-29 01:00;METAR CYYG 290100Z 24010G15KT 15SM FEW012 21/19 A2994 RMK SC1 SLP138=
CYYG;2005-06-29 02:00;METAR CYYG 290200Z 23011KT 15SM SCT010 21/19 A2993 RMK SF3 SLP137=
CYYG;2005-06-29 03:00;METAR CYYG 290300Z 23016G22KT 12SM SCT011 21/19 A2993 RMK SF4 SLP133=
CYYG;2005-06-29 03:13;SPECI CYYG 290313Z 24015G21KT 12SM BKN012 RMK SF5=
CYYG;2005-06-29 04:00;METAR CYYG 290400Z 23012G18KT 12SM BKN013 21/19 A2992 RMK SC7 SLP130=
CYYG;2005-06-29 05:00;METAR CYYG 290500Z 22011G17KT 12SM FEW007 OVC014 21/20 A2990 RMK SF1SC7 SLP126=
CYYG;2005-06-29 06:00;METAR CYYG 290600Z 23009G16KT 12SM FEW007 OVC014 21/20 A2989 RMK SF1SC7 SLP122=
CYYG;2005-06-29 07:00;METAR CYYG 290700Z 23013KT 12SM BKN008 OVC014 21/20 A2987 RMK SF5SC3 SLP113=
CYYG;2005-06-29 08:00;METAR CYYG 290800Z 23009KT 15SM OVC009 21/20 A2985 RMK SC8 SLP108=
CYYG;2005-06-29 09:00;METAR CYYG 290900Z 23010G16KT 15SM OVC009 21/20 A2985 RMK SC8 SLP106=
CYYG;2005-06-29 10:00;METAR CYYG 291000Z 23015KT 15SM OVC009 22/20 A2984 RMK SC8 SLP104=
CYYG;2005-06-29 11:00;METAR CYYG 291100Z 22013G18KT 15SM OVC010 22/20 A2984 RMK SC8 SLP104=
CYYG;2005-06-29 12:00;METAR CYYG 291200Z 21010KT 15SM OVC010 22/20 A2984 RMK SC8 SLP105=
CYYG;2005-06-29 13:00;METAR CYYG 291300Z 23010KT 10SM SCT007 OVC011 22/20 A2983 RMK SF3SC5 SLP100=
CYYG;2005-06-29 13:12;SPECI CYYG 291312Z 22010KT 12SM BKN006 OVC011 RMK SF6SC2=
CYYG;2005-06-29 14:00;METAR CYYG 291400Z 23010G16KT 15SM BKN006 OVC011 21/20 A2981 RMK SF5SC3 SLP095=
CYYG;2005-06-29 15:00;METAR CYYG 291500Z 23012KT 12SM -SHRA OVC008 21/20 A2980 RMK SF8 SLP092=
CYYG;2005-06-29 16:00;METAR CYYG 291600Z 24014KT 15SM FEW010 BKN030 BKN240 23/20 A2980 RMK SF2SC2CI1 SLP090=
CYYG;2005-06-29 17:00;METAR CYYG 291700Z 24013KT 10SM FEW030 BKN240 25/21 A2979 RMK SC2CI1=
CYYG;2005-06-29 18:00;METAR CYYG 291800Z 25006KT 10SM FEW020 BKN240 25/22 A2979 RMK SC2CI1=
CYYG;2005-06-29 19:00;METAR CYYG 291900Z 24009KT 10SM FEW020 SCT040 26/22 A2980 RMK SC2SC2 SLP090=
CYYG;2005-06-29 19:48;SPECI CYYG 291948Z 32007G15KT 6SM -SHRA BKN030 RMK SC5 CB EMBD WIND SHIFT=
CYYG;2005-06-29 21:00;METAR CYYG 292100Z 28003KT 10SM -SHRA SCT030 BKN120 22/19 A2984 RMK SC4AC2 SLP103=
CYYG;2005-06-29 22:00;METAR CYYG 292200Z 01009G15KT 10SM FEW012 BKN053 BKN300 20/17 A2988 RMK SC1SC4CI2 SLP117=
CYYG;2005-06-29 23:00;METAR CYYG 292300Z 01008KT 15SM SCT055 BKN300 17/14 A2990 RMK SC3CI1 SLP124=
CYYG;2005-06-30 00:00;METAR CYYG 300000Z 36009KT 15SM BKN058 BKN071 BKN300 15/13 A2992 RMK SC5AC2CI0 SLP132=
CYYG;2005-06-30 01:00;METAR CYYG 300100Z 02010KT 15SM BKN061 15/13 A2995 RMK SC7 SLP142=
CYYG;2005-06-30 01:41;SPECI CYYG 300141Z 03014KT 15SM FEW007 BKN059 RMK SF2SC4=
CYYG;2005-06-30 02:00;METAR CYYG 300200Z 02012G18KT 15SM FEW007 BKN056 14/13 A2997 RMK SF2SC6 SLP149=
CYYG;2005-06-30 03:00;METAR CYYG 300300Z 04009KT 15SM BKN055 14/12 A2997 RMK SC7 SLP150=
CYYG;2005-06-30 04:00;METAR CYYG 300400Z 04008KT 15SM BKN059 14/11 A2999 RMK SC7 SLP156=
CYYG;2005-06-30 05:00;METAR CYYG 300500Z 07007KT 15SM BKN058 13/11 A2999 RMK SC7 SLP157=
CYYG;2005-06-30 06:00;METAR CYYG 300600Z 05009KT 15SM SCT058 BKN150 12/10 A2998 RMK SC3AC2 SLP151=
CYYG;2005-06-30 07:00;METAR CYYG 300700Z 04006KT 15SM FEW058 BKN160 BKN230 12/10 A2997 RMK SC2AC4CI1 SLP150=
CYYG;2005-06-30 08:00;METAR CYYG 300800Z 05005KT 15SM BKN180 12/10 A3000 RMK AC7 SLP159=
CYYG;2005-06-30 09:00;METAR CYYG 300900Z 02004KT 15SM BKN140 BKN180 12/10 A3001 RMK AC5AC2 SLP161=
CYYG;2005-06-30 10:00;METAR CYYG 301000Z 01006KT 15SM BKN120 12/10 A3002 RMK AC6 SLP166=
CYYG;2005-06-30 11:00;METAR CYYG 301100Z 03006KT 15SM BKN120 13/11 A3003 RMK AC6 SLP170=
CYYG;2005-06-30 12:00;METAR CYYG 301200Z 02007KT 15SM FEW009 SCT120 BKN240 15/12 A3004 RMK SF1AC2CI0 SLP171=
CYYG;2005-06-30 13:00;METAR CYYG 301300Z 05012KT 15SM SCT012 BKN120 15/12 A3005 RMK SC3AC2 SLP177=
CYYG;2005-06-30 13:15;SPECI CYYG 301315Z 03012KT 15SM BKN012 BKN120 RMK SC6AC1=
CYYG;2005-06-30 14:00;METAR CYYG 301400Z 05013KT 15SM FEW010 BKN120 15/12 A3005 RMK SC2AC2 SLP177=
CYYG;2005-06-30 15:00;METAR CYYG 301500Z 03015KT 15SM FEW010 SCT120 15/12 A3006 RMK SC1AC3 SLP181=
CYYG;2005-06-30 17:00;METAR CYYG 301700Z 04007KT 15SM FEW120 FEW240 17/11 A3005 RMK AC1CI1 SLP176=
CYYG;2005-06-30 18:00;METAR CYYG 301800Z 06008KT 15SM FEW120 BKN240 18/12 A3004 RMK AC2CI1 SLP171=
CYYG;2005-06-30 19:00;METAR CYYG 301900Z 03012KT 15SM FEW120 BKN240 18/11 A3003 RMK AC1CI2 SLP170=
CYYG;2005-06-30 20:00;METAR CYYG 302000Z 05009KT 15SM BKN240 18/12 A3004 RMK CI2 SLP171=
CYYG;2005-06-30 22:00;METAR CYYG 302200Z 04007KT 15SM FEW120 SCT300 16/11 A3003 RMK AC2CI0 SLP170=
CYYG;2005-06-30 23:00;METAR CYYG 302300Z 03006KT 15SM FEW100 SCT300 16/11 A3002 RMK AC2CI0 SLP167=
CYYG;2005-07-01 00:00;METAR CYYG 010000Z 00000KT 15SM FEW100 BKN300 13/11 A3003 RMK AC1CI1 SLP169=
CYYG;2005-07-01 01:00;METAR CYYG 010100Z 00000KT 15SM FEW100 BKN300 11/10 A3003 RMK AC1CI1 SLP170=
CYYG;2005-07-01 02:00;METAR CYYG 010200Z 00000KT 15SM FEW100 BKN300 11/11 A3004 RMK AC1CI1 SLP172=
CYYG;2005-07-01 03:00;METAR CYYG 010300Z 00000KT 15SM FEW100 BKN300 11/10 A3003 RMK AC1CI1 SLP171=
CYYG;2005-07-01 04:00;METAR CYYG 010400Z 14003KT 15SM FEW100 BKN300 11/11 A3002 RMK AC1CI1 SLP168=
CYYG;2005-07-01 05:00;METAR CYYG 010500Z 17006KT 15SM FEW015 BKN300 11/10 A3001 RMK SC2CI1 SLP165=
CYYG;2005-07-01 05:16;SPECI CYYG 010516Z 16006KT 15SM BKN011 RMK SC6=
CYYG;2005-07-01 06:00;METAR CYYG 010600Z 17006KT 15SM OVC010 13/13 A3001 RMK SC8 SLP161=
CYYG;2005-07-01 06:29;SPECI CYYG 010629Z 18008KT 15SM OVC008 RMK SF8=
CYYG;2005-07-01 07:00;METAR CYYG 010700Z 17008KT 15SM FEW007 OVC010 14/13 A3000 RMK SF2SF6 SLP160=
CYYG;2005-07-01 08:00;METAR CYYG 010800Z 18009KT 15SM OVC007 13/12 A3000 RMK SF8 SLP160=
CYYG;2005-07-01 08:48;SPECI CYYG 010848Z 17007KT 10SM SCT007 BKN084 RMK SF3AC3=
CYYG;2005-07-01 09:00;METAR CYYG 010900Z 17008KT 10SM SCT007 BKN084 13/12 A3001 RMK SF4AC2 SLP162=
CYYG;2005-07-01 10:00;METAR CYYG 011000Z 15007KT 12SM SCT007 BKN084 14/12 A3000 RMK SF3AC2 SLP160=
CYYG;2005-07-01 11:00;METAR CYYG 011100Z 17011KT 15SM FEW007 SCT084 14/12 A3000 RMK SF2AC2 SLP159=
CYYG;2005-07-01 12:00;METAR CYYG 011200Z 17014KT 15SM SCT012 BKN084 15/12 A2999 RMK SC3AC2 SLP157=
CYYG;2005-07-01 13:00;METAR CYYG 011300Z 16012KT 15SM BKN012 BKN084 15/12 A2999 RMK SC6AC2 SLP156=
CYYG;2005-07-01 14:00;METAR CYYG 011400Z 16012KT 15SM OVC014 16/13 A2998 RMK SC8 SLP154=
CYYG;2005-07-01 15:00;METAR CYYG 011500Z 15013KT 15SM BKN014 BKN049 17/14 A2997 RMK SC6SC2 SLP150=
CYYG;2005-07-01 16:00;METAR CYYG 011600Z 15013KT 15SM SCT017 BKN047 18/14 A2996 RMK SC3SC4 SLP145=
CYYG;2005-07-01 17:00;METAR CYYG 011700Z 18012KT 15SM SCT015 BKN045 19/15 A2994 RMK SC3SC3 SLP138=
CYYG;2005-07-01 18:00;METAR CYYG 011800Z 17011G16KT 15SM BKN018 BKN045 20/15 A2993 RMK SC6SC1 SLP135=
CYYG;2005-07-01 19:00;METAR CYYG 011900Z 17016KT 15SM FEW018 BKN031 19/16 A2991 RMK SC2SC4 SLP129=
CYYG;2005-07-01 20:00;METAR CYYG 012000Z 18012G18KT 15SM FEW008 SCT015 BKN030 OVC080 19/16 A2990 RMK SF2SC2SC2AC2 SLP126=
CYYG;2005-07-01 20:36;SPECI CYYG 012036Z 18013KT 15SM BKN005 OVC019 RMK SF6SC2=
CYYG;2005-07-01 20:53;SPECI CYYG 012053Z 18010KT 15SM SCT006 OVC018 RMK SF4SC4=
CYYG;2005-07-01 21:00;METAR CYYG 012100Z 17010KT 15SM SCT006 OVC018 18/17 A2989 RMK SF3SC5 SLP122=
CYYG;2005-07-01 21:52;SPECI CYYG 012152Z 17012KT 15SM FEW006 OVC013 RMK SF2SC6=
CYYG;2005-07-01 22:00;METAR CYYG 012200Z 17010G15KT 15SM FEW006 OVC013 18/17 A2987 RMK SF2SC6 SLP117=
CYYG;2005-07-01 23:00;METAR CYYG 012300Z 17010KT 15SM OVC011 19/17 A2987 RMK SC8 SLP115=
CYYG;2005-07-02 00:00;METAR CYYG 020000Z 16011KT 15SM BKN011 BKN100 BKN200 19/17 A2985 RMK SC5AC2CI1 SLP110=
CYYG;2005-07-02 00:51;SPECI CYYG 020051Z 17011KT 15SM SCT011 BKN110 BKN140 RMK SC4AC2AC1=
CYYG;2005-07-02 01:00;METAR CYYG 020100Z 17011KT 15SM SCT011 BKN110 BKN140 19/18 A2985 RMK SC3AC2AC1 SLP108=
CYYG;2005-07-02 02:00;METAR CYYG 020200Z 17009KT 12SM FEW011 SCT110 BKN200 19/18 A2983 RMK SC2AC2CI1 SLP101=
CYYG;2005-07-02 02:31;SPECI CYYG 020231Z 17012G17KT 12SM BKN010 BKN200 RMK SC5CI2=
CYYG;2005-07-02 03:00;METAR CYYG 020300Z 18014G19KT 12SM OVC011 19/18 A2982 RMK SC8 SLP100=
CYYG;2005-07-02 03:16;SPECI CYYG 020316Z 18009KT 10SM FEW006 OVC011 RMK SF2SC6=
CYYG;2005-07-02 04:00;METAR CYYG 020400Z 17013KT 10SM FEW005 OVC010 19/18 A2980 RMK SF2SC6 SLP093=
CYYG;2005-07-02 05:00;METAR CYYG 020500Z 17013KT 10SM FEW005 OVC011 19/18 A2977 RMK SF2SC6 SLP083=
CYYG;2005-07-02 05:06;SPECI CYYG 020506Z 18013KT 8SM -SHRA SCT005 OVC012 RMK SF3SC5=
CYYG;2005-07-02 06:00;METAR CYYG 020600Z 18017G22KT 8SM -SHRA FEW004 BKN014 OVC120 20/19 A2975 RMK SF2SC6AC1 SLP075=
CYYG;2005-07-02 07:00;METAR CYYG 020700Z 18016G22KT 8SM -SHRA FEW005 BKN013 OVC024 20/19 A2973 RMK SF1SC6SC1 SLP066=
CYYG;2005-07-02 08:00;METAR CYYG 020800Z 18016G21KT 10SM FEW006 BKN015 BKN054 20/18 A2971 RMK SF2SC4SC2 SLP061=
CYYG;2005-07-02 08:55;SPECI CYYG 020855Z 18018KT 5SM -SHRA BR FEW004 OVC018 RMK SF2SC6=
CYYG;2005-07-02 09:00;METAR CYYG 020900Z 18015G24KT 4SM -SHRA FEW003 OVC017 19/18 A2970 RMK SF2SC6 SLP057=
CYYG;2005-07-02 10:00;METAR CYYG 021000Z 18014G20KT 8SM -SHRA FEW003 OVC019 19/18 A2969 RMK SF2SC6 SLP053=
CYYG;2005-07-02 11:00;METAR CYYG 021100Z 18019G24KT 15SM FEW005 OVC015 20/19 A2968 RMK SF2SC6 SLP050=
CYYG;2005-07-02 11:42;SPECI CYYG 021142Z 19017G25KT 15SM -SHRA FEW005 SCT015 OVC036 RMK SF2SC2SC4=
CYYG;2005-07-02 12:00;METAR CYYG 021200Z 18019G26KT 15SM -SHRA FEW005 OVC020 20/18 A2968 RMK SC2SC6 SLP051=
CYYG;2005-07-02 13:00;METAR CYYG 021300Z 18014G23KT 15SM -SHRA FEW007 OVC020 19/18 A2969 RMK SF2SC6 SLP052=
CYYG;2005-07-02 13:34;SPECI CYYG 021334Z 20012KT 10SM -SHRA SCT007 OVC015 RMK SF4SC4=
CYYG;2005-07-02 14:00;METAR CYYG 021400Z 20012G18KT 15SM -SHRA FEW007 OVC015 20/19 A2969 RMK SF2SC6 SLP054=
CYYG;2005-07-02 15:00;METAR CYYG 021500Z 21011G16KT 15SM -SHRA SCT009 OVC015 20/19 A2971 RMK SF3SC5 SLP059=
CYYG;2005-07-02 15:37;SPECI CYYG 021537Z 22011KT 15SM OVC011 RMK SC8=
CYYG;2005-07-02 16:00;METAR CYYG 021600Z 21015KT 15SM OVC009 21/19 A2970 RMK SC8 SLP058=
CYYG;2005-07-02 17:00;METAR CYYG 021700Z 22012G17KT 15SM BKN013 BKN017 OVC044 22/20 A2970 RMK SC5SC2SC2 SLP056=
CYYG;2005-07-02 18:00;METAR CYYG 021800Z 21015KT 15SM SCT013 BKN017 BKN045 22/20 A2970 RMK SC3SC2SC2 SLP057=
CYYG;2005-07-02 19:00;METAR CYYG 021900Z 22011G16KT 15SM SCT013 BKN020 22/19 A2970 RMK SC3SC4 SLP057=
CYYG;2005-07-02 20:00;METAR CYYG 022000Z 21011KT 15SM SCT013 OVC020 23/20 A2970 RMK SC3SC5 SLP056=
CYYG;2005-07-02 21:00;METAR CYYG 022100Z 21013KT 15SM SCT015 BKN023 OVC300 22/19 A2971 RMK SC3SC3CI1 SLP059=
CYYG;2005-07-02 22:00;METAR CYYG 022200Z 22011KT 15SM BKN018 BKN300 22/19 A2972 RMK SC6CI2 SLP063=
CYYG;2005-07-02 23:00;METAR CYYG 022300Z 23009KT 15SM FEW020 BKN300 21/19 A2974 RMK SC2CI2 SLP071=
CYYG;2005-07-03 00:00;METAR CYYG 030000Z 24009KT 15SM FEW020 BKN300 20/18 A2976 RMK SC2CI2 SLP076=
CYYG;2005-07-03 01:00;METAR CYYG 030100Z 24007KT 15SM FEW020 SCT045 BKN300 19/17 A2979 RMK SC2SC2CI2 SLP089=
CYYG;2005-07-03 01:45;SPECI CYYG 030145Z 27010KT 15SM FEW008 SCT045 BKN074 BKN300 RMK SF2SC2AC2CI1=
CYYG;2005-07-03 02:00;METAR CYYG 030200Z 28010KT 15SM SCT005 BKN045 BKN074 18/17 A2984 RMK SF3SC2AC2 SLP103=
CYYG;2005-07-03 03:00;METAR CYYG 030300Z 35006KT 15SM FEW005 FEW045 SCT074 16/10 A2985 RMK SF1SC1AC2 SLP110=
CYYG;2005-07-03 04:00;METAR CYYG 030400Z 33003KT 15SM FEW045 14/10 A2987 RMK SC1 SLP116=
CYYG;2005-07-03 05:00;METAR CYYG 030500Z 30004KT 15SM FEW045 13/10 A2989 RMK SC1 SLP123=
CYYG;2005-07-03 06:00;METAR CYYG 030600Z 29004KT 15SM FEW065 14/10 A2991 RMK SC2 SLP129=
CYYG;2005-07-03 07:00;METAR CYYG 030700Z 25006KT 15SM FEW065 13/09 A2993 RMK SC2 SLP136=
CYYG;2005-07-03 08:00;METAR CYYG 030800Z 25005KT 15SM FEW065 SCT300 12/10 A2995 RMK SC2CI0 SLP142=
CYYG;2005-07-03 10:00;METAR CYYG 031000Z 27005KT 15SM FEW300 14/11 A2999 RMK CI1 SLP156=
CYYG;2005-07-03 11:00;METAR CYYG 031100Z 30007KT 15SM FEW300 16/11 A3002 RMK CI1 SLP165=
CYYG;2005-07-03 12:00;METAR CYYG 031200Z 31007KT 15SM FEW300 18/11 A3005 RMK CI1 SLP175=
CYYG;2005-07-03 13:00;METAR CYYG 031300Z 29011KT 15SM FEW030 FEW300 19/08 A3006 RMK CU1CI1 SLP178=
CYYG;2005-07-03 14:00;METAR CYYG 031400Z 32012KT 15SM FEW030 SCT300 19/08 A3008 RMK CU1CI1 SLP186=
CYYG;2005-07-03 15:00;METAR CYYG 031500Z 29010KT 15SM FEW030 SCT300 20/09 A3009 RMK CU1CI1 SLP188=
CYYG;2005-07-03 16:00;METAR CYYG 031600Z 01008KT 15SM FEW030 SCT300 20/12 A3009 RMK CU1CI1 SLP191=
CYYG;2005-07-03 17:00;METAR CYYG 031700Z 01010G16KT 15SM FEW040 FEW300 19/11 A3010 RMK CU1CI0 SLP192=
CYYG;2005-07-03 18:00;METAR CYYG 031800Z 35010KT 15SM FEW040 FEW300 19/10 A3011 RMK SC1CI1 SLP195=
CYYG;2005-07-03 19:00;METAR CYYG 031900Z 01007KT 15SM FEW040 19/11 A3012 RMK CU1 SLP199=
CYYG;2005-07-03 20:00;METAR CYYG 032000Z 36005KT 15SM FEW040 FEW300 19/11 A3014 RMK SC1CI0 SLP205=
CYYG;2005-07-03 21:00;METAR CYYG 032100Z 03003KT 15SM FEW300 19/11 A3012 RMK CI0 SLP200=
CYYG;2005-07-03 22:00;METAR CYYG 032200Z 01003KT 15SM FEW300 19/11 A3013 RMK CI0 SLP202=
CYYG;2005-07-03 23:00;METAR CYYG 032300Z 00000KT 15SM FEW300 18/11 A3013 RMK CI1 SLP202=
CYYG;2005-07-04 00:00;METAR CYYG 040000Z 00000KT 15SM FEW300 16/10 A3014 RMK CI1 SLP205=
CYYG;2005-07-04 01:00;METAR CYYG 040100Z 00000KT 15SM FEW300 15/10 A3016 RMK CI1 SLP213=
CYYG;2005-07-04 02:00;METAR CYYG 040200Z 20004KT 15SM SKC 15/12 A3017 RMK SLP217=
CYYG;2005-07-04 03:00;METAR CYYG 040300Z 18005KT 15SM SKC 13/11 A3017 RMK SLP218=
CYYG;2005-07-04 04:00;METAR CYYG 040400Z 00000KT 15SM SKC 13/11 A3018 RMK SLP219=
CYYG;2005-07-04 05:00;METAR CYYG 040500Z 00000KT 15SM SKC 14/11 A3017 RMK SLP217=
CYYG;2005-07-04 06:00;METAR CYYG 040600Z 18003KT 15SM SKC 13/11 A3016 RMK SLP213=
CYYG;2005-07-04 07:00;METAR CYYG 040700Z 20006KT 15SM SKC 12/11 A3016 RMK SLP214=
CYYG;2005-07-04 08:00;METAR CYYG 040800Z 18005KT 15SM FEW300 13/11 A3016 RMK CI1 SLP215=
CYYG;2005-07-04 09:00;METAR CYYG 040900Z 21007KT 15SM FEW300 14/13 A3017 RMK CI1 SLP217=
CYYG;2005-07-04 10:00;METAR CYYG 041000Z 23007KT 15SM FEW300 16/13 A3017 RMK CI0 SLP218=
CYYG;2005-07-04 11:00;METAR CYYG 041100Z 23008KT 15SM FEW300 17/12 A3018 RMK CI1 SLP221=
CYYG;2005-07-04 12:00;METAR CYYG 041200Z 23007KT 15SM FEW300 19/13 A3019 RMK CI0 SLP224=
CYYG;2005-07-04 13:00;METAR CYYG 041300Z 23007KT 15SM FEW300 22/13 A3018 RMK CI0 SLP219=
CYYG;2005-07-04 14:00;METAR CYYG 041400Z 25008KT 15SM FEW300 23/14 A3018 RMK CI0 SLP219=
CYYG;2005-07-04 15:00;METAR CYYG 041500Z 28007KT 15SM FEW300 24/12 A3017 RMK CI0 SLP218=
CYYG;2005-07-04 16:00;METAR CYYG 041600Z 26008KT 15SM FEW300 25/11 A3017 RMK CI0 SLP217=
CYYG;2005-07-04 17:00;METAR CYYG 041700Z 23005KT 15SM FEW300 25/11 A3014 RMK CI0 SLP207=
CYYG;2005-07-04 18:00;METAR CYYG 041800Z 23006KT 15SM FEW300 26/10 A3012 RMK CI0 SLP200=
CYYG;2005-07-04 19:00;METAR CYYG 041900Z 19009KT 15SM FEW300 26/12 A3010 RMK CI0 SLP193=
CYYG;2005-07-04 20:00;METAR CYYG 042000Z 22007KT 15SM FEW300 26/12 A3009 RMK CI0 SLP189=
CYYG;2005-07-04 21:00;METAR CYYG 042100Z 19007KT 15SM FEW300 25/12 A3008 RMK CI0 SLP186=
CYYG;2005-07-04 22:00;METAR CYYG 042200Z 18007KT 15SM SCT280 24/11 A3007 RMK CI1 SLP183=
CYYG;2005-07-04 23:00;METAR CYYG 042300Z 21006KT 15SM BKN280 22/12 A3007 RMK CI2 SLP183=
CYYG;2005-07-05 00:00;METAR CYYG 050000Z 23002KT 15SM BKN260 21/12 A3006 RMK CI2 SLP181=
CYYG;2005-07-05 01:00;METAR CYYG 050100Z 25007KT 15SM SCT260 19/07 A3007 RMK CI2 SLP182=
CYYG;2005-07-05 02:00;METAR CYYG 050200Z 23009KT 15SM SCT260 19/08 A3006 RMK CI1 SLP181=
CYYG;2005-07-05 03:00;METAR CYYG 050300Z 23010KT 15SM SKC 18/09 A3007 RMK SLP182=
CYYG;2005-07-05 04:00;METAR CYYG 050400Z 23008KT 15SM SKC 16/10 A3006 RMK SLP180=
CYYG;2005-07-05 05:00;METAR CYYG 050500Z 23008KT 15SM SKC 15/10 A3006 RMK SLP179=
CYYG;2005-07-05 06:00;METAR CYYG 050600Z 21008KT 15SM SKC 14/10 A3004 RMK SLP173=
CYYG;2005-07-05 07:00;METAR CYYG 050700Z 23009KT 15SM FEW240 14/10 A3005 RMK CI1 SLP175=
CYYG;2005-07-05 08:00;METAR CYYG 050800Z 22006KT 15SM FEW240 15/10 A3004 RMK CI1 SLP172=
CYYG;2005-07-05 09:00;METAR CYYG 050900Z 22006KT 15SM BKN260 14/10 A3004 RMK CI2 SLP172=
CYYG;2005-07-05 10:00;METAR CYYG 051000Z 22006KT 15SM BKN320 15/10 A3004 RMK CI1 SLP171=
CYYG;2005-07-05 11:00;METAR CYYG 051100Z 21008KT 15SM BKN320 17/10 A3003 RMK CI1 SLP168=
CYYG;2005-07-05 12:00;METAR CYYG 051200Z 22010KT 15SM BKN320 18/10 A3001 RMK CI1 SLP164=
CYYG;2005-07-05 13:00;METAR CYYG 051300Z 21012KT 15SM BKN320 19/11 A2999 RMK CI2 SLP157=
CYYG;2005-07-05 14:00;METAR CYYG 051400Z 22010KT 15SM BKN320 20/12 A2998 RMK CI2 SLP154=
CYYG;2005-07-05 15:00;METAR CYYG 051500Z 22012G17KT 15SM BKN320 22/13 A2998 RMK CI2 SLP151=
CYYG;2005-07-05 16:00;METAR CYYG 051600Z 20012KT 15SM BKN320 23/14 A2996 RMK CI2 SLP144=
CYYG;2005-07-05 17:00;METAR CYYG 051700Z 20011KT 15SM FEW140 BKN320 23/14 A2995 RMK AC1CI2 SLP141=
CYYG;2005-07-05 18:00;METAR CYYG 051800Z 23013G18KT 15SM FEW140 BKN320 25/15 A2993 RMK AC1CS3 SLP135=
CYYG;2005-07-05 19:00;METAR CYYG 051900Z 23010G17KT 15SM BKN320 25/15 A2992 RMK CS4 SLP133=
CYYG;2005-07-05 20:00;METAR CYYG 052000Z 24010G16KT 15SM FEW160 OVC320 24/14 A2991 RMK AC1CS3 SLP130=
CYYG;2005-07-05 21:00;METAR CYYG 052100Z 25011G16KT 15SM FEW160 OVC320 24/15 A2990 RMK AC1CS3 SLP127=
CYYG;2005-07-05 22:00;METAR CYYG 052200Z 24011KT 15SM FEW160 OVC300 23/14 A2990 RMK AC2CS5 SLP124=
CYYG;2005-07-05 23:00;METAR CYYG 052300Z 24010KT 15SM FEW160 BKN300 22/14 A2989 RMK AC2CS4 SLP123=
CYYG;2005-07-06 00:00;METAR CYYG 060000Z 23008KT 15SM FEW160 BKN280 21/14 A2989 RMK AC2CS3 SLP122=
CYYG;2005-07-06 01:00;METAR CYYG 060100Z 22006KT 15SM FEW140 BKN260 19/14 A2991 RMK AC2CI3 SLP128=
CYYG;2005-07-06 02:00;METAR CYYG 060200Z 22007KT 15SM FEW140 BKN260 18/15 A2991 RMK AC2CI2 SLP129=
CYYG;2005-07-06 03:00;METAR CYYG 060300Z 22009KT 15SM FEW140 BKN260 18/11 A2991 RMK AC2CI2 SLP129=
CYYG;2005-07-06 04:00;METAR CYYG 060400Z 22008G15KT 15SM BKN130 OVC260 18/11 A2990 RMK AC5CI1 SLP127=
CYYG;2005-07-06 05:00;METAR CYYG 060500Z 22010KT 10SM BKN120 OVC240 17/11 A2990 RMK AC5CI1 SLP126=
CYYG;2005-07-06 06:00;METAR CYYG 060600Z 22010KT 15SM BKN100 OVC240 17/11 A2989 RMK AC6CI1 SLP122=
CYYG;2005-07-06 07:00;METAR CYYG 060700Z 23011KT 15SM FEW060 OVC100 17/11 A2989 RMK SC2AC6 SLP121=
CYYG;2005-07-06 08:00;METAR CYYG 060800Z 24006KT 15SM FEW060 OVC100 16/12 A2989 RMK SC2AC6 SLP122=
CYYG;2005-07-06 09:00;METAR CYYG 060900Z 23008KT 15SM FEW060 BKN100 OVC240 16/12 A2990 RMK SC2AC2CI2 SLP125=
CYYG;2005-07-06 10:00;METAR CYYG 061000Z 25005KT 15SM FEW060 SCT100 OVC160 16/13 A2991 RMK SC2AC2AS3 SLP129=
CYYG;2005-07-06 11:00;METAR CYYG 061100Z 24008KT 15SM FEW045 SCT090 OVC160 17/13 A2992 RMK SC2AC2AS3 SLP131=
CYYG;2005-07-06 12:00;METAR CYYG 061200Z 27004KT 15SM FEW020 OVC032 17/14 A2995 RMK SC2SC6 SLP141=
CYYG;2005-07-06 12:21;SPECI CYYG 061221Z 26003KT 15SM -SHRA BKN020 OVC032 RMK SC6SC2=
CYYG;2005-07-06 13:00;METAR CYYG 061300Z 28002KT 15SM -SHRA FEW010 BKN020 OVC037 16/14 A2996 RMK SF1SC6SC2 VIS N 3 SLP144=
CYYG;2005-07-06 13:35;SPECI CYYG 061335Z 31005KT 4SM -SHRA BR FEW005 BKN010 OVC020 RMK SF2SC5SC2=
CYYG;2005-07-06 14:00;METAR CYYG 061400Z 34002KT 12SM -SHRA FEW005 BKN011 OVC020 15/14 A2997 RMK SF1SC6SC2 SLP149=
CYYG;2005-07-06 14:28;SPECI CYYG 061428Z 31002KT 12SM OVC005 RMK SF8=
CYYG;2005-07-06 15:00;METAR CYYG 061500Z 35004KT 15SM OVC005 16/15 A2999 RMK SF8 SLP155=
CYYG;2005-07-06 15:28;SPECI CYYG 061528Z 36004KT 6SM -DZ BR OVC003 RMK SF8=
CYYG;2005-07-06 16:00;METAR CYYG 061600Z 02009KT 6SM -DZ BR BKN004 OVC011 16/15 A3001 RMK SF7SC1 SLP162=
CYYG;2005-07-06 16:12;SPECI CYYG 061612Z 02011KT 10SM -SHRA BKN004 OVC011 RMK SF7SC1=
CYYG;2005-07-06 17:00;METAR CYYG 061700Z 02013KT 5SM -SHRA BR BKN005 OVC011 15/14 A3003 RMK SF7SC1 SLP169=
CYYG;2005-07-06 18:00;METAR CYYG 061800Z 02013KT 8SM -SHRA OVC006 15/14 A3004 RMK SF8 SLP173=
CYYG;2005-07-06 19:00;METAR CYYG 061900Z 01010G16KT 15SM -SHRA OVC007 14/13 A3007 RMK SF8 SLP183=
CYYG;2005-07-06 19:46;SPECI CYYG 061946Z 04013KT 12SM -SHRA OVC008 RMK SF8=
CYYG;2005-07-06 20:00;METAR CYYG 062000Z 03015KT 10SM -SHRA OVC008 14/13 A3008 RMK SF8 SLP187=
CYYG;2005-07-06 21:00;METAR CYYG 062100Z 03012G18KT 12SM -SHRA OVC008 14/13 A3008 RMK SF8 SLP187=
CYYG;2005-07-06 21:48;SPECI CYYG 062148Z 04013G18KT 12SM VCSH OVC009 RMK SF8=
CYYG;2005-07-06 22:00;METAR CYYG 062200Z 03012G20KT 15SM OVC010 13/12 A3009 RMK SC8 SLP191=
CYYG;2005-07-06 22:18;SPECI CYYG 062218Z 02011G16KT 15SM OVC009 RMK SC8=
CYYG;2005-07-06 23:00;METAR CYYG 062300Z 02012KT 15SM OVC009 13/12 A3010 RMK SC8 SLP194=
CYYG;2005-07-07 00:00;METAR CYYG 070000Z 03011KT 15SM BKN010 13/12 A3011 RMK SC7 SLP198=
CYYG;2005-07-07 00:30;SPECI CYYG 070030Z 04008KT 15SM SCT010 BKN076 RMK SC4AC3=
CYYG;2005-07-07 01:00;METAR CYYG 070100Z 04008KT 15SM SCT010 BKN076 13/11 A3013 RMK SC3AC4 SLP203=
CYYG;2005-07-07 02:00;METAR CYYG 070200Z 04009KT 15SM FEW015 BKN080 13/11 A3013 RMK SC2AC4 SLP205=
CYYG;2005-07-07 03:00;METAR CYYG 070300Z 04010KT 15SM FEW015 BKN081 13/11 A3014 RMK SC2AC5 SLP207=
CYYG;2005-07-07 04:00;METAR CYYG 070400Z 02009KT 15SM BKN080 13/11 A3015 RMK AC6 SLP211=
CYYG;2005-07-07 05:00;METAR CYYG 070500Z 02010KT 15SM BKN080 BKN220 13/10 A3014 RMK AC5CI0 SLP207=
CYYG;2005-07-07 06:00;METAR CYYG 070600Z 02008KT 15SM BKN080 13/10 A3014 RMK AC6 SLP209=
CYYG;2005-07-07 07:00;METAR CYYG 070700Z 03010KT 15SM BKN100 BKN200 13/10 A3014 RMK AC5CI2 SLP208=
CYYG;2005-07-07 08:00;METAR CYYG 070800Z 03010G15KT 15SM SCT100 BKN180 13/10 A3015 RMK AC3AC2 SLP210=
CYYG;2005-07-07 09:00;METAR CYYG 070900Z 03012KT 15SM SCT100 BKN180 13/10 A3016 RMK AC3AC2 SLP213=
CYYG;2005-07-07 09:48;SPECI CYYG 070948Z 04012KT 15SM BKN012 RMK SC6=
CYYG;2005-07-07 10:00;METAR CYYG 071000Z 05014KT 15SM BKN011 14/11 A3016 RMK SC7 SLP215=
CYYG;2005-07-07 10:34;SPECI CYYG 071034Z 04015G20KT 15SM VCSH BKN009 RMK SC7 VIS LWR NE-E=
CYYG;2005-07-07 11:12;SPECI CYYG 071112Z 04009G18KT 12SM -SHRA OVC008 RMK SC8 VIS NE 5=
CYYG;2005-07-07 12:00;METAR CYYG 071200Z 04015KT 15SM -SHRA OVC009 14/13 A3018 RMK SC8 SLP220=
CYYG;2005-07-07 13:00;METAR CYYG 071300Z 04012KT 15SM -SHRA OVC007 14/13 A3018 RMK SC8 SLP222=
CYYG;2005-07-07 14:00;METAR CYYG 071400Z 04013G19KT 15SM VCSH OVC008 14/13 A3019 RMK SC8 SLP225=
CYYG;2005-07-07 14:38;SPECI CYYG 071438Z 04014KT 15SM OVC010 RMK SC8=
CYYG;2005-07-07 15:00;METAR CYYG 071500Z 03012KT 15SM OVC012 16/14 A3019 RMK SC8 SLP225=
CYYG;2005-07-07 16:00;METAR CYYG 071600Z 03012KT 15SM OVC013 16/13 A3020 RMK SC8 SLP226=
CYYG;2005-07-07 16:50;SPECI CYYG 071650Z 03011G16KT 15SM BKN015 RMK SC7=
CYYG;2005-07-07 17:00;METAR CYYG 071700Z 04009G15KT 15SM BKN015 17/14 A3019 RMK SC7 SLP225=
CYYG;2005-07-07 18:00;METAR CYYG 071800Z 04010G15KT 15SM BKN018 17/14 A3019 RMK SC6 SLP225=
CYYG;2005-07-07 20:00;METAR CYYG 072000Z 03009KT 15SM BKN015 16/13 A3018 RMK SC6 SLP222=
CYYG;2005-07-07 21:00;METAR CYYG 072100Z 04008KT 15SM BKN017 16/13 A3018 RMK SC6 SLP220=
CYYG;2005-07-07 22:00;METAR CYYG 072200Z 04007KT 15SM FEW017 FEW300 16/13 A3018 RMK SC2CI0 SLP220=
CYYG;2005-07-07 23:00;METAR CYYG 072300Z 02005KT 15SM FEW017 FEW300 15/12 A3019 RMK SC1CI1 SLP223=
CYYG;2005-07-08 00:00;METAR CYYG 080000Z 02005KT 15SM FEW017 SCT300 13/12 A3019 RMK SC1CI0 SLP224=
CYYG;2005-07-08 01:00;METAR CYYG 080100Z 00000KT 15SM FEW017 SCT300 12/11 A3020 RMK SC1CI0 SLP228=
CYYG;2005-07-08 02:00;METAR CYYG 080200Z 00000KT 15SM FEW017 SCT300 11/11 A3021 RMK SC1CI0 SLP230=
CYYG;2005-07-08 03:00;METAR CYYG 080300Z 00000KT 15SM FEW017 SCT300 10/10 A3020 RMK SC1CI0 SLP228=
CYYG;2005-07-08 04:00;METAR CYYG 080400Z 00000KT 15SM FEW017 SCT300 09/09 A3020 RMK SC1CI0 SLP229=
CYYG;2005-07-08 05:00;METAR CYYG 080500Z 00000KT 15SM FEW017 SCT300 10/09 A3020 RMK SC1CI0 SLP229=
CYYG;2005-07-08 06:00;METAR CYYG 080600Z 00000KT 15SM FEW017 SCT300 08/08 A3020 RMK SC1CI0 SLP227=
CYYG;2005-07-08 07:00;METAR CYYG 080700Z 00000KT 15SM MIFG FEW017 SCT300 07/07 A3020 RMK SC1CI0 SLP229=
CYYG;2005-07-08 07:24;SPECI CYYG 080724Z 00000KT 1/4SM FG VV001 RMK FG8 RVR RWY03 1800 FT=
CYYG;2005-07-08 07:46;SPECI CYYG 080746Z 00000KT 1/4SM FG BKN300 RMK FG2CI1=
CYYG;2005-07-08 08:00;METAR CYYG 080800Z 00000KT 1/2SM FG BKN300 07/06 A3020 RMK FG2CI1 RVR RWY03 3000 FT SLP228=
CYYG;2005-07-08 08:52;SPECI CYYG 080852Z 00000KT 1SM BR FEW007 BKN300 RMK SC2CI0=
CYYG;2005-07-08 09:00;METAR CYYG 080900Z 00000KT 1SM BR FEW007 BKN300 07/07 A3022 RMK SC2CI0 SLP235=
CYYG;2005-07-08 09:43;SPECI CYYG 080943Z 00000KT 15SM MIFG BKN018 RMK SC6=
CYYG;2005-07-08 10:00;METAR CYYG 081000Z 00000KT 15SM MIFG BKN019 BKN300 12/12 A3023 RMK SC6CI1 SLP236=
CYYG;2005-07-08 11:00;METAR CYYG 081100Z 00000KT 15SM VCFG FEW020 SCT300 14/13 A3024 RMK SC2CI0 SLP240=
CYYG;2005-07-08 12:00;METAR CYYG 081200Z 25002KT 15SM FEW012 SCT020 SCT300 16/14 A3024 RMK CF2SC2CI0 SLP240=
CYYG;2005-07-08 13:00;METAR CYYG 081300Z 16002KT 15SM SCT018 SCT300 17/13 A3023 RMK CU3CI0 SLP238=
CYYG;2005-07-08 14:00;METAR CYYG 081400Z 19004KT 15SM FEW020 SCT300 19/13 A3021 RMK CF2CI0 SLP232=
CYYG;2005-07-08 15:00;METAR CYYG 081500Z 19002KT 15SM FEW024 SCT300 19/13 A3020 RMK CF2CI0 SLP228=
CYYG;2005-07-08 16:00;METAR CYYG 081600Z 19005KT 15SM FEW026 SCT300 20/13 A3020 RMK CU1CI0 SLP227=
CYYG;2005-07-08 17:00;METAR CYYG 081700Z 18008KT 15SM FEW026 BKN300 19/13 A3018 RMK CU1CI0 SLP222=
CYYG;2005-07-08 18:00;METAR CYYG 081800Z 17004KT 15SM FEW028 BKN300 20/14 A3017 RMK CU1CI1 SLP217=
CYYG;2005-07-08 19:00;METAR CYYG 081900Z 21007KT 15SM FEW030 BKN300 21/14 A3016 RMK CU1CI1 SLP215=
CYYG;2005-07-08 20:00;METAR CYYG 082000Z 25006KT 15SM FEW030 BKN300 22/12 A3014 RMK CU1CI2 SLP208=
CYYG;2005-07-08 21:00;METAR CYYG 082100Z 19007KT 15SM BKN300 22/14 A3012 RMK CI2 SLP202=
CYYG;2005-07-08 22:00;METAR CYYG 082200Z 18005KT 15SM BKN300 21/15 A3011 RMK CI2 SLP197=
CYYG;2005-07-08 23:00;METAR CYYG 082300Z 21005KT 15SM BKN300 20/14 A3011 RMK CI2 SLP197=
CYYG;2005-07-09 00:00;METAR CYYG 090000Z 18005KT 15SM BKN300 17/14 A3011 RMK CI2 SLP195=
CYYG;2005-07-09 01:00;METAR CYYG 090100Z 19004KT 15SM BKN300 16/14 A3011 RMK CI2 SLP196=
CYYG;2005-07-09 02:00;METAR CYYG 090200Z 00000KT 15SM BKN300 16/14 A3011 RMK CI2 SLP196=
CYYG;2005-07-09 03:00;METAR CYYG 090300Z 20004KT 15SM OVC300 16/14 A3010 RMK CI6 SLP193=
CYYG;2005-07-09 04:00;METAR CYYG 090400Z 21004KT 15SM OVC300 16/15 A3010 RMK CI6 SLP193=
CYYG;2005-07-09 05:00;METAR CYYG 090500Z 22003KT 15SM OVC300 16/15 A3009 RMK CI6 SLP191=
CYYG;2005-07-09 06:00;METAR CYYG 090600Z 23004KT 15SM OVC300 16/15 A3009 RMK CI6 SLP188=
CYYG;2005-07-09 07:00;METAR CYYG 090700Z 22003KT 15SM OVC300 15/14 A3009 RMK CI6 SLP189=
CYYG;2005-07-09 08:00;METAR CYYG 090800Z 22005KT 15SM BKN300 15/14 A3009 RMK CI2 SLP189=
CYYG;2005-07-09 09:00;METAR CYYG 090900Z 22005KT 15SM BKN300 14/13 A3009 RMK CI1 SLP189=
CYYG;2005-07-09 10:00;METAR CYYG 091000Z 20006KT 15SM BKN300 15/14 A3009 RMK CI1 SLP189=
CYYG;2005-07-09 12:00;METAR CYYG 091200Z 19005KT 15SM FEW140 BKN300 18/15 A3010 RMK AC1CI2 SLP192=
CYYG;2005-07-09 13:00;METAR CYYG 091300Z 20003KT 15SM FEW140 BKN300 19/15 A3009 RMK AC1CS5=
CYYG;2005-07-09 14:00;METAR CYYG 091400Z 19004KT 15SM FEW140 BKN300 20/15 A3007 RMK AC1CI3 SLP183=
CYYG;2005-07-09 15:00;METAR CYYG 091500Z 20008KT 15SM FEW140 BKN300 21/15 A3004 RMK AC1CI2 SLP174=
CYYG;2005-07-09 16:00;METAR CYYG 091600Z 18008KT 15SM FEW140 BKN300 22/15 A3003 RMK AC2CS4 SLP170=
CYYG;2005-07-09 17:00;METAR CYYG 091700Z 18009KT 15SM SCT140 BKN300 21/14 A3001 RMK AC3CS4 SLP164=
CYYG;2005-07-09 18:00;METAR CYYG 091800Z 16005KT 15SM FEW140 BKN280 22/16 A3001 RMK AC2CS5 SLP162=
CYYG;2005-07-09 19:00;METAR CYYG 091900Z 16007KT 15SM SCT140 OVC270 23/16 A2999 RMK AC4CS4 SLP157=
CYYG;2005-07-09 20:00;METAR CYYG 092000Z 15005KT 15SM FEW110 OVC250 22/16 A2998 RMK AC2CS6 ACC ASOCTD SLP151=
CYYG;2005-07-09 21:46;SPECI CYYG 092146Z 18006KT 15SM BKN100 OVC250 RMK AC7CS1=
CYYG;2005-07-09 22:00;METAR CYYG 092200Z 17007KT 15SM BKN094 BKN250 20/16 A2995 RMK AC6CI1 SLP143=
CYYG;2005-07-09 23:00;METAR CYYG 092300Z 15005KT 15SM SCT094 BKN120 BKN150 BKN300 20/16 A2994 RMK AC3AC2AC2CI0 SLP140=
CYYG;2005-07-09 23:37;SPECI CYYG 092337Z 17007KT 15SM -SHRA BKN098 BKN120 BKN300 RMK AC5AC2CI1=
CYYG;2005-07-10 00:00;METAR CYYG 100000Z 16005KT 15SM -SHRA BKN098 BKN120 BKN300 19/14 A2995 RMK AC5AC2CI1 SLP141=
CYYG;2005-07-10 00:27;SPECI CYYG 100027Z 13005KT 15SM VCSH BKN095 BKN120 BKN300 RMK AC5AC2CI1=
CYYG;2005-07-10 01:00;METAR CYYG 100100Z 12006KT 15SM BKN095 19/14 A2993 RMK AC7 SLP136=
CYYG;2005-07-10 02:00;METAR CYYG 100200Z 14007KT 15SM BKN052 BKN095 18/13 A2993 RMK SC5AC2 SLP134=
CYYG;2005-07-10 02:48;SPECI CYYG 100248Z 13005KT 15SM -SHRA BKN017 BKN060 OVC140 RMK SC5SC2AC2=
CYYG;2005-07-10 03:00;METAR CYYG 100300Z 12006KT 15SM -SHRA BKN016 OVC060 17/12 A2990 RMK SC6SC2 SLP127=
CYYG;2005-07-10 04:00;METAR CYYG 100400Z 12010KT 15SM -SHRA FEW016 BKN033 OVC050 16/13 A2988 RMK SC2SC3SC2 SLP118=
CYYG;2005-07-10 04:18;SPECI CYYG 100418Z 12008KT 15SM OVC014 RMK SC8=
CYYG;2005-07-10 05:00;METAR CYYG 100500Z 12006KT 15SM OVC014 16/14 A2986 RMK SC8 SLP111=
CYYG;2005-07-10 05:51;SPECI CYYG 100551Z 15005KT 10SM -DZ OVC005 RMK ST8=
CYYG;2005-07-10 06:00;METAR CYYG 100600Z 14005KT 8SM -DZ OVC005 16/15 A2983 RMK ST8 SLP103=
CYYG;2005-07-10 06:09;SPECI CYYG 100609Z 15006KT 8SM -DZ OVC004 RMK ST8=
CYYG;2005-07-10 07:00;METAR CYYG 100700Z 16007KT 5SM BR OVC003 17/16 A2982 RMK ST8 SLP098=
CYYG;2005-07-10 08:00;METAR CYYG 100800Z 16008KT 10SM OVC004 17/17 A2982 RMK ST8 SLP097=
CYYG;2005-07-10 08:42;SPECI CYYG 100842Z 18005KT 10SM FEW005 OVC007 RMK SF2SF6=
CYYG;2005-07-10 09:00;METAR CYYG 100900Z 18007KT 10SM BKN004 OVC009 17/16 A2983 RMK SF6SF2 SLP102=
CYYG;2005-07-10 09:08;SPECI CYYG 100908Z 18007KT 2SM BR BKN004 OVC007 RMK SF5SF3=
CYYG;2005-07-10 09:19;SPECI CYYG 100919Z 18008KT 2SM -DZ BR SCT004 OVC007 RMK SF3SF5=
CYYG;2005-07-10 09:37;SPECI CYYG 100937Z 20006KT 2SM -DZ BR OVC003 RMK SF8=
CYYG;2005-07-10 10:00;METAR CYYG 101000Z 21006KT 3SM -DZ BR OVC003 17/16 A2983 RMK SF8 SLP101=
CYYG;2005-07-10 10:21;SPECI CYYG 101021Z 23010KT 15SM SCT003 BKN011 RMK SF3SC4=
CYYG;2005-07-10 11:00;METAR CYYG 101100Z 22007KT 15SM FEW003 SCT011 BKN048 BKN280 17/15 A2982 RMK SF1SC3SC2CI1 CC ASOCTD SLP099=
CYYG;2005-07-10 11:15;SPECI CYYG 101115Z 22008KT 15SM FEW004 BKN010 RMK SF2SC6=
CYYG;2005-07-10 12:00;METAR CYYG 101200Z 22007KT 15SM BKN011 17/15 A2983 RMK SC7 SLP101=
CYYG;2005-07-10 12:38;SPECI CYYG 101238Z 22010KT 15SM SCT011 BKN280 RMK SC3CI1=
CYYG;2005-07-10 13:00;METAR CYYG 101300Z 23007KT 15SM FEW012 FEW050 SCT280 19/15 A2982 RMK SC1SC1CI1 SLP099=
CYYG;2005-07-10 14:00;METAR CYYG 101400Z 21008KT 15SM BKN015 BKN280 20/16 A2982 RMK SC6CI0 SLP097=
CYYG;2005-07-10 15:00;METAR CYYG 101500Z 20005KT 15SM SCT015 BKN028 BKN280 20/17 A2981 RMK SC3SC3CI0 SLP095=
CYYG;2005-07-10 16:00;METAR CYYG 101600Z 18008KT 15SM BKN024 OVC045 20/17 A2980 RMK SC5SC3 SLP093=
CYYG;2005-07-10 17:00;METAR CYYG 101700Z 18007KT 15SM BKN016 BKN024 BKN280 21/17 A2979 RMK SC5SC2CI0 SLP088=
CYYG;2005-07-10 18:00;METAR CYYG 101800Z 18011KT 15SM BKN023 BKN080 21/17 A2977 RMK SC6AC2 SLP082=
CYYG;2005-07-10 19:00;METAR CYYG 101900Z 21008KT 15SM BKN021 BKN080 21/17 A2977 RMK SC6AC2 SLP079=
CYYG;2005-07-10 20:00;METAR CYYG 102000Z 19006KT 15SM BKN023 OVC080 21/16 A2976 RMK SC7AC1 SLP076=
CYYG;2005-07-10 21:00;METAR CYYG 102100Z 23004KT 15SM BKN030 BKN080 22/17 A2974 RMK SC5AC2 TCU ASOCTD SLP070=
CYYG;2005-07-10 22:00;METAR CYYG 102200Z 31003KT 15SM BKN031 BKN095 21/17 A2974 RMK SC6AC1 TCU E-SE SLP069=
CYYG;2005-07-10 23:00;METAR CYYG 102300Z 01006KT 15SM FEW020 BKN038 19/16 A2974 RMK SC1SC6 SLP072=
CYYG;2005-07-11 00:00;METAR CYYG 110000Z 00000KT 15SM FEW016 BKN040 18/16 A2974 RMK SC2SC6 SLP073=
CYYG;2005-07-11 01:00;METAR CYYG 110100Z 00000KT 15SM FEW018 BKN043 18/16 A2975 RMK SC2SC5 SLP075=
CYYG;2005-07-11 01:44;SPECI CYYG 110144Z 32002KT 15SM BKN012 BKN042 RMK SC5SC2=
CYYG;2005-07-11 02:00;METAR CYYG 110200Z 00000KT 15SM FEW012 SCT042 16/15 A2974 RMK SC2SC1 SLP073=
CYYG;2005-07-11 03:00;METAR CYYG 110300Z 00000KT 15SM FEW012 BKN027 BKN066 15/15 A2974 RMK SC2SC3AC2 SLP072=
CYYG;2005-07-11 04:00;METAR CYYG 110400Z 00000KT 15SM BKN016 BKN028 BKN062 16/15 A2972 RMK SC5SC1SC1 SLP064=
CYYG;2005-07-11 05:00;METAR CYYG 110500Z 00000KT 15SM FEW018 SCT031 OVC056 16/15 A2972 RMK SC2SC2SC5 SLP065=
CYYG;2005-07-11 06:00;METAR CYYG 110600Z 00000KT 15SM BKN017 OVC057 17/16 A2971 RMK SC6SC2 SLP062=
CYYG;2005-07-11 07:00;METAR CYYG 110700Z 00000KT 15SM OVC009 17/16 A2973 RMK SC8 SLP066=
CYYG;2005-07-11 08:00;METAR CYYG 110800Z 00000KT 15SM BKN007 OVC014 17/16 A2973 RMK SF5SC3 SLP066=
CYYG;2005-07-11 08:47;SPECI CYYG 110847Z 00000KT 5SM BR BKN005 OVC012 RMK SF6SC2 VIS E 10=
CYYG;2005-07-11 09:00;METAR CYYG 110900Z 00000KT 5SM BR BKN005 OVC012 17/16 A2973 RMK SF6SC2 VIS E 10 SLP067=
CYYG;2005-07-11 09:19;SPECI CYYG 110919Z 00000KT 8SM FEW005 SCT009 OVC014 RMK SF2SF2SC5=
CYYG;2005-07-11 10:00;METAR CYYG 111000Z 29002KT 8SM FEW005 OVC012 17/16 A2972 RMK SF2SC6 SLP065=
CYYG;2005-07-11 11:00;METAR CYYG 111100Z 32005KT 15SM FEW005 OVC011 18/17 A2974 RMK SF2SC6 SLP072=
CYYG;2005-07-11 12:00;METAR CYYG 111200Z 36009KT 15SM BKN010 OVC024 18/16 A2977 RMK SC5SC3 SLP080=
CYYG;2005-07-11 13:00;METAR CYYG 111300Z 35008KT 15SM BKN006 OVC020 18/16 A2979 RMK SC6SC2 SLP089=
CYYG;2005-07-11 13:22;SPECI CYYG 111322Z 36008KT 15SM BKN005 OVC020 RMK SF6SC2 VIS LWR NW=
CYYG;2005-07-11 13:41;SPECI CYYG 111341Z 36010KT 3SM BR OVC004 RMK SF8=
CYYG;2005-07-11 13:51;SPECI CYYG 111351Z 36011KT 15SM BKN010 RMK SC7=
CYYG;2005-07-11 14:00;METAR CYYG 111400Z 01010KT 15SM BKN011 BKN220 19/16 A2979 RMK SC6CI1 SLP086=
CYYG;2005-07-11 14:29;SPECI CYYG 111429Z 01010KT 15SM SCT011 BKN130 BKN280 RMK SC3AC2CI2=
CYYG;2005-07-11 15:00;METAR CYYG NIL=
CYYG;2005-07-11 15:44;SPECI CYYG 111544Z 01011G18KT 15SM OVC010 RMK SC8=
CYYG;2005-07-11 16:00;METAR CYYG NIL=
CYYG;2005-07-11 16:53;SPECI CYYG 111653Z 35011KT 10SM -SHRA OVC010 RMK SC8=
CYYG;2005-07-11 17:00;METAR CYYG 111700Z 35011KT 10SM -DZ OVC009 17/16 A2982 RMK SC8 OBS TAKEN +10 SLP099=
CYYG;2005-07-11 18:00;METAR CYYG 111800Z 02009G17KT 15SM -DZ OVC011 17/15 A2983 RMK SC8 SLP102=
CYYG;2005-07-11 18:29;SPECI CYYG 111829Z 01010G15KT 8SM -DZ OVC007 RMK SF8 VIS LWR S=
CYYG;2005-07-11 19:00;METAR CYYG 111900Z 01008KT 15SM OVC006 17/15 A2985 RMK SF8 SLP107=
CYYG;2005-07-11 19:35;SPECI CYYG 111935Z 02008KT 8SM -DZ OVC007 RMK SF8=
CYYG;2005-07-11 20:00;METAR CYYG 112000Z 01007KT 8SM -DZ OVC007 16/15 A2987 RMK SF8 SLP116=
CYYG;2005-07-11 21:00;METAR CYYG 112100Z 03010KT 5SM -DZ BR OVC005 16/16 A2987 RMK SF8 SLP114=
CYYG;2005-07-11 21:36;SPECI CYYG 112136Z 04009G15KT 10SM OVC005 RMK SF8=
CYYG;2005-07-11 22:00;METAR CYYG 112200Z 05011G16KT 5SM BR OVC003 16/15 A2990 RMK SF8 SLP125=
CYYG;2005-07-11 22:18;SPECI CYYG 112218Z 04009KT 8SM OVC004 RMK SF8=
CYYG;2005-07-11 22:55;SPECI CYYG 112255Z 02007KT 10SM SCT004 OVC009 RMK SF3SC5=
CYYG;2005-07-11 23:00;METAR CYYG 112300Z 02009KT 10SM FEW004 OVC008 16/14 A2993 RMK SF2SC6 SLP134=
CYYG;2005-07-11 23:41;SPECI CYYG 112341Z 02007KT 2SM -DZ BR BKN007 OVC012 RMK SF6SC2=
CYYG;2005-07-12 00:00;METAR CYYG 120000Z 01008KT 2 1/2SM -DZ BR BKN007 OVC012 15/14 A2994 RMK SF6SC2 SLP140=
CYYG;2005-07-12 01:00;METAR CYYG 120100Z 01007KT 8SM OVC007 15/14 A2996 RMK SF8 SLP146=
CYYG;2005-07-12 02:00;METAR CYYG 120200Z 02010KT 10SM OVC007 15/14 A2995 RMK SF8 SLP143=
CYYG;2005-07-12 02:50;SPECI CYYG 120250Z 02011KT 12SM FEW007 BKN015 OVC055 RMK SF2SC4SC2=
CYYG;2005-07-12 03:00;METAR CYYG 120300Z 02012KT 15SM FEW007 BKN015 OVC055 15/14 A2995 RMK SF2SC4SC2 SLP142=
CYYG;2005-07-12 04:00;METAR CYYG 120400Z 02012KT 15SM FEW015 SCT055 15/14 A2997 RMK SC1SC2 SLP148=
CYYG;2005-07-12 05:00;METAR CYYG 120500Z 03011G17KT 15SM SCT055 14/13 A2997 RMK SC3 SLP150=
CYYG;2005-07-12 06:00;METAR CYYG 120600Z 03014G21KT 15SM FEW012 OVC055 15/13 RMK SC2SC6 ALTM MISG SLP152=
CYYG;2005-07-12 09:00;METAR CYYG 120900Z 03011G18KT 15SM BKN015 OVC038 14/13 A3002 RMK SC7SC1 SLP166=
CYYG;2005-07-12 10:00;METAR CYYG 121000Z 02012KT 15SM BKN013 BKN038 14/13 A3002 RMK SC6SC1 SLP167=
CYYG;2005-07-12 11:00;METAR CYYG 121100Z 02017G22KT 15SM FEW013 BKN018 BKN033 15/13 A3003 RMK SC2SC4SC2 SLP170=
CYYG;2005-07-12 12:00;METAR CYYG 121200Z 01013G20KT 15SM BKN013 OVC033 15/13 A3004 RMK SC6SC2 SLP174=
CYYG;2005-07-12 12:27;SPECI CYYG 121227Z 02013G19KT 10SM -SHRA OVC015 RMK SC8=
CYYG;2005-07-12 12:32;SPECI CYYG 121232Z 02011G18KT 10SM -DZ OVC015 RMK SC8=
CYYG;2005-07-12 13:00;METAR CYYG 121300Z 02010G15KT 10SM -SHRA BKN012 OVC017 14/13 A3006 RMK SC6SC2 SLP178=
CYYG;2005-07-12 13:15;SPECI CYYG 121315Z 01012G17KT 5SM -DZ BR BKN012 OVC024 RMK SC6SC2=
CYYG;2005-07-12 14:00;METAR CYYG 121400Z 36014G19KT 5SM -DZ BR BKN011 OVC024 14/13 A3005 RMK SC6SC2 SLP176=
CYYG;2005-07-12 14:27;SPECI CYYG 121427Z 36010G16KT 3SM -DZ BR OVC008 RMK SF8=
CYYG;2005-07-12 15:00;METAR CYYG 121500Z 01014KT 2SM -DZ BR OVC007 14/14 A3005 RMK SF8 SLP175=
CYYG;2005-07-12 16:00;METAR CYYG 121600Z 02012G18KT 3SM -DZ BR BKN008 OVC025 14/14 A3004 RMK SF6SC2 SLP174=
CYYG;2005-07-12 16:49;SPECI CYYG 121649Z 36011KT 3SM -DZ BR BKN005 BKN008 OVC015 RMK SF5SF2SC2=
CYYG;2005-07-12 17:00;METAR CYYG 121700Z 02009G15KT 3SM -DZ BR BKN005 BKN008 OVC015 14/14 A3004 RMK SF5SF2SC2 SLP173=
CYYG;2005-07-12 18:00;METAR CYYG 121800Z 36010KT 2SM -DZ BR BKN005 OVC010 13/13 A3004 RMK SF6SF2 SLP175=
CYYG;2005-07-12 19:00;METAR CYYG 121900Z 36010KT 3SM -DZ BR SCT005 OVC008 13/13 A3005 RMK SF3SF5 SLP177=
CYYG;2005-07-12 19:38;SPECI CYYG 121938Z 36006G15KT 2SM -DZ BR OVC005 RMK SF8=
CYYG;2005-07-12 20:00;METAR CYYG 122000Z 36009KT 2SM -DZ BR BKN004 OVC007 14/14 A3006 RMK SF5SF3 SLP179=
CYYG;2005-07-12 20:24;SPECI CYYG 122024Z 01009KT 5SM -DZ BR BKN004 OVC013 RMK SF5SC3=
CYYG;2005-07-12 21:00;METAR CYYG 122100Z 01011G16KT 3SM -DZ BR BKN004 OVC011 14/14 A3005 RMK SF6SF2 VIS S-W 10 SLP177=
CYYG;2005-07-12 21:12;SPECI CYYG 122112Z 36010KT 5SM -DZ BR FEW004 BKN009 OVC021 RMK SF2SF3SC2=
CYYG;2005-07-12 21:47;SPECI CYYG 122147Z 01008KT 3SM -DZ BR BKN003 OVC007 RMK SF5SF3=
CYYG;2005-07-12 22:00;METAR CYYG 122200Z 02009KT 3SM -DZ BR BKN003 OVC019 14/13 A3005 RMK SF7SC1 SLP177=
CYYG;2005-07-12 23:00;METAR CYYG 122300Z 36005KT 6SM -DZ BR BKN006 OVC019 13/13 A3005 RMK SF7SC1 SLP177=
CYYG;2005-07-13 00:00;METAR CYYG 130000Z 36007KT 6SM -DZ BR BKN007 OVC017 14/13 A3006 RMK SF7SC1 SLP179=
CYYG;2005-07-13 01:00;METAR CYYG 130100Z 36006KT 6SM -DZ BR OVC007 13/13 A3005 RMK SF8 SLP177=
CYYG;2005-07-13 01:41;SPECI CYYG 130141Z 36007KT 6SM BR OVC006 RMK SF8=
CYYG;2005-07-13 02:00;METAR CYYG 130200Z 36006KT 5SM BR OVC005 13/13 A3005 RMK SF8 SLP178=
CYYG;2005-07-13 03:00;METAR CYYG 130300Z 01005KT 2 1/2SM BR OVC003 14/13 A3005 RMK ST8 SLP178=
CYYG;2005-07-13 04:00;METAR CYYG 130400Z 35005KT 2 1/2SM BR OVC003 13/13 A3004 RMK ST8 SLP175=
CYYG;2005-07-13 05:00;METAR CYYG 130500Z 00000KT 1 1/2SM BR OVC002 14/13 A3004 RMK ST8 SLP175=
CYYG;2005-07-13 06:00;METAR CYYG 130600Z 34003KT 1 1/2SM BR OVC002 14/13 A3004 RMK ST8 SLP172=
CYYG;2005-07-13 07:00;METAR CYYG 130700Z 35002KT 1 1/2SM BR OVC002 14/13 A3004 RMK ST8 SLP172=
CYYG;2005-07-13 07:44;SPECI CYYG 130744Z 00000KT 1SM -DZ BR OVC002 RMK ST8=
CYYG;2005-07-13 08:00;METAR CYYG 130800Z 00000KT 1SM -DZ BR OVC003 14/13 A3004 RMK ST8 SLP174=
CYYG;2005-07-13 08:41;SPECI CYYG 130841Z 00000KT 1SM -SHRA BR OVC003 RMK ST8=
CYYG;2005-07-13 09:00;METAR CYYG 130900Z 00000KT 1SM -DZ BR OVC002 14/14 A3005 RMK ST8 SLP176=
CYYG;2005-07-13 10:00;METAR CYYG 131000Z 32004KT 2SM -DZ BR OVC004 14/14 A3005 RMK ST8 SLP176=
CYYG;2005-07-13 11:00;METAR CYYG 131100Z 00000KT 2SM -DZ BR OVC003 15/14 A3005 RMK ST8 SLP178=
CYYG;2005-07-13 12:00;METAR CYYG 131200Z 00000KT 3SM -DZ BR OVC003 15/14 A3006 RMK ST8 SLP181=
CYYG;2005-07-13 12:44;SPECI CYYG 131244Z 00000KT 4SM -DZ BR OVC008 RMK ST8=
CYYG;2005-07-13 13:00;METAR CYYG 131300Z 00000KT 15SM OVC010 15/15 A3006 RMK SF8 VIS LWR SW-NW SLP181=
CYYG;2005-07-13 14:00;METAR CYYG 131400Z 00000KT 15SM BKN007 OVC015 16/15 A3006 RMK SF6SC2 SLP181=
CYYG;2005-07-13 14:21;SPECI CYYG 131421Z 36002KT 15SM BKN010 OVC016 RMK SF6SC2=
CYYG;2005-07-13 14:35;SPECI CYYG 131435Z 04002KT 15SM OVC013 RMK SC8=
CYYG;2005-07-13 15:00;METAR CYYG 131500Z 00000KT 10SM OVC012 17/16 A3006 RMK SC8 SLP180=
CYYG;2005-07-13 15:05;SPECI CYYG 131505Z 00000KT 8SM -DZ OVC012 RMK SC8=
CYYG;2005-07-13 15:24;SPECI CYYG 131524Z 20002KT 8SM -DZ BKN007 OVC012 RMK SF6SC2=
CYYG;2005-07-13 16:00;METAR CYYG 131600Z 00000KT 8SM -DZ SCT007 OVC012 17/16 A3005 RMK SF4SC4 SLP177=
CYYG;2005-07-13 17:00;METAR CYYG 131700Z 00000KT 7SM -DZ BKN005 OVC012 17/16 A3005 RMK SF5SC3 SLP177=
CYYG;2005-07-13 18:00;METAR CYYG 131800Z 21004KT 15SM FEW007 OVC014 19/16 A3005 RMK SF2SC6 SLP176=
CYYG;2005-07-13 19:00;METAR CYYG 131900Z 00000KT 15SM BKN021 BKN160 20/16 A3004 RMK SC5AC2 SLP172=
CYYG;2005-07-13 20:00;METAR CYYG 132000Z 23006KT 15SM BKN021 BKN160 19/16 A3004 RMK SC5AC2 SLP173=
CYYG;2005-07-13 21:00;METAR CYYG 132100Z 00000KT 15SM BKN015 BKN160 19/16 A3004 RMK SC6AC1 SLP172=
CYYG;2005-07-13 22:00;METAR CYYG 132200Z 19006KT 15SM SCT019 SCT160 18/16 A3003 RMK SC3AC1 SLP168=
CYYG;2005-07-13 23:00;METAR CYYG 132300Z 23005KT 15SM BKN028 18/16 A3004 RMK SC6 SLP171=
CYYG;2005-07-14 00:00;METAR CYYG 140000Z 15003KT 15SM FEW028 FEW120 18/16 A3003 RMK SC1AC1 SLP168=
CYYG;2005-07-14 01:00;METAR CYYG 140100Z 19004KT 15SM FEW120 16/15 A3004 RMK AC1 SLP173=
CYYG;2005-07-14 02:00;METAR CYYG 140200Z 18002KT 15SM SCT026 15/14 A3004 RMK SC3 SLP174=
CYYG;2005-07-14 03:00;METAR CYYG 140300Z 19006KT 15SM FEW022 SCT037 14/14 A3004 RMK SC2SC2 SLP174=
CYYG;2005-07-14 04:00;METAR CYYG 140400Z 17004KT 15SM FEW037 14/12 A3004 RMK SC2 SLP174=
CYYG;2005-07-14 05:00;METAR CYYG 140500Z 22006KT 15SM FEW035 14/12 A3003 RMK SC2 SLP170=
CYYG;2005-07-14 06:00;METAR CYYG 140600Z 22007KT 15SM FEW044 13/12 A3003 RMK SC2 SLP168=
CYYG;2005-07-14 07:00;METAR CYYG 140700Z 22005KT 15SM SKC 12/11 A3002 RMK SLP165=
CYYG;2005-07-14 08:00;METAR CYYG 140800Z 23006KT 15SM FEW120 12/11 A3002 RMK AC1 SLP166=
CYYG;2005-07-14 09:00;METAR CYYG 140900Z 22006KT 15SM FEW120 13/12 A3002 RMK AC2 SLP165=
CYYG;2005-07-14 10:00;METAR CYYG 141000Z 22010G15KT 15SM FEW015 FEW260 15/11 A3001 RMK SC1CI1 SLP164=
CYYG;2005-07-14 11:00;METAR CYYG 141100Z 22010KT 15SM FEW015 BKN280 15/11 A3001 RMK SC1CI1 SLP161=
CYYG;2005-07-14 12:00;METAR CYYG 141200Z 22012KT 15SM SCT015 BKN280 16/11 A3001 RMK SC3CI1 SLP163=
CYYG;2005-07-14 13:00;METAR CYYG 141300Z 22010KT 15SM SCT010 BKN280 16/11 A3001 RMK SC4CI2 SLP163=
CYYG;2005-07-14 14:00;METAR CYYG 141400Z 21015KT 15SM FEW012 BKN280 18/11 A3000 RMK SC2CI4 SLP159=
CYYG;2005-07-14 15:00;METAR CYYG 141500Z 19011KT 15SM FEW012 BKN280 19/12 A2998 RMK SC1CI5 SLP154=
CYYG;2005-07-14 16:00;METAR CYYG 141600Z 20011KT 15SM BKN280 20/13 A2997 RMK CI6 SLP150=
CYYG;2005-07-14 17:00;METAR CYYG 141700Z 21012G17KT 15SM FEW040 BKN280 21/14 A2996 RMK SC2CI5 SLP147=
CYYG;2005-07-14 18:00;METAR CYYG 141800Z 22015G20KT 15SM FEW025 BKN070 22/14 A2996 RMK SC2AC5 SLP144=
CYYG;2005-07-14 18:27;SPECI CYYG 141827Z 22013KT 15SM -SHRA BKN023 OVC070 RMK SC6AC2=
CYYG;2005-07-14 19:00;METAR CYYG 141900Z 22010G17KT 15SM -SHRA BKN019 OVC070 20/16 A2996 RMK SC6AC2 SLP144=
CYYG;2005-07-14 19:25;SPECI CYYG 141925Z 22008G15KT 15SM BKN023 OVC070 RMK SC6AC2=
CYYG;2005-07-14 20:00;METAR CYYG 142000Z 22010KT 15SM BKN020 OVC070 20/16 A2996 RMK SC6AC2 SLP144=
CYYG;2005-07-14 21:00;METAR CYYG 142100Z 22012KT 15SM -SHRA BKN018 OVC060 20/15 A2995 RMK SC6SC2 SLP141=
CYYG;2005-07-14 22:00;METAR CYYG 142200Z 21006KT 10SM -SHRA BKN020 OVC079 19/16 A2994 RMK SC6AC2 SLP139=
CYYG;2005-07-14 23:00;METAR CYYG 142300Z 23008KT 8SM -SHRA FEW009 OVC043 19/16 A2995 RMK SF2SC6 SLP143=
CYYG;2005-07-15 00:00;METAR CYYG 150000Z 22006KT 6SM -SHRA BR FEW011 BKN040 OVC083 19/18 A2994 RMK SF2SC4AC2 SLP139=
CYYG;2005-07-15 01:00;METAR CYYG 150100Z 21009KT 10SM -SHRA BKN040 OVC092 19/18 A2992 RMK SC5AC3 SLP132=
CYYG;2005-07-15 02:00;METAR CYYG 150200Z 18011KT 15SM BKN031 OVC077 19/18 A2990 RMK SC6AC2 SLP125=
CYYG;2005-07-15 02:33;SPECI CYYG 150233Z 19011KT 15SM -SHRA BKN028 OVC070 RMK SC6AC2=
CYYG;2005-07-15 03:00;METAR CYYG 150300Z 18011G16KT 12SM -SHRA OVC022 19/18 A2989 RMK SC8 SLP123=
CYYG;2005-07-15 04:00;METAR CYYG 150400Z 19011KT 12SM -SHRA OVC017 19/19 A2987 RMK SC8 SLP116=
CYYG;2005-07-15 05:00;METAR CYYG 150500Z 21010KT 12SM -SHRA OVC011 19/18 A2986 RMK SC8 SLP111=
CYYG;2005-07-15 06:00;METAR CYYG 150600Z 21012G17KT 12SM -SHRA BKN005 OVC010 19/18 A2986 RMK SF6SC2 SLP110=
CYYG;2005-07-15 07:00;METAR CYYG 150700Z 23008KT 15SM OVC007 17/17 A2986 RMK SF8 SLP111=
CYYG;2005-07-15 08:00;METAR CYYG 150800Z 23008KT 15SM OVC006 17/17 A2986 RMK SF8 SLP111=
CYYG;2005-07-15 09:00;METAR CYYG 150900Z 23010KT 15SM OVC006 17/17 A2987 RMK SF8 SLP116=
CYYG;2005-07-15 10:00;METAR CYYG 151000Z 23005KT 15SM OVC004 19/17 A2988 RMK SF8 SLP120=
CYYG;2005-07-15 10:16;SPECI CYYG 151016Z 25010KT 10SM OVC002 RMK ST8=
CYYG;2005-07-15 11:00;METAR CYYG 151100Z 25008KT 5SM BR OVC002 17/17 A2989 RMK ST8 SLP123=
CYYG;2005-07-15 12:00;METAR CYYG 151200Z 26007KT 6SM BR SCT002 OVC004 17/17 A2991 RMK SF3SF5 SLP128=
CYYG;2005-07-15 13:00;METAR CYYG 151300Z 26007KT 10SM BKN004 OVC008 18/17 A2991 RMK SF6SF2 SLP128=
CYYG;2005-07-15 13:13;SPECI CYYG 151313Z 27008KT 15SM BKN006 OVC008 RMK SF5SF3=
CYYG;2005-07-15 14:00;METAR CYYG 151400Z 27006KT 15SM BKN008 BKN021 19/17 A2992 RMK SF6SC2 SLP131=
CYYG;2005-07-15 14:19;SPECI CYYG 151419Z 26007KT 15SM SCT008 BKN030 RMK SF3SC4=
CYYG;2005-07-15 14:35;SPECI CYYG 151435Z 26006KT 15SM BKN008 BKN030 RMK SF6SC1=
CYYG;2005-07-15 15:00;METAR CYYG 151500Z 27007KT 15SM BKN008 BKN030 BKN044 20/18 A2991 RMK SC5SC1SC2 SLP130=
CYYG;2005-07-15 15:02;SPECI CYYG 151502Z 31006KT 15SM -SHRA FEW008 FEW013 BKN030 RMK SF2SC1SC5=
CYYG;2005-07-15 16:00;METAR CYYG 151600Z 32009KT 15SM -SHRA BKN012 OVC019 17/17 A2994 RMK SC6SC2 SLP139=
CYYG;2005-07-15 16:33;SPECI CYYG 151633Z 33012KT 15SM VCSH FEW012 SCT027 BKN046 RMK SC2SC2SC4=
CYYG;2005-07-15 17:00;METAR CYYG 151700Z 32013KT 15SM FEW020 BKN046 18/16 A2995 RMK CU2SC6 SLP141=
CYYG;2005-07-15 18:00;METAR CYYG 151800Z 35010G16KT 15SM BKN027 BKN046 20/19 A2996 RMK CU5SC1 SLP145=
CYYG;2005-07-15 19:00;METAR CYYG 151900Z 36009KT 15SM FEW030 FEW300 22/18 A2997 RMK SC2CI1 SLP149=
CYYG;2005-07-15 20:00;METAR CYYG 152000Z 34005KT 15SM FEW030 FEW300 22/17 A2997 RMK CU1CI1 TCU S SLP148=
CYYG;2005-07-15 21:00;METAR CYYG 152100Z 31005KT 15SM FEW030 FEW063 FEW300 22/17 A2997 RMK CU1SC1CI1 SLP149=
CYYG;2005-07-15 22:00;METAR CYYG 152200Z 31007KT 15SM FEW030 BKN052 20/15 A3000 RMK CU2SC5 SLP159=
CYYG;2005-07-15 23:00;METAR CYYG 152300Z 32004KT 15SM BKN057 BKN220 19/13 A3002 RMK SC5CI1 SLP165=
CYYG;2005-07-16 00:00;METAR CYYG 160000Z 00000KT 15SM BKN071 BKN220 19/13 A3003 RMK AC5CI1 SLP169=
CYYG;2005-07-16 01:00;METAR CYYG 160100Z 00000KT 15SM FEW070 BKN170 18/13 A3004 RMK AC2AC2 SLP171=
CYYG;2005-07-16 02:00;METAR CYYG 160200Z 20003KT 15SM BKN150 18/12 A3002 RMK AC5 SLP167=
CYYG;2005-07-16 03:00;METAR CYYG 160300Z 00000KT 15SM BKN140 17/13 A3003 RMK AC6 SLP168=
CYYG;2005-07-16 04:00;METAR CYYG 160400Z 34003KT 15SM FEW050 BKN120 15/12 A3003 RMK SC2AC3 SLP169=
CYYG;2005-07-16 05:00;METAR CYYG 160500Z 00000KT 15SM FEW040 BKN120 14/12 A3002 RMK SC2AC4 SLP166=
CYYG;2005-07-16 06:00;METAR CYYG 160600Z 30004KT 15SM BKN120 14/11 A3003 RMK AC5 SLP169=
CYYG;2005-07-16 07:00;METAR CYYG 160700Z 32004KT 15SM SCT120 14/11 A3004 RMK AC3 SLP171=
CYYG;2005-07-16 08:00;METAR CYYG 160800Z 31002KT 15SM FEW120 14/11 A3004 RMK AC2 SLP173=
CYYG;2005-07-16 09:00;METAR CYYG 160900Z 27004KT 15SM BKN025 14/11 A3005 RMK SC6 SLP176=
CYYG;2005-07-16 09:21;SPECI CYYG 160921Z 29007KT 15SM -SHRA BKN017 RMK SC6=
CYYG;2005-07-16 09:46;SPECI CYYG 160946Z 33005KT 15SM FEW015 SCT030 RMK SC2SC2=
CYYG;2005-07-16 10:00;METAR CYYG 161000Z 33005KT 15SM FEW015 SCT078 15/13 A3006 RMK SC2AC2 SLP181=
CYYG;2005-07-16 11:00;METAR CYYG 161100Z 34007KT 15SM BKN015 BKN080 16/14 A3007 RMK SC7AC1 SLP184=
CYYG;2005-07-16 11:32;SPECI CYYG 161132Z 35012G18KT 15SM BKN013 RMK SC7=
CYYG;2005-07-16 12:00;METAR CYYG 161200Z 33012G18KT 15SM BKN014 16/13 A3009 RMK SC7 SLP190=
CYYG;2005-07-16 13:00;METAR CYYG 161300Z 32013KT 15SM -SHRA OVC013 16/13 A3009 RMK SC8 SLP191=
CYYG;2005-07-16 14:00;METAR CYYG 161400Z 33011KT 15SM -SHRA OVC011 15/14 A3010 RMK SC8 SLP193=
CYYG;2005-07-16 14:53;SPECI CYYG 161453Z 33014KT 15SM -SHRA OVC009 RMK SC8=
CYYG;2005-07-16 15:00;METAR CYYG 161500Z 32011G18KT 15SM -SHRA OVC009 15/14 A3011 RMK SC8 SLP196=
CYYG;2005-07-16 15:23;SPECI CYYG 161523Z 34009G16KT 15SM OVC009 RMK SC8=
CYYG;2005-07-16 15:42;SPECI CYYG 161542Z 36010G18KT 15SM -SHRA OVC010 RMK SC8=
CYYG;2005-07-16 16:00;METAR CYYG 161600Z 35012G18KT 15SM -SHRA OVC010 16/14 A3010 RMK SC8 CU ASOCTD SLP192=
CYYG;2005-07-16 17:00;METAR CYYG 161700Z 35011G16KT 12SM -SHRA SCT010 BKN015 OVC035 15/14 A3011 RMK SC3SC4SC1 CU ASOCTD SLP195=
CYYG;2005-07-16 17:26;SPECI CYYG 161726Z 01013KT 15SM BKN012 BKN025 RMK SC5SC2 CU ASOCTD=
CYYG;2005-07-16 17:46;SPECI CYYG 161746Z 36011G17KT 15SM -SHRA BKN012 OVC025 RMK SC6SC2 CUASOCTD=
CYYG;2005-07-16 18:00;METAR CYYG 161800Z 34010G16KT 15SM VCSH BKN011 OVC020 16/14 A3012 RMK SC6SC2 SLP200=
CYYG;2005-07-16 19:00;METAR CYYG 161900Z 36011KT 15SM VCSH BKN012 OVC025 16/14 A3012 RMK SC6SC2 CU ASOCTD SLP202=
CYYG;2005-07-16 20:00;METAR CYYG 162000Z 35010KT 15SM BKN012 BKN023 17/13 A3014 RMK SC5SC2 CU ASOCTD SLP206=
CYYG;2005-07-16 21:00;METAR CYYG 162100Z 35008KT 15SM -SHRA BKN012 OVC020 15/13 A3014 RMK SC7SC1 SLP207=
CYYG;2005-07-16 22:00;METAR CYYG 162200Z 35006KT 15SM BKN013 BKN020 15/13 A3014 RMK SC6SC1 SLP208=
CYYG;2005-07-16 22:26;SPECI CYYG 162226Z 35006KT 15SM BKN018 RMK SC7=
CYYG;2005-07-16 23:00;METAR CYYG 162300Z 01007KT 15SM BKN015 15/13 A3015 RMK SC7 SLP210=
CYYG;2005-07-17 00:00;METAR CYYG 170000Z 04006KT 15SM BKN015 15/13 A3014 RMK SC7 SLP208=
CYYG;2005-07-17 01:00;METAR CYYG 170100Z 00000KT 15SM BKN012 14/12 A3014 RMK SC7 SLP208=
CYYG;2005-07-17 02:00;METAR CYYG 170200Z 00000KT 15SM BKN010 13/11 A3014 RMK SC7 SLP207=
CYYG;2005-07-17 03:00;METAR CYYG 170300Z 12002KT 15SM OVC008 13/11 A3014 RMK SC8 SLP207=
CYYG;2005-07-17 04:00;METAR CYYG 170400Z 00000KT 15SM OVC006 14/11 A3015 RMK SC8 SLP210=
CYYG;2005-07-17 05:00;METAR CYYG 170500Z 27005KT 15SM OVC004 13/11 A3015 RMK SF8 SLP211=
CYYG;2005-07-17 06:00;METAR CYYG 170600Z 25004KT 15SM OVC005 14/11 A3014 RMK SF8 SLP207=
CYYG;2005-07-17 07:00;METAR CYYG 170700Z 00000KT 12SM OVC004 14/11 A3012 RMK SF8 SLP202=
CYYG;2005-07-17 08:00;METAR CYYG 170800Z 19003KT 12SM BKN003 OVC160 14/11 A3012 RMK SF7AC1 SLP201=
CYYG;2005-07-17 08:32;SPECI CYYG 170832Z 00000KT 15SM SCT004 BKN230 RMK SF4CI2=
CYYG;2005-07-17 09:00;METAR CYYG 170900Z 00000KT 15SM VCFG SCT004 BKN230 13/12 A3013 RMK SF4CI2 SLP203=
CYYG;2005-07-17 09:31;SPECI CYYG 170931Z 14004KT 1/2SM FG BKN230 RMK FG6CI1 RVR RWY03 2600FT=
CYYG;2005-07-17 09:50;SPECI CYYG 170950Z 13004KT 1 1/2SM BR BKN003 BKN230 RMK SF6CI2=
CYYG;2005-07-17 10:00;METAR CYYG 171000Z 14003KT 1 1/2SM BR BKN230 13/13 A3013 RMK FG2CI3 SLP205=
CYYG;2005-07-17 10:14;SPECI CYYG 171014Z 15004KT 10SM FEW002 BKN230 RMK SF1CI4=
CYYG;2005-07-17 10:43;SPECI CYYG 171043Z 15005KT 10SM BKN004 BKN230 RMK SF5CI1=
CYYG;2005-07-17 11:00;METAR CYYG 171100Z 15005KT 15SM BKN004 16/14 A3014 RMK SF7 SLP207=
CYYG;2005-07-17 11:18;SPECI CYYG 171118Z 17006KT 15SM BKN005 RMK SF7=
CYYG;2005-07-17 12:00;METAR CYYG 171200Z 19008KT 15SM BKN004 15/14 A3013 RMK SF7 SLP204=
CYYG;2005-07-17 12:45;SPECI CYYG 171245Z 18006KT 15SM BKN006 RMK SF7=
CYYG;2005-07-17 13:00;METAR CYYG 171300Z 18007KT 15SM SCT007 BKN280 16/14 A3012 RMK SF3CI0 SLP201=
CYYG;2005-07-17 14:00;METAR CYYG 171400Z 19006KT 15SM FEW008 BKN320 17/13 A3012 RMK SF1CI2 CONTRAILS SLP200=
CYYG;2005-07-17 15:00;METAR CYYG 171500Z 20006KT 15SM BKN320 19/15 A3010 RMK CI2 CONTRAILS SLP193=
CYYG;2005-07-17 16:00;METAR CYYG 171600Z 21005KT 15SM BKN320 20/15 A3009 RMK CI2 CONTRAILS SLP188=
CYYG;2005-07-17 17:00;METAR CYYG 171700Z 20007KT 15SM BKN300 23/16 A3008 RMK CI2 CONTRAILS SLP185=
CYYG;2005-07-17 18:00;METAR CYYG 171800Z 25007KT 15SM BKN300 26/18 A3006 RMK CI2 SLP181=
CYYG;2005-07-17 19:00;METAR CYYG 171900Z 26008KT 15SM SCT300 26/19 A3005 RMK CI1 SLP177=
CYYG;2005-07-17 20:00;METAR CYYG 172000Z 25011G16KT 15SM FEW030 FEW300 26/17 A3005 RMK CU1CI1 SLP175=
CYYG;2005-07-17 21:00;METAR CYYG 172100Z 26009KT 15SM FEW030 SCT300 26/19 A3004 RMK CU1CI1 SLP171=
CYYG;2005-07-17 22:00;METAR CYYG 172200Z 22007KT 15SM FEW030 FEW300 26/18 A3003 RMK CU1CI1 SLP169=
CYYG;2005-07-17 23:00;METAR CYYG 172300Z 22007KT 15SM FEW300 24/17 A3004 RMK CI2 SLP171=
CYYG;2005-07-18 00:00;METAR CYYG 180000Z 23009KT 15SM FEW300 22/17 A3003 RMK CI2 SLP170=
CYYG;2005-07-18 01:00;METAR CYYG 180100Z 25011G16KT 15SM FEW300 22/17 A3004 RMK CI2 SLP174=
CYYG;2005-07-18 02:00;METAR CYYG 180200Z 25011G17KT 15SM FEW300 21/16 A3004 RMK CI2 SLP174=
CYYG;2005-07-18 03:00;METAR CYYG 180300Z 25010KT 15SM SKC 20/16 A3004 RMK SLP171=
CYYG;2005-07-18 04:00;METAR CYYG 180400Z 25013G19KT 15SM FEW080 20/16 A3004 RMK AC2 SLP171=
CYYG;2005-07-18 05:00;METAR CYYG 180500Z 25013KT 15SM FEW080 18/15 A3003 RMK AC2 SLP168=
CYYG;2005-07-18 06:00;METAR CYYG 180600Z 25011G17KT 15SM FEW080 18/16 A3002 RMK AC2 SLP166=
CYYG;2005-07-18 07:00;METAR CYYG 180700Z 25013KT 15SM FEW080 19/15 A3001 RMK AC2 SLP164=
CYYG;2005-07-18 08:00;METAR CYYG 180800Z 24010KT 15SM FEW080 19/15 A3001 RMK AC2 SLP164=
CYYG;2005-07-18 09:00;METAR CYYG 180900Z 25010KT 15SM FEW080 SCT300 18/15 A3001 RMK AC2CI1 SLP163=
CYYG;2005-07-18 10:00;METAR CYYG 181000Z 24008KT 15SM SCT083 BKN300 19/16 A3002 RMK AC3CI1 SLP166=
CYYG;2005-07-18 11:00;METAR CYYG 181100Z 23010KT 15SM FEW083 BKN300 19/17 A3002 RMK AC2CI2 SLP167=
CYYG;2005-07-18 11:45;SPECI CYYG 181145Z 24010G16KT 15SM FEW008 BKN300 RMK SF2CI2=
CYYG;2005-07-18 12:00;METAR CYYG 181200Z 24011G17KT 12SM BKN006 OVC300 20/19 A3003 RMK SF6CI2 SLP170=
CYYG;2005-07-18 13:00;METAR CYYG 181300Z 23008KT 15SM OVC008 21/19 A3004 RMK SF8 SLP171=
CYYG;2005-07-18 13:13;SPECI CYYG 181313Z 24007KT 15SM OVC010 RMK SF8=
CYYG;2005-07-18 14:00;METAR CYYG 181400Z 23011G16KT 15SM BKN012 BKN300 22/19 A3003 RMK SF6CI1 SLP168=
CYYG;2005-07-18 15:00;METAR CYYG 181500Z 24013G19KT 15SM BKN012 BKN300 23/20 A3001 RMK SC6CI1 SLP163=
CYYG;2005-07-18 16:00;METAR CYYG 181600Z 24016G22KT 15SM SCT015 BKN300 23/18 A2999 RMK SC3CI1 SLP157=
CYYG;2005-07-18 17:00;METAR CYYG 181700Z 24011G18KT 15SM FEW018 BKN300 25/20 A2999 RMK CF2CI2 SLP156=
CYYG;2005-07-18 18:00;METAR CYYG 181800Z 25014G24KT 15SM FEW020 BKN300 25/19 A2998 RMK CF1CI1 SLP154=
CYYG;2005-07-18 19:00;METAR CYYG 181900Z 25013G20KT 15SM FEW025 BKN300 27/21 A2997 RMK CF1CI1 SLP149=
CYYG;2005-07-18 20:00;METAR CYYG 182000Z 25018KT 15SM FEW025 BKN300 28/21 A2995 RMK CF1CI1 SLP143=
CYYG;2005-07-18 21:00;METAR CYYG 182100Z 25012G19KT 15SM BKN300 27/21 A2995 RMK CI2 SLP142=
CYYG;2005-07-18 22:00;METAR CYYG 182200Z 25010G16KT 15SM BKN300 26/21 A2995 RMK CI2 SLP142=
CYYG;2005-07-18 23:00;METAR CYYG 182300Z 25010G15KT 15SM BKN300 25/20 A2996 RMK CI2 SLP143=
CYYG;2005-07-19 00:00;METAR CYYG 190000Z 24010G16KT 15SM FEW043 SCT300 24/20 A2996 RMK SC2CI2 SLP147=
CYYG;2005-07-19 01:00;METAR CYYG 190100Z 24007KT 15SM FEW300 23/19 A2997 RMK CI2 SLP148=
CYYG;2005-07-19 02:00;METAR CYYG 190200Z 25010KT 15SM FEW300 23/20 A2997 RMK CI2 SLP149=
CYYG;2005-07-19 03:00;METAR CYYG 190300Z 23007KT 15SM FEW055 FEW300 22/20 A2996 RMK SC1CI1 SLP144=
CYYG;2005-07-19 04:00;METAR CYYG 190400Z 22006KT 15SM FEW055 FEW300 22/20 A2995 RMK SC1CI1 SLP142=
CYYG;2005-07-19 05:00;METAR CYYG 190500Z 22007KT 15SM FEW020 FEW300 22/20 A2994 RMK SC1CI2 SLP137=
CYYG;2005-07-19 06:00;METAR CYYG 190600Z 22007KT 15SM SCT018 23/20 A2993 RMK SC4 SLP135=
CYYG;2005-07-19 08:00;METAR CYYG 190800Z 20008KT 15SM BKN013 22/20 A2991 RMK SC6 SLP128=
CYYG;2005-07-19 08:13;SPECI CYYG 190813Z 20008KT 15SM BKN009 RMK SC7=
CYYG;2005-07-19 09:00;METAR CYYG 190900Z 19007KT 15SM OVC008 22/20 A2990 RMK SC8 SLP126=
CYYG;2005-07-19 10:00;METAR CYYG 191000Z 16005KT 15SM OVC008 22/20 A2990 RMK SC8 SLP126=
CYYG;2005-07-19 11:00;METAR CYYG 191100Z 20009KT 15SM OVC008 A2992 RMK SC8 SLP131=
CYYG;2005-07-19 12:00;METAR CYYG 191200Z 21008KT 15SM OVC009 22/20 A2991 RMK SC8 SLP127=
CYYG;2005-07-19 13:00;METAR CYYG 191300Z 21008KT 15SM OVC010 23/21 A2990 RMK SC8 SLP124=
CYYG;2005-07-19 14:00;METAR CYYG 191400Z 22011KT 15SM OVC010 23/21 A2989 RMK SC8 SLP122=
CYYG;2005-07-19 15:00;METAR CYYG 191500Z 22011KT 15SM OVC010 25/22 A2989 RMK SC8 SLP121=
CYYG;2005-07-19 16:00;METAR CYYG 191600Z 22010G16KT 15SM OVC011 25/23 A2988 RMK SC8 SLP118=
CYYG;2005-07-19 17:00;METAR CYYG 191700Z 22012KT 15SM OVC015 25/23 A2986 RMK SC8 SLP111=
CYYG;2005-07-19 18:00;METAR CYYG 191800Z 22013KT 15SM OVC014 26/24 A2985 RMK SC8 SLP106=
CYYG;2005-07-19 19:00;METAR CYYG 191900Z 23015KT 15SM OVC015 26/24 A2983 RMK SC8 SLP100=
CYYG;2005-07-19 20:00;METAR CYYG 192000Z 22012G17KT 15SM BKN020 27/24 A2982 RMK SC5 SLP096=
CYYG;2005-07-19 21:00;METAR CYYG 192100Z 22010G18KT 10SM FEW020 BKN120 27/25 A2980 RMK SC2AC2 SLP091=
CYYG;2005-07-19 22:00;METAR CYYG 192200Z 22011KT 10SM SKC 27/22 A2979 RMK SLP089=
CYYG;2005-07-19 23:00;METAR CYYG 192300Z 23010G16KT 10SM SKC 26/22 A2979 RMK SLP086=
CYYG;2005-07-20 00:00;METAR CYYG 200000Z 25009KT 10SM FEW160 FEW300 24/20 A2979 RMK AC1CI1 SLP089=
CYYG;2005-07-20 01:00;METAR CYYG 200100Z 24007KT 10SM BKN160 BKN190 BKN300 23/20 A2980 RMK AC5AC1CI0 SLP091=
CYYG;2005-07-20 02:00;METAR CYYG 200200Z 25008KT 10SM FEW160 FEW190 SCT300 23/20 A2981 RMK AC1AC1CI1 SLP093=
CYYG;2005-07-20 02:27;SPECI CYYG 200227Z 25008KT 10SM BKN012 RMK SC6=
CYYG;2005-07-20 02:39;SPECI CYYG 200239Z 25011KT 10SM BKN007 BKN015 RMK SF5SC2=
CYYG;2005-07-20 03:00;METAR CYYG 200300Z 24011KT 10SM OVC008 23/20 A2981 RMK SF8 SLP094=
CYYG;2005-07-20 04:00;METAR CYYG 200400Z 25013KT 10SM OVC008 22/20 A2980 RMK SF8 SLP091=
CYYG;2005-07-20 05:00;METAR CYYG 200500Z 25011KT 10SM OVC005 22/20 A2979 RMK SF8 SLP087=
CYYG;2005-07-20 06:00;METAR CYYG 200600Z 23006KT 10SM BKN006 BKN025 21/20 A2977 RMK SF5SC2 SLP082=
CYYG;2005-07-20 07:00;METAR CYYG 200700Z 24011G16KT 10SM OVC004 21/20 A2977 RMK SF8 SLP080=
CYYG;2005-07-20 08:00;METAR CYYG 200800Z 24010KT 10SM OVC003 21/20 A2977 RMK SF8 SLP080=
CYYG;2005-07-20 09:00;METAR CYYG 200900Z 25010G15KT 3SM BR OVC002 21/20 A2977 RMK SF8 SLP082=
CYYG;2005-07-20 10:00;METAR CYYG 201000Z 25007KT 4SM BR OVC004 21/20 A2978 RMK SF8 SLP084=
CYYG;2005-07-20 11:00;METAR CYYG 201100Z 24009KT 4SM BR SCT004 OVC120 22/20 A2979 RMK SF3AC5 SLP087=
CYYG;2005-07-20 12:00;METAR CYYG 201200Z 27009KT 6SM HZ BKN120 22/21 A2980 RMK AC3 SLP091=
CYYG;2005-07-20 13:00;METAR CYYG 201300Z 27007KT 6SM HZ BKN120 23/21 A2979 RMK AC3 SLP088=
CYYG;2005-07-20 14:00;METAR CYYG 201400Z 28002KT 8SM FEW020 BKN120 25/23 A2979 RMK SC2AC3 HAZY SLP089=
CYYG;2005-07-20 15:00;METAR CYYG 201500Z 34002KT 8SM FEW018 BKN120 26/23 A2979 RMK SC2AC2 HAZY SLP087=
CYYG;2005-07-20 16:00;METAR CYYG 201600Z 01007KT 8SM OVC025 26/23 A2980 RMK SC6 HAZY SLP090=
CYYG;2005-07-20 17:00;METAR CYYG 201700Z 02011KT 10SM SCT022 BKN120 26/23 A2979 RMK SC3AC1=
CYYG;2005-07-20 18:00;METAR CYYG 201800Z 36007KT 10SM SCT018 BKN120 26/23 A2980 RMK SC3AC1=
CYYG;2005-07-20 19:00;METAR CYYG 201900Z 02008KT 10SM FEW025 BKN120 26/24 A2981 RMK SC2AC2=
CYYG;2005-07-20 20:00;METAR CYYG 202000Z 06008KT 12SM FEW025 FEW120 26/23 A2980 RMK SC1AC0 SLP092=
CYYG;2005-07-20 21:00;METAR CYYG 202100Z 08006KT 15SM FEW025 FEW120 25/23 A2980 RMK SC1AC0 SLP091=
CYYG;2005-07-20 22:00;METAR CYYG 202200Z 08004KT 12SM FEW120 25/23 A2981 RMK AC1 SLP095=
CYYG;2005-07-20 23:00;METAR CYYG 202300Z 07005KT 15SM SCT110 24/21 A2982 RMK AC4 SLP098=
CYYG;2005-07-21 00:00;METAR CYYG 210000Z 10005KT 15SM BKN110 23/20 A2982 RMK AC6 SLP099=
CYYG;2005-07-21 01:00;METAR CYYG 210100Z 12003KT 15SM SCT100 21/19 A2984 RMK AC4 SLP105=
CYYG;2005-07-21 02:00;METAR CYYG 210200Z 13005KT 15SM FEW100 20/18 A2985 RMK AC2 SLP107=
CYYG;2005-07-21 03:00;METAR CYYG 210300Z 15003KT 15SM FEW079 19/18 A2986 RMK AC1 SLP112=
CYYG;2005-07-21 04:00;METAR CYYG 210400Z 00000KT 15SM FEW070 19/17 A2987 RMK AC1 SLP113=
CYYG;2005-07-21 05:00;METAR CYYG 210500Z 15002KT 15SM FEW070 19/17 A2986 RMK AC1 SLP111=
CYYG;2005-07-21 06:00;METAR CYYG 210600Z 00000KT 15SM FEW070 19/17 A2985 RMK AC1 SLP106=
CYYG;2005-07-21 07:00;METAR CYYG 210700Z 10002KT 15SM MIFG SKC 17/16 A2985 RMK SLP108=
CYYG;2005-07-21 07:17;SPECI CYYG 210717Z 14003KT 1/4SM FG SKC RMK FG2 VIS SW-W 3=
CYYG;2005-07-21 07:28;SPECI CYYG 210728Z 11002KT 1/8SM FG VV001 RMK FG8 RVR RWY03 1400 FT=
CYYG;2005-07-21 08:00;METAR CYYG 210800Z 09002KT 1/8SM FG SKC 17/17 A2985 RMK FG6 RVR RWY03 1600 FT SLP106=
CYYG;2005-07-21 09:00;METAR CYYG 210900Z 00000KT 1/4SM FG BKN018 18/17 A2986 RMK FG3SC4 RVR RWY03 6000 FT SLP110=
CYYG;2005-07-21 09:40;SPECI CYYG 210940Z 00000KT 1/2SM FG FEW017 FEW055 RMK FG1SC1SC1=
CYYG;2005-07-21 10:22;SPECI CYYG 211022Z 22003KT 15SM MIFG FEW015 SCT050 RMK SC2SC2=
CYYG;2005-07-21 11:00;METAR CYYG 211100Z 16004KT 10SM MIFG FEW050 FEW240 20/17 A2987 RMK SC1CI0 SLP113=
CYYG;2005-07-21 12:00;METAR CYYG 211200Z 19002KT 12SM FEW050 FEW240 20/17 A2986 RMK SC1CI0 SLP112=
CYYG;2005-07-21 13:00;METAR CYYG 211300Z 23005KT 12SM FEW050 SCT240 20/16 A2985 RMK SC1CI1 SLP109=
CYYG;2005-07-21 14:00;METAR CYYG 211400Z 22007KT 12SM FEW050 SCT240 22/18 A2985 RMK SC1CI1 BARO READ AT 1424 DUE A/C TFC SLP109=
CYYG;2005-07-21 15:00;METAR CYYG 211500Z 23004KT 15SM FEW040 BKN240 24/20 A2985 RMK SC2CI2 SLP109=
CYYG;2005-07-21 16:00;METAR CYYG 211600Z 24006KT 15SM FEW030 BKN240 23/19 A2985 RMK SC2CI2 SLP107=
CYYG;2005-07-21 17:00;METAR CYYG 211700Z 29004KT 15SM FEW030 BKN240 24/19 A2983 RMK SC2CI2 SLP101=
CYYG;2005-07-21 18:00;METAR CYYG 211800Z 00000KT 15SM FEW032 BKN240 26/20 A2983 RMK SC2CI2 SLP100=
CYYG;2005-07-21 19:00;METAR CYYG 211900Z 00000KT 15SM FEW030 SCT240 28/21 A2983 RMK SC1CI1 SLP100=
CYYG;2005-07-21 20:00;METAR CYYG 212000Z 03007KT 15SM FEW030 FEW240 28/21 A2982 RMK CF1CI0 SLP098=
CYYG;2005-07-21 22:00;METAR CYYG 212200Z 02003KT 15SM FEW030 BKN240 24/19 A2982 RMK SC1CI2 SLP097=
CYYG;2005-07-21 23:00;METAR CYYG 212300Z 00000KT 15SM FEW060 BKN200 24/17 A2982 RMK SC1CI4 CC ASOCTD SLP098=
CYYG;2005-07-22 00:00;METAR CYYG 220000Z 00000KT 15SM BKN220 22/17 A2983 RMK CI4 CC ASOCTD SLP101=
CYYG;2005-07-22 01:00;METAR CYYG 220100Z 14002KT 15SM BKN220 20/16 A2983 RMK CC5 SLP102=
CYYG;2005-07-22 02:00;METAR CYYG 220200Z 00000KT 15SM SCT240 20/17 A2983 RMK CC4 SLP102=
CYYG;2005-07-22 03:00;METAR CYYG 220300Z 18005KT 15SM SCT240 19/17 A2983 RMK CC3 SLP101=
CYYG;2005-07-22 04:00;METAR CYYG 220400Z 21006KT 15SM FEW230 19/17 A2982 RMK CC2 SLP097=
CYYG;2005-07-22 05:00;METAR CYYG 220500Z 19006KT 15SM FEW230 19/17 A2980 RMK CC1 SLP092=
CYYG;2005-07-22 06:00;METAR CYYG 220600Z 21005KT 15SM SKC 19/17 A2981 RMK SLP093=
CYYG;2005-07-22 07:00;METAR CYYG 220700Z 21006KT 15SM SKC 19/17 A2980 RMK SLP092=
CYYG;2005-07-22 08:00;METAR CYYG 220800Z 23007KT 15SM FEW150 19/15 A2979 RMK AC1 SLP088=
CYYG;2005-07-22 09:00;METAR CYYG 220900Z 22004KT 15SM FEW150 18/15 A2979 RMK AC1 SLP088=
CYYG;2005-07-22 10:00;METAR CYYG 221000Z 23005KT 15SM SKC 19/15 A2981 RMK SLP093=
CYYG;2005-07-22 11:00;METAR CYYG 221100Z 22004KT 15SM SKC 20/15 A2982 RMK OBS TAKEN +11 SLP096=
CYYG;2005-07-22 12:00;METAR CYYG 221200Z 20004KT 15SM FEW280 21/16 A2982 RMK CI1 SLP096=
CYYG;2005-07-22 13:00;METAR CYYG 221300Z 19005KT 15SM FEW280 24/16 A2982 RMK CI1 SLP096=
CYYG;2005-07-22 14:00;METAR CYYG 221400Z 22006KT 15SM FEW280 25/17 A2982 RMK CI1 SLP098=
CYYG;2005-07-22 15:00;METAR CYYG 221500Z 21007KT 15SM FEW280 27/17 A2982 RMK CI1 SLP096=
CYYG;2005-07-22 16:00;METAR CYYG 221600Z 21005KT 15SM FEW280 28/18 A2980 RMK CI1 SLP092=
CYYG;2005-07-22 17:00;METAR CYYG 221700Z 18008KT 15SM FEW030 FEW280 28/17 A2979 RMK CU1CI1 SLP089=
CYYG;2005-07-22 18:00;METAR CYYG 221800Z 23006KT 15SM FEW030 FEW280 29/17 A2980 RMK CU2CI1 SLP090=
CYYG;2005-07-22 19:00;METAR CYYG 221900Z 36008KT 15SM FEW053 BKN280 29/17 A2979 RMK CU2CI1 SLP089=
CYYG;2005-07-22 20:00;METAR CYYG 222000Z 01007KT 15SM FEW053 BKN280 27/17 A2980 RMK CU2CI1 SLP091=
CYYG;2005-07-22 21:00;METAR CYYG 222100Z 36007KT 15SM FEW050 BKN280 24/17 A2981 RMK SC2CI3 SLP093=
CYYG;2005-07-22 22:00;METAR CYYG 222200Z 02005KT 15SM FEW050TCU FEW100 BKN250 25/18 A2981 RMK TCU1AC2CI5 SLP095=
CYYG;2005-07-22 23:00;METAR CYYG 222300Z 03005KT 15SM FEW050TCU BKN120 BKN250 22/18 A2981 RMK TCU1AC5CI2 SLP095=
CYYG;2005-07-23 00:00;METAR CYYG 230000Z 00000KT 15SM SCT120 BKN250 21/18 A2982 RMK AC4CI1 SLP098=
CYYG;2005-07-23 01:00;METAR CYYG 230100Z 00000KT 15SM BKN130 22/17 A2982 RMK AC6 SLP097=
CYYG;2005-07-23 02:00;METAR CYYG 230200Z 00000KT 15SM FEW130 22/17 A2982 RMK AC2 SLP098=
CYYG;2005-07-23 02:08;SPECI CYYG 230208Z 00000KT 15SM FEW005 SCT130 RMK SF2AC2=
CYYG;2005-07-23 02:14;SPECI CYYG 230214Z 36003KT 10SM OVC003 RMK SF8 MOON VISBL=
CYYG;2005-07-23 02:20;SPECI CYYG 230220Z 36005KT 10SM BKN002 OVC085 RMK SF7AC1=
CYYG;2005-07-23 02:49;SPECI CYYG 230249Z 01004KT 10SM FEW002 SCT085 RMK SF2AC2=
CYYG;2005-07-23 03:00;METAR CYYG 230300Z 02005KT 10SM FEW002 SCT085 19/19 A2982 RMK SF2AC2 SLP099=
CYYG;2005-07-23 04:00;METAR CYYG 230400Z 02005KT 8SM FEW003 SCT085 19/18 A2982 RMK SF2AC2 SLP096=
CYYG;2005-07-23 05:00;METAR CYYG 230500Z 02004KT 8SM SCT003 BKN089 19/18 A2981 RMK SF3AC3 SLP094=
CYYG;2005-07-23 06:00;METAR CYYG 230600Z 04003KT 8SM FEW003 BKN140 18/17 A2979 RMK SF2AC5 SLP087=
CYYG;2005-07-23 07:00;METAR CYYG 230700Z 07003KT 8SM FEW003 BKN050 OVC110 19/17 A2979 RMK SF1SC6AC2 SLP086=
CYYG;2005-07-23 08:00;METAR CYYG 230800Z 07002KT 5SM BR FEW003 SCT050 OVC110 18/17 A2978 RMK SF1SC2AC5 TCU ASOCTD SLP084=
CYYG;2005-07-23 08:46;SPECI CYYG 230846Z 09002KT 5SM TS BR FEW002 BKN050CB BKN110 RMK SF2CB3AC2 CB NW MOVG E OCNL LTGICCG=
CYYG;2005-07-23 09:00;METAR CYYG 230900Z 00000KT 5SM TS BR FEW002 BKN043CB BKN110 18/18 A2977 RMK SF1CB4AC2 CB W-N MOVG E OCNL LTGICCG SLP080=
CYYG;2005-07-23 10:00;METAR CYYG 231000Z 02009KT 15SM TS FEW002 BKN020CB OVC080 20/18 A2977 RMK SF1CB4AC3 CB W-NE MOVG E LTGCGCC SLP080=
CYYG;2005-07-23 10:12;SPECI CYYG 231012Z 06007KT 15SM -TSRA FEW002 BKN019CB OVC100 RMK SF2CB4AC2 LTGCCCG=
CYYG;2005-07-23 10:21;SPECI CYYG 231021Z 26010KT 5SM +TSRA SCT005 OVC015CB RMK SF4CB4 LTGCCCG=
CYYG;2005-07-23 10:44;SPECI CYYG 231044Z 30002KT 6SM -TSRA BR SCT005 OVC028CB RMK SF3CB5 LTGCCCG E RETS=
CYYG;2005-07-23 11:00;METAR CYYG 231100Z 34004KT 6SM -SHRA BR FEW005 BKN036 OVC055 20/19 A2980 RETS RMK SF2SC3SC2 SLP091=
CYYG;2005-07-23 11:49;SPECI CYYG 231149Z 02016KT 15SM -SHRA BKN006 OVC036 RMK SF5SC3=
CYYG;2005-07-23 12:00;METAR CYYG 231200Z 02014G19KT 15SM -SHRA BKN007 OVC036 19/19 A2979 RMK SF6SC2 SLP086=
CYYG;2005-07-23 12:29;SPECI CYYG 231229Z 03014G20KT 15SM BKN009 OVC036 RMK SF6SC2=
CYYG;2005-07-23 13:00;METAR CYYG 231300Z 03012G18KT 15SM OVC010 20/19 A2978 RMK SC8 SLP085=
CYYG;2005-07-23 14:00;METAR CYYG 231400Z 04010G15KT 15SM OVC011 20/19 A2979 RMK SC8 SLP087=
CYYG;2005-07-23 15:00;METAR CYYG 231500Z 03009KT 15SM OVC013 19/18 A2979 RMK SC8 SLP089=
CYYG;2005-07-23 16:00;METAR CYYG 231600Z 01008KT 15SM OVC016 18/16 A2979 RMK SC8 SLP087=
CYYG;2005-07-23 16:26;SPECI CYYG 231626Z 36007KT 6SM -SHRA BR OVC018 RMK SC8=
CYYG;2005-07-23 17:00;METAR CYYG 231700Z 35008KT 6SM -SHRA BR OVC017 17/16 A2979 RMK SC8 SLP087=
CYYG;2005-07-23 17:33;SPECI CYYG 231733Z 34009KT 10SM -SHRA OVC009 RMK SC8=
CYYG;2005-07-23 17:44;SPECI CYYG 231744Z 35010KT 12SM -SHRA SCT009 OVC020 RMK SF3SC5=
CYYG;2005-07-23 18:00;METAR CYYG 231800Z 35012KT 12SM -SHRA FEW009 OVC021 17/16 A2979 RMK SF2SC6 SLP088=
CYYG;2005-07-23 18:21;SPECI CYYG 231821Z 36009G17KT 15SM FEW009 BKN028 RMK SF2SC5=
CYYG;2005-07-23 19:00;METAR CYYG 231900Z 36011KT 15SM FEW010 BKN036 17/16 A2979 RMK SF2SC6 SLP088=
CYYG;2005-07-23 20:00;METAR CYYG 232000Z 35008KT 15SM FEW010 BKN028 17/15 A2980 RMK SF1SC6 SLP091=
CYYG;2005-07-23 21:00;METAR CYYG 232100Z 35008KT 15SM FEW011 BKN035 17/15 A2980 RMK SF1SC6 SLP091=
CYYG;2005-07-23 22:00;METAR CYYG 232200Z 36005KT 15SM FEW012 BKN049 18/15 A2979 RMK SF2SC5 SLP090=
CYYG;2005-07-23 23:00;METAR CYYG 232300Z 34003KT 15SM FEW012 FEW045 BKN120 18/15 A2979 RMK SC1SC2AC3 SLP090=
CYYG;2005-07-24 00:00;METAR CYYG 240000Z 30004KT 15SM FEW055 SCT110 16/14 A2980 RMK SC2AC2 SLP092=
CYYG;2005-07-24 01:00;METAR CYYG 240100Z 00000KT 15SM FEW055 SCT110 16/14 A2980 RMK SC2AC2 SLP091=
CYYG;2005-07-24 02:00;METAR CYYG 240200Z 00000KT 15SM FEW055 FEW110 15/14 A2980 RMK SC1AC2 SLP092=
CYYG;2005-07-24 03:00;METAR CYYG 240300Z 30006KT 15SM FEW055 FEW110 16/14 A2980 RMK SC1AC2 SLP091=
CYYG;2005-07-24 04:00;METAR CYYG 240400Z 31005KT 15SM FEW020 SCT110 15/14 A2978 RMK SC2AC2 SLP086=
CYYG;2005-07-24 05:00;METAR CYYG 240500Z 29006KT 15SM FEW025 SCT110 15/13 A2979 RMK SC2AC2 SLP087=
CYYG;2005-07-24 06:00;METAR CYYG 240600Z 29005KT 15SM SCT031 SCT110 15/14 A2978 RMK SC3AC1 SLP085=
CYYG;2005-07-24 07:00;METAR CYYG 240700Z 29005KT 15SM SCT030 SCT110 16/14 A2977 RMK SC3AC1 SLP081=
CYYG;2005-07-24 08:00;METAR CYYG 240800Z 30005KT 15SM FEW030 FEW110 15/14 A2977 RMK SC2AC1 SLP081=
CYYG;2005-07-24 09:00;METAR CYYG 240900Z 28003KT 12SM BCFG FEW030 FEW110 15/15 A2977 RMK SC1AC1 SLP083=
CYYG;2005-07-24 10:00;METAR CYYG 241000Z 27005KT 12SM BCFG FEW025 FEW100 15/15 A2978 RMK SC1AC1 SLP084=
CYYG;2005-07-24 11:00;METAR CYYG 241100Z 29008KT 15SM FEW010 FEW025 FEW100 16/15 A2978 RMK SF1SC1AC1 SLP086=
CYYG;2005-07-24 12:00;METAR CYYG 241200Z 31007KT 15SM FEW012 SCT070 18/16 A2978 RMK CF2AC1 SLP086=
CYYG;2005-07-24 13:00;METAR CYYG 241300Z 33013G18KT 15SM BKN028 19/14 A2978 RMK SC5 SLP084=
CYYG;2005-07-24 14:00;METAR CYYG 241400Z 36009KT 15SM BKN030 19/14 A2978 RMK SC5 SLP085=
CYYG;2005-07-24 15:00;METAR CYYG 241500Z 33011G16KT 15SM BKN026 19/14 A2978 RMK SC6 SLP086=
CYYG;2005-07-24 16:00;METAR CYYG 241600Z 33014G19KT 15SM VCSH BKN029 19/14 A2979 RMK SC6 CU EMBD SLP090=
CYYG;2005-07-24 17:00;METAR CYYG 241700Z 34014KT 15SM BKN030 19/13 A2980 RMK SC6 CU EMBD SLP093=
CYYG;2005-07-24 17:55;SPECI CYYG 241755Z 33015KT 15SM -SHRA BKN028 RMK SC6 TCU EMBD=
CYYG;2005-07-24 18:00;METAR CYYG 241800Z 34010G19KT 15SM -SHRA BKN028 18/15 A2981 RMK SC6 TCU EMBD SLP095=
CYYG;2005-07-24 18:33;SPECI CYYG 241833Z 33012G17KT 15SM SCT030TCU SCT054 RMK TCU3SC1=
CYYG;2005-07-24 19:00;METAR CYYG 241900Z 32011G17KT 15SM FEW030TCU SCT050 20/13 A2981 RMK TCU2SC2 SLP094=
CYYG;2005-07-24 22:00;METAR CYYG 242200Z 33005KT 15SM FEW036 FEW055 19/12 A2980 RMK CU1SC1 TCU ASOCTD SE SLP093=
CYYG;2005-07-24 23:00;METAR CYYG 242300Z 00000KT 15SM FEW036 FEW055 20/12 A2981 RMK CU1SC1 SLP094=
CYYG;2005-07-25 00:00;METAR CYYG 250000Z 00000KT 15SM FEW035 19/11 A2981 RMK SC1 SLP094=
CYYG;2005-07-25 01:00;METAR CYYG 250100Z 25006KT 15SM FEW035 18/10 A2981 RMK SC1 SLP096=
CYYG;2005-07-25 02:00;METAR CYYG 250200Z 27005KT 15SM FEW035 17/10 A2981 RMK SC1 SLP094=
CYYG;2005-07-25 03:00;METAR CYYG 250300Z 27006KT 15SM SKC 17/10 A2981 RMK SLP094=
CYYG;2005-07-25 04:00;METAR CYYG 250400Z 27007KT 15SM SKC 16/10 A2981 RMK SLP095=
CYYG;2005-07-25 05:00;METAR CYYG 250500Z 27006KT 15SM SKC 16/10 A2980 RMK SLP092=
CYYG;2005-07-25 06:00;METAR CYYG 250600Z 26007KT 15SM SKC 14/09 A2980 RMK SLP091=
CYYG;2005-07-25 07:00;METAR CYYG 250700Z 27008KT 15SM SKC 13/10 A2979 RMK SLP090=
CYYG;2005-07-25 08:00;METAR CYYG 250800Z 27007KT 15SM SKC 14/10 A2981 RMK SLP094=
CYYG;2005-07-25 09:00;METAR CYYG 250900Z 27005KT 15SM FEW300 15/11 A2981 RMK CI1 SLP095=
CYYG;2005-07-25 10:00;METAR CYYG 251000Z 25006KT 15SM FEW300 14/10 A2982 RMK CI2 SLP097=
CYYG;2005-07-25 11:00;METAR CYYG 251100Z 27006KT 15SM SCT300 16/11 A2982 RMK CI2 SLP099=
CYYG;2005-07-25 12:00;METAR CYYG 251200Z 27006KT 15SM FEW160 BKN300 17/12 A2982 RMK AC2CI3 SLP098=
CYYG;2005-07-25 13:00;METAR CYYG 251300Z 24009KT 15SM BKN160 BKN300 17/12 A2982 RMK AC5CI2 SLP099=
CYYG;2005-07-25 14:00;METAR CYYG 251400Z 25008KT 15SM BKN140 BKN300 16/11 A2982 RMK AC5CI2 SLP098=
CYYG;2005-07-25 15:00;METAR CYYG 251500Z 25006KT 15SM BKN160 BKN300 17/11 A2982 RMK AC5CI2 SLP098=
CYYG;2005-07-25 16:00;METAR CYYG 251600Z 23006KT 15SM SCT160 BKN300 18/12 A2982 RMK AC4CI2 SLP099=
CYYG;2005-07-25 17:00;METAR CYYG 251700Z 20007KT 15SM FEW090 SCT160 BKN300 19/13 A2980 RMK AC2AC2CI3 SLP093=
CYYG;2005-07-25 18:00;METAR CYYG 251800Z 20007KT 15SM FEW087 SCT160 BKN300 20/13 A2979 RMK AC2AC2CI3 SLP090=
CYYG;2005-07-25 19:00;METAR CYYG 251900Z 20007KT 15SM BKN073 OVC160 19/12 A2977 RMK AC6AC2 SLP082=
CYYG;2005-07-25 20:00;METAR CYYG 252000Z 20005KT 15SM OVC052 19/12 A2976 RMK SC8 SLP078=
CYYG;2005-07-25 20:37;SPECI CYYG 252037Z 18010G16KT 10SM -SHRA BKN052 OVC160 RMK SC6AC2=
CYYG;2005-07-25 21:00;METAR CYYG 252100Z 18008KT 10SM -SHRA BKN044 OVC160 17/13 A2974 RMK SC6AC2 SLP070=
CYYG;2005-07-25 21:48;SPECI CYYG 252148Z 16010G15KT 15SM OVC027 RMK SC8=
CYYG;2005-07-25 22:00;METAR CYYG 252200Z 16009G15KT 15SM OVC024 17/14 A2972 RMK SC8 SLP064=
CYYG;2005-07-25 22:34;SPECI CYYG 252234Z 17013KT 15SM -SHRA BKN020 OVC064 RMK SC6SC2=
CYYG;2005-07-25 23:00;METAR CYYG 252300Z 16009KT 10SM -SHRA BKN009 OVC020 16/15 A2968 RMK SF6SC2 SLP050=
CYYG;2005-07-25 23:52;SPECI CYYG 252352Z 17010G15KT 6SM -SHRA BKN004 OVC025 RMK SF6SC2=
CYYG;2005-07-26 00:00;METAR CYYG 260000Z 17010KT 4SM -SHRA BR BKN003 OVC018 16/15 A2967 RMK SF6SC2 SLP046=
CYYG;2005-07-26 01:00;METAR CYYG 260100Z 16007KT 10SM BKN006 OVC018 16/14 A2967 RMK SF6SC2 SLP046=
CYYG;2005-07-26 01:28;SPECI CYYG 260128Z 15006KT 10SM -SHRA BKN004 OVC011 RMK SF6SC2=
CYYG;2005-07-26 02:00;METAR CYYG 260200Z 19005KT 12SM -SHRA OVC007 16/15 A2966 RMK SF8 SLP044=
CYYG;2005-07-26 03:00;METAR CYYG 260300Z 25007KT 12SM -SHRA SCT002 OVC013 16/15 A2967 RMK SF4SC3 SLP047=
CYYG;2005-07-26 04:00;METAR CYYG 260400Z 27005KT 15SM -SHRA BKN009 OVC017 16/15 A2968 RMK SF5SC3 SLP051=
CYYG;2005-07-26 04:48;SPECI CYYG 260448Z 27006KT 15SM OVC014 RMK SC8=
CYYG;2005-07-26 05:00;METAR CYYG 260500Z 28005KT 15SM OVC010 16/15 A2969 RMK SC8 SLP052=
CYYG;2005-07-26 06:00;METAR CYYG 260600Z 27006KT 15SM BKN010 OVC017 16/14 A2969 RMK SC6SC2 SLP054=
CYYG;2005-07-26 07:00;METAR CYYG 260700Z 28007KT 15SM BKN006 OVC010 16/14 A2970 RMK SF5SC3 SLP056=
CYYG;2005-07-26 08:00;METAR CYYG 260800Z 27008KT 15SM OVC009 16/14 A2971 RMK SC8 SLP061=
CYYG;2005-07-26 09:00;METAR CYYG 260900Z 29005KT 15SM SCT009 SCT120 16/14 A2972 RMK SF3AC1 SLP066=
CYYG;2005-07-26 10:00;METAR CYYG 261000Z 26005KT 15SM FEW010 BKN050 16/14 A2974 RMK SC2SC6 SLP071=
CYYG;2005-07-26 11:00;METAR CYYG 261100Z 25007KT 15SM FEW012 BKN026 BKN055 16/16 A2976 RMK SC2SC3SC2 SLP077=
CYYG;2005-07-26 12:00;METAR CYYG 261200Z 25009KT 15SM FEW012 BKN028 BKN050 18/15 A2976 RMK SC1SC4SC2 SLP079=
CYYG;2005-07-26 13:00;METAR CYYG 261300Z 23007KT 15SM FEW013 BKN027 18/16 A2976 RMK CF2SC5 SLP079=
CYYG;2005-07-26 14:00;METAR CYYG 261400Z 22009KT 15SM BKN015 BKN032 20/17 A2977 RMK CF5SC2 SLP080=
CYYG;2005-07-26 15:00;METAR CYYG 261500Z 27009KT 15SM FEW018 BKN260 20/17 A2977 RMK SC2CI3 SLP083=
CYYG;2005-07-26 16:00;METAR CYYG 261600Z 24010G15KT 15SM FEW020 SCT140 BKN260 22/17 A2977 RMK SC2AC2CI2 SLP083=
CYYG;2005-07-26 18:00;METAR CYYG 261800Z 23010KT 15SM FEW024 SCT140 BKN260 24/17 A2978 RMK SC1AC2CI2 SLP083=
CYYG;2005-07-26 19:00;METAR CYYG 261900Z 25007KT 15SM FEW026 FEW140 BKN260 26/17 A2977 RMK CU1AC1CI2 SLP081=
CYYG;2005-07-26 20:00;METAR CYYG 262000Z 22006KT 15SM FEW028 FEW140 BKN260 26/17 A2977 RMK CU1AC1CI1 OBS TAKEN + 11 SLP079=
CYYG;2005-07-26 21:00;METAR CYYG 262100Z 17005KT 15SM FEW030 FEW140 BKN260 26/17 A2976 RMK CU2AC1CI2 SLP077=
CYYG;2005-07-26 22:00;METAR CYYG 262200Z 20007KT 15SM FEW030 FEW060 SCT140 BKN260 25/18 A2977 RMK CU2SC1AC1CI1 SLP082=
CYYG;2005-07-26 23:00;METAR CYYG 262300Z 00000KT 15SM FEW032TCU FEW070 BKN260 23/18 A2979 RMK TCU1AC1CI2 SLP086=
CYYG;2005-07-27 00:00;METAR CYYG 270000Z 23002KT 15SM FEW030 SCT070 OVC240 21/18 A2979 RMK SC1AC2CI2 SLP086=
CYYG;2005-07-27 01:00;METAR CYYG 270100Z 23006KT 15SM SCT070 OVC240 21/17 A2979 RMK AC3CI2 SLP086=
CYYG;2005-07-27 02:00;METAR CYYG 270200Z 00000KT 15SM BKN210 18/17 A2979 RMK CI5 SLP086=
CYYG;2005-07-27 03:00;METAR CYYG 270300Z 21006KT 15SM SCT160 OVC210 18/16 A2979 RMK AC3CI2 SLP086=
CYYG;2005-07-27 04:00;METAR CYYG 270400Z 22007KT 15SM BKN150 OVC210 18/16 A2978 RMK AC6CI1 SLP085=
CYYG;2005-07-27 05:00;METAR CYYG 270500Z 21006KT 15SM OVC140 18/16 A2977 RMK AC8 SLP080=
CYYG;2005-07-27 06:00;METAR CYYG 270600Z 17005KT 15SM OVC140 18/16 A2975 RMK AC8 SLP075=
CYYG;2005-07-27 07:00;METAR CYYG 270700Z 18007KT 15SM OVC130 18/16 A2974 RMK AC8 SLP071=
CYYG;2005-07-27 08:00;METAR CYYG 270800Z 17008KT 15SM OVC100 19/16 A2973 RMK AC8 SLP066=
CYYG;2005-07-27 09:00;METAR CYYG 270900Z 18010KT 10SM OVC130 19/18 A2972 RMK AC7 HAZY SLP065=
CYYG;2005-07-27 10:00;METAR CYYG 271000Z 18011KT 10SM BKN110 OVC150 20/19 A2971 RMK AC5AC3 SLP060=
CYYG;2005-07-27 11:00;METAR CYYG 271100Z 18007KT 10SM FEW100 OVC120 20/17 A2970 RMK AC2AC6 SLP058=
CYYG;2005-07-27 12:00;METAR CYYG 271200Z 19012KT 12SM FEW082 OVC120 21/16 A2969 RMK AC2AC6 SLP054=
CYYG;2005-07-27 13:00;METAR CYYG 271300Z 20012KT 10SM SCT011 OVC110 21/18 A2969 RMK SC3AC5 SLP054=
CYYG;2005-07-27 13:41;SPECI CYYG 271341Z 19013G19KT 8SM -SHRA OVC014 RMK SC8 HAZY=
CYYG;2005-07-27 14:00;METAR CYYG 271400Z 20011G18KT 5SM -SHRA HZ OVC015 22/19 A2968 RMK SC8 SLP049=
CYYG;2005-07-27 15:00;METAR CYYG 271500Z 19007KT 3SM -SHRA HZ OVC017 22/20 A2968 RMK SC8 SLP050=
CYYG;2005-07-27 16:00;METAR CYYG 271600Z 24010G18KT 2SM TSRA BR FEW010 OVC019 20/19 A2969 RMK SF1SC7 CB EMBD SLP055=
CYYG;2005-07-27 16:47;SPECI CYYG 271647Z 22010KT 5SM BR OVC025 RERATS RMK SC8=
CYYG;2005-07-27 17:00;METAR CYYG 271700Z 22012KT 3SM BR FEW005 OVC024 20/19 A2967 RERATS RMK SF1SC7 SLP048=
CYYG;2005-07-27 18:00;METAR CYYG 271800Z 23010KT 2 1/2SM BR SCT006 OVC025 21/20 A2966 RMK SF3SC5 SLP045=
CYYG;2005-07-27 19:00;METAR CYYG 271900Z 25015KT 3SM HZ FEW013 BKN032 BKN120 23/21 A2966 RMK SC2SC4AC1 SLP045=
CYYG;2005-07-27 20:00;METAR CYYG 272000Z 24016G21KT 6SM HZ FEW013 BKN052 BKN120 23/20 A2967 RMK SC2SC3AC2 SLP048=
CYYG;2005-07-27 21:00;METAR CYYG 272100Z 24013KT 8SM FEW012 SCT060 BKN080 24/20 A2968 RMK SC2SC2AC1 HAZY SLP049=
CYYG;2005-07-27 22:00;METAR CYYG 272200Z 25011KT 8SM FEW012 BKN063 23/20 A2969 RMK SC2SC6 HAZY SLP055=
CYYG;2005-07-27 23:00;METAR CYYG 272300Z 24007KT 8SM FEW015 BKN059 23/20 A2969 RMK SC1SC6 HAZY SLP055=
CYYG;2005-07-28 00:00;METAR CYYG 280000Z 25006KT 10SM BKN043 22/20 A2971 RMK SC7 HAZY SLP061=
CYYG;2005-07-28 00:29;SPECI CYYG 280029Z 25006KT 8SM -SHRA OVC044 RMK SC8 HAZY=
CYYG;2005-07-28 01:00;METAR CYYG 280100Z 25005KT 10SM OVC039 20/19 A2973 RMK SC8 HAZY SLP066=
CYYG;2005-07-28 01:33;SPECI CYYG 280133Z 25007KT 8SM SCT005 OVC030 RMK SF4SC4 HAZY=
CYYG;2005-07-28 01:50;SPECI CYYG 280150Z 26007KT 8SM BKN004 OVC014 RMK SF6SC2=
CYYG;2005-07-28 02:00;METAR CYYG 280200Z 26005KT 6SM BR OVC005 19/18 A2974 RMK SF8 SLP071=
CYYG;2005-07-28 03:00;METAR CYYG 280300Z 25004KT 6SM BR BKN005 OVC015 19/19 A2972 RMK SF6SC2 SLP065=
CYYG;2005-07-28 03:36;SPECI CYYG 280336Z 27008KT 4SM +TSRA SCT003 OVC012CB RMK SF3CB5=
CYYG;2005-07-28 03:51;SPECI CYYG 280351Z 25010G15KT 4SM -TSRA BKN003 OVC012CB RMK SF6CB2 CB E RERA=
CYYG;2005-07-28 04:00;METAR CYYG 280400Z 25006KT 8SM -SHRA BKN005 OVC023 20/19 A2974 RMK SF5SC3 RETS RERA SLP069=
CYYG;2005-07-28 05:00;METAR CYYG 280500Z 35008KT 6SM -SHRA BR OVC004 20/19 A2974 RMK SF8 SLP071=
CYYG;2005-07-28 06:08;SPECI CYYG 280608Z 36008KT 8SM -SHRA SCT006 OVC019 RMK SF3SC5=
CYYG;2005-07-28 07:00;METAR CYYG 280700Z 34010KT 6SM -SHRA BR BKN005 OVC019 19/18 A2980 RMK SF5SC3 SLP090=
CYYG;2005-07-28 08:00;METAR CYYG 280800Z 33006KT 8SM -SHRA SCT005 OVC022 18/17 A2983 RMK SF4SC4 SLP102=
CYYG;2005-07-28 08:10;SPECI CYYG 280810Z 32008KT 10SM FEW005 OVC030 RMK SF2SC6=
CYYG;2005-07-28 09:00;METAR CYYG 280900Z 32009KT 15SM FEW005 OVC040 17/17 A2987 RMK SF1SC7 SLP114=
CYYG;2005-07-28 10:00;METAR CYYG 281000Z 00000KT 15SM SCT050 BKN067 16/16 A2988 RMK SC4AC3 SLP118=
CYYG;2005-07-28 11:00;METAR CYYG 281100Z 25005KT 15SM SCT050 BKN120 16/14 A2991 RMK SC3AC3 SLP128=
CYYG;2005-07-28 12:00;METAR CYYG 281200Z 27007KT 15SM FEW055 BKN110 BKN250 18/15 A2993 RMK SC2AC3CI1 SLP136=
CYYG;2005-07-28 13:00;METAR CYYG 281300Z 34008KT 15SM FEW030 SCT060 BKN110 BKN250 19/15 A2996 RMK CU2SC2AC2CI1 SLP145=
CYYG;2005-07-28 14:00;METAR CYYG 281400Z 34008KT 15SM FEW025 SCT060 BKN110 BKN250 19/14 A2998 RMK CU2SC2AC2CI2 SLP152=
CYYG;2005-07-28 15:00;METAR CYYG 281500Z 34008KT 15SM FEW028 SCT110 BKN250 20/14 A3001 RMK CU2AC2CI2 SLP161=
CYYG;2005-07-28 16:00;METAR CYYG 281600Z 36005KT 15SM FEW030 FEW120 BKN250 20/14 A3002 RMK CU2AC1CI2 SLP166=
CYYG;2005-07-28 17:00;METAR CYYG 281700Z 32007KT 15SM FEW030 FEW120 BKN250 20/14 A3004 RMK CU1AC1CI3 SLP171=
CYYG;2005-07-28 18:00;METAR CYYG 281800Z 33005KT 15SM FEW030 BKN250 21/14 A3004 RMK CU1CI4 SLP173=
CYYG;2005-07-28 19:00;METAR CYYG 281900Z 02007KT 15SM FEW030 BKN250 21/14 A3005 RMK CU1CI5 SLP176=
CYYG;2005-07-28 20:00;METAR CYYG 282000Z 36006KT 15SM FEW030 BKN250 21/15 A3006 RMK CU1CI6 SLP178=
CYYG;2005-07-28 21:00;METAR CYYG 282100Z 02005KT 15SM FEW030 BKN250 20/14 A3006 RMK CU1CI6 SLP181=
CYYG;2005-07-28 22:00;METAR CYYG 282200Z 05004KT 15SM FEW030 BKN250 20/15 A3006 RMK CU1CI6 SLP181=
CYYG;2005-07-28 23:00;METAR CYYG 282300Z 00000KT 15SM FEW030 BKN280 19/14 A3008 RMK SC1CI6 SLP186=
CYYG;2005-07-29 00:00;METAR CYYG 290000Z 00000KT 15SM FEW030 BKN280 17/14 A3009 RMK SC1CI5 SLP188=
CYYG;2005-07-29 01:00;METAR CYYG 290100Z 00000KT 15SM FEW030 BKN280 17/14 A3009 RMK SC1CI5 SLP191=
CYYG;2005-07-29 02:00;METAR CYYG 290200Z 00000KT 15SM BKN280 16/13 A3010 RMK CI6 SLP192=
CYYG;2005-07-29 03:00;METAR CYYG 290300Z 12003KT 15SM SCT280 16/13 A3009 RMK CI4 SLP189=
CYYG;2005-07-29 04:00;METAR CYYG 290400Z 13004KT 15SM SCT280 16/13 A3009 RMK CI2 SLP188=
CYYG;2005-07-29 05:00;METAR CYYG 290500Z 00000KT 15SM SCT280 15/14 A3007 RMK CI2 SLP183=
CYYG;2005-07-29 06:00;METAR CYYG 290600Z 12004KT 15SM FEW043 BKN250 16/13 A3006 RMK SC2CI3 SLP181=
CYYG;2005-07-29 07:00;METAR CYYG 290700Z 14003KT 15SM FEW043 BKN240 16/13 A3006 RMK SC2CI3 SLP180=
CYYG;2005-07-29 08:00;METAR CYYG 290800Z 13004KT 15SM FEW045 BKN160 17/13 A3005 RMK SC2AC3 SLP175=
CYYG;2005-07-29 09:00;METAR CYYG 290900Z 14005KT 15SM FEW010 SCT045 BKN160 16/14 A3004 RMK SC2SC2AC2 LWR SC OVER STRAIT SLP173=
CYYG;2005-07-29 10:00;METAR CYYG 291000Z 17005KT 15SM SCT008 BKN045 BKN160 16/15 A3006 RMK SC4SC1AC2 SLP178=
CYYG;2005-07-29 11:00;METAR CYYG 291100Z 14003KT 15SM FEW007 BKN064 BKN160 18/16 A3005 RMK SF2SC3AC2 SLP175=
CYYG;2005-07-29 12:00;METAR CYYG 291200Z 14006KT 15SM SCT007 BKN068 18/16 A3004 RMK SF4AC3 SLP174=
CYYG;2005-07-29 12:23;SPECI CYYG 291223Z 13007KT 15SM BKN009 BKN068 RMK SF6AC2=
CYYG;2005-07-29 13:00;METAR CYYG 291300Z 13006KT 15SM BKN009 BKN062 19/17 A3004 RMK SF6SC2 SLP171=
CYYG;2005-07-29 13:39;SPECI CYYG 291339Z 13003KT 15SM BKN010 OVC062 RMK SF6SC2=
CYYG;2005-07-29 14:00;METAR CYYG 291400Z 00000KT 15SM BKN011 OVC055 21/16 A3003 RMK SC6SC2 SLP170=
CYYG;2005-07-29 15:00;METAR CYYG 291500Z 07002KT 15SM BKN020 BKN054 22/16 A3002 RMK SC5SC2 SLP166=
CYYG;2005-07-29 16:00;METAR CYYG 291600Z 08004KT 15SM BKN022 BKN054 22/15 A3000 RMK SC5SC2 SLP159=
CYYG;2005-07-29 17:00;METAR CYYG 291700Z 06003KT 15SM BKN020 BKN055 21/16 A3000 RMK SC6SC2 SLP158=
CYYG;2005-07-29 18:00;METAR CYYG 291800Z 05005KT 15SM BKN016 BKN055 22/16 A2999 RMK SC6SC2 SLP155=
CYYG;2005-07-29 19:00;METAR CYYG 291900Z 13003KT 15SM BKN016 BKN030 22/17 A2998 RMK SC5SC2 SLP152=
CYYG;2005-07-29 20:00;METAR CYYG 292000Z 23004KT 15SM BKN021 BKN250 21/17 A2998 RMK SC6CI1 SLP152=
CYYG;2005-07-29 21:00;METAR CYYG 292100Z 15004KT 15SM FEW016 BKN250 22/17 A2997 RMK CU2CI1 SLP148=
CYYG;2005-07-29 22:00;METAR CYYG 292200Z 17005KT 15SM FEW016 BKN250 20/17 A2997 RMK CU1CI2 OBS TAKEN +10 SLP149=
CYYG;2005-07-29 23:00;METAR CYYG 292300Z 19005KT 15SM FEW018 BKN250 19/17 A2998 RMK SC1CI2 SLP152=
CYYG;2005-07-30 00:00;METAR CYYG 300000Z 20006KT 15SM FEW020 BKN260 18/17 A2999 RMK SC1CI2 SLP156=
CYYG;2005-07-30 01:00;METAR CYYG 300100Z 19007KT 15SM FEW020 SCT260 18/16 A3000 RMK SC1CI1 SLP159=
CYYG;2005-07-30 02:00;METAR CYYG 300200Z 21005KT 15SM FEW020 FEW260 17/16 A3000 RMK SC1CI0 SLP160=
CYYG;2005-07-30 03:00;METAR CYYG 300300Z 22005KT 15SM FEW020 FEW260 17/17 A2999 RMK SC1CI0 SLP156=
CYYG;2005-07-30 04:00;METAR CYYG 300400Z 25007KT 15SM FEW020 FEW260 17/16 A3000 RMK SC1CI0 SLP159=
CYYG;2005-07-30 05:00;METAR CYYG 300500Z 30006KT 15SM FEW260 17/15 A3001 RMK CI0 SLP161=
CYYG;2005-07-30 06:00;METAR CYYG 300600Z 32005KT 15SM FEW260 17/13 A3001 RMK CI0 SLP163=
CYYG;2005-07-30 07:00;METAR CYYG 300700Z 31007KT 15SM FEW260 17/13 A3003 RMK CI0 SLP168=
CYYG;2005-07-30 08:00;METAR CYYG 300800Z 31005KT 15SM FEW260 16/12 A3005 RMK CI1 SLP177=
CYYG;2005-07-30 09:00;METAR CYYG 300900Z 31006KT 15SM FEW030 SCT260 15/12 A3006 RMK SC1CI1 SLP181=
CYYG;2005-07-30 10:00;METAR CYYG 301000Z 29005KT 15SM SCT260 15/12 A3009 RMK CI1 SLP188=
CYYG;2005-07-30 11:00;METAR CYYG 301100Z 30006KT 15SM SCT260 16/14 A3010 RMK CI2 SLP193=
CYYG;2005-07-30 12:00;METAR CYYG 301200Z 32012KT 15SM FEW030 SCT260 17/14 A3012 RMK SC1CI1 SLP198=
CYYG;2005-07-30 13:00;METAR CYYG 301300Z 30010KT 15SM FEW030 SCT260 18/14 A3013 RMK SC1CI1 SLP203=
CYYG;2005-07-30 14:00;METAR CYYG 301400Z 31009KT 15SM FEW030 SCT260 19/16 A3014 RMK SC1CI1 SLP207=
CYYG;2005-07-30 15:00;METAR CYYG 301500Z 34009KT 15SM FEW030 FEW260 20/16 A3014 RMK SC1CI1 SLP207=
CYYG;2005-07-30 16:00;METAR CYYG 301600Z 29007KT 15SM FEW030 FEW260 20/16 A3014 RMK SC1CI1 SLP206=
CYYG;2005-07-30 17:00;METAR CYYG 301700Z 30005KT 15SM FEW030 FEW260 21/18 A3014 RMK SC2CI0 SLP206=
CYYG;2005-07-30 18:00;METAR CYYG 301800Z 35005KT 15SM FEW050 FEW260 21/18 A3014 RMK SC2CI0 SLP206=
CYYG;2005-07-30 19:00;METAR CYYG 301900Z 35005KT 15SM FEW050 FEW260 21/18 A3014 RMK SC2CI0 SLP208=
CYYG;2005-07-30 20:00;METAR CYYG 302000Z 34004KT 15SM FEW050 FEW260 22/19 A3014 RMK SC1CI0 SLP206=
CYYG;2005-07-30 21:00;METAR CYYG 302100Z 28011KT 15SM FEW050 FEW260 23/19 A3013 RMK SC1CI0 SLP204=
CYYG;2005-07-30 22:00;METAR CYYG 302200Z 03006KT 15SM FEW050 FEW260 23/18 A3014 RMK SC1CI1 SLP207=
CYYG;2005-07-30 23:00;METAR CYYG 302300Z 01002KT 15SM FEW050 FEW260 21/17 A3016 RMK SC1CI1 SLP212=
CYYG;2005-07-31 00:00;METAR CYYG 310000Z 00000KT 15SM FEW050 FEW260 19/15 A3018 RMK SC1CI1 SLP219=
CYYG;2005-07-31 01:00;METAR CYYG 310100Z 00000KT 15SM FEW050 FEW260 16/14 A3019 RMK SC1CI1 SLP222=
CYYG;2005-07-31 02:00;METAR CYYG 310200Z 00000KT 15SM FEW050 FEW260 15/13 A3020 RMK SC1CI1 SLP225=
CYYG;2005-07-31 03:00;METAR CYYG 310300Z 00000KT 15SM SKC 16/12 A3020 RMK SLP227=
CYYG;2005-07-31 04:00;METAR CYYG 310400Z 00000KT 15SM SKC 16/12 A3021 RMK SLP230=
CYYG;2005-07-31 05:00;METAR CYYG 310500Z 30003KT 15SM FEW053 15/12 A3022 RMK SC2 SLP233=
CYYG;2005-07-31 06:00;METAR CYYG 310600Z 31003KT 15SM FEW050 16/12 A3023 RMK SC2 SLP236=
CYYG;2005-07-31 07:00;METAR CYYG 310700Z 29005KT 15SM FEW050 16/13 A3023 RMK SC1 SLP235=
CYYG;2005-07-31 08:00;METAR CYYG 310800Z 00000KT 15SM FEW160 16/13 A3023 RMK AC1 SLP237=
CYYG;2005-07-31 09:00;METAR CYYG 310900Z 27006KT 15SM FEW160 FEW260 15/11 A3025 RMK AC1CI0 SLP242=
CYYG;2005-07-31 10:00;METAR CYYG 311000Z 27005KT 15SM FEW260 15/12 A3027 RMK CI1 SLP251=
CYYG;2005-07-31 11:00;METAR CYYG 311100Z 28006KT 15SM FEW260 15/13 A3028 RMK CI1 SLP252=
CYYG;2005-07-31 12:00;METAR CYYG 311200Z 30006KT 15SM FEW260 17/13 A3028 RMK CI0 SLP256=
CYYG;2005-07-31 13:00;METAR CYYG 311300Z 27005KT 15SM FEW260 17/13 A3029 RMK CI0 SLP257=
CYYG;2005-07-31 14:00;METAR CYYG 311400Z 29005KT 15SM FEW050 FEW260 18/14 A3028 RMK CF1CI0 TR CF SLP255=
CYYG;2005-07-31 15:00;METAR CYYG 311500Z 32004KT 15SM FEW054 19/14 A3028 RMK CU1 SLP254=
CYYG;2005-07-31 16:00;METAR CYYG 311600Z 32007KT 15SM FEW054 19/13 A3027 RMK CU1 SLP251=
CYYG;2005-07-31 17:00;METAR CYYG 311700Z 30005KT 15SM FEW056 20/14 A3026 RMK CF1 SLP249=
CYYG;2005-07-31 18:00;METAR CYYG 311800Z 00000KT 15SM FEW056 20/14 A3026 RMK CF1 TR CF SLP246=
CYYG;2005-07-31 19:00;METAR CYYG 311900Z 31008KT 15SM FEW056 22/15 A3026 RMK CF1 SLP248=
CYYG;2005-07-31 20:00;METAR CYYG 312000Z 28007KT 15SM FEW056 FEW260 22/15 A3026 RMK CF1CI0 TR CF SLP246=
CYYG;2005-07-31 21:00;METAR CYYG 312100Z 29004KT 15SM FEW260 22/15 A3025 RMK CI1 SLP245=
CYYG;2005-07-31 22:00;METAR CYYG 312200Z 00000KT 15SM SCT250 25/10 A3025 RMK CI1 SLP245=
CYYG;2005-07-31 23:00;METAR CYYG 312300Z 00000KT 15SM BKN260 21/13 A3026 RMK CI2 SLP246=
CYYG;2005-08-01 00:00;METAR CYYG 010000Z 18005KT 15SM BKN260 20/08 A3025 RMK CI3 SLP245=
CYYG;2005-08-01 01:00;METAR CYYG 010100Z 00000KT 15SM BKN260 19/11 A3025 RMK CI4 SLP245=
CYYG;2005-08-01 02:00;METAR CYYG 010200Z 00000KT 15SM BKN260 18/11 A3026 RMK CI4 SLP246=
CYYG;2005-08-01 03:00;METAR CYYG 010300Z 18007KT 15SM BKN260 18/11 A3025 RMK CI4 SLP245=
CYYG;2005-08-01 04:00;METAR CYYG 010400Z 19007KT 15SM BKN250 17/10 A3025 RMK CI5 SLP244=
CYYG;2005-08-01 05:00;METAR CYYG 010500Z 20005KT 15SM BKN250 17/10 A3025 RMK CI5 SLP242=
CYYG;2005-08-01 06:00;METAR CYYG 010600Z 20004KT 15SM BKN250 16/09 A3024 RMK CI3 SLP240=
CYYG;2005-08-01 07:00;METAR CYYG 010700Z 18006KT 15SM SCT250 15/09 A3022 RMK CI2 SLP234=
CYYG;2005-08-01 08:00;METAR CYYG 010800Z 00000KT 15SM SCT250 15/08 A3022 RMK CI2 SLP233=
CYYG;2005-08-01 09:00;METAR CYYG 010900Z 00000KT 15SM FEW140 SCT250 16/11 A3021 RMK AC1CI1 SLP231=
CYYG;2005-08-01 10:00;METAR CYYG 011000Z 18006KT 15SM FEW061 SCT250 17/11 A3022 RMK SC2CI1 SLP232=
CYYG;2005-08-01 11:00;METAR CYYG 011100Z 16006KT 15SM FEW056 SCT250 19/11 A3022 RMK SC2CI1 SLP232=
CYYG;2005-08-01 12:00;METAR CYYG 011200Z 17009KT 15SM FEW055 BKN250 20/11 A3022 RMK SC2CI2 SLP232=
CYYG;2005-08-01 13:00;METAR CYYG 011300Z 18009KT 15SM FEW055 SCT093 BKN250 20/12 A3020 RMK SC2AC2CI2 SLP226=
CYYG;2005-08-01 14:00;METAR CYYG 011400Z 18014KT 15SM SCT084 BKN260 20/12 A3019 RMK AC3CI2 SLP222=
CYYG;2005-08-01 15:00;METAR CYYG 011500Z 19013G18KT 15SM SCT069 BKN260 20/12 A3018 RMK AC3CI2 SLP219=
CYYG;2005-08-01 16:00;METAR CYYG 011600Z 19010G16KT 15SM BKN085 BKN260 20/12 A3017 RMK AC5CI2 SLP216=
CYYG;2005-08-01 17:00;METAR CYYG 011700Z 21008KT 15SM BKN080 OVC260 21/12 A3016 RMK AC5CI3 SLP214=
CYYG;2005-08-01 18:00;METAR CYYG 011800Z 23011KT 15SM VCSH BKN035 OVC080 20/13 A3015 RMK SC6AC2 SLP211=
CYYG;2005-08-01 18:15;SPECI CYYG 011815Z 24012KT 15SM -SHRA BKN035 OVC080 RMK SC6AC2=
CYYG;2005-08-01 19:00;METAR CYYG 011900Z 27007KT 10SM -SHRA BKN035 OVC070 19/13 A3016 RMK SC6AC2 SLP213=
CYYG;2005-08-01 20:00;METAR CYYG 012000Z 00000KT 10SM -SHRA FEW006 BKN014 OVC035 18/13 A3013 RMK SF1SC4SC3 SLP203=
CYYG;2005-08-01 21:00;METAR CYYG 012100Z 20008KT 15SM -SHRA FEW009 BKN014 OVC056 16/12 A3011 RMK SF2SC4SC2 SLP195=
CYYG;2005-08-01 22:00;METAR CYYG 012200Z 18009KT 10SM -SHRA FEW009 BKN018 OVC054 15/13 A3009 RMK SF2SC3SC3 SLP188=
CYYG;2005-08-01 23:00;METAR CYYG 012300Z 17009KT 10SM -SHRA SCT006 BKN015 OVC054 16/15 A3006 RMK SF4SC3SC1 SLP181=
CYYG;2005-08-02 00:00;METAR CYYG 020000Z 16008KT 12SM -SHRA FEW006 SCT015 OVC055 17/15 A3005 RMK SF2SC2SC5 SLP176=
CYYG;2005-08-02 01:00;METAR CYYG 020100Z 17008KT 12SM FEW006 OVC058 17/15 A3005 RMK SF1SC7 SLP175=
CYYG;2005-08-02 03:00;METAR CYYG 020300Z 18011KT 15SM OVC049 17/15 A3002 RMK SC8 SLP166=
CYYG;2005-08-02 04:00;METAR CYYG 020400Z 18008KT 15SM OVC049 17/15 A3000 RMK SC8 SLP159=
CYYG;2005-08-02 05:00;METAR CYYG 020500Z 19007KT 15SM OVC048 17/15 A2998 RMK SC8 SLP152=
CYYG;2005-08-02 06:00;METAR CYYG 020600Z 20006KT 15SM OVC044 16/14 A2996 RMK SC8 SLP144=
CYYG;2005-08-02 07:00;METAR CYYG 020700Z 18006KT 12SM -SHRA FEW025 OVC044 16/14 A2994 RMK SC2SC6 SLP138=
CYYG;2005-08-02 08:00;METAR CYYG 020800Z 20009KT 12SM -SHRA FEW025 OVC044 17/14 A2992 RMK SC2SC6 SLP131=
CYYG;2005-08-02 09:00;METAR CYYG 020900Z 20008KT 15SM -SHRA FEW020 OVC043 16/15 A2991 RMK SC2SC6 SLP130=
CYYG;2005-08-02 10:00;METAR CYYG 021000Z 21007KT 15SM -SHRA BKN019 OVC040 17/15 A2992 RMK SC5SC3 SLP131=
CYYG;2005-08-02 10:24;SPECI CYYG 021024Z 22007KT 15SM OVC013 RMK SC8=
CYYG;2005-08-02 11:00;METAR CYYG 021100Z 22006KT 15SM SCT013 OVC032 18/15 A2991 RMK SC4SC4 SLP130=
CYYG;2005-08-02 12:00;METAR CYYG 021200Z 24008KT 15SM FEW013 OVC030 18/15 A2991 RMK SC2SC6 SLP129=
CYYG;2005-08-02 13:00;METAR CYYG 021300Z 23011KT 15SM FEW013 SCT030 BKN280 19/14 A2989 RMK SC2SC2CI2 SLP121=
CYYG;2005-08-02 14:00;METAR CYYG 021400Z 23011KT 15SM OVC024 19/14 A2987 RMK SC8 SLP117=
CYYG;2005-08-02 15:00;METAR CYYG 021500Z 23010KT 15SM BKN019 20/14 A2986 RMK SC7 SLP113=
CYYG;2005-08-02 16:00;METAR CYYG 021600Z 24010KT 15SM BKN019 21/15 A2984 RMK SC7 SLP106=
CYYG;2005-08-02 17:00;METAR CYYG 021700Z 23008KT 15SM OVC020 21/15 A2982 RMK SC8 SLP100=
CYYG;2005-08-02 18:00;METAR CYYG 021800Z 25008KT 15SM OVC024 20/15 A2980 RMK SC8 SLP092=
CYYG;2005-08-02 19:00;METAR CYYG 021900Z 25009KT 15SM SCT025 BKN280 22/15 A2978 RMK SC4CI3 SLP084=
CYYG;2005-08-02 20:00;METAR CYYG 022000Z 27006KT 15SM SCT025 OVC280 21/15 A2977 RMK SC4CI4 OBS TAKEN +10 SLP082=
CYYG;2005-08-02 21:00;METAR CYYG 022100Z 20006KT 15SM FEW025 BKN051 OVC280 21/14 A2977 RMK SC2SC2CI3 SLP081=
CYYG;2005-08-02 21:06;SPECI CYYG 022106Z 29004KT 12SM -TSRA SCT023 OVC036TCU RMK SC3TCU5 CB EMBDD=
CYYG;2005-08-02 21:35;SPECI CYYG 022135Z 18009KT 15SM SCT023 BKN040 RMK SC3SC4 CB SE RETS=
CYYG;2005-08-02 22:00;METAR CYYG 022200Z 23007KT 15SM SCT025 BKN040 19/17 A2973 RETS RMK SC4SC3 CB SE SLP066=
CYYG;2005-08-02 23:00;METAR CYYG 022300Z 26006KT 15SM SCT020 BKN040 BKN110 19/18 A2976 RMK SC3SC2AC2 CB EMBDD SLP078=
CYYG;2005-08-03 00:00;METAR CYYG 030000Z 30005KT 15SM FEW020 SCT040 BKN075 19/16 A2976 RMK SC2SC2AC4 CB NE SLP076=
CYYG;2005-08-03 01:00;METAR CYYG 030100Z 00000KT 15SM FEW015 SCT075 18/18 A2974 RMK SC2AC2 SLP071=
CYYG;2005-08-03 02:00;METAR CYYG 030200Z 00000KT 15SM FEW015 SCT100 17/16 A2974 RMK SC2AC2 SLP072=
CYYG;2005-08-03 03:00;METAR CYYG 030300Z 23005KT 15SM FEW015 SCT100 17/16 A2973 RMK SC2AC2 SLP067=
CYYG;2005-08-03 04:00;METAR CYYG 030400Z 26005KT 15SM FEW005 SCT015 16/16 A2973 RMK SF2SC2 SLP066=
CYYG;2005-08-03 06:00;METAR CYYG 030600Z 25005KT 12SM FEW005 BKN012 17/16 A2971 RMK SF2SC2 SLP062=
CYYG;2005-08-03 07:00;METAR CYYG 030700Z 27004KT 10SM FEW006 SCT012 BKN045 17/16 A2971 RMK SF2SC2SC2 SLP061=
CYYG;2005-08-03 08:00;METAR CYYG 030800Z 25004KT 12SM FEW006 SCT012 BKN045 16/15 A2970 RMK SF2SC2SC2 SLP058=
CYYG;2005-08-03 09:00;METAR CYYG 030900Z 24004KT 10SM FEW006 SCT012 16/16 A2971 RMK SC2SC2 SLP060=
CYYG;2005-08-03 09:47;SPECI CYYG 030947Z 25003KT 8SM BKN006 BKN030 RMK SF6SC2=
CYYG;2005-08-03 10:00;METAR CYYG 031000Z 23004KT 10SM BKN006 BKN030 17/16 A2971 RMK SF6SC2 SLP061=
CYYG;2005-08-03 10:47;SPECI CYYG 031047Z 25005KT 15SM SCT006 BKN030 RMK SF4SC2=
CYYG;2005-08-03 11:00;METAR CYYG 031100Z 26004KT 15SM SCT006 BKN030 19/16 A2972 RMK SF4SC2 SLP063=
CYYG;2005-08-03 11:35;SPECI CYYG 031135Z 28007KT 15SM BKN008 BKN030 RMK SC6SC2=
CYYG;2005-08-03 11:50;SPECI CYYG 031150Z 28005KT 15SM BKN010 BKN046 RMK SC5SC2=
CYYG;2005-08-03 12:00;METAR CYYG 031200Z 29005KT 15SM SCT010 BKN046 19/16 A2972 RMK SC4SC2 SLP065=
CYYG;2005-08-03 13:00;METAR CYYG 031300Z 28007KT 15SM SCT014 BKN046 19/16 A2973 RMK SC4SC2 SLP066=
CYYG;2005-08-03 14:00;METAR CYYG 031400Z 27010G16KT 15SM VCSH SCT014 BKN045 19/16 A2973 RMK SC3SC3 SLP067=
CYYG;2005-08-03 15:00;METAR CYYG 031500Z 31006KT 15SM FEW014 BKN060 19/16 A2973 RMK SC2SC4 SLP068=
CYYG;2005-08-03 16:00;METAR CYYG 031600Z 31011G18KT 15SM BKN050 19/16 A2973 RMK SC6 SLP066=
CYYG;2005-08-03 16:25;SPECI CYYG 031625Z 33009KT 15SM -SHRA BKN021 BKN050 RMK SC5SC2=
CYYG;2005-08-03 17:00;METAR CYYG 031700Z 32010KT 15SM -SHRA FEW012 BKN021 BKN050 20/15 A2974 RMK SC1SC5SC1 SLP070=
CYYG;2005-08-03 17:10;SPECI CYYG 031710Z 34011G16KT 15SM FEW015 BKN025 RMK SC2SC4=
CYYG;2005-08-03 18:00;METAR CYYG 031800Z 35012KT 15SM -SHRA BKN015 BKN030 20/15 A2976 RMK SC5SC2 SLP078=
CYYG;2005-08-03 18:45;SPECI CYYG 031845Z 36008KT 15SM SCT015 BKN037 RMK SC4SC2=
CYYG;2005-08-03 19:00;METAR CYYG 031900Z 36010KT 15SM SCT015 BKN040 19/15 A2977 RMK SC4SC2 SLP082=
CYYG;2005-08-03 20:00;METAR CYYG 032000Z 36012KT 15SM FEW015 BKN036 19/14 A2980 RMK SC2SC4 SLP090=
CYYG;2005-08-03 21:00;METAR CYYG 032100Z 35010KT 15SM FEW025 BKN160 BKN250 18/13 A2981 RMK SC2AC2CI2 SLP095=
CYYG;2005-08-03 22:00;METAR CYYG 032200Z 34008KT 15SM BKN019 BKN280 18/13 A2982 RMK SC5CI2 SLP099=
CYYG;2005-08-03 23:00;METAR CYYG 032300Z 34006KT 15SM SCT019 BKN078 BKN280 17/16 A2985 RMK SC3AC2CI0 SLP110=
CYYG;2005-08-04 00:00;METAR CYYG 040000Z 33003KT 15SM BKN020 BKN078 17/16 A2987 RMK SC5AC2 SLP114=
CYYG;2005-08-04 02:00;METAR CYYG 040200Z 31004KT 15SM FEW010 BKN027 16/15 A2989 RMK SC2SC5 SLP123=
CYYG;2005-08-04 03:00;METAR CYYG 040300Z 34006KT 15SM BKN019 16/15 A2989 RMK SC6 SLP123=
CYYG;2005-08-04 04:00;METAR CYYG 040400Z 33007KT 15SM BKN026 BKN094 16/15 A2990 RMK SC5AC2 SLP125=
CYYG;2005-08-04 05:00;METAR CYYG 040500Z 34007KT 15SM SCT048 BKN096 16/14 A2990 RMK SC3AC3 SLP125=
CYYG;2005-08-04 06:00;METAR CYYG 040600Z 32003KT 15SM -SHRA FEW042 BKN090 16/14 A2990 RMK SC2AC2 SLP127=
CYYG;2005-08-04 07:00;METAR CYYG 040700Z 01009KT 15SM FEW027 SCT042 16/14 A2993 RMK SC2SC2 SLP135=
CYYG;2005-08-04 08:00;METAR CYYG 040800Z 01006KT 15SM BKN041 15/14 A2995 RMK SC5 SLP141=
CYYG;2005-08-04 09:00;METAR CYYG 040900Z 01005KT 15SM OVC035 15/14 A2996 RMK SC8 SLP147=
CYYG;2005-08-04 10:00;METAR CYYG 041000Z 01008KT 15SM BKN029 15/14 A2998 RMK SC7 SLP153=
CYYG;2005-08-04 11:00;METAR CYYG 041100Z 36004KT 15SM VCSH BKN029 17/13 A3000 RMK SC7 TCU EMBD SLP158=
CYYG;2005-08-04 12:00;METAR CYYG 041200Z 36008KT 15SM VCSH BKN028 16/13 A3002 RMK SC7 TCU EMBD SLP166=
CYYG;2005-08-04 13:00;METAR CYYG 041300Z 35008KT 15SM VCSH BKN030 17/12 A3004 RMK SC7 TCU EMBD SLP172=
CYYG;2005-08-04 14:00;METAR CYYG 041400Z 01008KT 15SM VCSH BKN022 19/13 A3004 RMK SC7 TCU EMBD SLP171=
CYYG;2005-08-04 15:00;METAR CYYG 041500Z 34010G15KT 15SM BKN022 BKN041 19/13 A3004 RMK SC5SC2 TCU EMBD SLP173=
CYYG;2005-08-04 16:00;METAR CYYG 041600Z 36012KT 15SM SCT022 BKN040 19/12 A3005 RMK SC4SC2 TCU EMBD SLP176=
CYYG;2005-08-04 17:00;METAR CYYG 041700Z 35010G15KT 15SM SCT024 BKN040 18/12 A3005 RMK SC4SC2 SLP177=
CYYG;2005-08-04 18:00;METAR CYYG 041800Z 36012KT 15SM BKN025 20/13 A3005 RMK SC5 SLP175=
CYYG;2005-08-04 19:00;METAR CYYG 041900Z 02013KT 15SM BKN025 19/14 A3004 RMK SC5 SLP173=
CYYG;2005-08-04 20:00;METAR CYYG 042000Z 36005KT 15SM SCT025 19/14 A3005 RMK SC4 SLP176=
CYYG;2005-08-04 21:00;METAR CYYG 042100Z 36005KT 15SM FEW025 SCT250 21/12 A3006 RMK SC2CI1 SLP180=
CYYG;2005-08-04 22:00;METAR CYYG 042200Z 35004KT 15SM FEW028 SCT250 19/12 A3007 RMK SC1CI1 SLP183=
CYYG;2005-08-04 23:00;METAR CYYG 042300Z 00000KT 15SM FEW028 SCT250 19/13 A3008 RMK SC1CI1 SLP187=
CYYG;2005-08-05 00:00;METAR CYYG 050000Z 00000KT 15SM SCT250 17/12 A3007 RMK CI2 SLP184=
CYYG;2005-08-05 01:00;METAR CYYG 050100Z 00000KT 15SM SCT250 17/12 A3008 RMK CI2 SLP187=
CYYG;2005-08-05 02:00;METAR CYYG 050200Z 00000KT 15SM FEW250 16/12 A3008 RMK CI1 SLP185=
CYYG;2005-08-05 03:00;METAR CYYG 050300Z 00000KT 15SM FEW250 15/12 A3006 RMK CI1 SLP181=
CYYG;2005-08-05 04:00;METAR CYYG 050400Z 00000KT 15SM SKC 14/11 A3007 RMK SLP184=
CYYG;2005-08-05 05:00;METAR CYYG 050500Z 00000KT 15SM FEW065 14/11 A3007 RMK SC2 SLP183=
CYYG;2005-08-05 06:00;METAR CYYG 050600Z 16004KT 15SM SCT063 14/11 A3006 RMK SC4 SLP178=
CYYG;2005-08-05 09:00;METAR CYYG 050900Z 18005KT 15SM FEW060 14/11 A3004 RMK SC2 SLP173=
CYYG;2005-08-05 10:00;METAR CYYG 051000Z 20007KT 15SM FEW240 15/12 A3004 RMK CI1 SLP173=
CYYG;2005-08-05 11:00;METAR CYYG 051100Z 20008KT 15SM FEW070 SCT250 17/14 A3005 RMK AC1CI1 SLP176=
CYYG;2005-08-05 12:00;METAR CYYG 051200Z 20008KT 15SM FEW070 BKN250 18/14 A3004 RMK AC2CI2 SLP171=
CYYG;2005-08-05 13:00;METAR CYYG 051300Z 19010G15KT 15SM FEW070 SCT094 BKN250 19/13 A3001 RMK AC2AC1CI2 SLP163=
CYYG;2005-08-05 14:00;METAR CYYG 051400Z 19015KT 15SM FEW070 SCT094 BKN250 21/14 A2998 RMK AC2AC2CI1 OBS TAKEN +17 SLP152=
CYYG;2005-08-05 15:00;METAR CYYG 051500Z 20017KT 15SM FEW050 BKN090 BKN250 22/14 A2996 RMK SC2AC2CI1 OBS TAKEN +14 SLP146=
CYYG;2005-08-05 17:00;METAR CYYG 051700Z 20013KT 15SM BKN040 23/15 A2991 RMK SC7 SLP129=
CYYG;2005-08-05 18:00;METAR CYYG 051800Z 20011G17KT 15SM BKN044 OVC084 22/15 A2988 RMK SC6AC2 SLP120=
CYYG;2005-08-05 19:00;METAR CYYG 051900Z 21012G17KT 15SM SCT048 BKN086 OVC250 23/14 A2987 RMK SC3AC2CI2 SLP114=
CYYG;2005-08-05 20:00;METAR CYYG 052000Z 19014G19KT 15SM FEW050 SCT080 OVC250 22/14 A2986 RMK SC2AC2CI3 SLP112=
CYYG;2005-08-05 21:00;METAR CYYG 052100Z 20016G21KT 15SM FEW050 FEW090 BKN250 23/14 A2985 RMK SC1AC2CI2 SLP107=
CYYG;2005-08-05 22:00;METAR CYYG 052200Z 18012KT 15SM FEW050 FEW090 OVC250 21/15 A2983 RMK SC1AC2CI2 SLP102=
CYYG;2005-08-05 23:00;METAR CYYG 052300Z 19010G16KT 15SM FEW090 BKN250 21/15 A2983 RMK AC2CI3 SLP101=
CYYG;2005-08-06 00:00;METAR CYYG 060000Z 23009KT 15SM OVC250 20/15 A2985 RMK CS5 SLP110=
CYYG;2005-08-06 01:00;METAR CYYG 060100Z 23008KT 15SM SCT078 OVC250 20/15 A2986 RMK AC3CI2 SLP111=
CYYG;2005-08-06 02:00;METAR CYYG 060200Z 24010KT 15SM SCT090 OVC250 20/15 A2987 RMK AC3CI2 SLP114=
CYYG;2005-08-06 03:00;METAR CYYG 060300Z 24007KT 15SM SCT034 OVC250 20/18 A2987 RMK SC3CI2 SLP115=
CYYG;2005-08-06 03:15;SPECI CYYG 060315Z 24007KT 15SM -SHRA BKN030 OVC250 RMK SC5CI2=
CYYG;2005-08-06 04:00;METAR CYYG 060400Z 26006KT 15SM -SHRA FEW009 BKN030 OVC078 20/19 A2987 RMK SF2SC3AC2 SLP115=
CYYG;2005-08-06 05:00;METAR CYYG 060500Z 23009KT 15SM -SHRA SCT009 OVC070 19/18 A2986 RMK SF3AC5 SLP111=
CYYG;2005-08-06 06:00;METAR CYYG 060600Z 25008KT 15SM -SHRA SCT009 OVC082 20/18 A2987 RMK SF3AC5 SLP116=
CYYG;2005-08-06 07:00;METAR CYYG 060700Z 26007KT 15SM SCT009 OVC120 19/18 A2988 RMK SF3AC5 SLP119=
CYYG;2005-08-06 08:00;METAR CYYG 060800Z 28007KT 15SM FEW120 19/17 A2989 RMK AC2 SLP121=
CYYG;2005-08-06 09:00;METAR CYYG 060900Z 30007KT 15SM FEW120 FEW240 18/16 A2991 RMK AC1CI0 SLP128=
CYYG;2005-08-06 10:00;METAR CYYG 061000Z 32007KT 15SM FEW067 FEW120 18/15 A2993 RMK SC2AC1 SLP136=
CYYG;2005-08-06 11:00;METAR CYYG 061100Z 31010KT 15SM FEW065 FEW090 SCT250 19/13 A2996 RMK SC2AC1CI1 SLP144=
CYYG;2005-08-06 12:00;METAR CYYG 061200Z 33010G16KT 15SM FEW060 FEW090 SCT250 20/13 A2998 RMK SC1AC1CI1 SLP152=
CYYG;2005-08-06 13:00;METAR CYYG 061300Z 32012KT 15SM FEW060 FEW090 BKN250 20/13 A2999 RMK SC1AC1CI1 SLP156=
CYYG;2005-08-06 14:00;METAR CYYG 061400Z 31009KT 15SM FEW060 FEW090 BKN250 21/13 A3000 RMK SC1AC1CI1 SLP160=
CYYG;2005-08-06 15:00;METAR CYYG 061500Z 33008KT 15SM FEW030 FEW060 SCT100 BKN250 21/12 A3001 RMK CF1SC1AC2CI1 SLP163=
CYYG;2005-08-06 16:00;METAR CYYG 061600Z 34009KT 15SM FEW032 FEW100 BKN250 20/13 A3001 RMK CF1AC2CI2 SLP163=
CYYG;2005-08-06 17:00;METAR CYYG 061700Z 33008KT 15SM FEW032 FEW100 BKN250 21/14 A3001 RMK CF1AC1CI2 SLP163=
CYYG;2005-08-06 18:00;METAR CYYG 061800Z 32010KT 15SM FEW036 BKN250 21/11 A3001 RMK CF1CI1 SLP163=
CYYG;2005-08-06 19:00;METAR CYYG 061900Z 34010KT 15SM FEW036 SCT250 22/12 A3001 RMK CU1CI1 SLP164=
CYYG;2005-08-06 20:00;METAR CYYG 062000Z 36010KT 15SM FEW038 SCT250 23/12 A3002 RMK CU1CI1 SLP165=
CYYG;2005-08-06 21:00;METAR CYYG 062100Z 35004KT 15SM FEW040 SCT250 24/12 A3003 RMK CU1CI1 SLP170=
CYYG;2005-08-06 22:00;METAR CYYG 062200Z 00000KT 15SM FEW040 SCT320 22/12 A3004 RMK CU1CI1 SLP173=
CYYG;2005-08-06 23:00;METAR CYYG 062300Z 00000KT 15SM FEW320 20/11 A3005 RMK CI1 SLP177=
CYYG;2005-08-07 01:00;METAR CYYG 070100Z 00000KT 15SM FEW320 20/10 A3008 RMK CI1 SLP187=
CYYG;2005-08-07 02:00;METAR CYYG 070200Z 00000KT 15SM SKC 18/13 A3009 RMK SLP190=
CYYG;2005-08-07 03:00;METAR CYYG 070300Z 00000KT 15SM SKC 18/13 A3010 RMK SLP193=
CYYG;2005-08-07 04:00;METAR CYYG 070400Z 00000KT 15SM SKC 17/13 A3010 RMK SLP194=
CYYG;2005-08-07 05:00;METAR CYYG 070500Z 00000KT 15SM SKC 18/13 A3010 RMK SLP193=
CYYG;2005-08-07 06:00;METAR CYYG 070600Z 23004KT 15SM SKC 17/13 A3010 RMK SLP193=
CYYG;2005-08-07 08:00;METAR CYYG 070800Z 24005KT 15SM SKC 17/14 A3011 RMK SLP196=
CYYG;2005-08-07 09:00;METAR CYYG 070900Z 25005KT 15SM FEW270 17/14 A3012 RMK CI1 SLP200=
CYYG;2005-08-07 10:00;METAR CYYG 071000Z 24005KT 15SM FEW270 16/14 A3014 RMK CI0 SLP205=
CYYG;2005-08-07 12:00;METAR CYYG 071200Z 23005KT 15SM FEW270 19/14 A3015 RMK CI1 SLP211=
CYYG;2005-08-07 13:00;METAR CYYG 071300Z 25006KT 15SM SCT270 20/15 A3015 RMK CI1 SLP211=
CYYG;2005-08-07 14:00;METAR CYYG 071400Z 22006KT 15SM BKN270 22/13 A3015 RMK CI2 SLP210=
CYYG;2005-08-07 15:00;METAR CYYG 071500Z 21008KT 15SM BKN270 22/12 A3015 RMK CI2 SLP209=
CYYG;2005-08-07 16:00;METAR CYYG 071600Z 23009KT 15SM BKN270 23/11 A3013 RMK CI1 SLP203=
CYYG;2005-08-07 17:00;METAR CYYG 071700Z 23007KT 15SM FEW030 SCT270 25/12 A3011 RMK CF1CI1 SLP196=
CYYG;2005-08-07 18:00;METAR CYYG 071800Z 26008KT 15SM FEW030 SCT270 26/10 A3010 RMK CF1CI1 SLP192=
CYYG;2005-08-07 19:00;METAR CYYG 071900Z 25009G17KT 15SM FEW030 SCT270 26/09 A3009 RMK CF1CI1 SLP188=
CYYG;2005-08-07 20:00;METAR CYYG 072000Z 23008KT 15SM FEW030 FEW270 26/12 A3007 RMK CF1CI1 SLP183=
CYYG;2005-08-07 21:00;METAR CYYG 072100Z 20008KT 15SM FEW030 FEW270 25/14 A3006 RMK SC1CI1 SLP180=
CYYG;2005-08-07 22:00;METAR CYYG 072200Z 20007KT 15SM FEW270 24/15 A3006 RMK CI1 SLP178=
CYYG;2005-08-07 23:00;METAR CYYG 072300Z 18005KT 15SM FEW270 23/14 A3005 RMK CI0 SLP176=
CYYG;2005-08-08 00:00;METAR CYYG 080000Z 00000KT 15SM FEW270 21/14 A3005 RMK CI0 SLP175=
CYYG;2005-08-08 01:00;METAR CYYG 080100Z 21006KT 15SM FEW270 20/14 A3005 RMK CI0 SLP175=
CYYG;2005-08-08 02:00;METAR CYYG 080200Z 23006KT 15SM FEW270 20/15 A3006 RMK CI0 SLP178=
CYYG;2005-08-08 04:00;METAR CYYG 080400Z 23010G15KT 15SM SKC 19/14 A3006 RMK SLP178=
CYYG;2005-08-08 05:00;METAR CYYG 080500Z 22007KT 15SM SKC 18/15 A3004 RMK SLP173=
CYYG;2005-08-08 06:00;METAR CYYG 080600Z 23006KT 15SM SKC 18/15 A3003 RMK SLP169=
CYYG;2005-08-08 07:00;METAR CYYG 080700Z 24011KT 15SM SKC 18/12 A3002 RMK SLP166=
CYYG;2005-08-08 08:00;METAR CYYG 080800Z 24010G15KT 15SM FEW080 18/12 A3001 RMK AC2 SLP164=
CYYG;2005-08-08 09:00;METAR CYYG 080900Z 25008G16KT 15SM FEW070 FEW250 18/13 A3001 RMK AC1CI0 SLP164=
CYYG;2005-08-08 10:00;METAR CYYG 081000Z 25009KT 15SM FEW070 FEW250 17/13 A3001 RMK AC1CI1 SLP164=
CYYG;2005-08-08 11:00;METAR CYYG 081100Z 24008KT 15SM FEW070 SCT250 18/15 A3003 RMK AC1CI1 SLP168=
CYYG;2005-08-08 12:00;METAR CYYG 081200Z 24012KT 15SM FEW070 BKN250 19/15 A3004 RMK AC1CI2 SLP172=
CYYG;2005-08-08 13:00;METAR CYYG 081300Z 24010KT 15SM BKN250 20/15 A3004 RMK CI2 SLP173=
CYYG;2005-08-08 14:00;METAR CYYG 081400Z 27007KT 15SM SCT250 22/11 A3005 RMK CI1 SLP175=
CYYG;2005-08-08 15:00;METAR CYYG 081500Z 28005KT 15SM SCT250 23/16 A3005 RMK CI1 SLP177=
CYYG;2005-08-08 16:00;METAR CYYG 081600Z 31007KT 15SM SCT250 25/17 A3006 RMK CI1 SLP179=
CYYG;2005-08-08 17:00;METAR CYYG 081700Z 30005KT 15SM FEW030 FEW250 25/16 A3006 RMK CF1CI0 SLP178=
CYYG;2005-08-08 18:00;METAR CYYG 081800Z 34008KT 15SM FEW040 25/15 A3006 RMK CF1 SLP178=
CYYG;2005-08-08 19:00;METAR CYYG 081900Z 01009KT 15SM FEW040 26/14 A3007 RMK CU1 SLP182=
CYYG;2005-08-08 20:00;METAR CYYG 082000Z 02005KT 15SM FEW040 25/14 A3006 RMK CU1 SLP181=
CYYG;2005-08-08 21:00;METAR CYYG 082100Z 05006KT 15SM FEW040 27/17 A3007 RMK CU1 SLP182=
CYYG;2005-08-08 22:00;METAR CYYG 082200Z 00000KT 15SM FEW040 25/18 A3007 RMK SC1 SLP183=
CYYG;2005-08-08 23:00;METAR CYYG 082300Z 00000KT 15SM SKC 23/17 A3008 RMK SLP185=
CYYG;2005-08-09 00:00;METAR CYYG 090000Z 00000KT 15SM FEW120 21/19 A3010 RMK AC1 SLP193=
CYYG;2005-08-09 01:00;METAR CYYG 090100Z 00000KT 15SM SKC 20/17 A3011 RMK SLP195=
CYYG;2005-08-09 02:00;METAR CYYG 090200Z 15005KT 15SM SKC 19/16 A3010 RMK SLP192=
CYYG;2005-08-09 03:00;METAR CYYG 090300Z 15004KT 15SM SKC 19/17 A3009 RMK SLP189=
CYYG;2005-08-09 04:00;METAR CYYG 090400Z 18003KT 15SM SKC 19/16 A3009 RMK SLP189=
CYYG;2005-08-09 05:00;METAR CYYG 090500Z 20006KT 15SM SKC 19/16 A3008 RMK SLP187=
CYYG;2005-08-09 06:00;METAR CYYG 090600Z 22007KT 15SM SKC 18/16 A3007 RMK SLP184=
CYYG;2005-08-09 07:00;METAR CYYG 090700Z 23006KT 15SM SKC 18/16 A3008 RMK SLP187=
CYYG;2005-08-09 08:00;METAR CYYG 090800Z 23008KT 15SM SKC 18/16 A3009 RMK SLP188=
CYYG;2005-08-09 09:00;METAR CYYG 090900Z 22007KT 15SM FEW120 17/16 A3008 RMK AC1 SLP186=
CYYG;2005-08-09 10:00;METAR CYYG 091000Z 21007KT 15SM FEW070 FEW300 18/15 A3008 RMK ACC1CI1 SLP187=
CYYG;2005-08-09 11:00;METAR CYYG 091100Z 20009KT 15SM FEW070 FEW300 19/16 A3009 RMK ACC1CI1 SLP189=
CYYG;2005-08-09 12:00;METAR CYYG 091200Z 20009KT 15SM FEW070 FEW300 21/16 A3009 RMK ACC1CI1 SLP188=
CYYG;2005-08-09 13:00;METAR CYYG 091300Z 23008KT 15SM FEW060 FEW300 22/16 A3007 RMK CU1CI1 SLP183=
CYYG;2005-08-09 14:00;METAR CYYG 091400Z 22010KT 15SM SKC 24/15 A3007 RMK SLP182=
CYYG;2005-08-09 15:00;METAR CYYG 091500Z 20010KT 15SM FEW300 25/16 A3006 RMK CI1 SLP181=
CYYG;2005-08-09 16:00;METAR CYYG 091600Z 21011KT 15SM FEW300 27/16 A3005 RMK CI1 SLP176=
CYYG;2005-08-09 17:00;METAR CYYG 091700Z 21011G16KT 15SM FEW300 28/15 A3003 RMK CI1 SLP168=
CYYG;2005-08-09 18:00;METAR CYYG 091800Z 20014KT 15SM FEW300 29/15 A3001 RMK CI1 SLP160=
CYYG;2005-08-09 19:00;METAR CYYG 091900Z 23015KT 15SM FEW300 28/17 A2998 RMK CI1 SLP152=
CYYG;2005-08-09 20:00;METAR CYYG 092000Z 22015G20KT 15SM FEW300 28/18 A2996 RMK CI1 HAZE SLP144=
CYYG;2005-08-09 21:00;METAR CYYG 092100Z 24013G22KT 12SM SKC 28/19 A2996 RMK HAZE SLP145=
CYYG;2005-08-09 22:00;METAR CYYG 092200Z 23010G15KT 8SM SKC 26/20 A2996 RMK SLP146=
CYYG;2005-08-09 23:00;METAR CYYG 092300Z 24010KT 5SM HZ SKC 23/20 A2997 RMK SLP147=
CYYG;2005-08-10 00:00;METAR CYYG 100000Z 23010G16KT 4SM HZ SKC 22/20 A2996 RMK SLP147=
CYYG;2005-08-10 01:00;METAR CYYG 100100Z 23009G15KT 6SM HZ FEW009 22/20 A2996 RMK SF1 SLP147=
CYYG;2005-08-10 02:00;METAR CYYG 100200Z 23012G19KT 8SM FEW009 22/19 A2996 RMK SF1 HAZE SLP147=
CYYG;2005-08-10 03:00;METAR CYYG 100300Z 23009G16KT 10SM SKC 21/17 A2997 RMK SLP149=
CYYG;2005-08-10 04:00;METAR CYYG 100400Z 23011G17KT 10SM SKC 21/18 A2998 RMK SLP150=
CYYG;2005-08-10 05:00;METAR CYYG 100500Z 25012KT 10SM SKC 20/18 A2997 RMK SLP148=
CYYG;2005-08-10 06:00;METAR CYYG 100600Z 24011G16KT 6SM BR SKC 20/18 A2996 RMK SLP144=
CYYG;2005-08-10 07:00;METAR CYYG 100700Z 22009KT 5SM BR SKC 19/18 A2995 RMK SLP142=
CYYG;2005-08-10 08:00;METAR CYYG 100800Z 21010KT 4SM BR SCT011 20/19 A2993 RMK SF4 SLP136=
CYYG;2005-08-10 08:09;SPECI CYYG 100809Z 21009KT 4SM BR BKN010 RMK SF5=
CYYG;2005-08-10 08:36;SPECI CYYG 100836Z 22010KT 5SM BR OVC009 RMK SF8=
CYYG;2005-08-10 09:00;METAR CYYG 100900Z 22012KT 3SM BR OVC008 20/19 A2994 RMK SF8 SLP137=
CYYG;2005-08-10 09:33;SPECI CYYG 100933Z 22012G19KT 2 1/2SM BR OVC009 RMK SF8=
CYYG;2005-08-10 09:52;SPECI CYYG 100952Z 21010G16KT 2 1/2SM BR OVC010 RMK SF8=
CYYG;2005-08-10 10:00;METAR CYYG 101000Z 22012KT 2 1/2SM BR OVC010 21/19 A2995 RMK SF8 SLP141=
CYYG;2005-08-10 11:00;METAR CYYG 101100Z 22010G16KT 3SM HZ OVC010 21/19 A2996 RMK SF8 SLP145=
CYYG;2005-08-10 12:00;METAR CYYG 101200Z 22010G16KT 4SM HZ OVC010 21/19 A2995 RMK SC8 SLP143=
CYYG;2005-08-10 13:00;METAR CYYG 101300Z 22011G18KT 5SM HZ BKN011 22/19 A2994 RMK SC7 SLP138=
CYYG;2005-08-10 13:48;SPECI CYYG 101348Z 20015G20KT 5SM HZ FEW012 BKN300 RMK SC2CI0=
CYYG;2005-08-10 14:00;METAR CYYG 101400Z 21015G20KT 5SM HZ FEW012 BKN300 22/19 A2993 RMK SC2CI0 SLP134=
CYYG;2005-08-10 15:00;METAR CYYG 101500Z 22012G19KT 6SM HZ FEW015 BKN300 25/20 A2993 RMK CF1CI1 SLP133=
CYYG;2005-08-10 16:00;METAR CYYG 101600Z 22018KT 7SM FEW020 FEW100 BKN300 25/20 A2991 RMK CF1AC1CI1 HAZE SLP129=
CYYG;2005-08-10 17:00;METAR CYYG 101700Z 25014G20KT 8SM BKN300 26/19 A2991 RMK CI1 HAZE SLP128=
CYYG;2005-08-10 18:00;METAR CYYG 101800Z 23015G20KT 10SM FEW025 FEW150 SCT300 27/20 A2990 RMK CF1AC1CI0 HAZE SLP126=
CYYG;2005-08-10 19:00;METAR CYYG 101900Z 23013G19KT 12SM FEW025 SCT150 28/20 A2989 RMK CF1AC3 SLP122=
CYYG;2005-08-10 21:00;METAR CYYG 102100Z 23011G17KT 12SM FEW150 27/19 A2988 RMK AC2 HAZE SLP119=
CYYG;2005-08-10 22:00;METAR CYYG 102200Z 22014KT 12SM FEW150 27/18 A2987 RMK AC2 HAZE SLP113=
CYYG;2005-08-10 23:00;METAR CYYG 102300Z 25009KT 12SM FEW150 26/17 A2988 RMK AC2 HAZE SLP118=
CYYG;2005-08-11 00:00;METAR CYYG 110000Z 25011KT 12SM FEW250 24/17 A2990 RMK CI2 HAZE SLP124=
CYYG;2005-08-11 01:00;METAR CYYG 110100Z 25012KT 12SM FEW250 23/17 A2992 RMK CI2 HAZE SLP130=
CYYG;2005-08-11 02:00;METAR CYYG 110200Z 22011G17KT 12SM FEW250 22/17 A2992 RMK CI2 HAZE SLP131=
CYYG;2005-08-11 03:00;METAR CYYG 110300Z 22007KT 12SM FEW250 21/17 A2993 RMK CI2 HAZE SLP133=
CYYG;2005-08-11 04:00;METAR CYYG 110400Z 22008KT 12SM SKC 21/17 A2992 RMK HAZE SLP130=
CYYG;2005-08-11 05:00;METAR CYYG 110500Z 22011KT 10SM SKC 21/19 A2990 RMK SLP125=
CYYG;2005-08-11 06:00;METAR CYYG 110600Z 22009KT 10SM SKC 20/19 A2989 RMK SLP122=
CYYG;2005-08-11 07:00;METAR CYYG 110700Z 22008KT 12SM SKC 20/19 A2988 RMK SLP119=
CYYG;2005-08-11 08:00;METAR CYYG 110800Z 22006KT 15SM FEW070 21/19 A2988 RMK AC2 SLP118=
CYYG;2005-08-11 09:00;METAR CYYG 110900Z 22006KT 15SM FEW070 SCT250 20/19 A2988 RMK AC2CI1 SLP119=
CYYG;2005-08-11 10:00;METAR CYYG 111000Z 22008KT 15SM SCT015 SCT070 BKN250 20/19 A2988 RMK SC3AC1CI1 SLP118=
CYYG;2005-08-11 11:00;METAR CYYG 111100Z 20010KT 15SM SCT015 BKN250 21/19 A2987 RMK SC3CI2 SLP113=
CYYG;2005-08-11 12:00;METAR CYYG 111200Z 19012KT 15SM BKN018 OVC250 22/19 A2986 RMK SC6CI1 SLP110=
CYYG;2005-08-11 13:00;METAR CYYG 111300Z 19013KT 12SM BKN013 OVC250 22/19 A2985 RMK SC7CI0 SLP106=
CYYG;2005-08-11 14:00;METAR CYYG 111400Z 20012KT 12SM BKN015 OVC250 23/19 A2983 RMK SC6CI1 SLP101=
CYYG;2005-08-11 15:00;METAR CYYG 111500Z 19011G20KT 12SM BKN018 23/19 A2981 RMK SC7 SLP094=
CYYG;2005-08-11 16:00;METAR CYYG 111600Z 19012KT 15SM BKN020 24/20 A2980 RMK SC7 SLP090=
CYYG;2005-08-11 17:00;METAR CYYG 111700Z 22012KT 15SM BKN021 25/19 A2978 RMK SC7 SLP085=
CYYG;2005-08-11 18:00;METAR CYYG 111800Z 25014KT 15SM BKN023 26/21 A2978 RMK SC7 SLP083=
CYYG;2005-08-11 19:00;METAR CYYG 111900Z 25009G18KT 15SM SCT024 BKN120 BKN250 25/19 A2977 RMK SC4AC1CI1 SLP081=
CYYG;2005-08-11 20:00;METAR CYYG 112000Z 25011KT 15SM SCT024 SCT120 BKN260 25/20 A2978 RMK SC3AC1CI2 SLP084=
CYYG;2005-08-11 21:00;METAR CYYG 112100Z 26007KT 15SM FEW025 SCT110 BKN260 24/19 A2978 RMK SC2AC2CI1 SLP085=
CYYG;2005-08-11 22:00;METAR CYYG 112200Z 25009KT 15SM FEW040TCU FEW110 BKN260 24/20 A2979 RMK TCU1ACC1CI3 SLP087=
CYYG;2005-08-11 23:00;METAR CYYG 112300Z 25004KT 15SM FEW025TCU SCT110 BKN260 23/19 A2980 RMK TCU2ACC1CI2 LN TCU W-NE MOVG SE SLP092=
CYYG;2005-08-12 00:00;METAR CYYG 120000Z 00000KT 15SM SCT018TCU BKN032TCU 21/17 A2985 RMK TCU3TCU3 PRESRR SLP107=
CYYG;2005-08-12 01:00;METAR CYYG 120100Z 34004KT 15SM FEW030 FEW100 20/16 A2987 RMK SC1AC1 SLP116=
CYYG;2005-08-12 02:00;METAR CYYG 120200Z 33004KT 15SM FEW030 18/13 A2988 RMK SC1 SLP119=
CYYG;2005-08-12 03:00;METAR CYYG 120300Z 31005KT 15SM SKC 18/13 A2991 RMK SLP130=
CYYG;2005-08-12 04:00;METAR CYYG 120400Z 32005KT 15SM SKC 17/13 A2992 RMK SLP132=
CYYG;2005-08-12 05:00;METAR CYYG 120500Z 31004KT 15SM SKC 17/12 A2993 RMK SLP135=
CYYG;2005-08-12 06:00;METAR CYYG 120600Z 31005KT 15SM SKC 16/12 A2993 RMK SLP136=
CYYG;2005-08-12 07:00;METAR CYYG 120700Z 00000KT 15SM SKC 15/11 A2994 RMK SLP138=
CYYG;2005-08-12 08:00;METAR CYYG 120800Z 29005KT 15SM SKC 16/11 A2995 RMK SLP141=
CYYG;2005-08-12 09:00;METAR CYYG 120900Z 28003KT 15SM FEW250 14/10 A2996 RMK CI1 SLP146=
CYYG;2005-08-12 10:00;METAR CYYG 121000Z 31003KT 15SM FEW320 15/11 A2998 RMK CI2 SLP151=
CYYG;2005-08-12 11:00;METAR CYYG 121100Z 32006KT 15SM SCT320 18/13 A2999 RMK CI2 SLP156=
CYYG;2005-08-12 12:00;METAR CYYG 121200Z 32007KT 15SM SCT320 19/13 A3000 RMK CI2 SLP160=
CYYG;2005-08-12 13:00;METAR CYYG 121300Z 34008KT 15SM SCT320 21/13 A3002 RMK CI2 SLP165=
CYYG;2005-08-12 14:00;METAR CYYG 121400Z 33007KT 15SM FEW030 SCT320 22/12 A3003 RMK CF1CI2 SLP168=
CYYG;2005-08-12 15:00;METAR CYYG 121500Z 34008KT 15SM FEW032 SCT320 23/M03 A3002 RMK CF1CI1 SLP165=
CYYG;2005-08-12 16:00;METAR CYYG 121600Z 32005KT 15SM FEW040 BKN320 23/12 A3001 RMK CU1CI1 SLP164=
CYYG;2005-08-12 17:00;METAR CYYG 121700Z 34006KT 15SM FEW060 BKN320 22/12 A3001 RMK SC2CI1 SLP163=
CYYG;2005-08-12 18:00;METAR CYYG 121800Z 02006KT 15SM FEW058 BKN320 22/12 A3000 RMK SC1CI1 SLP160=
CYYG;2005-08-12 19:00;METAR CYYG 121900Z 03007KT 15SM FEW058 FEW320 22/11 A3000 RMK CU1CI1 SLP159=
CYYG;2005-08-12 20:00;METAR CYYG 122000Z 36003KT 15SM FEW058 FEW320 23/12 A2999 RMK CU1CI0 SLP157=
CYYG;2005-08-12 21:00;METAR CYYG 122100Z 01002KT 15SM FEW050 FEW230 FEW320 23/12 A3000 RMK CF1CC1CI1 SLP159=
CYYG;2005-08-12 22:00;METAR CYYG 122200Z 09002KT 15SM FEW230 SCT320 21/12 A2999 RMK CC2CI0 SLP155=
CYYG;2005-08-12 23:00;METAR CYYG 122300Z 00000KT 15SM FEW230 BKN320 20/12 A3000 RMK CC1CI3 SLP158=
CYYG;2005-08-13 00:00;METAR CYYG 130000Z 00000KT 15SM FEW320 19/13 A2999 RMK CI2 SLP157=
CYYG;2005-08-13 01:00;METAR CYYG 130100Z 00000KT 15SM FEW320 19/12 A3000 RMK CI1 SLP160=
CYYG;2005-08-13 02:00;METAR CYYG 130200Z 00000KT 15SM FEW320 17/13 A2999 RMK CI1 SLP157=
CYYG;2005-08-13 03:00;METAR CYYG 130300Z 18005KT 15SM FEW320 17/13 A3000 RMK CI1 SLP158=
CYYG;2005-08-13 04:00;METAR CYYG 130400Z 19005KT 15SM FEW320 17/13 A2998 RMK CI0 SLP153=
CYYG;2005-08-13 05:00;METAR CYYG 130500Z 20005KT 15SM FEW320 16/12 A2998 RMK CI1 SLP153=
CYYG;2005-08-13 06:00;METAR CYYG 130600Z 20005KT 15SM SCT320 16/11 A2997 RMK CI1 SLP149=
CYYG;2005-08-13 07:00;METAR CYYG 130700Z 19006KT 15SM SCT320 16/11 A2996 RMK CI1 SLP145=
CYYG;2005-08-13 08:00;METAR CYYG 130800Z 17004KT 15SM BKN160 BKN320 17/13 A2993 RMK AC6CI1 SLP137=
CYYG;2005-08-13 09:00;METAR CYYG 130900Z 20006KT 15SM BKN140 OVC160 17/13 A2993 RMK AC5AS3 SLP136=
CYYG;2005-08-13 10:00;METAR CYYG 131000Z 18006KT 15SM FEW085 BKN130 OVC280 18/14 A2992 RMK AC1AC6CI1 SLP133=
CYYG;2005-08-13 11:00;METAR CYYG 131100Z 20010G15KT 15SM FEW085 BKN120 OVC280 19/13 A2991 RMK AC2AC5CI1 SLP128=
CYYG;2005-08-13 11:16;SPECI CYYG 131116Z 19008KT 15SM -SHRA FEW080 BKN130 OVC280 RMK AC2AC4CI1=
CYYG;2005-08-13 12:00;METAR CYYG 131200Z 18007KT 15SM -SHRA FEW060 BKN083 OVC120 18/13 A2990 RMK SC2AC4AC2 SLP125=
CYYG;2005-08-13 13:00;METAR CYYG 131300Z 19010G15KT 15SM SCT055 BKN080 OVC120 19/14 A2987 RMK SC3AC4AC1 SLP117=
CYYG;2005-08-13 14:00;METAR CYYG 131400Z 20017G25KT 15SM VCSH BKN053 OVC080 18/15 A2986 RMK SC6AC2 VIS LWR S-SW SLP112=
CYYG;2005-08-13 14:05;SPECI CYYG 131405Z 19020G25KT 15SM -SHRA BKN053 OVC080 RMK SC6AC2 VIS LWR S-SW=
CYYG;2005-08-13 14:42;SPECI CYYG 131442Z 18016G21KT 15SM -SHRA BKN011 OVC040 RMK SC5SC3 VIS LWR S=
CYYG;2005-08-13 15:00;METAR CYYG 131500Z 18017KT 15SM -SHRA FEW010 OVC014 18/15 A2983 RMK SF1SC7 VIS LWR SW-W SLP101=
CYYG;2005-08-13 16:00;METAR CYYG 131600Z 18015KT 15SM -SHRA FEW011 BKN014 OVC032 18/15 A2980 RMK SF1SC5SC2 SLP091=
CYYG;2005-08-13 16:36;SPECI CYYG 131636Z 18013KT 15SM FEW011 OVC023 RMK SF1SC7=
CYYG;2005-08-13 17:00;METAR CYYG 131700Z 19014G19KT 15SM FEW010 OVC019 19/15 A2978 RMK SF1SC7 SLP085=
CYYG;2005-08-13 18:00;METAR CYYG 131800Z 20015KT 15SM FEW010 OVC015 19/16 A2977 RMK SF1SC7 SLP081=
CYYG;2005-08-13 19:00;METAR CYYG 131900Z 19013G18KT 15SM FEW010 OVC015 20/17 A2975 RMK SF2SC6 SLP075=
CYYG;2005-08-13 20:00;METAR CYYG 132000Z 21012KT 15SM FEW010 OVC015 21/17 A2975 RMK SF1SC7 SLP074=
CYYG;2005-08-13 20:07;SPECI CYYG 132007Z 23010G15KT 15SM FEW010 OVC014 RMK SF1SC7=
CYYG;2005-08-13 21:00;METAR CYYG 132100Z 22009KT 15SM OVC013 21/18 A2974 RMK SC8 SLP072=
CYYG;2005-08-13 22:00;METAR CYYG 132200Z 23010G15KT 12SM BKN011 BKN250 21/17 A2974 RMK SC6CI1 SLP069=
CYYG;2005-08-13 23:00;METAR CYYG 132300Z 24009KT 12SM SCT011 BKN250 21/19 A2974 RMK SC3CI2 SLP071=
CYYG;2005-08-14 00:00;METAR CYYG 140000Z 24006KT 12SM SCT008 BKN250 20/18 A2976 RMK SF4CI2 SLP078=
CYYG;2005-08-14 00:51;SPECI CYYG 140051Z 24007KT 12SM BKN004 OVC250 RMK SF6CI1=
CYYG;2005-08-14 01:00;METAR CYYG 140100Z 24006KT 12SM BKN004 OVC250 20/18 A2979 RMK SF6CI1 SLP087=
CYYG;2005-08-14 02:00;METAR CYYG 140200Z 23005KT 12SM BKN004 OVC075 20/18 A2980 RMK SF6AC2 SLP090=
CYYG;2005-08-14 02:18;SPECI CYYG 140218Z 23007KT 12SM SCT004 BKN066 BKN250 RMK SF4AC2CI1=
CYYG;2005-08-14 03:00;METAR CYYG 140300Z 23005KT 12SM FEW004 BKN068 BKN250 20/18 A2979 RMK SF2AC2CI1 SLP087=
CYYG;2005-08-14 04:00;METAR CYYG 140400Z 24006KT 15SM FEW004 BKN073 BKN150 19/18 A2980 RMK SF2AC3CI1 SLP090=
CYYG;2005-08-14 05:00;METAR CYYG 140500Z 23005KT 12SM FEW004 BKN073 BKN250 19/17 A2979 RMK SF2AC3CI1 SLP087=
CYYG;2005-08-14 06:00;METAR CYYG 140600Z 25008KT 12SM FEW004 SCT075 BKN250 18/17 A2980 RMK SF2AC2CI2 SLP091=
CYYG;2005-08-14 07:00;METAR CYYG 140700Z 26007KT 12SM FEW004 BKN055 BKN250 18/16 A2981 RMK SF1SC4CI1 SLP096=
CYYG;2005-08-14 08:00;METAR CYYG 140800Z 24008KT 15SM FEW004 BKN060 BKN200 17/16 A2982 RMK SF1SC4CI1 SLP099=
CYYG;2005-08-14 09:00;METAR CYYG 140900Z 26005KT 15SM SCT060 BKN220 18/15 A2983 RMK SC4CI2 SLP101=
CYYG;2005-08-14 10:00;METAR CYYG 141000Z 26006KT 15SM FEW063 BKN190 BKN300 18/15 A2984 RMK SC1AC6CI0 SLP105=
CYYG;2005-08-14 11:00;METAR CYYG 141100Z 25007KT 15SM BKN066 BKN190 BKN300 19/16 A2988 RMK AC5AC2CI0 SLP118=
CYYG;2005-08-14 12:00;METAR CYYG 141200Z 27010KT 15SM FEW066 SCT160 BKN180 20/17 A2990 RMK AC2AC2AC2 SLP124=
CYYG;2005-08-14 13:00;METAR CYYG 141300Z 28006KT 15SM FEW058 FEW160 SCT180 23/16 A2989 RMK SC1AC1AC2 SLP123=
CYYG;2005-08-14 14:00;METAR CYYG 141400Z 35003KT 15SM FEW150 SCT180 25/16 A2990 RMK AC2AC2 SLP126=
CYYG;2005-08-14 15:00;METAR CYYG 141500Z 35004KT 15SM FEW040 SCT150 BKN300 25/16 A2991 RMK CU1AC2CI0 SLP127=
CYYG;2005-08-14 16:00;METAR CYYG 141600Z 00000KT 15SM FEW040 SCT150 BKN300 26/16 A2991 RMK CU1AC2CI1 SLP128=
CYYG;2005-08-14 17:00;METAR CYYG 141700Z 35011G16KT 15SM FEW040TCU BKN260 25/15 A2993 RMK TCU1CC5 SLP133=
CYYG;2005-08-14 18:00;METAR CYYG 141800Z 36007KT 15SM FEW040 SCT120 BKN260 24/13 A2992 RMK SC1AC2CC2 SLP132=
CYYG;2005-08-14 19:00;METAR CYYG 141900Z 35008KT 15SM FEW040 SCT120 BKN260 21/13 A2995 RMK CU1AC2CC4 SLP141=
CYYG;2005-08-14 20:00;METAR CYYG 142000Z 36007KT 15SM FEW040 BKN160 21/13 A2995 RMK CU1AS6 SLP142=
CYYG;2005-08-14 20:02;SPECI CYYG 142002Z 36008KT 15SM -SHRA FEW040 OVC160 RMK CU1AC7=
CYYG;2005-08-14 21:00;METAR CYYG 142100Z 00000KT 15SM -SHRA SCT050 OVC120 19/15 A2996 RMK SC3AC5 SLP146=
CYYG;2005-08-14 22:00;METAR CYYG 142200Z 00000KT 15SM FEW050 OVC120 19/15 A2996 RMK SC2AC6 SLP145=
CYYG;2005-08-14 23:00;METAR CYYG 142300Z 00000KT 15SM FEW050 BKN110 OVC160 19/14 A2997 RMK SC2AC4AC2 SLP150=
CYYG;2005-08-15 00:00;METAR CYYG 150000Z 00000KT 15SM SCT050 BKN110 OVC170 18/15 A2999 RMK SC3AC2AC3 SLP157=
CYYG;2005-08-15 01:00;METAR CYYG 150100Z 00000KT 15SM SCT050 BKN110 OVC170 17/14 A3001 RMK SC3AC2AC3 SLP161=
CYYG;2005-08-15 02:00;METAR CYYG 150200Z 00000KT 15SM FEW050 OVC180 17/14 A3001 RMK SC2AC6 SLP162=
CYYG;2005-08-15 03:00;METAR CYYG 150300Z 00000KT 15SM FEW050 SCT100 OVC180 16/14 A3002 RMK SC2AC2AC4 SLP166=
CYYG;2005-08-15 04:00;METAR CYYG 150400Z 00000KT 15SM FEW050 SCT100 OVC180 16/14 A3002 RMK SC2AC2AC4 SLP165=
CYYG;2005-08-15 05:00;METAR CYYG 150500Z 00000KT 15SM FEW100 OVC180 16/14 A3001 RMK AC2AC6 SLP163=
CYYG;2005-08-15 06:00;METAR CYYG 150600Z 00000KT 15SM FEW120 OVC180 16/14 A3001 RMK AC2AC6 SLP161=
CYYG;2005-08-15 07:00;METAR CYYG 150700Z 00000KT 15SM FEW060 SCT120 OVC180 15/14 A3001 RMK SC2AC2AC4 SLP164=
CYYG;2005-08-15 08:00;METAR CYYG 150800Z 00000KT 15SM FEW060 SCT120 OVC170 16/14 A3001 RMK SC1AC2AC5 SLP162=
CYYG;2005-08-15 09:00;METAR CYYG 150900Z 00000KT 15SM FEW060 BKN096 OVC170 16/14 A3003 RMK SC1AC4AC3 SLP168=
CYYG;2005-08-15 10:00;METAR CYYG 151000Z 00000KT 15SM FEW060 SCT090 BKN120 16/14 A3005 RMK SC1AC3AC3 SLP176=
CYYG;2005-08-15 11:00;METAR CYYG 151100Z 00000KT 15SM FEW030 FEW055 BKN120 BKN180 16/14 A3007 RMK SC1SC1AC3AC2 SLP183=
CYYG;2005-08-15 12:00;METAR CYYG 151200Z 00000KT 15SM FEW025 FEW055 SCT120 BKN170 18/15 A3008 RMK SC1SC1AC2AC3 SLP185=
CYYG;2005-08-15 13:00;METAR CYYG 151300Z 00000KT 15SM FEW020 FEW050 SCT120 BKN170 19/15 A3008 RMK CU1SC1AC2AC4 SLP187=
CYYG;2005-08-15 14:00;METAR CYYG 151400Z 00000KT 15SM FEW026 SCT170 BKN260 20/14 A3009 RMK CU2AC2CI2 SLP190=
CYYG;2005-08-15 15:00;METAR CYYG 151500Z 00000KT 15SM FEW024 SCT070 BKN260 20/14 A3009 RMK CU2AC1CI2 SLP191=
CYYG;2005-08-15 16:00;METAR CYYG 151600Z 00000KT 15SM FEW024 FEW070 BKN260 20/08 A3009 RMK CU2AC1CI3 SLP190=
CYYG;2005-08-15 18:00;METAR CYYG 151800Z 08002KT 15SM FEW028 FEW080 BKN260 22/12 A3010 RMK CU2AC1CI2 TCU ASOCTD SLP194=
CYYG;2005-08-15 19:00;METAR CYYG 151900Z 36004KT 15SM FEW030 FEW050TCU FEW090 BKN260 22/12 A3010 RMK CU1TCU1AC1CI2 SLP194=
CYYG;2005-08-15 20:00;METAR CYYG 152000Z 03004KT 15SM FEW030 FEW050TCU FEW100 BKN260 22/11 A3011 RMK CU1TCU1AC1CI2 SLP196=
CYYG;2005-08-15 22:00;METAR CYYG 152200Z 00000KT 15SM FEW034TCU SCT260 20/13 A3012 RMK TCU1CI1 SLP199=
CYYG;2005-08-15 23:00;METAR CYYG 152300Z 00000KT 15SM FEW034 FEW260 18/14 A3013 RMK CU1CI0 SLP203=
CYYG;2005-08-16 00:00;METAR CYYG 160000Z 00000KT 15SM FEW034 SCT260 17/14 A3014 RMK CU1CI1 SLP205=
CYYG;2005-08-16 01:00;METAR CYYG 160100Z 00000KT 15SM FEW260 15/13 A3014 RMK CI0 SLP208=
CYYG;2005-08-16 03:00;METAR CYYG 160300Z 00000KT 15SM SKC 12/11 A3014 RMK SLP208=
CYYG;2005-08-16 04:00;METAR CYYG 160400Z 00000KT 15SM SKC 11/10 A3015 RMK SLP209=
CYYG;2005-08-16 05:00;METAR CYYG 160500Z 00000KT 15SM SKC 13/12 A3014 RMK SLP208=
CYYG;2005-08-16 06:00;METAR CYYG 160600Z 00000KT 15SM SKC 13/11 A3014 RMK SLP206=
CYYG;2005-08-16 07:00;METAR CYYG 160700Z 00000KT 15SM MIFG SKC 14/12 A3014 RMK SLP205=
CYYG;2005-08-16 08:00;METAR CYYG 160800Z 00000KT 15SM MIFG SKC 13/12 A3014 RMK SLP207=
CYYG;2005-08-16 09:00;METAR CYYG 160900Z 00000KT 1/4SM FG SKC 13/11 A3015 RMK RVR RWY03 1200FT TWR VIS 15 SLP209=
CYYG;2005-08-16 09:15;SPECI CYYG 160915Z 00000KT 15SM MIFG SKC RMK RVR RWY 03 5000FT=
CYYG;2005-08-16 10:00;METAR CYYG 161000Z 00000KT 15SM MIFG SKC 14/13 A3016 RMK SLP212=
CYYG;2005-08-16 10:13;SPECI CYYG 161013Z 00000KT 1/4SM FG SKC RMK RVR RWY03 1100 FT=
CYYG;2005-08-16 10:21;SPECI CYYG 161021Z 00000KT 1/8SM FG SKC RMK VIS W 15 FG 50 FT THK RVR RWY03 0600 FT=
CYYG;2005-08-16 10:47;SPECI CYYG 161047Z 00000KT 15SM PRFG FEW020 RMK CF1 VIS N-NE 3/4=
CYYG;2005-08-16 11:00;METAR CYYG 161100Z 00000KT 15SM BCFG FEW020 17/16 A3016 RMK CF1 SLP213=
CYYG;2005-08-16 12:00;METAR CYYG 161200Z 22005KT 15SM FEW020 18/15 A3016 RMK CF1 SLP212=
CYYG;2005-08-16 13:00;METAR CYYG 161300Z 19007KT 15SM FEW020 20/14 A3015 RMK CF1 SLP210=
CYYG;2005-08-16 14:00;METAR CYYG 161400Z 21007KT 15SM FEW025 21/14 A3014 RMK CF1 SLP206=
CYYG;2005-08-16 15:00;METAR CYYG 161500Z 18007KT 15SM FEW030 22/13 A3013 RMK CF1 SLP204=
CYYG;2005-08-16 16:00;METAR CYYG 161600Z 18006KT 15SM FEW030 23/12 A3011 RMK CF1 SLP195=
CYYG;2005-08-16 17:00;METAR CYYG 161700Z 19007KT 15SM FEW030 SCT300 23/11 A3009 RMK CF1CI0 SLP191=
CYYG;2005-08-16 18:00;METAR CYYG 161800Z 18010KT 15SM FEW030 BKN300 23/08 A3008 RMK CF1CI1 SLP186=
CYYG;2005-08-16 19:00;METAR CYYG 161900Z 18007KT 15SM FEW036 BKN300 23/08 A3006 RMK SC1CI2 SLP180=
CYYG;2005-08-16 20:00;METAR CYYG 162000Z 17006KT 15SM FEW036 OVC300 23/08 A3004 RMK SC1CI2 SLP174=
CYYG;2005-08-16 21:00;METAR CYYG 162100Z 00000KT 15SM FEW040 OVC300 23/10 A3003 RMK SC1CI2 SLP170=
CYYG;2005-08-16 22:00;METAR CYYG 162200Z 16004KT 15SM FEW040 BKN300 22/10 A3002 RMK SC1CI2 SLP166=
CYYG;2005-08-16 23:00;METAR CYYG 162300Z 00000KT 15SM FEW040 BKN280 20/12 A3000 RMK SC2CI2 SLP159=
CYYG;2005-08-17 00:00;METAR CYYG 170000Z 15006KT 15SM SCT260 19/12 A3000 RMK CI2 SLP158=
CYYG;2005-08-17 01:00;METAR CYYG 170100Z 18010KT 15SM SCT260 19/13 A2999 RMK CI2 SLP155=
CYYG;2005-08-17 02:00;METAR CYYG 170200Z 18009KT 15SM FEW260 18/12 A2998 RMK CI1 SLP152=
CYYG;2005-08-17 03:00;METAR CYYG 170300Z 19009KT 15SM FEW260 17/13 A2996 RMK CI1 SLP147=
CYYG;2005-08-17 04:00;METAR CYYG 170400Z 20006KT 15SM SKC 16/12 A2996 RMK SLP144=
CYYG;2005-08-17 05:00;METAR CYYG 170500Z 18005KT 15SM SKC 16/13 A2993 RMK SLP137=
CYYG;2005-08-17 06:00;METAR CYYG 170600Z 19009KT 15SM SKC 16/14 A2991 RMK SLP130=
CYYG;2005-08-17 07:00;METAR CYYG 170700Z 19006KT 15SM FEW050 16/13 A2990 RMK SC2 SLP125=
CYYG;2005-08-17 08:00;METAR CYYG 170800Z 22006KT 15SM FEW050 16/13 A2987 RMK SC2 SLP117=
CYYG;2005-08-17 09:00;METAR CYYG 170900Z 21008KT 15SM FEW010 16/14 A2986 RMK SC2 SLP112=
CYYG;2005-08-17 10:00;METAR CYYG 171000Z 22009KT 15SM BKN009 16/14 A2985 RMK SC7 SLP107=
CYYG;2005-08-17 11:00;METAR CYYG 171100Z 23007G15KT 15SM BKN008 17/14 A2984 RMK SC7 SLP105=
CYYG;2005-08-17 12:00;METAR CYYG 171200Z 23007KT 15SM BKN009 BKN050 17/14 A2981 RMK SC5SC2 SLP096=
CYYG;2005-08-17 13:00;METAR CYYG 171300Z 23013G18KT 15SM SCT010 BKN060 19/14 A2978 RMK SC3SC4 SLP086=
CYYG;2005-08-17 14:00;METAR CYYG 171400Z 22013KT 15SM FEW012 SCT050 BKN120 19/14 A2977 RMK SC2SC2AC2 SLP080=
CYYG;2005-08-17 15:00;METAR CYYG 171500Z 23010G15KT 15SM BKN017 BKN120 19/14 A2977 RMK SC6AC1 SLP080=
CYYG;2005-08-17 16:00;METAR CYYG 171600Z 25005KT 15SM BKN023 BKN120 20/14 A2975 RMK SC6AC1 SLP075=
CYYG;2005-08-17 17:00;METAR CYYG 171700Z 28010KT 15SM BKN025 BKN120 21/15 A2974 RMK SC5AC1 SLP070=
CYYG;2005-08-17 18:00;METAR CYYG 171800Z 28008KT 15SM SCT025 BKN086 21/14 A2973 RMK SC4AC2 TCU EMBD SLP067=
CYYG;2005-08-17 19:00;METAR CYYG 171900Z 30006KT 15SM FEW028 SCT086 BKN120 23/08 A2972 RMK CU2AC2AC1 TCU ASOCTD SLP065=
CYYG;2005-08-17 20:00;METAR CYYG 172000Z 33008KT 15SM FEW030 SCT120 BKN290 23/12 A2971 RMK CU2AC2CI1 TCU ASOCTD CB TOP DIST W SLP061=
CYYG;2005-08-17 21:00;METAR CYYG 172100Z 31004KT 15SM FEW036TCU SCT090 21/11 A2972 RMK TCU1AC2 CB SW SLP063=
CYYG;2005-08-17 21:29;SPECI CYYG 172129Z 23008KT 15SM TS FEW030CB FEW036TCU BKN087 RMK CB2TCU1AC2 CB SW MOVG E=
CYYG;2005-08-17 21:56;SPECI CYYG 172156Z 24007KT 15SM FEW032CB FEW036TCU SCT050 BKN090 RETS RMK CB1TCU1SC2AC2 CB DIST SW MOVG E=
CYYG;2005-08-17 22:00;METAR CYYG 172200Z 26008KT 15SM FEW032CB FEW036TCU SCT050 BKN090 21/14 A2972 RETS RMK CB1TCU1SC2AC2 CB DIST SW MOVG E SLP064=
CYYG;2005-08-17 23:00;METAR CYYG 172300Z 25003KT 15SM FEW035TCU FEW050 FEW090 19/14 A2973 RMK TCU1SC1AC1 SLP067=
CYYG;2005-08-18 00:00;METAR CYYG 180000Z 35005KT 15SM FEW030CB FEW050 SCT090 17/13 A2977 RMK CB1SC1AC2 LTGIC NE SLP082=
CYYG;2005-08-18 01:00;METAR CYYG 180100Z 34006KT 15SM FEW030TCU FEW080 16/11 A2979 RMK TCU1AC2 SLP090=
CYYG;2005-08-18 02:00;METAR CYYG 180200Z 30004KT 15SM FEW050 FEW080 15/10 A2980 RMK SC1AC1 SLP092=
CYYG;2005-08-18 03:00;METAR CYYG 180300Z 28006KT 15SM FEW050 FEW080 14/09 A2980 RMK SC1AC1 SLP091=
CYYG;2005-08-18 04:00;METAR CYYG 180400Z 27007KT 15SM SKC 13/08 A2980 RMK SLP091=
CYYG;2005-08-18 05:00;METAR CYYG 180500Z 29008KT 15SM SKC 14/08 A2980 RMK SLP093=
CYYG;2005-08-18 06:00;METAR CYYG 180600Z 28008KT 15SM SKC 13/09 A2981 RMK SLP095=
CYYG;2005-08-18 07:00;METAR CYYG 180700Z 29009KT 15SM SKC 13/10 A2982 RMK SLP097=
CYYG;2005-08-18 08:00;METAR CYYG 180800Z 29006KT 15SM FEW035 13/10 A2982 RMK SC1 SLP098=
CYYG;2005-08-18 09:00;METAR CYYG 180900Z 30010G16KT 15SM FEW035 13/10 A2985 RMK SC1 SLP107=
CYYG;2005-08-18 10:00;METAR CYYG 181000Z 30010KT 15SM FEW035 13/10 A2987 RMK SC1 SLP114=
CYYG;2005-08-18 11:00;METAR CYYG 181100Z 30010G15KT 15SM FEW035 15/11 A2989 RMK SC1 SLP121=
CYYG;2005-08-18 12:00;METAR CYYG 181200Z 31013KT 15SM FEW035 16/12 A2990 RMK SC2 CU ASOCTD SLP126=
CYYG;2005-08-18 13:00;METAR CYYG 181300Z 31014KT 15SM BKN042 17/11 A2992 RMK CU5 SLP133=
CYYG;2005-08-18 14:00;METAR CYYG 181400Z 34012KT 15SM BKN036 18/10 A2993 RMK CU5 SLP137=
CYYG;2005-08-18 15:00;METAR CYYG 181500Z 35011KT 15SM BKN038 18/10 A2995 RMK CU6 SLP141=
CYYG;2005-08-18 16:00;METAR CYYG 181600Z 34004KT 15SM BKN038 BKN300 18/10 A2994 RMK CU6CI1 SLP140=
CYYG;2005-08-18 17:00;METAR CYYG 181700Z 36010G15KT 15SM BKN045 BKN300 19/09 A2994 RMK CU5CI1 SLP139=
CYYG;2005-08-18 19:00;METAR CYYG 181900Z 34007KT 15SM SCT060 SCT300 20/10 A2995 RMK CU3CI1 SLP143=
CYYG;2005-08-18 20:00;METAR CYYG 182000Z 33007KT 15SM FEW042 FEW060 20/09 A2995 RMK CU2SC1 SLP143=
CYYG;2005-08-18 21:00;METAR CYYG 182100Z 00000KT 15SM FEW045 BKN065 18/09 A2997 RMK CU2SC5 SLP149=
CYYG;2005-08-18 22:00;METAR CYYG 182200Z 35005KT 15SM VCSH FEW040 BKN055 BKN090 17/09 A2998 RMK CU2SC4AC1 SLP152=
CYYG;2005-08-18 23:00;METAR CYYG 182300Z 00000KT 15SM VCSH BKN054 BKN087 15/10 A2999 RMK SC5AC2 SLP157=
CYYG;2005-08-19 00:00;METAR CYYG 190000Z 00000KT 15SM SCT055 BKN087 14/10 A3001 RMK SC3AC2 SLP162=
CYYG;2005-08-19 01:00;METAR CYYG 190100Z 00000KT 15SM SCT060 BKN085 12/10 A3003 RMK SC3AC2 SLP169=
CYYG;2005-08-19 02:00;METAR CYYG 190200Z 00000KT 15SM SCT058 BKN085 13/10 A3004 RMK SC3AC2 SLP172=
CYYG;2005-08-19 03:00;METAR CYYG 190300Z 00000KT 15SM FEW058 SCT085 10/08 A3004 RMK SC2AC2 SLP172=
CYYG;2005-08-19 04:00;METAR CYYG 190400Z 00000KT 15SM FEW058 FEW085 09/08 A3006 RMK SC2AC1 SLP178=
CYYG;2005-08-19 05:00;METAR CYYG 190500Z 00000KT 15SM FEW085 10/08 A3006 RMK AC2 SLP180=
CYYG;2005-08-19 06:00;METAR CYYG 190600Z 00000KT 15SM FEW085 11/08 A3007 RMK AC2 SLP182=
CYYG;2005-08-19 07:00;METAR CYYG 190700Z 29004KT 15SM FEW055 FEW085 11/06 A3009 RMK SC1AC2 SLP190=
CYYG;2005-08-19 08:00;METAR CYYG 190800Z 29004KT 15SM SCT059 BKN085 13/06 A3011 RMK SC3AC2 SLP197=
CYYG;2005-08-19 09:00;METAR CYYG 190900Z 28005KT 15SM FEW060 FEW085 11/06 A3012 RMK SC1AC1 SLP199=
CYYG;2005-08-19 10:00;METAR CYYG 191000Z 28007KT 15SM FEW020 FEW085 11/07 A3013 RMK CF1AC1 SLP205=
CYYG;2005-08-19 11:00;METAR CYYG 191100Z 29007KT 15SM FEW020 FEW085 SCT250 14/09 A3016 RMK CU1AC1CI2 SLP213=
CYYG;2005-08-19 12:00;METAR CYYG 191200Z 29009KT 15SM FEW020 FEW250 16/10 A3017 RMK CU1CI1 SLP217=
CYYG;2005-08-19 13:00;METAR CYYG 191300Z 28007KT 15SM FEW020 FEW250 17/09 A3017 RMK CU1CI1 SLP217=
CYYG;2005-08-19 14:00;METAR CYYG 191400Z 31008KT 15SM FEW030 19/06 A3017 RMK CU2 SLP218=
CYYG;2005-08-19 15:00;METAR CYYG 191500Z 28011KT 15SM SCT045 19/07 A3017 RMK CU3 SLP218=
CYYG;2005-08-19 16:00;METAR CYYG 191600Z 27010KT 15SM SCT055 19/06 A3017 RMK CU4 SLP218=
CYYG;2005-08-19 17:00;METAR CYYG 191700Z 27010KT 15SM FEW055 20/07 A3017 RMK CU2 SLP218=
CYYG;2005-08-19 18:00;METAR CYYG 191800Z 28008KT 15SM FEW055 FEW300 20/06 A3017 RMK CU2CI1 SLP218=
CYYG;2005-08-19 19:00;METAR CYYG 191900Z 27009KT 15SM FEW055 FEW300 20/06 A3017 RMK CU1CI1 SLP216=
CYYG;2005-08-19 20:00;METAR CYYG 192000Z 00000KT 15SM FEW055 SCT300 21/06 A3017 RMK SC1CI1 SLP216=
CYYG;2005-08-19 21:00;METAR CYYG 192100Z 27005KT 15SM FEW055 BKN300 20/06 A3016 RMK SC1CI2 SLP215=
CYYG;2005-08-19 22:00;METAR CYYG 192200Z 00000KT 15SM BKN300 19/09 A3017 RMK CI2 SLP216=
CYYG;2005-08-19 23:00;METAR CYYG 192300Z 00000KT 15SM BKN300 15/09 A3019 RMK CI2 SLP224=
CYYG;2005-08-20 00:00;METAR CYYG 200000Z 00000KT 15SM BKN300 15/08 A3020 RMK CI2 SLP227=
CYYG;2005-08-20 02:00;METAR CYYG 200200Z 00000KT 15SM BKN300 14/09 A3021 RMK CI2 SLP232=
CYYG;2005-08-20 03:00;METAR CYYG 200300Z 19007KT 15SM BKN300 14/10 A3022 RMK CI2 SLP233=
CYYG;2005-08-20 04:00;METAR CYYG 200400Z 20007KT 15SM BKN300 16/10 A3022 RMK CI2 SLP234=
CYYG;2005-08-20 05:00;METAR CYYG 200500Z 19006KT 15SM BKN300 14/11 A3022 RMK CI2 SLP234=
CYYG;2005-08-20 06:00;METAR CYYG 200600Z 00000KT 15SM BKN300 15/11 A3021 RMK CI2 SLP229=
CYYG;2005-08-20 07:00;METAR CYYG 200700Z 21005KT 15SM BKN300 14/11 A3021 RMK CI2 SLP230=
CYYG;2005-08-20 08:00;METAR CYYG 200800Z 24005KT 15SM BKN300 14/10 A3021 RMK CI2 SLP231=
CYYG;2005-08-20 09:00;METAR CYYG 200900Z 00000KT 15SM SCT300 12/09 A3021 RMK CI2 SLP232=
CYYG;2005-08-20 10:00;METAR CYYG 201000Z 00000KT 15SM SCT300 13/09 A3023 RMK CI1 SLP238=
CYYG;2005-08-20 11:00;METAR CYYG 201100Z 00000KT 15SM FEW100 FEW300 15/11 A3025 RMK AC1CI1 SLP243=
CYYG;2005-08-20 12:00;METAR CYYG 201200Z 22007KT 15SM FEW100 FEW300 17/12 A3024 RMK AC1CI1 SLP242=
CYYG;2005-08-20 13:00;METAR CYYG 201300Z 21006KT 15SM FEW100 SCT300 18/12 A3025 RMK AC1CI1 SLP243=
CYYG;2005-08-20 14:00;METAR CYYG 201400Z 18007KT 15SM FEW140 BKN300 19/10 A3025 RMK AC2CI1 SLP243=
CYYG;2005-08-20 15:00;METAR CYYG 201500Z 19009KT 15SM BKN140 OVC300 20/07 A3023 RMK AC5CI1 SLP239=
CYYG;2005-08-20 16:00;METAR CYYG 201600Z 19008KT 15SM BKN140 OVC300 20/09 A3023 RMK AC6CI1 SLP238=
CYYG;2005-08-20 17:00;METAR CYYG 201700Z 17004KT 15SM BKN140 OVC300 21/09 A3022 RMK AC5CI1 SLP233=
CYYG;2005-08-20 18:00;METAR CYYG 201800Z 14005KT 15SM BKN130 OVC300 21/09 A3020 RMK AC6CI2 SLP227=
CYYG;2005-08-20 19:00;METAR CYYG 201900Z 15005KT 15SM OVC130 21/11 A3018 RMK AC6 SLP221=
CYYG;2005-08-20 20:00;METAR CYYG 202000Z 15007KT 15SM BKN130 23/12 A3017 RMK AC6 SLP216=
CYYG;2005-08-20 21:00;METAR CYYG 202100Z 18011KT 15SM SCT130 BKN260 22/11 A3016 RMK AC3CI2 SLP212=
CYYG;2005-08-20 22:00;METAR CYYG 202200Z 15006KT 15SM SCT160 BKN260 22/12 A3015 RMK AC3CI1 SLP209=
CYYG;2005-08-20 23:00;METAR CYYG 202300Z 17008KT 15SM SCT150 BKN260 20/13 A3015 RMK AC3CI1 SLP209=
CYYG;2005-08-21 00:00;METAR CYYG 210000Z 18010KT 15SM BKN150 BKN260 20/14 A3015 RMK AC5CI0 SLP211=
CYYG;2005-08-21 01:00;METAR CYYG 210100Z 17010G16KT 15SM FEW035 BKN150 BKN210 19/11 A3016 RMK SC2AC4CI1 SLP212=
CYYG;2005-08-21 02:00;METAR CYYG 210200Z 16010G15KT 15SM FEW035 FEW060 SCT150 BKN240 18/12 A3014 RMK SC1SC2AC2CI2 SLP207=
CYYG;2005-08-21 03:00;METAR CYYG 210300Z 17009KT 15SM FEW023 SCT040 OVC150 18/13 A3012 RMK SC2SC2AC4 SLP200=
CYYG;2005-08-21 04:00;METAR CYYG 210400Z 17011G16KT 15SM FEW025 SCT150 BKN210 18/14 A3010 RMK SC1AC2CI2 SLP194=
CYYG;2005-08-21 06:00;METAR CYYG 210600Z 16011KT 15SM SCT027 OVC046 17/15 A3007 RMK SC3SC5 SLP183=
CYYG;2005-08-21 06:14;SPECI CYYG 210614Z 16012KT 15SM -SHRA SCT027 OVC048 RMK SC4SC4=
CYYG;2005-08-21 07:00;METAR CYYG 210700Z 16009KT 15SM FEW023 BKN052 OVC080 17/15 A3004 RMK SC2SC5AC1 SLP172=
CYYG;2005-08-21 08:00;METAR CYYG 210800Z 16009KT 15SM FEW040 SCT080 OVC160 17/15 A3001 RMK SC2AC2AC5 SLP162=
CYYG;2005-08-21 09:00;METAR CYYG 210900Z 16012KT 15SM FEW040 BKN093 OVC240 18/15 A2999 RMK SC2AC4CI1 SLP157=
CYYG;2005-08-21 10:00;METAR CYYG 211000Z 17014KT 15SM FEW046 BKN100 BKN230 18/15 A2998 RMK SC2AC3CI1 SLP151=
CYYG;2005-08-21 11:00;METAR CYYG 211100Z 17015KT 15SM FEW046 BKN100 BKN230 19/16 A2995 RMK SC2AC3CI1 SLP143=
CYYG;2005-08-21 12:00;METAR CYYG 211200Z 16014G20KT 15SM FEW015 BKN140 BKN240 20/16 A2993 RMK SC2AC4CI2 SLP137=
CYYG;2005-08-21 12:18;SPECI CYYG 211218Z 17014G19KT 15SM FEW009 BKN068 BKN140 RMK SF2AC4AC2=
CYYG;2005-08-21 13:00;METAR CYYG 211300Z 17012KT 15SM FEW009 BKN063 BKN140 20/17 A2993 RMK SF1SC5AC2 SLP136=
CYYG;2005-08-21 14:00;METAR CYYG 211400Z 17011G17KT 15SM FEW012 BKN020 OVC060 21/18 A2991 RMK SF1SC6SC2 SLP129=
CYYG;2005-08-21 14:42;SPECI CYYG 211442Z 17013KT 15SM -SHRA FEW010 OVC019 RMK SF2SC6=
CYYG;2005-08-21 15:00;METAR CYYG 211500Z 17013KT 10SM -SHRA FEW010 OVC018 21/18 A2990 RMK SF2SC6 SLP124=
CYYG;2005-08-21 15:49;SPECI CYYG 211549Z 18011KT 15SM SCT017 BKN028 RMK SC3SC4=
CYYG;2005-08-21 16:00;METAR CYYG 211600Z 17010G16KT 15SM SCT017 BKN028 23/19 A2987 RMK SC4SC3 SLP116=
CYYG;2005-08-21 17:00;METAR CYYG 211700Z 18012G17KT 15SM SCT017 BKN030 23/19 A2985 RMK SC3SC4 SLP107=
CYYG;2005-08-21 18:00;METAR CYYG 211800Z 16008KT 15SM FEW017 BKN065 BKN240 24/19 A2981 RMK SC2SC3CI2 SLP094=
CYYG;2005-08-21 19:00;METAR CYYG 211900Z 16007KT 15SM FEW017 SCT065 BKN240 23/19 A2977 RMK SC2SC2CI3 SLP080=
CYYG;2005-08-21 19:06;SPECI CYYG 211906Z 16006KT 15SM -SHRA BKN021 BKN065 OVC240 RMK SC5SC2CI2=
CYYG;2005-08-21 20:00;METAR CYYG 212000Z 00000KT 15SM -SHRA SCT021 BKN110 OVC240 23/19 A2974 RMK SC3AC3CI2 SLP072=
CYYG;2005-08-21 20:39;SPECI CYYG 212039Z 16005KT 15SM FEW021 BKN110 BKN240 RMK SC2AC2CI2=
CYYG;2005-08-21 21:00;METAR CYYG 212100Z 16007KT 15SM FEW021 BKN110 BKN240 24/20 A2971 RMK SC2AC3CI2 SLP062=
CYYG;2005-08-21 22:00;METAR CYYG 212200Z 20008KT 15SM FEW021 SCT110 BKN240 23/20 A2971 RMK SC1AC2CI2 SLP062=
CYYG;2005-08-21 23:00;METAR CYYG 212300Z 18004KT 15SM BKN028 BKN100 BKN240 22/19 A2971 RMK SC5AC2CI0 SLP061=
CYYG;2005-08-22 00:00;METAR CYYG 220000Z 17004KT 15SM FEW028 OVC041 22/19 A2971 RMK SC2SC6 SLP059=
CYYG;2005-08-22 01:00;METAR CYYG 220100Z 18005KT 15SM SCT025 OVC064 21/19 A2970 RMK SC3SC5 SLP058=
CYYG;2005-08-22 02:00;METAR CYYG 220200Z 24004KT 12SM -SHRA SCT011 OVC033 21/19 A2971 RMK SC3SC5 SLP059=
CYYG;2005-08-22 03:00;METAR CYYG 220300Z 25008KT 12SM -SHRA FEW010 OVC020 21/18 A2970 RMK SC2SC6 SLP057=
CYYG;2005-08-22 03:27;SPECI CYYG 220327Z 25008KT 15SM SCT011 OVC025 RMK SC3SC5=
CYYG;2005-08-22 04:00;METAR CYYG 220400Z 24010KT 12SM OVC012 20/18 A2970 RMK SC8 SLP058=
CYYG;2005-08-22 04:29;SPECI CYYG 220429Z 24012G18KT 10SM -SHRA FEW007 OVC011 RMK SF2SC6=
CYYG;2005-08-22 05:00;METAR CYYG 220500Z 25011G18KT 12SM FEW005 OVC010 20/18 A2970 RMK SF2SC6 SLP058=
CYYG;2005-08-22 06:00;METAR CYYG 220600Z 25008KT 12SM FEW006 OVC013 19/17 A2971 RMK SF2SC6 SLP059=
CYYG;2005-08-22 08:00;METAR CYYG 220800Z 24009KT 12SM FEW007 SCT015 BKN096 18/16 A2972 RMK SF2SC2AC2 SLP064=
CYYG;2005-08-22 08:43;SPECI CYYG 220843Z 23007KT 10SM BKN002 BKN098 RMK SF5AC2=
CYYG;2005-08-22 09:00;METAR CYYG 220900Z 23007KT 6SM BR BKN002 BKN098 18/16 A2972 RMK SF5AC2 SLP065=
CYYG;2005-08-22 09:26;SPECI CYYG 220926Z 23008KT 5SM BR BKN003 BKN098 RMK SF6AC1=
CYYG;2005-08-22 09:50;SPECI CYYG 220950Z 24006KT 10SM BKN004 BKN098 BKN260 RMK SF5AC1CI1=
CYYG;2005-08-22 10:00;METAR CYYG 221000Z 24007KT 10SM BKN004 BKN098 BKN260 18/17 A2974 RMK SF5AC1CI1 SLP071=
CYYG;2005-08-22 11:00;METAR CYYG 221100Z 23009KT 15SM BKN005 BKN310 19/17 A2976 RMK SF5CI2 SLP078=
CYYG;2005-08-22 11:34;SPECI CYYG 221134Z 24008KT 15SM FEW006 SCT100 BKN310 RMK SF2AC1CI2=
CYYG;2005-08-22 12:00;METAR CYYG 221200Z 23008KT 15SM FEW006 FEW100 BKN310 19/17 A2977 RMK SF1AC1CI3 SLP079=
CYYG;2005-08-22 13:00;METAR CYYG 221300Z 22008KT 15SM FEW008 FEW100 SCT310 20/17 A2978 RMK CF1AC1CI2 SLP083=
CYYG;2005-08-22 14:00;METAR CYYG 221400Z 25005KT 15SM FEW008 FEW100 FEW310 22/17 A2978 RMK CF1AC1CI0 SLP085=
CYYG;2005-08-22 15:00;METAR CYYG 221500Z 27007KT 15SM FEW100 FEW310 24/16 A2978 RMK AC1CI1 SLP085=
CYYG;2005-08-22 16:00;METAR CYYG 221600Z 28002KT 15SM FEW030 FEW100 FEW310 26/14 A2978 RMK CU1AC1CI1 SLP083=
CYYG;2005-08-22 17:00;METAR CYYG 221700Z 17006KT 15SM FEW030 FEW100 27/17 A2977 RMK CU1AC1 SLP081=
CYYG;2005-08-22 18:00;METAR CYYG 221800Z 14010KT 15SM FEW035 FEW100 26/16 A2977 RMK CU1AC1 SLP082=
CYYG;2005-08-22 19:00;METAR CYYG 221900Z 18006KT 15SM FEW050 BKN110 26/14 A2977 RMK CU1AC6 SLP080=
CYYG;2005-08-22 20:00;METAR CYYG 222000Z 04007KT 15SM BKN048 BKN110 25/14 A2977 RMK SC6AC2 TCU ASOCTD SLP080=
CYYG;2005-08-22 20:40;SPECI CYYG 222040Z 07006KT 15SM -SHRA BKN045 BKN100 RMK SC5AC2 TCU ASOCTD SW=
CYYG;2005-08-22 21:00;METAR CYYG 222100Z 07006KT 15SM -SHRA SCT045 BKN090 22/16 A2977 RMK SC3AC4 TCU ASOCTD SW SLP080=
CYYG;2005-08-22 21:37;SPECI CYYG 222137Z 08008KT 15SM FEW050TCU BKN082 RMK TCU2AC5 CB ASOCTD SW MOVG NE=
CYYG;2005-08-22 22:00;METAR CYYG 222200Z 07007KT 15SM -TSRA FEW050TCU BKN080 20/15 A2977 RMK TCU2AC5 CB SE-S MOVG NE LTGCG SLP080=
CYYG;2005-08-22 23:00;METAR CYYG 222300Z 09006KT 15SM -SHRA FEW042TCU BKN090 18/16 A2977 RMK TCU2AC5 CB E-SE RETS SLP081=
CYYG;2005-08-22 23:32;SPECI CYYG 222332Z 09006KT 15SM FEW040 BKN110 RMK SC2AC5=
CYYG;2005-08-23 00:00;METAR CYYG 230000Z 09006KT 15SM FEW040 BKN110 18/15 A2977 RMK SC1AC6 SLP079=
CYYG;2005-08-23 01:00;METAR CYYG 230100Z 00000KT 15SM BKN110 17/15 A2978 RMK AC5 SLP084=
CYYG;2005-08-23 02:00;METAR CYYG 230200Z 00000KT 15SM FEW110 16/14 A2978 RMK AC2 SLP083=
CYYG;2005-08-23 03:00;METAR CYYG 230300Z 13005KT 15SM FEW110 15/14 A2977 RMK AC2 SLP082=
CYYG;2005-08-23 04:00;METAR CYYG 230400Z 12003KT 15SM FEW110 16/15 A2978 RMK AC2 SLP083=
CYYG;2005-08-23 05:00;METAR CYYG 230500Z 00000KT 15SM FEW050 16/14 A2978 RMK SC1 SLP084=
CYYG;2005-08-23 06:00;METAR CYYG 230600Z 32004KT 15SM SCT016 15/14 A2979 RMK SC4 SLP086=
CYYG;2005-08-23 07:00;METAR CYYG 230700Z 02003KT 15SM BKN013 16/15 A2978 RMK SC6 SLP084=
CYYG;2005-08-23 08:00;METAR CYYG 230800Z 00000KT 10SM OVC010 17/16 A2978 RMK SC8 SLP084=
CYYG;2005-08-23 08:20;SPECI CYYG 230820Z 00000KT 10SM OVC007 RMK SC8=
CYYG;2005-08-23 09:00;METAR CYYG 230900Z 00000KT 10SM OVC005 17/16 A2979 RMK SF8 SLP087=
CYYG;2005-08-23 09:15;SPECI CYYG 230915Z 00000KT 5SM BR OVC003 RMK SF8=
CYYG;2005-08-23 09:48;SPECI CYYG 230948Z 00000KT 3SM BR OVC002 RMK SF8=
CYYG;2005-08-23 10:00;METAR CYYG 231000Z 00000KT 1 1/2SM BR OVC003 18/16 A2980 RMK ST8 SLP092=
CYYG;2005-08-23 10:44;SPECI CYYG 231044Z 00000KT 4SM BR FEW003 OVC008 RMK SF2SF6 SUN OCNL VISBL=
CYYG;2005-08-23 11:00;METAR CYYG 231100Z 00000KT 5SM BR BKN004 OVC008 18/16 A2982 RMK SF5SF3 SUN OCNL VISBL SLP098=
CYYG;2005-08-23 11:18;SPECI CYYG 231118Z 26003KT 10SM OVC006 RMK SF8 SUN OCNL VISBL=
CYYG;2005-08-23 12:00;METAR CYYG 231200Z 00000KT 12SM FEW007 OVC010 19/16 A2983 RMK SF2SC6 SUN OCNL VISBL SLP103=
CYYG;2005-08-23 13:00;METAR CYYG 231300Z 30005KT 12SM FEW007 OVC010 19/16 A2985 RMK SF1SC7 SLP108=
CYYG;2005-08-23 14:00;METAR CYYG 231400Z 28004KT 15SM BKN014 20/16 A2986 RMK SC7 SLP112=
CYYG;2005-08-23 14:10;SPECI CYYG 231410Z 29006KT 15SM BKN016 RMK SC7=
CYYG;2005-08-23 15:00;METAR CYYG 231500Z 31005KT 15SM BKN018 22/16 A2986 RMK SC7 CU ASOCTD SLP113=
CYYG;2005-08-23 16:00;METAR CYYG 231600Z 35005G18KT 15SM BKN022 22/17 A2987 RMK CU6 SLP114=
CYYG;2005-08-23 17:00;METAR CYYG 231700Z 00000KT 15SM BKN022 23/17 A2987 RMK CU6 SLP115=
CYYG;2005-08-23 18:00;METAR CYYG 231800Z 14002KT 15SM BKN020 22/18 A2987 RMK CU6 MDT CU SLP116=
CYYG;2005-08-23 19:00;METAR CYYG 231900Z 08002KT 15SM BKN020 22/17 A2987 RMK CU6 MDT CU SLP117=
CYYG;2005-08-23 20:00;METAR CYYG 232000Z 02004KT 15SM BKN020 22/17 A2988 RMK CU6 TCU ASOCTD SLP120=
CYYG;2005-08-23 21:00;METAR CYYG 232100Z 01008KT 15SM FEW020 BKN110 21/17 A2990 RMK CU1AC4 SLP124=
CYYG;2005-08-23 22:00;METAR CYYG 232200Z 02007KT 15SM FEW020 BKN110 20/17 A2991 RMK CU1AC4 SLP129=
CYYG;2005-08-23 23:00;METAR CYYG 232300Z 05004KT 15SM BKN110 18/16 A2992 RMK AC5 SLP133=
CYYG;2005-08-24 00:00;METAR CYYG 240000Z 01004KT 15SM BKN110 17/15 A2994 RMK AC5 SLP138=
CYYG;2005-08-24 01:00;METAR CYYG 240100Z 00000KT 8SM SCT009 BKN020 17/15 A2996 RMK SF4SC3 SLP145=
CYYG;2005-08-24 01:09;SPECI CYYG 240109Z 00000KT 10SM OVC012 RMK SC8=
CYYG;2005-08-24 02:00;METAR CYYG 240200Z 00000KT 10SM OVC010 18/16 A2997 RMK SC8 SLP149=
CYYG;2005-08-24 03:00;METAR CYYG 240300Z 36004KT 12SM BKN013 17/15 A2997 RMK SC7 SLP148=
CYYG;2005-08-24 04:00;METAR CYYG 240400Z 01004KT 15SM OVC011 17/15 A2997 RMK SC8 SLP149=
CYYG;2005-08-24 05:00;METAR CYYG 240500Z 00000KT 15SM OVC014 17/15 A2998 RMK SC8 SLP151=
CYYG;2005-08-24 05:03;SPECI CYYG 240503Z 00000KT 12SM -SHRA BKN014 OVC099 RMK SC6AC2=
CYYG;2005-08-24 06:00;METAR CYYG 240600Z 00000KT 12SM -SHRA OVC014 17/15 A2998 RMK SC8 SLP151=
CYYG;2005-08-24 07:00;METAR CYYG 240700Z 36004KT 15SM OVC015 17/15 A2998 RMK SC8 SLP152=
CYYG;2005-08-24 08:00;METAR CYYG 240800Z 36003KT 15SM OVC018 17/15 A2998 RMK SC8 SLP152=
CYYG;2005-08-24 09:00;METAR CYYG 240900Z 01004KT 15SM OVC016 17/15 A2999 RMK SC8 SLP156=
CYYG;2005-08-24 10:00;METAR CYYG 241000Z 00000KT 15SM OVC018 17/15 A3001 RMK SC8 SLP163=
CYYG;2005-08-24 11:00;METAR CYYG 241100Z 34003KT 15SM VCSH FEW010 OVC016 17/15 A3003 RMK SF1SC7 SLP168=
CYYG;2005-08-24 11:16;SPECI CYYG 241116Z 34003KT 15SM -SHRA FEW010 OVC017 RMK CU1SC7 VIS W-NW 3=
CYYG;2005-08-24 12:00;METAR CYYG 241200Z 36007KT 15SM -SHRA FEW010 BKN021 17/15 A3004 RMK CU1SC6 SLP171=
CYYG;2005-08-24 12:44;SPECI CYYG 241244Z 36004KT 5SM -DZ BR SCT007 OVC023 RMK SF3SC5 VIS S-SW 15=
CYYG;2005-08-24 13:00;METAR CYYG 241300Z 01006KT 10SM -DZ BKN008 OVC021 17/15 A3004 RMK SF6SC2 VIS W-NE 3 SLP173=
CYYG;2005-08-24 13:18;SPECI CYYG 241318Z 36007KT 3SM -DZ BR OVC006 RMK SF8=
CYYG;2005-08-24 13:42;SPECI CYYG 241342Z 36010KT 3SM -DZ BR BKN004 OVC010 RMK SF6SF2=
CYYG;2005-08-24 14:00;METAR CYYG 241400Z 36007KT 6SM -DZ BR FEW004 BKN006 OVC013 17/15 A3005 RMK SF2SF4SC2 SLP177=
CYYG;2005-08-24 15:00;METAR CYYG 241500Z 01009KT 15SM -DZ BKN010 BKN022 17/14 A3006 RMK SC6SC2 VIS E 3 SLP180=
CYYG;2005-08-24 15:12;SPECI CYYG 241512Z 01008KT 15SM BKN012 RMK SC7=
CYYG;2005-08-24 16:00;METAR CYYG 241600Z 36009KT 15SM BKN011 OVC017 17/14 A3006 RMK SC6SC2 SLP179=
CYYG;2005-08-24 16:34;SPECI CYYG 241634Z 36009KT 10SM -DZ BKN010 OVC024 RMK SC6SC2 VIS W-NE 3=
CYYG;2005-08-24 17:00;METAR CYYG 241700Z 36008KT 10SM -DZ BKN010 OVC016 17/14 A3006 RMK SC6SC2 SLP181=
CYYG;2005-08-24 17:08;SPECI CYYG 241708Z 01010G15KT 10SM -DZ BKN009 OVC015 RMK SC6SC2=
CYYG;2005-08-24 17:27;SPECI CYYG 241727Z 36008KT 15SM FEW009 BKN017 RMK SC2SC6=
CYYG;2005-08-24 17:47;SPECI CYYG 241747Z 35010KT 15SM -SHRA BKN013 RMK SC7=
CYYG;2005-08-24 18:00;METAR CYYG 241800Z 01009KT 15SM -SHRA BKN013 17/14 A3006 RMK SC7 SLP181=
CYYG;2005-08-24 18:29;SPECI CYYG 241829Z 36009KT 15SM BKN013 RMK SC6=
CYYG;2005-08-24 18:51;SPECI CYYG 241851Z 35009G15KT 15SM -SHRA BKN018 RMK SC7=
CYYG;2005-08-24 19:00;METAR CYYG 241900Z 36011KT 15SM -SHRA BKN018 17/13 A3006 RMK SC7 SLP180=
CYYG;2005-08-24 19:51;SPECI CYYG 241951Z 36007KT 15SM VCSH BKN013 RMK SC7=
CYYG;2005-08-24 20:00;METAR CYYG 242000Z 36006KT 15SM VCSH BKN013 17/13 A3007 RMK SC7 SLP182=
CYYG;2005-08-24 21:00;METAR CYYG 242100Z 01009KT 15SM BKN016 16/12 A3007 RMK SC7 SLP184=
CYYG;2005-08-24 22:00;METAR CYYG 242200Z 36007KT 15SM -DZ OVC015 15/12 A3007 RMK SC8 SLP184=
CYYG;2005-08-24 23:00;METAR CYYG 242300Z 36007KT 15SM OVC021 15/12 A3007 RMK SC8 SLP184=
CYYG;2005-08-25 00:00;METAR CYYG 250000Z 36006KT 15SM OVC016 15/12 A3008 RMK SC8 SLP187=
CYYG;2005-08-25 01:00;METAR CYYG 250100Z 35008KT 15SM OVC021 15/13 A3008 RMK SC8 SLP187=
CYYG;2005-08-25 01:26;SPECI CYYG 250126Z 36008KT 10SM -SHRA OVC016 RMK SC8=
CYYG;2005-08-25 02:00;METAR CYYG 250200Z 34004KT 15SM -SHRA FEW010 OVC021 14/13 A3008 RMK SC2SC6 SLP185=
CYYG;2005-08-25 02:30;SPECI CYYG 250230Z 35006KT 15SM OVC025 RMK SC8=
CYYG;2005-08-25 03:00;METAR CYYG 250300Z 00000KT 15SM -SHRA FEW012 OVC023 15/13 A3007 RMK SC2SC6 SLP183=
CYYG;2005-08-25 04:00;METAR CYYG 250400Z 36007KT 15SM -SHRA BKN023 OVC030 15/13 A3007 RMK SC5SC3 SLP182=
CYYG;2005-08-25 05:00;METAR CYYG 250500Z 36006KT 15SM -SHRA FEW005 OVC020 14/13 A3004 RMK SF2SC6 SLP174=
CYYG;2005-08-25 06:00;METAR CYYG 250600Z 36005KT 15SM SCT010 OVC020 15/13 A3004 RMK SC3SC5 SLP173=
CYYG;2005-08-25 07:00;METAR CYYG 250700Z 36006KT 15SM OVC016 15/13 A3003 RMK SC8 SLP170=
CYYG;2005-08-25 08:00;METAR CYYG 250800Z 34005KT 15SM BKN006 OVC016 15/14 A3002 RMK SF5SC3 SLP166=
CYYG;2005-08-25 08:27;SPECI CYYG 250827Z 34008KT 15SM -SHRA BKN004 BKN008 OVC012 RMK SF5SF2SC2=
CYYG;2005-08-25 09:00;METAR CYYG 250900Z 35007KT 10SM -SHRA BKN006 OVC018 16/14 A3002 RMK SF6SC2 SLP165=
CYYG;2005-08-25 09:35;SPECI CYYG 250935Z 36010KT 4SM -SHRA BR BKN007 OVC020 RMK SF6SC2=
CYYG;2005-08-25 10:00;METAR CYYG 251000Z 35008G15KT 10SM -SHRA BKN009 OVC022 16/14 A3002 RMK SF6SC2 SLP166=
CYYG;2005-08-25 11:00;METAR CYYG 251100Z 35011G16KT 6SM -SHRA BR BKN007 OVC012 16/14 A3002 RMK SF7SC1 SLP166=
CYYG;2005-08-25 11:13;SPECI CYYG 251113Z 35014KT 3SM -SHRA BR OVC005 RMK SF8=
CYYG;2005-08-25 12:00;METAR CYYG 251200Z 36012G18KT 3SM -SHRA BR OVC006 16/15 A3002 RMK SF8 SLP165=
CYYG;2005-08-25 12:40;SPECI CYYG 251240Z 01009G18KT 6SM -SHRA BR OVC007 RMK SF8=
CYYG;2005-08-25 13:00;METAR CYYG 251300Z 01014KT 6SM -SHRA BR OVC005 16/14 A3003 RMK SF8 SLP168=
CYYG;2005-08-25 14:00;METAR CYYG 251400Z 02010G16KT 8SM -SHRA OVC007 16/14 A3004 RMK SF8 SLP171=
CYYG;2005-08-25 15:00;METAR CYYG 251500Z 02012KT 8SM -SHRA OVC008 16/14 A3003 RMK SF8 SLP170=
CYYG;2005-08-25 16:00;METAR CYYG 251600Z 01009G18KT 8SM -SHRA OVC009 16/14 A3002 RMK SF8 SLP167=
CYYG;2005-08-25 17:00;METAR CYYG 251700Z 01010KT 15SM -SHRA OVC012 16/15 A3001 RMK SC8 SLP164=
CYYG;2005-08-25 18:00;METAR CYYG 251800Z 36009KT 10SM -SHRA OVC011 16/14 A3002 RMK SC8 SLP165=
CYYG;2005-08-25 19:00;METAR CYYG 251900Z 35008KT 15SM OVC014 16/14 A3001 RMK SC8 SLP163=
CYYG;2005-08-25 19:33;SPECI CYYG 251933Z 36006KT 10SM -SHRA OVC014 RMK SC8=
CYYG;2005-08-25 20:00;METAR CYYG 252000Z 36007KT 15SM VCSH OVC017 15/13 A3002 RMK SC8 SLP165=
CYYG;2005-08-25 20:40;SPECI CYYG 252040Z 36006KT 10SM -DZ OVC015 RMK SC8=
CYYG;2005-08-25 21:00;METAR CYYG 252100Z 34006KT 15SM -DZ OVC014 15/13 A3002 RMK SC8 SLP166=
CYYG;2005-08-25 21:48;SPECI CYYG 252148Z 36004KT 15SM BKN018 RMK SC7=
CYYG;2005-08-25 22:00;METAR CYYG 252200Z 35004KT 15SM BKN018 15/12 A3001 RMK SC7 SLP164=
CYYG;2005-08-25 23:00;METAR CYYG 252300Z 33003KT 15SM FEW018 15/12 A3001 RMK SC2 SLP161=
CYYG;2005-08-26 00:00;METAR CYYG 260000Z 00000KT 15SM FEW120 13/11 A3001 RMK AC1 SLP164=
CYYG;2005-08-26 01:00;METAR CYYG 260100Z 31004KT 15SM FEW120 12/10 A3001 RMK AC1 SLP162=
CYYG;2005-08-26 02:00;METAR CYYG 260200Z 30003KT 15SM SCT057 12/10 A3001 RMK SC4 SLP161=
CYYG;2005-08-26 03:00;METAR CYYG 260300Z 00000KT 15SM BKN057 13/11 A3000 RMK SC6 SLP158=
CYYG;2005-08-26 04:00;METAR CYYG 260400Z 26004KT 15SM SCT055 13/11 A2999 RMK SC3 SLP156=
CYYG;2005-08-26 05:00;METAR CYYG 260500Z 27005KT 15SM FEW050 12/10 A2998 RMK SC2 SLP154=
CYYG;2005-08-26 06:00;METAR CYYG 260600Z 29004KT 15SM SKC 12/09 A2998 RMK SLP152=
CYYG;2005-08-26 07:00;METAR CYYG 260700Z 27005KT 15SM SKC 12/11 A2996 RMK SLP147=
CYYG;2005-08-26 08:00;METAR CYYG 260800Z 27004KT 15SM SKC 13/11 A2995 RMK SLP142=
CYYG;2005-08-26 09:00;METAR CYYG 260900Z 27005KT 15SM FEW240 13/11 A2995 RMK CI2 SLP142=
CYYG;2005-08-26 10:00;METAR CYYG 261000Z 26007KT 15SM BKN210 14/12 A2995 RMK CC5 SLP141=
CYYG;2005-08-26 11:00;METAR CYYG 261100Z 27007KT 15SM FEW005 SCT220 15/13 A2996 RMK SF1CC3 SLP144=
CYYG;2005-08-26 12:00;METAR CYYG 261200Z 27005KT 15SM FEW005 FEW220 FEW300 17/14 A2996 RMK SF1CC2CI1 SLP145=
CYYG;2005-08-26 13:00;METAR CYYG 261300Z 25006KT 15SM FEW005 FEW220 20/14 A2995 RMK SF1CC2 SLP142=
CYYG;2005-08-26 14:00;METAR CYYG 261400Z 27007KT 15SM FEW220 22/13 A2995 RMK CC1 SLP141=
CYYG;2005-08-26 15:00;METAR CYYG 261500Z 30008KT 15SM FEW040 FEW220 23/14 A2994 RMK CF1CC1 SLP138=
CYYG;2005-08-26 16:00;METAR CYYG 261600Z 33008KT 15SM FEW040 FEW220 24/15 A2993 RMK CF1CC1 SLP134=
CYYG;2005-08-26 17:00;METAR CYYG 261700Z 36009KT 15SM FEW040 FEW220 24/15 A2992 RMK CF1CC1 SLP133=
CYYG;2005-08-26 18:00;METAR CYYG 261800Z 01009KT 15SM FEW040 FEW300 23/12 A2993 RMK CU1CI1 SLP135=
CYYG;2005-08-26 19:00;METAR CYYG 261900Z 35007KT 15SM FEW040 FEW300 24/12 A2993 RMK CU1CI1 SLP134=
CYYG;2005-08-26 20:00;METAR CYYG 262000Z 02006KT 15SM FEW040 FEW300 23/12 A2993 RMK CU1CI1 SLP135=
CYYG;2005-08-26 21:00;METAR CYYG 262100Z 01005KT 15SM FEW040 SCT300 22/11 A2993 RMK CU1CI1 SLP134=
CYYG;2005-08-26 22:00;METAR CYYG 262200Z 00000KT 15SM FEW120 BKN300 21/11 A2994 RMK AC1CI2 SLP138=
CYYG;2005-08-26 23:00;METAR CYYG 262300Z 00000KT 15SM FEW170 BKN260 BKN310 18/11 A2995 RMK AC1CI1CI1 SLP143=
CYYG;2005-08-27 00:00;METAR CYYG 270000Z 00000KT 15SM FEW260 SCT310 17/11 A2997 RMK CI1CI1 SLP148=
CYYG;2005-08-27 01:00;METAR CYYG 270100Z 00000KT 15SM FEW310 13/11 A2999 RMK CI1 SLP156=
CYYG;2005-08-27 02:00;METAR CYYG 270200Z 00000KT 15SM FEW310 15/10 A2999 RMK CI1 SLP157=
CYYG;2005-08-27 03:00;METAR CYYG 270300Z 23006KT 15SM SKC 16/11 A3000 RMK SLP160=
CYYG;2005-08-27 04:00;METAR CYYG 270400Z 00000KT 15SM SKC 16/11 A3000 RMK SLP159=
CYYG;2005-08-27 05:00;METAR CYYG 270500Z 00000KT 15SM SKC 12/09 A3000 RMK SLP159=
CYYG;2005-08-27 06:00;METAR CYYG 270600Z 00000KT 15SM SKC 12/10 A3000 RMK SLP159=
CYYG;2005-08-27 07:00;METAR CYYG 270700Z 00000KT 15SM SKC 11/10 A3001 RMK SLP161=
CYYG;2005-08-27 08:00;METAR CYYG 270800Z 00000KT 15SM SKC 15/11 A3001 RMK SLP161=
CYYG;2005-08-27 09:00;METAR CYYG 270900Z 00000KT 15SM SKC 14/12 A3002 RMK SLP166=
CYYG;2005-08-27 10:00;METAR CYYG 271000Z 00000KT 15SM MIFG FEW300 15/13 A3003 RMK CI1 SLP170=
CYYG;2005-08-27 11:00;METAR CYYG 271100Z 00000KT 15SM FEW300 17/15 A3006 RMK CI0 SLP178=
CYYG;2005-08-27 12:00;METAR CYYG 271200Z 00000KT 15SM FEW300 19/15 A3006 RMK CI0 SLP181=
CYYG;2005-08-27 13:00;METAR CYYG 271300Z 00000KT 15SM FEW300 21/15 A3009 RMK CI0 SLP188=
CYYG;2005-08-27 14:00;METAR CYYG 271400Z 18006KT 15SM SCT300 24/14 A3009 RMK CI1 SLP191=
CYYG;2005-08-27 15:00;METAR CYYG 271500Z 17007KT 15SM SCT300 25/12 A3009 RMK CI1 SLP190=
CYYG;2005-08-27 16:00;METAR CYYG 271600Z 18006KT 15SM SCT300 25/13 A3009 RMK CI1 SLP188=
CYYG;2005-08-27 17:00;METAR CYYG 271700Z 17007KT 15SM FEW040 SCT300 26/11 A3008 RMK CU1CI1 SLP187=
CYYG;2005-08-27 18:00;METAR CYYG 271800Z 17009KT 15SM FEW040 BKN300 26/10 A3008 RMK CU1CI2 SLP185=
CYYG;2005-08-27 19:00;METAR CYYG 271900Z 18008KT 15SM FEW040 BKN300 26/11 A3007 RMK CU1CI2 SLP183=
CYYG;2005-08-27 20:00;METAR CYYG 272000Z 15004KT 15SM BKN300 26/12 A3006 RMK CI2 SLP180=
CYYG;2005-08-27 21:00;METAR CYYG 272100Z 19005KT 15SM BKN300 25/13 A3006 RMK CI2 SLP180=
CYYG;2005-08-27 22:00;METAR CYYG 272200Z 00000KT 15SM OVC300 23/13 A3007 RMK CS4 HALO SLP182=
CYYG;2005-08-27 23:00;METAR CYYG 272300Z 00000KT 15SM OVC300 21/14 A3007 RMK CS3 SLP184=
CYYG;2005-08-28 00:00;METAR CYYG 280000Z 24005KT 15SM BKN300 20/13 A3009 RMK CI2 SLP188=
CYYG;2005-08-28 01:00;METAR CYYG 280100Z 21005KT 15SM OVC300 20/13 A3009 RMK CS3 SLP190=
CYYG;2005-08-28 02:00;METAR CYYG 280200Z 21005KT 15SM OVC300 19/14 A3010 RMK CS6 SLP192=
CYYG;2005-08-28 03:00;METAR CYYG 280300Z 22007KT 15SM OVC300 19/13 A3011 RMK CS7 SLP195=
CYYG;2005-08-28 04:00;METAR CYYG 280400Z 23006KT 15SM OVC300 18/12 A3012 RMK CS4 SLP198=
CYYG;2005-08-28 05:00;METAR CYYG 280500Z 23005KT 15SM SCT300 17/12 A3012 RMK CI1 SLP199=
CYYG;2005-08-28 06:00;METAR CYYG 280600Z 24004KT 15SM FEW300 17/12 A3012 RMK CI0 SLP198=
CYYG;2005-08-28 07:00;METAR CYYG 280700Z 23007KT 15SM FEW300 17/11 A3012 RMK CI0 SLP198=
CYYG;2005-08-28 08:00;METAR CYYG 280800Z 22007KT 15SM FEW300 16/11 A3011 RMK CI0 SLP197=
CYYG;2005-08-28 09:00;METAR CYYG 280900Z 21006KT 15SM SCT300 16/12 A3011 RMK CI1 SLP197=
CYYG;2005-08-28 10:00;METAR CYYG 281000Z 20009KT 15SM SCT300 16/12 A3012 RMK CI1 SLP198=
CYYG;2005-08-28 11:00;METAR CYYG 281100Z 21010KT 15SM SCT300 17/12 A3013 RMK CI1 SLP203=
CYYG;2005-08-28 12:00;METAR CYYG 281200Z 22012KT 15SM SCT300 18/13 A3013 RMK CI1 SLP202=
CYYG;2005-08-28 13:00;METAR CYYG 281300Z 23009KT 15SM FEW300 19/14 A3014 RMK CI1 SLP207=
CYYG;2005-08-28 14:00;METAR CYYG 281400Z 22008KT 15SM FEW300 20/14 A3014 RMK CI2 SLP207=
CYYG;2005-08-28 15:00;METAR CYYG 281500Z 25015KT 15SM BKN300 22/14 A3014 RMK CI1 SLP207=
CYYG;2005-08-28 16:00;METAR CYYG 281600Z 23013G20KT 15SM BKN300 23/14 A3013 RMK CI1 SLP203=
CYYG;2005-08-28 17:00;METAR CYYG 281700Z 25013G18KT 15SM BKN300 24/14 A3012 RMK CI1 SLP198=
CYYG;2005-08-28 18:00;METAR CYYG 281800Z 23015G22KT 15SM BKN300 25/13 A3011 RMK CI1 SLP195=
CYYG;2005-08-28 19:00;METAR CYYG 281900Z 23012G22KT 15SM BKN300 25/14 A3009 RMK CI1 SLP191=
CYYG;2005-08-28 20:00;METAR CYYG 282000Z 25012G18KT 15SM FEW040 BKN300 25/14 A3009 RMK SC1CI1 SLP188=
CYYG;2005-08-28 21:00;METAR CYYG 282100Z 25012G22KT 15SM FEW070 BKN300 25/14 A3008 RMK AC1CI1 SLP187=
CYYG;2005-08-28 22:00;METAR CYYG 282200Z 26012G19KT 15SM FEW060 BKN300 24/14 A3009 RMK SC1CI2 SLP188=
CYYG;2005-08-28 23:00;METAR CYYG 282300Z 24013G19KT 15SM FEW060 FEW120 BKN300 22/15 A3009 RMK SC1AC1CI2 SLP191=
CYYG;2005-08-29 00:00;METAR CYYG 290000Z 25011G16KT 15SM BKN300 22/14 A3011 RMK CI2 SLP196=
CYYG;2005-08-29 01:00;METAR CYYG 290100Z 23008KT 15SM BKN300 21/14 A3012 RMK CI2 SLP201=
CYYG;2005-08-29 02:00;METAR CYYG 290200Z 22008KT 15SM BKN300 20/13 A3012 RMK CI1 SLP200=
CYYG;2005-08-29 03:00;METAR CYYG 290300Z 23009KT 15SM BKN300 20/13 A3012 RMK CI2 SLP201=
CYYG;2005-08-29 04:00;METAR CYYG 290400Z 24009KT 15SM OVC300 19/14 A3012 RMK CI3 SLP201=
CYYG;2005-08-29 05:00;METAR CYYG 290500Z 23006KT 15SM OVC300 18/14 A3012 RMK CS6 SLP200=
CYYG;2005-08-29 06:00;METAR CYYG 290600Z 21007KT 15SM FEW230 BKN300 18/14 A3012 RMK CC2CI1 SLP201=
CYYG;2005-08-29 07:00;METAR CYYG 290700Z 20004KT 15SM BKN090 BKN300 17/14 A3013 RMK AC5CI1 SLP204=
CYYG;2005-08-29 08:00;METAR CYYG 290800Z 19005KT 15SM OVC085 18/15 A3013 RMK AC8 SLP204=
CYYG;2005-08-29 09:00;METAR CYYG 290900Z 20007KT 15SM SCT085 18/15 A3014 RMK AC4 SLP208=
CYYG;2005-08-29 10:00;METAR CYYG 291000Z 21006KT 15SM FEW085 BKN160 19/16 A3015 RMK AC2AC2 SLP211=
CYYG;2005-08-29 11:00;METAR CYYG 291100Z 20009KT 15SM FEW010 BKN085 20/17 A3016 RMK SC2AC5 SLP214=
CYYG;2005-08-29 11:06;SPECI CYYG 291106Z 21008KT 15SM BKN009 BKN085 RMK SC6AC2=
CYYG;2005-08-29 12:00;METAR CYYG 291200Z 21009KT 15SM BKN008 20/17 A3016 RMK SC7 SLP214=
CYYG;2005-08-29 13:00;METAR CYYG 291300Z 22009KT 15SM BKN007 21/17 A3017 RMK SC7 SLP215=
CYYG;2005-08-29 14:00;METAR CYYG 291400Z 22008KT 15SM BKN009 BKN280 22/18 A3017 RMK SC5CI2 SLP215=
CYYG;2005-08-29 14:09;SPECI CYYG 291409Z 22008KT 15SM BKN011 BKN280 RMK SC5CI1=
CYYG;2005-08-29 14:51;SPECI CYYG 291451Z 22010KT 15SM SCT011 BKN280 RMK SC3CI2=
CYYG;2005-08-29 15:00;METAR CYYG 291500Z 20008KT 15SM SCT011 BKN280 24/19 A3015 RMK SC3CI2 SLP210=
CYYG;2005-08-29 16:00;METAR CYYG 291600Z 20008KT 15SM SCT020 BKN280 25/19 A3015 RMK SC4CI2 SLP211=
CYYG;2005-08-29 17:00;METAR CYYG 291700Z 22008KT 15SM SCT045 BKN280 26/19 A3014 RMK SC4CI2 SLP208=
CYYG;2005-08-29 18:00;METAR CYYG 291800Z 20008KT 15SM FEW040 SCT066 BKN280 26/19 A3014 RMK SC2AC2CI2 SLP206=
CYYG;2005-08-29 19:00;METAR CYYG 291900Z 18008KT 15SM FEW040 SCT065 BKN280 26/19 A3014 RMK SC2SC2CI2 SLP206=
CYYG;2005-08-29 20:00;METAR CYYG 292000Z 19005KT 15SM FEW040 BKN088 BKN280 26/18 A3013 RMK SC2AC2CI2 SLP204=
CYYG;2005-08-29 21:00;METAR CYYG 292100Z 29005KT 15SM FEW040 BKN072 BKN280 24/18 A3013 RMK SC2AC3CI2 SLP204=
CYYG;2005-08-29 22:00;METAR CYYG 292200Z 18004KT 15SM BKN053 BKN280 24/18 A3012 RMK SC5CI2 SLP201=
CYYG;2005-08-29 23:00;METAR CYYG 292300Z 00000KT 15SM FEW053 SCT140 BKN300 23/17 A3013 RMK SC2AC2CI2 SLP203=
CYYG;2005-08-30 00:00;METAR CYYG 300000Z 21008KT 15SM FEW070 SCT160 BKN190 BKN300 23/16 A3014 RMK AC2AC2AC2CI1 SLP208=
CYYG;2005-08-30 01:00;METAR CYYG 300100Z 20008KT 15SM FEW070 BKN160 BKN300 22/16 A3016 RMK AC2AC3CI1 SLP212=
CYYG;2005-08-30 02:00;METAR CYYG 300200Z 20007KT 15SM FEW160 BKN180 BKN300 21/16 A3016 RMK AC2AC3CI0 SLP213=
CYYG;2005-08-30 03:00;METAR CYYG 300300Z 20006KT 15SM FEW064 FEW160 BKN190 21/16 A3016 RMK SC2AC1AC4 SLP214=
CYYG;2005-08-30 04:00;METAR CYYG 300400Z 20005KT 15SM SCT180 BKN200 20/16 A3015 RMK AC3CI3 SLP211=
CYYG;2005-08-30 05:00;METAR CYYG 300500Z 20006KT 15SM OVC200 20/16 A3014 RMK CI8 SLP207=
CYYG;2005-08-30 06:00;METAR CYYG 300600Z 16006KT 15SM BKN200 19/16 A3014 RMK CI4 SLP205=
CYYG;2005-08-30 07:00;METAR CYYG 300700Z 18005KT 15SM BKN200 19/16 A3013 RMK CI4 SLP204=
CYYG;2005-08-30 08:00;METAR CYYG 300800Z 17007KT 15SM BKN200 19/17 A3012 RMK CI4 SLP200=
CYYG;2005-08-30 09:00;METAR CYYG 300900Z 18008KT 15SM BKN200 19/17 A3011 RMK CI6 SLP197=
CYYG;2005-08-30 09:04;SPECI CYYG 300904Z 18008KT 15SM FEW009 BKN200 RMK SC2CI4=
CYYG;2005-08-30 09:07;SPECI CYYG 300907Z 18008KT 15SM BKN009 BKN200 RMK SC6CI2=
CYYG;2005-08-30 10:00;METAR CYYG 301000Z 17005KT 15SM BKN008 BKN200 19/17 A3011 RMK SF6CI1 SLP197=
CYYG;2005-08-30 11:00;METAR CYYG 301100Z 17007KT 15SM BKN007 20/17 A3011 RMK SF7 SLP197=
CYYG;2005-08-30 11:51;SPECI CYYG 301151Z 17009KT 15SM OVC008 RMK SF8=
CYYG;2005-08-30 12:00;METAR CYYG 301200Z 18012KT 15SM OVC008 20/17 A3012 RMK SF8 SLP198=
CYYG;2005-08-30 13:00;METAR CYYG 301300Z 19009KT 15SM OVC007 20/18 A3012 RMK SF8 SLP199=
CYYG;2005-08-30 14:00;METAR CYYG 301400Z 18008KT 15SM SCT010 OVC270 21/18 A3011 RMK SC3CS5 SLP196=
CYYG;2005-08-30 15:00;METAR CYYG 301500Z 20008KT 15SM FEW010 FEW070 OVC270 22/18 A3009 RMK SC2AC1CS6 SLP190=
CYYG;2005-08-30 16:00;METAR CYYG 301600Z 19010KT 15SM FEW010 FEW070 OVC150 22/18 A3007 RMK SC1ACC1AS7 SLP183=
CYYG;2005-08-30 17:00;METAR CYYG 301700Z 20009KT 15SM FEW080 OVC130 22/18 A3007 RMK ACC2AS6 SLP183=
CYYG;2005-08-30 18:00;METAR CYYG 301800Z 18008KT 15SM FEW050 OVC095 23/18 A3006 RMK CU2AS6 SLP178=
CYYG;2005-08-30 19:00;METAR CYYG 301900Z 20005KT 15SM -SHRA FEW050 OVC100 23/19 A3005 RMK CU1AC7 ACC ASOCTD SLP175=
CYYG;2005-08-30 19:38;SPECI CYYG 301938Z 00000KT 15SM FEW050 OVC120 RMK CU1AC7=
CYYG;2005-08-30 19:52;SPECI CYYG 301952Z 22004KT 15SM -SHRA FEW050 OVC110 RMK CU2AC6=
CYYG;2005-08-30 20:00;METAR CYYG 302000Z 20004KT 15SM -SHRA FEW050 OVC110 23/19 A3005 RMK CU2AC6 SLP175=
CYYG;2005-08-30 21:00;METAR CYYG 302100Z 00000KT 15SM -SHRA FEW025TCU OVC110 23/18 A3003 RMK TCU1AC7 LN TCU NE-S SLP170=
CYYG;2005-08-30 22:00;METAR CYYG 302200Z 00000KT 15SM -SHRA FEW025TCU BKN047 OVC070 22/18 A3003 RMK TCU1SC4AC3 SLP169=
CYYG;2005-08-30 23:00;METAR CYYG 302300Z 14008KT 15SM -SHRA FEW025TCU BKN050 OVC110 21/19 A3001 RMK TCU1SC4AC3 SLP164=
CYYG;2005-08-31 00:00;METAR CYYG 310000Z 13004KT 15SM SCT020 BKN050 OVC110 21/18 A3002 RMK SC3SC2AC3 SLP166=
CYYG;2005-08-31 01:00;METAR CYYG 310100Z 15008KT 15SM FEW020 BKN070 OVC130 20/18 A3001 RMK SC2AC3AC2 SLP161=
CYYG;2005-08-31 02:00;METAR CYYG 310200Z 22010G15KT 8SM -SHRA FEW020 SCT040 OVC068 20/18 A3001 RMK SC2SC2AC4 SLP162=
CYYG;2005-08-31 03:00;METAR CYYG 310300Z 19005KT 12SM -SHRA FEW020 BKN040 OVC080 20/18 A3000 RMK SC2SC4AC2 SLP158=
CYYG;2005-08-31 04:00;METAR CYYG 310400Z 22005KT 15SM -SHRA FEW010 SCT030 OVC070 20/18 A3000 RMK SF2SC2AC4 SLP159=
CYYG;2005-08-31 05:00;METAR CYYG 310500Z 20008KT 15SM -SHRA BKN020 OVC070 20/18 A2999 RMK SC6AC2 SLP155=
CYYG;2005-08-31 06:00;METAR CYYG 310600Z 21007KT 15SM -SHRA BKN019 OVC070 20/17 A2998 RMK SC7AC1 SLP153=
CYYG;2005-08-31 07:00;METAR CYYG 310700Z 21004KT 15SM OVC024 20/16 A2998 RMK SC8 SLP152=
CYYG;2005-08-31 08:00;METAR CYYG 310800Z 22006KT 15SM OVC024 19/16 A2998 RMK SC8 SLP151=
CYYG;2005-08-31 09:00;METAR CYYG 310900Z 18008KT 15SM FEW012 OVC021 19/16 A2998 RMK SC2SC6 SLP151=
CYYG;2005-08-31 09:37;SPECI CYYG 310937Z 18007KT 4SM BR FEW006 OVC013 RMK SF2SC6=
CYYG;2005-08-31 09:46;SPECI CYYG 310946Z 17006KT 2SM -DZ BR BKN002 BKN006 OVC011 RMK SF5SF2SC2=
CYYG;2005-08-31 10:00;METAR CYYG 311000Z 18007KT 2SM -DZ BR FEW002 OVC006 18/17 A2997 RMK SF2SF6 SLP150=
CYYG;2005-08-31 10:24;SPECI CYYG 311024Z 17008KT 5SM -DZ BR FEW002 BKN004 OVC023 RMK SF2SF5SC2=
CYYG;2005-08-31 10:49;SPECI CYYG 311049Z 16006KT 10SM -DZ FEW003 OVC026 RMK SF2SC6=
CYYG;2005-08-31 11:00;METAR CYYG 311100Z 16006KT 12SM -DZ FEW003 OVC023 19/17 A2997 RMK SF2SC6 SLP148=
CYYG;2005-08-31 11:25;SPECI CYYG 311125Z 17007KT 15SM FEW003 OVC018 RMK SF1SC7=
CYYG;2005-08-31 12:00;METAR CYYG 311200Z 17007KT 15SM OVC017 20/17 A2997 RMK SC8 VIS LWR W-NW SLP149=
CYYG;2005-08-31 12:19;SPECI CYYG 311219Z 18007KT 10SM -DZ OVC016 RMK SC8=
CYYG;2005-08-31 12:45;SPECI CYYG 311245Z 18009KT 2SM -DZ BR FEW006 OVC016 RMK SF2SC6=
CYYG;2005-08-31 13:00;METAR CYYG 311300Z 18007KT 3SM -DZ BR BKN005 OVC016 19/17 A2997 RMK SF5SC3 SLP148=
CYYG;2005-08-31 13:19;SPECI CYYG 311319Z 17006KT 4SM -DZ BR BKN003 OVC011 RMK SF6SF2=
CYYG;2005-08-31 13:39;SPECI CYYG 311339Z 18006KT 4SM -RA BR BKN003 OVC012 RMK SF5SF3=
CYYG;2005-08-31 14:00;METAR CYYG 311400Z 18007KT 4SM -RA BR BKN003 OVC010 19/18 A2996 RMK SF5SF3 SLP146=
CYYG;2005-08-31 15:00;METAR CYYG 311500Z 18007KT 3SM -RA BR OVC003 20/18 A2995 RMK SF8 SLP143=
CYYG;2005-08-31 15:14;SPECI CYYG 311514Z 19006KT 2SM -RADZ BR BKN002 OVC010 RMK SF5SF3=
CYYG;2005-08-31 16:00;METAR CYYG 311600Z 18005KT 5SM -RADZ BR FEW002 BKN004 OVC011 20/18 A2993 RMK SF2SF3SC2 SLP137=
CYYG;2005-08-31 16:08;SPECI CYYG 311608Z 18006KT 15SM BKN004 OVC022 RMK SF6SC2 VIS NW-NE 5=
CYYG;2005-08-31 16:26;SPECI CYYG 311626Z 17004KT 15SM -RA BKN004 OVC021 RMK SF6SC2=
CYYG;2005-08-31 17:00;METAR CYYG 311700Z 17008KT 3SM -RA BR BKN005 BKN009 OVC015 20/18 A2993 RMK SF6SF2SC1 SLP135=
CYYG;2005-08-31 17:20;SPECI CYYG 311720Z 18006KT 2SM -RA BR BKN003 OVC015 RMK SF6SC2=
CYYG;2005-08-31 18:00;METAR CYYG 311800Z 16005KT 4SM -RA BR BKN004 BKN006 OVC015 21/19 A2992 RMK SF5SF2SC2 SLP133=
CYYG;2005-08-31 19:00;METAR CYYG 311900Z 16007KT 3SM RA BR BKN002 OVC005 20/18 A2991 RMK SF5SF3 SLP128=
CYYG;2005-08-31 19:24;SPECI CYYG 311924Z 14008KT 5SM -RA BR OVC003 RERA RMK SF8=
CYYG;2005-08-31 19:33;SPECI CYYG 311933Z 14009KT 10SM -RA SCT003 OVC075 RERA RMK SF3AC5=
CYYG;2005-08-31 20:00;METAR CYYG 312000Z 16007KT 15SM -RA FEW003 FEW020 OVC068 20/19 A2989 RERA RMK SF1SC2AC6 TCU SE SLP122=
CYYG;2005-08-31 20:39;SPECI CYYG 312039Z 16008KT 15SM -RA BKN012 OVC032 RMK SC6SC2=
CYYG;2005-08-31 21:00;METAR CYYG 312100Z 15007KT 10SM -RA BKN007 OVC011 21/19 A2987 RMK SF6SC2 SLP114=
CYYG;2005-08-31 21:38;SPECI CYYG 312138Z 15008G15KT 15SM -RA BKN005 OVC020 RMK SF2SC6=
CYYG;2005-08-31 22:00;METAR CYYG 312200Z 15009KT 15SM -RA BKN005 OVC022 21/19 A2986 RMK SF5SC3 SLP111=
CYYG;2005-08-31 22:15;SPECI CYYG 312215Z 15010KT 15SM -RA SCT006 OVC028 RMK SF3SC5=
CYYG;2005-08-31 23:00;METAR CYYG 312300Z 16011KT 6SM -RA BR BKN006 OVC020 21/19 A2985 RMK SF6SC2 SLP110=
CYYG;2005-09-01 00:00;METAR CYYG 010000Z 15011KT 6SM -RA BR BKN006 OVC020 21/19 A2985 RMK SF7SC1 SLP107=
CYYG;2005-09-01 01:00;METAR CYYG 010100Z 16012KT 6SM -RA BR BKN006 OVC016 21/19 A2983 RMK SF6SC2 SLP101=
CYYG;2005-09-01 01:25;SPECI CYYG 010125Z 16013G18KT 10SM SCT006 OVC020 RMK SF4SC4=
CYYG;2005-09-01 03:00;METAR CYYG 010300Z 16014G20KT 15SM FEW006 BKN028 OVC160 21/19 A2980 RMK SF2SC4AC2 SLP090=
CYYG;2005-09-01 04:00;METAR CYYG 010400Z 17013G18KT 15SM FEW006 BKN018 OVC160 21/19 A2979 RMK SF1SC5AC2 SLP087=
CYYG;2005-09-01 05:00;METAR CYYG 010500Z 17012G19KT 15SM FEW020 SCT160 21/19 A2977 RMK SC2AC2 SLP081=
CYYG;2005-09-01 06:00;METAR CYYG 010600Z 16013G18KT 15SM BKN018 22/19 A2975 RMK SC6 SLP074=
CYYG;2005-09-01 07:00;METAR CYYG 010700Z 16013KT 15SM FEW020 22/19 A2971 RMK SC2 SLP060=
CYYG;2005-09-01 08:00;METAR CYYG 010800Z 17017G24KT 15SM FEW020 22/19 A2969 RMK SC2 SLP054=
CYYG;2005-09-01 09:00;METAR CYYG 010900Z 17016G21KT 15SM SCT022 22/19 A2968 RMK SC3 SLP050=
CYYG;2005-09-01 10:00;METAR CYYG 011000Z 16012G18KT 15SM BKN021 22/19 A2967 RMK SC7 SLP046=
CYYG;2005-09-01 11:00;METAR CYYG 011100Z 17015KT 15SM BKN020 BKN100 23/20 A2966 RMK SC6AC1 SLP042=
CYYG;2005-09-01 11:43;SPECI CYYG 011143Z 18016G21KT 15SM -SHRA BKN023 BKN050 RMK SC6SC2=
CYYG;2005-09-01 12:00;METAR CYYG 011200Z 18017G25KT 15SM BKN021 BKN050 23/20 A2965 RMK SC6SC1 TCU ASOCTD SLP039=
CYYG;2005-09-01 13:00;METAR CYYG 011300Z 17017G22KT 15SM BKN020 BKN050 23/20 A2964 RMK SC6SC2 TCU ASOCTD SW SLP036=
CYYG;2005-09-01 14:00;METAR CYYG 011400Z 18018KT 15SM BKN020 BKN060 24/20 A2962 RMK SC6SC2 SLP030=
CYYG;2005-09-01 14:33;SPECI CYYG 011433Z 18019G25KT 15SM -SHRA BKN026 BKN050 RMK SC6SC1 TCU EMBDD VIS W-NW 3=
CYYG;2005-09-01 14:41;SPECI CYYG 011441Z 18019G24KT 2 1/2SM +SHRA OVC025 RMK SC8 TCU EMBDD=
CYYG;2005-09-01 14:53;SPECI CYYG 011453Z 19015G22KT 10SM -SHRA OVC021 RERA RMK SC8 TCU EMBDD=
CYYG;2005-09-01 15:00;METAR CYYG 011500Z 18015G21KT 15SM -SHRA FEW006 OVC021 23/20 A2960 RERA RMK SF1SC8 SLP025=
CYYG;2005-09-01 15:31;SPECI CYYG 011531Z 18017KT 15SM FEW020 SCT060 BKN075 RMK SC2SC2AC3 TCU ASOCTD=
CYYG;2005-09-01 16:00;METAR CYYG 011600Z 19020G29KT 15SM -SHRA FEW020 BKN046 OVC085 24/21 A2959 RMK SC2SC3AC2 SLP020=
CYYG;2005-09-01 17:00;METAR CYYG 011700Z 18019G24KT 10SM -SHRA BKN016 OVC035 23/20 A2959 RMK SC6SC2 SLP019=
CYYG;2005-09-01 17:08;SPECI CYYG 011708Z 18022G28KT 4SM SHRA FEW006 BKN016 OVC035 RMK SF2SC6SC1=
CYYG;2005-09-01 18:00;METAR CYYG 011800Z 18013G20KT 7SM -SHRA FEW002 BKN008 OVC030 23/21 A2958 RERA RMK SF1SF5SC2 SLP015=
CYYG;2005-09-01 19:00;METAR CYYG 011900Z 18013KT 15SM -SHRA FEW004 OVC020 22/21 A2957 RMK SF2SC6 SLP012=
CYYG;2005-09-01 19:41;SPECI CYYG 011941Z 25008KT 2 1/2SM -SHRA BR BKN004 OVC015 RMK SF6SC2=
CYYG;2005-09-01 20:00;METAR CYYG 012000Z 25009G15KT 2SM -SHRA BR BKN004 OVC012 21/19 A2959 RMK SF6SC2 SLP019=
CYYG;2005-09-01 20:18;SPECI CYYG 012018Z 27009KT 6SM -SHRA BR FEW004 BKN010 RMK SF2SC5=
CYYG;2005-09-01 20:39;SPECI CYYG 012039Z 26005KT 15SM FEW004 FEW010 BKN024 RMK SF1SC1SC6=
CYYG;2005-09-01 21:00;METAR CYYG 012100Z 25006KT 15SM FEW005 FEW024 BKN050 21/18 A2960 RMK SF1SC2SC5 SLP024=
CYYG;2005-09-01 22:00;METAR CYYG 012200Z 23008KT 15SM FEW005 SCT014 BKN050 21/18 A2962 RMK SF1SC2SC2 SLP030=
CYYG;2005-09-01 23:00;METAR CYYG 012300Z 22006KT 15SM FEW014 SCT050 20/17 A2965 RMK SC2SC2 SLP039=
CYYG;2005-09-02 00:00;METAR CYYG 020000Z 22005KT 15SM FEW050 19/17 A2968 RMK SC2 SLP049=
CYYG;2005-09-02 01:00;METAR CYYG 020100Z 22007KT 15SM FEW050 19/17 A2969 RMK SC1 SLP054=
CYYG;2005-09-02 02:00;METAR CYYG 020200Z 21005KT 15SM FEW050 19/17 A2971 RMK SC1 SLP061=
CYYG;2005-09-02 02:07;SPECI CYYG 020207Z 21005KT 15SM FEW005 FEW050 RMK SF1SC1=
CYYG;2005-09-02 03:00;METAR CYYG 020300Z 24005KT 15SM FEW005 FEW050 19/15 A2972 RMK SF1SC1 SLP063=
CYYG;2005-09-02 04:00;METAR CYYG 020400Z 22005KT 15SM SKC 18/16 A2973 RMK SLP067=
CYYG;2005-09-02 05:00;METAR CYYG 020500Z 24006KT 15SM SKC 18/16 A2973 RMK SLP067=
CYYG;2005-09-02 06:00;METAR CYYG 020600Z 25006KT 15SM SKC 17/15 A2974 RMK SLP069=
CYYG;2005-09-02 07:00;METAR CYYG 020700Z 24006KT 15SM SKC 17/15 A2974 RMK SLP069=
CYYG;2005-09-02 08:00;METAR CYYG 020800Z 26005KT 15SM SKC 17/14 A2974 RMK SLP072=
CYYG;2005-09-02 09:00;METAR CYYG 020900Z 24004KT 15SM SKC 16/14 A2975 RMK SLP075=
CYYG;2005-09-02 10:00;METAR CYYG 021000Z 24006KT 15SM SKC 16/14 A2977 RMK SLP081=
CYYG;2005-09-02 11:00;METAR CYYG 021100Z 24006KT 15SM SKC 17/14 A2978 RMK SLP085=
CYYG;2005-09-02 12:00;METAR CYYG 021200Z 24007KT 15SM FEW030 19/15 A2979 RMK CF1 SLP088=
CYYG;2005-09-02 13:00;METAR CYYG 021300Z 24008KT 15SM FEW030 20/16 A2979 RMK CF1 SLP088=
CYYG;2005-09-02 14:00;METAR CYYG 021400Z 25006KT 15SM FEW030 22/16 A2979 RMK CU1 SLP088=
CYYG;2005-09-02 15:00;METAR CYYG 021500Z 21006KT 15SM FEW030 23/17 A2978 RMK CU1 SLP085=
CYYG;2005-09-02 16:00;METAR CYYG 021600Z 23007KT 15SM FEW030 24/16 A2977 RMK CU1 SLP082=
CYYG;2005-09-02 17:00;METAR CYYG 021700Z 21010KT 15SM FEW040 24/15 A2977 RMK CU1 SLP079=
CYYG;2005-09-02 18:00;METAR CYYG 021800Z 24010G16KT 15SM FEW040 25/15 A2975 RMK CU1 SLP074=
CYYG;2005-09-02 19:00;METAR CYYG 021900Z 23008G15KT 15SM FEW040 26/16 A2974 RMK CU1 SLP069=
CYYG;2005-09-02 20:00;METAR CYYG 022000Z 20008KT 15SM FEW040 25/17 A2973 RMK CU1 SLP067=
CYYG;2005-09-02 21:00;METAR CYYG 022100Z 20007KT 15SM FEW040 24/17 A2972 RMK CU1 SLP065=
CYYG;2005-09-02 22:00;METAR CYYG 022200Z 20007KT 15SM SKC 23/17 A2972 RMK SLP064=
CYYG;2005-09-02 23:00;METAR CYYG 022300Z 23005KT 15SM SKC 22/16 A2972 RMK SLP064=
CYYG;2005-09-03 00:00;METAR CYYG 030000Z 25006KT 15SM SKC 20/15 A2973 RMK SLP068=
CYYG;2005-09-03 01:00;METAR CYYG 030100Z 23006KT 15SM SKC 19/14 A2973 RMK SLP067=
CYYG;2005-09-03 02:00;METAR CYYG 030200Z 23007KT 15SM SKC 19/14 A2973 RMK SLP068=
CYYG;2005-09-03 03:00;METAR CYYG 030300Z 22006KT 15SM SKC 19/14 A2972 RMK SLP064=
CYYG;2005-09-03 04:00;METAR CYYG 030400Z 23008KT 15SM SKC 18/14 A2971 RMK SLP060=
CYYG;2005-09-03 05:00;METAR CYYG 030500Z 22007KT 15SM SKC 18/14 A2970 RMK SLP056=
CYYG;2005-09-03 06:00;METAR CYYG 030600Z 22007KT 15SM SKC 18/14 A2969 RMK SLP052=
CYYG;2005-09-03 07:00;METAR CYYG 030700Z 22009KT 15SM SKC 18/14 A2968 RMK SLP049=
CYYG;2005-09-03 08:00;METAR CYYG 030800Z 21007KT 15SM FEW060 FEW095 18/13 A2967 RMK SC1AC1 SLP048=
CYYG;2005-09-03 09:00;METAR CYYG 030900Z 23008KT 15SM FEW060 FEW090 17/13 A2967 RMK SC1AC1 SLP048=
CYYG;2005-09-03 10:00;METAR CYYG 031000Z 23005KT 15SM FEW060 FEW110 SCT300 17/14 A2969 RMK SC1AC1CI0 SLP052=
CYYG;2005-09-03 11:00;METAR CYYG 031100Z 24011KT 15SM FEW020 FEW110 SCT300 18/14 A2969 RMK CF1AC1CI0 SLP055=
CYYG;2005-09-03 12:00;METAR CYYG 031200Z 25010G16KT 15SM FEW017 FEW110 18/14 A2970 RMK CU2AC1 SLP058=
CYYG;2005-09-03 13:00;METAR CYYG 031300Z 26013G18KT 15SM FEW017 FEW110 19/13 A2971 RMK CU1AC1 SLP059=
CYYG;2005-09-03 14:00;METAR CYYG 031400Z 27013G18KT 15SM FEW018 20/13 A2971 RMK CU1 SLP060=
CYYG;2005-09-03 15:00;METAR CYYG 031500Z 26010G17KT 15SM FEW020 21/13 A2972 RMK CU2 SLP063=
CYYG;2005-09-03 16:00;METAR CYYG 031600Z 26014KT 15SM FEW037 22/13 A2971 RMK CU2 SLP061=
CYYG;2005-09-03 17:00;METAR CYYG 031700Z 25014KT 15SM FEW034 22/14 A2971 RMK CU2 SLP062=
CYYG;2005-09-03 18:00;METAR CYYG 031800Z 22015KT 15SM FEW033 23/14 A2971 RMK CU2 SLP060=
CYYG;2005-09-03 19:00;METAR CYYG 031900Z 25009KT 15SM BKN038TCU 22/14 A2972 RMK TCU5 SLP063=
CYYG;2005-09-03 20:00;METAR CYYG 032000Z 26010KT 15SM FEW042TCU FEW070 23/13 A2973 RMK TCU2AC1 SLP067=
CYYG;2005-09-03 21:00;METAR CYYG 032100Z 25005KT 15SM FEW042TCU FEW070 23/13 A2974 RMK TCU1AC1 SLP071=
CYYG;2005-09-03 22:00;METAR CYYG 032200Z 25009KT 15SM FEW070 21/14 A2976 RMK AC1 SLP077=
CYYG;2005-09-03 23:00;METAR CYYG 032300Z 25005KT 15SM FEW070 19/14 A2978 RMK AC1 SLP084=
CYYG;2005-09-04 00:00;METAR CYYG 040000Z 25005KT 15SM SKC 19/14 A2981 RMK SLP094=
CYYG;2005-09-04 01:00;METAR CYYG 040100Z 26006KT 15SM FEW060 18/14 A2982 RMK SC1 SLP099=
CYYG;2005-09-04 02:00;METAR CYYG 040200Z 26005KT 15SM FEW060 17/14 A2984 RMK SC1 SLP105=
CYYG;2005-09-04 03:00;METAR CYYG 040300Z 27005KT 15SM FEW060 16/13 A2986 RMK SC1 SLP112=
CYYG;2005-09-04 04:00;METAR CYYG 040400Z 29002KT 15SM FEW060 16/12 A2987 RMK SC1 SLP117=
CYYG;2005-09-04 05:00;METAR CYYG 040500Z 27004KT 15SM FEW060 16/12 A2988 RMK SC1 SLP119=
CYYG;2005-09-04 06:00;METAR CYYG 040600Z 25005KT 15SM SKC 15/12 A2990 RMK SLP124=
CYYG;2005-09-04 07:00;METAR CYYG 040700Z 28006KT 15SM SKC 14/11 A2990 RMK SLP127=
CYYG;2005-09-04 08:00;METAR CYYG 040800Z 30003KT 15SM SKC 14/11 A2992 RMK SLP131=
CYYG;2005-09-04 09:00;METAR CYYG 040900Z 29004KT 15SM SKC 13/10 A2994 RMK SLP138=
CYYG;2005-09-04 10:00;METAR CYYG 041000Z 29005KT 15SM FEW030 FEW300 14/11 A2996 RMK SC1CI1 SLP146=
CYYG;2005-09-04 11:00;METAR CYYG 041100Z 29006KT 15SM FEW030 15/12 A2999 RMK SC1 SLP155=
CYYG;2005-09-04 12:00;METAR CYYG 041200Z 30007KT 15SM FEW030 17/13 A3001 RMK SC1 SLP161=
CYYG;2005-09-04 13:00;METAR CYYG 041300Z 33006KT 15SM FEW030 18/13 A3002 RMK CU1 SLP167=
CYYG;2005-09-04 14:00;METAR CYYG 041400Z 34005KT 15SM FEW025 19/13 A3004 RMK CU2 SLP171=
CYYG;2005-09-04 15:00;METAR CYYG 041500Z 32006KT 15SM FEW032 20/13 A3004 RMK CU2 SLP174=
CYYG;2005-09-04 16:00;METAR CYYG 041600Z 33010KT 15SM SCT032 20/13 A3005 RMK CU4 SLP176=
CYYG;2005-09-04 17:00;METAR CYYG 041700Z 34007KT 15SM FEW030TCU 19/12 A3006 RMK TCU2 SLP180=
CYYG;2005-09-04 18:00;METAR CYYG 041800Z 35005KT 15SM FEW030 BKN049 BKN300 19/12 A3008 RMK CU1SC4CI1 TCU EMBDD SLP185=
CYYG;2005-09-04 19:00;METAR CYYG 041900Z 35006KT 15SM BKN038 BKN300 20/11 A3009 RMK SC5CI1 SLP190=
CYYG;2005-09-04 20:00;METAR CYYG 042000Z 32010KT 15SM FEW038 FEW058 FEW120 21/10 A3009 RMK CU1SC1AC1 SLP190=
CYYG;2005-09-04 21:00;METAR CYYG 042100Z 35006KT 15SM FEW058 FEW160 20/09 A3010 RMK CU1AC2 SLP194=
CYYG;2005-09-04 22:00;METAR CYYG 042200Z 36006KT 15SM SCT073 18/10 A3012 RMK AC3 SLP201=
CYYG;2005-09-04 23:00;METAR CYYG 042300Z 00000KT 15SM FEW070 FEW160 15/10 A3014 RMK AC1AC1 SLP207=
CYYG;2005-09-05 00:00;METAR CYYG 050000Z 00000KT 15SM FEW160 14/10 A3016 RMK AC1 SLP215=
CYYG;2005-09-05 01:00;METAR CYYG 050100Z 00000KT 15SM SCT080 12/10 A3017 RMK AC3 SLP216=
CYYG;2005-09-05 02:00;METAR CYYG 050200Z 00000KT 15SM BKN081 14/10 A3018 RMK AC5 SLP222=
CYYG;2005-09-05 03:00;METAR CYYG 050300Z 00000KT 15SM BKN083 15/10 A3020 RMK AC6 SLP225=
CYYG;2005-09-05 04:00;METAR CYYG 050400Z 30003KT 15SM BKN080 15/09 A3020 RMK AC6 SLP228=
CYYG;2005-09-05 05:00;METAR CYYG 050500Z 30002KT 15SM SCT080 14/09 A3020 RMK AC3 SLP228=
CYYG;2005-09-05 06:00;METAR CYYG 050600Z 28004KT 15SM SCT070 13/09 A3021 RMK AC2 SLP230=
CYYG;2005-09-05 07:00;METAR CYYG 050700Z 29003KT 15SM FEW070 12/08 A3021 RMK AC1 SLP232=
CYYG;2005-09-05 08:00;METAR CYYG 050800Z 27006KT 15SM FEW070 13/09 A3022 RMK AC1 SLP235=
CYYG;2005-09-05 09:00;METAR CYYG 050900Z 28006KT 15SM FEW070 13/09 A3024 RMK AC1 SLP242=
CYYG;2005-09-05 11:00;METAR CYYG 051100Z 30008KT 15SM FEW030 FEW070 14/10 A3028 RMK CU1AC1 SLP253=
CYYG;2005-09-05 12:00;METAR CYYG 051200Z 31009KT 15SM FEW030 FEW070 16/11 A3028 RMK CU1AC1 SLP256=
CYYG;2005-09-05 13:00;METAR CYYG 051300Z 33009KT 15SM FEW030 17/12 A3030 RMK CU2 SLP260=
CYYG;2005-09-05 14:00;METAR CYYG 051400Z 34007G15KT 15SM SCT023 18/10 A3031 RMK CU3 SLP264=
CYYG;2005-09-05 15:00;METAR CYYG 051500Z 34008KT 15SM FEW040 18/09 A3031 RMK CU2 SLP266=
CYYG;2005-09-05 16:00;METAR CYYG 051600Z 36011KT 15SM FEW041 18/08 A3031 RMK CU2 SLP265=
CYYG;2005-09-05 17:00;METAR CYYG 051700Z 34007G15KT 15SM SCT039 18/09 A3032 RMK CU3 SLP269=
CYYG;2005-09-05 18:00;METAR CYYG 051800Z 34007KT 15SM FEW036 19/09 A3032 RMK CU2 SLP269=
CYYG;2005-09-05 19:00;METAR CYYG 051900Z 36009KT 15SM FEW036 18/09 A3032 RMK CU2 SLP269=
CYYG;2005-09-05 20:00;METAR CYYG 052000Z 34009KT 15SM FEW036 18/09 A3033 RMK CU1 SLP271=
CYYG;2005-09-05 21:00;METAR CYYG 052100Z 35005KT 15SM FEW036 17/09 A3035 RMK SC1 SLP277=
CYYG;2005-09-05 22:00;METAR CYYG 052200Z 35004KT 15SM FEW035 FEW270 15/08 A3036 RMK SC1CI1 SLP283=
CYYG;2005-09-05 23:00;METAR CYYG 052300Z 00000KT 15SM FEW270 14/09 A3038 RMK CI1 SLP287=
CYYG;2005-09-06 00:00;METAR CYYG 060000Z 00000KT 15SM FEW270 12/08 A3039 RMK CI1 SLP292=
CYYG;2005-09-06 01:00;METAR CYYG 060100Z 00000KT 15SM FEW270 10/07 A3039 RMK CI1 SLP293=
CYYG;2005-09-06 03:00;METAR CYYG 060300Z 00000KT 15SM SKC 08/06 A3040 RMK SLP295=
CYYG;2005-09-06 04:00;METAR CYYG 060400Z 22004KT 15SM SKC 11/08 A3039 RMK SLP293=
CYYG;2005-09-06 05:00;METAR CYYG 060500Z 00000KT 15SM SKC 09/07 A3041 RMK SLP297=
CYYG;2005-09-06 06:00;METAR CYYG 060600Z 23005KT 15SM SKC 12/08 A3040 RMK SLP295=
CYYG;2005-09-06 07:00;METAR CYYG 060700Z 00000KT 15SM SKC 12/07 A3039 RMK SLP293=
CYYG;2005-09-06 08:00;METAR CYYG 060800Z 23005KT 15SM FEW270 12/08 A3040 RMK CI1 SLP295=
CYYG;2005-09-06 09:00;METAR CYYG 060900Z 23004KT 15SM FEW025 FEW270 12/09 A3041 RMK SC1CI1 SLP298=
CYYG;2005-09-06 11:00;METAR CYYG 061100Z 00000KT 15SM FEW025 SCT150 BKN300 13/10 A3042 RMK SC1AC3CI0 SLP303=
CYYG;2005-09-06 12:00;METAR CYYG 061200Z 23004KT 15SM FEW025 BKN150 BKN300 14/11 A3042 RMK SC1AC5CI1 SLP302=
CYYG;2005-09-06 13:00;METAR CYYG 061300Z 25005KT 15SM FEW025 FEW160 SCT300 17/12 A3042 RMK SC1AC2CI0 SLP303=
CYYG;2005-09-06 14:00;METAR CYYG 061400Z 30003KT 15SM FEW025 FEW160 BKN300 19/10 A3041 RMK SC1AC2CI0 SLP299=
CYYG;2005-09-06 15:00;METAR CYYG 061500Z 24005KT 15SM FEW025 SCT140 BKN300 20/10 A3040 RMK SC1AC3CI0 SLP296=
CYYG;2005-09-06 16:00;METAR CYYG 061600Z 24004KT 15SM FEW140 SCT300 21/12 A3039 RMK AC2CI1 SLP291=
CYYG;2005-09-06 17:00;METAR CYYG 061700Z 26007KT 15SM FEW140 SCT300 22/10 A3037 RMK AC2CI1 SLP286=
CYYG;2005-09-06 18:00;METAR CYYG 061800Z 24007KT 15SM FEW140 SCT300 23/08 A3035 RMK AC1CI1 SLP279=
CYYG;2005-09-06 19:00;METAR CYYG 061900Z 27007KT 15SM BKN300 22/08 A3034 RMK CI2 SLP275=
CYYG;2005-09-06 20:00;METAR CYYG 062000Z 25008KT 15SM BKN300 22/08 A3032 RMK CI2 SLP269=
CYYG;2005-09-06 21:00;METAR CYYG 062100Z 26006KT 15SM BKN300 22/09 A3032 RMK CI2 SLP267=
CYYG;2005-09-06 22:00;METAR CYYG 062200Z 25006KT 15SM BKN300 21/08 A3031 RMK CI6 SLP264=
CYYG;2005-09-06 23:00;METAR CYYG 062300Z 22004KT 15SM BKN300 18/10 A3032 RMK CI5 SLP267=
CYYG;2005-09-07 00:00;METAR CYYG 070000Z 22005KT 15SM BKN300 18/12 A3031 RMK CI2 SLP266=
CYYG;2005-09-07 01:00;METAR CYYG 070100Z 22006KT 15SM BKN300 17/12 A3030 RMK CI2 SLP262=
CYYG;2005-09-07 02:00;METAR CYYG 070200Z 22005KT 15SM BKN300 16/11 A3029 RMK CI2 SLP257=
CYYG;2005-09-07 03:00;METAR CYYG 070300Z 25001KT 15SM BKN300 16/10 A3030 RMK CI1 SLP260=
CYYG;2005-09-07 04:00;METAR CYYG 070400Z 25005KT 15SM SCT300 15/10 A3029 RMK CI1 SLP257=
CYYG;2005-09-07 05:00;METAR CYYG 070500Z 23006KT 15SM BKN300 15/10 A3028 RMK CI1 SLP254=
CYYG;2005-09-07 06:00;METAR CYYG 070600Z 23007KT 15SM SCT300 15/11 A3027 RMK CI1 SLP249=
CYYG;2005-09-07 07:00;METAR CYYG 070700Z 23007KT 15SM FEW300 15/12 A3026 RMK CI0 SLP246=
CYYG;2005-09-07 08:00;METAR CYYG 070800Z 24007KT 15SM SKC 14/12 A3025 RMK SLP243=
CYYG;2005-09-07 09:00;METAR CYYG 070900Z 25009KT 15SM FEW300 14/12 A3024 RMK CI0 SLP240=
CYYG;2005-09-07 10:00;METAR CYYG 071000Z 25009KT 15SM FEW300 15/12 A3024 RMK CI1 SLP240=
CYYG;2005-09-07 11:00;METAR CYYG 071100Z 24010KT 15SM FEW300 16/12 A3023 RMK CI1 SLP236=
CYYG;2005-09-07 12:00;METAR CYYG 071200Z 26010G15KT 15SM FEW300 17/13 A3022 RMK CI1 SLP233=
CYYG;2005-09-07 13:00;METAR CYYG 071300Z 25007KT 15SM FEW300 19/14 A3021 RMK CI1 SLP230=
CYYG;2005-09-07 14:00;METAR CYYG 071400Z 24008KT 15SM FEW300 20/14 A3019 RMK CI1 SLP222=
CYYG;2005-09-07 15:00;METAR CYYG 071500Z 25010KT 15SM FEW300 22/14 A3017 RMK CI1 SLP218=
CYYG;2005-09-07 16:00;METAR CYYG 071600Z 25010G15KT 15SM SCT300 23/14 A3017 RMK CI1 SLP217=
CYYG;2005-09-07 17:00;METAR CYYG 071700Z 27009G18KT 15SM SCT300 23/14 A3016 RMK CI1 SLP213=
CYYG;2005-09-07 18:00;METAR CYYG 071800Z 23014KT 15SM FEW300 23/15 A3014 RMK CI1 SLP206=
CYYG;2005-09-07 19:00;METAR CYYG 071900Z 26011G18KT 15SM FEW300 24/14 A3012 RMK CI1 SLP200=
CYYG;2005-09-07 20:00;METAR CYYG 072000Z 25010G17KT 15SM FEW300 24/14 A3011 RMK CI1 SLP196=
CYYG;2005-09-07 21:00;METAR CYYG 072100Z 25013KT 15SM FEW300 23/14 A3009 RMK CI0 SLP191=
CYYG;2005-09-07 22:00;METAR CYYG 072200Z 26010G17KT 15SM FEW300 22/13 A3008 RMK CI0 SLP187=
CYYG;2005-09-07 23:00;METAR CYYG 072300Z 26008KT 15SM SKC 20/13 A3008 RMK SLP186=
CYYG;2005-09-08 00:00;METAR CYYG 080000Z 25009KT 15SM SKC 19/12 A3008 RMK SLP186=
CYYG;2005-09-08 01:00;METAR CYYG 080100Z 23007KT 15SM SKC 18/12 A3006 RMK SLP181=
CYYG;2005-09-08 02:00;METAR CYYG 080200Z 22006KT 15SM SKC 17/13 A3005 RMK SLP176=
CYYG;2005-09-08 03:00;METAR CYYG 080300Z 24007KT 15SM SKC 17/13 A3005 RMK SLP175=
CYYG;2005-09-08 04:00;METAR CYYG 080400Z 24005KT 15SM SKC 16/13 A3004 RMK SLP174=
CYYG;2005-09-08 05:00;METAR CYYG 080500Z 23007KT 15SM SKC 16/13 A3004 RMK SLP174=
CYYG;2005-09-08 06:00;METAR CYYG 080600Z 24006KT 15SM SKC 15/13 A3004 RMK SLP171=
CYYG;2005-09-08 07:00;METAR CYYG 080700Z 24007KT 15SM SKC 15/13 A3002 RMK SLP165=
CYYG;2005-09-08 08:00;METAR CYYG 080800Z 34009KT 15SM SKC 15/13 A3001 RMK SLP162=
CYYG;2005-09-08 09:00;METAR CYYG 080900Z 23010KT 15SM SKC 15/13 A3000 RMK SLP158=
CYYG;2005-09-08 10:00;METAR CYYG 081000Z 23006KT 15SM SKC 15/13 A3000 RMK SLP160=
CYYG;2005-09-08 11:00;METAR CYYG 081100Z 24006KT 15SM SKC 16/14 A3001 RMK SLP161=
CYYG;2005-09-08 12:00;METAR CYYG 081200Z 23009KT 15SM FEW015 17/14 A2999 RMK SC1 SLP157=
CYYG;2005-09-08 13:00;METAR CYYG 081300Z 25011KT 15SM FEW015 19/14 A3000 RMK SC1 SLP158=
CYYG;2005-09-08 14:00;METAR CYYG 081400Z 25009KT 15SM SKC 20/15 A2999 RMK SLP156=
CYYG;2005-09-08 15:00;METAR CYYG 081500Z 25005KT 15SM FEW300 21/16 A2998 RMK CI0 SLP153=
CYYG;2005-09-08 16:00;METAR CYYG 081600Z 27005KT 15SM SKC 23/15 A2997 RMK SLP148=
CYYG;2005-09-08 17:00;METAR CYYG 081700Z 26002KT 15SM SKC 25/16 A2995 RMK SLP143=
CYYG;2005-09-08 18:00;METAR CYYG 081800Z 29005KT 15SM FEW040 26/15 A2994 RMK CU1 SLP139=
CYYG;2005-09-08 19:00;METAR CYYG 081900Z 27004KT 15SM FEW040 26/15 A2993 RMK CU1 SLP134=
CYYG;2005-09-08 20:00;METAR CYYG 082000Z 22007KT 15SM FEW040 25/16 A2992 RMK CU1 SLP133=
CYYG;2005-09-08 21:00;METAR CYYG 082100Z 25006KT 15SM FEW040 25/15 A2992 RMK CU1 SLP133=
CYYG;2005-09-08 22:00;METAR CYYG 082200Z 24005KT 15SM SKC 23/15 A2992 RMK SLP132=
CYYG;2005-09-08 23:00;METAR CYYG 082300Z 25005KT 15SM FEW120 21/14 A2993 RMK AC1 SLP135=
CYYG;2005-09-09 00:00;METAR CYYG 090000Z 23006KT 15SM FEW120 20/14 A2993 RMK AC1 SLP136=
CYYG;2005-09-09 01:00;METAR CYYG 090100Z 20006KT 15SM SKC 19/15 A2992 RMK SLP133=
CYYG;2005-09-09 02:00;METAR CYYG 090200Z 20008KT 15SM FEW053 19/15 A2991 RMK SC2 SLP130=
CYYG;2005-09-09 03:00;METAR CYYG 090300Z 23007KT 15SM FEW053 19/14 A2990 RMK SC2 SLP127=
CYYG;2005-09-09 04:00;METAR CYYG 090400Z 23006KT 15SM FEW056 19/14 A2990 RMK SC2 SLP124=
CYYG;2005-09-09 05:00;METAR CYYG 090500Z 23006KT 15SM SCT045 18/14 A2989 RMK SC4 SLP122=
CYYG;2005-09-09 06:00;METAR CYYG 090600Z 23005KT 15SM FEW045 17/14 A2988 RMK SC2 SLP119=
CYYG;2005-09-09 06:46;SPECI CYYG 090646Z 25005KT 10SM BKN005 BKN045 RMK SF5SC2=
CYYG;2005-09-09 07:00;METAR CYYG 090700Z 23004KT 10SM BKN005 OVC045 17/14 A2987 RMK SF6SC2 SLP115=
CYYG;2005-09-09 08:00;METAR CYYG 090800Z 00000KT 10SM OVC008 17/14 A2987 RMK SF8 SLP113=
CYYG;2005-09-09 09:00;METAR CYYG 090900Z 00000KT 10SM SCT008 OVC014 17/15 A2987 RMK SF4SC4 SLP113=
CYYG;2005-09-09 10:00;METAR CYYG 091000Z 00000KT 6SM BR OVC011 17/15 A2987 RMK SC8 SLP116=
CYYG;2005-09-09 10:36;SPECI CYYG 091036Z 00000KT 4SM BR BKN006 OVC010 RMK SF6SC2=
CYYG;2005-09-09 11:00;METAR CYYG 091100Z 00000KT 4SM BR SCT006 OVC010 17/15 A2988 RMK SF3SC5 SLP117=
CYYG;2005-09-09 11:15;SPECI CYYG 091115Z 35012G18KT 15SM -SHRA SCT006 OVC016 RMK SF3SC5 APRNT FROPA=
CYYG;2005-09-09 11:41;SPECI CYYG 091141Z 36013G19KT 15SM FEW006 BKN024 BKN100 BKN170 RMK SF1SC5AC1AC2=
CYYG;2005-09-09 12:00;METAR CYYG 091200Z 03015KT 15SM FEW006 FEW024 BKN100 BKN170 16/13 A2987 RMK SF1SC2AC3AC2 SLP116=
CYYG;2005-09-09 13:00;METAR CYYG 091300Z 04010KT 15SM FEW020 SCT040 BKN090 BKN270 17/13 A2990 RMK SC1SC3AC2CI2 SLP125=
CYYG;2005-09-09 14:00;METAR CYYG 091400Z 36011KT 15SM SCT018 BKN090 BKN270 18/13 A2991 RMK SC3AC2CI1 SLP128=
CYYG;2005-09-09 15:00;METAR CYYG 091500Z 36009KT 15SM BKN016 BKN032 18/14 A2992 RMK SC6SC1 SLP132=
CYYG;2005-09-09 16:00;METAR CYYG 091600Z 36009KT 15SM BKN018 BKN055 18/13 A2992 RMK SC6SC1 SLP131=
CYYG;2005-09-09 17:00;METAR CYYG 091700Z 03009KT 15SM BKN022 BKN070 18/12 A2992 RMK SC6AC1 SLP132=
CYYG;2005-09-09 18:00;METAR CYYG 091800Z 03010KT 15SM OVC025 18/12 A2993 RMK SC8 SLP134=
CYYG;2005-09-09 19:00;METAR CYYG 091900Z 34008KT 15SM OVC017 16/12 A2993 RMK SC8 SLP136=
CYYG;2005-09-09 20:00;METAR CYYG 092000Z 36007KT 15SM VCSH FEW015 OVC025 16/12 A2994 RMK SC2SC6 SLP139=
CYYG;2005-09-09 21:00;METAR CYYG 092100Z 35004KT 15SM VCSH FEW015 SCT025 BKN050 16/12 A2994 RMK SC1SC2SC3 SLP138=
CYYG;2005-09-09 22:00;METAR CYYG 092200Z 00000KT 15SM SCT025 BKN050 15/11 A2994 RMK SC3SC2 SLP140=
CYYG;2005-09-09 23:00;METAR CYYG 092300Z 00000KT 15SM FEW025 SCT050 14/11 A2995 RMK SC1SC2 SLP141=
CYYG;2005-09-10 00:00;METAR CYYG 100000Z 00000KT 15SM FEW050 12/10 A2996 RMK SC2 SLP144=
CYYG;2005-09-10 01:00;METAR CYYG 100100Z 00000KT 15SM FEW050 13/10 A2996 RMK SC2 SLP144=
CYYG;2005-09-10 02:00;METAR CYYG 100200Z 00000KT 15SM FEW110 11/09 A2996 RMK AC2 SLP146=
CYYG;2005-09-10 03:00;METAR CYYG 100300Z 00000KT 15SM SCT110 13/11 A2996 RMK AC4 SLP144=
CYYG;2005-09-10 03:47;SPECI CYYG 100347Z 27007KT 15SM BKN011 BKN091 RMK SC5AC2=
CYYG;2005-09-10 04:00;METAR CYYG 100400Z 27005KT 15SM SCT011 OVC089 14/11 A2994 RMK SC4AC4 SLP140=
CYYG;2005-09-10 05:00;METAR CYYG 100500Z 25004KT 15SM FEW014 OVC089 13/11 A2992 RMK SC2AC6 SLP133=
CYYG;2005-09-10 06:00;METAR CYYG 100600Z 00000KT 15SM SCT089 13/10 A2992 RMK AC4 SLP133=
CYYG;2005-09-10 07:00;METAR CYYG 100700Z 29006KT 15SM FEW090 13/10 A2992 RMK AC2 SLP131=
CYYG;2005-09-10 08:00;METAR CYYG 100800Z 29007KT 15SM FEW090 13/10 A2992 RMK AC2 SLP132=
CYYG;2005-09-10 09:00;METAR CYYG 100900Z 29008KT 15SM SCT090 13/11 A2992 RMK AC3 LTG DIST W SLP133=
CYYG;2005-09-10 09:53;SPECI CYYG 100953Z 29008KT 15SM -TSRA BKN020TCU BKN090 12/ RMK TCU5AC1 CB ASOCTD W OCNL LTGCG=
CYYG;2005-09-10 10:00;METAR CYYG 101000Z 33007KT 15SM -TSRA BKN020CB BKN090 13/10 A2994 RMK CB6AC1 CB NW MOVG E OCNL LTGCG SLP138=
CYYG;2005-09-10 10:24;SPECI CYYG 101024Z 31004KT 15SM VCSH BKN020TCU BKN090 12/ RETS RMK TCU6AC2 CB DSIPTD=
CYYG;2005-09-10 10:40;SPECI CYYG 101040Z 00000KT 15SM TS VCSH BKN022CB 13/ RMK CB5 CB NW-N MOVG SE=
CYYG;2005-09-10 11:00;METAR CYYG 101100Z 30004KT 15SM VCSH BKN022TCU 12/09 A2994 RETS RMK TCU6 CB ASOCTD SLP139=
CYYG;2005-09-10 11:04;SPECI CYYG 101104Z 32004KT 15SM -SHRA BKN022TCU 12/ RMK TCU6 CB ASOCTD=
CYYG;2005-09-10 11:30;SPECI CYYG 101130Z 01004KT 15SM VCSH SCT022TCU 13/ RMK TCU4 CB ASOCTD=
CYYG;2005-09-10 11:51;SPECI CYYG 101151Z 29004KT 15SM -SHRA BKN025TCU 15/ RMK TCU5=
CYYG;2005-09-10 12:00;METAR CYYG 101200Z 29006KT 15SM -SHRA BKN025TCU 15/11 A2995 RMK TCU5 SLP141=
CYYG;2005-09-10 12:05;SPECI CYYG 101205Z 01004KT 10SM +SHRA BKN025TCU 15/ RMK TCU5=
CYYG;2005-09-10 12:15;SPECI CYYG 101215Z 29006KT 15SM -SHRA BKN025TCU BKN100 13/ RERA RMK TCU5AC1=
CYYG;2005-09-10 12:30;SPECI CYYG 101230Z 28005KT 15SM VCSH BKN025TCU BKN100 14/ RERA RMK TCU5AC1=
CYYG;2005-09-10 13:00;METAR CYYG 101300Z 30010KT 15SM SCT025TCU SCT100 15/12 A2995 RERA RMK TCU4AC1 SLP141=
CYYG;2005-09-10 14:00;METAR CYYG 101400Z 32009G15KT 15SM BKN022 15/11 A2994 RMK CU6 TCU ASOCTD SLP140=
CYYG;2005-09-10 15:00;METAR CYYG 101500Z 33012G17KT 15SM BKN025 15/09 A2995 RMK CU6 TCU ASOCTD SLP143=
CYYG;2005-09-10 16:00;METAR CYYG 101600Z 33010G17KT 15SM BKN025 17/09 A2995 RMK CU6 TCU ASOCTD SLP141=
CYYG;2005-09-10 17:00;METAR CYYG 101700Z 33016G22KT 15SM BKN030 16/09 A2995 RMK CU6 TCU ASOCTD SLP143=
CYYG;2005-09-10 17:29;SPECI CYYG 101729Z 34013G19KT 15SM -SHRA BKN030TCU 17/ RMK TCU7=
CYYG;2005-09-10 17:47;SPECI CYYG 101747Z 33014G21KT 15SM +FC BKN028TCU 16/ RMK TCU7 TORNADO WATERSPOUT 5 S=
CYYG;2005-09-10 17:55;SPECI CYYG 101755Z 01011G20KT 15SM -SHRAGS +FC BKN028CB 14/ RMK CB7 TORNADO MULTIPLE WATERSPOUT 5-10 S YYG=
CYYG;2005-09-10 18:00;METAR CYYG 101800Z 01011G20KT 15SM -SHRA +FC BKN028CB 14/08 A2996 RMK CB7 TORNADO MULTIPLE WATERSPOUT 5-10 S SLP146=
CYYG;2005-09-10 18:21;SPECI CYYG 101821Z 34006KT 15SM VCSH BKN025TCU 13/ RMK TCU6 CB ASOCTD=
CYYG;2005-09-10 19:00;METAR CYYG 101900Z 34011G18KT 15SM -SHRA BKN025TCU 14/09 A2997 RMK TCU7 SLP148=
CYYG;2005-09-10 19:50;SPECI CYYG 101950Z 35012G24KT 15SM VCSH BKN025TCU 14/ RMK TCU7=
CYYG;2005-09-10 20:00;METAR CYYG 102000Z 36014G22KT 15SM VCSH BKN025TCU 14/09 A2996 RMK TCU7 SLP147=
CYYG;2005-09-10 21:00;METAR CYYG 102100Z 35012G21KT 15SM BKN025TCU 14/07 A2999 RMK TCU6 SLP155=
CYYG;2005-09-10 22:00;METAR CYYG 102200Z 35015KT 15SM BKN025TCU 14/07 A3001 RMK TCU6 SLP161=
CYYG;2005-09-10 23:00;METAR CYYG 102300Z 34010G16KT 15SM BKN025 14/08 A3002 RMK SC6 TCU ASOCTD SLP166=
CYYG;2005-09-10 23:38;SPECI CYYG 102338Z 36016G24KT 10SM -SHRA BKN025 RMK SC7 TCU ASOCTD=
CYYG;2005-09-11 00:00;METAR CYYG 110000Z 34009G15KT 15SM BKN030 12/09 A3003 RMK SC7 SLP171=
CYYG;2005-09-11 00:07;SPECI CYYG 110007Z 34012G20KT 10SM -SHRA OVC025 RMK SC8 TCU ASOCTD=
CYYG;2005-09-11 01:00;METAR CYYG 110100Z 35009KT 15SM -SHRA OVC045 12/09 A3004 RMK SC8 SLP172=
CYYG;2005-09-11 01:44;SPECI CYYG 110144Z 35012G18KT 15SM OVC050 RMK SC8=
CYYG;2005-09-11 01:49;SPECI CYYG 110149Z 34012G17KT 10SM -SHRA OVC039 RMK SC8=
CYYG;2005-09-11 02:00;METAR CYYG 110200Z 35008G17KT 12SM -SHRA OVC041 12/09 A3004 RMK SC8 SLP174=
CYYG;2005-09-11 03:00;METAR CYYG 110300Z 35010KT 15SM -SHRA OVC039 12/09 A3004 RMK SC8 SLP175=
CYYG;2005-09-11 04:00;METAR CYYG 110400Z 01007KT 12SM -SHRA OVC040 12/09 A3006 RMK SC8 SLP179=
CYYG;2005-09-11 05:00;METAR CYYG 110500Z 35010G15KT 15SM -SHRA BKN040 12/08 A3007 RMK SC6 SLP184=
CYYG;2005-09-11 05:04;SPECI CYYG 110504Z 35010G15KT 15SM BKN045 RMK SC6=
CYYG;2005-09-11 06:00;METAR CYYG 110600Z 35010G15KT 15SM BKN045 12/07 A3008 RMK SC6 SLP188=
CYYG;2005-09-11 07:00;METAR CYYG 110700Z 34010KT 15SM BKN045 12/06 A3009 RMK SC5 SLP190=
CYYG;2005-09-11 08:00;METAR CYYG 110800Z 35008KT 15SM BKN045 12/06 A3010 RMK SC5 SLP195=
CYYG;2005-09-11 09:00;METAR CYYG 110900Z 35008KT 15SM BKN045 11/05 A3013 RMK SC5 SLP203=
CYYG;2005-09-11 10:00;METAR CYYG 111000Z 35006KT 15SM SCT038 11/05 A3015 RMK SC4 SLP211=
CYYG;2005-09-11 11:00;METAR CYYG 111100Z 35008KT 15SM SCT040 13/05 A3017 RMK SC3 SLP218=
CYYG;2005-09-11 12:00;METAR CYYG 111200Z 35013G18KT 15SM FEW042 14/05 A3018 RMK SC2 SLP222=
CYYG;2005-09-11 13:00;METAR CYYG 111300Z 36012G17KT 15SM BKN045 15/05 A3018 RMK SC5 SLP221=
CYYG;2005-09-11 14:00;METAR CYYG 111400Z 33013G20KT 15SM SCT040 BKN320 16/06 A3019 RMK SC4CI0 CU ASOCTD SLP223=
CYYG;2005-09-11 15:00;METAR CYYG 111500Z 35014G20KT 15SM FEW045 SCT320 16/05 A3018 RMK SC2CI0 SLP221=
CYYG;2005-09-11 16:00;METAR CYYG 111600Z 34008KT 15SM FEW045 SCT320 17/05 A3016 RMK SC1CI0 SLP213=
CYYG;2005-09-11 17:00;METAR CYYG 111700Z 34009G16KT 15SM FEW045 FEW320 17/05 A3015 RMK SC1CI0 SLP212=
CYYG;2005-09-11 18:00;METAR CYYG 111800Z 31009G19KT 15SM FEW045 FEW300 17/04 A3014 RMK SC1CI1 SLP209=
CYYG;2005-09-11 19:00;METAR CYYG 111900Z 36007KT 15SM FEW045 SCT300 17/04 A3011 RMK SC1CI1 SLP198=
CYYG;2005-09-11 20:00;METAR CYYG 112000Z 33005KT 15SM FEW045 SCT300 17/04 A3008 RMK SC1CI1 SLP187=
CYYG;2005-09-11 21:00;METAR CYYG 112100Z 30004KT 15SM FEW045 SCT300 17/04 A3006 RMK SC1CI1 SLP180=
CYYG;2005-09-11 22:00;METAR CYYG 112200Z 27003KT 15SM FEW045 FEW090 SCT300 15/03 A3005 RMK SC1AC1CI1 SLP176=
CYYG;2005-09-11 23:00;METAR CYYG 112300Z 21004KT 15SM BKN300 14/04 A3002 RMK CI2 SLP166=
CYYG;2005-09-12 00:00;METAR CYYG 120000Z 21005KT 15SM FEW200 OVC280 13/06 A2998 RMK CC2CI2 SLP151=
CYYG;2005-09-12 01:00;METAR CYYG 120100Z 23009KT 15SM FEW160 FEW200 OVC280 15/08 A2993 RMK AC1CC2CI2 SLP136=
CYYG;2005-09-12 02:00;METAR CYYG 120200Z 23011KT 15SM SCT100 BKN130 OVC200 15/08 A2990 RMK AC3AC2CC3 SLP124=
CYYG;2005-09-12 02:11;SPECI CYYG 120211Z 23010KT 15SM -SHRA BKN100 BKN140 OVC200 15/ RMK AC5AC2CC1=
CYYG;2005-09-12 03:00;METAR CYYG 120300Z 23012KT 12SM -SHRA FEW068 OVC098 14/09 A2985 RMK AC2AC6 SLP110=
CYYG;2005-09-12 04:00;METAR CYYG 120400Z 23013G19KT 12SM -SHRA OVC061 13/10 A2981 RMK SC8 SLP096=
CYYG;2005-09-12 05:00;METAR CYYG 120500Z 22014G20KT 12SM -SHRA FEW012 OVC053 13/11 A2974 RMK SF1SC7 PRESFR SLP073=
CYYG;2005-09-12 06:00;METAR CYYG 120600Z 22014G20KT 12SM -SHRA FEW012 OVC058 13/11 A2967 RMK SF1SC7 PRESFR SLP049=
CYYG;2005-09-12 07:00;METAR CYYG 120700Z 22018G24KT 15SM -SHRA SCT050 OVC100 14/11 A2961 RMK SC4AC4 PRESFR SLP028=
CYYG;2005-09-12 08:00;METAR CYYG 120800Z 23014KT 15SM -SHRA OVC051 14/11 A2957 RMK SC8 SLP015=
CYYG;2005-09-12 09:00;METAR CYYG 120900Z 23011G18KT 12SM -SHRA OVC046 14/12 A2953 RMK SC8 SLP999=
CYYG;2005-09-12 10:00;METAR CYYG 121000Z 25011G19KT 10SM -SHRA BKN043 OVC120 15/12 A2951 RMK SC6AC2 SLP992=
CYYG;2005-09-12 10:49;SPECI CYYG 121049Z 26013G19KT 15SM FEW038 BKN050 BKN120 RMK SC2SC4AC2=
CYYG;2005-09-12 11:00;METAR CYYG 121100Z 25013G18KT 15SM FEW038 BKN057 BKN120 15/12 A2950 RMK SC2SC4AC2 SLP988=
CYYG;2005-09-12 12:00;METAR CYYG 121200Z 27013G20KT 15SM OVC031 17/13 A2949 RMK SC8 SLP986=
CYYG;2005-09-12 12:29;SPECI CYYG 121229Z 29015G22KT 10SM -DZ BKN028 OVC038 RMK SC6SC2=
CYYG;2005-09-12 13:00;METAR CYYG 121300Z 30013G19KT 10SM -DZ BKN023 OVC028 17/14 A2950 RMK SC6SC2 SLP991=
CYYG;2005-09-12 13:19;SPECI CYYG 121319Z 31014G20KT 15SM -SHRA BKN020 OVC027 RMK SC6SC2=
CYYG;2005-09-12 14:00;METAR CYYG 121400Z 33024G35KT 15SM BKN018 BKN047 19/14 A2954 RMK SC5SC2 SLP002=
CYYG;2005-09-12 15:00;METAR CYYG 121500Z 34021G29KT 15SM FEW013 BKN017 17/12 A2958 RMK SC2SC6 SLP018=
CYYG;2005-09-12 16:00;METAR CYYG 121600Z 34016G29KT 15SM BKN023 17/11 A2961 RMK SC7 SLP028=
CYYG;2005-09-12 17:00;METAR CYYG 121700Z 34016G29KT 15SM BKN027 18/11 A2966 RMK SC6 SLP043=
CYYG;2005-09-12 18:00;METAR CYYG 121800Z 34018G30KT 15SM BKN032 18/11 A2968 RMK SC7 SLP050=
CYYG;2005-09-12 19:00;METAR CYYG 121900Z 35018G31KT 15SM BKN037 17/10 A2971 RMK SC7 SLP060=
CYYG;2005-09-12 20:00;METAR CYYG 122000Z 36016G24KT 15SM FEW030 BKN043 17/10 A2974 RMK CU2SC6 SLP070=
CYYG;2005-09-12 21:00;METAR CYYG 122100Z 36014G30KT 15SM FEW033 BKN043 16/10 A2977 RMK CU2SC5 SLP081=
CYYG;2005-09-12 22:00;METAR CYYG 122200Z 36018G28KT 15SM BKN048 16/09 A2980 RMK SC6 SLP092=
CYYG;2005-09-12 23:00;METAR CYYG 122300Z 36015G25KT 15SM FEW030 BKN050 15/09 A2983 RMK SC2SC6 SLP103=
CYYG;2005-09-13 00:00;METAR CYYG 130000Z 36010G18KT 15SM BKN049 15/10 A2987 RMK SC7 SLP117=
CYYG;2005-09-13 01:00;METAR CYYG 130100Z 01010G16KT 15SM BKN045 14/10 A2989 RMK SC5 SLP121=
CYYG;2005-09-13 02:00;METAR CYYG 130200Z 02011KT 15SM SCT045 13/10 A2990 RMK SC4 SLP127=
CYYG;2005-09-13 03:00;METAR CYYG 130300Z 02009KT 15SM FEW030 BKN056 13/09 A2994 RMK SC2SC3 SLP140=
CYYG;2005-09-13 04:00;METAR CYYG 130400Z 02006KT 15SM FEW026 BKN058 13/09 A2995 RMK SC2SC4 SLP143=
CYYG;2005-09-13 05:00;METAR CYYG 130500Z 02007KT 15SM BKN052 13/09 A2997 RMK SC6 SLP148=
CYYG;2005-09-13 06:00;METAR CYYG 130600Z 01009KT 15SM FEW030 BKN058 12/08 A2997 RMK SC2SC4 SLP148=
CYYG;2005-09-13 07:00;METAR CYYG 130700Z 35004KT 15SM SCT058 11/07 A2998 RMK SC4 SLP151=
CYYG;2005-09-13 08:00;METAR CYYG 130800Z 01005KT 15SM FEW058 11/07 A3000 RMK SC2 SLP158=
CYYG;2005-09-13 09:00;METAR CYYG 130900Z 01002KT 15SM FEW026 SCT036 11/07 A3002 RMK SC2SC2 SLP168=
CYYG;2005-09-13 10:00;METAR CYYG 131000Z 03004KT 15SM BKN036 11/07 A3005 RMK SC6 SLP177=
CYYG;2005-09-13 11:00;METAR CYYG 131100Z 36003KT 15SM SCT034 BKN250 11/07 A3007 RMK SC3CI1 SLP183=
CYYG;2005-09-13 12:00;METAR CYYG 131200Z 02009KT 15SM FEW032 BKN250 14/08 A3008 RMK CF2CI2 SLP188=
CYYG;2005-09-13 13:00;METAR CYYG 131300Z 05008KT 15SM FEW030 BKN250 14/08 A3009 RMK CF2CI2 SLP192=
CYYG;2005-09-13 14:00;METAR CYYG 131400Z 05005KT 15SM FEW030 BKN250 16/08 A3010 RMK CF2CI2 SLP194=
CYYG;2005-09-13 15:00;METAR CYYG 131500Z 02006KT 15SM SCT034 BKN250 15/08 A3010 RMK CF3CI1 SLP195=
CYYG;2005-09-13 16:00;METAR CYYG 131600Z 04005KT 15SM SCT038 BKN250 16/07 A3010 RMK CF4CI1 SLP194=
CYYG;2005-09-13 17:00;METAR CYYG 131700Z 04005KT 15SM SCT039 BKN250 16/07 A3009 RMK CF4CI1 SLP192=
CYYG;2005-09-13 18:00;METAR CYYG 131800Z 11006KT 15SM FEW040 BKN250 16/08 A3008 RMK CF2CI1 SLP187=
CYYG;2005-09-13 19:00;METAR CYYG 131900Z 00000KT 15SM FEW040 BKN250 17/08 A3007 RMK SC2CI1 SLP184=
CYYG;2005-09-13 20:00;METAR CYYG 132000Z 23005KT 15SM FEW035 BKN250 17/09 A3007 RMK SC2CI1 SLP185=
CYYG;2005-09-13 21:00;METAR CYYG 132100Z 23005KT 15SM FEW035 FEW120 BKN250 16/08 A3006 RMK SC1AC1CI1 SLP182=
CYYG;2005-09-13 22:00;METAR CYYG 132200Z 22003KT 15SM FEW038 BKN250 16/08 A3006 RMK SC1CI2 SLP182=
CYYG;2005-09-13 23:00;METAR CYYG 132300Z 20003KT 15SM FEW038 BKN250 14/08 A3007 RMK SC1CI1 SLP185=
CYYG;2005-09-14 00:00;METAR CYYG 140000Z 18003KT 15SM BKN250 13/08 A3009 RMK CI2 SLP189=
CYYG;2005-09-14 01:00;METAR CYYG 140100Z 00000KT 15SM BKN250 11/08 A3009 RMK CI2 SLP192=
CYYG;2005-09-14 02:00;METAR CYYG 140200Z 17004KT 15SM SCT250 11/09 A3009 RMK CI2 SLP192=
CYYG;2005-09-14 03:00;METAR CYYG 140300Z 20008KT 15SM FEW250 12/09 A3009 RMK CI1 SLP191=
CYYG;2005-09-14 04:00;METAR CYYG 140400Z 18006KT 15SM SCT250 12/09 A3008 RMK CI2 SLP187=
CYYG;2005-09-14 05:00;METAR CYYG 140500Z 19008KT 15SM SCT250 13/10 A3008 RMK CI2 SLP187=
CYYG;2005-09-14 06:00;METAR CYYG 140600Z 21005KT 15SM SCT250 13/10 A3008 RMK CI2 SLP187=
CYYG;2005-09-14 07:00;METAR CYYG 140700Z 21006KT 15SM FEW038 BKN250 13/10 A3008 RMK SC2CI1 SLP186=
CYYG;2005-09-14 08:00;METAR CYYG 140800Z 20007KT 15SM BKN035 14/10 A3008 RMK SC5 SLP187=
CYYG;2005-09-14 09:00;METAR CYYG 140900Z 21007KT 15SM OVC033 15/10 A3007 RMK SC8 SLP183=
CYYG;2005-09-14 10:00;METAR CYYG 141000Z 21008KT 15SM BKN035 OVC060 OVC250 14/09 A3006 RMK SC5SC2CI2 SLP180=
CYYG;2005-09-14 11:00;METAR CYYG 141100Z 22009KT 15SM FEW035 SCT042 OVC250 15/09 A3007 RMK SC2SC2CI2 SLP182=
CYYG;2005-09-14 12:00;METAR CYYG 141200Z 22015KT 15SM FEW035 FEW042 OVC250 16/10 A3006 RMK SC1SC1CI2 SLP181=
CYYG;2005-09-14 13:00;METAR CYYG 141300Z 21013G18KT 15SM FEW040 OVC250 17/10 A3007 RMK SC1CI3 SLP183=
CYYG;2005-09-14 14:00;METAR CYYG 141400Z 20015KT 15SM BKN250 18/10 A3005 RMK CI3 SLP178=
CYYG;2005-09-14 15:00;METAR CYYG 141500Z 22011G19KT 15SM BKN250 19/12 A3006 RMK CI3 SLP180=
CYYG;2005-09-14 16:00;METAR CYYG 141600Z 24012G17KT 15SM BKN250 21/13 A3005 RMK CI3 SLP176=
CYYG;2005-09-14 17:00;METAR CYYG 141700Z 23015KT 15SM FEW100 BKN250 22/13 A3002 RMK AC2CI3 SLP167=
CYYG;2005-09-14 18:00;METAR CYYG 141800Z 22013KT 15SM FEW100 OVC250 21/13 A3003 RMK AC2CI3 SLP169=
CYYG;2005-09-14 19:00;METAR CYYG 141900Z 23012G17KT 15SM FEW100 OVC250 23/14 A3002 RMK AC1CI4 HZ ALF SLP166=
CYYG;2005-09-14 21:00;METAR CYYG 142100Z 24016KT 15SM FEW100 OVC250 21/16 A3002 RMK AC1CI3 HZ ALF SLP165=
CYYG;2005-09-14 22:00;METAR CYYG 142200Z 25014G19KT 15SM FEW100 OVC250 20/16 A3001 RMK AC1CI4 HZ ALF SLP164=
CYYG;2005-09-14 23:00;METAR CYYG 142300Z 25011G16KT 15SM FEW100 OVC250 20/15 A3002 RMK AC2CI2 SLP167=
CYYG;2005-09-15 00:00;METAR CYYG 150000Z 24008KT 15SM FEW100 BKN250 19/15 A3003 RMK AC2CI1 SLP169=
CYYG;2005-09-15 01:00;METAR CYYG 150100Z 23008KT 15SM SCT250 19/15 A3003 RMK CI2 SLP169=
CYYG;2005-09-15 02:00;METAR CYYG 150200Z 19007KT 15SM SCT250 18/15 A3002 RMK CI2 SLP167=
CYYG;2005-09-15 03:00;METAR CYYG 150300Z 20008KT 15SM SCT250 18/15 A3003 RMK CI2 SLP169=
CYYG;2005-09-15 04:00;METAR CYYG 150400Z 20008KT 15SM FEW250 18/14 A3003 RMK CI1 SLP170=
CYYG;2005-09-15 05:00;METAR CYYG 150500Z 21006KT 15SM FEW250 17/15 A3003 RMK CI1 SLP170=
CYYG;2005-09-15 06:00;METAR CYYG 150600Z 23009KT 15SM SKC 18/15 A3003 RMK SLP170=
CYYG;2005-09-15 07:00;METAR CYYG 150700Z 21007KT 15SM FEW013 19/15 A3004 RMK SC2 SLP172=
CYYG;2005-09-15 08:00;METAR CYYG 150800Z 22007KT 15SM BKN014 18/15 A3003 RMK SC6 SLP170=
CYYG;2005-09-15 09:00;METAR CYYG 150900Z 23012KT 15SM BKN014 19/16 A3003 RMK SC6 SLP170=
CYYG;2005-09-15 10:00;METAR CYYG 151000Z 22009KT 12SM SCT013 BKN250 18/15 A3004 RMK SC4CI2 SLP171=
CYYG;2005-09-15 11:00;METAR CYYG 151100Z 23009KT 12SM SCT011 BKN250 19/16 A3005 RMK SC4CI2 SLP176=
CYYG;2005-09-15 11:31;SPECI CYYG 151131Z 23011G17KT 12SM BKN011 BKN250 RMK SC5CI2=
CYYG;2005-09-15 12:00;METAR CYYG 151200Z 23013G18KT 12SM BKN010 BKN250 19/16 A3006 RMK SC6CI1 SLP178=
CYYG;2005-09-15 13:00;METAR CYYG 151300Z 25014G19KT 10SM BKN012 20/17 A3007 RMK SC6 SLP183=
CYYG;2005-09-15 14:00;METAR CYYG 151400Z 24013KT 15SM SCT012 BKN250 22/17 A3006 RMK SC3CI1 SLP181=
CYYG;2005-09-15 15:00;METAR CYYG 151500Z 24014G20KT 12SM FEW015 BKN250 23/18 A3006 RMK CF2CI2 HZ ALF SLP180=
CYYG;2005-09-15 16:00;METAR CYYG 151600Z 23012G18KT 12SM SCT015 BKN250 22/17 A3006 RMK CF4CI2 HZ ALF SLP178=
CYYG;2005-09-15 17:00;METAR CYYG 151700Z 23006KT 12SM BKN015 22/18 A3006 RMK SC7 HZ ALF SLP180=
CYYG;2005-09-15 18:00;METAR CYYG 151800Z 25007KT 15SM BKN015 22/18 A3006 RMK SC7 SLP179=
CYYG;2005-09-15 19:00;METAR CYYG 151900Z 25010KT 15SM SCT015 OVC250 23/18 A3006 RMK SC3CI3 SLP180=
CYYG;2005-09-15 20:00;METAR CYYG 152000Z 25009KT 15SM FEW015 OVC250 22/18 A3007 RMK SC2CI6 SLP183=
CYYG;2005-09-15 21:00;METAR CYYG 152100Z 25006KT 12SM FEW015 SCT100 OVC250 21/18 A3009 RMK SC1AC3CI4 SLP188=
CYYG;2005-09-15 21:33;SPECI CYYG 152133Z 25007KT 10SM -SHRA FEW015 SCT060 BKN100 OVC250 RMK SC1SC2AC2CI3=
CYYG;2005-09-15 22:00;METAR CYYG 152200Z 25009KT 4SM -SHRA BR FEW015 OVC040 20/17 A3010 RMK SC2SC6 SLP193=
CYYG;2005-09-15 23:00;METAR CYYG 152300Z 25006KT 8SM -SHRA OVC040 19/17 A3011 RMK SC8 SLP196=
CYYG;2005-09-16 00:00;METAR CYYG 160000Z 00000KT 10SM -RA OVC035 19/17 A3012 RMK SC8 SLP198=
CYYG;2005-09-16 01:00;METAR CYYG 160100Z 00000KT 10SM -RA OVC036 19/17 A3013 RMK SC8 SLP203=
CYYG;2005-09-16 02:00;METAR CYYG 160200Z 00000KT 10SM -SHRA OVC022 18/17 A3012 RMK SC8 SLP198=
CYYG;2005-09-16 03:00;METAR CYYG 160300Z 23002KT 6SM -SHRA SCT003 OVC017 18/16 A3011 RMK SF3SC5 SLP196=
CYYG;2005-09-16 04:00;METAR CYYG 160400Z 27005KT 6SM -SHRA SCT003 OVC012 18/16 A3010 RMK SF3SC5 SLP193=
CYYG;2005-09-16 05:00;METAR CYYG 160500Z 27006KT 8SM -SHRA BKN004 OVC012 18/16 A3011 RMK SF6SC2 SLP196=
CYYG;2005-09-16 06:00;METAR CYYG 160600Z 34007KT 8SM -SHRA BKN004 OVC012 18/16 A3011 RMK SF6SC2 SLP196=
CYYG;2005-09-16 07:00;METAR CYYG 160700Z 03005KT 12SM OVC003 16/14 A3012 RMK SF8 SLP199=
CYYG;2005-09-16 08:00;METAR CYYG 160800Z 01005KT 15SM BKN005 OVC010 15/14 A3016 RMK SF6SF2 SLP212=
CYYG;2005-09-16 09:00;METAR CYYG 160900Z 08003KT 15SM BKN005 OVC056 15/13 A3016 RMK SF6SC2 SLP212=
CYYG;2005-09-16 09:11;SPECI CYYG 160911Z 10003KT 15SM FEW005 BKN055 15/13 RMK SF2SC4=
CYYG;2005-09-16 10:00;METAR CYYG 161000Z 00000KT 10SM FEW004 FEW054 FEW300 14/12 A3017 RMK SF1SC1CI0 SLP216=
CYYG;2005-09-16 10:09;SPECI CYYG 161009Z 31003KT 10SM BKN013 BKN300 RMK SC6CI0=
CYYG;2005-09-16 10:44;SPECI CYYG 161044Z 28003KT 15SM FEW009 FEW300 RMK SC2CI0=
CYYG;2005-09-16 11:00;METAR CYYG 161100Z 00000KT 15SM FEW009 FEW300 15/13 A3019 RMK SC1CI1 SLP223=
CYYG;2005-09-16 12:00;METAR CYYG 161200Z 27005KT 15SM FEW009 FEW100 SCT300 17/14 A3021 RMK SC1AC1CI0 SLP230=
CYYG;2005-09-16 12:21;SPECI CYYG 161221Z 27006KT 15SM BKN005 RMK SF7=
CYYG;2005-09-16 13:00;METAR CYYG 161300Z 34004KT 15SM BKN004 17/15 A3021 RMK SF7 SLP231=
CYYG;2005-09-16 13:26;SPECI CYYG 161326Z 36003KT 15SM SCT005 BKN300 RMK SF3CI0=
CYYG;2005-09-16 14:00;METAR CYYG 161400Z 31004KT 15SM FEW009 SCT300 18/15 A3020 RMK CU2CI0 SLP228=
CYYG;2005-09-16 15:00;METAR CYYG 161500Z 36005KT 15SM FEW023 BKN300 21/15 A3021 RMK CU2CI1 SLP230=
CYYG;2005-09-16 16:00;METAR CYYG 161600Z 34007KT 15SM FEW019 SCT074 BKN300 21/12 A3022 RMK CU1AC2CI1 SLP233=
CYYG;2005-09-16 17:00;METAR CYYG 161700Z 36009KT 15SM FEW025 FEW074 BKN300 20/14 A3021 RMK CU1AC1CI1 SLP231=
CYYG;2005-09-16 18:00;METAR CYYG 161800Z 36009KT 15SM FEW025 FEW074 FEW300 19/12 A3021 RMK CU1AC1CI1 SLP231=
CYYG;2005-09-16 19:00;METAR CYYG 161900Z 36006KT 15SM FEW030 FEW300 19/13 A3022 RMK CU1CI1 SLP232=
CYYG;2005-09-16 20:00;METAR CYYG 162000Z 35006KT 15SM FEW030 FEW077 BKN300 17/12 A3022 RMK CU1AC2CI0 SLP234=
CYYG;2005-09-16 21:00;METAR CYYG 162100Z 36007KT 15SM FEW030 FEW077 BKN300 16/12 A3022 RMK SC1AC1CI2 SLP235=
CYYG;2005-09-16 22:00;METAR CYYG 162200Z 36006KT 15SM FEW014 FEW200 BKN300 15/12 A3023 RMK SC2CC1CI1 SLP237=
CYYG;2005-09-16 22:40;SPECI CYYG 162240Z 00000KT 15SM BKN015 BKN300 15/ RMK SC6CI0=
CYYG;2005-09-16 23:00;METAR CYYG 162300Z 01003KT 15SM BKN015 BKN300 14/12 A3024 RMK SC6CI0 SLP240=
CYYG;2005-09-17 00:00;METAR CYYG 170000Z 03005KT 15SM OVC015 15/12 A3024 RMK SC8 SLP240=
CYYG;2005-09-17 01:00;METAR CYYG 170100Z 02006KT 15SM OVC015 15/13 A3023 RMK SC8 SLP239=
CYYG;2005-09-17 01:39;SPECI CYYG 170139Z 05006KT 15SM FEW008 OVC013 15/ RMK SF1SC7=
CYYG;2005-09-17 02:00;METAR CYYG 170200Z 04007KT 15SM FEW008 OVC015 15/12 A3024 RMK SF1SC8 SLP240=
CYYG;2005-09-17 02:16;SPECI CYYG 170216Z 05006KT 15SM FEW007 OVC012 15/ RMK SF1SC7=
CYYG;2005-09-17 03:00;METAR CYYG 170300Z 05007KT 15SM OVC009 14/12 A3023 RMK ST8 SLP237=
CYYG;2005-09-17 04:00;METAR CYYG 170400Z 10004KT 15SM BKN008 OVC013 15/12 A3023 RMK SF6SC2 SLP236=
CYYG;2005-09-17 05:45;SPECI CYYG 170545Z 05003KT 15SM OVC015 15/ RMK SC8=
CYYG;2005-09-17 06:00;METAR CYYG 170600Z 05003KT 15SM OVC016 15/12 A3022 RMK SC8 SLP235=
CYYG;2005-09-17 07:00;METAR CYYG 170700Z 08003KT 15SM OVC015 15/12 A3021 RMK SC8 SLP232=
CYYG;2005-09-17 08:00;METAR CYYG 170800Z 08004KT 15SM OVC016 15/12 A3020 RMK SC8 SLP229=
CYYG;2005-09-17 08:43;SPECI CYYG 170843Z 08005KT 15SM OVC013 14/ RMK SC8=
CYYG;2005-09-17 09:00;METAR CYYG 170900Z 09003KT 15SM OVC013 14/12 A3021 RMK SC8 SLP230=
CYYG;2005-09-17 09:41;SPECI CYYG 170941Z 10005KT 15SM -DZ BKN009 OVC011 RMK SF5SC3=
CYYG;2005-09-17 10:00;METAR CYYG 171000Z 10008KT 15SM -DZ BKN009 OVC014 14/11 A3020 RMK SF6SC2 SLP227=
CYYG;2005-09-17 10:35;SPECI CYYG 171035Z 07007KT 15SM BKN009 BKN016 OVC120 RMK SF5SC1AS2=
CYYG;2005-09-17 11:00;METAR CYYG 171100Z 07009KT 15SM FEW008 BKN011 OVC120 14/11 A3020 RMK SF1SC6AC1 SLP226=
CYYG;2005-09-17 11:13;SPECI CYYG 171113Z 07008KT 15SM -RA BKN009 OVC120 RMK SC6AC2=
CYYG;2005-09-17 11:42;SPECI CYYG 171142Z 10007KT 15SM OVC009 RMK SC8=
CYYG;2005-09-17 12:00;METAR CYYG 171200Z 10007KT 15SM BKN008 OVC120 14/11 A3020 RMK SC6AC2 SLP226=
CYYG;2005-09-17 12:16;SPECI CYYG 171216Z 07007KT 15SM FEW008 OVC110 RMK SF2AC6=
CYYG;2005-09-17 13:00;METAR CYYG 171300Z 08009KT 15SM FEW008 OVC110 14/11 A3018 RMK SF2AC6 SLP220=
CYYG;2005-09-17 13:24;SPECI CYYG 171324Z 09006KT 15SM BKN010 OVC100 RMK SC5AC3=
CYYG;2005-09-17 14:00;METAR CYYG 171400Z 08006KT 15SM SCT010 BKN077 OVC100 15/12 A3019 RMK SC4AC2AC2 SLP223=
CYYG;2005-09-17 14:11;SPECI CYYG 171411Z 07009KT 15SM -RA BKN013 OVC100 RMK SC6AS2=
CYYG;2005-09-17 15:00;METAR CYYG 171500Z 07008KT 15SM -RA OVC012 15/12 A3016 RMK SC8 SLP213=
CYYG;2005-09-17 15:06;SPECI CYYG 171506Z 07008KT 15SM FEW009 BKN011 OVC100 RMK SF2SC6AS1=
CYYG;2005-09-17 15:46;SPECI CYYG 171546Z 10010KT 15SM -RA OVC012 RMK SC8=
CYYG;2005-09-17 16:00;METAR CYYG 171600Z 10007KT 15SM -RA OVC012 15/12 A3014 RMK SC8 SLP206=
CYYG;2005-09-17 17:00;METAR CYYG 171700Z 10005KT 5SM -RA BR BKN008 OVC058 15/13 A3012 RMK SF6SC2 SLP201=
CYYG;2005-09-17 17:07;SPECI CYYG 171707Z 11007KT 5SM -RA BR BKN005 OVC050 RMK SF6SC2=
CYYG;2005-09-17 18:00;METAR CYYG 171800Z 09006KT 5SM -RA BR FEW004 BKN014 OVC050 15/13 A3009 RMK SF2SC3SC2 SLP191=
CYYG;2005-09-17 18:18;SPECI CYYG 171818Z 09010KT 8SM -RA BKN006 OVC048 RMK SF6SC2=
CYYG;2005-09-17 19:00;METAR CYYG 171900Z 10009KT 5SM -RA BR OVC005 15/13 A3006 RMK SF8 SLP181=
CYYG;2005-09-17 19:22;SPECI CYYG 171922Z 10009KT 5SM -RA BR FEW005 OVC027 RMK SF2SC6=
CYYG;2005-09-17 20:00;METAR CYYG 172000Z 09010KT 8SM -RA SCT008 OVC028 14/12 A3004 RMK SF3SC5 SLP173=
CYYG;2005-09-17 20:41;SPECI CYYG 172041Z 08009KT 3SM RA BR BKN007 OVC028 RMK SF6SC2=
CYYG;2005-09-17 22:00;METAR CYYG 172200Z 07007KT 5SM -RA BR SCT003 OVC008 14/13 A3001 RMK SF3NS5 SLP163=
CYYG;2005-09-17 22:34;SPECI CYYG 172234Z 07006KT 2 1/2SM RA BR BKN005 OVC012 14/ RMK SF6NS2=
CYYG;2005-09-17 23:00;METAR CYYG 172300Z 06007KT 5SM -RA BR SCT003 OVC009 15/13 A2999 RERA RMK SF3NS5 SLP157=
CYYG;2005-09-18 00:00;METAR CYYG 180000Z 05006KT 10SM -RA BKN003 OVC009 15/13 A2998 RMK SF6NS2 SLP152=
CYYG;2005-09-18 01:00;METAR CYYG 180100Z 07007KT 4SM -RA BR BKN003 OVC009 16/14 A2994 RERA RMK SF6NS2 SLP140=
CYYG;2005-09-18 02:00;METAR CYYG 180200Z 07010G15KT 3SM -RA BR BKN004 OVC012 16/14 A2992 RMK SF7NS1 SLP132=
CYYG;2005-09-18 03:00;METAR CYYG 180300Z 08007KT 2SM RA BR OVC004 16/14 A2990 RMK SF8 SLP124=
CYYG;2005-09-18 04:00;METAR CYYG 180400Z 07004KT 10SM -RA BKN004 OVC012 16/14 A2988 RERA RMK SF6NS2 SLP119=
CYYG;2005-09-18 04:40;SPECI CYYG 180440Z 05008KT 10SM RA FEW004 OVC024 16/ RMK SF2NS6=
CYYG;2005-09-18 05:00;METAR CYYG 180500Z 04009KT 5SM RA BR FEW004 OVC024 16/14 A2986 RMK SF2NS6 SLP112=
CYYG;2005-09-18 06:00;METAR CYYG 180600Z 03011KT 5SM -RA BR BKN004 OVC008 16/14 A2981 RMK SF6SC2 RERA SLP095=
CYYG;2005-09-18 07:00;METAR CYYG 180700Z 04014KT 4SM -RA BR OVC004 16/15 A2977 RERA RMK SF8 SLP082=
CYYG;2005-09-18 08:00;METAR CYYG 180800Z 03010KT 15SM -RA OVC006 17/15 A2977 RMK SF8 SLP080=
CYYG;2005-09-18 08:46;SPECI CYYG 180846Z 02009KT 15SM OVC007 17/ RMK SF8=
CYYG;2005-09-18 09:00;METAR CYYG 180900Z 02011KT 15SM OVC006 17/15 A2978 RMK SF8 SLP085=
CYYG;2005-09-18 09:13;SPECI CYYG 180913Z 02009KT 4SM -DZ BR BKN006 OVC026 17/ RMK SF7SC1=
CYYG;2005-09-18 10:00;METAR CYYG 181000Z 01007KT 3SM -DZ BR BKN004 OVC030 17/15 A2981 RMK SF7SC1 SLP094=
CYYG;2005-09-18 10:18;SPECI CYYG 181018Z 01007KT 3SM -RA BR FEW003 BKN005 OVC020 RMK SF1SF6SC1=
CYYG;2005-09-18 10:36;SPECI CYYG 181036Z 02009KT 5SM -DZ BR BKN005 OVC018 RMK SF6SC2=
CYYG;2005-09-18 11:00;METAR CYYG 181100Z 01007KT 6SM BR OVC005 16/15 A2983 RMK SF8 SLP101=
CYYG;2005-09-18 11:24;SPECI CYYG 181124Z 36007KT 4SM -DZ BR OVC006 RMK SF8=
CYYG;2005-09-18 12:00;METAR CYYG 181200Z 36007KT 3SM -DZ BR OVC005 17/15 A2984 RMK SF8 SLP105=
CYYG;2005-09-18 13:00;METAR CYYG 181300Z 02003KT 4SM BR FEW004 OVC006 17/15 A2987 RMK SF2SF6 SLP115=
CYYG;2005-09-18 13:17;SPECI CYYG 181317Z 02007KT 3SM -DZ BR FEW004 OVC006 RMK SF2SF6=
CYYG;2005-09-18 14:00;METAR CYYG 181400Z 03006KT 3SM -DZ BR FEW005 BKN007 OVC018 17/15 A2989 RMK SF2SF6SC1 SLP121=
CYYG;2005-09-18 15:00;METAR CYYG 181500Z 03009KT 6SM -DZ BR FEW005 OVC009 17/15 A2990 RMK SF1SF7 SLP125=
CYYG;2005-09-18 16:00;METAR CYYG 181600Z 04009KT 5SM -DZ BR FEW004 BKN007 OVC015 16/14 A2990 RMK SF1SF6SC1 SLP127=
CYYG;2005-09-18 17:00;METAR CYYG 181700Z 05007KT 8SM -DZ FEW006 OVC009 16/14 A2991 RMK SF1SC7 SLP130=
CYYG;2005-09-18 17:51;SPECI CYYG 181751Z 02007KT 2 1/2SM -SHRA BR FEW006 OVC010 RMK SF2SC6=
CYYG;2005-09-18 18:00;METAR CYYG 181800Z 03007KT 2 1/2SM -SHRA BR FEW005 OVC010 16/14 A2991 RMK SF2SC6 SLP130=
CYYG;2005-09-18 19:00;METAR CYYG 181900Z 04006KT 3SM -DZ BR FEW006 OVC011 16/14 A2992 RMK SF1SC7 SLP133=
CYYG;2005-09-18 20:00;METAR CYYG 182000Z 05006KT 6SM -DZ BR FEW006 BKN012 OVC024 16/14 A2994 RMK SF1SC6SC2 SLP139=
CYYG;2005-09-18 20:25;SPECI CYYG 182025Z 05005KT 3SM -DZ BR FEW004 BKN009 OVC015 RMK SF1SC6SC1=
CYYG;2005-09-18 20:38;SPECI CYYG 182038Z 04007KT 2 1/2SM -DZ BR FEW004 OVC008 RMK SF2SC6=
CYYG;2005-09-18 21:00;METAR CYYG 182100Z 05005KT 3SM -DZ BR FEW005 BKN009 OVC018 15/14 A2994 RMK SF2SC5SC1 SLP139=
CYYG;2005-09-18 21:12;SPECI CYYG 182112Z 05005KT 6SM BR FEW006 BKN011 OVC029 RMK SF1SC6SC1=
CYYG;2005-09-18 21:40;SPECI CYYG 182140Z 05004KT 3SM -DZ BR BKN007 OVC030 RMK SF7SC1=
CYYG;2005-09-18 22:00;METAR CYYG 182200Z 06006KT 3SM -DZ BR BKN006 OVC030 15/13 A2996 RMK SF7SC1 SLP144=
CYYG;2005-09-18 23:00;METAR CYYG 182300Z 05007KT 3SM -DZ BR BKN006 OVC012 15/13 A2996 RMK SF6SC2 SLP146=
CYYG;2005-09-18 23:30;SPECI CYYG 182330Z 05005KT 2SM -DZ BR BKN004 OVC011 RMK SF6SC2=
CYYG;2005-09-19 00:00;METAR CYYG 190000Z 06007KT 2SM -DZ BR BKN004 OVC010 15/13 A2997 RMK SF6SC2 SLP149=
CYYG;2005-09-19 01:00;METAR CYYG 190100Z 05005KT 10SM -DZ BKN004 OVC011 15/13 A2997 RMK SF6SC2 SLP149=
CYYG;2005-09-19 01:51;SPECI CYYG 190151Z 05003KT 12SM BKN004 BKN011 OVC034 RMK SF5SC1SC2=
CYYG;2005-09-19 02:00;METAR CYYG 190200Z 05003KT 12SM SCT004 BKN009 OVC034 14/13 A2998 RMK SF4SC2SC2 SLP151=
CYYG;2005-09-19 03:00;METAR CYYG 190300Z 06003KT 15SM FEW004 BKN009 OVC025 14/13 A2998 RMK SF2SC2SC3 SLP153=
CYYG;2005-09-19 04:00;METAR CYYG 190400Z 00000KT 15SM SCT004 BKN009 OVC035 14/13 A2997 RMK SF4SC2SC2 SLP150=
CYYG;2005-09-19 05:00;METAR CYYG 190500Z 07004KT 15SM BKN004 OVC009 14/13 A2997 RMK SF6SC2 SLP150=
CYYG;2005-09-19 06:00;METAR CYYG 190600Z 00000KT 15SM BKN004 OVC028 14/13 A2998 RMK SF5SC3 SLP151=
CYYG;2005-09-19 07:00;METAR CYYG 190700Z 00000KT 15SM SCT004 OVC030 14/13 A2998 RMK SF3SC5 SLP152=
CYYG;2005-09-19 08:00;METAR CYYG 190800Z 33002KT 15SM FEW004 SCT017 OVC044 14/12 A2998 RMK SF1SC2SC5 SLP152=
CYYG;2005-09-19 09:00;METAR CYYG 190900Z 00000KT 15SM FEW004 SCT017 BKN045 OVC068 14/12 A2999 RMK SF2SC2SC3AC2 SLP156=
CYYG;2005-09-19 09:26;SPECI CYYG 190926Z 34002KT 10SM -DZ SCT003 BKN006 OVC017 RMK SF4SF2SC2=
CYYG;2005-09-19 09:50;SPECI CYYG 190950Z 34003KT 4SM -DZ BR BKN003 BKN006 OVC013 RMK SF6SF1SC2=
CYYG;2005-09-19 10:00;METAR CYYG 191000Z 00000KT 6SM -DZ BR BKN002 OVC007 14/13 A3000 RMK SF6SF2 SLP160=
CYYG;2005-09-19 10:28;SPECI CYYG 191028Z 33002KT 10SM SCT002 OVC009 RMK SF4SC4=
CYYG;2005-09-19 11:00;METAR CYYG 191100Z 00000KT 12SM FEW002 BKN009 BKN060 15/13 A3001 RMK SF2SC5SC1 SLP162=
CYYG;2005-09-19 12:00;METAR CYYG 191200Z 31004KT 15SM BKN007 BKN078 15/13 A3002 RMK SF5AC2 SLP166=
CYYG;2005-09-19 12:54;SPECI CYYG 191254Z 34004KT 15SM SCT007 SCT025 BKN080 RMK SF3SC1AC3=
CYYG;2005-09-19 13:00;METAR CYYG 191300Z 32005KT 15SM FEW007 SCT025 BKN079 16/13 A3004 RMK SF2SC1AC4 SLP171=
CYYG;2005-09-19 14:00;METAR CYYG 191400Z 31005KT 15SM SCT025 BKN076 16/13 A3004 RMK SC3AC4 SLP172=
CYYG;2005-09-19 15:00;METAR CYYG 191500Z 31004KT 15SM FEW015 SCT021 BKN076 17/13 A3004 RMK SC2SC2AC3 SLP171=
CYYG;2005-09-19 16:00;METAR CYYG 191600Z 27004KT 15SM BKN030 18/12 A3003 RMK SC6 SLP168=
CYYG;2005-09-19 17:00;METAR CYYG 191700Z 29005KT 15SM BKN028 18/13 A3001 RMK SC7 SLP164=
CYYG;2005-09-19 18:00;METAR CYYG 191800Z 27007KT 15SM BKN026 18/13 A3001 RMK SC7 SLP162=
CYYG;2005-09-19 19:00;METAR CYYG 191900Z 23005KT 15SM BKN029 19/13 A3000 RMK SC6 SLP158=
CYYG;2005-09-19 20:00;METAR CYYG 192000Z 24007KT 15SM SCT029 19/14 A3001 RMK SC4 SLP162=
CYYG;2005-09-19 21:00;METAR CYYG 192100Z 26006KT 15SM FEW029 19/14 A3003 RMK SC2 SLP168=
CYYG;2005-09-19 22:00;METAR CYYG 192200Z 24003KT 15SM FEW027 18/14 A3003 RMK SC2 SLP170=
CYYG;2005-09-19 23:00;METAR CYYG 192300Z 28005KT 15SM FEW027 16/13 A3004 RMK SC2 SLP174=
CYYG;2005-09-20 00:00;METAR CYYG 200000Z 00000KT 15SM FEW030 16/13 A3004 RMK SC2 SLP174=
CYYG;2005-09-20 01:00;METAR CYYG 200100Z 23005KT 15SM FEW030 15/13 A3004 RMK SC2 SLP172=
CYYG;2005-09-20 02:00;METAR CYYG 200200Z 24007KT 15SM FEW030 14/12 A3005 RMK SC2 SLP176=
CYYG;2005-09-20 03:00;METAR CYYG 200300Z 24005KT 15SM SKC 14/13 A3005 RMK SLP176=
CYYG;2005-09-20 04:00;METAR CYYG 200400Z 26005KT 15SM FEW020 SCT085 15/13 A3004 RMK SC2AC2 SLP174=
CYYG;2005-09-20 05:00;METAR CYYG 200500Z 29006KT 15SM FEW020 SCT071 15/13 A3004 RMK SC1AC2 SLP174=
CYYG;2005-09-20 06:00;METAR CYYG 200600Z 32004KT 15SM FEW020 SCT067 14/12 A3005 RMK SC1AC2 SLP176=
CYYG;2005-09-20 07:00;METAR CYYG 200700Z 33005KT 15SM SCT067 13/11 A3005 RMK AC3 SLP177=
CYYG;2005-09-20 08:00;METAR CYYG 200800Z 31006KT 15SM SCT067 13/10 A3007 RMK AC3 SLP182=
CYYG;2005-09-20 09:00;METAR CYYG 200900Z 29006KT 15SM FEW067 BKN250 12/09 A3008 RMK AC2CI2 SLP186=
CYYG;2005-09-20 10:00;METAR CYYG 201000Z 28006KT 15SM FEW060 SCT250 12/09 A3009 RMK SC1CI2 SLP190=
CYYG;2005-09-20 11:00;METAR CYYG 201100Z 29006KT 15SM FEW060 BKN250 12/10 A3010 RMK SC1CI4 SLP194=
CYYG;2005-09-20 12:00;METAR CYYG 201200Z 32004KT 15SM FEW060 BKN250 14/11 A3010 RMK SC1CI2 SLP195=
CYYG;2005-09-20 13:00;METAR CYYG 201300Z 00000KT 15SM FEW025 FEW060 BKN250 14/11 A3013 RMK SC2SC1CI1 SLP203=
CYYG;2005-09-20 14:00;METAR CYYG 201400Z 01006KT 15SM SCT030 BKN250 16/11 A3012 RMK SC3CI1 SLP201=
CYYG;2005-09-20 15:00;METAR CYYG 201500Z 01006KT 15SM FEW038 BKN250 17/10 A3012 RMK SC2CI1 SLP199=
CYYG;2005-09-20 16:00;METAR CYYG 201600Z 00000KT 15SM FEW030 BKN250 17/10 A3011 RMK SC2CI2 SLP195=
CYYG;2005-09-20 17:00;METAR CYYG 201700Z 07004KT 15SM FEW034 BKN250 18/11 A3009 RMK SC2CI2 SLP188=
CYYG;2005-09-20 18:00;METAR CYYG 201800Z 20005KT 15SM FEW036 SCT160 BKN250 17/11 A3007 RMK SC2AC1CI1 SLP182=
CYYG;2005-09-20 19:00;METAR CYYG 201900Z 19003KT 15SM FEW036 SCT160 BKN250 18/11 A3005 RMK SC1AC2CI1 SLP176=
CYYG;2005-09-20 20:00;METAR CYYG 202000Z 12004KT 15SM FEW036 SCT160 BKN250 17/11 A3004 RMK SC1AC2CI1 SLP173=
CYYG;2005-09-20 21:00;METAR CYYG 202100Z 12005KT 15SM FEW060 SCT160 OVC250 17/12 A3001 RMK SC2AC1CS2 SLP162=
CYYG;2005-09-20 22:00;METAR CYYG 202200Z 12010KT 15SM FEW160 BKN250 16/12 A2998 RMK AC2CI3 SLP151=
CYYG;2005-09-20 23:00;METAR CYYG 202300Z 13010KT 15SM SCT077 OVC250 15/11 A2997 RMK AC3CI5 SLP148=
CYYG;2005-09-20 23:08;SPECI CYYG 202308Z 13010KT 15SM -SHRA OVC100 RMK AC8=
CYYG;2005-09-21 00:00;METAR CYYG 210000Z 14008KT 15SM -SHRA BKN064 OVC093 15/12 A2996 RMK SC5AC3 SLP144=
CYYG;2005-09-21 01:00;METAR CYYG 210100Z 15013KT 15SM -SHRA OVC070 15/12 A2991 RMK AC8 SLP128=
CYYG;2005-09-21 02:00;METAR CYYG 210200Z 14011G18KT 15SM -SHRA OVC033 15/13 A2985 RMK SC8 SLP110=
CYYG;2005-09-21 02:17;SPECI CYYG 210217Z 15010KT 8SM -SHRA BKN005 OVC021 RMK SF6SC2=
CYYG;2005-09-21 02:20;SPECI CYYG 210220Z 15011KT 5SM SHRA BR OVC003 RMK SF8=
CYYG;2005-09-21 02:41;SPECI CYYG 210241Z 15015KT 5SM -SHRA BR OVC003 RMK SF8 RERA=
CYYG;2005-09-21 03:00;METAR CYYG 210300Z 16017G24KT 5SM SHRA BR BKN005 OVC013 17/15 A2979 RMK SF6SC2 RERA PRESFR SLP087=
CYYG;2005-09-21 03:05;SPECI CYYG 210305Z 16017G24KT 6SM TSRA BR BKN005 OVC012CB RMK SF6CB2 LTGCC=
CYYG;2005-09-21 03:27;SPECI CYYG 210327Z 17018G26KT 6SM SHRA BR OVC007 RMK SF8 RETS=
CYYG;2005-09-21 03:44;SPECI CYYG 210344Z 17016KT 6SM -SHRA BR OVC008 RMK SF8 RETS RERA=
CYYG;2005-09-21 04:00;METAR CYYG 210400Z 17017KT 6SM -SHRA BR OVC007 17/15 A2977 RMK SF8 RETS RERA SLP080=
CYYG;2005-09-21 04:40;SPECI CYYG 210440Z 18017KT 6SM -SHRA BR SCT007 OVC014 RMK SF4SC4=
CYYG;2005-09-21 05:00;METAR CYYG 210500Z 18014KT 8SM -SHRA SCT007 OVC014 17/15 A2975 RMK SF4SC4 SLP075=
CYYG;2005-09-21 06:00;METAR CYYG 210600Z 20013G18KT 10SM -SHRA SCT014 OVC025 17/15 A2973 RMK SC4SC4 SLP067=
CYYG;2005-09-21 07:00;METAR CYYG 210700Z 20012G17KT 15SM SCT014 OVC022 18/15 A2970 RMK SC3SC5 SLP059=
CYYG;2005-09-21 08:00;METAR CYYG 210800Z 21011KT 10SM BKN013 OVC022 17/15 A2968 RMK SC6SC2 SLP052=
CYYG;2005-09-21 09:00;METAR CYYG 210900Z 22012G17KT 10SM FEW006 OVC014 18/15 A2967 RMK SF2SC6 SLP048=
CYYG;2005-09-21 09:12;SPECI CYYG 210912Z 22010G16KT 15SM BKN008 OVC011 RMK SF5SC3=
CYYG;2005-09-21 10:00;METAR CYYG 211000Z 24010G16KT 10SM BKN009 OVC060 17/15 A2968 RMK SF7SC1 SLP049=
CYYG;2005-09-21 11:00;METAR CYYG 211100Z 25013G18KT 15SM FEW009 BKN015 BKN060 17/13 A2968 RMK SF2SC3SC1 SLP051=
CYYG;2005-09-21 11:49;SPECI CYYG 211149Z 26013G21KT 15SM BKN013 16/ RMK SC7=
CYYG;2005-09-21 12:00;METAR CYYG 211200Z 25015G20KT 15SM BKN013 16/12 A2968 RMK SC6 SLP051=
CYYG;2005-09-21 12:24;SPECI CYYG 211224Z 26014G24KT 15SM FEW013 BKN020 16/ RMK SC2SC3=
CYYG;2005-09-21 13:00;METAR CYYG 211300Z 27013G20KT 15SM FEW015 BKN035 16/12 A2969 RMK SC2SC6 SLP054=
CYYG;2005-09-21 14:00;METAR CYYG 211400Z 27013G18KT 15SM VCSH FEW015 OVC037 15/11 A2969 RMK SC2SC6 SLP056=
CYYG;2005-09-21 14:26;SPECI CYYG 211426Z 27012G20KT 15SM -SHRA FEW015 OVC025 15/ RMK SC1SC7=
CYYG;2005-09-21 15:00;METAR CYYG 211500Z 27014G19KT 15SM VCSH OVC022 15/10 A2970 RMK SC8 SLP058=
CYYG;2005-09-21 16:00;METAR CYYG 211600Z 27011KT 15SM VCSH OVC024 15/10 A2971 RMK SC8 SLP060=
CYYG;2005-09-21 17:00;METAR CYYG 211700Z 27013G19KT 15SM BKN025 BKN040 15/10 A2971 RMK SC5SC2 SLP061=
CYYG;2005-09-21 18:00;METAR CYYG 211800Z 28014G27KT 15SM BKN045 16/09 A2971 RMK SC7 CU ASOCTD SLP062=
CYYG;2005-09-21 19:00;METAR CYYG 211900Z 29017G24KT 15SM BKN045 17/08 A2972 RMK SC6 CU ASOCTD SLP064=
CYYG;2005-09-21 20:00;METAR CYYG 212000Z 27012G19KT 15SM BKN045 18/09 A2972 RMK SC5 SLP065=
CYYG;2005-09-21 21:00;METAR CYYG 212100Z 29014G21KT 15SM FEW045 17/08 A2973 RMK SC2 SLP067=
CYYG;2005-09-21 22:00;METAR CYYG 212200Z 27004KT 15SM BKN045 15/08 A2974 RMK SC5 SLP072=
CYYG;2005-09-21 23:00;METAR CYYG 212300Z 27006KT 15SM SCT070 15/08 A2976 RMK AC4 SLP078=
CYYG;2005-09-22 00:00;METAR CYYG 220000Z 26011G16KT 15SM BKN080 16/09 A2978 RMK AC5 SLP086=
CYYG;2005-09-22 01:00;METAR CYYG 220100Z 27012KT 15SM FEW080 16/10 A2979 RMK AC2 SLP089=
CYYG;2005-09-22 02:00;METAR CYYG 220200Z 28006KT 15SM FEW080 15/10 A2981 RMK AC2 SLP094=
CYYG;2005-09-22 03:00;METAR CYYG 220300Z 28007KT 15SM FEW050 14/10 A2982 RMK SC2 SLP097=
CYYG;2005-09-22 04:00;METAR CYYG 220400Z 28011KT 15SM FEW050 14/08 A2982 RMK SC2 SLP099=
CYYG;2005-09-22 05:00;METAR CYYG 220500Z 27009KT 15SM FEW050 13/08 A2984 RMK SC2 SLP105=
CYYG;2005-09-22 06:00;METAR CYYG 220600Z 25007KT 15SM FEW050 13/08 A2985 RMK SC1 SLP108=
CYYG;2005-09-22 07:00;METAR CYYG 220700Z 26008KT 15SM SKC 13/09 A2986 RMK SLP111=
CYYG;2005-09-22 08:00;METAR CYYG 220800Z 29012G19KT 15SM FEW050 13/07 A2987 RMK SC1 SLP115=
CYYG;2005-09-22 09:00;METAR CYYG 220900Z 28007KT 15SM FEW050 13/07 A2992 RMK SC1 SLP133=
CYYG;2005-09-22 10:00;METAR CYYG 221000Z 28010G15KT 15SM FEW030 SCT330 13/07 A2993 RMK SC1CI1 SLP137=
CYYG;2005-09-22 11:00;METAR CYYG 221100Z 28012KT 15SM FEW030 SCT330 13/07 A2996 RMK SC1CI1 SLP144=
CYYG;2005-09-22 12:00;METAR CYYG 221200Z 29011G19KT 15SM FEW030 FEW330 15/08 A2996 RMK SC1CI1 SLP144=
CYYG;2005-09-22 13:00;METAR CYYG 221300Z 28013KT 15SM FEW030 BKN210 BKN330 15/07 A2997 RMK SC1CC5CI0 SLP148=
CYYG;2005-09-22 14:00;METAR CYYG 221400Z 28010KT 15SM FEW030 BKN200 16/08 A2997 RMK SC1CC7 SLP150=
CYYG;2005-09-22 15:00;METAR CYYG 221500Z 27012G17KT 15SM FEW030 BKN200 16/08 A2999 RMK SC1CC7 SLP156=
CYYG;2005-09-22 16:00;METAR CYYG 221600Z 27018KT 15SM FEW015 BKN150 17/08 A3000 RMK CF1AC5 SLP159=
CYYG;2005-09-22 17:00;METAR CYYG 221700Z 27012KT 15SM BKN150 19/08 A2997 RMK AC7 SLP149=
CYYG;2005-09-22 18:00;METAR CYYG 221800Z 25013KT 15SM BKN095 18/08 A2996 RMK AC7 SLP146=
CYYG;2005-09-22 19:00;METAR CYYG 221900Z 22006KT 15SM BKN077 18/08 A2994 RMK AC7 SLP138=
CYYG;2005-09-22 19:06;SPECI CYYG 221906Z 23009KT 15SM -SHRA BKN075 18/ RMK AC7=
CYYG;2005-09-22 19:30;SPECI CYYG 221930Z 21005KT 15SM OVC070 18/ RMK AC8=
CYYG;2005-09-22 20:00;METAR CYYG 222000Z 18005KT 15SM OVC070 17/10 A2993 RMK AC8 SLP137=
CYYG;2005-09-22 21:00;METAR CYYG 222100Z 19008KT 15SM FEW070 OVC100 17/10 A2992 RMK AC2AC6 SLP131=
CYYG;2005-09-22 21:29;SPECI CYYG 222129Z 19009KT 15SM -SHRA FEW070 OVC110 17/ RMK AC2AC6=
CYYG;2005-09-22 22:00;METAR CYYG 222200Z 20006KT 15SM -SHRA FEW070 OVC100 17/10 A2991 RMK AC2AC6 SLP129=
CYYG;2005-09-22 22:18;SPECI CYYG 222218Z 21005KT 15SM FEW070 OVC110 17/ RMK AC2AC6=
CYYG;2005-09-22 23:00;METAR CYYG 222300Z 23005KT 15SM OVC099 17/11 A2991 RMK AC8 SLP128=
CYYG;2005-09-22 23:29;SPECI CYYG 222329Z 23006KT 15SM -SHRA OVC100 17/ RMK AC8=
CYYG;2005-09-23 00:00;METAR CYYG 230000Z 22006KT 15SM -SHRA OVC096 17/12 A2990 RMK AC8 SLP126=
CYYG;2005-09-23 01:00;METAR CYYG 230100Z 21007KT 15SM OVC110 17/13 A2989 RMK AC8 SLP123=
CYYG;2005-09-23 02:00;METAR CYYG 230200Z 23009KT 15SM OVC140 18/12 A2989 RMK AC8 SLP122=
CYYG;2005-09-23 03:00;METAR CYYG 230300Z 24011G16KT 15SM OVC160 18/11 A2987 RMK AC8 SLP114=
CYYG;2005-09-23 04:00;METAR CYYG 230400Z 23009G15KT 15SM OVC160 18/11 A2987 RMK AC8 SLP114=
CYYG;2005-09-23 05:00;METAR CYYG 230500Z 23011G17KT 15SM OVC180 18/10 A2986 RMK AC8 SLP112=
CYYG;2005-09-23 06:00;METAR CYYG 230600Z 22008KT 15SM BKN220 17/11 A2985 RMK CI6 SLP107=
CYYG;2005-09-23 07:00;METAR CYYG 230700Z 22008KT 15SM BKN220 17/11 A2984 RMK CI6 SLP104=
CYYG;2005-09-23 08:00;METAR CYYG 230800Z 22011G17KT 15SM SCT170 OVC220 18/12 A2982 RMK AC3CI5 SLP098=
CYYG;2005-09-23 09:00;METAR CYYG 230900Z 22009G15KT 15SM SCT070 OVC170 18/12 A2982 RMK AC3AC5 SLP097=
CYYG;2005-09-23 10:00;METAR CYYG 231000Z 24013G19KT 15SM FEW070 BKN180 BKN220 18/12 A2981 RMK AC2AC5CI0 SLP095=
CYYG;2005-09-23 11:00;METAR CYYG 231100Z 23010G16KT 15SM FEW072 BKN170 OVC220 18/11 A2981 RMK AC2AC4CI1 SLP094=
CYYG;2005-09-23 12:00;METAR CYYG 231200Z 23011G18KT 15SM FEW076 BKN140 OVC220 18/11 A2982 RMK AC2AC5CI1 SLP099=
CYYG;2005-09-23 12:20;SPECI CYYG 231220Z 24011G16KT 15SM -SHRA SCT080 BKN140 OVC220 RMK AC3AC4CI1=
CYYG;2005-09-23 13:00;METAR CYYG 231300Z 21012KT 12SM -SHRA SCT080 BKN140 OVC220 17/12 A2984 RMK AC4AC3CI1 SLP104=
CYYG;2005-09-23 14:00;METAR CYYG 231400Z 20014KT 15SM -SHRA FEW040 BKN090 OVC180 16/12 A2979 RMK SC2AC4CI2 SLP090=
CYYG;2005-09-23 14:50;SPECI CYYG 231450Z 20014KT 15SM FEW040 BKN080 OVC180 RMK SC2AC5CI2=
CYYG;2005-09-23 15:00;METAR CYYG 231500Z 21015G21KT 15SM FEW025 BKN078 OVC180 17/13 A2978 RMK SC2AC5CI1 SLP086=
CYYG;2005-09-23 15:07;SPECI CYYG 231507Z 21010G18KT 15SM -SHRA FEW020 OVC070 RMK SC2AC6=
CYYG;2005-09-23 16:00;METAR CYYG 231600Z 20014G19KT 10SM -SHRA BKN023 OVC050 17/14 A2977 RMK SC5SC3 SLP080=
CYYG;2005-09-23 16:22;SPECI CYYG 231622Z 21012G17KT 10SM -SHRA SCT008 OVC020 RMK SF4SC4=
CYYG;2005-09-23 16:26;SPECI CYYG 231626Z 21012G17KT 10SM -SHRA BKN007 OVC020 RMK SF6SC2=
CYYG;2005-09-23 17:00;METAR CYYG 231700Z 21012G17KT 3SM -SHRA BR BKN008 OVC015 17/15 A2974 RMK SF5SC3 SLP073=
CYYG;2005-09-23 18:00;METAR CYYG 231800Z 23010G16KT 10SM -SHRA BKN006 OVC012 17/15 A2974 RMK SF7SC1 SLP072=
CYYG;2005-09-23 19:00;METAR CYYG 231900Z 26010G16KT 10SM -SHRA OVC005 17/15 A2975 RMK SF8 SLP075=
CYYG;2005-09-23 20:00;METAR CYYG 232000Z 26008KT 8SM -SHRA BKN005 OVC014 17/14 A2976 RMK SF6SC2 SLP079=
CYYG;2005-09-23 20:35;SPECI CYYG 232035Z 27005KT 2SM -DZ BR BKN004 OVC007 RMK SF6SF2=
CYYG;2005-09-23 20:47;SPECI CYYG 232047Z 33013G18KT 5SM -DZ BR FEW005 SCT007 OVC011 RMK SF2SF2SC4 WSHFT 2046=
CYYG;2005-09-23 21:00;METAR CYYG 232100Z 33010G15KT 3SM -DZ BR BKN005 OVC011 15/13 A2981 RMK SF5SC3 SLP094=
CYYG;2005-09-23 21:07;SPECI CYYG 232107Z 32008G15KT 2SM -DZ BR BKN005 OVC007 RMK SF6SF2=
CYYG;2005-09-23 21:31;SPECI CYYG 232131Z 33013KT 6SM -SHRA BR BKN006 OVC011 RMK SF6SC2=
CYYG;2005-09-23 21:41;SPECI CYYG 232141Z 33013G18KT 10SM -SHRA SCT006 BKN014 OVC038 RMK SF3SC2SC2 VIS LWR E=
CYYG;2005-09-23 22:00;METAR CYYG 232200Z 34012G17KT 10SM -SHRA FEW005 BKN011 OVC038 14/12 A2985 RMK SF2SC3SC2 SLP108=
CYYG;2005-09-23 23:00;METAR CYYG 232300Z 33010G16KT 15SM FEW007 BKN030 OVC045 14/11 A2988 RMK SF2SC5SC2 SLP118=
CYYG;2005-09-24 00:00;METAR CYYG 240000Z 34005KT 15SM FEW030 BKN060 13/10 A2992 RMK SC2SC3 SLP131=
CYYG;2005-09-24 01:00;METAR CYYG 240100Z 30003KT 15SM SCT060 12/10 A2993 RMK SC3 SLP137=
CYYG;2005-09-24 02:00;METAR CYYG 240200Z 28005KT 15SM FEW028 SCT045 13/11 A2995 RMK SC2SC2 SLP142=
CYYG;2005-09-24 03:00;METAR CYYG 240300Z 30008KT 15SM FEW050 12/09 A2996 RMK SC2 SLP147=
CYYG;2005-09-24 04:00;METAR CYYG 240400Z 31009KT 15SM FEW072 11/07 A2997 RMK AC2 SLP150=
CYYG;2005-09-24 05:00;METAR CYYG 240500Z 27008KT 15SM FEW070 10/06 A3000 RMK AC2 SLP158=
CYYG;2005-09-24 06:00;METAR CYYG 240600Z 27007KT 15SM FEW070 09/05 A3001 RMK AC2 SLP163=
CYYG;2005-09-24 07:00;METAR CYYG 240700Z 28009KT 15SM SKC 09/05 A3002 RMK SLP168=
CYYG;2005-09-24 08:00;METAR CYYG 240800Z 26005KT 15SM SKC 09/05 A3004 RMK SLP173=
CYYG;2005-09-24 09:00;METAR CYYG 240900Z 30010G15KT 15SM SKC 09/05 A3006 RMK SLP179=
CYYG;2005-09-24 10:00;METAR CYYG 241000Z 30012KT 15SM FEW020 09/05 A3008 RMK SC1 SLP187=
CYYG;2005-09-24 11:00;METAR CYYG 241100Z 29011KT 15SM FEW020 09/05 A3010 RMK SC1 SLP195=
CYYG;2005-09-24 12:00;METAR CYYG 241200Z 30011G16KT 15SM FEW020 10/05 A3012 RMK SC1 SLP201=
CYYG;2005-09-24 13:00;METAR CYYG 241300Z 30011G18KT 15SM FEW005 11/06 A3013 RMK SC2 SLP205=
CYYG;2005-09-24 14:00;METAR CYYG 241400Z 31014G20KT 15SM SCT028 12/06 A3014 RMK SC3 SLP208=
CYYG;2005-09-24 15:00;METAR CYYG 241500Z 30013G25KT 15SM SCT034 13/05 A3015 RMK SC3 SLP210=
CYYG;2005-09-24 16:00;METAR CYYG 241600Z 31015G22KT 15SM BKN034 13/05 A3016 RMK SC6 SLP213=
CYYG;2005-09-24 17:00;METAR CYYG 241700Z 32015G20KT 15SM SCT034 13/05 A3016 RMK SC4 SLP213=
CYYG;2005-09-24 18:00;METAR CYYG 241800Z 31013G21KT 15SM SCT040 14/05 A3017 RMK SC4 SLP217=
CYYG;2005-09-24 20:00;METAR CYYG 242000Z 31014G26KT 15SM FEW042 13/03 A3018 RMK SC2 SLP222=
CYYG;2005-09-24 21:00;METAR CYYG 242100Z 33010G20KT 15SM FEW045 13/03 A3020 RMK SC1 SLP227=
CYYG;2005-09-24 22:00;METAR CYYG 242200Z 32010G15KT 15SM FEW045 12/03 A3021 RMK SC1 SLP230=
CYYG;2005-09-24 23:00;METAR CYYG 242300Z 34005KT 15SM SKC 10/03 A3022 RMK SLP235=
CYYG;2005-09-25 00:00;METAR CYYG 250000Z 31005KT 15SM SKC 10/03 A3025 RMK SLP244=
CYYG;2005-09-25 01:00;METAR CYYG 250100Z 30006KT 15SM SKC 09/03 A3026 RMK SLP247=
CYYG;2005-09-25 02:00;METAR CYYG 250200Z 30005KT 15SM SKC 08/03 A3028 RMK SLP254=
CYYG;2005-09-25 03:00;METAR CYYG 250300Z 31004KT 15SM SKC 08/03 A3028 RMK SLP255=
CYYG;2005-09-25 04:00;METAR CYYG 250400Z 31004KT 15SM SKC 07/03 A3028 RMK SLP254=
CYYG;2005-09-25 05:00;METAR CYYG 250500Z 25005KT 15SM SKC 08/03 A3029 RMK SLP259=
CYYG;2005-09-25 06:00;METAR CYYG 250600Z 30004KT 15SM SKC 07/03 A3029 RMK SLP257=
CYYG;2005-09-25 07:00;METAR CYYG 250700Z 26003KT 15SM SKC 07/03 A3030 RMK SLP260=
CYYG;2005-09-25 08:00;METAR CYYG 250800Z 30002KT 15SM SKC 07/03 A3030 RMK SLP260=
CYYG;2005-09-25 09:00;METAR CYYG 250900Z 29007KT 15SM SKC 08/04 A3031 RMK SLP263=
CYYG;2005-09-25 10:00;METAR CYYG 251000Z 29004KT 15SM FEW020 SCT300 08/04 A3031 RMK SC1CI1 SLP264=
CYYG;2005-09-25 11:00;METAR CYYG 251100Z 29005KT 15SM FEW020 BKN300 09/05 A3031 RMK SC1CI2 SLP266=
CYYG;2005-09-25 12:00;METAR CYYG 251200Z 27005KT 15SM FEW020 SCT300 11/06 A3032 RMK SC1CI1 SLP268=
CYYG;2005-09-25 13:00;METAR CYYG 251300Z 24008KT 15SM FEW020 SCT300 13/04 A3034 RMK SC1CI1 SLP276=
CYYG;2005-09-25 14:00;METAR CYYG 251400Z 25010KT 15SM FEW025 BKN300 14/05 A3034 RMK SC1CI2 SLP275=
CYYG;2005-09-25 15:00;METAR CYYG 251500Z 27005KT 15SM FEW030 BKN300 14/04 A3031 RMK SC1CI2 SLP265=
CYYG;2005-09-25 16:00;METAR CYYG 251600Z 23006KT 15SM BKN300 14/04 A3030 RMK CI2 SLP260=
CYYG;2005-09-25 17:00;METAR CYYG 251700Z 23008KT 15SM FEW030 FEW170 BKN300 15/05 A3026 RMK SC1AC2CI1 SLP249=
CYYG;2005-09-25 18:00;METAR CYYG 251800Z 23010KT 15SM FEW170 BKN300 14/03 A3025 RMK AC2CI2 SLP245=
CYYG;2005-09-25 19:00;METAR CYYG 251900Z 23009KT 15SM SCT160 BKN300 16/05 A3023 RMK AC3CI1 SLP239=
CYYG;2005-09-25 20:00;METAR CYYG 252000Z 18008KT 15SM SCT160 BKN300 15/06 A3020 RMK AC4CI1 SLP229=
CYYG;2005-09-25 21:00;METAR CYYG 252100Z 18007KT 15SM SCT150 BKN300 14/07 A3019 RMK AC3CI2 SLP223=
CYYG;2005-09-25 22:00;METAR CYYG 252200Z 21006KT 15SM FEW140 BKN170 14/07 A3017 RMK AC2AC3 VIRGA SLP219=
CYYG;2005-09-25 23:00;METAR CYYG 252300Z 23005KT 15SM FEW140 SCT300 14/07 A3016 RMK AC2CI0 SLP213=
CYYG;2005-09-26 00:00;METAR CYYG 260000Z 22008KT 15SM FEW140 13/07 A3013 RMK AC2 SLP205=
CYYG;2005-09-26 01:00;METAR CYYG 260100Z 22011KT 15SM FEW080 FEW140 13/07 A3012 RMK AC1AC1 SLP202=
CYYG;2005-09-26 02:00;METAR CYYG 260200Z 20011KT 15SM FEW065 FEW140 13/07 A3010 RMK SC2AC1 SLP193=
CYYG;2005-09-26 03:00;METAR CYYG 260300Z 21014G20KT 15SM BKN052 13/07 A3007 RMK SC5 SLP184=
CYYG;2005-09-26 04:00;METAR CYYG 260400Z 21016KT 15SM BKN050 BKN140 OVC220 14/06 A3004 RMK SC6AC1CI1 SLP172=
CYYG;2005-09-26 06:00;METAR CYYG 260600Z 22016G25KT 15SM OVC040 13/07 A3000 RMK SC8 SLP158=
CYYG;2005-09-26 06:09;SPECI CYYG 260609Z 22012G21KT 15SM -SHRA OVC041 RMK SC8=
CYYG;2005-09-26 07:00;METAR CYYG 260700Z 22013KT 15SM -SHRA OVC037 13/08 A2998 RMK SC8 SLP152=
CYYG;2005-09-26 08:00;METAR CYYG 260800Z 23014KT 15SM OVC028 14/08 A2997 RMK SC8 SLP150=
CYYG;2005-09-26 09:00;METAR CYYG 260900Z 23010G17KT 15SM OVC022 13/10 A2997 RMK SC8 SLP148=
CYYG;2005-09-26 09:10;SPECI CYYG 260910Z 23011KT 15SM -SHRA OVC021 RMK SC8=
CYYG;2005-09-26 10:00;METAR CYYG 261000Z 23008KT 15SM -SHRA OVC013 13/11 A2996 RMK SC8 SLP144=
CYYG;2005-09-26 11:00;METAR CYYG 261100Z 23011G16KT 15SM -SHRA OVC011 15/12 A2994 RMK SC8 OBS TAKEN +09 SLP139=
CYYG;2005-09-26 11:20;SPECI CYYG 261120Z 23011G16KT 15SM OVC011 RMK SC8=
CYYG;2005-09-26 12:00;METAR CYYG 261200Z 23010KT 15SM OVC009 15/12 A2993 RMK SC8 SLP137=
CYYG;2005-09-26 13:00;METAR CYYG 261300Z 23011KT 12SM OVC007 15/13 A2993 RMK SC8 SLP134=
CYYG;2005-09-26 14:00;METAR CYYG 261400Z 21008KT 10SM -DZ OVC006 15/13 A2991 RMK ST8 SLP130=
CYYG;2005-09-26 15:00;METAR CYYG 261500Z 22009KT 10SM -DZ OVC007 15/13 A2990 RMK ST8 VIS LWR NW-NE SLP126=
CYYG;2005-09-26 15:19;SPECI CYYG 261519Z 21012KT 15SM OVC007 RMK SC8 VIS LWR W-NE=
CYYG;2005-09-26 15:32;SPECI CYYG 261532Z 19014KT 10SM -SHRA SCT007 OVC012 RMK SC4SC4 VIS=
CYYG;2005-09-26 16:00;METAR CYYG 261600Z 20011KT 15SM OVC010 16/13 A2987 RMK SC8 VIS LWR NW-E SLP115=
CYYG;2005-09-26 16:29;SPECI CYYG 261629Z 21012KT 15SM FEW012 OVC018 RMK SC2SC6=
CYYG;2005-09-26 17:00;METAR CYYG 261700Z 21010G16KT 15SM OVC021 17/14 A2984 RMK SC8 SLP105=
CYYG;2005-09-26 18:00;METAR CYYG 261800Z 20010G15KT 15SM OVC024 17/14 A2981 RMK SC8 SLP094=
CYYG;2005-09-26 18:32;SPECI CYYG 261832Z 22013G18KT 15SM -SHRA OVC023 RMK SC8=
CYYG;2005-09-26 19:00;METAR CYYG 261900Z 21013G18KT 15SM -SHRA OVC024 19/14 A2979 RMK SC8 SLP087=
CYYG;2005-09-26 19:19;SPECI CYYG 261919Z 21012G17KT 15SM OVC024 RMK SC8=
CYYG;2005-09-26 20:00;METAR CYYG 262000Z 20014KT 15SM OVC027 18/14 A2976 RMK SC8 SLP077=
CYYG;2005-09-26 20:14;SPECI CYYG 262014Z 20013KT 15SM -SHRA FEW027 OVC110 RMK SC2AC6=
CYYG;2005-09-26 21:00;METAR CYYG 262100Z 20014G19KT 15SM FEW031 OVC110 18/14 A2973 RMK SC2AC6 SLP067=
CYYG;2005-09-26 22:00;METAR CYYG 262200Z 20015G20KT 15SM OVC110 18/14 A2971 RMK AC8 SLP061=
CYYG;2005-09-26 23:00;METAR CYYG 262300Z 19016KT 15SM OVC120 18/14 A2968 RMK AC8 SLP050=
CYYG;2005-09-27 00:00;METAR CYYG 270000Z 20015KT 15SM OVC120 18/14 A2968 RMK AC8 SLP050=
CYYG;2005-09-27 01:00;METAR CYYG 270100Z 20015G20KT 15SM FEW037 OVC120 18/14 A2966 RMK SC2AC6 SLP044=
CYYG;2005-09-27 01:32;SPECI CYYG 270132Z 20013G18KT 15SM -SHRA BKN032 OVC120 RMK SC5AC3=
CYYG;2005-09-27 02:00;METAR CYYG 270200Z 20015KT 15SM -SHRA BKN032 BKN055 OVC100 18/14 A2964 RMK SC5SC2AC2 SLP038=
CYYG;2005-09-27 03:00;METAR CYYG 270300Z 20020KT 12SM -SHRA BKN025 OVC100 17/14 A2963 RMK SC6AC2 SLP032=
CYYG;2005-09-27 04:00;METAR CYYG 270400Z 20017G22KT 12SM -SHRA BKN035 OVC100 17/14 A2960 RMK SC7AC1 SLP025=
CYYG;2005-09-27 05:00;METAR CYYG 270500Z 19022KT 12SM -SHRA BKN035 OVC100 17/15 A2958 RMK SC6AC2 SLP018=
CYYG;2005-09-27 06:00;METAR CYYG 270600Z 19018KT 12SM -SHRA BKN045 BKN065 OVC100 18/15 A2952 RMK SC5SC2AC2 PRESFR SLP998=
CYYG;2005-09-27 07:00;METAR CYYG 270700Z 20018G28KT 15SM -SHRA BKN040 OVC066 18/15 A2950 RMK SC6AC2 SLP989=
CYYG;2005-09-27 08:00;METAR CYYG 270800Z 20018G24KT 12SM -SHRA SCT020 OVC035 19/15 A2948 RMK SC3SC5 SLP984=
CYYG;2005-09-27 09:00;METAR CYYG 270900Z 19016G21KT 10SM -SHRA BKN020 OVC050 18/15 A2945 RMK SC6SC2 SLP974=
CYYG;2005-09-27 10:00;METAR CYYG 271000Z 22018G27KT 5SM -SHRA BR OVC008 18/16 A2945 RMK SF8 SLP974=
CYYG;2005-09-27 11:00;METAR CYYG 271100Z 22013G19KT 8SM -SHRA SCT008 OVC014 18/16 A2946 RMK SF4SC4 SLP976=
CYYG;2005-09-27 11:35;SPECI CYYG 271135Z 23008G15KT 7SM -SHRA BKN005 OVC010 18/ RMK SF7SC1=
CYYG;2005-09-27 12:00;METAR CYYG 271200Z 24010KT 15SM -SHRA BKN005 OVC010 18/16 A2946 RMK SF7SC1 SLP977=
CYYG;2005-09-27 13:00;METAR CYYG 271300Z 30006KT 12SM -SHRA BKN005 OVC014 16/14 A2949 RMK SF6SC2 SLP987=
CYYG;2005-09-27 13:19;SPECI CYYG 271319Z 33012KT 3SM -SHRA BR OVC004 15/ RMK SF8=
CYYG;2005-09-27 14:00;METAR CYYG 271400Z 34012G18KT 5SM -SHRA BR BKN004 OVC008 13/11 A2954 RMK SF6SF2 SLP003=
CYYG;2005-09-27 15:00;METAR CYYG 271500Z 35012KT 8SM -SHRA BKN006 OVC016 12/10 A2957 RMK SF6SC2 SLP013=
CYYG;2005-09-27 16:00;METAR CYYG 271600Z 34014G22KT 6SM -SHRA BR BKN007 OVC016 12/09 A2961 RMK SF5SC3 SLP026=
CYYG;2005-09-27 17:00;METAR CYYG 271700Z 34014G21KT 6SM -SHRA BR BKN008 OVC016 11/09 A2963 RMK SF6SC2 SLP034=
CYYG;2005-09-27 17:22;SPECI CYYG 271722Z 34014G22KT 15SM -SHRA SCT008 OVC017 11/ RMK SF4SC4=
CYYG;2005-09-27 18:00;METAR CYYG 271800Z 35013G18KT 15SM -SHRA FEW008 OVC018 11/08 A2967 RMK SF2SC6 SLP049=
CYYG;2005-09-27 18:08;SPECI CYYG 271808Z 34011G18KT 15SM FEW008 OVC020 11/ RMK SF2SC6=
CYYG;2005-09-27 19:00;METAR CYYG 271900Z 34009G15KT 15SM FEW008 OVC023 11/07 A2971 RMK SF1SC7 SLP060=
CYYG;2005-09-27 20:00;METAR CYYG 272000Z 35010G16KT 15SM BKN039 11/07 A2974 RMK SC6 SLP072=
CYYG;2005-09-27 21:00;METAR CYYG 272100Z 34009KT 15SM BKN043 12/07 A2976 RMK SC6 SLP078=
CYYG;2005-09-27 22:00;METAR CYYG 272200Z 34006KT 15SM FEW033 11/06 A2978 RMK SC2 SLP086=
CYYG;2005-09-27 23:00;METAR CYYG 272300Z 29004KT 15SM FEW033 10/05 A2981 RMK SC1 SLP096=
CYYG;2005-09-28 00:00;METAR CYYG 280000Z 27004KT 15SM FEW033 09/05 A2983 RMK SC1 SLP102=
CYYG;2005-09-28 01:00;METAR CYYG 280100Z 27006KT 15SM MIFG SKC 09/05 A2985 RMK SLP107=
CYYG;2005-09-28 02:00;METAR CYYG 280200Z 27006KT 15SM MIFG SKC 09/05 A2986 RMK SLP112=
CYYG;2005-09-28 03:00;METAR CYYG 280300Z 27005KT 15SM MIFG FEW050 09/05 A2987 RMK SC2 SLP118=
CYYG;2005-09-28 04:00;METAR CYYG 280400Z 27005KT 15SM MIFG FEW050 09/06 A2988 RMK SC1 SLP120=
CYYG;2005-09-28 05:00;METAR CYYG 280500Z 29007KT 15SM MIFG FEW050 10/06 A2989 RMK SC1 SLP122=
CYYG;2005-09-28 06:00;METAR CYYG 280600Z 27005KT 15SM MIFG FEW050 09/06 A2989 RMK SC1 SLP122=
CYYG;2005-09-28 07:00;METAR CYYG 280700Z 29007KT 15SM FEW064 11/07 A2991 RMK SC2 SLP130=
CYYG;2005-09-28 08:00;METAR CYYG 280800Z 29007KT 15SM BKN067 10/07 A2994 RMK AC6 SLP140=
CYYG;2005-09-28 09:00;METAR CYYG 280900Z 30006KT 15SM FEW067 09/07 A2996 RMK AC2 SLP145=
CYYG;2005-09-28 10:00;METAR CYYG 281000Z 31005KT 15SM FEW067 09/06 A3000 RMK AC2 SLP161=
CYYG;2005-09-28 11:00;METAR CYYG 281100Z 28008KT 15SM FEW067 09/07 A3004 RMK AC1 SLP174=
CYYG;2005-09-28 12:00;METAR CYYG 281200Z 29006KT 15SM FEW065 11/08 A3007 RMK SC1 SLP183=
CYYG;2005-09-28 13:00;METAR CYYG 281300Z 31007KT 15SM FEW065 13/09 A3010 RMK SC1 SLP195=
CYYG;2005-09-28 14:00;METAR CYYG 281400Z 29006KT 15SM FEW030 14/09 A3013 RMK SC2 SLP204=
CYYG;2005-09-28 15:00;METAR CYYG 281500Z 33003KT 15SM SCT032 15/07 A3015 RMK CU3 SLP211=
CYYG;2005-09-28 16:00;METAR CYYG 281600Z 30005KT 15SM FEW036 16/08 A3016 RMK CU2 SLP213=
CYYG;2005-09-28 17:00;METAR CYYG 281700Z 00000KT 15SM FEW040 15/07 A3016 RMK CU2 SLP214=
CYYG;2005-09-28 18:00;METAR CYYG 281800Z 31006KT 15SM FEW050 16/06 A3016 RMK CU2 SLP214=
CYYG;2005-09-28 19:00;METAR CYYG 281900Z 27007KT 15SM FEW050 SCT250 16/08 A3016 RMK CU2CI0 SLP215=
CYYG;2005-09-28 20:00;METAR CYYG 282000Z 29004KT 15SM FEW050 FEW250 16/09 A3018 RMK SC2CI0 SLP220=
CYYG;2005-09-28 21:00;METAR CYYG 282100Z 25006KT 15SM FEW250 16/06 A3018 RMK CI1 SLP222=
CYYG;2005-09-28 22:00;METAR CYYG 282200Z 23003KT 15SM FEW250 14/07 A3021 RMK CI1 SLP231=
CYYG;2005-09-28 23:00;METAR CYYG 282300Z 20003KT 15SM FEW250 13/06 A3023 RMK CI1 SLP238=
CYYG;2005-09-29 00:00;METAR CYYG 290000Z 17005KT 15SM FEW250 11/07 A3024 RMK CI1 SLP240=
CYYG;2005-09-29 01:00;METAR CYYG 290100Z 17004KT 15SM SKC 11/07 A3024 RMK SLP240=
CYYG;2005-09-29 02:00;METAR CYYG 290200Z 18007KT 15SM SKC 12/07 A3024 RMK SLP240=
CYYG;2005-09-29 03:00;METAR CYYG 290300Z 20006KT 15SM SKC 12/08 A3025 RMK SLP244=
CYYG;2005-09-29 04:00;METAR CYYG 290400Z 18006KT 15SM SKC 10/07 A3023 RMK SLP237=
CYYG;2005-09-29 05:00;METAR CYYG 290500Z 19007KT 15SM SKC 11/08 A3023 RMK SLP239=
CYYG;2005-09-29 06:00;METAR CYYG 290600Z 18007KT 15SM SKC 11/08 A3023 RMK SLP238=
CYYG;2005-09-29 07:00;METAR CYYG 290700Z 19009KT 15SM SKC 12/08 A3022 RMK SLP235=
CYYG;2005-09-29 08:00;METAR CYYG 290800Z 18010KT 15SM SKC 12/08 A3022 RMK SLP233=
CYYG;2005-09-29 09:00;METAR CYYG 290900Z 18009KT 15SM SKC 11/09 A3022 RMK SLP233=
CYYG;2005-09-29 10:00;METAR CYYG 291000Z 18011KT 15SM FEW016 BKN250 13/10 A3020 RMK SC1CI2 SLP226=
CYYG;2005-09-29 11:00;METAR CYYG 291100Z 18016KT 15SM FEW016 OVC250 13/10 A3020 RMK SC1CI4 SLP228=
CYYG;2005-09-29 12:00;METAR CYYG 291200Z 19017G22KT 15SM FEW016 BKN250 14/10 A3020 RMK SC1CI4 SLP226=
CYYG;2005-09-29 13:00;METAR CYYG 291300Z 18017KT 15SM BKN022 OVC250 14/11 A3017 RMK SC5CI2 SLP216=
CYYG;2005-09-29 14:00;METAR CYYG 291400Z 19020G27KT 15SM FEW020 BKN250 16/10 A3014 RMK CF1CI3 SLP206=
CYYG;2005-09-29 15:00;METAR CYYG 291500Z 19024G31KT 15SM FEW020 BKN250 17/11 A3011 RMK CF1CI3 SLP198=
CYYG;2005-09-29 16:00;METAR CYYG 291600Z 19021G29KT 15SM FEW020 BKN250 17/10 A3010 RMK CF1CI2 SLP193=
CYYG;2005-09-29 17:00;METAR CYYG 291700Z 20023G29KT 15SM FEW020 BKN250 19/10 A3005 RMK CF1CI2 SLP178=
CYYG;2005-09-29 18:00;METAR CYYG 291800Z 19017G28KT 15SM FEW049 BKN250 19/11 A3002 RMK SC2CI2 SLP165=
CYYG;2005-09-29 19:00;METAR CYYG 291900Z 18021G30KT 15SM BKN055 BKN250 19/11 A2997 RMK SC5CI1 SLP149=
CYYG;2005-09-29 20:00;METAR CYYG 292000Z 18019G27KT 15SM FEW055 SCT100 BKN250 19/12 A2994 RMK SC2AC2CI1 SLP139=
CYYG;2005-09-29 21:00;METAR CYYG 292100Z 18028G33KT 15SM FEW040 SCT100 BKN250 19/12 A2988 RMK SC2AC2CI1 PRESFR SLP118=
CYYG;2005-09-29 22:00;METAR CYYG 292200Z 18024G29KT 15SM FEW035 FEW065 BKN250 18/12 A2986 RMK SC1SC2CI1 SLP111=
CYYG;2005-09-29 23:00;METAR CYYG 292300Z 18020G30KT 15SM FEW035 SCT065 BKN250 17/12 A2985 RMK SC1SC2CI1 SLP108=
CYYG;2005-09-30 00:00;METAR CYYG 300000Z 18022G29KT 15SM FEW040 BKN075 BKN250 18/12 A2981 RMK SC1AC4CI1 SLP095=
CYYG;2005-09-30 02:00;METAR CYYG 300200Z 18025G34KT 15SM SCT035 BKN080 18/13 A2972 RMK SC4AC3 SLP065=
CYYG;2005-09-30 03:00;METAR CYYG 300300Z 18027G35KT 15SM BKN031 BKN080 19/14 A2967 RMK SC5AC2 SLP048=
CYYG;2005-09-30 03:43;SPECI CYYG 300343Z 20026G35KT 10SM -SHRA BKN025 OVC080 18/ RMK SC6AC2=
CYYG;2005-09-30 04:00;METAR CYYG 300400Z 26026G36KT 12SM -SHRA BKN027 OVC080 14/10 A2974 RMK SC6AC2 PRESRR SLP072=
CYYG;2005-09-30 05:00;METAR CYYG 300500Z 25014G20KT 12SM -SHRA SCT027 OVC052 12/09 A2977 RMK SC4SC4 SLP080=
CYYG;2005-09-30 06:00;METAR CYYG 300600Z 25013G18KT 12SM -SHRA SCT027 OVC061 12/08 A2979 RMK SC3SC5 SLP088=
CYYG;2005-09-30 07:00;METAR CYYG 300700Z 27010G17KT 15SM -SHRA FEW018 OVC080 10/06 A2982 RMK SC2AC6 SLP098=
CYYG;2005-09-30 08:00;METAR CYYG 300800Z 27008KT 15SM FEW015 OVC100 10/04 A2984 RMK SC2AC6 SLP106=
CYYG;2005-09-30 09:00;METAR CYYG 300900Z 27009KT 15SM FEW015 BKN110 09/04 A2988 RMK SC1AC6 SLP119=
CYYG;2005-09-30 10:00;METAR CYYG 301000Z 26007KT 15SM FEW015 FEW120 08/03 A2990 RMK SC1AC2 SLP124=
CYYG;2005-09-30 11:00;METAR CYYG 301100Z 26009KT 15SM FEW020 FEW120 FEW300 08/03 A2994 RMK SC1AC1CI0 SLP139=
CYYG;2005-09-30 12:00;METAR CYYG 301200Z 27010KT 15SM FEW020 FEW120 BKN300 09/04 A2997 RMK CU1AC1CI2 SLP149=
CYYG;2005-09-30 13:00;METAR CYYG 301300Z 28015G20KT 15SM FEW020 FEW120 BKN300 10/03 A2999 RMK SC1AC1CI4 SLP157=
CYYG;2005-09-30 14:00;METAR CYYG 301400Z 29008G17KT 15SM FEW020 BKN300 10/03 A3001 RMK SC1CI3 SLP161=
CYYG;2005-09-30 15:00;METAR CYYG 301500Z 28012G18KT 15SM FEW030 BKN300 12/04 A3002 RMK SC1CI2 SLP165=
CYYG;2005-09-30 16:00;METAR CYYG 301600Z 30009KT 15SM FEW035 FEW100 BKN300 11/03 A3003 RMK CU2AC1CI1 SLP169=
CYYG;2005-09-30 17:00;METAR CYYG 301700Z 29008KT 15SM FEW039 SCT140 BKN300 13/04 A3003 RMK CU2AC2CI2 SLP169=
CYYG;2005-09-30 18:00;METAR CYYG 301800Z 30010G15KT 15SM FEW033 BKN300 12/04 A3005 RMK CU2CI5 SLP177=
CYYG;2005-09-30 19:00;METAR CYYG 301900Z 27004KT 15SM FEW033 BKN120 BKN300 11/04 A3005 RMK SC2AC4CI2 SLP178=
CYYG;2005-09-30 20:00;METAR CYYG 302000Z 00000KT 15SM FEW033 BKN110 BKN300 11/04 A3005 RMK SC1AC4CI2 SLP176=
CYYG;2005-09-30 21:00;METAR CYYG 302100Z 25006KT 15SM FEW034 SCT110 BKN300 11/04 A3006 RMK SC1AC2CI0 SLP181=
CYYG;2005-09-30 22:00;METAR CYYG 302200Z 25005KT 15SM FEW035 FEW110 SCT300 10/04 A3010 RMK SC1AC2CI1 SLP193=
CYYG;2005-09-30 23:00;METAR CYYG 302300Z 23004KT 15SM FEW110 09/04 A3013 RMK AC2 SLP203=
CYYG;2005-10-01 00:00;METAR CYYG 010000Z 23005KT 15SM FEW110 08/04 A3014 RMK AC1 SLP207=
CYYG;2005-10-01 01:00;METAR CYYG 010100Z 24006KT 15SM FEW110 08/04 A3015 RMK AC1 SLP211=
CYYG;2005-10-01 02:00;METAR CYYG 010200Z 26005KT 15SM SKC 08/04 A3016 RMK SLP215=
CYYG;2005-10-01 03:00;METAR CYYG 010300Z 26005KT 15SM SKC 08/04 A3018 RMK SLP221=
CYYG;2005-10-01 04:00;METAR CYYG 010400Z 26006KT 15SM SKC 08/04 A3019 RMK SLP225=
CYYG;2005-10-01 05:00;METAR CYYG 010500Z 26005KT 15SM SKC 08/04 A3021 RMK SLP230=
CYYG;2005-10-01 06:00;METAR CYYG 010600Z 29005KT 15SM SKC 07/04 A3021 RMK SLP232=
CYYG;2005-10-01 07:00;METAR CYYG 010700Z 28004KT 15SM SKC 07/04 A3023 RMK SLP236=
CYYG;2005-10-01 08:00;METAR CYYG 010800Z 28003KT 15SM SKC 06/03 A3024 RMK SLP241=
CYYG;2005-10-01 09:00;METAR CYYG 010900Z 00000KT 15SM FEW110 06/03 A3027 RMK AC1 SLP251=
CYYG;2005-10-01 10:00;METAR CYYG 011000Z 25005KT 15SM FEW030 BKN300 07/04 A3028 RMK SC1CI1 SLP256=
CYYG;2005-10-01 11:00;METAR CYYG 011100Z 25006KT 15SM FEW030 FEW300 08/05 A3031 RMK CU1CI1 SLP266=
CYYG;2005-10-01 12:00;METAR CYYG 011200Z 26004KT 15SM FEW030 FEW300 09/06 A3032 RMK CU1CI0 SLP269=
CYYG;2005-10-01 13:00;METAR CYYG 011300Z 23007KT 15SM FEW030 FEW300 11/06 A3032 RMK CU1CI0 SLP270=
CYYG;2005-10-01 14:00;METAR CYYG 011400Z 20010KT 15SM FEW024 BKN300 13/07 A3032 RMK CU1CI1 SLP270=
CYYG;2005-10-01 15:00;METAR CYYG 011500Z 22009G15KT 15SM FEW030 BKN300 13/05 A3031 RMK CU1CI2 SLP266=
CYYG;2005-10-01 16:00;METAR CYYG 011600Z 22012KT 15SM FEW030 FEW160 FEW300 14/05 A3030 RMK CU1AC1CI1 SLP261=
CYYG;2005-10-01 17:00;METAR CYYG 011700Z 22012G17KT 15SM FEW030 FEW160 SCT300 15/06 A3028 RMK CU1AC1CI1 SLP255=
CYYG;2005-10-01 18:00;METAR CYYG 011800Z 24011G16KT 15SM FEW160 BKN300 15/06 A3027 RMK AC2CI1 SLP252=
CYYG;2005-10-01 19:00;METAR CYYG 011900Z 23010G15KT 15SM FEW150 SCT300 16/06 A3025 RMK AC2CI0 SLP243=
CYYG;2005-10-01 20:00;METAR CYYG 012000Z 21011G17KT 15SM FEW150 BKN300 16/06 A3023 RMK AC1CI1 SLP236=
CYYG;2005-10-01 21:00;METAR CYYG 012100Z 22013KT 15SM FEW150 BKN300 15/05 A3022 RMK AC1CI1 SLP233=
CYYG;2005-10-01 22:00;METAR CYYG 012200Z 22010G15KT 15SM FEW150 BKN300 14/05 A3021 RMK AC1CI1 SLP230=
CYYG;2005-10-01 23:00;METAR CYYG 012300Z 23010KT 15SM SCT300 14/07 A3020 RMK CI2 SLP228=
CYYG;2005-10-02 00:00;METAR CYYG 020000Z 22007KT 15SM FEW300 13/07 A3021 RMK CI2 SLP230=
CYYG;2005-10-02 01:00;METAR CYYG 020100Z 24011KT 15SM FEW300 12/05 A3020 RMK CI1 SLP227=
CYYG;2005-10-02 02:00;METAR CYYG 020200Z 25012KT 15SM SKC 12/04 A3020 RMK SLP228=
CYYG;2005-10-02 03:00;METAR CYYG 020300Z 24012KT 15SM SKC 12/07 A3019 RMK SLP223=
CYYG;2005-10-02 04:00;METAR CYYG 020400Z 24009G16KT 15SM SKC 12/08 A3017 RMK SLP218=
CYYG;2005-10-02 05:00;METAR CYYG 020500Z 24010KT 15SM SKC 12/08 A3017 RMK SLP219=
CYYG;2005-10-02 06:00;METAR CYYG 020600Z 25012G17KT 15SM SKC 13/09 A3016 RMK SLP215=
CYYG;2005-10-02 07:00;METAR CYYG 020700Z 25014G19KT 15SM SKC 13/09 A3016 RMK SLP214=
CYYG;2005-10-02 08:00;METAR CYYG 020800Z 26012G18KT 15SM FEW090 13/09 A3017 RMK AC1 SLP217=
CYYG;2005-10-02 09:00;METAR CYYG 020900Z 27009G15KT 15SM FEW090 12/08 A3018 RMK AC1 SLP222=
CYYG;2005-10-02 10:00;METAR CYYG 021000Z 27010G15KT 15SM FEW090 12/08 A3021 RMK AC1 SLP230=
CYYG;2005-10-02 11:00;METAR CYYG 021100Z 28009KT 15SM FEW300 13/08 A3023 RMK CI1 SLP239=
CYYG;2005-10-02 12:00;METAR CYYG 021200Z 28009KT 15SM FEW300 14/09 A3025 RMK CI1 SLP245=
CYYG;2005-10-02 13:00;METAR CYYG 021300Z 31012KT 15SM FEW300 16/09 A3027 RMK CI0 SLP252=
CYYG;2005-10-02 14:00;METAR CYYG 021400Z 32010G17KT 15SM FEW030 FEW300 17/09 A3029 RMK CU1CI0 SLP258=
CYYG;2005-10-02 15:00;METAR CYYG 021500Z 33010G15KT 15SM FEW030 FEW300 17/09 A3031 RMK CU1CI0 SLP264=
CYYG;2005-10-02 16:00;METAR CYYG 021600Z 35011KT 15SM FEW030 FEW300 17/08 A3031 RMK CU1CI0 SLP266=
CYYG;2005-10-02 17:00;METAR CYYG 021700Z 34008KT 15SM FEW030 FEW300 18/08 A3031 RMK CU1CI0 SLP265=
CYYG;2005-10-02 18:00;METAR CYYG 021800Z 35008KT 15SM FEW030 FEW300 17/08 A3032 RMK CU1CI0 SLP269=
CYYG;2005-10-02 19:00;METAR CYYG 021900Z 34008KT 15SM FEW030 FEW300 17/07 A3033 RMK CU1CI0 SLP271=
CYYG;2005-10-02 20:00;METAR CYYG 022000Z 33006KT 15SM FEW030 FEW300 16/06 A3033 RMK CF1CI0 SLP273=
CYYG;2005-10-02 21:00;METAR CYYG 022100Z 36003KT 15SM FEW300 15/08 A3034 RMK CI0 SLP274=
CYYG;2005-10-02 22:00;METAR CYYG 022200Z 00000KT 15SM FEW300 13/08 A3035 RMK CI0 SLP279=
CYYG;2005-10-02 23:00;METAR CYYG 022300Z 00000KT 15SM SKC 10/07 A3035 RMK SLP279=
CYYG;2005-10-03 00:00;METAR CYYG 030000Z 00000KT 15SM SKC 10/06 A3037 RMK SLP284=
CYYG;2005-10-03 01:00;METAR CYYG 030100Z 00000KT 15SM SKC 09/06 A3037 RMK SLP286=
CYYG;2005-10-03 02:00;METAR CYYG 030200Z 24005KT 15SM SKC 11/07 A3038 RMK SLP289=
CYYG;2005-10-03 03:00;METAR CYYG 030300Z 22003KT 15SM SKC 11/07 A3039 RMK SLP290=
CYYG;2005-10-03 04:00;METAR CYYG 030400Z 00000KT 15SM SKC 11/08 A3039 RMK SLP290=
CYYG;2005-10-03 05:00;METAR CYYG 030500Z 23005KT 15SM SKC 11/09 A3039 RMK SLP292=
CYYG;2005-10-03 06:00;METAR CYYG 030600Z 00000KT 15SM SKC 11/08 A3039 RMK SLP293=
CYYG;2005-10-03 07:00;METAR CYYG 030700Z 00000KT 15SM SKC 09/07 A3040 RMK SLP296=
CYYG;2005-10-03 08:00;METAR CYYG 030800Z 00000KT 15SM SKC 09/07 A3041 RMK SLP299=
CYYG;2005-10-03 09:00;METAR CYYG 030900Z 00000KT 15SM SKC 06/04 A3042 RMK SLP303=
CYYG;2005-10-03 10:00;METAR CYYG 031000Z 00000KT 15SM MIFG FEW320 09/08 A3043 RMK CI0 SLP307=
CYYG;2005-10-03 11:00;METAR CYYG 031100Z 23003KT 15SM MIFG SKC 11/09 A3043 RMK SLP307=
CYYG;2005-10-03 12:00;METAR CYYG 031200Z 00000KT 15SM FEW320 12/11 A3045 RMK CI0 CONTRAILS SLP313=
CYYG;2005-10-03 13:00;METAR CYYG 031300Z 25005KT 15SM FEW320 15/11 A3045 RMK CI0 SLP313=
CYYG;2005-10-03 14:00;METAR CYYG 031400Z 24006KT 15SM FEW320 18/11 A3044 RMK CI1 SLP311=
CYYG;2005-10-03 15:00;METAR CYYG 031500Z 25007KT 15SM SKC 20/10 A3043 RMK SLP306=
CYYG;2005-10-03 16:00;METAR CYYG 031600Z 26009KT 15SM FEW320 21/08 A3042 RMK CI1 SLP302=
CYYG;2005-10-03 17:00;METAR CYYG 031700Z 19010KT 15SM FEW320 21/09 A3040 RMK CI1 SLP296=
CYYG;2005-10-03 18:00;METAR CYYG 031800Z 23009KT 15SM FEW320 21/10 A3039 RMK CI0 SLP291=
CYYG;2005-10-03 19:00;METAR CYYG 031900Z 23006KT 15SM FEW320 22/10 A3038 RMK CI0 SLP288=
CYYG;2005-10-03 20:00;METAR CYYG 032000Z 22006KT 15SM FEW320 22/11 A3037 RMK CI0 SLP286=
CYYG;2005-10-03 21:00;METAR CYYG 032100Z 20008KT 15SM FEW320 19/12 A3037 RMK CI0 SLP286=
CYYG;2005-10-03 22:00;METAR CYYG 032200Z 20004KT 15SM FEW320 17/11 A3037 RMK CI0 SLP284=
CYYG;2005-10-03 23:00;METAR CYYG 032300Z 22004KT 15SM SKC 16/11 A3038 RMK SLP288=
CYYG;2005-10-04 00:00;METAR CYYG 040000Z 23005KT 15SM SKC 17/10 A3038 RMK SLP289=
CYYG;2005-10-04 01:00;METAR CYYG 040100Z 23007KT 15SM SKC 17/11 A3038 RMK SLP287=
CYYG;2005-10-04 02:00;METAR CYYG 040200Z 23007KT 15SM SKC 16/11 A3038 RMK SLP288=
CYYG;2005-10-04 03:00;METAR CYYG 040300Z 23008KT 15SM SKC 15/11 A3037 RMK SLP286=
CYYG;2005-10-04 04:00;METAR CYYG 040400Z 22008KT 15SM SKC 15/11 A3037 RMK SLP284=
CYYG;2005-10-04 05:00;METAR CYYG 040500Z 22007KT 15SM SKC 15/11 A3036 RMK SLP280=
CYYG;2005-10-04 06:00;METAR CYYG 040600Z 23010KT 15SM SKC 15/10 A3034 RMK SLP276=
CYYG;2005-10-04 07:00;METAR CYYG 040700Z 23007KT 15SM SKC 14/09 A3034 RMK SLP274=
CYYG;2005-10-04 08:00;METAR CYYG 040800Z 24008KT 15SM SKC 14/10 A3033 RMK SLP270=
CYYG;2005-10-04 09:00;METAR CYYG 040900Z 23008KT 15SM SKC 14/10 A3032 RMK SLP268=
CYYG;2005-10-04 10:00;METAR CYYG 041000Z 23008KT 15SM SKC 14/10 A3033 RMK SLP270=
CYYG;2005-10-04 11:00;METAR CYYG 041100Z 23011KT 15SM SKC 14/10 A3033 RMK SLP270=
CYYG;2005-10-04 12:00;METAR CYYG 041200Z 23012G17KT 15SM SKC 15/11 A3032 RMK SLP267=
CYYG;2005-10-04 13:00;METAR CYYG 041300Z 27012KT 15SM SKC 17/11 A3031 RMK SLP266=
CYYG;2005-10-04 14:00;METAR CYYG 041400Z 22013G18KT 15SM SKC 18/11 A3031 RMK SLP265=
CYYG;2005-10-04 15:00;METAR CYYG 041500Z 22015G22KT 15SM SKC 19/12 A3029 RMK SLP258=
CYYG;2005-10-04 16:00;METAR CYYG 041600Z 23011G21KT 15SM SKC 20/12 A3028 RMK SLP253=
CYYG;2005-10-04 17:00;METAR CYYG 041700Z 23014G21KT 15SM SKC 21/12 A3025 RMK SLP245=
CYYG;2005-10-04 18:00;METAR CYYG 041800Z 23013G20KT 15SM SKC 21/12 A3024 RMK SLP239=
CYYG;2005-10-04 19:00;METAR CYYG 041900Z 22012G22KT 15SM FEW250 21/11 A3023 RMK CI1 SLP236=
CYYG;2005-10-04 20:00;METAR CYYG 042000Z 23011G19KT 15SM FEW250 20/10 A3022 RMK CI1 SLP233=
CYYG;2005-10-04 21:00;METAR CYYG 042100Z 23011G20KT 15SM FEW250 20/09 A3021 RMK CI1 SLP232=
CYYG;2005-10-04 22:00;METAR CYYG 042200Z 22010KT 15SM SCT250 18/10 A3020 RMK CI2 SLP228=
CYYG;2005-10-04 23:00;METAR CYYG 042300Z 23011G17KT 15SM SCT250 17/10 A3020 RMK CI2 SLP228=
CYYG;2005-10-05 00:00;METAR CYYG 050000Z 23016G24KT 15SM FEW250 17/10 A3020 RMK CI1 SLP227=
CYYG;2005-10-05 01:00;METAR CYYG 050100Z 24011KT 15SM FEW250 16/12 A3022 RMK CI1 SLP235=
CYYG;2005-10-05 02:00;METAR CYYG 050200Z 24012G22KT 15SM FEW250 16/13 A3023 RMK CI1 SLP236=
CYYG;2005-10-05 03:00;METAR CYYG 050300Z 24012G17KT 15SM SKC 16/13 A3023 RMK SLP238=
CYYG;2005-10-05 05:00;METAR CYYG 050500Z 24013G19KT 15SM FEW080 16/13 A3024 RMK AC2 SLP240=
CYYG;2005-10-05 06:00;METAR CYYG 050600Z 25013G18KT 15SM SCT080 16/12 A3024 RMK AC3 SLP241=
CYYG;2005-10-05 07:00;METAR CYYG 050700Z 24011KT 15SM SCT160 15/12 A3025 RMK AC4 SLP242=
CYYG;2005-10-05 08:00;METAR CYYG 050800Z 25013KT 15SM SCT180 15/12 A3025 RMK AC3 SLP242=
CYYG;2005-10-05 09:00;METAR CYYG 050900Z 26010KT 15SM FEW060 BKN180 15/13 A3025 RMK SC2AC2 SLP246=
CYYG;2005-10-05 10:00;METAR CYYG 051000Z 27004KT 15SM SCT025 BKN060 OVC180 15/13 A3027 RMK SC3SC3AC2 SLP252=
CYYG;2005-10-05 10:41;SPECI CYYG 051041Z 27003KT 15SM BKN012 BKN025 OVC060 16/ RMK SC5SC2SC2=
CYYG;2005-10-05 11:00;METAR CYYG 051100Z 28003KT 15SM BKN010 OVC025 16/14 A3029 RMK SC6SC2 SLP259=
CYYG;2005-10-05 11:31;SPECI CYYG 051131Z 27002KT 15SM BKN009 OVC025 16/ RMK SF7SC1=
CYYG;2005-10-05 12:00;METAR CYYG 051200Z 31005KT 15SM OVC007 16/14 A3031 RMK SF8 SLP264=
CYYG;2005-10-05 13:00;METAR CYYG 051300Z 31004KT 15SM OVC007 16/14 A3032 RMK SF8 SLP269=
CYYG;2005-10-05 13:43;SPECI CYYG 051343Z 34007KT 15SM OVC010 15/ RMK SF8=
CYYG;2005-10-05 14:00;METAR CYYG 051400Z 33005KT 15SM OVC010 16/14 A3033 RMK SF8 SLP272=
CYYG;2005-10-05 15:00;METAR CYYG 051500Z 32006KT 15SM OVC010 16/13 A3033 RMK SF8 SLP273=
CYYG;2005-10-05 16:00;METAR CYYG 051600Z 34002KT 15SM OVC010 16/14 A3033 RMK SF8 SLP273=
CYYG;2005-10-05 17:00;METAR CYYG 051700Z 21004KT 15SM SCT012 19/15 A3030 RMK SC3 SLP260=
CYYG;2005-10-05 18:00;METAR CYYG 051800Z 19006KT 10SM BKN015 19/15 A3029 RMK SC5 SLP258=
CYYG;2005-10-05 19:00;METAR CYYG 051900Z 23002KT 10SM FEW009 BKN015 18/15 A3028 RMK SF2SC3 SLP256=
CYYG;2005-10-05 20:00;METAR CYYG 052000Z 17004KT 10SM FEW009 FEW015 SCT060 BKN250 18/15 A3027 RMK SF1SC1SC2CI1 SLP252=
CYYG;2005-10-05 21:00;METAR CYYG 052100Z 19005KT 15SM BKN250 18/15 A3026 RMK CI2 SLP249=
CYYG;2005-10-05 22:00;METAR CYYG 052200Z 17005KT 5SM HZ BKN250 16/14 A3027 RMK CI2 SLP250=
CYYG;2005-10-05 23:00;METAR CYYG 052300Z 18006KT 10SM BKN250 15/14 A3026 RMK CI2 SLP247=
CYYG;2005-10-06 00:00;METAR CYYG 060000Z 19008KT 15SM BKN250 15/14 A3025 RMK CI2 SLP245=
CYYG;2005-10-06 01:00;METAR CYYG 060100Z 21010G16KT 15SM FEW250 16/14 A3024 RMK CI0 SLP242=
CYYG;2005-10-06 02:00;METAR CYYG 060200Z 23012KT 15SM SKC 15/14 A3024 RMK SLP240=
CYYG;2005-10-06 03:00;METAR CYYG 060300Z 22012KT 15SM FEW007 15/14 A3023 RMK SF2 SLP237=
CYYG;2005-10-06 03:13;SPECI CYYG 060313Z 23014G21KT 15SM BKN007 15/ RMK SF6=
CYYG;2005-10-06 04:00;METAR CYYG 060400Z 23012G19KT 15SM BKN006 16/15 A3023 RMK SF6 SLP237=
CYYG;2005-10-06 05:00;METAR CYYG 060500Z 23010G15KT 15SM BKN008 16/15 A3022 RMK SC7 SLP234=
CYYG;2005-10-06 06:00;METAR CYYG 060600Z 23010G16KT 15SM OVC008 17/15 A3022 RMK SC8 SLP233=
CYYG;2005-10-06 07:00;METAR CYYG 060700Z 23012G19KT 15SM OVC010 16/15 A3021 RMK SC8 SLP231=
CYYG;2005-10-06 07:26;SPECI CYYG 060726Z 24009KT 15SM OVC008 16/ RMK SC8=
CYYG;2005-10-06 08:00;METAR CYYG 060800Z 25010G19KT 15SM BKN008 16/15 A3022 RMK SC6 SLP233=
CYYG;2005-10-06 09:00;METAR CYYG 060900Z 25010G16KT 15SM OVC007 16/15 A3023 RMK SF8 SLP238=
CYYG;2005-10-06 10:00;METAR CYYG 061000Z 27008KT 15SM OVC009 16/14 A3025 RMK SF8 SLP243=
CYYG;2005-10-06 11:00;METAR CYYG 061100Z 27011KT 15SM OVC007 16/14 A3025 RMK SC8 SLP246=
CYYG;2005-10-06 11:33;SPECI CYYG 061133Z 27006KT 15SM -DZ OVC010 15/ RMK SC8=
CYYG;2005-10-06 12:00;METAR CYYG 061200Z 26004KT 15SM -DZ OVC012 16/14 A3027 RMK SC8 SLP250=
CYYG;2005-10-06 12:27;SPECI CYYG 061227Z 27004KT 15SM OVC014 16/ RMK SC8=
CYYG;2005-10-06 12:47;SPECI CYYG 061247Z 26003KT 15SM OVC009 16/ RMK SC8=
CYYG;2005-10-06 13:00;METAR CYYG 061300Z 26004KT 15SM OVC011 16/15 A3027 RMK SC8 SLP251=
CYYG;2005-10-06 13:09;SPECI CYYG 061309Z 28003KT 6SM -DZ BR OVC007 16/ RMK SF8=
CYYG;2005-10-06 14:00;METAR CYYG 061400Z 29003KT 10SM -DZ OVC007 16/15 A3027 RMK SF8 SLP250=
CYYG;2005-10-06 14:26;SPECI CYYG 061426Z 30003KT 15SM OVC011 16/ RMK SC8=
CYYG;2005-10-06 15:00;METAR CYYG 061500Z 27003KT 15SM OVC010 16/15 A3026 RMK SC8 SLP249=
CYYG;2005-10-06 16:00;METAR CYYG 061600Z 02005KT 15SM OVC010 16/15 A3026 RMK SC8 SLP248=
CYYG;2005-10-06 17:00;METAR CYYG 061700Z 03004KT 15SM OVC009 16/14 A3025 RMK SC8 SLP245=
CYYG;2005-10-06 18:00;METAR CYYG 061800Z 05004KT 6SM HZ OVC007 15/14 A3025 RMK SF8 SLP243=
CYYG;2005-10-06 18:29;SPECI CYYG 061829Z 06005KT 5SM BR OVC004 15/ RMK SF8=
CYYG;2005-10-06 19:00;METAR CYYG 061900Z 06005KT 6SM BR OVC005 16/15 A3023 RMK SF8 SLP239=
CYYG;2005-10-06 20:00;METAR CYYG 062000Z 08004KT 7SM BKN006 16/15 A3023 RMK SF7 HAZY SLP236=
CYYG;2005-10-06 21:00;METAR CYYG 062100Z 09004KT 10SM BKN008 BKN015 16/15 A3022 RMK SF5SC2=
CYYG;2005-10-06 21:22;SPECI CYYG 062122Z 09003KT 6SM BR OVC013 16/ RMK SC8=
CYYG;2005-10-06 21:27;SPECI CYYG 062127Z 00000KT 5SM -DZ BR BKN004 OVC013 16/ RMK SF6SC2=
CYYG;2005-10-06 21:53;SPECI CYYG 062153Z 09002KT 2 1/2SM -DZ BR OVC004 16/ RMK SF8=
CYYG;2005-10-06 22:00;METAR CYYG 062200Z 09002KT 2 1/2SM -DZ BR BKN004 OVC007 16/15 A3021 RMK SF7SF1 SLP232=
CYYG;2005-10-06 22:26;SPECI CYYG 062226Z 09004KT 1 1/2SM -DZ BR BKN002 OVC010 16/ RMK SF7SC1=
CYYG;2005-10-06 23:00;METAR CYYG 062300Z 11004KT 2 1/2SM BR OVC002 16/15 A3021 RMK SF8 SLP230=
CYYG;2005-10-07 00:00;METAR CYYG 070000Z 13004KT 2 1/2SM BR BKN002 OVC007 16/15 A3020 RMK SF7SF1 SLP226=
CYYG;2005-10-07 00:38;SPECI CYYG 070038Z 12003KT 4SM -DZ BR SCT002 OVC005 16/ RMK SF3SF5=
CYYG;2005-10-07 01:00;METAR CYYG 070100Z 11003KT 3SM -DZ BR SCT002 OVC004 16/15 A3020 RMK SF3SF5 SLP226=
CYYG;2005-10-07 01:39;SPECI CYYG 070139Z 13003KT 2SM -DZ BR OVC003 16/ RMK SF8=
CYYG;2005-10-07 02:00;METAR CYYG 070200Z 14005KT 2SM -DZ BR BKN003 OVC013 16/16 A3018 RMK SF6SC2 SLP222=
CYYG;2005-10-07 02:21;SPECI CYYG 070221Z 15005KT 2SM BR FEW003 OVC010 16/ RMK SF2SC6=
CYYG;2005-10-07 03:00;METAR CYYG 070300Z 17005KT 2SM BR FEW003 OVC008 17/16 A3017 RMK SF2SC6 SLP216=
CYYG;2005-10-07 03:39;SPECI CYYG 070339Z 18005KT 2SM BR BKN002 OVC008 17/ RMK SF6SC2=
CYYG;2005-10-07 04:00;METAR CYYG 070400Z 18005KT 2 1/2SM BR BKN003 OVC008 17/17 A3016 RMK SF6SC2 SLP212=
CYYG;2005-10-07 05:00;METAR CYYG 070500Z 18005KT 2 1/2SM BR OVC003 18/17 A3015 RMK SF8 SLP211=
CYYG;2005-10-07 07:00;METAR CYYG 070700Z 18008KT 10SM FEW003 BKN011 OVC035 18/17 A3012 RMK SF1SC5SC3 SLP200=
CYYG;2005-10-07 08:00;METAR CYYG 070800Z 19007KT 12SM FEW011 OVC026 18/17 A3011 RMK SC2SC6 SLP197=
CYYG;2005-10-07 08:20;SPECI CYYG 070820Z 21006KT 12SM BKN011 OVC025 18/ RMK SC6SC2=
CYYG;2005-10-07 09:00;METAR CYYG 070900Z 20009KT 12SM OVC011 18/17 A3011 RMK SC8 SLP197=
CYYG;2005-10-07 09:15;SPECI CYYG 070915Z 22007KT 3SM -DZ BR BKN006 OVC011 18/ RMK SF6SC2=
CYYG;2005-10-07 10:00;METAR CYYG 071000Z 24007KT 6SM -DZ BR BKN007 OVC014 18/17 A3012 RMK SF5SC3 SLP200=
CYYG;2005-10-07 11:00;METAR CYYG 071100Z 21011KT 6SM -DZ BR BKN005 OVC011 17/17 A3012 RMK SF5SC3 SLP200=
CYYG;2005-10-07 11:07;SPECI CYYG 071107Z 20009G15KT 15SM SCT005 BKN022 17/ RMK SF4SC3=
CYYG;2005-10-07 11:46;SPECI CYYG 071146Z 20010KT 15SM FEW010 SCT022 18/ RMK SF2SC2=
CYYG;2005-10-07 12:00;METAR CYYG 071200Z 20010KT 15SM FEW022 SCT280 18/17 A3011 RMK SC2CI1 SLP195=
CYYG;2005-10-07 12:49;SPECI CYYG 071249Z 20014KT 15SM BKN015 19/ RMK SC6=
CYYG;2005-10-07 13:00;METAR CYYG 071300Z 21012G18KT 15SM BKN015 19/17 A3010 RMK SC7 SLP193=
CYYG;2005-10-07 14:00;METAR CYYG 071400Z 20014KT 15SM BKN018 20/18 A3009 RMK SC7 SLP191=
CYYG;2005-10-07 15:00;METAR CYYG 071500Z 22015KT 15SM OVC018 20/17 A3008 RMK SC8 SLP187=
CYYG;2005-10-07 16:00;METAR CYYG 071600Z 22013G20KT 15SM BKN018 21/18 A3006 RMK SC7 SLP180=
CYYG;2005-10-07 17:00;METAR CYYG 071700Z 23020G27KT 15SM BKN021 22/18 A3004 RMK SC7 SLP173=
CYYG;2005-10-07 18:00;METAR CYYG 071800Z 22019G27KT 15SM BKN018 22/18 A3002 RMK SC6 SLP166=
CYYG;2005-10-07 19:00;METAR CYYG 071900Z 22015G22KT 15SM BKN018 22/18 A3001 RMK SC6 SLP162=
CYYG;2005-10-07 20:00;METAR CYYG 072000Z 23015G25KT 15SM BKN018 22/18 A3001 RMK SC6 SLP163=
CYYG;2005-10-07 21:00;METAR CYYG 072100Z 23010G19KT 15SM BKN023 21/18 A3002 RMK SC7 SLP166=
CYYG;2005-10-07 22:00;METAR CYYG 072200Z 23009G15KT 15SM FEW020 SCT055 BKN300 20/18 A3002 RMK SC2SC1CI0 SLP166=
CYYG;2005-10-07 23:00;METAR CYYG 072300Z 22008KT 15SM OVC025 20/18 A3003 RMK SC8 SLP168=
CYYG;2005-10-08 00:00;METAR CYYG 080000Z 22010G16KT 15SM BKN025 OVC045 20/18 A3002 RMK SC6SC2 SLP166=
CYYG;2005-10-08 01:00;METAR CYYG 080100Z 19011KT 15SM SCT018 OVC025 19/18 A3002 RMK SC3SC5 SLP165=
CYYG;2005-10-08 02:00;METAR CYYG 080200Z 20010KT 15SM BKN020 OVC032 20/17 A3001 RMK SC5SC3 SLP164=
CYYG;2005-10-08 03:00;METAR CYYG 080300Z 21012KT 15SM BKN020 20/17 A2999 RMK SC6 SLP157=
CYYG;2005-10-08 04:00;METAR CYYG 080400Z 21012G17KT 15SM FEW020 BKN140 19/17 A2998 RMK SC1AC4 SLP153=
CYYG;2005-10-08 05:00;METAR CYYG 080500Z 22010G15KT 15SM OVC020 20/17 A2999 RMK SC8 SLP155=
CYYG;2005-10-08 06:00;METAR CYYG 080600Z 22009KT 15SM OVC016 20/17 A2998 RMK SC8 SLP154=
CYYG;2005-10-08 07:00;METAR CYYG 080700Z 25007KT 12SM OVC012 19/17 A2998 RMK SC8 SLP152=
CYYG;2005-10-08 07:23;SPECI CYYG 080723Z 25010KT 12SM -SHRA OVC008 19/ RMK SC8=
CYYG;2005-10-08 08:00;METAR CYYG 080800Z 35012G18KT 15SM OVC005 14/13 A2999 RMK SF8 SLP156=
CYYG;2005-10-08 08:32;SPECI CYYG 080832Z 35008KT 12SM -SHRA OVC007 13/ RMK SF8=
CYYG;2005-10-08 09:00;METAR CYYG 080900Z 01006KT 2 1/2SM -RA BR FEW004 OVC010 12/12 A3000 RERA RMK SF2NS6 SLP158=
CYYG;2005-10-08 09:32;SPECI CYYG 080932Z 03005KT 2 1/2SM RA BR BKN004 OVC012 12/ RMK SF6NS2=
CYYG;2005-10-08 09:47;SPECI CYYG 080947Z 05008KT 1 1/2SM +RA BR BKN003 OVC012 13/ RMK SF6NS2=
CYYG;2005-10-08 10:00;METAR CYYG 081000Z 02007KT 3SM -RA BR BKN004 OVC010 12/12 A3002 RMK SF6NS2 RERA SLP166=
CYYG;2005-10-08 10:24;SPECI CYYG 081024Z 04008KT 10SM -RA BKN004 OVC016 12/ RMK SF5NS3=
CYYG;2005-10-08 10:40;SPECI CYYG 081040Z 02011KT 15SM -RA BKN008 OVC016 12/ RMK SF5NS3=
CYYG;2005-10-08 11:00;METAR CYYG 081100Z 04010KT 10SM -RA BKN005 OVC011 12/11 A3003 RMK SF6NS2 SLP169=
CYYG;2005-10-08 11:39;SPECI CYYG 081139Z 04009KT 10SM -RA OVC007 11/ RMK SF8=
CYYG;2005-10-08 12:00;METAR CYYG 081200Z 04012KT 8SM -RA OVC008 11/11 A3004 RMK SF8 SLP172=
CYYG;2005-10-08 13:00;METAR CYYG 081300Z 04009G15KT 4SM -RA BR OVC006 11/10 A3005 RMK SF8 SLP176=
CYYG;2005-10-08 14:00;METAR CYYG 081400Z 04013KT 6SM -RA BR OVC007 10/10 A3004 RMK SF8 SLP173=
CYYG;2005-10-08 15:00;METAR CYYG 081500Z 04013KT 10SM -RA BKN007 OVC015 10/10 A3004 RMK SF7SC1 SLP173=
CYYG;2005-10-08 16:00;METAR CYYG 081600Z 04012G19KT 3SM RA BR BKN007 OVC026 10/10 A3002 RMK SF6SC2 /R11/ SLP166=
CYYG;2005-10-08 16:24;SPECI CYYG 081624Z 05014KT 3SM RA BR SCT005 OVC032 RMK SF4SC4=
CYYG;2005-10-08 17:00;METAR CYYG 081700Z 05014KT 3SM +RA BR SCT005 OVC012 10/09 A2999 RMK SF4SC4 SLP156=
CYYG;2005-10-08 17:10;SPECI CYYG 081710Z 03009G15KT 2SM +RA BR BKN005 BKN011 OVC022 RMK SF6SF2SC1=
CYYG;2005-10-08 18:00;METAR CYYG 081800Z 04013G18KT 2SM RA BR BKN005 OVC024 10/09 A3002 RMK SF6SC2 /R26/ SLP165=
CYYG;2005-10-08 19:00;METAR CYYG 081900Z 04010KT 3SM RA BR OVC005 10/09 A3003 RMK SF8 SLP169=
CYYG;2005-10-08 20:00;METAR CYYG 082000Z 03011G17KT 3SM RA BR BKN006 OVC014 09/09 A3004 RMK SF6SC2 /R13/ SLP173=
CYYG;2005-10-08 21:00;METAR CYYG 082100Z 02013G18KT 3SM RA BR BKN007 OVC015 09/08 A3006 RMK SF6SC2 SLP179=
CYYG;2005-10-08 21:36;SPECI CYYG 082136Z 03011KT 2 1/2SM RA BR FEW008 OVC027 09/ RMK SF2NS6=
CYYG;2005-10-08 22:00;METAR CYYG 082200Z 03011KT 2 1/2SM -RA BR SCT006 OVC014 09/08 A3008 RERA RMK SF3SC5 SLP187=
CYYG;2005-10-08 23:00;METAR CYYG 082300Z 04008KT 2 1/2SM -RA BR SCT006 OVC014 09/09 A3009 RERA RMK SF3SC5 SLP191=
CYYG;2005-10-09 00:00;METAR CYYG 090000Z 04012G17KT 4SM -RA BR BKN007 BKN014 OVC032 10/09 A3009 RMK SF5SC2NS1 /R24/ SLP192=
CYYG;2005-10-09 01:00;METAR CYYG 090100Z 05011G16KT 8SM -RA BKN007 OVC035 10/10 A3009 RMK SF6NS2 SLP192=
CYYG;2005-10-09 02:00;METAR CYYG 090200Z 06014G19KT 6SM -RA BR BKN009 OVC030 10/09 A3008 RERA RMK SF6NS2 SLP188=
CYYG;2005-10-09 03:00;METAR CYYG 090300Z 04014KT 8SM -RA FEW009 OVC035 10/09 A3011 RMK SF2NS6 SLP196=
CYYG;2005-10-09 04:00;METAR CYYG 090400Z 04012G18KT 8SM -RA FEW007 OVC017 10/09 A3011 RMK SF2SC6 SLP196=
CYYG;2005-10-09 05:00;METAR CYYG 090500Z 04014KT 4SM -RA BR BKN007 OVC015 10/09 A3013 RMK SF6SC2 SLP203=
CYYG;2005-10-09 06:00;METAR CYYG 090600Z 03014G19KT 6SM -RA BR BKN005 OVC020 10/09 A3013 RMK SF6SC2 SLP203=
CYYG;2005-10-09 07:00;METAR CYYG 090700Z 02010G15KT 6SM -RA BR OVC005 10/09 A3015 RMK SF8 SLP210=
CYYG;2005-10-09 08:00;METAR CYYG 090800Z 03009KT 5SM -RA BR BKN005 OVC010 10/09 A3015 RMK SF6SC2 SLP210=
CYYG;2005-10-09 09:00;METAR CYYG 090900Z 03007KT 2 1/2SM -RA BR OVC005 11/10 A3016 RMK SF8 SLP214=
CYYG;2005-10-09 09:25;SPECI CYYG 090925Z 05010KT 2SM -DZ BR OVC005 11/ RMK SF8=
CYYG;2005-10-09 10:00;METAR CYYG 091000Z 04007KT 5SM -DZ BR BKN005 OVC012 11/11 A3017 RMK SF6SC2 SLP217=
CYYG;2005-10-09 10:04;SPECI CYYG 091004Z 04007KT 6SM -DZ BR BKN004 OVC028 11/ RMK SF6SC2=
CYYG;2005-10-09 11:00;METAR CYYG 091100Z 06011KT 5SM -DZ BR BKN004 OVC012 12/11 A3019 RMK SF6SF2 SLP225=
CYYG;2005-10-09 11:50;SPECI CYYG 091150Z 05008KT 12SM OVC005 12/ RMK SF8=
CYYG;2005-10-09 12:00;METAR CYYG 091200Z 05009KT 15SM OVC005 12/11 A3020 RMK SF8 SLP228=
CYYG;2005-10-09 12:16;SPECI CYYG 091216Z 06009KT 3SM -DZ BR BKN005 OVC016 12/ RMK SF6SC2 VIS E-SW 15=
CYYG;2005-10-09 12:38;SPECI CYYG 091238Z 06010KT 2SM -DZ BR BKN003 OVC008 12/ RMK SF6SF2 VIS SE-S 10=
CYYG;2005-10-09 13:00;METAR CYYG 091300Z 06009G16KT 4SM -DZ BR BKN003 OVC010 12/11 A3024 RMK SF6SF2 SLP241=
CYYG;2005-10-09 14:00;METAR CYYG 091400Z 07009KT 10SM -DZ OVC007 12/11 A3025 RMK SF8 VIS W 3 SLP245=
CYYG;2005-10-09 14:29;SPECI CYYG 091429Z 08010G15KT 5SM -DZ BR BKN009 OVC024 12/ RMK SF6SC2 VIS SE-W 15=
CYYG;2005-10-09 15:00;METAR CYYG 091500Z 09008KT 5SM -DZ BR BKN007 OVC024 12/11 A3025 RMK SF6SC2 VIS S-SW 15 SLP246=
CYYG;2005-10-09 15:21;SPECI CYYG 091521Z 08009G15KT 15SM -DZ FEW007 OVC024 12/ RMK SF2SC6 VIS W-N 3=
CYYG;2005-10-09 15:26;SPECI CYYG 091526Z 08010KT 15SM FEW007 OVC028 12/ RMK SF2SC6 VIS W-NW 5=
CYYG;2005-10-09 16:00;METAR CYYG 091600Z 08010KT 15SM FEW007 BKN012 OVC028 13/11 A3027 RMK SF2SC5SC2 SLP251=
CYYG;2005-10-09 17:00;METAR CYYG 091700Z 07013KT 15SM BKN012 BKN019 OVC075 13/10 A3026 RMK SF5SC2AS2 SLP248=
CYYG;2005-10-09 18:00;METAR CYYG 091800Z 08009KT 15SM VCSH BKN012 OVC021 13/11 A3027 RMK SC6SC2 VIS S-SW 5 SLP252=
CYYG;2005-10-09 18:42;SPECI CYYG 091842Z 08010KT 10SM -DZ OVC015 12/ RMK SC8=
CYYG;2005-10-09 19:00;METAR CYYG 091900Z 09010KT 10SM -DZ OVC015 12/10 A3029 RMK SC8 SLP257=
CYYG;2005-10-09 20:00;METAR CYYG 092000Z 08009KT 15SM -DZ OVC013 12/10 A3030 RMK SC8 VIS SE-SW 3 SLP260=
CYYG;2005-10-09 20:19;SPECI CYYG 092019Z 09009KT 15SM VCSH FEW010 OVC023 12/ RMK SC2SC6 VIS SW 5=
CYYG;2005-10-09 21:00;METAR CYYG 092100Z 09010KT 15SM OVC016 12/10 A3030 RMK SC8 SLP261=
CYYG;2005-10-09 22:00;METAR CYYG 092200Z 08006KT 15SM FEW012 OVC020 11/10 A3031 RMK SC2SC6 SLP264=
CYYG;2005-10-09 22:52;SPECI CYYG 092252Z 08007KT 5SM -SHRA BR BKN012 OVC020 RMK SC6SC2=
CYYG;2005-10-09 23:00;METAR CYYG 092300Z 08007KT 5SM -SHRA BR BKN010 OVC020 11/10 A3032 RMK SC6SC2 SLP267=
CYYG;2005-10-10 00:00;METAR CYYG 100000Z 07006KT 5SM -SHRA BR FEW007 BKN010 OVC020 11/10 A3033 RMK SF2SC4SC2 SLP270=
CYYG;2005-10-10 01:00;METAR CYYG 100100Z 07008KT 5SM -SHRA BR SCT005 OVC010 11/10 A3033 RMK SF4SC4 SLP273=
CYYG;2005-10-10 02:00;METAR CYYG 100200Z 07009KT 6SM -SHRA BR BKN005 OVC010 11/10 A3033 RMK SF6SC2 SLP272=
CYYG;2005-10-10 03:00;METAR CYYG 100300Z 07009KT 8SM -SHRA BKN006 OVC010 11/10 A3033 RMK SF6SC2 SLP271=
CYYG;2005-10-10 04:00;METAR CYYG 100400Z 07007KT 8SM -SHRA BKN006 OVC010 11/10 A3034 RMK SF6SC2 SLP274=
CYYG;2005-10-10 05:00;METAR CYYG 100500Z 07007KT 10SM -SHRA BKN005 OVC010 11/10 A3032 RMK SF6SC2 SLP269=
CYYG;2005-10-10 06:00;METAR CYYG 100600Z 09008KT 10SM -SHRA BKN005 OVC012 11/10 A3031 RMK SF6SC2 SLP263=
CYYG;2005-10-10 07:00;METAR CYYG 100700Z 06009KT 15SM -SHRA BKN005 OVC010 11/10 A3031 RMK SF5SC3 SLP264=
CYYG;2005-10-10 08:00;METAR CYYG 100800Z 07008KT 15SM SCT005 OVC011 11/10 A3030 RMK SF3SC5 SLP262=
CYYG;2005-10-10 09:00;METAR CYYG 100900Z 06009KT 15SM FEW005 OVC010 11/10 A3030 RMK SF2SC6 SLP262=
CYYG;2005-10-10 10:00;METAR CYYG 101000Z 08009KT 15SM OVC010 11/11 A3030 RMK SC8 SLP260=
CYYG;2005-10-10 10:28;SPECI CYYG 101028Z 07008KT 15SM BKN009 11/ RMK SC7 VIS LWR S-W=
CYYG;2005-10-10 10:51;SPECI CYYG 101051Z 07008KT 15SM -RA BKN008 11/ RMK SC7 VIS LWR SE-W=
CYYG;2005-10-10 11:00;METAR CYYG 101100Z 07009KT 15SM -RA BKN008 11/11 A3030 RMK SC7 VIS LWR=
CYYG;2005-10-10 12:00;METAR CYYG 101200Z 09008KT 5SM -RA BR OVC008 12/11 A3030 RMK SF8 VIS N-NE 15 SLP262=
CYYG;2005-10-10 13:00;METAR CYYG 101300Z 09010KT 6SM -RA BR BKN005 OVC011 12/12 A3030 RMK SF5SC3 SLP260=
CYYG;2005-10-10 13:44;SPECI CYYG 101344Z 09007KT 3SM -RA BR SCT006 OVC008 13/ RMK SF4SF4=
CYYG;2005-10-10 14:00;METAR CYYG 101400Z 10007KT 3SM -RA BR FEW003 BKN005 OVC011 13/12 A3029 RMK SF2SF4SF2 SLP257=
CYYG;2005-10-10 14:50;SPECI CYYG 101450Z 11008KT 2SM -RA BR SCT004 OVC008 13/ RMK SF3SF5=
CYYG;2005-10-10 15:00;METAR CYYG 101500Z 10010KT 2SM -RA BR SCT004 OVC008 13/13 A3028 RMK SF3SF5 SLP254=
CYYG;2005-10-10 16:00;METAR CYYG 101600Z 10010G15KT 3SM -RA BR BKN005 OVC010 14/13 A3026 RMK SF6SF2 SLP248=
CYYG;2005-10-10 16:26;SPECI CYYG 101626Z 11010KT 2SM -RA BR BKN005 OVC014 13/ RMK SF6SC2=
CYYG;2005-10-10 17:00;METAR CYYG 101700Z 09009KT 2 1/2SM -RA BR BKN005 OVC012 13/13 A3024 RMK SF6SC2 SLP242=
CYYG;2005-10-10 18:00;METAR CYYG 101800Z 10010G15KT 2SM -RA BR BKN004 OVC017 13/13 A3022 RMK SF6SC2 SLP235=
CYYG;2005-10-10 19:00;METAR CYYG 101900Z 10009KT 2SM -RA BR BKN004 OVC011 13/13 A3021 RMK SF6SF2 SLP231=
CYYG;2005-10-10 20:00;METAR CYYG 102000Z 10009KT 2 1/2SM -RA BR BKN004 OVC007 13/13 A3019 RMK SF5SF3 SLP223=
CYYG;2005-10-10 21:00;METAR CYYG 102100Z 10009KT 2SM -RA BR BKN003 OVC007 13/13 A3017 RMK SF5SF3 SLP216=
CYYG;2005-10-10 21:37;SPECI CYYG 102137Z 10008KT 2SM -DZ BR BKN003 OVC007 13/ RMK SF5SF3=
CYYG;2005-10-10 22:00;METAR CYYG 102200Z 09007KT 2SM -DZ BR BKN003 OVC007 13/13 A3014 RMK SF6SF2 SLP206=
CYYG;2005-10-10 23:00;METAR CYYG 102300Z 10008KT 2SM -DZ BR BKN003 OVC007 13/13 A3012 RMK SF5SF3 SLP200=
CYYG;2005-10-10 23:44;SPECI CYYG 102344Z 11007KT 2SM -RA BR BKN003 OVC007 14/ RMK SF5SF3=
CYYG;2005-10-11 00:00;METAR CYYG 110000Z 10006KT 2SM -RA BR BKN003 OVC007 14/13 A3009 RMK SF5SF3 SLP191=
CYYG;2005-10-11 01:00;METAR CYYG 110100Z 08006KT 3SM -RA BR BKN003 OVC006 14/14 A3006 RMK SF6SF2 SLP182=
CYYG;2005-10-11 01:51;SPECI CYYG 110151Z 09003KT 3SM -DZ BR BKN002 OVC005 14/ RMK SF6SF2=
CYYG;2005-10-11 02:00;METAR CYYG 110200Z 09003KT 2SM -DZ BR BKN002 OVC005 14/14 A3003 RMK SF6SF2 SLP171=
CYYG;2005-10-11 03:00;METAR CYYG 110300Z 00000KT 1 1/2SM -DZ BR OVC002 14/14 A3001 RMK SF8 SLP165=
CYYG;2005-10-11 03:25;SPECI CYYG 110325Z 00000KT 3/4SM -DZ BR OVC002 14/ RMK SF8 RVR RWY03 4500 FT=
CYYG;2005-10-11 04:00;METAR CYYG 110400Z 00000KT 3/4SM -DZ BR BKN002 OVC020 14/14 A2999 RMK SF6SC2 RVR RWY03 4000 FT SLP156=
CYYG;2005-10-11 05:00;METAR CYYG 110500Z 33003KT 2SM -RA BR SCT002 OVC020 14/14 A2997 RMK SF3SC5 SLP149=
CYYG;2005-10-11 06:00;METAR CYYG 110600Z 27004KT 3SM -RA BR FEW003 BKN020 OVC037 14/13 A2996 RMK SF2SC4SC2 SLP144=
CYYG;2005-10-11 07:00;METAR CYYG 110700Z 32004KT 3SM -RA BR FEW003 BKN020 OVC035 13/13 A2995 RMK SF2SC4SC2 SLP142=
CYYG;2005-10-11 08:00;METAR CYYG 110800Z 34007KT 3SM -RA BR SCT004 OVC020 13/13 A2996 RMK SF4SC4 SLP145=
CYYG;2005-10-11 09:00;METAR CYYG 110900Z 35010G15KT 8SM -RA BKN004 OVC012 13/12 A2997 RMK SF6SC2 SLP148=
CYYG;2005-10-11 10:00;METAR CYYG 111000Z 35009KT 10SM -RADZ OVC005 12/12 A2998 RMK SF8 SLP153=
CYYG;2005-10-11 10:16;SPECI CYYG 111016Z 34010KT 2SM -RADZ BR OVC004 12/ RMK SF8=
CYYG;2005-10-11 11:00;METAR CYYG 111100Z 35008G18KT 2SM -DZ BR OVC004 11/11 A3001 RMK SF8 SLP161=
CYYG;2005-10-11 12:00;METAR CYYG 111200Z 35012G18KT 2SM -DZ BR SCT004 OVC007 11/11 A3004 RMK SF3SF5 SLP173=
CYYG;2005-10-11 13:00;METAR CYYG 111300Z 36013G19KT 3SM -DZ BR FEW004 OVC008 11/10 A3006 RMK SF2SF6 VIS HIER NW-NE SLP180=
CYYG;2005-10-11 13:18;SPECI CYYG 111318Z 36011G19KT 8SM FEW005 OVC009 11/ RMK SF2SF6 VIS LWR W=
CYYG;2005-10-11 14:00;METAR CYYG 111400Z 01013G19KT 10SM FEW004 OVC009 10/09 A3008 RMK SF2SF6 SLP186=
CYYG;2005-10-11 14:07;SPECI CYYG 111407Z 36012G19KT 8SM -DZ FEW004 OVC008 10/ RMK SF2SF6=
CYYG;2005-10-11 14:41;SPECI CYYG 111441Z 36014G19KT 2SM -DZ BR BKN007 OVC015 10/ RMK SF6SC2=
CYYG;2005-10-11 15:00;METAR CYYG 111500Z 36014G21KT 2SM -DZ BR BKN009 OVC017 10/09 A3009 RMK SF6SC2 SLP192=
CYYG;2005-10-11 15:26;SPECI CYYG 111526Z 36009G18KT 3SM -DZ BR BKN006 OVC012 09/ RMK SF5SC3 VIS N-NE 15=
CYYG;2005-10-11 15:49;SPECI CYYG 111549Z 36012G20KT 15SM OVC013 09/ RMK SC8=
CYYG;2005-10-11 16:00;METAR CYYG 111600Z 36012G18KT 15SM OVC013 09/07 A3011 RMK SC8 SLP197=
CYYG;2005-10-11 16:09;SPECI CYYG 111609Z 36012G18KT 15SM -DZ BKN013 OVC025 09/ RMK SC6SC2=
CYYG;2005-10-11 16:41;SPECI CYYG 111641Z 36012G20KT 15SM BKN012 BKN065 BKN300 09/ RMK SC6SC1CI0=
CYYG;2005-10-11 17:00;METAR CYYG 111700Z 34012G21KT 15SM OVC014 09/07 A3012 RMK SC8 SLP202=
CYYG;2005-10-11 18:00;METAR CYYG 111800Z 34012G18KT 15SM OVC016 09/06 A3014 RMK SC8 SLP207=
CYYG;2005-10-11 19:00;METAR CYYG 111900Z 36013G21KT 15SM BKN019 BKN300 10/06 A3017 RMK SC6CI0 SLP216=
CYYG;2005-10-11 20:00;METAR CYYG 112000Z 36015G21KT 15SM BKN023 BKN300 09/06 A3019 RMK SC6CI0 SLP225=
CYYG;2005-10-11 21:00;METAR CYYG 112100Z 36012G18KT 15SM BKN026 BKN300 09/06 A3020 RMK SC5CI0 SLP229=
CYYG;2005-10-11 22:00;METAR CYYG 112200Z 01012G21KT 15SM BKN026 BKN300 10/06 A3023 RMK SC5CI0 SLP236=
CYYG;2005-10-11 23:00;METAR CYYG 112300Z 01014KT 15SM BKN027 10/06 A3026 RMK SC5 SLP248=
CYYG;2005-10-12 00:00;METAR CYYG 120000Z 02014KT 15SM SCT033 10/06 A3030 RMK SC4 SLP261=
CYYG;2005-10-12 01:00;METAR CYYG 120100Z 01011G18KT 15SM BKN036 10/06 A3033 RMK SC5 SLP270=
CYYG;2005-10-12 02:00;METAR CYYG 120200Z 02010KT 15SM SCT035 09/05 A3034 RMK SC3 SLP275=
CYYG;2005-10-12 03:00;METAR CYYG 120300Z 02008KT 15SM FEW035 09/04 A3036 RMK SC2 SLP281=
CYYG;2005-10-12 04:00;METAR CYYG 120400Z 01006KT 15SM FEW035 09/05 A3037 RMK SC1 SLP285=
CYYG;2005-10-12 05:00;METAR CYYG 120500Z 02007KT 15SM FEW028 08/05 A3038 RMK SC1 SLP289=
CYYG;2005-10-12 06:00;METAR CYYG 120600Z 03009KT 15SM FEW028 08/04 A3039 RMK SC2 SLP291=
CYYG;2005-10-12 07:00;METAR CYYG 120700Z 04008KT 15SM SCT028 08/04 A3039 RMK SC3 SLP293=
CYYG;2005-10-12 08:00;METAR CYYG 120800Z 03011KT 15SM FEW030 08/04 A3041 RMK SC2 SLP298=
CYYG;2005-10-12 09:00;METAR CYYG 120900Z 04009KT 15SM SCT036 08/04 A3043 RMK SC4 SLP305=
CYYG;2005-10-12 10:00;METAR CYYG 121000Z 03010KT 15SM FEW028 09/05 A3045 RMK SC2 SLP312=
CYYG;2005-10-12 11:00;METAR CYYG 121100Z 04008KT 15SM FEW030 FEW300 08/03 A3048 RMK SC2CI1 SLP322=
CYYG;2005-10-12 12:00;METAR CYYG 121200Z 02009G16KT 15SM BKN034 BKN300 09/04 A3050 RMK SC6CI1 SLP330=
CYYG;2005-10-12 13:00;METAR CYYG 121300Z 03011KT 15SM BKN033 BKN300 10/04 A3051 RMK SC5CI1 SLP334=
CYYG;2005-10-12 14:00;METAR CYYG 121400Z 04016KT 15SM BKN030 BKN300 11/05 A3052 RMK SC6CI1 SLP337=
CYYG;2005-10-12 15:00;METAR CYYG 121500Z 03017KT 15SM BKN029 BKN300 10/04 A3053 RMK SC7CI1 SLP341=
CYYG;2005-10-12 16:00;METAR CYYG 121600Z 02015KT 15SM BKN029 BKN300 10/04 A3055 RMK SC6CI1 SLP345=
CYYG;2005-10-12 17:00;METAR CYYG 121700Z 04014KT 15SM SCT030 11/03 A3054 RMK SC3 SLP344=
CYYG;2005-10-12 18:00;METAR CYYG 121800Z 04016KT 15SM BKN030 11/04 A3054 RMK SC6 SLP343=
CYYG;2005-10-12 19:00;METAR CYYG 121900Z 05011G16KT 15SM BKN029 10/04 A3055 RMK SC6 SLP345=
CYYG;2005-10-12 20:00;METAR CYYG 122000Z 04014KT 15SM FEW030 SCT280 10/04 A3055 RMK SC2CI1 SLP346=
CYYG;2005-10-12 21:00;METAR CYYG 122100Z 06006KT 15SM FEW030 FEW280 08/04 A3055 RMK SC1CI0 SLP346=
CYYG;2005-10-12 22:00;METAR CYYG 122200Z 05005KT 15SM FEW250 06/03 A3055 RMK CI0 SLP346=
CYYG;2005-10-12 23:00;METAR CYYG 122300Z 06005KT 15SM FEW250 05/03 A3055 RMK CI0 SLP347=
CYYG;2005-10-13 00:00;METAR CYYG 130000Z 07005KT 15SM FEW250 05/03 A3056 RMK CI0 SLP350=
CYYG;2005-10-13 01:00;METAR CYYG 130100Z 00000KT 15SM FEW250 04/02 A3057 RMK CI0 SLP353=
CYYG;2005-10-13 02:00;METAR CYYG 130200Z 00000KT 15SM SKC 03/02 A3057 RMK SLP352=
CYYG;2005-10-13 03:00;METAR CYYG 130300Z 00000KT 15SM SKC 02/01 A3056 RMK SLP351=
CYYG;2005-10-13 04:00;METAR CYYG 130400Z 09003KT 15SM SKC 01/00 A3056 RMK SLP350=
CYYG;2005-10-13 05:00;METAR CYYG 130500Z 09002KT 15SM SKC 01/01 A3056 RMK SLP351=
CYYG;2005-10-13 06:00;METAR CYYG 130600Z 00000KT 15SM SKC 01/00 A3057 RMK SLP353=
CYYG;2005-10-13 07:00;METAR CYYG 130700Z 05003KT 15SM FEW020 01/00 A3056 RMK SC2 SLP351=
CYYG;2005-10-13 08:00;METAR CYYG 130800Z 08005KT 15SM FEW020 05/03 A3055 RMK SC2 SLP348=
CYYG;2005-10-13 09:00;METAR CYYG 130900Z 02004KT 15SM BKN021 05/04 A3055 RMK SC5 SLP347=
CYYG;2005-10-13 10:00;METAR CYYG 131000Z 01002KT 15SM OVC022 06/04 A3055 RMK SC8 SLP348=
CYYG;2005-10-13 11:00;METAR CYYG 131100Z 04003KT 15SM OVC022 06/05 A3056 RMK SC8 SUN OCNL VISBL SLP349=
CYYG;2005-10-13 12:00;METAR CYYG 131200Z 08003KT 15SM BKN023 08/05 A3057 RMK SC7 SLP353=
CYYG;2005-10-13 13:00;METAR CYYG 131300Z 10006KT 15SM BKN022 09/04 A3057 RMK SC7 SLP352=
CYYG;2005-10-13 14:00;METAR CYYG 131400Z 13005KT 15SM BKN020 BKN280 09/06 A3056 RMK SC6CI1 SLP351=
CYYG;2005-10-13 15:00;METAR CYYG 131500Z 13004KT 15SM FEW022 BKN280 11/06 A3054 RMK SC2CI4 SLP343=
CYYG;2005-10-13 16:00;METAR CYYG 131600Z 13003KT 15SM FEW022 BKN280 11/05 A3052 RMK SC2CI2 SLP338=
CYYG;2005-10-13 17:00;METAR CYYG 131700Z 04003KT 15SM FEW025 SCT280 12/06 A3051 RMK SC1CI2 SLP333=
CYYG;2005-10-13 18:00;METAR CYYG 131800Z 16005KT 15SM FEW025 SCT280 13/06 A3050 RMK SC1CI2 SLP331=
CYYG;2005-10-13 19:00;METAR CYYG 131900Z 00000KT 15SM FEW025 SCT280 13/06 A3049 RMK SC1CI2 CONTRAILS SLP327=
CYYG;2005-10-13 20:00;METAR CYYG 132000Z 00000KT 15SM SCT280 13/06 A3048 RMK CI1 SLP322=
CYYG;2005-10-13 21:00;METAR CYYG 132100Z 02004KT 15SM SCT280 10/07 A3047 RMK CI1 SLP321=
CYYG;2005-10-13 22:00;METAR CYYG 132200Z 05004KT 15SM FEW120 SCT280 08/06 A3047 RMK AC1CI1 SLP321=
CYYG;2005-10-13 23:00;METAR CYYG 132300Z 00000KT 15SM FEW120 SCT280 07/06 A3047 RMK AC2CI1 SLP320=
CYYG;2005-10-14 00:00;METAR CYYG 140000Z 11003KT 15SM SCT260 08/06 A3047 RMK CI2 SLP318=
CYYG;2005-10-14 01:00;METAR CYYG 140100Z 14003KT 15SM SCT260 06/06 A3046 RMK CI2 SLP317=
CYYG;2005-10-14 02:00;METAR CYYG 140200Z 14003KT 15SM BKN240 07/06 A3045 RMK CI2 SLP313=
CYYG;2005-10-14 03:00;METAR CYYG 140300Z 14002KT 15SM BKN240 07/06 A3043 RMK CI2 SLP306=
CYYG;2005-10-14 04:00;METAR CYYG 140400Z 15003KT 15SM BKN240 07/06 A3041 RMK CI2 SLP301=
CYYG;2005-10-14 05:00;METAR CYYG 140500Z 18002KT 15SM BKN240 07/07 A3041 RMK CI2 SLP300=
CYYG;2005-10-14 06:00;METAR CYYG 140600Z 23003KT 15SM BKN240 07/07 A3041 RMK CI2 SLP299=
CYYG;2005-10-14 07:00;METAR CYYG 140700Z 19002KT 15SM BKN240 08/07 A3039 RMK CI3 SLP293=
CYYG;2005-10-14 08:00;METAR CYYG 140800Z 22004KT 15SM BKN240 08/07 A3039 RMK CI3 SLP291=
CYYG;2005-10-14 09:00;METAR CYYG 140900Z 24003KT 15SM BKN210 08/07 A3037 RMK CI5 SLP287=
CYYG;2005-10-14 10:00;METAR CYYG 141000Z 13002KT 15SM MIFG BKN210 07/07 A3036 RMK CI6 SLP283=
CYYG;2005-10-14 11:00;METAR CYYG 141100Z 00000KT 15SM BKN200 07/07 A3036 RMK CI6 SLP281=
CYYG;2005-10-14 12:00;METAR CYYG 141200Z 12004KT 15SM BKN210 08/08 A3035 RMK CI6 SLP278=
CYYG;2005-10-14 13:00;METAR CYYG 141300Z 13003KT 15SM FEW015 OVC220 10/09 A3035 RMK SC1CI6 SLP280=
CYYG;2005-10-14 14:00;METAR CYYG 141400Z 11002KT 15SM SCT013 OVC220 12/10 A3034 RMK SC4CI3 SLP277=
CYYG;2005-10-14 15:00;METAR CYYG 141500Z 18005KT 15SM SCT015 OVC220 12/09 A3034 RMK SC3CI3 SLP276=
CYYG;2005-10-14 16:00;METAR CYYG 141600Z 12005KT 15SM FEW015 OVC220 13/09 A3031 RMK SC2CI4 SLP266=
CYYG;2005-10-14 17:00;METAR CYYG 141700Z 12004KT 15SM FEW020 OVC220 14/07 A3030 RMK SC2CI6 SLP262=
CYYG;2005-10-14 18:00;METAR CYYG 141800Z 11006KT 15SM FEW020 OVC250 14/08 A3026 RMK SC1CI6 SLP249=
CYYG;2005-10-14 19:00;METAR CYYG 141900Z 14005KT 15SM FEW022 OVC250 14/10 A3024 RMK SC2CI6 SLP242=
CYYG;2005-10-14 20:00;METAR CYYG 142000Z 13007KT 15SM FEW030 OVC200 13/09 A3024 RMK SC2CI6 SLP240=
CYYG;2005-10-14 21:00;METAR CYYG 142100Z 11008KT 15SM FEW030 OVC210 12/09 A3020 RMK SC2CI6 SLP229=
CYYG;2005-10-14 22:00;METAR CYYG 142200Z 00000KT 15SM FEW030 BKN210 11/09 A3022 RMK SC1CI6 SLP233=
CYYG;2005-10-14 23:00;METAR CYYG 142300Z 00000KT 15SM BKN200 09/08 A3021 RMK CI6 SLP230=
CYYG;2005-10-15 00:00;METAR CYYG 150000Z 00000KT 15SM FEW030 OVC200 08/08 A3020 RMK SC2CI4 SLP227=
CYYG;2005-10-15 01:00;METAR CYYG 150100Z 15005KT 15SM BKN038 OVC200 10/09 A3018 RMK SC5CI2 SLP220=
CYYG;2005-10-15 02:00;METAR CYYG 150200Z 12006KT 15SM BKN036 OVC200 11/10 A3016 RMK SC6CI1 SLP214=
CYYG;2005-10-15 03:00;METAR CYYG 150300Z 15009KT 15SM BKN038 12/10 A3014 RMK SC7 SLP206=
CYYG;2005-10-15 04:00;METAR CYYG 150400Z 14005KT 15SM BKN040 11/09 A3013 RMK SC7 SLP204=
CYYG;2005-10-15 05:00;METAR CYYG 150500Z 12004KT 15SM OVC043 10/09 A3011 RMK SC8 SLP198=
CYYG;2005-10-15 06:00;METAR CYYG 150600Z 11005KT 15SM OVC043 10/09 A3009 RMK SC8 SLP189=
CYYG;2005-10-15 07:00;METAR CYYG 150700Z 11005KT 15SM OVC042 10/08 A3005 RMK SC8 SLP177=
CYYG;2005-10-15 08:00;METAR CYYG 150800Z 11007KT 15SM BKN040 OVC120 10/09 A3003 RMK SC6AC2 SLP169=
CYYG;2005-10-15 09:00;METAR CYYG 150900Z 12005KT 15SM BKN050 09/09 A3001 RMK SC5 SLP165=
CYYG;2005-10-15 10:00;METAR CYYG 151000Z 11006KT 15SM FEW040 BKN190 10/09 A2999 RMK SC1AC6 SLP156=
CYYG;2005-10-15 11:00;METAR CYYG 151100Z 11007KT 15SM FEW010 FEW040 BKN180 BKN300 11/10 A2998 RMK SF1SC1AC5CI1 SLP154=
CYYG;2005-10-15 12:00;METAR CYYG 151200Z 12008KT 15SM FEW017 BKN029 BKN190 BKN300 12/10 A2998 RMK SC2SC3AC1CI1 SLP152=
CYYG;2005-10-15 12:14;SPECI CYYG 151214Z 12007KT 15SM FEW008 BKN015 BKN190 12/ RMK SF1SC6AC1=
CYYG;2005-10-15 13:00;METAR CYYG 151300Z 11010KT 15SM BKN017 BKN300 13/11 A2994 RMK SC6CI1 SLP139=
CYYG;2005-10-15 13:27;SPECI CYYG 151327Z 11010G15KT 15SM FEW009 BKN017 BKN300 13/ RMK SF1SC6CI1=
CYYG;2005-10-15 14:00;METAR CYYG 151400Z 12013KT 15SM SCT016 BKN190 BKN300 13/11 A2990 RMK SC3AC2CI2 SLP127=
CYYG;2005-10-15 15:00;METAR CYYG 151500Z 12013G20KT 15SM BKN016 BKN300 14/11 A2988 RMK SC6CI1 SLP119=
CYYG;2005-10-15 16:00;METAR CYYG 151600Z 12011G18KT 15SM OVC017 14/10 A2983 RMK SC8 SLP101=
CYYG;2005-10-15 17:00;METAR CYYG 151700Z 11011G18KT 15SM BKN017 OVC066 14/11 A2978 RMK SC7AS1 SLP085=
CYYG;2005-10-15 18:00;METAR CYYG 151800Z 11016G24KT 15SM OVC015 13/11 A2973 RMK SC8 SLP068=
CYYG;2005-10-15 19:00;METAR CYYG 151900Z 11015G21KT 15SM OVC017 13/10 A2969 RMK SC8 SLP053=
CYYG;2005-10-15 19:07;SPECI CYYG 151907Z 11016KT 15SM -RA BKN017 OVC120 13/ RMK SC6AS2=
CYYG;2005-10-15 20:00;METAR CYYG 152000Z 11018G24KT 10SM -RA BKN013 OVC060 11/10 A2963 RMK SC6NS2 SLP036=
CYYG;2005-10-15 20:22;SPECI CYYG 152022Z 11017G27KT 10SM -RA BKN009 OVC060 11/ RMK SF6NS2=
CYYG;2005-10-15 20:36;SPECI CYYG 152036Z 11019G26KT 10SM -RA FEW008 OVC062 12/ RMK SF2NS6=
CYYG;2005-10-15 21:00;METAR CYYG 152100Z 11015G28KT 15SM -RA SCT008 OVC059 11/10 A2958 RMK SF3NS5 SLP019=
CYYG;2005-10-15 21:34;SPECI CYYG 152134Z 11015G22KT 10SM -RA BKN012 OVC059 11/ RMK SF6NS2=
CYYG;2005-10-15 22:00;METAR CYYG 152200Z 11017G22KT 12SM -RA BKN012 OVC041 12/11 A2955 RMK SF6NS2 SLP009=
CYYG;2005-10-15 23:00;METAR CYYG 152300Z 10015G25KT 15SM -RA OVC010 12/11 A2950 RMK SF8 RERA SLP990=
CYYG;2005-10-16 00:00;METAR CYYG 160000Z 09018G24KT 15SM BKN014 OVC048 12/11 A2943 RMK SC6SC2 PRESFR SLP968=
CYYG;2005-10-16 00:46;SPECI CYYG 160046Z 09021G32KT 15SM -SHRA OVC015 13/ RMK SC8=
CYYG;2005-10-16 01:00;METAR CYYG 160100Z 09025G31KT 15SM -SHRA OVC014 12/11 A2935 RMK SC8 PRESFR SLP939=
CYYG;2005-10-16 02:00;METAR CYYG 160200Z 09019G30KT 15SM -SHRA OVC015 13/12 A2927 RMK SC8 PRESFR SLP912=
CYYG;2005-10-16 02:14;SPECI CYYG 160214Z 09018G30KT 15SM -SHRA BKN008 OVC015 13/ RMK SF5SC3=
CYYG;2005-10-16 03:00;METAR CYYG 160300Z 09014G26KT 15SM -SHRA SCT008 OVC015 13/12 A2921 RMK SF4SC4 PRESFR SLP891=
CYYG;2005-10-16 04:00;METAR CYYG 160400Z 10019G28KT 15SM -SHRA SCT008 OVC015 13/12 A2913 RMK SF4SC4 RERA PRESFR SLP866=
CYYG;2005-10-16 05:40;SPECI CYYG 160540Z 11017G31KT 15SM OVC009 13/ RMK SF8=
CYYG;2005-10-16 06:00;METAR CYYG 160600Z 11022G29KT 15SM -SHRA OVC008 13/12 A2905 RMK SF8 SLP837=
CYYG;2005-10-16 07:00;METAR CYYG 160700Z 11016G28KT 15SM -SHRA OVC009 13/12 A2898 RMK SF8 PRESFR SLP816=
CYYG;2005-10-16 08:00;METAR CYYG 160800Z 11016G24KT 15SM -SHRA OVC007 14/13 A2894 RMK SF8 SLP800=
CYYG;2005-10-16 09:00;METAR CYYG 160900Z 12014G20KT 15SM -SHRA OVC007 14/13 A2890 RMK SF8 SLP787=
CYYG;2005-10-16 10:00;METAR CYYG 161000Z 15017KT 15SM -SHRA OVC009 15/14 A2888 RMK SF8 SLP781=
CYYG;2005-10-16 10:43;SPECI CYYG 161043Z 18019KT 15SM BKN011 15/ RMK SC7=
CYYG;2005-10-16 11:00;METAR CYYG 161100Z 19017KT 15SM SCT011 BKN020 15/12 A2890 RMK SC3SC4 SLP786=
CYYG;2005-10-16 12:00;METAR CYYG 161200Z 19018G29KT 15SM BKN030 14/11 A2890 RMK SC6 SLP788=
CYYG;2005-10-16 13:00;METAR CYYG 161300Z 19021G27KT 15SM BKN039 14/10 A2892 RMK SC6 SLP793=
CYYG;2005-10-16 13:51;SPECI CYYG 161351Z 19024G30KT 15SM -SHRA BKN032 13/ RMK SC7=
CYYG;2005-10-16 14:00;METAR CYYG 161400Z 19021G30KT 15SM -SHRA BKN034 13/10 A2894 RMK SC7 SLP799=
CYYG;2005-10-16 15:00;METAR CYYG 161500Z 20019G28KT 15SM BKN046 13/10 A2894 RMK SC7 SLP800=
CYYG;2005-10-16 16:00;METAR CYYG 161600Z 20020G27KT 15SM -SHRA BKN033 13/10 A2894 RMK SC7 SLP799=
CYYG;2005-10-16 17:00;METAR CYYG 161700Z 20020G32KT 15SM -SHRA BKN028 14/09 A2893 RMK SC7 SLP796=
CYYG;2005-10-16 18:00;METAR CYYG 161800Z 20025G32KT 15SM -SHRA BKN030 13/08 A2893 RMK SC7 SLP796=
CYYG;2005-10-16 18:24;SPECI CYYG 161824Z 21027G38KT 15SM BKN041 13/ RMK SC7=
CYYG;2005-10-16 19:00;METAR CYYG 161900Z 20023G30KT 15SM BKN048 13/08 A2894 RMK SC7 SLP800=
CYYG;2005-10-16 20:00;METAR CYYG 162000Z 20023G33KT 15SM FEW028 BKN048 12/08 A2894 RMK SC2SC5 SLP799=
CYYG;2005-10-16 21:00;METAR CYYG 162100Z 19021G26KT 15SM FEW030 BKN085 12/08 A2893 RMK SC2AC5 SLP797=
CYYG;2005-10-16 22:00;METAR CYYG 162200Z 19020G25KT 15SM FEW025 OVC070 11/08 A2894 RMK SC2AC6 SLP800=
CYYG;2005-10-16 22:08;SPECI CYYG 162208Z 19020G26KT 12SM -SHRA FEW025 OVC061 11/ RMK SC2SC6=
CYYG;2005-10-16 23:00;METAR CYYG 162300Z 19019G26KT 10SM -SHRA BKN020 OVC060 11/08 A2895 RMK SC6SC2 SLP802=
CYYG;2005-10-17 00:00;METAR CYYG 170000Z 19020G26KT 10SM -SHRA OVC020 11/08 A2895 RMK SC8 SLP804=
CYYG;2005-10-17 01:00;METAR CYYG 170100Z 19017G22KT 15SM FEW020 BKN100 09/07 A2896 RMK CU2AC4 SLP809=
CYYG;2005-10-17 01:45;SPECI CYYG 170145Z 19018KT 12SM -SHRA OVC021 09/ RMK SC8=
CYYG;2005-10-17 02:00;METAR CYYG 170200Z 19016G24KT 15SM -SHRA BKN023 OVC050 09/07 A2897 RMK SC6SC2 CU ASOCTD SLP812=
CYYG;2005-10-17 03:00;METAR CYYG 170300Z 19016G22KT 15SM -SHRA BKN023 OVC045 09/07 A2897 RMK SC5SC3 CU ASOCTD SLP812=
CYYG;2005-10-17 04:00;METAR CYYG 170400Z 18015KT 15SM -SHRA FEW023 OVC060 09/07 A2898 RMK SC2SC6 CU ASOCTD SLP814=
CYYG;2005-10-17 05:00;METAR CYYG 170500Z 19015KT 15SM -SHRA OVC024 10/06 A2898 RMK SC8 SLP816=
CYYG;2005-10-17 05:15;SPECI CYYG 170515Z 19017KT 15SM OVC024 10/ RMK SC8=
CYYG;2005-10-17 05:25;SPECI CYYG 170525Z 19016G22KT 12SM -SHRA OVC022 09/ RMK SC8=
CYYG;2005-10-17 06:00;METAR CYYG 170600Z 19018KT 10SM -SHRA OVC020 09/07 A2899 RMK SC8 SLP817=
CYYG;2005-10-17 07:00;METAR CYYG 170700Z 19015G22KT 10SM -SHRA OVC015 08/08 A2899 RMK SC8 SLP818=
CYYG;2005-10-17 08:00;METAR CYYG 170800Z 20013G18KT 10SM -SHRA FEW010 OVC025 09/08 A2899 RMK SC2SC6 SLP818=
CYYG;2005-10-17 09:00;METAR CYYG 170900Z 20016KT 12SM -SHRA OVC020 09/07 A2900 RMK SC8 SLP820=
CYYG;2005-10-17 09:11;SPECI CYYG 170911Z 21015KT 15SM FEW018 OVC026 09/ RMK SC2SC6=
CYYG;2005-10-17 10:00;METAR CYYG 171000Z 20015G20KT 15SM OVC029 09/07 A2900 RMK SC8 SLP822=
CYYG;2005-10-17 10:28;SPECI CYYG 171028Z 20012G19KT 15SM -SHRA OVC019 19/ RMK SC8=
CYYG;2005-10-17 11:00;METAR CYYG 171100Z 21013KT 10SM -SHRA OVC016 09/07 A2902 RMK SC8 SLP827=
CYYG;2005-10-17 11:20;SPECI CYYG 171120Z 21012KT 4SM -SHRA BR OVC011 09/ RMK SF8=
CYYG;2005-10-17 11:48;SPECI CYYG 171148Z 20013G18KT 10SM -SHRA OVC016 09/ RMK SC8=
CYYG;2005-10-17 12:00;METAR CYYG 171200Z 21015KT 7SM -SHRA OVC010 09/08 A2903 RMK SF8 SLP832=
CYYG;2005-10-17 12:10;SPECI CYYG 171210Z 23008G16KT 4SM -SHRA BR OVC011 09/ RMK SF8=
CYYG;2005-10-17 12:30;SPECI CYYG 171230Z 22008KT 10SM -SHRA SCT011 OVC040 08/ RMK SF4SC4=
CYYG;2005-10-17 13:00;METAR CYYG 171300Z 24011G16KT 15SM -SHRA BKN015 OVC040 08/07 A2906 RMK SC5SC3 SLP840=
CYYG;2005-10-17 14:00;METAR CYYG 171400Z 24008KT 15SM -SHRA SCT015 BKN042 08/07 A2907 RMK SC3SC4 SLP846=
CYYG;2005-10-17 14:07;SPECI CYYG 171407Z 24008KT 15SM SCT015 BKN042 08/ RMK SC3SC4=
CYYG;2005-10-17 15:00;METAR CYYG 171500Z 24008KT 15SM -SHRA BKN029 BKN048 09/07 A2908 RMK SF5SC2 SLP849=
CYYG;2005-10-17 16:00;METAR CYYG 171600Z 24012KT 15SM -SHRA BKN033 10/08 A2909 RMK SC7 SLP850=
CYYG;2005-10-17 16:46;SPECI CYYG 171646Z 25014G20KT 15SM SCT019 BKN030 11/ RMK SC4SC3=
CYYG;2005-10-17 17:00;METAR CYYG 171700Z 25013KT 15SM VCSH OVC027 11/08 A2910 RMK SC8 SLP854=
CYYG;2005-10-17 17:14;SPECI CYYG 171714Z 25012G19KT 10SM -SHRA BKN018 OVC026 10/ RMK SC5SC3=
CYYG;2005-10-17 18:00;METAR CYYG 171800Z 25013KT 10SM -SHRA BKN016 OVC026 10/08 A2912 RMK SC6SC2 SLP862=
CYYG;2005-10-17 19:00;METAR CYYG 171900Z 25014G19KT 12SM -SHRA SCT016 BKN045 10/09 A2915 RMK SC4SC3 SLP871=
CYYG;2005-10-17 20:00;METAR CYYG 172000Z 25013G18KT 15SM -SHRA SCT016 OVC045 10/09 A2917 RMK SC3SC5 SLP877=
CYYG;2005-10-17 21:00;METAR CYYG 172100Z 25010G16KT 15SM -SHRA SCT018 BKN045 10/09 A2919 RMK SC3SC4 SLP886=
CYYG;2005-10-17 22:00;METAR CYYG 172200Z 26007KT 15SM -SHRA SCT018TCU BKN060 09/08 A2923 RMK TCU3SC4 SLP897=
CYYG;2005-10-17 23:00;METAR CYYG 172300Z 26008KT 15SM -SHRA FEW018TCU BKN045 09/08 A2925 RMK TCU2SC5 SLP907=
CYYG;2005-10-17 23:53;SPECI CYYG 172353Z 26010KT 15SM SCT018 BKN060 09/ RMK CU3SC4=
CYYG;2005-10-18 00:00;METAR CYYG 180000Z 26008KT 15SM FEW018 BKN060 09/08 A2927 RMK CU2SC4 SLP914=
CYYG;2005-10-18 00:33;SPECI CYYG 180033Z 25006KT 10SM -SHRA OVC012 10/ RMK SC8=
CYYG;2005-10-18 02:00;METAR CYYG 180200Z 25008KT 15SM -SHRA FEW015 OVC035 09/08 A2931 RMK CU2SC6 SLP928=
CYYG;2005-10-18 03:00;METAR CYYG 180300Z 26007KT 15SM FEW010 OVC039 09/08 A2932 RMK CU2SC6 SLP930=
CYYG;2005-10-18 04:00;METAR CYYG 180400Z 27009G17KT 15SM FEW012 OVC040 09/07 A2932 RMK CU2SC6 SLP931=
CYYG;2005-10-18 05:00;METAR CYYG 180500Z 27007KT 15SM FEW012 OVC031 09/07 A2934 RMK CU1SC7 SLP936=
CYYG;2005-10-18 06:00;METAR CYYG 180600Z 26005KT 15SM FEW012 OVC030 09/07 A2936 RMK CU1SC8 SLP942=
CYYG;2005-10-18 07:00;METAR CYYG 180700Z 25005KT 15SM OVC030 09/07 A2936 RMK SC8 SLP944=
CYYG;2005-10-18 08:00;METAR CYYG 180800Z 26008KT 15SM OVC020 09/07 A2936 RMK SC8 SLP944=
CYYG;2005-10-18 09:00;METAR CYYG 180900Z 25009KT 15SM OVC027 09/07 A2938 RMK SC8 SLP950=
CYYG;2005-10-18 10:00;METAR CYYG 181000Z 25006KT 15SM BKN030 08/07 A2939 RMK SC7 SLP952=
CYYG;2005-10-18 11:00;METAR CYYG 181100Z 25005KT 15SM SCT030 BKN150 08/07 A2941 RMK SC3AC4 SLP960=
CYYG;2005-10-18 12:41;SPECI CYYG 181241Z 24006KT 15SM BKN014 BKN030 10/ RMK SC5SC2=
CYYG;2005-10-18 13:00;METAR CYYG 181300Z 26006KT 15SM BKN013 BKN030 10/08 A2942 RMK SC6SC2 SLP964=
CYYG;2005-10-18 14:00;METAR CYYG 181400Z 26011KT 15SM BKN012 BKN030 11/08 A2942 RMK SC5SC2 SLP965=
CYYG;2005-10-18 15:00;METAR CYYG 181500Z 25014G19KT 15SM FEW012 BKN028 13/08 A2941 RMK SC2SC4 SLP961=
CYYG;2005-10-18 16:00;METAR CYYG 181600Z 25012G20KT 15SM BKN045 11/07 A2940 RMK SC6 SLP957=
CYYG;2005-10-18 17:00;METAR CYYG 181700Z 23010KT 15SM BKN030 11/07 A2940 RMK SC7 SLP957=
CYYG;2005-10-18 18:00;METAR CYYG 181800Z 26005KT 15SM BKN050 12/08 A2940 RMK SC7 SLP958=
CYYG;2005-10-18 20:00;METAR CYYG 182000Z 25011G16KT 15SM VCSH FEW030 BKN050 11/06 A2942 RMK SC2SC5 VIS LWR E SLP963=
CYYG;2005-10-18 21:00;METAR CYYG 182100Z 23009KT 15SM FEW028 BKN049 11/06 A2942 RMK SC2SC6 SLP964=
CYYG;2005-10-18 22:00;METAR CYYG 182200Z 23008KT 15SM FEW023 FEW032 BKN040 10/06 A2942 RMK SC1SC1SC6 SLP965=
CYYG;2005-10-18 23:00;METAR CYYG 182300Z 24009KT 15SM FEW032 OVC040 10/07 A2942 RMK SC1SC7 SLP963=
CYYG;2005-10-19 00:00;METAR CYYG 190000Z 25008KT 15SM BKN028 OVC048 10/06 A2943 RMK SC5SC3 SLP967=
CYYG;2005-10-19 01:00;METAR CYYG 190100Z 25008KT 15SM -SHRA BKN058 10/06 A2944 RMK SC7 SLP970=
CYYG;2005-10-19 01:44;SPECI CYYG 190144Z 25009KT 15SM FEW058 BKN100 09/ RMK SC2AC5=
CYYG;2005-10-19 02:00;METAR CYYG 190200Z 25008KT 15SM BKN054 BKN098 09/06 A2944 RMK SC5AC2 SLP971=
CYYG;2005-10-19 03:00;METAR CYYG 190300Z 25006KT 15SM BKN045 BKN062 09/06 A2944 RMK SC5SC1 SLP972=
CYYG;2005-10-19 04:00;METAR CYYG 190400Z 25007KT 15SM FEW045 FEW062 08/06 A2945 RMK SC1SC2 SLP974=
CYYG;2005-10-19 05:00;METAR CYYG 190500Z 25006KT 15SM FEW048 08/06 A2945 RMK SC2 SLP975=
CYYG;2005-10-19 06:00;METAR CYYG 190600Z 26005KT 15SM FEW048 SCT120 08/07 A2947 RMK SC1AC3 SLP979=
CYYG;2005-10-19 07:00;METAR CYYG 190700Z 25005KT 15SM FEW022 FEW120 FEW300 08/06 A2948 RMK SC1AC1CI0 SLP984=
CYYG;2005-10-19 08:00;METAR CYYG 190800Z 25004KT 15SM BKN052 08/06 A2949 RMK SC5 SLP988=
CYYG;2005-10-19 09:00;METAR CYYG 190900Z 25006KT 15SM BKN051 08/06 A2950 RMK SC6 SLP992=
CYYG;2005-10-19 10:00;METAR CYYG 191000Z 25005KT 15SM FEW050 07/06 A2953 RMK SC2 SLP000=
CYYG;2005-10-19 11:00;METAR CYYG 191100Z 25006KT 15SM BKN043 BKN120 08/07 A2956 RMK SC5AC1 SLP011=
CYYG;2005-10-19 12:00;METAR CYYG 191200Z 26006KT 15SM BKN032 BKN120 09/07 A2956 RMK SC5AC1 SLP012=
CYYG;2005-10-19 13:00;METAR CYYG 191300Z 28012G17KT 15SM BKN020 BKN120 10/06 A2958 RMK SC5AC1 SLP019=
CYYG;2005-10-19 14:00;METAR CYYG 191400Z 29009G17KT 15SM BKN025 11/06 A2959 RMK SC6 SLP022=
CYYG;2005-10-19 15:00;METAR CYYG 191500Z 27010G16KT 15SM BKN030 11/06 A2960 RMK SC6 SLP025=
CYYG;2005-10-19 16:00;METAR CYYG 191600Z 29011KT 15SM BKN030 BKN040 11/05 A2961 RMK SC6SC2 SLP027=
CYYG;2005-10-19 17:00;METAR CYYG 191700Z 27012KT 15SM BKN035 11/05 A2960 RMK SC6 SLP026=
CYYG;2005-10-19 18:00;METAR CYYG 191800Z 26011G16KT 15SM BKN045 13/06 A2961 RMK SC7 SLP029=
CYYG;2005-10-19 19:00;METAR CYYG 191900Z 26005KT 15SM OVC046 12/05 A2963 RMK SC8 SLP034=
CYYG;2005-10-19 20:00;METAR CYYG 192000Z 27005KT 15SM SCT048 BKN240 12/05 A2962 RMK SC3CI2 SLP032=
CYYG;2005-10-19 21:00;METAR CYYG 192100Z 25004KT 15SM BKN045 BKN240 11/05 A2963 RMK SC6CI1 SLP035=
CYYG;2005-10-19 22:00;METAR CYYG 192200Z 25003KT 15SM BKN042 11/06 A2964 RMK SC6 SLP039=
CYYG;2005-10-19 23:00;METAR CYYG 192300Z 25010G17KT 15SM OVC044 11/07 A2965 RMK SC8 SLP041=
CYYG;2005-10-20 00:00;METAR CYYG 200000Z 25007KT 15SM OVC043 10/07 A2966 RMK SC8 SLP044=
CYYG;2005-10-20 01:00;METAR CYYG 200100Z 22006KT 15SM BKN045 10/07 A2965 RMK SC7 SLP041=
CYYG;2005-10-20 02:00;METAR CYYG 200200Z 23006KT 15SM SCT045 BKN073 10/08 A2964 RMK SC3AC4 SLP037=
CYYG;2005-10-20 02:32;SPECI CYYG 200232Z 24008KT 15SM -SHRA BKN045 OVC070 10/ RMK SC5AC3=
CYYG;2005-10-20 03:00;METAR CYYG 200300Z 23008KT 12SM -SHRA BKN041 OVC069 10/08 A2963 RMK SC6AC2 SLP035=
CYYG;2005-10-20 04:00;METAR CYYG 200400Z 22004KT 15SM -SHRA BKN045 OVC070 10/09 A2961 RMK SC6AC2 SLP027=
CYYG;2005-10-20 05:00;METAR CYYG 200500Z 19006KT 15SM -SHRA SCT045 OVC078 09/08 A2959 RMK SC3AC5 SLP021=
CYYG;2005-10-20 06:00;METAR CYYG 200600Z 19013KT 15SM -SHRA FEW045 OVC078 10/08 A2956 RMK SC2AC6 SLP012=
CYYG;2005-10-20 07:00;METAR CYYG 200700Z 18012KT 15SM -SHRA BKN042 OVC070 10/08 A2952 RMK SC6AC2 SLP999=
CYYG;2005-10-20 08:00;METAR CYYG 200800Z 19011G17KT 15SM -SHRA SCT014 OVC042 10/09 A2949 RMK SC3SC5 SLP986=
CYYG;2005-10-20 08:09;SPECI CYYG 200809Z 19013KT 15SM BKN012 OVC042 10/ RMK SC6SC2=
CYYG;2005-10-20 09:00;METAR CYYG 200900Z 18012G21KT 15SM BKN013 OVC045 11/09 A2944 RMK SC5SC3 SLP971=
CYYG;2005-10-20 09:48;SPECI CYYG 200948Z 20019KT 12SM -SHRA SCT013 OVC030 11/ RMK SC4SC4=
CYYG;2005-10-20 10:00;METAR CYYG 201000Z 20015G22KT 15SM -SHRA SCT013 OVC030 11/10 A2942 RMK SC4SC4 SLP963=
CYYG;2005-10-20 11:00;METAR CYYG 201100Z 25013G20KT 15SM SCT012 BKN030 12/10 A2943 RMK SC3SC2 SLP966=
CYYG;2005-10-20 11:22;SPECI CYYG 201122Z 26020G28KT 15SM VCSH FEW015TCU BKN040 11/ RMK TCU2SC3=
CYYG;2005-10-20 12:00;METAR CYYG 201200Z 25020G27KT 15SM BKN025 BKN040 09/05 A2947 RMK SC6SC2 SLP981=
CYYG;2005-10-20 13:00;METAR CYYG 201300Z 27018G28KT 15SM BKN024 09/05 A2949 RMK SC7 SLP988=
CYYG;2005-10-20 14:00;METAR CYYG 201400Z 28017G27KT 15SM OVC022 08/04 A2952 RMK SC8 SLP996=
CYYG;2005-10-20 15:00;METAR CYYG 201500Z 27013G24KT 15SM BKN024 OVC040 08/03 A2954 RMK SC6SC2 SLP004=
CYYG;2005-10-20 16:00;METAR CYYG 201600Z 27016G21KT 15SM BKN025 OVC035 08/03 A2955 RMK SC6SC2 SLP006=
CYYG;2005-10-20 17:00;METAR CYYG 201700Z 27014G20KT 15SM -SHRA BKN025 OVC035 08/03 A2955 RMK SC7SC1 SLP007=
CYYG;2005-10-20 18:00;METAR CYYG 201800Z 27014KT 15SM -SHRA OVC025 08/04 A2956 RMK SC8 SLP011=
CYYG;2005-10-20 19:00;METAR CYYG 201900Z 27011G17KT 12SM -SHRA OVC025 08/05 A2958 RMK SC8 SLP018=
CYYG;2005-10-20 20:00;METAR CYYG 202000Z 27011G24KT 15SM -SHRA BKN030 BKN060 08/04 A2960 RMK SC5SC2 SLP023=
CYYG;2005-10-20 20:35;SPECI CYYG 202035Z 27010G18KT 15SM FEW035 BKN045 08/ RMK SC2SC5=
CYYG;2005-10-20 21:00;METAR CYYG 202100Z 27016KT 15SM FEW030 BKN060 08/03 A2962 RMK SC2SC5 SLP030=
CYYG;2005-10-20 22:00;METAR CYYG 202200Z 27014G19KT 15SM VCSH FEW030 SCT045 BKN060 08/03 A2964 RMK SC2SC2SC4 SLP038=
CYYG;2005-10-20 23:00;METAR CYYG 202300Z 27011G17KT 15SM FEW035 SCT045 BKN058 07/03 A2966 RMK SC2SC2SC3 SLP046=
CYYG;2005-10-21 00:00;METAR CYYG 210000Z 27011G17KT 15SM BKN045 BKN058 08/02 A2969 RMK SC5SC2 SLP053=
CYYG;2005-10-21 01:00;METAR CYYG 210100Z 27013KT 15SM BKN045 07/01 A2970 RMK SC7 SLP059=
CYYG;2005-10-21 02:00;METAR CYYG 210200Z 27015KT 15SM OVC045 07/01 A2971 RMK SC8 SLP062=
CYYG;2005-10-21 03:00;METAR CYYG 210300Z 28010G19KT 15SM BKN045 06/01 A2971 RMK SC6 SLP063=
CYYG;2005-10-21 04:00;METAR CYYG 210400Z 27010G17KT 15SM BKN045 05/01 A2972 RMK SC6 SLP065=
CYYG;2005-10-21 05:00;METAR CYYG 210500Z 28010G17KT 15SM BKN045 05/01 A2971 RMK SC5 SLP064=
CYYG;2005-10-21 06:00;METAR CYYG 210600Z 27011KT 15SM SCT045 05/01 A2973 RMK SC3 SLP069=
CYYG;2005-10-21 07:00;METAR CYYG 210700Z 27007KT 15SM FEW045 04/01 A2974 RMK SC2 SLP072=
CYYG;2005-10-21 08:00;METAR CYYG 210800Z 27008KT 15SM FEW045 04/01 A2974 RMK SC2 SLP074=
CYYG;2005-10-21 09:00;METAR CYYG 210900Z 27008KT 15SM FEW025 05/02 A2977 RMK SC2 SLP081=
CYYG;2005-10-21 10:00;METAR CYYG 211000Z 29010G17KT 15SM FEW025 05/01 A2976 RMK SC2 SLP079=
CYYG;2005-10-21 11:00;METAR CYYG 211100Z 28008KT 15SM BKN022 05/02 A2977 RMK SC7 SLP082=
CYYG;2005-10-21 12:00;METAR CYYG 211200Z 27009G16KT 15SM OVC021 05/02 A2979 RMK SC8 SLP088=
CYYG;2005-10-21 13:00;METAR CYYG 211300Z 28013G19KT 15SM BKN021 06/02 A2979 RMK SC7 SLP091=
CYYG;2005-10-21 14:00;METAR CYYG 211400Z 28014G19KT 15SM OVC021 06/02 A2979 RMK SC8 SLP089=
CYYG;2005-10-21 15:00;METAR CYYG 211500Z 29013G19KT 15SM BKN021 06/02 A2979 RMK SC7 SLP089=
CYYG;2005-10-21 16:00;METAR CYYG 211600Z 29012KT 15SM BKN021 BKN090 07/02 A2978 RMK SC6AC1 SLP085=
CYYG;2005-10-21 17:00;METAR CYYG 211700Z 28009KT 15SM BKN024 BKN090 07/02 A2977 RMK SC7AC1 SLP081=
CYYG;2005-10-21 18:00;METAR CYYG 211800Z 27013G19KT 15SM BKN025 BKN090 BKN220 09/03 A2975 RMK SC5AC1CI2 SLP077=
CYYG;2005-10-21 19:00;METAR CYYG 211900Z 28015G20KT 15SM FEW025 FEW170 SCT220 09/03 A2975 RMK SC2AC1CI1 SLP076=
CYYG;2005-10-21 20:00;METAR CYYG 212000Z 27010G15KT 15SM FEW030 FEW170 BKN220 09/03 A2976 RMK SC2AC1CI1 SLP078=
CYYG;2005-10-21 21:00;METAR CYYG 212100Z 30008KT 15SM FEW030 SCT220 08/02 A2977 RMK SC2CI1 SLP082=
CYYG;2005-10-21 22:00;METAR CYYG 212200Z 28007KT 15SM FEW030 SCT220 07/02 A2978 RMK SC2CI1 SLP087=
CYYG;2005-10-21 23:00;METAR CYYG 212300Z 29008KT 15SM BKN045 08/02 A2979 RMK SC6 SLP089=
CYYG;2005-10-22 00:00;METAR CYYG 220000Z 29010G16KT 15SM OVC044 08/02 A2979 RMK SC8 SLP091=
CYYG;2005-10-22 01:00;METAR CYYG 220100Z 29011KT 15SM OVC038 08/02 A2980 RMK SC8 SLP093=
CYYG;2005-10-22 02:00;METAR CYYG 220200Z 28009G15KT 15SM OVC033 07/03 A2979 RMK SC8 SLP091=
CYYG;2005-10-22 03:00;METAR CYYG 220300Z 29008G16KT 15SM OVC029 07/03 A2980 RMK SC8 SLP092=
CYYG;2005-10-22 04:00;METAR CYYG 220400Z 29009KT 15SM BKN029 06/02 A2980 RMK SC6 SLP093=
CYYG;2005-10-22 05:00;METAR CYYG 220500Z 29011KT 15SM FEW030 06/02 A2980 RMK SC1 SLP092=
CYYG;2005-10-22 06:00;METAR CYYG 220600Z 29010G15KT 15SM FEW030 05/02 A2980 RMK SC1 SLP093=
CYYG;2005-10-22 07:00;METAR CYYG 220700Z 29012KT 15SM FEW030 05/02 A2980 RMK SC1 SLP094=
CYYG;2005-10-22 08:00;METAR CYYG 220800Z 28010KT 15SM FEW030 05/02 A2982 RMK SC1 SLP098=
CYYG;2005-10-22 09:00;METAR CYYG 220900Z 29009KT 15SM FEW030 04/02 A2982 RMK SC1 SLP101=
CYYG;2005-10-22 10:00;METAR CYYG 221000Z 31008KT 15SM FEW030 04/02 A2983 RMK SC2 SLP104=
CYYG;2005-10-22 11:00;METAR CYYG 221100Z 31011KT 15SM FEW013 04/03 A2984 RMK SC2 SLP106=
CYYG;2005-10-22 12:00;METAR CYYG 221200Z 29009KT 15SM SCT018 05/04 A2986 RMK SC3 SLP114=
CYYG;2005-10-22 13:00;METAR CYYG 221300Z 29008KT 15SM SCT022 07/05 A2987 RMK SC3 SLP118=
CYYG;2005-10-22 14:00;METAR CYYG 221400Z 31009KT 15SM FEW015 BKN023 08/05 A2988 RMK CU1SC6 SLP121=
CYYG;2005-10-22 15:00;METAR CYYG 221500Z 31008KT 15SM FEW015 BKN023 09/06 A2989 RMK CU1SC6 SLP122=
CYYG;2005-10-22 16:00;METAR CYYG 221600Z 31010KT 15SM FEW014 BKN023 09/06 A2989 RMK CU2SC6 SLP124=
CYYG;2005-10-22 17:00;METAR CYYG 221700Z 31006KT 15SM FEW015 BKN028 09/06 A2990 RMK CU2SC5 SLP125=
CYYG;2005-10-22 18:00;METAR CYYG 221800Z 34005KT 15SM FEW016 BKN029 09/06 A2990 RMK CU2SC5 SLP128=
CYYG;2005-10-22 18:39;SPECI CYYG 221839Z 35006KT 15SM -SHRA FEW015 BKN026 09/ RMK CU2SC6=
CYYG;2005-10-22 19:00;METAR CYYG 221900Z 36008KT 15SM FEW015 BKN027 09/06 A2991 RMK SC2SC6 SLP131=
CYYG;2005-10-22 20:00;METAR CYYG 222000Z 34007KT 15SM FEW024 BKN030 09/05 A2993 RMK CU2SC6 SLP138=
CYYG;2005-10-22 20:24;SPECI CYYG 222024Z 33007KT 15SM -SHRA BKN019 BKN030 09/ RMK SC5SC2=
CYYG;2005-10-22 20:51;SPECI CYYG 222051Z 36004KT 15SM SCT018 BKN031 08/ RMK SC3SC4=
CYYG;2005-10-22 21:00;METAR CYYG 222100Z 36005KT 15SM SCT018 BKN031 08/05 A2994 RMK SC3SC4 SLP141=
CYYG;2005-10-22 22:00;METAR CYYG 222200Z 35003KT 15SM FEW018 BKN034 08/05 A2995 RMK SC2SC6 SLP144=
CYYG;2005-10-22 23:00;METAR CYYG 222300Z 35003KT 15SM OVC027 08/05 A2995 RMK SC8 SLP143=
CYYG;2005-10-23 00:00;METAR CYYG 230000Z 34003KT 15SM OVC027 08/06 A2995 RMK SC8 SLP144=
CYYG;2005-10-23 01:00;METAR CYYG 230100Z 03005KT 15SM OVC026 08/05 A2997 RMK SC8 SLP150=
CYYG;2005-10-23 02:00;METAR CYYG 230200Z 06006KT 15SM OVC023 08/05 A2996 RMK SC8 SLP148=
CYYG;2005-10-23 03:00;METAR CYYG 230300Z 07004KT 15SM OVC028 07/05 A2996 RMK SC8 SLP148=
CYYG;2005-10-23 04:00;METAR CYYG 230400Z 07003KT 15SM OVC027 07/04 A2997 RMK SC8 SLP149=
CYYG;2005-10-23 05:00;METAR CYYG 230500Z 07004KT 15SM OVC028 07/04 A2996 RMK SC8 SLP146=
CYYG;2005-10-23 06:00;METAR CYYG 230600Z 08006KT 15SM OVC028 07/04 A2996 RMK SC8 SLP146=
CYYG;2005-10-23 07:00;METAR CYYG 230700Z 08004KT 15SM SCT028 BKN200 06/05 A2994 RMK SC4CI3 SLP140=
CYYG;2005-10-23 08:00;METAR CYYG 230800Z 07006KT 15SM SCT028 BKN150 06/04 A2993 RMK SC3AC4 SLP138=
CYYG;2005-10-23 09:00;METAR CYYG 230900Z 07008KT 15SM FEW025 BKN160 06/03 A2989 RMK SC2AC5 SLP123=
CYYG;2005-10-23 10:00;METAR CYYG 231000Z 07011KT 15SM FEW028 BKN140 07/04 A2987 RMK SC2AC5 SLP115=
CYYG;2005-10-23 10:41;SPECI CYYG 231041Z 08008KT 15SM FEW008 BKN025 BKN140 07/ RMK SF1SC5AC2=
CYYG;2005-10-23 11:00;METAR CYYG 231100Z 09005KT 15SM FEW008 BKN027 BKN040 07/05 A2991 RMK SF1SC6SC2 SLP129=
CYYG;2005-10-23 12:00;METAR CYYG 231200Z 09010KT 15SM OVC028 08/04 A2989 RMK SC8 SLP123=
CYYG;2005-10-23 13:00;METAR CYYG 231300Z 08015G20KT 15SM BKN032 OVC140 08/04 A2985 RMK SC6AS2 SLP108=
CYYG;2005-10-23 14:00;METAR CYYG 231400Z 08016G24KT 15SM BKN025 OVC140 08/04 A2982 RMK SC7AS1 SLP100=
CYYG;2005-10-23 15:00;METAR CYYG 231500Z 08016G26KT 15SM OVC023 08/04 A2976 RMK SC8 PRESFR SLP080=
CYYG;2005-10-23 16:00;METAR CYYG 231600Z 07013G21KT 15SM OVC023 08/03 A2975 RMK SC8 SLP075=
CYYG;2005-10-23 16:14;SPECI CYYG 231614Z 08012G17KT 15SM -RA OVC021 08/ RMK SC8=
CYYG;2005-10-23 17:00;METAR CYYG 231700Z 07014G19KT 10SM -RA OVC021 07/05 A2970 RMK SC8 SLP059=
CYYG;2005-10-23 18:00;METAR CYYG 231800Z 06011G19KT 3SM RA BR OVC027 06/05 A2966 RMK SC8 SLP045=
CYYG;2005-10-23 19:00;METAR CYYG 231900Z 05010G17KT 3SM RA BR OVC026 07/06 A2965 RMK SC8 SLP043=
CYYG;2005-10-23 20:00;METAR CYYG 232000Z 05013KT 5SM -RA BR BKN026 OVC033 06/05 A2965 RERA RMK SC6SC2 /R12/ SLP042=
CYYG;2005-10-23 21:00;METAR CYYG 232100Z 05014KT 10SM -RA FEW014 BKN024 OVC046 06/05 A2964 RMK SC2SC5SC2 SLP038=
CYYG;2005-10-23 22:00;METAR CYYG 232200Z 05015KT 10SM -RA BKN025 OVC046 06/05 A2965 RMK SC6SC2 SLP042=
CYYG;2005-10-23 23:00;METAR CYYG 232300Z 06014G21KT 10SM -RA BKN026 OVC036 06/05 A2967 RMK SC6SC2 SLP049=
CYYG;2005-10-24 00:00;METAR CYYG 240000Z 05017KT 15SM -RA OVC023 06/05 A2967 RMK SC8 RERA SLP050=
CYYG;2005-10-24 01:00;METAR CYYG 240100Z 05017G26KT 15SM RA BKN014 OVC024 06/05 A2968 RMK SC5SC3 RERA SLP052=
CYYG;2005-10-24 02:00;METAR CYYG 240200Z 05018G29KT 15SM -RA FEW010 OVC021 06/05 A2969 RMK SC2SC6 RERA SLP056=
CYYG;2005-10-24 03:00;METAR CYYG 240300Z 04020G26KT 15SM -RA BKN022 OVC033 07/06 A2970 RMK SC6SC2 SLP060=
CYYG;2005-10-24 03:51;SPECI CYYG 240351Z 05017G26KT 15SM BKN024 OVC053 07/ RMK SC6SC2=
CYYG;2005-10-24 04:00;METAR CYYG 240400Z 04016G26KT 15SM BKN026 OVC076 07/06 A2972 RMK SC6AC2 SLP066=
CYYG;2005-10-24 05:00;METAR CYYG 240500Z 04021G31KT 15SM BKN024 OVC071 07/05 A2974 RMK SC6AC2 SLP073=
CYYG;2005-10-24 06:00;METAR CYYG 240600Z 04023G29KT 15SM BKN026 OVC072 07/05 A2976 RMK SC6AC2 SLP079=
CYYG;2005-10-24 07:00;METAR CYYG 240700Z 04020G30KT 15SM BKN017 OVC070 07/05 A2977 RMK SC6AC2 SLP082=
CYYG;2005-10-24 08:00;METAR CYYG 240800Z 05017G26KT 15SM OVC018 07/05 A2982 RMK SC8 SLP099=
CYYG;2005-10-24 09:00;METAR CYYG 240900Z 04013G18KT 15SM OVC018 07/05 A2987 RMK SC8 SLP116=
CYYG;2005-10-24 10:00;METAR CYYG 241000Z 04011G16KT 15SM OVC018 07/05 A2991 RMK SC8 SLP129=
CYYG;2005-10-24 11:00;METAR CYYG 241100Z 04015KT 15SM OVC020 07/04 A2994 RMK SC8 SLP140=
CYYG;2005-10-24 12:00;METAR CYYG 241200Z 04013KT 15SM OVC019 07/05 A2997 RMK SC8 SLP150=
CYYG;2005-10-24 13:00;METAR CYYG 241300Z 04011KT 15SM FEW015 OVC022 08/05 A3001 RMK SC2SC6 SLP163=
CYYG;2005-10-24 14:00;METAR CYYG 241400Z 04011G16KT 15SM FEW015 BKN022 OVC080 08/05 A3002 RMK SC2SC4AC2 SLP166=
CYYG;2005-10-24 15:00;METAR CYYG 241500Z 04015KT 15SM BKN020 OVC080 08/04 A3005 RMK SC7AC1 SLP176=
CYYG;2005-10-24 16:00;METAR CYYG 241600Z 04015G20KT 15SM BKN024 OVC080 08/04 A3006 RMK SC7AC1 SLP181=
CYYG;2005-10-24 17:00;METAR CYYG 241700Z 05011G16KT 15SM BKN024 OVC080 08/04 A3009 RMK SC7AC1 SLP192=
CYYG;2005-10-24 18:00;METAR CYYG 241800Z 03011KT 15SM OVC022 08/04 A3011 RMK SC8 SLP198=
CYYG;2005-10-24 19:00;METAR CYYG 241900Z 03011G16KT 15SM OVC025 08/03 A3012 RMK SC8 SLP199=
CYYG;2005-10-24 20:00;METAR CYYG 242000Z 05010G16KT 15SM BKN025 08/03 A3013 RMK SC7 SLP204=
CYYG;2005-10-24 21:00;METAR CYYG 242100Z 05012KT 15SM BKN030 07/03 A3015 RMK SC7 SLP213=
CYYG;2005-10-24 22:00;METAR CYYG 242200Z 04008KT 15SM BKN034 07/02 A3018 RMK SC6 SLP221=
CYYG;2005-10-24 23:00;METAR CYYG 242300Z 06008KT 15SM FEW024 BKN030 07/03 A3020 RMK SC2SC5 SLP227=
CYYG;2005-10-25 00:00;METAR CYYG 250000Z 05007KT 15SM BKN027 OVC036 07/03 A3020 RMK SC6SC2 SLP229=
CYYG;2005-10-25 01:00;METAR CYYG 250100Z 05008KT 15SM SCT025 OVC038 07/02 A3021 RMK SC4SC4 SLP232=
CYYG;2005-10-25 02:00;METAR CYYG 250200Z 05009KT 15SM FEW028 OVC033 07/02 A3022 RMK SC2SC6 SLP235=
CYYG;2005-10-25 03:00;METAR CYYG 250300Z 08004KT 15SM BKN030 OVC090 06/02 A3023 RMK SC6AC2 SLP239=
CYYG;2005-10-25 04:00;METAR CYYG 250400Z 09005KT 15SM OVC033 06/02 A3021 RMK SC8 SLP231=
CYYG;2005-10-25 05:00;METAR CYYG 250500Z 08004KT 15SM OVC034 06/02 A3021 RMK SC8 SLP232=
CYYG;2005-10-25 06:00;METAR CYYG 250600Z 08005KT 15SM OVC035 06/02 A3020 RMK SC8 SLP230=
CYYG;2005-10-25 07:00;METAR CYYG 250700Z 07004KT 15SM BKN033 OVC090 05/02 A3020 RMK SC6AC2 SLP229=
CYYG;2005-10-25 08:00;METAR CYYG 250800Z 05008KT 15SM OVC033 06/02 A3019 RMK SC8 SLP224=
CYYG;2005-10-25 09:00;METAR CYYG 250900Z 04007KT 15SM OVC028 06/02 A3017 RMK SC8 SLP220=
CYYG;2005-10-25 10:00;METAR CYYG 251000Z 05005KT 15SM OVC034 06/02 A3016 RMK SC8 SLP215=
CYYG;2005-10-25 11:00;METAR CYYG 251100Z 07008KT 15SM FEW020 OVC031 06/04 A3014 RMK SC1SC7 SLP209=
CYYG;2005-10-25 12:00;METAR CYYG 251200Z 05007KT 15SM FEW020 BKN031 OVC250 07/04 A3013 RMK SC1SC6CI2 SLP204=
CYYG;2005-10-25 13:00;METAR CYYG 251300Z 08008KT 15SM FEW020 BKN039 OVC250 07/04 A3011 RMK SC2SC6CI1 SLP197=
CYYG;2005-10-25 14:00;METAR CYYG 251400Z 09009KT 15SM FEW020 BKN039 OVC250 08/04 A3010 RMK SC2SC6CI1 SLP195=
CYYG;2005-10-25 15:00;METAR CYYG 251500Z 08010G15KT 15SM FEW022 BKN038 OVC090 08/05 A3005 RMK SC2SC5AC2 SLP176=
CYYG;2005-10-25 16:00;METAR CYYG 251600Z 08010G15KT 15SM FEW019 OVC026 08/05 A3001 RMK SC1SC7 SLP163=
CYYG;2005-10-25 16:21;SPECI CYYG 251621Z 09010KT 15SM -SHRA FEW019 BKN027 OVC051 08/ RMK SC2SC6SC1=
CYYG;2005-10-25 17:00;METAR CYYG 251700Z 08008KT 12SM -SHRA FEW018 OVC028 08/06 A2996 RMK SC2SC6 SLP146=
CYYG;2005-10-25 18:00;METAR CYYG 251800Z 06010KT 12SM -SHRA FEW018 OVC028 07/06 A2989 RMK SC2SC6 SLP124=
CYYG;2005-10-25 19:00;METAR CYYG 251900Z 08011KT 12SM -SHRA FEW015 OVC030 08/07 A2985 RMK SC2SC6 SLP109=
CYYG;2005-10-25 20:00;METAR CYYG 252000Z 08012G17KT 8SM -RA BKN015 OVC034 08/07 A2980 RMK SC5SC3 SLP092=
CYYG;2005-10-25 21:00;METAR CYYG 252100Z 08011G18KT 6SM -RA BR BKN015 OVC031 08/07 A2977 RMK SC6SC2 G27 PAST HR SLP081=
CYYG;2005-10-25 23:00;METAR CYYG 252300Z 07019KT 6SM -RA BR BKN015 OVC055 07/06 A2969 RMK SC6NS2 SLP057=
CYYG;2005-10-26 00:00;METAR CYYG 260000Z 07020G31KT 6SM -RA BR BKN015 OVC070 07/05 A2964 RMK SC6AS2 PRESFR SLP040=
CYYG;2005-10-26 01:00;METAR CYYG 260100Z 07025G32KT 6SM -RA BR BKN022 OVC070 07/05 A2960 RERA RMK SC6AS2 SLP024=
CYYG;2005-10-26 02:00;METAR CYYG 260200Z 07026G35KT 6SM -RA BR BKN015 OVC030 07/06 A2955 RMK SC6NS2 SLP010=
CYYG;2005-10-26 03:00;METAR CYYG 260300Z 07021G28KT 10SM -RA SCT015 OVC030 07/06 A2952 RMK SC3NS5 SLP996=
CYYG;2005-10-26 04:00;METAR CYYG 260400Z 06012G21KT 6SM -RA BR OVC015 07/06 A2955 RMK SC8 PRES UNSTDY SLP009=
CYYG;2005-10-26 05:00;METAR CYYG 260500Z 06021G26KT 5SM -RA BR OVC015 07/06 A2952 RERA RMK SC8 RERA /R11/ SLP997=
CYYG;2005-10-26 06:00;METAR CYYG 260600Z 06018G29KT 5SM -RA BR OVC013 07/06 A2950 RMK SC8 SLP989=
CYYG;2005-10-26 08:00;METAR CYYG 260800Z 07017G25KT 4SM -DZ BR OVC008 07/06 A2943 RMK SF8 SLP968=
CYYG;2005-10-26 09:00;METAR CYYG 260900Z 07019G29KT 4SM -DZ BR OVC008 07/06 A2939 RMK SF8 SLP954=
CYYG;2005-10-26 10:00;METAR CYYG 261000Z 07017G25KT 6SM -DZ BR OVC009 07/06 A2936 RMK SF8 SLP945=
CYYG;2005-10-26 11:00;METAR CYYG 261100Z 07016G22KT 6SM -DZ BR OVC010 07/07 A2935 RMK SF8 SLP939=
CYYG;2005-10-26 12:00;METAR CYYG 261200Z 08012KT 5SM -DZ BR OVC008 07/07 A2933 RMK SF8 SLP934=
CYYG;2005-10-26 13:00;METAR CYYG 261300Z 09013KT 6SM -DZ BR BKN008 OVC015 08/08 A2929 RMK SF6SC2 SLP919=
CYYG;2005-10-26 14:00;METAR CYYG 261400Z 09015G21KT 10SM -DZ BKN008 OVC014 08/08 A2926 RMK SF6SC2 SLP910=
CYYG;2005-10-26 14:14;SPECI CYYG 261414Z 10015G20KT 6SM -RA BR OVC007 08/ RMK SF8=
CYYG;2005-10-26 15:00;METAR CYYG 261500Z 10017KT 6SM -RA BR BKN007 OVC015 09/08 A2923 RMK SF7SC1 SLP899=
CYYG;2005-10-26 15:24;SPECI CYYG 261524Z 12013G18KT 12SM -RA OVC010 09/ RMK SF8=
CYYG;2005-10-26 16:00;METAR CYYG 261600Z 12013G19KT 12SM -RA OVC011 09/09 A2918 RMK SF8 SLP883=
CYYG;2005-10-26 17:00;METAR CYYG 261700Z 17007KT 15SM -SHRA BKN011 OVC019 11/10 A2916 RMK SC6SC2 SLP875=
CYYG;2005-10-26 18:00;METAR CYYG 261800Z 21013G20KT 15SM -SHRA BKN010 OVC025 11/10 A2914 RMK SC5SC3 SLP869=
CYYG;2005-10-26 19:00;METAR CYYG 261900Z 24008KT 12SM -SHRA BKN010 OVC025 10/09 A2915 RMK SC5SC3 SLP873=
CYYG;2005-10-26 19:09;SPECI CYYG 261909Z 24010G16KT 15SM -SHRA SCT010 BKN030 10/ RMK SC3SC4=
CYYG;2005-10-26 20:00;METAR CYYG 262000Z 24008KT 15SM -SHRA FEW010 BKN030 10/08 A2916 RMK SC2SC6 SLP875=
CYYG;2005-10-26 20:46;SPECI CYYG 262046Z 24009KT 15SM FEW010 SCT030 BKN058 10/ RMK SC1SC3SC3=
CYYG;2005-10-26 21:00;METAR CYYG 262100Z 23008KT 15SM FEW010 FEW030 BKN055 10/08 A2916 RMK SC1SC2SC5 SLP876=
CYYG;2005-10-26 22:00;METAR CYYG 262200Z 23008KT 15SM FEW030 BKN070 09/07 A2918 RMK SC2AC6 SLP881=
CYYG;2005-10-26 22:06;SPECI CYYG 262206Z 24008KT 10SM -SHRA FEW013 BKN030 OVC070 09/ RMK SC2SC3AC2=
CYYG;2005-10-26 23:00;METAR CYYG 262300Z 25009KT 8SM -DZ OVC008 09/08 A2919 RMK SF8 SLP885=
CYYG;2005-10-27 00:00;METAR CYYG 270000Z 02013KT 6SM -DZ BR OVC006 08/07 A2923 RMK SF8 SWHFT 2350 SLP898=
CYYG;2005-10-27 01:00;METAR CYYG 270100Z 36015G25KT 2SM -DZ BR OVC006 07/06 A2929 RMK SF8 PRESRR SLP919=
CYYG;2005-10-27 02:00;METAR CYYG 270200Z 35013G22KT 3SM -DZ BR BKN007 OVC019 06/06 A2933 RMK SF6SC2 SLP935=
CYYG;2005-10-27 02:38;SPECI CYYG 270238Z 36010G18KT 15SM SCT008 BKN025 06/ RMK SF3SC2=
CYYG;2005-10-27 03:00;METAR CYYG 270300Z 36012KT 15SM FEW008 BKN015 06/05 A2936 RMK SF2SC5 SLP943=
CYYG;2005-10-27 03:19;SPECI CYYG 270319Z 36011G21KT 10SM -DZ OVC010 06/ RMK SF8=
CYYG;2005-10-27 03:45;SPECI CYYG 270345Z 34010G17KT 15SM FEW010 OVC025 06/ RMK SF2SC6=
CYYG;2005-10-27 04:00;METAR CYYG 270400Z 35012KT 10SM -DZ SCT012 OVC025 06/05 A2939 RMK SF4SC4 SLP955=
CYYG;2005-10-27 06:00;METAR CYYG 270600Z 34011G16KT 12SM -DZ BKN010 OVC025 06/05 A2947 RMK SF6SC2 SLP982=
CYYG;2005-10-27 07:00;METAR CYYG 270700Z 34016G24KT 10SM -DZ OVC010 06/05 A2950 RMK SF8 SLP992=
CYYG;2005-10-27 08:00;METAR CYYG 270800Z 33016G21KT 10SM -DZ BKN009 OVC015 06/05 A2954 RMK SF6SC2 SLP005=
CYYG;2005-10-27 09:00;METAR CYYG 270900Z 33011G19KT 15SM BKN010 OVC025 06/04 A2958 RMK SF5SC3 SLP018=
CYYG;2005-10-27 09:42;SPECI CYYG 270942Z 32013KT 10SM -DZ BKN010 OVC025 06/ RMK SF7SC1=
CYYG;2005-10-27 10:00;METAR CYYG 271000Z 33014G19KT 10SM -SHRA BKN010 OVC025 06/04 A2961 RMK SF7SC1 SLP027=
CYYG;2005-10-27 10:31;SPECI CYYG 271031Z 33012G19KT 10SM -DZ BKN012 OVC025 06/ RMK SF7SC1=
CYYG;2005-10-27 11:00;METAR CYYG 271100Z 32013G18KT 10SM -DZ BKN011 OVC020 06/05 A2965 RMK SF7SC1 SLP041=
CYYG;2005-10-27 12:00;METAR CYYG 271200Z 33011KT 10SM -DZ BKN009 OVC015 06/05 A2969 RMK SF7SC1 SLP055=
CYYG;2005-10-27 12:07;SPECI CYYG 271207Z 33006G16KT 15SM -SHRA BKN014 OVC025 06/ RMK SC6SC2=
CYYG;2005-10-27 13:00;METAR CYYG 271300Z 32012G20KT 15SM -SHRA BKN025 BKN080 07/05 A2971 RMK SC5AC2 SLP064=
CYYG;2005-10-27 14:00;METAR CYYG 271400Z 33016KT 12SM -SHRA SCT010 BKN028 BKN080 07/05 A2974 RMK SC3SC3AC1 VIS LWR E SLP073=
CYYG;2005-10-27 14:35;SPECI CYYG 271435Z 34011G16KT 10SM -SHRA FEW009 BKN013 OVC027 07/ RMK SF2SC4SC2 VIS LWR E=
CYYG;2005-10-27 15:00;METAR CYYG 271500Z 33012G20KT 15SM -SHRA FEW009 BKN017 07/06 A2978 RMK SF2SC6 VIS LWR W SLP085=
CYYG;2005-10-27 16:00;METAR CYYG 271600Z 33012G20KT 15SM -SHRA FEW009 OVC017 07/06 A2980 RMK SF2SC6 SLP093=
CYYG;2005-10-27 17:00;METAR CYYG 271700Z 33012G20KT 15SM -SHRA FEW009 BKN022 07/05 A2982 RMK SF1SC6 SLP098=
CYYG;2005-10-27 18:00;METAR CYYG 271800Z 34014G20KT 15SM -SHRA SCT022 BKN080 08/05 A2984 RMK SC3AC3 SLP105=
CYYG;2005-10-27 19:00;METAR CYYG NIL=
CYYG;2005-10-27 20:00;METAR CYYG 272000Z 34009G17KT 15SM -SHRA BKN013 07/06 A2990 RMK SC7 SLP125=
CYYG;2005-10-27 20:28;SPECI CYYG 272028Z 33009KT 3SM -SHRA BR OVC013 07/ RMK SC8=
CYYG;2005-10-27 21:00;METAR CYYG 272100Z 33008KT 10SM -SHRA BKN015 OVC021 07/06 A2993 RMK SC6SC2 SLP136=
CYYG;2005-10-27 21:34;SPECI CYYG 272134Z 31007KT 10SM -SHRA SCT008 OVC013 07/ RMK SF3SC5=
CYYG;2005-10-27 22:00;METAR CYYG 272200Z 32004KT 10SM -SHRA FEW008 BKN017 OVC080 06/06 A2996 RMK SF2SC5AC1 SLP147=
CYYG;2005-10-27 23:00;METAR CYYG 272300Z 35006KT 6SM -SHRA BR BKN012 BKN028 OVC090 06/06 A2998 RMK SC5SC2AC1 SLP154=
CYYG;2005-10-28 00:00;METAR CYYG 280000Z 35006KT 8SM -SHRA SCT012 BKN025 OVC090 06/06 A3002 RMK SC3SC3AC2 SLP166=
CYYG;2005-10-28 01:00;METAR CYYG 280100Z 35006KT 4SM -SHRA BR FEW010 OVC025 06/06 A3005 RMK SC2SC6 SLP176=
CYYG;2005-10-28 02:00;METAR CYYG 280200Z 32004KT 6SM -SHRA BR FEW010 OVC020 06/06 A3007 RMK SC2SC6 SLP184=
CYYG;2005-10-28 02:41;SPECI CYYG 280241Z 34007KT 10SM -SHRA BKN009 OVC015 06/ RMK SF5SC3=
CYYG;2005-10-28 03:00;METAR CYYG 280300Z 34005KT 5SM -SHRA BR FEW007 BKN013 OVC026 06/05 A3009 RMK SF2SC4SC2 SLP190=
CYYG;2005-10-28 04:00;METAR CYYG 280400Z 32003KT 10SM -SHRA FEW007 BKN023 OVC030 06/05 A3010 RMK SF1SC6SC2 SLP195=
CYYG;2005-10-28 04:29;SPECI CYYG 280429Z 33003KT 15SM BKN016 OVC038 06/ RMK SC5SC3=
CYYG;2005-10-28 04:42;SPECI CYYG 280442Z 34005KT 10SM -SHRA OVC019 06/ RMK SC8=
CYYG;2005-10-28 05:00;METAR CYYG 280500Z 35003KT 10SM -SHRA OVC019 06/05 A3012 RMK SC8 SLP200=
CYYG;2005-10-28 06:00;METAR CYYG 280600Z 35005KT 10SM -SHRA BKN016 OVC056 06/05 A3014 RMK SC6SC2 SLP207=
CYYG;2005-10-28 07:00;METAR CYYG 280700Z 30004KT 15SM SCT005 OVC032 05/05 A3014 RMK SF3SC5 SLP210=
CYYG;2005-10-28 08:00;METAR CYYG 280800Z 29005KT 15SM -DZ FEW016 BKN021 05/04 A3016 RMK SC2SC4 SLP215=
CYYG;2005-10-28 08:18;SPECI CYYG 280818Z 31002KT 15SM FEW016 BKN044 05/ RMK SC2SC5=
CYYG;2005-10-28 09:00;METAR CYYG 280900Z 27003KT 15SM FEW017 BKN047 05/04 A3018 RMK SC2SC6 SLP221=
CYYG;2005-10-28 10:00;METAR CYYG 281000Z 28005KT 15SM FEW020 BKN060 04/03 A3019 RMK SC2SC3 SLP224=
CYYG;2005-10-28 11:00;METAR CYYG 281100Z 30002KT 15SM FEW020 BKN059 04/03 A3020 RMK SC2SC5 SLP229=
CYYG;2005-10-28 12:00;METAR CYYG 281200Z 28005KT 15SM FEW030 BKN060 05/04 A3022 RMK SC2SC5 SLP236=
CYYG;2005-10-28 13:00;METAR CYYG 281300Z 28006KT 15SM FEW030 OVC058 05/05 A3023 RMK SC2SC6 SLP239=
CYYG;2005-10-28 14:00;METAR CYYG 281400Z 31005KT 15SM FEW030 OVC059 07/05 A3024 RMK SC2SC6 SLP241=
CYYG;2005-10-28 15:00;METAR CYYG 281500Z 28007KT 15SM SCT018 OVC058 07/04 A3024 RMK SC3SC5 SLP241=
CYYG;2005-10-28 16:00;METAR CYYG 281600Z 29009KT 15SM BKN024 BKN060 07/02 A3022 RMK SC6SC2 SLP236=
CYYG;2005-10-28 17:00;METAR CYYG 281700Z 29009KT 15SM SCT024 BKN070 08/02 A3022 RMK SC3AC2 SLP234=
CYYG;2005-10-28 18:00;METAR CYYG 281800Z 27010KT 15SM SCT028 BKN070 07/01 A3021 RMK SC3AC2 SLP231=
CYYG;2005-10-28 19:00;METAR CYYG 281900Z 27008KT 15SM BKN042 BKN070 06/01 A3021 RMK SC6AC2 SLP231=
CYYG;2005-10-28 20:00;METAR CYYG 282000Z 26009KT 15SM SCT045 SCT070 06/M01 A3021 RMK SC3AC1 SLP231=
CYYG;2005-10-28 21:00;METAR CYYG 282100Z 26007KT 15SM BKN038 06/M00 A3022 RMK SC7 SLP235=
CYYG;2005-10-28 22:00;METAR CYYG 282200Z 26005KT 15SM BKN038 04/M00 A3022 RMK SC3 SLP235=
CYYG;2005-10-28 23:00;METAR CYYG 282300Z 27004KT 15SM BKN028 05/01 A3022 RMK SC6 SLP236=
CYYG;2005-10-29 00:00;METAR CYYG 290000Z 25004KT 15SM OVC025 05/01 A3023 RMK SC8 SLP238=
CYYG;2005-10-29 01:00;METAR CYYG 290100Z 27003KT 15SM OVC026 05/01 A3022 RMK SC8 SLP235=
CYYG;2005-10-29 02:00;METAR CYYG 290200Z 27005KT 15SM FEW026 04/00 A3022 RMK SC1 SLP235=
CYYG;2005-10-29 03:00;METAR CYYG 290300Z 25007KT 15SM SKC 03/00 A3021 RMK SLP231=
CYYG;2005-10-29 04:00;METAR CYYG 290400Z 25006KT 15SM SKC 03/00 A3021 RMK SLP233=
CYYG;2005-10-29 06:00;METAR CYYG 290600Z 26004KT 15SM FEW025 02/00 A3019 RMK SC2 SLP225=
CYYG;2005-10-29 07:00;METAR CYYG 290700Z 25004KT 15SM BKN019 03/01 A3019 RMK SC5 SLP225=
CYYG;2005-10-29 09:00;METAR CYYG 290900Z 25005KT 15SM BKN017 02/01 A3018 RMK SC6 SLP223=
CYYG;2005-10-29 10:00;METAR CYYG 291000Z 28003KT 15SM SCT019 02/00 A3016 RMK SC4 SLP215=
CYYG;2005-10-29 11:00;METAR CYYG 291100Z 18002KT 15SM FEW019 00/M01 A3016 RMK SC2 SLP214=
CYYG;2005-10-29 12:00;METAR CYYG 291200Z 21005KT 12SM FEW020 SCT200 02/00 A3015 RMK SC2CI0=
CYYG;2005-10-29 13:00;METAR CYYG 291300Z 25006KT 15SM FEW020 SCT200 04/01 A3013 RMK SC1CI1 SLP204=
CYYG;2005-10-29 14:00;METAR CYYG 291400Z 22006KT 15SM FEW015 BKN200 05/01 A3013 RMK SC1CI2 SLP204=
CYYG;2005-10-29 15:00;METAR CYYG 291500Z 23007KT 15SM FEW015 BKN200 05/00 A3011 RMK SC1CS3 SLP199=
CYYG;2005-10-29 16:00;METAR CYYG 291600Z 27006KT 15SM BKN240 05/01 A3008 RMK CS6 SLP187=
CYYG;2005-10-29 17:00;METAR CYYG 291700Z 27005KT 15SM BKN240 06/01 A3004 RMK CS6 SLP175=
CYYG;2005-10-29 18:00;METAR CYYG 291800Z 25004KT 15SM BKN240 06/01 A3003 RMK CS6 SLP170=
CYYG;2005-10-29 19:00;METAR CYYG 291900Z 33002KT 15SM FEW120 BKN240 06/01 A2999 RMK AC2CI3 SLP159=
CYYG;2005-10-29 20:00;METAR CYYG 292000Z 00000KT 15SM FEW120 BKN220 07/01 A2998 RMK AC2CI2 SLP155=
CYYG;2005-10-29 21:00;METAR CYYG 292100Z 18003KT 15SM FEW120 FEW220 05/01 A2998 RMK AC1CI1 SLP153=
CYYG;2005-10-29 22:00;METAR CYYG 292200Z 14002KT 15SM FEW120 FEW220 03/01 A2995 RMK AC1CI2 SLP145=
CYYG;2005-10-29 23:00;METAR CYYG 292300Z 00000KT 15SM FEW220 00/00 A2993 RMK CI2 SLP137=
CYYG;2005-10-30 00:00;METAR CYYG 300000Z 00000KT 15SM FEW120 SCT220 00/M01 A2991 RMK AC2CI2 SLP130=
CYYG;2005-10-30 01:00;METAR CYYG 300100Z 35004KT 15SM SCT120 01/M00 A2988 RMK AC3 SLP122=
CYYG;2005-10-30 02:00;METAR CYYG 300200Z 04002KT 15SM SCT120 01/M00 A2987 RMK AC3 SLP118=
CYYG;2005-10-30 03:00;METAR CYYG 300300Z 00000KT 15SM FEW120 M01/M01 A2985 RMK AC2 SLP112=
CYYG;2005-10-30 04:00;METAR CYYG 300400Z 01002KT 15SM FEW120 SCT220 01/00 A2984 RMK AC2CI1 SLP108=
CYYG;2005-10-30 05:00;METAR CYYG 300500Z 36003KT 15SM FEW120 SCT220 01/00 A2982 RMK AC2CI1 SLP099=
CYYG;2005-10-30 06:00;METAR CYYG 300600Z 35006KT 15SM FEW120 FEW220 02/01 A2977 RMK AC2CI1 SLP083=
CYYG;2005-10-30 07:00;METAR CYYG 300700Z 16002KT 15SM FEW120 FEW220 02/01 A2978 RMK AC1CI1 SLP087=
CYYG;2005-10-30 09:00;METAR CYYG 300900Z 35005KT 15SM FEW012 FEW220 01/01 A2974 RMK SC2CI1 SLP074=
CYYG;2005-10-30 10:00;METAR CYYG 301000Z 00000KT 15SM FEW012 FEW220 01/01 A2975 RMK SC1CI1 SLP076=
CYYG;2005-10-30 11:00;METAR CYYG 301100Z 04002KT 14SM MIFG FEW020 FEW090 SCT260 M01/M01 A2976 RMK SC1AC1CI1 SLP078=
CYYG;2005-10-30 12:00;METAR CYYG 301200Z 36002KT 15SM MIFG FEW020 FEW090 SCT260 M00/M01 A2977 RMK SC1AC1CI1 FROIN SLP083=
CYYG;2005-10-30 13:00;METAR CYYG 301300Z 34002KT 15SM FEW015 FEW090 FEW260 05/04 A2976 RMK SC1AC1CI1 SLP080=
CYYG;2005-10-30 14:00;METAR CYYG 301400Z 36009KT 15SM FEW012 FEW090 FEW260 07/05 A2974 RMK SC2AC1CI0 SLP075=
CYYG;2005-10-30 16:00;METAR CYYG 301600Z 03009KT 15SM FEW012 FEW090 FEW260 10/03 A2972 RMK SC1AC1CI1 SLP065=
CYYG;2005-10-30 17:00;METAR CYYG 301700Z 02008KT 15SM FEW012 FEW260 10/03 A2971 RMK SC1CI1 SLP063=
CYYG;2005-10-30 18:00;METAR CYYG 301800Z 02009KT 15SM FEW015 FEW260 10/04 A2971 RMK SC1CI1 SLP062=
CYYG;2005-10-30 19:00;METAR CYYG 301900Z 33006KT 15SM FEW015 FEW260 09/04 A2972 RMK SC1CI1 SLP067=
CYYG;2005-10-30 20:00;METAR CYYG 302000Z 35005KT 15SM FEW015 FEW260 09/03 A2973 RMK SC1CI1 SLP069=
CYYG;2005-10-30 21:00;METAR CYYG 302100Z 32002KT 15SM FEW015 FEW260 07/04 A2974 RMK SC1CI1 SLP074=
CYYG;2005-10-30 22:00;METAR CYYG 302200Z 31003KT 15SM FEW260 06/04 A2975 RMK CI1 SLP076=
CYYG;2005-10-30 23:00;METAR CYYG 302300Z 26003KT 15SM FEW260 05/04 A2976 RMK CI1 SLP079=
CYYG;2005-10-31 00:00;METAR CYYG 310000Z 26002KT 15SM FEW070 FEW260 05/03 A2977 RMK AC1CI1 SLP081=
CYYG;2005-10-31 01:00;METAR CYYG 310100Z 26007KT 15SM FEW060 FEW160 07/03 A2977 RMK SC2CI1 SLP082=
CYYG;2005-10-31 02:00;METAR CYYG 310200Z 27007KT 15SM FEW060 07/03 A2978 RMK SC2 SLP085=
CYYG;2005-10-31 03:00;METAR CYYG 310300Z 29008KT 15SM FEW060 08/04 A2978 RMK SC2 SLP085=
CYYG;2005-10-31 04:00;METAR CYYG 310400Z 30009KT 15SM SCT053 09/05 A2977 RMK SC3 SLP084=
CYYG;2005-10-31 05:00;METAR CYYG 310500Z 31010KT 15SM SCT050 SCT080 09/05 A2979 RMK SC3AC1 SLP090=
CYYG;2005-10-31 06:00;METAR CYYG 310600Z 33007KT 15SM SCT050 BKN080 09/06 A2982 RMK SC3AC2 SLP098=
CYYG;2005-10-31 07:00;METAR CYYG 310700Z 29005KT 15SM FEW046 SCT080 08/06 A2983 RMK SC2AC2 SLP102=
CYYG;2005-10-31 08:00;METAR CYYG 310800Z 27005KT 15SM SCT048 BKN080 08/06 A2986 RMK SC3AC2 SLP112=
CYYG;2005-10-31 09:00;METAR CYYG 310900Z 28005KT 15SM BKN048 BKN080 08/06 A2988 RMK SC5AC1 SLP119=
CYYG;2005-10-31 10:00;METAR CYYG 311000Z 27005KT 15SM BKN044 08/06 A2989 RMK SC6 SLP122=
CYYG;2005-10-31 11:00;METAR CYYG 311100Z 27005KT 15SM BKN044 BKN080 08/06 A2990 RMK SC7AC1 SLP127=
CYYG;2005-10-31 12:00;METAR CYYG 311200Z 27004KT 15SM SCT045 SCT080 SCT230 08/06 A2993 RMK SC3AC1CI1 SLP135=
CYYG;2005-10-31 13:00;METAR CYYG 311300Z 27005KT 15SM FEW015 BKN045 10/06 A2994 RMK SF1SC5 SLP139=
CYYG;2005-10-31 14:00;METAR CYYG 311400Z 27009KT 15SM FEW020 BKN040 11/06 A2995 RMK CU2SC6 SLP144=
CYYG;2005-10-31 15:00;METAR CYYG 311500Z 28004KT 15SM BKN025 11/06 A2995 RMK SC7 SLP143=
CYYG;2005-10-31 16:00;METAR CYYG 311600Z 28006KT 15SM BKN025 OVC040 11/07 A2995 RMK SC7SC1 SLP142=
CYYG;2005-10-31 17:00;METAR CYYG 311700Z 27003KT 15SM BKN022 OVC040 11/07 A2994 RMK SC6SC2 SLP139=
CYYG;2005-10-31 18:00;METAR CYYG 311800Z 25008KT 15SM FEW022 BKN040 11/07 A2994 RMK SC2SC5 SLP140=
CYYG;2005-10-31 19:00;METAR CYYG 311900Z 25006KT 15SM FEW022 FEW040 BKN100 12/07 A2994 RMK SC1SC2AC5 SLP141=
CYYG;2005-10-31 20:00;METAR CYYG 312000Z 25005KT 15SM FEW025 BKN058 BKN100 11/07 A2995 RMK SC1SC5AC2 HAZY SLP144=
CYYG;2005-10-31 21:00;METAR CYYG 312100Z 27003KT 15SM BKN045 OVC055 11/07 A2995 RMK SC5SC3=
CYYG;2005-10-31 22:00;METAR CYYG 312200Z 00000KT 15SM BKN056 OVC070 11/07 A2995 RMK SC6AC2 SLP143=
CYYG;2005-10-31 23:00;METAR CYYG 312300Z 21004KT 15SM OVC053 11/08 A2994 RMK SC8 SLP140=
CYYG;2005-11-01 00:00;METAR CYYG 010000Z 21004KT 15SM OVC057 10/09 A2994 RMK SC8 SLP139=
CYYG;2005-11-01 03:00;METAR CYYG 010300Z 23006KT 15SM FEW055 OVC100 10/08 A2992 RMK SC2AC6 SLP134=
CYYG;2005-11-01 04:00;METAR CYYG 010400Z 23006KT 15SM OVC110 10/08 A2991 RMK AC8 SLP131=
CYYG;2005-11-01 05:00;METAR CYYG 010500Z 25005KT 15SM OVC120 10/08 A2991 RMK AC8 SLP129=
CYYG;2005-11-01 06:00;METAR CYYG 010600Z 25008KT 15SM OVC100 10/08 A2991 RMK AC8 SLP130=
CYYG;2005-11-01 07:00;METAR CYYG 010700Z 24005KT 15SM BKN130 10/08 A2990 RMK AC6 SLP126=
CYYG;2005-11-01 08:00;METAR CYYG 010800Z 25005KT 15SM BKN130 09/08 A2991 RMK AC6 SLP130=
CYYG;2005-11-01 09:00;METAR CYYG 010900Z 26006KT 15SM BKN110 09/08 A2992 RMK AC6 SLP133=
CYYG;2005-11-01 10:00;METAR CYYG 011000Z 28005KT 15SM BKN110 09/06 A2990 RMK AC5 SLP127=
CYYG;2005-11-01 11:00;METAR CYYG 011100Z 25007KT 15SM FEW100 FEW300 09/06 A2993 RMK AC1CI0 SLP136=
CYYG;2005-11-01 12:00;METAR CYYG 011200Z 25006KT 15SM FEW100 FEW300 09/07 A2995 RMK AC2CI0 SLP144=
CYYG;2005-11-01 13:00;METAR CYYG 011300Z 25007KT 15SM FEW100 FEW300 11/08 A2997 RMK AC1CI1=
CYYG;2005-11-01 14:00;METAR CYYG 011400Z 26009KT 15SM SCT300 13/07 A2996 RMK CI1 SLP148=
CYYG;2005-11-01 15:00;METAR CYYG 011500Z 27011KT 15SM SCT300 14/07 A2997 RMK CI1 SLP151=
CYYG;2005-11-01 18:00;METAR CYYG 011800Z 24009G18KT 15SM BKN300 15/08 A2992 RMK CI2 SLP133=
CYYG;2005-11-01 19:00;METAR CYYG 011900Z 25012KT 15SM BKN300 15/08 A2992 RMK CI2 SLP133=
CYYG;2005-11-01 20:00;METAR CYYG 012000Z 23008KT 15SM BKN300 14/08 A2990 RMK CI2 SLP126=
CYYG;2005-11-01 21:00;METAR CYYG 012100Z 21004KT 15SM BKN300 12/07 A2990 RMK CI2 SLP126=
CYYG;2005-11-01 22:00;METAR CYYG 012200Z 20005KT 15SM BKN300 10/08 A2990 RMK CI2 SLP125=
CYYG;2005-11-01 23:00;METAR CYYG 012300Z 19008KT 15SM SCT300 11/08 A2987 RMK CI2 SLP118=
CYYG;2005-11-02 00:00;METAR CYYG 020000Z 18009KT 15SM FEW300 12/07 A2986 RMK CI2 SLP113=
CYYG;2005-11-02 01:00;METAR CYYG 020100Z 17009KT 15SM FEW300 12/08 A2982 RMK CI1 SLP100=
CYYG;2005-11-02 02:00;METAR CYYG 020200Z 18013KT 15SM FEW300 11/08 A2980 RMK CI1 SLP094=
CYYG;2005-11-02 03:00;METAR CYYG 020300Z 19016KT 15SM FEW300 12/06 A2977 RMK CI1 SLP082=
CYYG;2005-11-02 04:00;METAR CYYG 020400Z 21015G25KT 15SM FEW300 12/05 A2974 RMK CI1 SLP073=
CYYG;2005-11-02 05:00;METAR CYYG 020500Z 20014KT 15SM FEW300 12/05 A2973 RMK CI1 SLP069=
CYYG;2005-11-02 06:00;METAR CYYG 020600Z 20011G16KT 15SM SCT300 11/05 A2973 RMK CI4 SLP068=
CYYG;2005-11-02 07:00;METAR CYYG 020700Z 19014KT 15SM SCT300 11/06 A2969 RMK CI4 SLP056=
CYYG;2005-11-02 08:00;METAR CYYG 020800Z 20015KT 15SM SCT300 11/08 A2967 RMK CI4 SLP047=
CYYG;2005-11-02 09:00;METAR CYYG 020900Z 21010KT 15SM SCT025 BKN100 BKN300 11/08 A2965 RMK SC3AC2CI2 SLP040=
CYYG;2005-11-02 11:00;METAR CYYG 021100Z 22008KT 15SM BKN022 BKN300 11/09 A2961 RMK SC5CI0 SLP028=
CYYG;2005-11-02 12:00;METAR CYYG 021200Z 25007KT 15SM BKN014 BKN018 11/09 A2962 RMK SC5SC2 SLP031=
CYYG;2005-11-02 12:49;SPECI CYYG 021249Z 25009KT 15SM -SHRA FEW013 BKN018 OVC026 11/ RMK SC2SC4SC2=
CYYG;2005-11-02 13:00;METAR CYYG 021300Z 24007KT 15SM -SHRA FEW012 OVC024 11/10 A2961 RMK SF2SC6 SLP029=
CYYG;2005-11-02 13:28;SPECI CYYG 021328Z 27009KT 15SM FEW013 BKN031 OVC042 12/ RMK CU2SC4SC2=
CYYG;2005-11-02 14:00;METAR CYYG 021400Z 28009G15KT 15SM FEW013 OVC033 11/07 A2961 RMK CU1SC7 SLP027=
CYYG;2005-11-02 14:23;SPECI CYYG 021423Z 28014G19KT 15SM -SHRA SCT019 OVC035 10/ RMK SC3SC5=
CYYG;2005-11-02 15:00;METAR CYYG 021500Z 28012G17KT 12SM -SHRA FEW019 OVC035 09/07 A2963 RMK SC2SC6 SLP033=
CYYG;2005-11-02 16:00;METAR CYYG 021600Z 29006KT 15SM -SHRA FEW019 BKN039 OVC069 08/07 A2960 RMK SC2SC3AC3 SLP025=
CYYG;2005-11-02 17:00;METAR CYYG 021700Z 25006KT 15SM -SHRA BKN057 08/06 A2957 RMK SC7 SLP013=
CYYG;2005-11-02 17:19;SPECI CYYG 021719Z 26008KT 15SM BKN059 08/ RMK SC7=
CYYG;2005-11-02 18:00;METAR CYYG 021800Z 26006KT 15SM FEW030 BKN063 09/07 A2955 RMK SC1SC6 SLP007=
CYYG;2005-11-02 19:00;METAR CYYG 021900Z 27009KT 15SM FEW030 FEW063 FEW300 10/07 A2952 RMK SC1SC1CI1 SLP996=
CYYG;2005-11-02 20:00;METAR CYYG 022000Z 27007KT 15SM -SHRA FEW030 BKN063 BKN300 09/06 A2951 RMK CU1SC4CI1 SLP995=
CYYG;2005-11-02 20:24;SPECI CYYG 022024Z 28008KT 15SM VCSH FEW030 SCT077 09/ RMK CU1AC3=
CYYG;2005-11-02 21:00;METAR CYYG 022100Z 29007KT 15SM FEW030 SCT051 BKN077 09/05 A2952 RMK CU1SC2AC2 SLP998=
CYYG;2005-11-02 22:00;METAR CYYG 022200Z 33016G25KT 15SM BKN023 BKN060 08/03 A2955 RMK SC5SC2 SLP006=
CYYG;2005-11-02 23:00;METAR CYYG 022300Z 33011G22KT 15SM BKN033 BKN041 07/01 A2959 RMK SC5SC2 SLP020=
CYYG;2005-11-03 00:00;METAR CYYG 030000Z 31013G21KT 15SM BKN040 06/M01 A2961 RMK SC7 SLP027=
CYYG;2005-11-03 01:00;METAR CYYG 030100Z 31012G18KT 15SM OVC044 06/M02 A2963 RMK SC8 SLP036=
CYYG;2005-11-03 03:00;METAR CYYG 030300Z 32017G27KT 15SM OVC047 05/M04 A2965 RMK SC8 SLP043=
CYYG;2005-11-03 04:00;METAR CYYG 030400Z 29013G22KT 15SM OVC049 05/M03 A2967 RMK SC8 SLP049=
CYYG;2005-11-03 05:00;METAR CYYG 030500Z 29011G17KT 15SM BKN047 04/M04 A2968 RMK SC7 SLP052=
CYYG;2005-11-03 06:00;METAR CYYG 030600Z 29012G19KT 15SM BKN051 04/M04 A2969 RMK SC7 SLP057=
CYYG;2005-11-03 07:00;METAR CYYG 030700Z 09014G21KT 15SM OVC048 04/M04 A2972 RMK SC8 SLP067=
CYYG;2005-11-03 08:00;METAR CYYG 030800Z 28012G18KT 15SM BKN052 04/M04 A2976 RMK SC6 SLP080=
CYYG;2005-11-03 09:00;METAR CYYG 030900Z 28012KT 15SM BKN060 03/M04 A2980 RMK SC5 SLP093=
CYYG;2005-11-03 10:00;METAR CYYG 031000Z 29012KT 15SM SCT060 03/M03 A2983 RMK SC3 SLP103=
CYYG;2005-11-03 11:00;METAR CYYG 031100Z 28009KT 15SM FEW045 02/M03 A2985 RMK SC2 SLP111=
CYYG;2005-11-03 12:00;METAR CYYG 031200Z 28011G18KT 15SM FEW045 03/M02 A2989 RMK SC1 SLP124=
CYYG;2005-11-03 13:00;METAR CYYG 031300Z 29019G25KT 15SM FEW045 SCT300 04/M03 A2990 RMK SC1CI1 SLP127=
CYYG;2005-11-03 14:00;METAR CYYG 031400Z 28016G21KT 15SM FEW040 BKN300 04/M03 A2990 RMK SC1CI4 SLP125=
CYYG;2005-11-03 15:00;METAR CYYG 031500Z 27014G19KT 15SM FEW030 BKN300 05/M02 A2989 RMK CF1CI4 SLP122=
CYYG;2005-11-03 16:00;METAR CYYG 031600Z 27015G20KT 15SM FEW033 BKN300 05/M03 A2987 RMK CF2CI2 SLP118=
CYYG;2005-11-03 17:00;METAR CYYG 031700Z 25014G20KT 15SM FEW033 BKN300 06/M01 A2985 RMK CF2CI2 SLP111=
CYYG;2005-11-03 18:00;METAR CYYG 031800Z 25014KT 15SM FEW035 BKN300 06/M02 A2983 RMK CF1CI5 SLP104=
CYYG;2005-11-03 19:00;METAR CYYG 031900Z 24015G20KT 15SM FEW035 OVC300 06/M02 A2982 RMK CF1CI7 SLP100=
CYYG;2005-11-03 20:00;METAR CYYG 032000Z 23013G18KT 15SM FEW050 OVC250 06/M01 A2981 RMK SC2CI6 SLP095=
CYYG;2005-11-03 20:52;SPECI CYYG 032052Z 25011G19KT 15SM -SHRA BKN030 OVC250 05/ RMK SC6CI2=
CYYG;2005-11-03 21:00;METAR CYYG 032100Z 24010G16KT 15SM -SHRA BKN028 OVC250 05/01 A2979 RMK SC6CI2 SLP088=
CYYG;2005-11-03 22:00;METAR CYYG 032200Z 22011G17KT 12SM -SHRA BKN026 OVC040 05/02 A2974 RMK SC6SC2 SLP074=
CYYG;2005-11-04 00:00;METAR CYYG 040000Z 18007KT 15SM -SHRA BKN026 OVC038 05/03 A2968 RMK SC6SC2 PRESFR SLP051=
CYYG;2005-11-04 01:00;METAR CYYG 040100Z 21010KT 15SM -SHRA OVC017 06/04 A2965 RMK SC8 SLP041=
CYYG;2005-11-04 02:00;METAR CYYG 040200Z 25007G15KT 15SM -SHRA OVC010 07/06 A2962 RMK SC8 SLP032=
CYYG;2005-11-04 03:00;METAR CYYG 040300Z 28018G24KT 15SM -SHRA SCT010 OVC037 08/06 A2961 RMK SC4SC4 SLP030=
CYYG;2005-11-04 04:00;METAR CYYG 040400Z 29015G22KT 15SM FEW015 BKN022 OVC030 07/04 A2964 RMK SC2SC3SC3 SLP040=
CYYG;2005-11-04 05:00;METAR CYYG 040500Z 29013KT 15SM OVC027 05/03 A2970 RMK SC8 SLP058=
CYYG;2005-11-04 06:00;METAR CYYG 040600Z 32012G18KT 15SM SCT016 BKN024 04/03 A2976 RMK SC3SC4 PRESRR SLP079=
CYYG;2005-11-04 07:00;METAR CYYG 040700Z 30008KT 15SM -SHRA SCT018 OVC035 04/02 A2981 RMK SC3SC5 SLP095=
CYYG;2005-11-04 08:00;METAR CYYG 040800Z 29007G15KT 15SM -SHRA FEW012 OVC028 04/02 A2986 RMK SC2SC6 SLP113=
CYYG;2005-11-04 09:00;METAR CYYG 040900Z 26006KT 15SM -SHRA BKN020 OVC036 04/02 A2990 RMK SC6SC2 SLP128=
CYYG;2005-11-04 10:00;METAR CYYG 041000Z 26006KT 15SM -SHRA SCT010 OVC040 03/02 A2995 RMK SC3SC5 SLP144=
CYYG;2005-11-04 12:00;METAR CYYG 041200Z 30008KT 15SM -SHRA FEW010 SCT017 BKN042 03/02 A3003 RMK SF2SC2SC3 SLP171=
CYYG;2005-11-04 12:52;SPECI CYYG 041252Z 28011KT 12SM -SHRA FEW008 BKN012 BKN042 03/ RMK SF2SC3SC2=
CYYG;2005-11-04 13:00;METAR CYYG 041300Z 29014KT 12SM -SHRA FEW008 BKN012 BKN040 02/01 A3008 RMK SF2SC4SC1 SLP189=
CYYG;2005-11-04 13:40;SPECI CYYG 041340Z 30007KT 15SM -SHRA FEW008 SCT012 BKN033 04/ RMK SF2SC2SC3=
CYYG;2005-11-04 14:00;METAR CYYG 041400Z 32011G17KT 15SM -SHSN FEW008 SCT012 BKN033 04/02 A3010 RMK SF2SC2SC4 SLP194=
CYYG;2005-11-04 14:26;SPECI CYYG 041426Z 33011KT 15SM FEW012 SCT033 BKN300 04/ RMK SC1SC2CI1=
CYYG;2005-11-04 15:00;METAR CYYG 041500Z 33011G16KT 15SM FEW012 SCT033 BKN300 05/01 A3012 RMK SC1SC2CI1 SLP201=
CYYG;2005-11-04 16:00;METAR CYYG 041600Z 36010G15KT 15SM FEW020 BKN037 BKN300 04/M00 A3013 RMK SC2SC4CI1 SLP204=
CYYG;2005-11-04 17:00;METAR CYYG 041700Z 35007KT 15SM FEW020 BKN035 BKN300 04/M02 A3014 RMK SC1SC6CI1 SLP209=
CYYG;2005-11-04 18:00;METAR CYYG 041800Z 34009KT 15SM BKN034 OVC300 04/M02 A3018 RMK SC6CI2 SLP222=
CYYG;2005-11-04 19:00;METAR CYYG 041900Z 36007KT 15SM FEW038 BKN300 03/M03 A3019 RMK SC2CI2 SLP226=
CYYG;2005-11-04 20:00;METAR CYYG 042000Z 02005KT 15SM FEW038 FEW170 BKN300 02/M03 A3021 RMK SC1AC1CI2 SLP232=
CYYG;2005-11-04 21:00;METAR CYYG 042100Z 04002KT 15SM FEW038 FEW100 BKN300 01/M03 A3022 RMK SC1AC2CI2 SLP235=
CYYG;2005-11-04 22:00;METAR CYYG 042200Z 00000KT 15SM FEW038 FEW100 BKN300 01/M02 A3024 RMK SC1AC2CI2 SLP241=
CYYG;2005-11-04 23:00;METAR CYYG 042300Z 09002KT 15SM BKN075 OVC300 01/M03 A3023 RMK AC6CI2 SLP239=
CYYG;2005-11-05 00:00;METAR CYYG 050000Z 14003KT 15SM OVC095 01/M02 A3023 RMK AC8 SLP240=
CYYG;2005-11-05 01:00;METAR CYYG 050100Z 15005KT 15SM OVC090 02/M03 A3024 RMK AC8 VIRGA SLP242=
CYYG;2005-11-05 02:00;METAR CYYG 050200Z 13004KT 15SM OVC050 02/M03 A3023 RMK SC8 VIRGA SLP239=
CYYG;2005-11-05 02:07;SPECI CYYG 050207Z 14006KT 15SM -SHSN OVC050 02/ RMK SC8=
CYYG;2005-11-05 03:00;METAR CYYG 050300Z 08006KT 15SM FEW045 OVC070 02/M02 A3021 RMK SC2AC6 SLP232=
CYYG;2005-11-05 04:00;METAR CYYG 050400Z 09007KT 15SM OVC060 02/M01 A3018 RMK SC8 SLP221=
CYYG;2005-11-05 05:00;METAR CYYG 050500Z 09005KT 15SM BKN031 OVC058 02/M00 A3017 RMK SC5SC3 SLP219=
CYYG;2005-11-05 06:00;METAR CYYG 050600Z 10008KT 15SM OVC025 03/00 A3015 RMK SC8 SLP213=
CYYG;2005-11-05 07:00;METAR CYYG 050700Z 07007KT 15SM OVC022 03/01 A3014 RMK SC8 SLP207=
CYYG;2005-11-05 07:36;SPECI CYYG 050736Z 08009KT 10SM -SHSN OVC022 03/ RMK SC8=
CYYG;2005-11-05 08:00;METAR CYYG 050800Z 10007KT 6SM -SHSN OVC021 03/01 A3011 RMK SC8 SLP197=
CYYG;2005-11-05 09:00;METAR CYYG 050900Z 11009KT 6SM -SHRA BR OVC018 04/03 A3006 RMK SC8 SLP183=
CYYG;2005-11-05 10:00;METAR CYYG 051000Z 12011KT 8SM -SHRA SCT005 OVC014 04/04 A3004 RMK SF3SC5 SLP173=
CYYG;2005-11-05 11:00;METAR CYYG 051100Z 12009KT 15SM -SHRA BKN008 OVC013 05/04 A3001 RMK SF5SC3 SLP163=
CYYG;2005-11-05 11:25;SPECI CYYG 051125Z 12010KT 15SM SCT008 OVC014 05/ RMK SF4SC4=
CYYG;2005-11-05 12:00;METAR CYYG 051200Z 13006KT 15SM SCT008 OVC014 06/05 A3002 RMK SF3SC5 SLP169=
CYYG;2005-11-05 13:00;METAR CYYG 051300Z 14006KT 15SM SCT008 OVC014 07/06 A3001 RMK SF3SC5 SLP163=
CYYG;2005-11-05 14:00;METAR CYYG 051400Z 15005KT 15SM OVC013 08/07 A3001 RMK SC8 SLP165=
CYYG;2005-11-05 15:00;METAR CYYG 051500Z 18003KT 15SM OVC014 08/07 A3001 RMK SC8 SLP163=
CYYG;2005-11-05 16:00;METAR CYYG 051600Z 25004KT 15SM VCSH OVC014 10/08 A3000 RMK SC8 SLP159=
CYYG;2005-11-05 17:00;METAR CYYG 051700Z 28005KT 15SM OVC015 10/08 A3001 RMK SC8 SLP162=
CYYG;2005-11-05 18:00;METAR CYYG 051800Z 31006KT 15SM OVC016 10/07 A3001 RMK SC8 SLP165=
CYYG;2005-11-05 19:00;METAR CYYG 051900Z 29005KT 15SM OVC020 10/07 A3004 RMK SC8 SLP172=
CYYG;2005-11-05 20:00;METAR CYYG 052000Z 24005KT 15SM OVC021 10/07 A3005 RMK SC8 SLP177=
CYYG;2005-11-05 21:00;METAR CYYG 052100Z 27003KT 15SM OVC020 09/07 A3006 RMK SC8 SLP182=
CYYG;2005-11-05 22:00;METAR CYYG 052200Z 00000KT 15SM OVC018 09/07 A3008 RMK SC8 SLP186=
CYYG;2005-11-05 22:44;SPECI CYYG 052244Z 33003KT 15SM BKN013 OVC018 08/ RMK SC6SC2=
CYYG;2005-11-05 23:00;METAR CYYG 052300Z 31003KT 15SM BKN013 OVC021 08/06 A3010 RMK SC5SC3 SLP194=
CYYG;2005-11-06 00:00;METAR CYYG 060000Z 00000KT 15SM FEW013 SCT017 OVC021 08/06 A3009 RMK SC2SC2SC5 SLP190=
CYYG;2005-11-06 01:00;METAR CYYG 060100Z 01002KT 15SM BKN016 OVC140 07/06 A3010 RMK SC5AC3 SLP194=
CYYG;2005-11-06 02:00;METAR CYYG 060200Z 35003KT 15SM OVC017 08/06 A3014 RMK SC8 SLP206=
CYYG;2005-11-06 02:26;SPECI CYYG 060226Z 01003KT 15SM FEW005 OVC016 08/ RMK SF2SC6=
CYYG;2005-11-06 02:47;SPECI CYYG 060247Z 36004KT 15SM BKN007 OVC015 07/ RMK SF5SC3=
CYYG;2005-11-06 03:00;METAR CYYG 060300Z 36003KT 15SM BKN008 OVC015 08/07 A3014 RMK SF6SC2 SLP209=
CYYG;2005-11-06 04:00;METAR CYYG 060400Z 02004KT 15SM OVC011 07/07 A3015 RMK SC8 SLP211=
CYYG;2005-11-06 05:00;METAR CYYG 060500Z 02002KT 15SM OVC009 07/06 A3016 RMK SC8 SLP215=
CYYG;2005-11-06 06:00;METAR CYYG 060600Z 04003KT 15SM OVC006 07/07 A3017 RMK SF8 SLP216=
CYYG;2005-11-06 06:34;SPECI CYYG 060634Z 07005KT 10SM -DZ OVC004 07/ RMK ST8=
CYYG;2005-11-06 07:00;METAR CYYG 060700Z 04007KT 10SM -DZ OVC003 07/07 A3016 RMK ST8 SLP215=
CYYG;2005-11-06 08:00;METAR CYYG 060800Z 05008KT 10SM -DZ OVC004 07/06 A3019 RMK ST8 SLP224=
CYYG;2005-11-06 09:00;METAR CYYG 060900Z 05013KT 5SM -DZ BR OVC004 06/06 A3021 RMK ST8 SLP233=
CYYG;2005-11-06 10:00;METAR CYYG 061000Z 05011KT 5SM -DZ BR OVC004 06/05 A3023 RMK ST8 SLP237=
CYYG;2005-11-06 11:00;METAR CYYG 061100Z 06010KT 6SM -DZ BR OVC005 06/05 A3026 RMK ST8 SLP250=
CYYG;2005-11-06 12:00;METAR CYYG 061200Z 07011G17KT 6SM -DZ BR OVC006 05/05 A3030 RMK ST8 SLP261=
CYYG;2005-11-06 13:00;METAR CYYG 061300Z 07011KT 15SM OVC009 05/04 A3030 RMK SC8 SLP261=
CYYG;2005-11-06 14:00;METAR CYYG 061400Z 06008KT 15SM OVC010 06/05 A3032 RMK SC8 SLP269=
CYYG;2005-11-06 15:00;METAR CYYG 061500Z 05013G21KT 15SM OVC011 06/04 A3031 RMK SC8 SLP267=
CYYG;2005-11-06 16:00;METAR CYYG 061600Z 06014KT 15SM OVC013 06/04 A3032 RMK SC8 SLP269=
CYYG;2005-11-06 17:00;METAR CYYG 061700Z 06012KT 15SM OVC014 07/04 A3031 RMK SC8 SLP264=
CYYG;2005-11-06 18:00;METAR CYYG 061800Z 05011G16KT 15SM OVC015 07/04 A3031 RMK SC8 SLP265=
CYYG;2005-11-06 19:00;METAR CYYG 061900Z 06010KT 15SM OVC016 06/03 A3032 RMK SC8 SLP269=
CYYG;2005-11-06 20:00;METAR CYYG 062000Z 06010G16KT 15SM OVC014 06/03 A3033 RMK SC8 SLP271=
CYYG;2005-11-06 21:00;METAR CYYG 062100Z 08014KT 15SM OVC014 06/03 A3031 RMK SC8 SLP264=
CYYG;2005-11-06 22:00;METAR CYYG 062200Z 08013KT 15SM OVC012 05/03 A3030 RMK SC8 SLP261=
CYYG;2005-11-06 23:00;METAR CYYG 062300Z 09011KT 15SM OVC011 05/03 A3027 RMK SC8 SLP253=
CYYG;2005-11-07 00:00;METAR CYYG 070000Z 10007KT 15SM BKN011 OVC026 06/04 A3026 RMK SC6SC2 SLP248=
CYYG;2005-11-07 01:00;METAR CYYG 070100Z 13008KT 15SM BKN011 BKN024 OVC032 07/05 A3025 RMK SC5SC2SC2 SLP246=
CYYG;2005-11-07 01:23;SPECI CYYG 070123Z 13011KT 15SM OVC008 07/ RMK SF8=
CYYG;2005-11-07 02:00;METAR CYYG 070200Z 12011G16KT 15SM OVC009 07/06 A3023 RMK SC8 SLP238=
CYYG;2005-11-07 03:00;METAR CYYG 070300Z 12012G18KT 15SM BKN009 OVC023 08/06 A3016 RMK SC6SC2 PRESFR SLP215=
CYYG;2005-11-07 04:00;METAR CYYG 070400Z 14013KT 15SM SCT008 OVC020 08/06 A3015 RMK SC3SC5 SLP212=
CYYG;2005-11-07 05:00;METAR CYYG 070500Z 14015KT 15SM OVC012 08/07 A3009 RMK SC8 PRESFR SLP192=
CYYG;2005-11-07 06:00;METAR CYYG 070600Z 14013KT 15SM OVC009 09/06 A3006 RMK SC8 SLP182=
CYYG;2005-11-07 07:00;METAR CYYG 070700Z 15019KT 15SM OVC007 09/08 A3002 RMK SF8 SLP167=
CYYG;2005-11-07 08:00;METAR CYYG 070800Z 15019G25KT 15SM OVC007 09/08 A2998 RMK SF8 SLP152=
CYYG;2005-11-07 08:32;SPECI CYYG 070832Z 15015G20KT 15SM OVC005 10/ RMK SF8=
CYYG;2005-11-07 08:48;SPECI CYYG 070848Z 15013G20KT 10SM -SHRA OVC005 10/ RMK SF8=
CYYG;2005-11-07 09:00;METAR CYYG 070900Z 15012G20KT 10SM -SHRA OVC005 10/09 A2993 RMK SF8 SLP138=
CYYG;2005-11-07 10:00;METAR CYYG 071000Z 15016G22KT 15SM OVC005 10/09 A2987 RERA RMK SF8 PRESFR SLP116=
CYYG;2005-11-07 10:03;SPECI CYYG 071003Z 15015G20KT 15SM OVC004 10/ RMK SF8=
CYYG;2005-11-07 10:47;SPECI CYYG 071047Z 16018G25KT 10SM SHRA OVC004 11/ RMK SF8=
CYYG;2005-11-07 11:00;METAR CYYG 071100Z 16023G31KT 10SM -SHRA OVC004 11/10 A2982 RMK SF8 RERA SLP100=
CYYG;2005-11-07 11:43;SPECI CYYG 071143Z 16021G30KT 15SM SCT004 OVC013 11/ RMK SF4SC4=
CYYG;2005-11-07 12:00;METAR CYYG 071200Z 16018G26KT 12SM -SHRA SCT004 OVC015 11/10 A2978 RMK SF3SC5 SLP087=
CYYG;2005-11-07 12:39;SPECI CYYG 071239Z 16016KT 10SM SHRA BKN007 OVC013 12/ RMK SF6SC2=
CYYG;2005-11-07 13:00;METAR CYYG 071300Z 16018G26KT 10SM -SHRA BKN006 OVC013 12/12 A2973 RMK SF6SC2 RERA SLP069=
CYYG;2005-11-07 14:00;METAR CYYG 071400Z 18017G22KT 12SM -SHRA SCT005 BKN050 BKN250 14/13 A2970 RMK SF3SC2CI1 SLP060=
CYYG;2005-11-07 15:00;METAR CYYG 071500Z 22009KT 15SM -SHRA FEW005 SCT013 BKN042 BKN250 14/13 A2969 RMK SF2SC2SC2CI2 SLP056=
CYYG;2005-11-07 15:35;SPECI CYYG 071535Z 22011G18KT 15SM FEW005 FEW015 BKN040 BKN250 14/ RMK SF1SC2SC3CI2=
CYYG;2005-11-07 16:00;METAR CYYG 071600Z 22011G16KT 15SM SCT022 BKN035 BKN250 14/11 A2966 RMK SC4SC2CI1 SLP045=
CYYG;2005-11-07 17:00;METAR CYYG 071700Z 24018G26KT 15SM SCT022 BKN040 BKN250 14/09 A2964 RMK SC3SC2CI1 SLP037=
CYYG;2005-11-07 18:00;METAR CYYG 071800Z 23015G24KT 15SM FEW025 BKN250 14/09 A2962 RMK CU1CI2 SLP031=
CYYG;2005-11-07 19:00;METAR CYYG 071900Z 22016G21KT 15SM FEW025 BKN250 13/09 A2962 RMK CU1CI2 SLP030=
CYYG;2005-11-07 20:00;METAR CYYG 072000Z 22011G17KT 15SM FEW025 BKN200 12/08 A2959 RMK SC2CI5 SLP022=
CYYG;2005-11-07 21:00;METAR CYYG 072100Z 24015KT 15SM BKN019 BKN200 11/08 A2961 RMK SC5CI2 SLP027=
CYYG;2005-11-07 21:11;SPECI CYYG 072111Z 25012G18KT 15SM -SHRA BKN019 BKN050 BKN200 11/ RMK SC5SC2CI1=
CYYG;2005-11-07 21:24;SPECI CYYG 072124Z 25010G20KT 15SM SCT019 BKN050 BKN200 11/ RMK SC3SC2CI1=
CYYG;2005-11-07 22:00;METAR CYYG 072200Z 25009KT 15SM FEW019 SCT050 BKN200 10/07 A2960 RMK SC2SC2CI1 SLP024=
CYYG;2005-11-07 23:00;METAR CYYG 072300Z 26010KT 15SM FEW047 SCT073 10/06 A2960 RMK SC2AC2 SLP023=
CYYG;2005-11-08 00:00;METAR CYYG 080000Z 28015G21KT 15SM FEW023 BKN042 BKN085 09/02 A2960 RMK SC2SC3AC1 SLP025=
CYYG;2005-11-08 01:00;METAR CYYG 080100Z 28019G25KT 15SM FEW057 SCT076 07/M02 A2961 RMK SC2AC2 SLP028=
CYYG;2005-11-08 02:00;METAR CYYG 080200Z 28014G24KT 15SM BKN051 07/M02 A2961 RMK SC6 SLP029=
CYYG;2005-11-08 02:39;SPECI CYYG 080239Z 29016G32KT 15SM -SHRA BKN037 BKN058 04/ RMK SC5SC2=
CYYG;2005-11-08 03:00;METAR CYYG 080300Z 28015G22KT 15SM FEW037 BKN063 04/M02 A2962 RMK SC2SC4 SLP032=
CYYG;2005-11-08 03:07;SPECI CYYG 080307Z 27017G29KT 10SM -SHRA BKN041 04/ RMK SC6=
CYYG;2005-11-08 04:00;METAR CYYG 080400Z 27015G21KT 15SM SCT041 OVC190 05/03 A2963 RMK SC3AC5 SLP034=
CYYG;2005-11-08 06:00;METAR CYYG 080600Z 27016G26KT 15SM BKN048 OVC060 05/M04 A2961 RMK SC6SC2 SLP028=
CYYG;2005-11-08 07:00;METAR CYYG 080700Z 26017G27KT 15SM OVC052 05/M04 A2962 RMK SC8 SLP030=
CYYG;2005-11-08 08:00;METAR CYYG 080800Z 25018G24KT 15SM BKN043 05/M04 A2961 RMK SC6 SLP029=
CYYG;2005-11-08 09:00;METAR CYYG 080900Z 26013G22KT 15SM BKN041 04/M04 A2961 RMK SC7 SLP029=
CYYG;2005-11-08 10:00;METAR CYYG 081000Z 26016G26KT 15SM BKN038 03/M04 A2961 RMK SC7 SLP029=
CYYG;2005-11-08 11:00;METAR CYYG 081100Z 27018G29KT 15SM BKN038 03/M04 A2962 RMK SC7 SLP032=
CYYG;2005-11-08 12:00;METAR CYYG 081200Z 26021G29KT 15SM BKN035 03/M04 A2964 RMK SC7 SLP038=
CYYG;2005-11-08 13:00;METAR CYYG 081300Z 27018G29KT 15SM BKN035 03/M04 A2964 RMK SC5 SLP040=
CYYG;2005-11-08 14:00;METAR CYYG 081400Z 27021G30KT 15SM SCT038 03/M05 A2965 RMK SC3 SLP043=
CYYG;2005-11-08 15:00;METAR CYYG 081500Z 28013G33KT 15SM BKN040 04/M04 A2965 RMK SC6 SLP043=
CYYG;2005-11-08 16:00;METAR CYYG 081600Z 27019G32KT 15SM BKN045 BKN300 05/M05 A2965 RMK SC6CI1 SLP042=
CYYG;2005-11-08 17:00;METAR CYYG 081700Z 28019G27KT 15SM BKN050 05/M05 A2965 RMK SC7 SHS DIST N-NE SLP042=
CYYG;2005-11-08 18:00;METAR CYYG 081800Z 27018G29KT 15SM BKN050 BKN300 05/M06 A2965 RMK SC7CI1 SHS DIST NW-NE SLP043=
CYYG;2005-11-08 19:00;METAR CYYG 081900Z 29018G24KT 15SM BKN055 05/M05 A2968 RMK SC6 SHS DIST NW-NE SLP052=
CYYG;2005-11-08 20:00;METAR CYYG 082000Z 28016G21KT 15SM BKN050 04/M06 A2971 RMK SC7 SHS DIST NW-NE SLP063=
CYYG;2005-11-08 21:00;METAR CYYG 082100Z 28010G18KT 15SM BKN055 04/M05 A2975 RMK SC7 SHS DIST NW-NE SLP075=
CYYG;2005-11-08 22:00;METAR CYYG 082200Z 29012KT 15SM BKN060 04/M06 A2977 RMK SC7 SLP083=
CYYG;2005-11-08 23:00;METAR CYYG 082300Z 28013G20KT 15SM BKN064 04/M06 A2979 RMK SC7 SLP089=
CYYG;2005-11-09 00:00;METAR CYYG 090000Z 28016G22KT 15SM BKN060 03/M06 A2979 RMK SC7 SLP089=
CYYG;2005-11-09 01:00;METAR CYYG 090100Z 28011G20KT 15SM BKN064 03/M05 A2981 RMK SC7 SLP095=
CYYG;2005-11-09 02:00;METAR CYYG 090200Z 29014G19KT 15SM BKN064 03/M05 A2982 RMK SC7 SLP101=
CYYG;2005-11-09 03:00;METAR CYYG 090300Z 29012G19KT 15SM BKN050 02/M04 A2984 RMK SC7 SLP105=
CYYG;2005-11-09 04:00;METAR CYYG 090400Z 30011KT 15SM FEW030 BKN045 02/M04 A2986 RMK SC2SC5 SLP112=
CYYG;2005-11-09 04:13;SPECI CYYG 090413Z 29010G15KT 15SM FEW030 BKN045 02/ RMK SC2SC4=
CYYG;2005-11-09 05:00;METAR CYYG 090500Z 28010KT 15SM FEW030 BKN045 02/M04 A2988 RMK SC2SC4 SLP119=
CYYG;2005-11-09 06:00;METAR CYYG 090600Z 27013G18KT 15SM FEW030 BKN046 02/M04 A2989 RMK SC2SC4 SLP124=
CYYG;2005-11-09 07:00;METAR CYYG 090700Z 28011KT 15SM BKN040 01/M03 A2991 RMK SC6 SLP129=
CYYG;2005-11-09 08:00;METAR CYYG 090800Z 27010G16KT 15SM FEW020 BKN040 BKN068 01/M02 A2992 RMK SC2SC3AC2 SLP133=
CYYG;2005-11-09 09:00;METAR CYYG 090900Z 28012KT 12SM -SHRASN SCT015 OVC040 01/00 A2995 RMK SC3SC5 SLP143=
CYYG;2005-11-09 10:00;METAR CYYG 091000Z 36010G16KT 12SM -SHRA SCT010 OVC040 03/02 A2997 RMK SC3SC5 SLP151=
CYYG;2005-11-09 10:20;SPECI CYYG 091020Z 36010G15KT 15SM SCT010 BKN030 04/ RMK SC3SC4=
CYYG;2005-11-09 10:52;SPECI CYYG 091052Z 01012G19KT 12SM -SHRA SCT013 BKN030 04/ RMK SC3SC4=
CYYG;2005-11-09 11:00;METAR CYYG 091100Z 01013G19KT 12SM -SHRA SCT013 BKN030 BKN066 04/02 A3002 RMK SC3SC3AC1 SLP169=
CYYG;2005-11-09 12:00;METAR CYYG 091200Z 01010KT 15SM -SHRA BKN015 03/02 A3007 RMK SC7 CU ASOCTD SLP186=
CYYG;2005-11-09 13:00;METAR CYYG 091300Z 02010KT 12SM -SHRA BKN015 04/02 A3011 RMK SC7 CU ASOCTD SLP197=
CYYG;2005-11-09 14:00;METAR CYYG 091400Z 01009KT 15SM -SHRA SCT015 03/01 A3013 RMK SC4 SLP204=
CYYG;2005-11-09 14:18;SPECI CYYG 091418Z 01013G18KT 12SM -SHRASN BKN015 04/ RMK SC7 CU ASOCTD=
CYYG;2005-11-09 15:00;METAR CYYG 091500Z 36013G18KT 12SM -SHRASN BKN015 03/01 A3016 RMK SC7 CU ASOCTD SLP214=
CYYG;2005-11-09 15:31;SPECI CYYG 091531Z 36009KT 15SM VCSH FEW015 SCT042 04/ RMK SC2SC1 CU ASOCTD=
CYYG;2005-11-09 16:00;METAR CYYG 091600Z 36008KT 15SM VCSH BKN017 BKN040 05/01 A3018 RMK SC6SC1 CU ASOCTD SLP222=
CYYG;2005-11-09 16:42;SPECI CYYG 091642Z 02009KT 12SM -SHRASN BKN018 04/ RMK SC6 CU ASOCTD=
CYYG;2005-11-09 17:00;METAR CYYG 091700Z 01007KT 15SM -SHRASN BKN016 04/02 A3020 RMK SC6 CU ASOCTD SLP229=
CYYG;2005-11-09 18:00;METAR CYYG 091800Z 02008KT 15SM -SHRA BKN016 BKN040 04/02 A3020 RMK SC6SC1 SLP230=
CYYG;2005-11-09 18:45;SPECI CYYG 091845Z 03013KT 15SM VCSH BKN019 05/ RMK SC6 CU ASOCTD=
CYYG;2005-11-09 19:00;METAR CYYG 091900Z 04011KT 15SM VCSH SCT020 SCT300 04/00 A3020 RMK SC3CI1 CU ASOCTD SLP229=
CYYG;2005-11-09 20:00;METAR CYYG 092000Z 03010KT 15SM VCSH BKN020 03/00 A3021 RMK SC6 CU ASOCTD SLP232=
CYYG;2005-11-09 21:00;METAR CYYG 092100Z 08004KT 15SM VCSH BKN025 03/00 A3021 RMK SC6 SLP233=
CYYG;2005-11-09 22:00;METAR CYYG 092200Z 08004KT 15SM SCT025 02/M01 A3021 RMK SC3 SLP233=
CYYG;2005-11-09 23:00;METAR CYYG 092300Z 11004KT 15SM BKN023 02/M01 A3022 RMK SC5 SLP234=
CYYG;2005-11-10 00:00;METAR CYYG 100000Z 11002KT 15SM SCT025 01/M01 A3022 RMK SC3 SLP235=
CYYG;2005-11-10 01:00;METAR CYYG 100100Z 11003KT 15SM SCT025 00/M01 A3021 RMK SC3 SLP232=
CYYG;2005-11-10 02:00;METAR CYYG 100200Z 10004KT 15SM SCT030 00/M01 A3019 RMK SC4 SLP226=
CYYG;2005-11-10 03:00;METAR CYYG 100300Z 09006KT 15SM SCT030 BKN150 01/M00 A3014 RMK SC3AC2 SLP209=
CYYG;2005-11-10 04:00;METAR CYYG 100400Z 12004KT 15SM BKN025 BKN150 01/00 A3013 RMK SC5AC2 SLP206=
CYYG;2005-11-10 05:00;METAR CYYG 100500Z 14007KT 15SM BKN018 BKN150 03/01 A3009 RMK SC5AC2 SLP191=
CYYG;2005-11-10 06:00;METAR CYYG 100600Z 15011G17KT 15SM SCT020 BKN120 04/02 A3006 RMK SC3AC2 SLP181=
CYYG;2005-11-10 07:00;METAR CYYG 100700Z 14010G16KT 15SM FEW020 SCT035 BKN100 04/02 A3001 RMK SC2SC2AC2 SLP163=
CYYG;2005-11-10 08:00;METAR CYYG 100800Z 14013G19KT 15SM FEW020 BKN030 BKN100 05/02 A2993 RMK SC1SC4AC2 SLP139=
CYYG;2005-11-10 09:00;METAR CYYG 100900Z 14017G26KT 15SM -SHRA BKN025 BKN073 05/03 A2985 RMK SC5AC2 PRESFR SLP110=
CYYG;2005-11-10 10:00;METAR CYYG 101000Z 14015G22KT 12SM -SHRA BKN024 OVC050 05/04 A2980 RMK SC5SC3 SLP092=
CYYG;2005-11-10 11:00;METAR CYYG 101100Z 15028G35KT 6SM RA BR OVC020 06/05 A2974 RMK NS8 SLP073=
CYYG;2005-11-10 12:00;METAR CYYG 101200Z 15026G33KT 6SM RA BR BKN020 OVC080 07/06 A2968 RMK SC5AS3 PRESFR SLP051=
CYYG;2005-11-10 13:00;METAR CYYG 101300Z 16029G36KT 10SM -RA FEW020 BKN028 OVC055 08/07 A2962 RERA RMK SC2SC3NS2 PRESFR SLP032=
CYYG;2005-11-10 13:25;SPECI CYYG 101325Z 16030G38KT 6SM -RA BR BKN020 OVC055 08/ RMK SC6NS2=
CYYG;2005-11-10 14:00;METAR CYYG 101400Z 16030G40KT 6SM -RA BR SCT012 OVC018 09/08 A2958 RMK SC3SC5 SLP019=
CYYG;2005-11-10 14:20;SPECI CYYG 101420Z 16028G39KT 10SM -RA OVC010 09/ RMK SC8=
CYYG;2005-11-10 15:00;METAR CYYG 101500Z 16026G35KT 10SM -RA OVC008 10/09 A2954 RERA RMK SC8 SLP005=
CYYG;2005-11-10 16:00;METAR CYYG 101600Z 17025G30KT 10SM -RA SCT007 OVC013 11/11 A2951 RERA RMK SF3SC5 SLP994=
CYYG;2005-11-10 16:34;SPECI CYYG 101634Z 16021G28KT 5SM -RA BR BKN006 OVC013 11/ RMK SF6SC2=
CYYG;2005-11-10 17:00;METAR CYYG 101700Z 16017G26KT 6SM -RA BR BKN006 OVC013 12/11 A2948 RMK SF6SC2 SLP986=
CYYG;2005-11-10 18:00;METAR CYYG 101800Z 17017G24KT 5SM -RA BR SCT006 OVC070 13/13 A2946 RMK SF3AS5 SLP976=
CYYG;2005-11-10 18:44;SPECI CYYG 101844Z 19019G24KT 1 1/2SM RA BR FEW006 OVC070 13/ RMK SF2AS6=
CYYG;2005-11-10 19:00;METAR CYYG 101900Z 19013G22KT 2SM +RA BR FEW006 OVC070 14/14 A2943 RMK SF2AS6 /R13/ SLP966=
CYYG;2005-11-10 19:17;SPECI CYYG 101917Z 19009G15KT 3SM -RA BR BKN002 OVC005 13/ RERA RMK SF6SF2=
CYYG;2005-11-10 19:31;SPECI CYYG 101931Z 23009KT 1SM +RA BR BKN002 OVC005 13/ RMK SF6SF2=
CYYG;2005-11-10 19:45;SPECI CYYG 101945Z 21013G20KT 2 1/2SM RA BR FEW002 OVC035 13/ RERA RMK SF2NS6=
CYYG;2005-11-10 20:00;METAR CYYG 102000Z 20010G15KT 2 1/2SM RA BR FEW002 OVC035 12/12 A2943 RERA RMK SF2NS6 /R30/ SLP966=
CYYG;2005-11-10 21:00;METAR CYYG 102100Z 20007KT 4SM RA BR FEW002 OVC050 12/12 A2943 RMK SF2NS6 SLP968=
CYYG;2005-11-10 22:00;METAR CYYG 102200Z 20007KT 6SM -RA BR FEW002 OVC054 12/11 A2945 RERA RMK SF1NS7 SLP975=
CYYG;2005-11-10 22:11;SPECI CYYG 102211Z 20008KT 6SM -RA BR BKN003 OVC054 12/ RMK SF5NS3=
CYYG;2005-11-10 22:24;SPECI CYYG 102224Z 18009KT 6SM -RA BR SCT003 OVC059 11/ RMK SF2NS6=
CYYG;2005-11-10 23:00;METAR CYYG 102300Z 23007KT 6SM -RA BR FEW003 OVC009 12/11 A2946 RMK SF1SC7 SLP977=
CYYG;2005-11-10 23:24;SPECI CYYG 102324Z 26006KT 6SM -RA BR FEW002 BKN005 OVC015 10/ RMK SF1SF5SC2=
CYYG;2005-11-11 00:00;METAR CYYG 110000Z 31006KT 10SM -RA FEW003 BKN008 OVC022 08/08 A2947 RMK SF1SF4SC3 /R43/ SLP982=
CYYG;2005-11-11 01:00;METAR CYYG 110100Z 29006KT 10SM -RA FEW004 BKN009 OVC018 07/06 A2948 RMK SF1SF4SC3 SLP985=
CYYG;2005-11-11 01:29;SPECI CYYG 110129Z 32007KT 10SM -RA SCT008 OVC024 07/ RMK SF4SC4=
CYYG;2005-11-11 02:00;METAR CYYG 110200Z 29008KT 10SM -RA FEW008 OVC028 06/05 A2949 RMK SF2SC6 SLP988=
CYYG;2005-11-11 03:00;METAR CYYG 110300Z 30003KT 10SM -RA FEW009 OVC034 06/05 A2951 RMK SF2SC6 SLP994=
CYYG;2005-11-11 04:00;METAR CYYG 110400Z 31004KT 12SM -RA FEW009 OVC046 05/04 A2949 RMK SF1SC7 SLP988=
CYYG;2005-11-11 05:00;METAR CYYG 110500Z 22002KT 12SM -RA FEW010 OVC049 05/04 A2949 RMK SF2SC6 SLP987=
CYYG;2005-11-11 06:00;METAR CYYG 110600Z 22004KT 15SM -SHRA FEW012 OVC052 05/04 A2950 RMK SC1SC7 SLP989=
CYYG;2005-11-11 07:00;METAR CYYG 110700Z 23004KT 15SM -SHRA SCT010 BKN022 OVC070 05/05 A2950 RMK SC3SC3AC2 SLP990=
CYYG;2005-11-11 07:33;SPECI CYYG 110733Z 25004KT 15SM FEW010 SCT022 OVC075 05/ RMK SC1SC2AC5=
CYYG;2005-11-11 08:00;METAR CYYG 110800Z 26006KT 15SM FEW012 FEW020 BKN075 05/04 A2951 RMK SC1SC2AC4 SLP993=
CYYG;2005-11-11 09:00;METAR CYYG 110900Z 27006KT 15SM SCT018 BKN078 04/02 A2952 RMK SC3AC2 SLP998=
CYYG;2005-11-11 10:00;METAR CYYG 111000Z 27006KT 15SM FEW018 03/02 A2954 RMK SC2 SLP003=
CYYG;2005-11-11 10:38;SPECI CYYG 111038Z 27006KT 15SM SCT018 02/ RMK SC3=
CYYG;2005-11-11 11:00;METAR CYYG 111100Z 27006KT 15SM FEW020 BKN080 03/02 A2955 RMK SC2AC2 SLP008=
CYYG;2005-11-11 12:00;METAR CYYG 111200Z 27010G15KT 15SM BKN018 03/02 A2959 RMK SC7 SLP022=
CYYG;2005-11-11 13:00;METAR CYYG 111300Z 28011G16KT 15SM FEW015 BKN023 03/00 A2963 RMK CU2SC4 SLP034=
CYYG;2005-11-11 14:00;METAR CYYG 111400Z 31010KT 15SM BKN020 03/M01 A2965 RMK SC6 SLP041=
CYYG;2005-11-11 15:00;METAR CYYG 111500Z 30011G16KT 15SM FEW025 FEW054 FEW300 04/M01 A2966 RMK SC2SC1CI0 SLP045=
CYYG;2005-11-11 16:00;METAR CYYG 111600Z 28011KT 15SM SCT028 BKN300 03/M03 A2966 RMK SC4CI0 SLP046=
CYYG;2005-11-11 17:00;METAR CYYG 111700Z 26010G15KT 15SM SCT042 03/M04 A2966 RMK SC4 SLP047=
CYYG;2005-11-11 18:00;METAR CYYG 111800Z 27012G19KT 15SM SCT037 03/M05 A2969 RMK SC4 SLP054=
CYYG;2005-11-11 19:00;METAR CYYG 111900Z 29007KT 15SM BKN033 04/M03 A2971 RMK SC6 SLP061=
CYYG;2005-11-11 20:00;METAR CYYG 112000Z 29008KT 15SM BKN042 03/M04 A2973 RMK SC5 SLP068=
CYYG;2005-11-11 21:00;METAR CYYG 112100Z 28005KT 15SM BKN043 02/M04 A2975 RMK SC7 SLP075=
CYYG;2005-11-11 22:00;METAR CYYG 112200Z 27007KT 15SM BKN048 03/M05 A2977 RMK SC7 SLP084=
CYYG;2005-11-11 23:00;METAR CYYG 112300Z 27005KT 15SM BKN054 02/M04 A2979 RMK SC7 SLP089=
CYYG;2005-11-12 00:00;METAR CYYG 120000Z 25004KT 15SM BKN053 02/M05 A2981 RMK SC7 SLP095=
CYYG;2005-11-12 01:00;METAR CYYG 120100Z 26007KT 15SM OVC053 02/M05 A2983 RMK SC8 SLP102=
CYYG;2005-11-12 02:00;METAR CYYG 120200Z 26006KT 15SM -SHSN OVC053 02/M05 A2983 RMK SC8 SLP102=
CYYG;2005-11-12 02:13;SPECI CYYG 120213Z 26006KT 15SM OVC058 02/ RMK SC8=
CYYG;2005-11-12 04:00;METAR CYYG 120400Z 25006KT 15SM SCT060 01/M04 A2985 RMK SC3 SLP109=
CYYG;2005-11-12 05:00;METAR CYYG 120500Z 27004KT 15SM FEW060 M01/M04 A2985 RMK SC2 SLP111=
CYYG;2005-11-12 06:00;METAR CYYG 120600Z 25005KT 15SM FEW060 M01/M04 A2987 RMK SC2 SLP118=
CYYG;2005-11-12 07:00;METAR CYYG 120700Z 25004KT 15SM FEW060 M01/M04 A2989 RMK SC2 SLP123=
CYYG;2005-11-12 08:00;METAR CYYG 120800Z 25004KT 15SM FEW060 M02/M04 A2989 RMK SC1 SLP125=
CYYG;2005-11-12 09:00;METAR CYYG 120900Z 27004KT 15SM FEW060 M02/M04 A2990 RMK SC2 SLP129=
CYYG;2005-11-12 10:00;METAR CYYG 121000Z 26005KT 15SM SCT038 M01/M04 A2992 RMK SC3 SLP135=
CYYG;2005-11-12 11:00;METAR CYYG 121100Z 28005KT 15SM BKN044 M01/M04 A2994 RMK SC6 SLP141=
CYYG;2005-11-12 13:00;METAR CYYG 121300Z 27007KT 15SM BKN032 01/M05 A2998 RMK SC7 SLP156=
CYYG;2005-11-12 14:00;METAR CYYG 121400Z 29009KT 15SM BKN032 01/M05 A3000 RMK SC7 SLP162=
CYYG;2005-11-12 15:00;METAR CYYG 121500Z 29009KT 15SM OVC031 01/M05 A3001 RMK SC8 SLP163=
CYYG;2005-11-12 16:00;METAR CYYG 121600Z 29012KT 15SM OVC033 01/M05 A3000 RMK SC8 SLP162=
CYYG;2005-11-12 17:00;METAR CYYG 121700Z 29009KT 15SM OVC034 01/M05 A3001 RMK SC8 SLP164=
CYYG;2005-11-12 18:00;METAR CYYG 121800Z 29011KT 15SM OVC031 01/M05 A3003 RMK SC8 SLP170=
CYYG;2005-11-12 19:00;METAR CYYG 121900Z 29008KT 15SM OVC033 01/M04 A3005 RMK SC8 SLP178=
CYYG;2005-11-12 20:00;METAR CYYG 122000Z 29009KT 15SM OVC030 01/M04 A3008 RMK SC8 SLP189=
CYYG;2005-11-12 21:00;METAR CYYG 122100Z 29008KT 15SM OVC033 01/M04 A3010 RMK SC8 SLP195=
CYYG;2005-11-12 22:00;METAR CYYG 122200Z 29010KT 15SM OVC032 01/M04 A3012 RMK SC8 SLP200=
CYYG;2005-11-12 23:00;METAR CYYG 122300Z 29010KT 15SM OVC036 02/M04 A3013 RMK SC8 SLP205=
CYYG;2005-11-13 00:00;METAR CYYG 130000Z 29008KT 15SM OVC036 02/M03 A3015 RMK SC8 SLP212=
CYYG;2005-11-13 01:00;METAR CYYG 130100Z 29007KT 15SM OVC035 02/M03 A3017 RMK SC8 SLP217=
CYYG;2005-11-13 02:00;METAR CYYG 130200Z 29007KT 15SM OVC034 02/M03 A3018 RMK SC8 SLP222=
CYYG;2005-11-13 03:00;METAR CYYG 130300Z 29007KT 15SM OVC033 02/M03 A3019 RMK SC8 SLP226=
CYYG;2005-11-13 04:00;METAR CYYG 130400Z 28007KT 15SM OVC037 02/M03 A3021 RMK SC8 SLP232=
CYYG;2005-11-13 05:00;METAR CYYG 130500Z 29008KT 15SM BKN031 02/M03 A3021 RMK SC7 SLP232=
CYYG;2005-11-13 06:00;METAR CYYG 130600Z 28008KT 15SM SCT031 01/M03 A3024 RMK SC4 SLP241=
CYYG;2005-11-13 08:00;METAR CYYG 130800Z 27006KT 15SM FEW030 M01/M03 A3027 RMK SC2 SLP251=
CYYG;2005-11-13 09:00;METAR CYYG 130900Z 27006KT 15SM FEW030 M01/M04 A3028 RMK SC1 SLP255=
CYYG;2005-11-13 10:00;METAR CYYG 131000Z 27006KT 15SM FEW030 M01/M04 A3029 RMK SC1 SLP259=
CYYG;2005-11-13 11:00;METAR CYYG 131100Z 26004KT 15SM FEW030 M01/M04 A3030 RMK SC1 SLP264=
CYYG;2005-11-13 12:00;METAR CYYG 131200Z 27006KT 15SM FEW030 M01/M04 A3033 RMK SC1 SLP273=
CYYG;2005-11-13 13:00;METAR CYYG 131300Z 27005KT 15SM FEW030 01/M02 A3034 RMK SC1 SLP276=
CYYG;2005-11-13 14:00;METAR CYYG 131400Z 29006KT 15SM FEW030 03/M01 A3034 RMK SC1 SLP278=
CYYG;2005-11-13 15:00;METAR CYYG 131500Z 27003KT 15SM FEW030 04/M01 A3034 RMK SC1 TR SC SLP275=
CYYG;2005-11-13 16:00;METAR CYYG 131600Z 26004KT 15SM FEW030 05/M03 A3031 RMK SC1 TR SC SLP265=
CYYG;2005-11-13 17:00;METAR CYYG 131700Z 23006KT 15SM FEW300 06/M04 A3030 RMK CI1 TR CI SLP261=
CYYG;2005-11-13 18:00;METAR CYYG 131800Z 24004KT 15SM FEW300 07/M03 A3029 RMK CI1 TR CI SLP258=
CYYG;2005-11-13 19:00;METAR CYYG 131900Z 24004KT 15SM FEW300 06/M04 A3029 RMK CI1 SLP258=
CYYG;2005-11-13 20:00;METAR CYYG 132000Z 19004KT 15SM FEW300 05/M03 A3028 RMK CI1 SLP256=
CYYG;2005-11-13 21:00;METAR CYYG 132100Z 15004KT 15SM FEW140 03/M02 A3028 RMK AC2 SLP256=
CYYG;2005-11-13 22:00;METAR CYYG 132200Z 15005KT 15SM FEW140 02/M02 A3028 RMK AC2 SLP255=
CYYG;2005-11-13 23:00;METAR CYYG 132300Z 14007KT 15SM FEW140 SCT220 02/M01 A3025 RMK AC2CI1 SLP248=
CYYG;2005-11-14 00:00;METAR CYYG 140000Z 14005KT 15SM FEW220 02/M00 A3024 RMK CI1 SLP244=
CYYG;2005-11-14 01:00;METAR CYYG 140100Z 17008KT 15SM BKN220 03/01 A3025 RMK CI2 SLP245=
CYYG;2005-11-14 02:00;METAR CYYG 140200Z 18009KT 15SM BKN230 05/01 A3022 RMK CI2 SLP237=
CYYG;2005-11-14 03:00;METAR CYYG 140300Z 19009KT 15SM SCT230 05/02 A3021 RMK CI2 SLP232=
CYYG;2005-11-14 04:00;METAR CYYG 140400Z 19009KT 15SM BKN230 05/03 A3019 RMK CI2 SLP225=
CYYG;2005-11-14 05:00;METAR CYYG 140500Z 19010KT 15SM BKN230 06/03 A3017 RMK CI2 SLP220=
CYYG;2005-11-14 06:00;METAR CYYG 140600Z 19011KT 15SM BKN240 06/04 A3016 RMK CI2 SLP215=
CYYG;2005-11-14 07:00;METAR CYYG 140700Z 18011KT 15SM BKN230 06/04 A3014 RMK CI2 SLP209=
CYYG;2005-11-14 08:00;METAR CYYG 140800Z 18012KT 15SM FEW120 BKN240 06/05 A3012 RMK AC1CI2 SLP202=
CYYG;2005-11-14 09:00;METAR CYYG 140900Z 19013KT 15SM FEW120 BKN200 07/05 A3011 RMK AC1CI4 SLP198=
CYYG;2005-11-14 10:00;METAR CYYG 141000Z 18013KT 15SM FEW120 SCT200 07/06 A3008 RMK AC1CI2 SLP189=
CYYG;2005-11-14 11:00;METAR CYYG 141100Z 19012KT 15SM FEW120 BKN200 07/06 A3007 RMK AC2CI2 SLP185=
CYYG;2005-11-14 12:00;METAR CYYG 141200Z 19012KT 15SM FEW120 BKN200 08/07 A3006 RMK AC2CI4 SLP182=
CYYG;2005-11-14 13:00;METAR CYYG 141300Z 19010KT 15SM FEW018 BKN080 OVC200 09/07 A3005 RMK SC2AC3CI2 SLP178=
CYYG;2005-11-14 13:52;SPECI CYYG 141352Z 20011KT 15SM -SHRA FEW018 BKN080 OVC200 09/ RMK SC2AC4CI2=
CYYG;2005-11-14 14:00;METAR CYYG 141400Z 21011KT 15SM -SHRA FEW018 BKN070 OVC200 09/08 A3004 RMK SC2AC4CI2 SLP174=
CYYG;2005-11-14 15:00;METAR CYYG 141500Z 20015KT 15SM -SHRA FEW018 BKN065 BKN200 09/08 A3001 RMK SC2SC4CI2 SLP162=
CYYG;2005-11-14 16:00;METAR CYYG 141600Z 20016G21KT 15SM -SHRA BKN015 OVC065 10/09 A2997 RMK SC6SC2 SLP149=
CYYG;2005-11-14 16:11;SPECI CYYG 141611Z 21014G19KT 15SM -SHRA BKN013 OVC065 11/ RMK SC6SC2=
CYYG;2005-11-14 17:00;METAR CYYG 141700Z 20013G18KT 15SM SCT014 SCT065 11/09 A2995 RMK SC3SC1 SLP142=
CYYG;2005-11-14 18:00;METAR CYYG 141800Z 22011KT 15SM FEW004 FEW120 BKN250 13/09 A2994 RMK SC1AC2CI1 SLP140=
CYYG;2005-11-14 19:00;METAR CYYG 141900Z 22011KT 15SM FEW015 SCT250 13/09 A2992 RMK SC1CI2 SLP134=
CYYG;2005-11-14 20:00;METAR CYYG 142000Z 22007KT 15SM FEW080 SCT250 12/09 A2993 RMK AC1CI1 SLP135=
CYYG;2005-11-14 21:00;METAR CYYG 142100Z 25010G15KT 15SM BKN070 BKN250 11/09 A2995 RMK AC6CI1 SLP144=
CYYG;2005-11-14 22:00;METAR CYYG 142200Z 30012G17KT 15SM FEW020 SCT035 OVC070 11/08 A2999 RMK SC2SC2AC4 SLP157=
CYYG;2005-11-14 23:00;METAR CYYG 142300Z 29013G18KT 15SM FEW020 BKN055 11/05 A3003 RMK SC1SC6 SLP170=
CYYG;2005-11-15 00:00;METAR CYYG 150000Z 29012G21KT 15SM FEW055 10/01 A3006 RMK SC1 SLP180=
CYYG;2005-11-15 01:00;METAR CYYG 150100Z 29015G26KT 15SM SKC 08/M00 A3010 RMK SLP193=
CYYG;2005-11-15 02:00;METAR CYYG 150200Z 29019G25KT 15SM FEW280 08/M00 A3013 RMK CI1 SLP204=
CYYG;2005-11-15 03:00;METAR CYYG 150300Z 28009G18KT 15SM SCT280 07/00 A3017 RMK CI1 SLP219=
CYYG;2005-11-15 04:00;METAR CYYG 150400Z 30011KT 15SM BKN210 06/00 A3021 RMK CI2 SLP230=
CYYG;2005-11-15 05:00;METAR CYYG 150500Z 30013G20KT 15SM SCT230 05/M01 A3025 RMK CI2 SLP245=
CYYG;2005-11-15 06:00;METAR CYYG 150600Z 31009KT 15SM FEW070 FEW230 04/M01 A3028 RMK AC1CI1 SLP255=
CYYG;2005-11-15 07:00;METAR CYYG 150700Z 31010KT 15SM FEW070 FEW230 03/M01 A3029 RMK AC1CI1 SLP260=
CYYG;2005-11-15 08:00;METAR CYYG 150800Z 31010G15KT 15SM FEW070 03/M02 A3032 RMK AC1 SLP268=
CYYG;2005-11-15 08:28;SPECI CYYG 150828Z 30008KT 15SM FEW070 02/ RMK AC1=
CYYG;2005-11-15 09:00;METAR CYYG 150900Z 28006KT 15SM FEW070 02/M02 A3036 RMK AC1 SLP282=
CYYG;2005-11-15 10:00;METAR CYYG 151000Z 29009KT 15SM FEW030 FEW070 01/M02 A3040 RMK SC1AC1 SLP296=
CYYG;2005-11-15 11:00;METAR CYYG 151100Z 29006KT 15SM FEW030 SCT250 01/M03 A3044 RMK SC1CI1 SLP308=
CYYG;2005-11-15 12:00;METAR CYYG 151200Z 31010KT 15SM FEW030 SCT250 01/M02 A3044 RMK SC1CI1 SLP310=
CYYG;2005-11-15 13:00;METAR CYYG 151300Z 31008KT 15SM FEW030 SCT250 02/M02 A3046 RMK SC1CI1 SLP316=
CYYG;2005-11-15 14:00;METAR CYYG 151400Z 30005KT 15SM FEW025 BKN250 03/M01 A3048 RMK SC2CI2 SLP322=
CYYG;2005-11-15 15:00;METAR CYYG 151500Z 29007KT 15SM BKN025 BKN250 04/M02 A3049 RMK SC5CI1 SLP327=
CYYG;2005-11-15 16:00;METAR CYYG 151600Z 33006KT 15SM BKN026 BKN250 04/M02 A3048 RMK SC6CI2 SLP324=
CYYG;2005-11-15 17:00;METAR CYYG 151700Z 28006KT 15SM SCT026 BKN200 04/M02 A3050 RMK SC3CI2 SLP329=
CYYG;2005-11-15 18:00;METAR CYYG 151800Z 36007KT 15SM FEW025 SCT200 OVC280 04/M02 A3048 RMK SC2CI2CI3 SLP325=
CYYG;2005-11-15 19:00;METAR CYYG 151900Z 32004KT 15SM FEW025 SCT110 OVC200 03/M02 A3051 RMK SC1AC3CI3 SLP333=
CYYG;2005-11-15 20:00;METAR CYYG 152000Z 34004KT 15SM FEW025 OVC090 03/M02 A3053 RMK SC1AC7 SLP342=
CYYG;2005-11-15 20:32;SPECI CYYG 152032Z 35003KT 15SM FEW025 OVC093 02/ RMK SC1AC7=
CYYG;2005-11-15 21:00;METAR CYYG 152100Z 33003KT 15SM FEW025 OVC095 02/M02 A3055 RMK SC1AC7 SLP348=
CYYG;2005-11-15 22:00;METAR CYYG 152200Z 33002KT 15SM FEW025 BKN065 OVC095 02/M02 A3057 RMK SC1SC6AC2 SLP355=
CYYG;2005-11-15 23:00;METAR CYYG 152300Z 34002KT 15SM -SN OVC025 02/M02 A3058 RMK NS8 SLP359=
CYYG;2005-11-15 23:15;SPECI CYYG 152315Z 35007KT 3SM -SN VV010 02/ RMK SN8=
CYYG;2005-11-15 23:35;SPECI CYYG 152335Z 36003KT 2 1/2SM -SN OVC022 01/ RMK SN6NS2=
CYYG;2005-11-16 00:00;METAR CYYG 160000Z 00000KT 2SM -SN OVC020 01/M00 A3059 RMK SN6NS2 SLP362=
CYYG;2005-11-16 00:32;SPECI CYYG 160032Z 00000KT 1SM -SN VV008 00/ RMK SN8=
CYYG;2005-11-16 01:00;METAR CYYG 160100Z 00000KT 1 1/2SM -SN BR VV010 00/M00 A3058 RMK SN8 SLP359=
CYYG;2005-11-16 01:26;SPECI CYYG 160126Z 11002KT 1SM -SN BR SCT002 VV008 00/ RMK SF3SN5=
CYYG;2005-11-16 02:00;METAR CYYG 160200Z 08003KT 3/4SM -SN BR OVC032 00/M00 A3055 RMK SN3NS5 SLP349=
CYYG;2005-11-16 02:27;SPECI CYYG 160227Z 14002KT 1 1/2SM -SN BR OVC030 00/ RMK NS8=
CYYG;2005-11-16 02:46;SPECI CYYG 160246Z 13002KT 2SM -SN BR BKN003 OVC028 00/ RMK SF6NS2 PCPN VRY LGT=
CYYG;2005-11-16 03:00;METAR CYYG 160300Z 10002KT 3/4SM -SN BR OVC002 00/00 A3057 RMK SF8 SLP353=
CYYG;2005-11-16 04:00;METAR CYYG 160400Z 09002KT 1SM -SN BR BKN002 OVC018 00/00 A3056 RMK SF6NS2 /S01/ SLP352=
CYYG;2005-11-16 05:00;METAR CYYG 160500Z 10002KT 3/4SM -SN BR SCT002 OVC021 00/00 A3056 RMK SN2SF1NS5 SLP350=
CYYG;2005-11-16 06:00;METAR CYYG 160600Z 09003KT 1 1/2SM -SN BR OVC016 00/00 A3057 RMK NS8 SLP353=
CYYG;2005-11-16 07:00;METAR CYYG 160700Z 10004KT 2SM -SN BR OVC002 00/00 A3055 RMK SF8 SLP349=
CYYG;2005-11-16 07:23;SPECI CYYG 160723Z 09005KT 5SM BR BKN002 OVC020 00/ RMK SF6NS2=
CYYG;2005-11-16 07:47;SPECI CYYG 160747Z 10003KT 8SM -RASN FEW002 OVC015 01/ RMK SF2NS6=
CYYG;2005-11-16 08:00;METAR CYYG 160800Z 10005KT 10SM -RASN FEW002 OVC011 01/00 A3054 RMK SF1NS7 SLP343=
CYYG;2005-11-16 09:00;METAR CYYG 160900Z 09004KT 10SM -RA FEW002 OVC012 01/01 A3053 RMK SF1NS7 SLP341=
CYYG;2005-11-16 09:29;SPECI CYYG 160929Z 11005KT 10SM -RA BKN008 OVC035 01/ RMK SF6NS2=
CYYG;2005-11-16 10:00;METAR CYYG 161000Z 12005KT 10SM -RA BKN008 OVC040 01/01 A3051 RMK SF6NS2 SLP334=
CYYG;2005-11-16 11:00;METAR CYYG 161100Z 11005KT 10SM -RA SCT008 OVC021 01/01 A3049 RMK SF4NS4 SLP326=
CYYG;2005-11-16 12:00;METAR CYYG 161200Z 10005KT 15SM -RA SCT008 OVC029 02/01 A3048 RMK SF3NS5 SLP324=
CYYG;2005-11-16 12:18;SPECI CYYG 161218Z 11004KT 3SM -RA BR SCT008 OVC028 02/ RMK SF3NS5=
CYYG;2005-11-16 13:00;METAR CYYG 161300Z 11006KT 3SM -RA BR BKN004 OVC021 02/02 A3047 RMK SF5NS3 SLP320=
CYYG;2005-11-16 14:00;METAR CYYG 161400Z 10008KT 3SM -RA BR OVC004 03/03 A3044 RMK SF8 SLP310=
CYYG;2005-11-16 15:00;METAR CYYG 161500Z 12012KT 3SM -RA BR OVC004 04/04 A3039 RMK SF8 SLP295=
CYYG;2005-11-16 16:00;METAR CYYG 161600Z 12012KT 3SM -RA BR OVC005 05/04 A3035 RMK SF8 SLP279=
CYYG;2005-11-16 17:00;METAR CYYG 161700Z 13013G18KT 3SM -RA BR OVC007 05/05 A3031 RMK SF8 SLP265=
CYYG;2005-11-16 18:00;METAR CYYG 161800Z 13014KT 3SM -RA BR OVC005 06/05 A3026 RMK SF8 SLP248=
CYYG;2005-11-16 18:24;SPECI CYYG 161824Z 14012G17KT 10SM -RA OVC006 06/ RMK SF8=
CYYG;2005-11-16 18:48;SPECI CYYG 161848Z 14012KT 15SM OVC005 06/ RMK SF8=
CYYG;2005-11-16 19:00;METAR CYYG 161900Z 14012KT 15SM OVC005 06/06 A3024 RMK SF8 SLP241=
CYYG;2005-11-16 20:00;METAR CYYG 162000Z 15013KT 15SM OVC006 08/07 A3022 RMK SF8 SLP235=
CYYG;2005-11-16 21:00;METAR CYYG 162100Z 16012G17KT 15SM OVC006 08/08 A3020 RMK SF8 SLP228=
CYYG;2005-11-16 22:00;METAR CYYG 162200Z 16015KT 15SM OVC005 09/08 A3018 RMK SF8 SLP221=
CYYG;2005-11-16 22:46;SPECI CYYG 162246Z 16014G20KT 10SM OVC003 09/ RMK SF8=
CYYG;2005-11-16 23:00;METAR CYYG 162300Z 16015KT 6SM BR OVC002 09/09 A3015 RMK SF8 SLP213=
CYYG;2005-11-16 23:21;SPECI CYYG 162321Z 16016KT 1 1/2SM BR OVC002 10/ RMK SF8=
CYYG;2005-11-16 23:33;SPECI CYYG 162333Z 16014G19KT 5/8SM BR VV002 10/ RMK FG8=
CYYG;2005-11-17 00:00;METAR CYYG 170000Z 16013G19KT 3/4SM BR VV002 09/09 A3013 RMK FG8 SLP206=
CYYG;2005-11-17 00:12;SPECI CYYG 170012Z 16012KT 1 1/2SM BR OVC002 09/ RMK SF8=
CYYG;2005-11-17 00:31;SPECI CYYG 170031Z 16015KT 2SM BR OVC003 10/ RMK SF8=
CYYG;2005-11-17 01:00;METAR CYYG 170100Z 17016KT 2 1/2SM BR OVC003 10/10 A3009 RMK SF8 SLP192=
CYYG;2005-11-17 02:00;METAR CYYG 170200Z 17014KT 2 1/2SM BR OVC003 11/11 A3006 RMK SF8 SLP183=
CYYG;2005-11-17 03:00;METAR CYYG 170300Z 17013KT 6SM BR SCT004 OVC011 11/11 A3004 RMK SF4SC4 SLP174=
CYYG;2005-11-17 04:00;METAR CYYG 170400Z 17018G24KT 15SM FEW004 SCT011 OVC055 14/13 A3000 RMK SF1SC2SC5 SLP161=
CYYG;2005-11-17 05:00;METAR CYYG 170500Z 18017G25KT 15SM FEW006 OVC013 14/14 A2997 RMK SF2SC6 SLP151=
CYYG;2005-11-17 06:00;METAR CYYG 170600Z 18017KT 15SM FEW006 OVC014 14/13 A2995 RMK SF1SC7 SLP142=
CYYG;2005-11-17 09:00;METAR CYYG 170900Z 19020G30KT 15SM BKN015 OVC025 15/14 A2982 RMK SC7SC1 SLP100=
CYYG;2005-11-17 10:00;METAR CYYG 171000Z 18020G29KT 15SM OVC020 14/13 A2980 RMK SC8 SLP091=
CYYG;2005-11-17 10:49;SPECI CYYG 171049Z 19022G30KT 15SM -SHRA OVC020 15/ RMK SC8=
CYYG;2005-11-17 11:00;METAR CYYG 171100Z 19021G27KT 15SM -SHRA BKN020 BKN070 15/13 A2979 RMK SC6AC2 SLP087=
CYYG;2005-11-17 12:00;METAR CYYG 171200Z 19024G29KT 15SM -SHRA BKN017 BKN070 15/14 A2976 RMK SC6AC1 SLP078=
CYYG;2005-11-17 12:36;SPECI CYYG 171236Z 22013G28KT 6SM -SHRA BR OVC011 15/ RMK SC8=
CYYG;2005-11-17 13:00;METAR CYYG 171300Z 23009G18KT 6SM -SHRA BR BKN011 OVC025 14/14 A2979 RMK SC6SC2 SLP090=
CYYG;2005-11-17 13:06;SPECI CYYG 171306Z 24007KT 10SM -SHRA FEW005 OVC016 14/ RMK SF2SC6=
CYYG;2005-11-17 14:00;METAR CYYG 171400Z 23008KT 10SM -SHRA FEW005 BKN016 OVC033 14/13 A2978 RMK SF2SC6SC1 SLP086=
CYYG;2005-11-17 15:00;METAR CYYG 171500Z 26008KT 10SM -SHRA SCT005 OVC016 13/12 A2979 RMK SF4SC4 SLP088=
CYYG;2005-11-17 15:20;SPECI CYYG 171520Z 27009KT 8SM -SHRA OVC007 12/ RMK SF8=
CYYG;2005-11-17 16:00;METAR CYYG 171600Z 29009G17KT 12SM -SHRA BKN008 OVC016 10/09 A2980 RMK SF7SC1 SLP092=
CYYG;2005-11-17 16:13;SPECI CYYG 171613Z 30013G21KT 6SM -SHRA BR SCT007 OVC011 09/ RMK SF4SC4=
CYYG;2005-11-17 16:41;SPECI CYYG 171641Z 31013KT 10SM -SHRA SCT007 OVC015 08/ RMK SF4SC4=
CYYG;2005-11-17 17:00;METAR CYYG 171700Z 31010G16KT 12SM -SHRA SCT006 OVC012 08/07 A2982 RMK SF3SC5 SLP098=
CYYG;2005-11-17 17:36;SPECI CYYG 171736Z 31010KT 15SM -SHRA FEW007 OVC020 07/ RMK SF2SC6=
CYYG;2005-11-17 17:45;SPECI CYYG 171745Z 31008KT 15SM FEW007 OVC028 07/ RMK SF2SC6=
CYYG;2005-11-17 18:00;METAR CYYG 171800Z 31009KT 15SM FEW007 OVC026 07/06 A2981 RMK SF2SC6 SLP095=
CYYG;2005-11-17 18:30;SPECI CYYG 171830Z 28004KT 10SM -DZ OVC028 07/ RMK SC8=
CYYG;2005-11-17 19:00;METAR CYYG 171900Z 26003KT 10SM -SHRA OVC028 07/06 A2981 RMK SC8 SLP096=
CYYG;2005-11-17 19:45;SPECI CYYG 171945Z 26003KT 15SM BKN037 07/ RMK SC7=
CYYG;2005-11-17 20:00;METAR CYYG 172000Z 23003KT 15SM FEW012 BKN040 07/06 A2982 RMK SF1SC6 SLP097=
CYYG;2005-11-17 21:00;METAR CYYG 172100Z 21003KT 15SM FEW012 BKN041 07/06 A2982 RMK SF1SC6 SLP097=
CYYG;2005-11-17 22:00;METAR CYYG 172200Z 25003KT 15SM FEW012 BKN049 07/06 A2982 RMK SF2SC6 SLP098=
CYYG;2005-11-17 23:00;METAR CYYG 172300Z 29003KT 15SM FEW012 OVC053 06/05 A2980 RMK SF2SC6 SLP093=
CYYG;2005-11-18 00:00;METAR CYYG 180000Z 27003KT 15SM OVC056 06/05 A2980 RMK SC8 SLP093=
CYYG;2005-11-18 01:00;METAR CYYG 180100Z 29006KT 15SM BKN058 05/04 A2979 RMK SC6 SLP088=
CYYG;2005-11-18 02:00;METAR CYYG 180200Z 28007KT 15SM BKN061 05/03 A2981 RMK SC6 SLP095=
CYYG;2005-11-18 04:00;METAR CYYG 180400Z 26005KT 15SM OVC065 05/02 A2980 RMK SC8 SLP093=
CYYG;2005-11-18 05:00;METAR CYYG 180500Z 30006KT 15SM OVC060 04/03 A2979 RMK SC8 SLP091=
CYYG;2005-11-18 06:00;METAR CYYG 180600Z 34006KT 15SM FEW019 OVC060 04/02 A2981 RMK SC2SC6 SLP096=
CYYG;2005-11-18 07:00;METAR CYYG 180700Z 31009KT 15SM SCT021 OVC060 03/02 A2983 RMK SC4SC4 SLP102=
CYYG;2005-11-18 08:00;METAR CYYG 180800Z 29008KT 15SM FEW010 BKN039 OVC070 02/00 A2984 RMK SC2SC3AC2 SLP107=
CYYG;2005-11-18 09:00;METAR CYYG 180900Z 31008KT 15SM SCT040 OVC069 02/M01 A2987 RMK SC3AC5 SLP115=
CYYG;2005-11-18 10:00;METAR CYYG 181000Z 31009KT 15SM BKN054 OVC090 01/M01 A2990 RMK SC6AC2 SLP125=
CYYG;2005-11-18 11:00;METAR CYYG 181100Z 31009KT 15SM BKN044 BKN090 01/M02 A2992 RMK SC5AC2 SLP134=
CYYG;2005-11-18 12:00;METAR CYYG 181200Z 31006KT 15SM FEW044 BKN100 01/M03 A2995 RMK SC2AC3 SLP144=
CYYG;2005-11-18 13:00;METAR CYYG 181300Z 30010G15KT 15SM FEW044 FEW100 01/M04 A2998 RMK SC1AC2 SLP154=
CYYG;2005-11-18 14:00;METAR CYYG 181400Z 32011KT 15SM FEW030 FEW100 02/M04 A3000 RMK SC2AC1 SLP162=
CYYG;2005-11-18 15:00;METAR CYYG 181500Z 31010G15KT 15SM SCT031 02/M04 A3001 RMK SC3 SLP165=
CYYG;2005-11-18 16:00;METAR CYYG NIL=
CYYG;2005-11-18 17:00;METAR CYYG 181700Z 31010G16KT 15SM BKN040 01/M05 A3004 RMK SC7 SLP173=
CYYG;2005-11-18 18:00;METAR CYYG 181800Z 29007KT 15SM BKN043 01/M06 A3005 RMK SC7 SLP179=
CYYG;2005-11-18 19:00;METAR CYYG 181900Z 31008KT 15SM -SHSN FEW026 BKN055 01/M05 A3006 RMK SC2SC4 SLP183=
CYYG;2005-11-18 20:00;METAR CYYG 182000Z 32005KT 15SM -SHSN FEW026 BKN055 00/M06 A3009 RMK SC2SC3 SLP193=
CYYG;2005-11-18 21:00;METAR CYYG 182100Z 31002KT 15SM FEW025 SCT050 M01/M06 A3010 RMK SC1SC3 SLP194=
CYYG;2005-11-18 22:00;METAR CYYG 182200Z 27004KT 15SM FEW040 BKN067 M01/M06 A3011 RMK SC2AC3 SLP199=
CYYG;2005-11-18 23:00;METAR CYYG 182300Z 27003KT 15SM SCT064 M01/M06 A3012 RMK SC4 SLP201=
CYYG;2005-11-19 00:00;METAR CYYG 190000Z 28004KT 15SM SCT050 M01/M05 A3014 RMK SC4 SLP207=
CYYG;2005-11-19 01:00;METAR CYYG 190100Z 30006KT 15SM FEW050 M02/M07 A3015 RMK SC2 SLP211=
CYYG;2005-11-19 02:00;METAR CYYG 190200Z 31005KT 15SM FEW050 M02/M08 A3016 RMK SC2 SLP215=
CYYG;2005-11-19 03:00;METAR CYYG 190300Z 29004KT 15SM FEW050 M03/M08 A3017 RMK SC2 SLP218=
CYYG;2005-11-19 04:00;METAR CYYG 190400Z 28004KT 15SM SCT180 M03/M08 A3018 RMK AC2 SLP222=
CYYG;2005-11-19 05:00;METAR CYYG 190500Z 26004KT 15SM SCT180 M03/M09 A3019 RMK AC2 SLP225=
CYYG;2005-11-19 06:00;METAR CYYG 190600Z 28003KT 15SM SCT160 M03/M08 A3021 RMK AC2 SLP232=
CYYG;2005-11-19 07:00;METAR CYYG 190700Z 30005KT 15SM SCT160 M04/M09 A3021 RMK AC2 SLP234=
CYYG;2005-11-19 08:00;METAR CYYG 190800Z 29003KT 15SM SCT160 M05/M09 A3023 RMK AC2 SLP238=
CYYG;2005-11-19 09:00;METAR CYYG 190900Z 27003KT 15SM FEW040 SCT160 M04/M09 A3023 RMK SC2AC0 SLP240=
CYYG;2005-11-19 10:00;METAR CYYG 191000Z 27004KT 15SM FEW036 M05/M09 A3024 RMK SC2 SLP243=
CYYG;2005-11-19 11:00;METAR CYYG 191100Z 28005KT 15SM FEW030 M05/M09 A3026 RMK SC1 SLP250=
CYYG;2005-11-19 12:00;METAR CYYG 191200Z 27004KT 15SM FEW030 M05/M08 A3029 RMK SC2 SLP259=
CYYG;2005-11-19 13:00;METAR CYYG 191300Z 27009KT 15SM FEW030 M03/M08 A3029 RMK SC2 SLP261=
CYYG;2005-11-19 14:00;METAR CYYG 191400Z 27005KT 15SM FEW028 M02/M08 A3029 RMK SC2 SLP261=
CYYG;2005-11-19 15:00;METAR CYYG 191500Z 31007KT 15SM FEW028 M02/M09 A3030 RMK SC2 SLP263=
CYYG;2005-11-19 16:00;METAR CYYG 191600Z 31008KT 15SM FEW028 M02/M08 A3029 RMK SC2 SLP261=
CYYG;2005-11-19 17:00;METAR CYYG 191700Z 29005KT 15SM FEW030 M01/M09 A3029 RMK SC2 SLP260=
CYYG;2005-11-19 18:00;METAR CYYG 191800Z 29009KT 15SM FEW030 M02/M09 A3029 RMK SC1 SLP259=
CYYG;2005-11-19 19:00;METAR CYYG 191900Z 30007KT 15SM FEW030 FEW250 M02/M11 A3029 RMK SC1CI1 SLP260=
CYYG;2005-11-19 20:00;METAR CYYG 192000Z 25006KT 15SM FEW030 FEW250 M02/M11 A3029 RMK SC1CI1 SLP261=
CYYG;2005-11-19 21:00;METAR CYYG 192100Z 25002KT 15SM FEW250 M03/M11 A3029 RMK CI1 SLP260=
CYYG;2005-11-19 22:00;METAR CYYG 192200Z 27002KT 15SM FEW250 M04/M10 A3030 RMK CI0 SLP262=
CYYG;2005-11-19 23:00;METAR CYYG 192300Z 17003KT 15SM FEW140 FEW250 M05/M09 A3029 RMK AC1CI0 SLP261=
CYYG;2005-11-20 00:00;METAR CYYG 200000Z 19003KT 15SM FEW140 FEW250 M04/M10 A3029 RMK AC1CI0 SLP259=
CYYG;2005-11-20 01:00;METAR CYYG 200100Z 23003KT 15SM FEW250 M04/M10 A3028 RMK CI0 SLP257=
CYYG;2005-11-20 02:00;METAR CYYG 200200Z 23004KT 15SM FEW250 M04/M09 A3027 RMK CI0 SLP253=
CYYG;2005-11-20 03:00;METAR CYYG 200300Z 22003KT 15SM FEW250 M03/M09 A3026 RMK CI1 SLP249=
CYYG;2005-11-20 04:00;METAR CYYG 200400Z 25004KT 15SM FEW190 M04/M09 A3024 RMK AC2 SLP243=
CYYG;2005-11-20 05:00;METAR CYYG 200500Z 19003KT 15SM FEW040 FEW150 M04/M09 A3022 RMK SC1AC2 SLP236=
CYYG;2005-11-20 06:00;METAR CYYG 200600Z 20005KT 15SM FEW140 M03/M08 A3020 RMK AC2 SLP231=
CYYG;2005-11-20 07:00;METAR CYYG 200700Z 21007KT 15SM FEW140 M01/M04 A3018 RMK AC2 SLP222=
CYYG;2005-11-20 08:00;METAR CYYG 200800Z 22010KT 15SM SCT054 00/M02 A3014 RMK SC4 SLP211=
CYYG;2005-11-20 09:00;METAR CYYG 200900Z 23010G16KT 15SM BKN054 01/M01 A3012 RMK SC5 SLP203=
CYYG;2005-11-20 10:00;METAR CYYG 201000Z 23011G16KT 15SM FEW015 BKN045 02/M01 A3012 RMK SC2SC5 SLP200=
CYYG;2005-11-20 11:00;METAR CYYG 201100Z 22010KT 15SM SCT045 BKN250 01/M01 A3011 RMK SC4CI2 SLP197=
CYYG;2005-11-20 12:00;METAR CYYG 201200Z 22012KT 15SM SCT045 BKN089 02/M01 A3009 RMK SC3AC2 SLP192=
CYYG;2005-11-20 13:00;METAR CYYG 201300Z 22012G17KT 15SM FEW020 BKN090 03/00 A3008 RMK SC1AC5 SLP187=
CYYG;2005-11-20 14:00;METAR CYYG 201400Z 22013G20KT 15SM FEW025 BKN088 04/00 A3006 RMK SC2AC4 SLP181=
CYYG;2005-11-20 15:00;METAR CYYG 201500Z 23014G19KT 15SM FEW025 BKN050 04/00 A3004 RMK SC2SC5 SLP174=
CYYG;2005-11-20 16:00;METAR CYYG 201600Z 23013G18KT 15SM FEW025 BKN046 05/00 A3001 RMK SC1SC6 SLP164=
CYYG;2005-11-20 17:00;METAR CYYG 201700Z 23008G15KT 15SM FEW025 BKN042 BKN250 05/00 A3000 RMK SC1SC6CI1 SLP161=
CYYG;2005-11-20 18:00;METAR CYYG 201800Z 25014G19KT 15SM FEW025 BKN044 OVC250 06/00 A2998 RMK SC1SC6CI1 SLP156=
CYYG;2005-11-20 19:00;METAR CYYG 201900Z 25009KT 15SM BKN025 OVC033 06/01 A2998 RMK SC5SC3 SLP155=
CYYG;2005-11-20 20:00;METAR CYYG 202000Z 27004KT 15SM SCT025 OVC044 05/01 A2999 RMK SC3SC5 SLP157=
CYYG;2005-11-20 21:00;METAR CYYG 202100Z 27003KT 15SM SCT025 OVC050 04/M01 A2999 RMK SC3SC5 SLP158=
CYYG;2005-11-20 22:00;METAR CYYG 202200Z 23004KT 15SM OVC070 04/M02 A2999 RMK AC8 SLP158=
CYYG;2005-11-20 23:00;METAR CYYG 202300Z 00000KT 15SM OVC069 04/M01 A2999 RMK AC8 SLP158=
CYYG;2005-11-21 00:00;METAR CYYG 210000Z 21003KT 15SM FEW060 OVC079 04/M00 A2998 RMK SC2AC6 SLP155=
CYYG;2005-11-21 01:00;METAR CYYG 210100Z 22005KT 15SM FEW060 BKN082 04/01 A2997 RMK SC1AC4 SLP151=
CYYG;2005-11-21 02:00;METAR CYYG 210200Z 24004KT 15SM FEW063 FEW084 03/01 A2996 RMK SC1AC1 SLP149=
CYYG;2005-11-21 03:00;METAR CYYG 210300Z 23004KT 15SM FEW080 03/01 A2995 RMK AC1 SLP145=
CYYG;2005-11-21 04:00;METAR CYYG 210400Z 22004KT 15SM FEW038 03/01 A2994 RMK SC1 SLP142=
CYYG;2005-11-21 04:35;SPECI CYYG 210435Z 22003KT 15SM FEW038 02/ RMK SC1=
CYYG;2005-11-21 05:00;METAR CYYG 210500Z 24004KT 15SM FEW038 SCT065 02/00 A2994 RMK SC1SC2 SLP141=
CYYG;2005-11-21 09:00;METAR CYYG 210900Z 23005KT 15SM OVC059 04/02 A2992 RMK SC8 SLP132=
CYYG;2005-11-21 10:00;METAR CYYG 211000Z 22006KT 15SM SCT058 OVC068 05/02 A2990 RMK SC4AC4 SLP127=
CYYG;2005-11-21 11:00;METAR CYYG 211100Z 21007KT 15SM OVC070 05/02 A2990 RMK AC8 SLP126=
CYYG;2005-11-21 12:00;METAR CYYG 211200Z 21007KT 15SM OVC062 05/03 A2990 RMK SC8 SLP126=
CYYG;2005-11-21 13:00;METAR CYYG 211300Z 22005KT 15SM OVC061 06/04 A2990 RMK SC8 SLP125=
CYYG;2005-11-21 14:00;METAR CYYG 211400Z 22008KT 15SM OVC064 06/04 A2989 RMK SC8 SLP122=
CYYG;2005-11-21 15:00;METAR CYYG 211500Z 22008KT 15SM OVC064 07/03 A2987 RMK SC8 SLP118=
CYYG;2005-11-21 16:00;METAR CYYG 211600Z 21008KT 15SM OVC061 07/03 A2985 RMK SC8 SLP111=
CYYG;2005-11-21 17:00;METAR CYYG 211700Z 22006KT 15SM OVC064 07/03 A2985 RMK SC8 SLP109=
CYYG;2005-11-21 18:00;METAR CYYG 211800Z 21009KT 15SM OVC065 07/03 A2984 RMK SC8 SLP107=
CYYG;2005-11-21 19:00;METAR CYYG 211900Z 20008KT 15SM OVC068 07/03 A2984 RMK AC8 SLP106=
CYYG;2005-11-21 20:00;METAR CYYG 212000Z 19005KT 15SM OVC072 07/04 A2984 RMK AC8 SLP106=
CYYG;2005-11-21 21:00;METAR CYYG 212100Z 18005KT 15SM OVC070 06/03 A2984 RMK AC8 SLP105=
CYYG;2005-11-21 22:00;METAR CYYG 212200Z 19006KT 15SM OVC067 07/04 A2983 RMK AC8 SLP104=
CYYG;2005-11-21 23:00;METAR CYYG 212300Z 20007KT 15SM OVC065 07/04 A2983 RMK SC8 SLP103=
CYYG;2005-11-22 00:00;METAR CYYG 220000Z 19009KT 15SM OVC068 08/05 A2982 RMK AC8 SLP100=
CYYG;2005-11-22 01:00;METAR CYYG 220100Z 18008KT 15SM SCT067 06/04 A2982 RMK AC4 SLP101=
CYYG;2005-11-22 02:00;METAR CYYG 220200Z 18008KT 15SM FEW067 05/04 A2982 RMK AC2 SLP099=
CYYG;2005-11-22 03:00;METAR CYYG 220300Z 18009KT 15SM FEW067 06/05 A2982 RMK AC1 SLP098=
CYYG;2005-11-22 04:00;METAR CYYG 220400Z 20009KT 15SM FEW067 05/04 A2981 RMK AC1 SLP096=
CYYG;2005-11-22 05:00;METAR CYYG 220500Z 20007KT 15SM FEW070 05/04 A2979 RMK AC2 SLP091=
CYYG;2005-11-22 06:00;METAR CYYG 220600Z 18010KT 15SM FEW070 FEW220 06/05 A2979 RMK AC1CI0 SLP090=
CYYG;2005-11-22 07:00;METAR CYYG 220700Z 18012KT 15SM BKN220 07/05 A2978 RMK CI2 SLP086=
CYYG;2005-11-22 08:00;METAR CYYG 220800Z 17008KT 15SM FEW140 BKN220 06/05 A2977 RMK AC1CI1 SLP083=
CYYG;2005-11-22 09:00;METAR CYYG 220900Z 16008KT 12SM SCT030 BKN090 OVC120 06/06 A2976 RMK SC4AC2AC2 SLP078=
CYYG;2005-11-22 10:00;METAR CYYG 221000Z 15008KT 12SM SCT030 BKN060 OVC070 07/06 A2974 RMK SC4SC2AC2 SLP071=
CYYG;2005-11-22 10:22;SPECI CYYG 221022Z 16010KT 12SM -SHRA SCT030 BKN045 OVC076 07/ RMK SC3SC3AC2=
CYYG;2005-11-22 11:00;METAR CYYG 221100Z 16010KT 12SM -SHRA FEW026 BKN038 OVC070 07/07 A2971 RMK SC2SC6AC1 SLP064=
CYYG;2005-11-22 12:00;METAR CYYG 221200Z 14010G15KT 10SM -SHRA FEW010 BKN030 OVC070 08/08 A2969 RMK SF1SC6AC1 SLP056=
CYYG;2005-11-22 12:51;SPECI CYYG 221251Z 14010KT 10SM -SHRA BKN008 OVC026 09/ RMK SF5SC3=
CYYG;2005-11-22 13:00;METAR CYYG 221300Z 14011G17KT 10SM -RA FEW006 BKN008 OVC026 09/08 A2966 RMK SF1SF5SC2 SLP045=
CYYG;2005-11-22 14:00;METAR CYYG 221400Z 14012KT 12SM -RA BKN009 OVC046 10/09 A2961 RMK SF5SC3 SLP029=
CYYG;2005-11-22 14:35;SPECI CYYG 221435Z 15013G18KT 12SM -RA SCT009 OVC049 10/ RMK SF3SC5=
CYYG;2005-11-22 15:00;METAR CYYG 221500Z 15016KT 12SM -RA FEW009 OVC040 11/10 A2957 RMK SF2SC6 SLP015=
CYYG;2005-11-22 15:45;SPECI CYYG 221545Z 16019G27KT 10SM RA BKN014 OVC040 11/ RMK SC5SC3=
CYYG;2005-11-22 16:00;METAR CYYG 221600Z 15020G26KT 12SM -RA BKN014 OVC040 11/10 A2950 RMK SC6SC2 PRESFR SLP992=
CYYG;2005-11-22 16:36;SPECI CYYG 221636Z 15018G28KT 15SM -RA BKN018 OVC040 11/ RMK SC6SC2=
CYYG;2005-11-22 17:00;METAR CYYG 221700Z 15020G28KT 15SM OVC018 12/11 A2942 RMK SC8 SLP962=
CYYG;2005-11-22 18:00;METAR CYYG 221800Z 15023G30KT 15SM OVC018 13/11 A2939 RMK SC8 SLP952=
CYYG;2005-11-22 19:00;METAR CYYG 221900Z 16023G33KT 15SM OVC018 13/11 A2934 RMK SC8 SLP936=
CYYG;2005-11-22 20:00;METAR CYYG 222000Z 15025G35KT 12SM -SHRA BKN015 OVC023 14/12 A2929 RMK SC6SC2 SLP921=
CYYG;2005-11-22 22:00;METAR CYYG 222200Z 15028G42KT 12SM -SHRA BKN017 OVC025 13/12 A2919 RMK SC5SC3 SLP886=
CYYG;2005-11-22 23:00;METAR CYYG 222300Z 15028G38KT 12SM -SHRA BKN017 OVC024 14/12 A2913 RMK SC5SC3 PRESFR SLP864=
CYYG;2005-11-23 00:13;SPECI CYYG 230013Z 16030G44KT 10SM -SHRA BKN014 OVC024 14/ RMK SC6SC2=
CYYG;2005-11-23 02:00;METAR CYYG 230200Z 16028G44KT 8SM SHRA FEW009 BKN014 OVC020 14/13 A2901 RMK SF1SC6SC2 SLP824=
CYYG;2005-11-23 03:00;METAR CYYG 230300Z 16033G45KT 8SM SHRA FEW009 BKN019 OVC033 13/13 A2898 RMK SF2SC6SC1 SLP813=
CYYG;2005-11-23 05:00;METAR CYYG 230500Z 16021G29KT 12SM -SHRA SCT009 BKN018 OVC090 13/13 A2897 RMK SF3SC3AC2 SLP811=
CYYG;2005-11-23 07:00;METAR CYYG 230700Z 17023G29KT 15SM -SHRA FEW009 BKN018 OVC054 13/12 A2898 RMK SF2SC5SC2 SLP812=
CYYG;2005-11-23 08:31;SPECI CYYG 230831Z 19021G31KT 15SM SCT016 OVC037 12/ RMK SC4SC4=
CYYG;2005-11-23 09:00;METAR CYYG 230900Z 20025G34KT 15SM FEW020 OVC033 11/08 A2904 RMK SC2SC6 PRESRR SLP835=
CYYG;2005-11-23 10:00;METAR CYYG 231000Z 18024G35KT 15SM FEW022 OVC034 10/06 A2907 RMK SC2SC6 SLP846=
CYYG;2005-11-23 11:00;METAR CYYG 231100Z 18022G29KT 15SM FEW024 OVC039 09/05 A2912 RMK SC2SC6 SLP863=
CYYG;2005-11-23 12:00;METAR CYYG 231200Z 19022G29KT 15SM FEW024 BKN042 09/06 A2918 RMK SC2SC6 SLP882=
CYYG;2005-11-23 13:00;METAR CYYG 231300Z 20020G33KT 15SM VCSH FEW024 BKN039 09/05 A2922 RMK SC2SC6 SLP894=
CYYG;2005-11-23 13:12;SPECI CYYG 231312Z 24020G31KT 7SM -SHRA SCT022 BKN038 08/ RMK SC4SC3=
CYYG;2005-11-23 14:00;METAR CYYG 231400Z 21013KT 15SM BKN024 BKN040 07/05 A2925 RMK SC5SC2 SLP906=
CYYG;2005-11-23 15:00;METAR CYYG 231500Z 22015G20KT 15SM FEW018 BKN022 07/04 A2930 RMK SC2SC5 SLP923=
CYYG;2005-11-23 16:00;METAR CYYG 231600Z 22011G16KT 15SM BKN024 08/04 A2930 RMK SC7 SLP923=
CYYG;2005-11-23 17:00;METAR CYYG 231700Z 22012G17KT 15SM BKN030 08/03 A2931 RMK SC7 SLP927=
CYYG;2005-11-23 18:00;METAR CYYG 231800Z 28007KT 15SM BKN033 07/04 A2930 RMK SC7 SLP922=
CYYG;2005-11-23 19:00;METAR CYYG 231900Z 24002KT 15SM OVC033 07/03 A2933 RMK SC8 SLP934=
CYYG;2005-11-23 19:29;SPECI CYYG 231929Z 32002KT 15SM -SHRA OVC027 06/ RMK SC8=
CYYG;2005-11-23 20:00;METAR CYYG 232000Z 32002KT 15SM -SHRA OVC028 06/04 A2931 RMK SC8 SLP926=
CYYG;2005-11-23 21:00;METAR CYYG 232100Z 04003KT 15SM -SHRA OVC025 05/04 A2929 RMK SC8 SLP921=
CYYG;2005-11-23 22:00;METAR CYYG 232200Z 13002KT 12SM -RA OVC022 05/05 A2928 RMK SC8 SLP915=
CYYG;2005-11-23 23:00;METAR CYYG 232300Z 18013KT 8SM RA FEW014 OVC019 05/04 A2929 RMK SC2SC6 SLP921=
CYYG;2005-11-24 00:47;SPECI CYYG 240047Z 25007KT 12SM BKN011 OVC024 03/ RERA RMK SC6SC2=
CYYG;2005-11-24 01:00;METAR CYYG 240100Z 25006KT 15SM OVC011 03/02 A2930 RERA RMK SC8 SLP923=
CYYG;2005-11-24 01:22;SPECI CYYG 240122Z 27005KT 10SM -DZ OVC010 03/ RMK SC8=
CYYG;2005-11-24 02:00;METAR CYYG 240200Z 25005KT 12SM -DZ FEW006 OVC010 03/02 A2934 RMK SF1SC7 SLP936=
CYYG;2005-11-24 02:35;SPECI CYYG 240235Z 24011KT 15SM BKN006 OVC029 03/ RMK SF5SC3=
CYYG;2005-11-24 02:48;SPECI CYYG 240248Z 25009G15KT 10SM -DZ BKN006 OVC013 02/ RMK SF6SC2=
CYYG;2005-11-24 03:38;SPECI CYYG 240338Z 22007KT 15SM SCT008 BKN028 OVC073 03/ RMK SF3SC3AC2=
CYYG;2005-11-24 05:08;SPECI CYYG 240508Z 24010KT 15SM -SHRA FEW008 BKN015 OVC090 03/ RMK SF1SC6AC2=
CYYG;2005-11-24 05:31;SPECI CYYG 240531Z 24006KT 15SM FEW006 BKN019 OVC040 02/ RMK SF1SC5SC2=
CYYG;2005-11-24 07:00;METAR CYYG 240700Z 23008KT 15SM BKN032 02/M01 A2957 RMK SC7 SLP014=
CYYG;2005-11-24 08:00;METAR CYYG 240800Z 23010G16KT 15SM FEW020 BKN034 01/M02 A2963 RMK SC2SC5 PRESRR SLP035=
CYYG;2005-11-24 09:00;METAR CYYG 240900Z 22008KT 15SM BKN026 01/M02 A2966 RMK SC6 SLP047=
CYYG;2005-11-24 10:00;METAR CYYG 241000Z 22004KT 15SM BKN027 BKN037 01/M02 A2971 RMK SC5SC1 SLP062=
CYYG;2005-11-24 11:00;METAR CYYG 241100Z 21008KT 15SM FEW022 BKN032 02/M02 A2974 RMK SC2SC5 SLP074=
CYYG;2005-11-24 12:00;METAR CYYG 241200Z 21007KT 15SM SCT030 BKN250 02/M02 A2978 RMK SC3CI2 SLP085=
CYYG;2005-11-24 13:00;METAR CYYG 241300Z 18009KT 15SM BKN050 03/M01 A2978 RMK SC6 SLP086=
CYYG;2005-11-24 14:00;METAR CYYG 241400Z 16012KT 15SM BKN050 04/M02 A2979 RMK SC5 SLP089=
CYYG;2005-11-24 15:00;METAR CYYG 241500Z 15011KT 15SM FEW050 SCT250 04/M01 A2977 RMK SC2CI2 SLP082=
CYYG;2005-11-24 16:00;METAR CYYG 241600Z 14011KT 15SM FEW050 BKN250 06/01 A2974 RMK SC2CI3 SLP074=
CYYG;2005-11-24 17:00;METAR CYYG 241700Z 14010G15KT 15SM FEW025 BKN075 06/02 A2972 RMK SC2AC6 SLP065=
CYYG;2005-11-24 18:00;METAR CYYG 241800Z 11009KT 15SM FEW025 BKN045 06/02 A2970 RMK SC1SC6 SLP058=
CYYG;2005-11-24 19:00;METAR CYYG 241900Z 10011KT 15SM OVC033 06/03 A2967 RMK SC8 SLP048=
CYYG;2005-11-24 19:05;SPECI CYYG 241905Z 09011KT 15SM -SHRA OVC031 06/ RMK SC8=
CYYG;2005-11-24 20:00;METAR CYYG 242000Z 09014KT 15SM -SHRA OVC036 06/05 A2959 RMK SC8 PRESFR SLP021=
CYYG;2005-11-24 21:00;METAR CYYG 242100Z 11020G25KT 5SM -RA BR SCT019 OVC036 07/06 A2954 RMK SC3SC5 SLP006=
CYYG;2005-11-24 21:49;SPECI CYYG 242149Z 11021G29KT 10SM -RA BKN012 OVC035 07/ RMK SC6SC2=
CYYG;2005-11-24 22:00;METAR CYYG 242200Z 12024G29KT 10SM -RA BKN013 OVC020 07/06 A2946 RMK SC6SC2 PRESFR SLP977=
CYYG;2005-11-24 23:00;METAR CYYG 242300Z 14019G27KT 10SM -RA BKN015 OVC035 09/08 A2943 RMK SC6SC2 SLP969=
CYYG;2005-11-24 23:45;SPECI CYYG 242345Z 16019G25KT 15SM SCT015 SCT040 OVC096 10/ RMK SC3SC1AC4=
CYYG;2005-11-25 00:00;METAR CYYG 250000Z 16021G26KT 15SM FEW015 BKN028 OVC090 11/09 A2944 RMK SC2SC5AC1 SLP972=
CYYG;2005-11-25 00:20;SPECI CYYG 250020Z 17017G24KT 10SM -SHRA SCT015 OVC031 10/ RMK SC3SC5=
CYYG;2005-11-25 01:00;METAR CYYG 250100Z 17022G30KT 15SM -SHRA SCT015 BKN040 OVC110 10/08 A2944 RMK SC3SC2AC2 SLP972=
CYYG;2005-11-25 01:36;SPECI CYYG 250136Z 17023G29KT 15SM FEW015 SCT040 OVC120 10/ RMK SC1SC2AC5=
CYYG;2005-11-25 02:00;METAR CYYG 250200Z 18023G30KT 15SM FEW040 SCT120 10/06 A2950 RMK SC1AC3 SLP990=
CYYG;2005-11-25 03:00;METAR CYYG 250300Z 18021KT 15SM FEW012 BKN066 09/05 A2955 RMK SC1SC5 SLP006=
CYYG;2005-11-25 04:00;METAR CYYG 250400Z 19016G22KT 15SM BKN057 BKN082 09/05 A2956 RMK SC5AC2 SLP012=
CYYG;2005-11-25 05:00;METAR CYYG 250500Z 18013KT 15SM SCT051 BKN100 08/05 A2956 RMK SC3AC2 SLP010=
CYYG;2005-11-25 06:00;METAR CYYG 250600Z 18011KT 15SM FEW025 BKN037 09/05 A2957 RMK SC1SC6 SLP013=
CYYG;2005-11-25 08:00;METAR CYYG NIL=
CYYG;2005-11-25 09:00;METAR CYYG 250900Z 18012KT 15SM OVC037 08/06 A2957 RMK SC8 SLP015=
CYYG;2005-11-25 09:08;SPECI CYYG 250908Z 19011KT 15SM -SHRA OVC037 08/ RMK SC8=
CYYG;2005-11-25 09:32;SPECI CYYG 250932Z 17011KT 15SM BKN032 OVC062 08/ RMK SC6SC2=
CYYG;2005-11-25 10:00;METAR CYYG 251000Z 17012KT 15SM BKN032 OVC050 08/06 A2956 RMK SC5SC3 SLP012=
CYYG;2005-11-25 11:00;METAR CYYG 251100Z 16013G19KT 15SM OVC050 09/07 A2955 RMK SC8 SLP008=
CYYG;2005-11-25 12:00;METAR CYYG 251200Z 19017G22KT 15SM SCT050 BKN073 BKN300 10/07 A2958 RMK SC4AC2CI1 SLP016=
CYYG;2005-11-25 13:00;METAR CYYG 251300Z 20016G21KT 15SM FEW050 FEW075 BKN300 09/06 A2960 RMK SC1AC1CI5 SLP024=
CYYG;2005-11-25 14:00;METAR CYYG 251400Z 21021G28KT 15SM SCT030 BKN051 BKN300 10/05 A2963 RMK SC3SC2CI2 SLP036=
CYYG;2005-11-25 14:30;SPECI CYYG 251430Z 20024G38KT 15SM FEW030 SCT050 BKN061 BKN300 09/ RMK SC1SC2SC2CI2=
CYYG;2005-11-25 15:00;METAR CYYG 251500Z 21028G40KT 15SM SCT035 BKN060 BKN300 09/02 A2964 RMK SC3SC2CI2 SLP037=
CYYG;2005-11-25 15:29;SPECI CYYG 251529Z 25023G36KT 15SM -SHRA BKN040 OVC300 07/ RMK SC5CI3=
CYYG;2005-11-25 16:00;METAR CYYG 251600Z 25019G27KT 10SM -SHRA BKN015 OVC040 04/02 A2971 RMK SC6SC2 PRESRR SLP060=
CYYG;2005-11-25 16:44;SPECI CYYG 251644Z 29016KT 15SM -SHRA BKN012 OVC040 02/ RMK SC7SC1 PRESRR=
CYYG;2005-11-25 17:00;METAR CYYG 251700Z 27015G24KT 15SM -SHRA SCT012 OVC024 01/M02 A2979 RMK SC3SC5 PRESRR SLP088=
CYYG;2005-11-25 17:16;SPECI CYYG 251716Z 27018G25KT 15SM FEW012 BKN024 01/ RMK SC2SC6=
CYYG;2005-11-25 18:00;METAR CYYG 251800Z 26012G20KT 15SM FEW020 BKN035 01/M05 A2986 RMK SC2SC6 PRESRR SLP112=
CYYG;2005-11-25 19:00;METAR CYYG 251900Z 25016G27KT 15SM FEW035 BKN058 BKN300 01/M07 A2991 RMK SC2SC3CI2 PRESRR SLP131=
CYYG;2005-11-25 20:00;METAR CYYG 252000Z 24016G24KT 15SM FEW035 FEW060 BKN300 01/M10 A2997 RMK SC1SC1CI3 PRESRR SLP151=
CYYG;2005-11-25 21:00;METAR CYYG 252100Z 23014G21KT 15SM FEW035 FEW300 M00/M10 A3002 RMK SC1CI1 SLP168=
CYYG;2005-11-25 22:00;METAR CYYG 252200Z 23014G21KT 15SM FEW035 FEW300 M00/M09 A3007 RMK SC1CI1 SLP184=
CYYG;2005-11-25 23:00;METAR CYYG 252300Z 26006KT 15SM FEW035 FEW300 M01/M09 A3012 RMK SC1CI1 SLP200=
CYYG;2005-11-26 00:00;METAR CYYG 260000Z 25006KT 15SM FEW035 M02/M10 A3015 RMK SC1 SLP213=
CYYG;2005-11-26 01:00;METAR CYYG 260100Z 26006KT 15SM SKC M02/M12 A3018 RMK SLP223=
CYYG;2005-11-26 02:00;METAR CYYG 260200Z 25006KT 15SM SKC M02/M13 A3021 RMK SLP233=
CYYG;2005-11-26 03:00;METAR CYYG 260300Z 27006KT 15SM SKC M03/M11 A3024 RMK SLP241=
CYYG;2005-11-26 04:00;METAR CYYG 260400Z 27006KT 15SM SKC M03/M11 A3025 RMK SLP245=
CYYG;2005-11-26 05:00;METAR CYYG 260500Z 24005KT 15SM SKC M04/M10 A3028 RMK SLP255=
CYYG;2005-11-26 06:00;METAR CYYG 260600Z 22003KT 15SM SKC M04/M10 A3031 RMK SLP267=
CYYG;2005-11-26 07:00;METAR CYYG 260700Z 26003KT 15SM SKC M04/M09 A3033 RMK SLP273=
CYYG;2005-11-26 08:00;METAR CYYG 260800Z 25004KT 15SM SKC M05/M09 A3036 RMK SLP282=
CYYG;2005-11-26 09:00;METAR CYYG 260900Z 26004KT 15SM SKC M05/M09 A3036 RMK SLP282=
CYYG;2005-11-26 10:00;METAR CYYG 261000Z 27004KT 15SM SKC M05/M09 A3037 RMK SLP286=
CYYG;2005-11-26 11:00;METAR CYYG 261100Z 27002KT 15SM FEW030 FEW310 M05/M09 A3039 RMK SC1CI0 FROIN SLP293=
CYYG;2005-11-26 12:00;METAR CYYG NIL=
CYYG;2005-11-26 13:00;METAR CYYG 261300Z 00000KT 15SM FEW020 FEW310 M03/M07 A3041 RMK SC1CI1 SLP301=
CYYG;2005-11-26 14:00;METAR CYYG 261400Z 28005KT 15SM FEW020 SCT310 M02/M07 A3043 RMK SC1CI1 SLP306=
CYYG;2005-11-26 15:00;METAR CYYG 261500Z 27003KT 15SM FEW020 SCT310 M01/M07 A3043 RMK SC1CI1 SLP308=
CYYG;2005-11-26 16:00;METAR CYYG 261600Z 25002KT 15SM FEW020 BKN310 00/M07 A3043 RMK SC1CI2 SLP306=
CYYG;2005-11-26 17:00;METAR CYYG 261700Z 28005KT 15SM FEW020 BKN310 01/M07 A3043 RMK SC1CI2 SLP306=
CYYG;2005-11-26 18:00;METAR CYYG 261800Z 27006KT 15SM FEW020 FEW100 BKN300 00/M08 A3041 RMK SC1AC1CI6 SLP301=
CYYG;2005-11-26 19:00;METAR CYYG 261900Z 27003KT 15SM FEW020 FEW100 BKN230 M01/M08 A3042 RMK SC1AC1CS6 SLP304=
CYYG;2005-11-26 20:00;METAR CYYG 262000Z 27002KT 15SM FEW020 FEW100 BKN230 M01/M08 A3043 RMK SC1AC1CS4 SLP307=
CYYG;2005-11-26 21:00;METAR CYYG 262100Z 00000KT 15SM FEW100 BKN230 M02/M09 A3043 RMK AC1CI2 SLP307=
CYYG;2005-11-26 22:00;METAR CYYG 262200Z 00000KT 15SM FEW250 M03/M08 A3044 RMK CI1 SLP310=
CYYG;2005-11-26 23:00;METAR CYYG 262300Z 36002KT 15SM FEW250 M04/M08 A3044 RMK CI1 SLP309=
CYYG;2005-11-27 00:00;METAR CYYG 270000Z 00000KT 15SM BKN095 M04/M08 A3044 RMK AC7 SLP311=
CYYG;2005-11-27 01:00;METAR CYYG 270100Z 07002KT 15SM BKN095 M03/M06 A3043 RMK AC7 SLP308=
CYYG;2005-11-27 02:00;METAR CYYG 270200Z 12003KT 15SM OVC079 M02/M06 A3042 RMK AC8 SLP305=
CYYG;2005-11-27 03:00;METAR CYYG 270300Z 12004KT 15SM OVC077 M02/M06 A3042 RMK AC8 SLP304=
CYYG;2005-11-27 04:00;METAR CYYG 270400Z 13004KT 15SM OVC073 M02/M06 A3041 RMK AC8 SLP300=
CYYG;2005-11-27 05:00;METAR CYYG 270500Z 11004KT 15SM OVC084 M01/M06 A3039 RMK AC8 SLP293=
CYYG;2005-11-27 06:00;METAR CYYG 270600Z 14004KT 15SM OVC080 M01/M07 A3039 RMK AC8 SLP294=
CYYG;2005-11-27 07:00;METAR CYYG 270700Z 12005KT 15SM OVC083 M01/M07 A3038 RMK AC8 SLP290=
CYYG;2005-11-27 08:00;METAR CYYG 270800Z 13004KT 15SM OVC092 M01/M07 A3037 RMK AC8 SLP287=
CYYG;2005-11-27 09:00;METAR CYYG 270900Z 13005KT 15SM SCT049 OVC095 M00/M07 A3036 RMK SC4AC4 SLP282=
CYYG;2005-11-27 09:53;SPECI CYYG 270953Z 14007KT 15SM -SHSN SCT029 OVC038 00/ RMK SC3SC5=
CYYG;2005-11-27 10:00;METAR CYYG 271000Z 14009KT 12SM -SHSN BKN030 OVC040 01/M05 A3035 RMK SC5SC3 SLP279=
CYYG;2005-11-27 11:00;METAR CYYG 271100Z 14007KT 6SM -SN OVC026 01/M03 A3034 RMK SC8 SLP278=
CYYG;2005-11-27 12:00;METAR CYYG 271200Z 15007KT 12SM -SN OVC025 01/M02 A3035 RMK SC8 SLP281=
CYYG;2005-11-27 13:00;METAR CYYG 271300Z 19009KT 15SM -SN OVC017 02/M01 A3034 RMK SC8 SLP276=
CYYG;2005-11-27 13:14;SPECI CYYG 271314Z 21010KT 15SM -RA OVC015 03/ RMK SC8 PCPN VRY LGT=
CYYG;2005-11-27 13:44;SPECI CYYG 271344Z 22008G17KT 15SM BKN012 OVC038 03/ RMK SC7SC1=
CYYG;2005-11-27 14:00;METAR CYYG 271400Z 23008KT 15SM FEW012 FEW040 BKN100 03/01 A3034 RMK SC2SC1AC5 SLP278=
CYYG;2005-11-27 15:00;METAR CYYG 271500Z 27007G15KT 15SM BKN015 BKN030 BKN100 02/M01 A3034 RMK CU5SC2AC1 SLP278=
CYYG;2005-11-27 16:00;METAR CYYG 271600Z 27011KT 15SM BKN016 02/M02 A3033 RMK SC6 SLP275=
CYYG;2005-11-27 17:00;METAR CYYG 271700Z 27013G18KT 15SM BKN025 01/M04 A3034 RMK SC6 SLP278=
CYYG;2005-11-27 18:00;METAR CYYG 271800Z 25011KT 15SM -SHSN BKN018 00/M04 A3036 RMK SC7 SLP283=
CYYG;2005-11-27 18:17;SPECI CYYG 271817Z 24011KT 15SM SCT016 00/ RMK SC3=
CYYG;2005-11-27 18:48;SPECI CYYG 271848Z 27009KT 15SM -SHSN BKN015 01/ RMK SC7=
CYYG;2005-11-27 19:00;METAR CYYG 271900Z 27010KT 15SM -SHSN BKN014 01/M02 A3035 RMK SC7 VIS SW-NW 5 SLP281=
CYYG;2005-11-27 19:47;SPECI CYYG 271947Z 29008KT 15SM -SHSN SCT009 BKN040 01/ RMK SC3SC2=
CYYG;2005-11-27 20:00;METAR CYYG 272000Z 30007KT 15SM -SHSN FEW008 BKN025 01/M01 A3037 RMK SC2SC5 SLP288=
CYYG;2005-11-27 20:23;SPECI CYYG 272023Z 30009KT 1 1/2SM -SHSN FEW008 BKN030 01/ RMK SC2SC6=
CYYG;2005-11-27 20:34;SPECI CYYG 272034Z 33009KT 3/4SM -SHSN OVC007 01/ RMK SN2SC6=
CYYG;2005-11-27 20:52;SPECI CYYG 272052Z 32009G20KT 5/8SM -SHSNGS VV005 M00/ RMK SN8=
CYYG;2005-11-27 21:00;METAR CYYG 272100Z 34011G18KT 3SM -SHSN OVC015 M00/M00 A3041 RMK SC8 SLP302=
CYYG;2005-11-27 21:42;SPECI CYYG 272142Z 34007KT 10SM -SHSN OVC010 00/ RMK SC8=
CYYG;2005-11-27 22:00;METAR CYYG 272200Z 32006KT 10SM -SHSN FEW009 BKN042 00/M01 A3042 RMK SC2SC5 SLP305=
CYYG;2005-11-27 22:48;SPECI CYYG 272248Z 33008G15KT 2SM -SHSN SCT009 OVC040 M00/ RMK SN2SC2SC5=
CYYG;2005-11-27 23:00;METAR CYYG 272300Z 34006G15KT 2SM -SHSN BKN009 OVC040 M00/M01 A3043 RMK SN2SC3SC3 SLP308=
CYYG;2005-11-27 23:40;SPECI CYYG 272340Z 35005G16KT 8SM -SHSN SCT009 OVC043 M00/ RMK SC4SC4=
CYYG;2005-11-28 01:00;METAR CYYG NIL=
CYYG;2005-11-28 01:36;SPECI CYYG 280136Z 35004KT 15SM FEW024 BKN037 M00/ RMK SC2SC5=
CYYG;2005-11-28 02:00;METAR CYYG 280200Z 33005KT 15SM FEW026 BKN036 M01/M03 A3046 RMK SC2SC4 SLP317=
CYYG;2005-11-28 02:13;SPECI CYYG 280213Z 34005KT 12SM -SHSN FEW024 BKN035 M00/ RMK SC2SC5=
CYYG;2005-11-28 03:00;METAR CYYG 280300Z 34006KT 15SM BKN034 M00/M02 A3047 RMK SC6 SLP321=
CYYG;2005-11-28 04:00;METAR CYYG 280400Z 34004KT 15SM BKN036 M00/M03 A3048 RMK SC7 SLP325=
CYYG;2005-11-28 05:00;METAR CYYG 280500Z 35004KT 15SM BKN030 M00/M04 A3047 RMK SC7 SLP322=
CYYG;2005-11-28 06:00;METAR CYYG 280600Z 33003KT 15SM OVC027 M01/M05 A3048 RMK SC8 SLP325=
CYYG;2005-11-28 07:00;METAR CYYG 280700Z 31003KT 15SM SCT027 M02/M05 A3050 RMK SC4 SLP331=
CYYG;2005-11-28 08:00;METAR CYYG 280800Z 27002KT 15SM SCT028 M03/M06 A3050 RMK SC3 SLP331=
CYYG;2005-11-28 09:00;METAR CYYG 280900Z 27005KT 15SM FEW025 M03/M06 A3051 RMK SC2 SLP334=
CYYG;2005-11-28 10:00;METAR CYYG 281000Z 28004KT 15SM FEW025 M04/M06 A3053 RMK SC1 SLP341=
CYYG;2005-11-28 11:00;METAR CYYG NIL=
CYYG;2005-11-28 12:00;METAR CYYG 281200Z 36002KT 15SM FEW028 BKN250 M05/M06 A3056 RMK SC1CI1 SLP351=
CYYG;2005-11-28 13:00;METAR CYYG 281300Z 12002KT 15SM FEW030 FEW080 BKN320 M01/M04 A3055 RMK SC1AC1CI0 SLP347=
CYYG;2005-11-28 14:00;METAR CYYG 281400Z 00000KT 15SM FEW030 BKN076 BKN320 01/M03 A3056 RMK SC1AC6CI1 SLP353=
CYYG;2005-11-28 15:00;METAR CYYG 281500Z 13002KT 15SM FEW030 BKN068 01/M04 A3056 RMK SC1AC7 SLP351=
CYYG;2005-11-28 16:00;METAR CYYG 281600Z 18002KT 15SM FEW030 OVC060 01/M04 A3056 RMK SC1SC8 SLP350=
CYYG;2005-11-28 17:00;METAR CYYG 281700Z 19004KT 15SM FEW030 OVC055 02/M03 A3054 RMK SC1SC8 SLP345=
CYYG;2005-11-28 18:00;METAR CYYG 281800Z 17005KT 15SM FEW030 OVC050 01/M03 A3054 RMK SC1SC8 SLP343=
CYYG;2005-11-28 19:00;METAR CYYG 281900Z 20004KT 15SM FEW020 OVC045 02/M02 A3055 RMK SC1SC7 SLP348=
CYYG;2005-11-28 20:00;METAR CYYG 282000Z 21004KT 15SM OVC045 02/M02 A3056 RMK SC8 SLP351=
CYYG;2005-11-28 21:00;METAR CYYG 282100Z 19002KT 15SM OVC043 02/M02 A3057 RMK SC8 SLP354=
CYYG;2005-11-28 22:00;METAR CYYG 282200Z 18004KT 15SM FEW045 OVC075 01/M02 A3056 RMK SC2AC6 SLP351=
CYYG;2005-11-28 23:00;METAR CYYG 282300Z 21004KT 15SM FEW045 OVC065 02/M02 A3056 RMK SC1SC7 SLP351=
CYYG;2005-11-29 00:00;METAR CYYG 290000Z 18005KT 15SM OVC035 02/M02 A3056 RMK SC8 SLP351=
CYYG;2005-11-29 01:00;METAR CYYG 290100Z 18006KT 15SM BKN038 OVC080 02/M02 A3053 RMK SC6AC2 SLP342=
CYYG;2005-11-29 02:00;METAR CYYG 290200Z 20008KT 15SM BKN041 OVC084 02/M02 A3054 RMK SC6AC2 SLP343=
CYYG;2005-11-29 03:00;METAR CYYG 290300Z 19006KT 15SM OVC037 03/M02 A3055 RMK SC8 SLP346=
CYYG;2005-11-29 09:00;METAR CYYG 290900Z 19007KT 15SM FEW035 OVC043 04/01 A3052 RMK SC2SC6 SLP337=
CYYG;2005-11-29 10:00;METAR CYYG 291000Z 19008KT 15SM FEW035 OVC046 04/01 A3053 RMK SC1SC7 SLP340=
CYYG;2005-11-29 11:00;METAR CYYG 291100Z 16007KT 15SM BKN050 04/01 A3052 RMK SC7 SLP339=
CYYG;2005-11-29 12:00;METAR CYYG 291200Z 18009KT 15SM BKN050 BKN100 BKN300 04/01 A3052 RMK SC5AC2CI0 SLP337=
CYYG;2005-11-29 13:00;METAR CYYG 291300Z 18011KT 15SM FEW050 BKN110 BKN300 05/02 A3052 RMK SC1AC6CI0 SLP337=
CYYG;2005-11-29 14:00;METAR CYYG 291400Z 18012KT 15SM FEW050 BKN110 BKN300 06/02 A3052 RMK SC1AC6CI1 SLP338=
CYYG;2005-11-29 15:00;METAR CYYG 291500Z 18010KT 15SM FEW050 BKN110 BKN300 06/02 A3050 RMK SC1AC6CI0 SLP330=
CYYG;2005-11-29 16:00;METAR CYYG 291600Z 18011KT 15SM FEW110 BKN330 07/02 A3048 RMK AC2CI0 SLP324=
CYYG;2005-11-29 17:00;METAR CYYG 291700Z 19011KT 15SM FEW110 BKN330 08/02 A3047 RMK AC1CI1 CONTRAILS SLP319=
CYYG;2005-11-29 18:00;METAR CYYG 291800Z 18012KT 15SM FEW110 BKN330 09/03 A3044 RMK AC1CI1 CONTRAILS SLP308=
CYYG;2005-11-29 19:00;METAR CYYG 291900Z 18010KT 15SM BKN330 09/03 A3043 RMK CI1 CONTRAILS SLP305=
CYYG;2005-11-29 20:00;METAR CYYG 292000Z 18008KT 15SM BKN330 07/03 A3042 RMK CI2 CONTRAILS SLP303=
CYYG;2005-11-29 21:00;METAR CYYG 292100Z 18009KT 15SM BKN330 07/03 A3042 RMK CI2 SLP304=
CYYG;2005-11-29 22:00;METAR CYYG 292200Z 20011KT 15SM BKN330 07/04 A3042 RMK CI2 SLP303=
CYYG;2005-11-29 23:00;METAR CYYG 292300Z 19010KT 15SM BKN330 06/04 A3042 RMK CI1 SLP303=
CYYG;2005-11-30 00:00;METAR CYYG 300000Z 18011KT 15SM FEW330 06/03 A3042 RMK CI0 SLP302=
CYYG;2005-11-30 01:00;METAR CYYG 300100Z 18010KT 15SM FEW330 06/04 A3041 RMK CI0 SLP301=
CYYG;2005-11-30 02:00;METAR CYYG 300200Z 17008KT 15SM FEW320 05/04 A3040 RMK CI0 SLP297=
CYYG;2005-11-30 03:00;METAR CYYG 300300Z 17010KT 15SM FEW310 05/04 A3039 RMK CI0 SLP292=
CYYG;2005-11-30 04:00;METAR CYYG 300400Z 18007KT 12SM FEW007 05/05 A3038 RMK SF1 SLP288=
CYYG;2005-11-30 04:28;SPECI CYYG 300428Z 19008KT 12SM BKN008 06/ RMK SF5=
CYYG;2005-11-30 05:00;METAR CYYG 300500Z 19010KT 12SM BKN008 06/05 A3035 RMK SF6 SLP278=
CYYG;2005-11-30 06:00;METAR CYYG 300600Z 19008KT 10SM OVC009 06/05 A3034 RMK SF8 SLP276=
CYYG;2005-11-30 07:00;METAR CYYG 300700Z 18014KT 10SM OVC009 06/05 A3031 RMK SF8 SLP266=
CYYG;2005-11-30 09:00;METAR CYYG 300900Z 17005KT 15SM SCT008 05/05 A3030 RMK SC4 SLP261=
CYYG;2005-11-30 10:00;METAR CYYG 301000Z 18010KT 15SM SCT009 05/05 A3029 RMK SC3 SLP260=
CYYG;2005-11-30 10:34;SPECI CYYG 301034Z 16007KT 15SM BKN011 06/ RMK SC5=
CYYG;2005-11-30 11:00;METAR CYYG 301100Z 17008KT 15SM SCT011 BKN130 05/04 A3030 RMK SC3AC2 SLP263=
CYYG;2005-11-30 12:00;METAR CYYG 301200Z 14008KT 15SM FEW011 BKN250 05/05 A3029 RMK SC2CI4 SLP258=
CYYG;2005-11-30 12:48;SPECI CYYG 301248Z 18011KT 15SM BKN012 06/ RMK SC7=
CYYG;2005-11-30 13:00;METAR CYYG 301300Z 17010KT 15SM OVC011 07/06 A3028 RMK SC8 SLP254=
CYYG;2005-11-30 13:24;SPECI CYYG 301324Z 18016KT 15SM OVC008 07/ RMK SC8=
CYYG;2005-11-30 14:00;METAR CYYG 301400Z 17016KT 15SM OVC008 07/06 A3026 RMK SC8 SLP250=
CYYG;2005-11-30 15:00;METAR CYYG 301500Z 18014KT 15SM OVC008 08/07 A3023 RMK SC8 SLP240=
CYYG;2005-11-30 16:00;METAR CYYG 301600Z 17010G15KT 15SM OVC007 09/07 A3022 RMK SC8 SLP234=
CYYG;2005-11-30 16:49;SPECI CYYG 301649Z 17014KT 15SM BKN011 09/ RMK SC7=
CYYG;2005-11-30 17:00;METAR CYYG 301700Z 18015KT 15SM BKN012 BKN250 10/08 A3018 RMK SC6CI1 SLP222=
CYYG;2005-11-30 17:43;SPECI CYYG 301743Z 18013KT 15SM SCT012 BKN250 10/ RMK SC3CI2=
CYYG;2005-11-30 18:00;METAR CYYG 301800Z 17015KT 15SM SCT012 BKN250 10/08 A3014 RMK SC3CI2 SLP208=
CYYG;2005-11-30 19:00;METAR CYYG 301900Z 17014G19KT 15SM FEW012 BKN250 10/08 A3013 RMK SC2CI2 SLP205=
CYYG;2005-11-30 20:00;METAR CYYG 302000Z 16011KT 15SM BKN250 09/07 A3013 RMK CI4 SLP203=
CYYG;2005-11-30 21:00;METAR CYYG 302100Z 15009KT 15SM BKN250 09/07 A3012 RMK CI4 SLP201=
CYYG;2005-11-30 22:00;METAR CYYG 302200Z 16011KT 15SM SCT250 09/07 A3011 RMK CI4 SLP198=
CYYG;2005-11-30 23:00;METAR CYYG 302300Z 16014KT 15SM BKN250 08/07 A3011 RMK CI5 SLP198=
CYYG;2005-12-01 00:00;METAR CYYG 010000Z 17012KT 15SM BKN250 08/06 A3012 RMK CI5 SLP201=
CYYG;2005-12-01 01:00;METAR CYYG 010100Z 14009KT 15SM OVC250 07/06 A3011 RMK CI6 SLP197=
CYYG;2005-12-01 02:00;METAR CYYG 010200Z 16013KT 15SM FEW050 OVC250 08/06 A3009 RMK SC2CI4 SLP190=
CYYG;2005-12-01 03:00;METAR CYYG 010300Z 17013G18KT 15SM SCT052 OVC250 08/07 A3007 RMK SC4CI4 SLP185=
CYYG;2005-12-01 04:00;METAR CYYG 010400Z 16014KT 15SM BKN059 OVC250 08/07 A3005 RMK SC5CI3 SLP178=
CYYG;2005-12-01 05:00;METAR CYYG 010500Z 16013G19KT 15SM -DZ FEW011 OVC059 08/07 A3004 RMK SC2SC6 SLP172=
CYYG;2005-12-01 06:00;METAR CYYG 010600Z 15012KT 15SM -DZ FEW011 OVC059 08/07 A3002 RMK SC2SC6 SLP167=
CYYG;2005-12-01 07:00;METAR CYYG 010700Z 16011KT 15SM -DZ OVC061 08/07 A3001 RMK SC8 SLP165=
CYYG;2005-12-01 08:00;METAR CYYG 010800Z 16011KT 15SM -DZ BKN040 OVC060 08/07 A3000 RMK SC6SC2 SLP161=
CYYG;2005-12-01 09:00;METAR CYYG 010900Z 15007KT 15SM -DZ OVC040 08/07 A2999 RMK SC8 SLP157=
CYYG;2005-12-01 10:00;METAR CYYG 011000Z 16011KT 15SM -DZ BKN035 OVC060 08/07 A2997 RMK SC6SC2 SLP149=
CYYG;2005-12-01 10:36;SPECI CYYG 011036Z 15013KT 15SM FEW035 SCT060 08/ RMK SC2SC2=
CYYG;2005-12-01 12:00;METAR CYYG 011200Z 17013KT 15SM BKN035 BKN250 08/07 A2996 RMK SC5CI2 SLP146=
CYYG;2005-12-01 12:27;SPECI CYYG 011227Z 17013KT 15SM -SHRA BKN031 BKN250 09/ RMK SC6CI1=
CYYG;2005-12-01 13:00;METAR CYYG 011300Z 17013KT 15SM -SHRA BKN031 OVC100 08/07 A2996 RMK SC6CI2 SLP145=
CYYG;2005-12-01 14:00;METAR CYYG 011400Z 17012KT 10SM -SHRA OVC028 08/08 A2996 RMK SC8 SLP147=
CYYG;2005-12-01 15:00;METAR CYYG 011500Z 17010KT 6SM -SHRA BR OVC030 09/08 A2995 RMK SC8 SLP144=
CYYG;2005-12-01 15:32;SPECI CYYG 011532Z 17010KT 3SM -DZ BR FEW003 OVC019 09/ RMK SF2SC6=
CYYG;2005-12-01 16:00;METAR CYYG 011600Z 17010KT 5SM -DZ BR FEW003 OVC019 09/09 A2993 RMK SF2SC6 SLP138=
CYYG;2005-12-01 16:16;SPECI CYYG 011616Z 17010KT 2SM -DZ BR BKN003 OVC019 09/ RMK SF6SC2=
CYYG;2005-12-01 16:33;SPECI CYYG 011633Z 16011KT 1 1/2SM -DZ BR OVC002 09/ RMK SF8=
CYYG;2005-12-01 17:00;METAR CYYG 011700Z 16009KT 1 1/2SM -DZ BR OVC002 09/09 A2991 RMK SF8 SLP130=
CYYG;2005-12-01 18:00;METAR CYYG 011800Z 17009KT 1 1/4SM -DZ BR VV002 09/09 A2990 RMK FG8 SLP127=
CYYG;2005-12-01 19:00;METAR CYYG 011900Z 17008KT 1 1/4SM -DZ BR VV002 09/09 A2989 RMK FG8 SLP123=
CYYG;2005-12-01 20:00;METAR CYYG 012000Z 34006KT 1 1/4SM -DZ BR VV002 06/06 A2988 RMK FG8 SLP121=
CYYG;2005-12-01 20:30;SPECI CYYG 012030Z 34004KT 1 1/4SM -RA BR VV003 06/ RMK FG8=
CYYG;2005-12-01 21:00;METAR CYYG 012100Z 35003KT 1 1/4SM -RA BR VV003 06/06 A2987 RMK FG8 SLP118=
CYYG;2005-12-01 21:47;SPECI CYYG 012147Z 36006KT 4SM -RA BR BKN003 OVC030 06/ RMK SF7SC1=
CYYG;2005-12-01 22:00;METAR CYYG 012200Z 35005KT 7SM -DZ OVC003 06/05 A2987 RMK SF8 SLP116=
CYYG;2005-12-01 22:27;SPECI CYYG 012227Z 36005KT 6SM BR OVC003 05/ RMK SF8=
CYYG;2005-12-01 22:43;SPECI CYYG 012243Z 01005KT 3SM BR OVC004 05/ RMK SF8=
CYYG;2005-12-01 23:00;METAR CYYG 012300Z 01004KT 2SM BR BKN003 OVC022 05/05 A2986 RMK SF6SC2 SLP113=
CYYG;2005-12-02 00:00;METAR CYYG 020000Z 35002KT 1SM BR OVC002 06/06 A2985 RMK SF8 SLP111=
CYYG;2005-12-02 00:47;SPECI CYYG 020047Z 00000KT 6SM BR SCT002 OVC031 06/ RMK SF2SC6=
CYYG;2005-12-02 01:00;METAR CYYG 020100Z 00000KT 6SM BR FEW002 OVC030 06/06 A2984 RMK SF2SC6 SLP105=
CYYG;2005-12-02 02:00;METAR CYYG 020200Z 14005KT 15SM OVC032 07/07 A2981 RMK SC8 SLP096=
CYYG;2005-12-02 03:00;METAR CYYG 020300Z 14007KT 15SM BKN034 OVC045 08/07 A2979 RMK SC5SC3 SLP090=
CYYG;2005-12-02 04:00;METAR CYYG 020400Z 13009KT 15SM BKN035 OVC050 07/07 A2975 RMK SC5SC3 SLP077=
CYYG;2005-12-02 05:00;METAR CYYG 020500Z 13007KT 15SM FEW006 BKN060 OVC180 07/06 A2974 RMK SF2SC2AC2 SLP072=
CYYG;2005-12-02 06:00;METAR CYYG 020600Z 14010KT 15SM BKN004 OVC060 07/06 A2972 RMK SF6SC2 SLP065=
CYYG;2005-12-02 06:43;SPECI CYYG 020643Z 14009KT 15SM -DZ OVC004 07/ RMK SF8=
CYYG;2005-12-02 07:00;METAR CYYG 020700Z 13009KT 15SM -DZ OVC004 07/07 A2970 RMK SF8 SLP060=
CYYG;2005-12-02 08:00;METAR CYYG 020800Z 13010KT 15SM -DZ OVC004 08/07 A2968 RMK SF8 SLP053=
CYYG;2005-12-02 08:43;SPECI CYYG 020843Z 12011KT 3SM -DZ BR OVC002 08/ RMK SF8=
CYYG;2005-12-02 09:00;METAR CYYG 020900Z 12012G18KT 1SM -DZ BR OVC001 07/07 A2965 RMK SF8 SLP041=
CYYG;2005-12-02 09:48;SPECI CYYG 020948Z 13015KT 3SM -DZ BR OVC003 08/ RMK SF8=
CYYG;2005-12-02 10:00;METAR CYYG 021000Z 13014G19KT 10SM -DZ OVC007 08/08 A2961 RMK SF8 SLP030=
CYYG;2005-12-02 11:00;METAR CYYG 021100Z 12016KT 15SM OVC006 08/07 A2959 RMK SF8 SLP022=
CYYG;2005-12-02 12:00;METAR CYYG 021200Z 13018G26KT 15SM OVC006 07/07 A2957 RMK SF8 SLP013=
CYYG;2005-12-02 13:00;METAR CYYG 021300Z 13017G26KT 15SM OVC008 08/07 A2954 RMK SC8 SLP004=
CYYG;2005-12-02 13:36;SPECI CYYG 021336Z 12017G25KT 15SM FEW007 BKN010 08/ RMK SF1SC6=
CYYG;2005-12-02 14:00;METAR CYYG 021400Z 11014G24KT 15SM OVC010 08/07 A2951 RMK SC8 SLP993=
CYYG;2005-12-02 14:47;SPECI CYYG 021447Z 14016G21KT 15SM OVC008 08/ RMK SC8=
CYYG;2005-12-02 15:00;METAR CYYG 021500Z 13014G21KT 15SM OVC008 08/07 A2948 RMK SC8 SLP985=
CYYG;2005-12-02 15:02;SPECI CYYG 021502Z 13013G22KT 15SM -RA OVC007 08/ RMK SC8=
CYYG;2005-12-02 16:00;METAR CYYG 021600Z 12019G25KT 10SM -RA OVC006 08/08 A2940 RERA RMK SF8 PRESFR SLP956=
CYYG;2005-12-02 16:44;SPECI CYYG 021644Z 14014G19KT 2SM -RA BR OVC006 08/ RMK SF8=
CYYG;2005-12-02 17:00;METAR CYYG 021700Z 14015G20KT 2SM RA BR OVC005 08/08 A2939 RMK SF8 SLP952=
CYYG;2005-12-02 17:04;SPECI CYYG 021704Z 14015KT 15SM -RA FEW003 OVC005 08/ RERA RMK SF2SF6=
CYYG;2005-12-02 18:00;METAR CYYG 021800Z 15014G19KT 5SM -RA BR BKN004 OVC007 09/08 A2936 RERA RMK SF5SF3 SLP944=
CYYG;2005-12-02 18:43;SPECI CYYG 021843Z 15012G17KT 4SM -RA BR BKN003 OVC005 09/ RMK SF6SF2=
CYYG;2005-12-02 19:00;METAR CYYG 021900Z 16013KT 5SM -RA BR BKN003 OVC018 09/09 A2937 RMK SF7SC1 SLP946=
CYYG;2005-12-02 20:00;METAR CYYG 022000Z 17013KT 15SM -RA BKN004 BKN200 09/09 A2937 RMK SF6CI2 SLP947=
CYYG;2005-12-02 20:34;SPECI CYYG 022034Z 21012G19KT 15SM BKN003 BKN013 BKN100 09/ RMK SF5SC1AC2=
CYYG;2005-12-02 20:38;SPECI CYYG 022038Z 22009G19KT 15SM FEW003 SCT006 BKN016 BKN100 09/ RMK SF2SF2SC2AC2=
CYYG;2005-12-02 21:00;METAR CYYG 022100Z 23004KT 15SM FEW006 BKN029 08/08 A2940 RMK SF1SC6 SLP956=
CYYG;2005-12-02 22:00;METAR CYYG 022200Z 19008KT 15SM FEW029 BKN110 07/06 A2941 RMK SC2AC3 SLP959=
CYYG;2005-12-02 23:00;METAR CYYG 022300Z 19007KT 15SM FEW040 BKN110 06/04 A2940 RMK SC2AC2 SLP958=
CYYG;2005-12-03 00:00;METAR CYYG 030000Z 18011KT 15SM FEW040 SCT110 06/05 A2940 RMK SC2AC2 SLP958=
CYYG;2005-12-03 01:00;METAR CYYG 030100Z 19014KT 15SM SCT035 SCT110 07/05 A2941 RMK SC3AC1 SLP961=
CYYG;2005-12-03 02:00;METAR CYYG 030200Z 20009KT 15SM FEW035 SCT110 05/04 A2942 RMK SC2AC1 SLP962=
CYYG;2005-12-03 03:00;METAR CYYG 030300Z 19011KT 15SM FEW035 SCT059 06/04 A2942 RMK SC2SC2 SLP965=
CYYG;2005-12-03 04:00;METAR CYYG 030400Z 18008KT 15SM FEW035 SCT060 04/03 A2942 RMK SC2SC2 SLP962=
CYYG;2005-12-03 05:00;METAR CYYG 030500Z 19010KT 15SM FEW040 SCT060 05/02 A2941 RMK SC2SC2 SLP960=
CYYG;2005-12-03 06:00;METAR CYYG 030600Z 19010KT 15SM FEW030 SCT062 04/01 A2941 RMK SC2SC2 SLP959=
CYYG;2005-12-03 07:00;METAR CYYG 030700Z 20012KT 15SM FEW030 SCT060 04/01 A2941 RMK SC2SC2 SLP960=
CYYG;2005-12-03 08:00;METAR CYYG 030800Z 21007KT 15SM FEW030 FEW062 03/01 A2940 RMK SC1SC1 SLP958=
CYYG;2005-12-03 09:00;METAR CYYG 030900Z 20010KT 15SM FEW030 03/01 A2941 RMK SC1 SLP959=
CYYG;2005-12-03 10:00;METAR CYYG 031000Z 21007KT 15SM FEW030 03/00 A2940 RMK SC1 SLP957=
CYYG;2005-12-03 11:00;METAR CYYG 031100Z 18008KT 15SM FEW030 SCT300 02/00 A2942 RMK SC1CI1 SLP963=
CYYG;2005-12-03 12:00;METAR CYYG 031200Z 20006KT 15SM FEW022 SCT300 02/M00 A2943 RMK SC1CI1 SLP968=
CYYG;2005-12-03 13:00;METAR CYYG 031300Z 22010KT 15SM FEW015 BKN021 BKN300 03/00 A2944 RMK CU1SC4CI1 SLP970=
CYYG;2005-12-03 14:00;METAR CYYG 031400Z 23013KT 15SM SCT012 BKN300 04/01 A2946 RMK SC3CI0 SLP976=
CYYG;2005-12-03 14:36;SPECI CYYG 031436Z 25009G18KT 15SM BKN013 BKN300 04/ RMK SC6CI0=
CYYG;2005-12-03 15:00;METAR CYYG 031500Z 24009G15KT 15SM SCT014 BKN300 04/01 A2946 RMK SC3CI0 SLP976=
CYYG;2005-12-03 16:00;METAR CYYG 031600Z 27012G17KT 15SM FEW015 SCT300 04/00 A2946 RMK SC2CI0 SLP978=
CYYG;2005-12-03 17:00;METAR CYYG 031700Z 27012G19KT 15SM BKN028 03/M02 A2947 RMK SC6 SLP981=
CYYG;2005-12-03 18:00;METAR CYYG 031800Z 26012G18KT 15SM FEW023 BKN037 02/M03 A2947 RMK SC2SC4 SLP983=
CYYG;2005-12-03 19:00;METAR CYYG 031900Z 24014G19KT 15SM BKN026 01/M05 A2950 RMK SC7 SLP991=
CYYG;2005-12-03 20:00;METAR CYYG 032000Z 27013KT 15SM BKN029 00/M06 A2952 RMK SC7 SLP000=
CYYG;2005-12-03 21:00;METAR CYYG 032100Z 26012G17KT 15SM SCT028 M01/M07 A2954 RMK SC3 SLP006=
CYYG;2005-12-03 22:00;METAR CYYG 032200Z 26010KT 15SM BKN031 M01/M06 A2955 RMK SC6 SLP010=
CYYG;2005-12-03 23:00;METAR CYYG 032300Z 27012G19KT 15SM BKN036 M01/M08 A2958 RMK SC6 SLP018=
CYYG;2005-12-04 00:00;METAR CYYG 040000Z 25013G18KT 15SM BKN040 M01/M08 A2960 RMK SC6 SLP024=
CYYG;2005-12-04 00:18;SPECI CYYG 040018Z 26014G19KT 15SM BKN040 M01/ RMK SC7=
CYYG;2005-12-04 01:00;METAR CYYG 040100Z 26013G21KT 15SM -SHSN BKN037 M02/M08 A2962 RMK SC7 SLP032=
CYYG;2005-12-04 02:00;METAR CYYG 040200Z 26013G21KT 15SM BKN038 M02/M09 A2964 RMK SC7 SLP038=
CYYG;2005-12-04 03:00;METAR CYYG 040300Z 26012G17KT 15SM OVC031 M02/M09 A2965 RMK SC8 SLP043=
CYYG;2005-12-04 04:00;METAR CYYG 040400Z 28014G20KT 15SM OVC031 M03/M09 A2967 RMK SC8 SLP048=
CYYG;2005-12-04 05:00;METAR CYYG 040500Z 27016G25KT 15SM BKN026 M04/M11 A2967 RMK SC6 SLP050=
CYYG;2005-12-04 06:00;METAR CYYG 040600Z 26017KT 15SM BKN030 M04/M10 A2969 RMK SC6 SLP056=
CYYG;2005-12-04 07:00;METAR CYYG 040700Z 27017KT 15SM BKN035 M03/M10 A2971 RMK SC7 SLP062=
CYYG;2005-12-04 08:00;METAR CYYG 040800Z 26012G21KT 15SM OVC036 M04/M10 A2971 RMK SC8 SLP065=
CYYG;2005-12-04 09:00;METAR CYYG 040900Z 26012G21KT 15SM BKN036 M04/M10 A2973 RMK SC6 SLP071=
CYYG;2005-12-04 10:00;METAR CYYG 041000Z 26011G20KT 15SM BKN040 M04/M11 A2974 RMK SC7 SLP074=
CYYG;2005-12-04 11:00;METAR CYYG 041100Z 25014G24KT 15SM -SHSN BKN040 M04/M11 A2975 RMK SC6 SLP076=
CYYG;2005-12-04 12:00;METAR CYYG 041200Z 25014G21KT 15SM -SHSN FEW033 M04/M11 A2977 RMK SC2 SLP083=
CYYG;2005-12-04 13:00;METAR CYYG 041300Z 25018G25KT 15SM -SHSN SCT037 M04/M11 A2979 RMK SC3 SLP089=
CYYG;2005-12-04 14:00;METAR CYYG 041400Z 25016KT 15SM VCSH FEW034 M03/M11 A2979 RMK SC2 SLP092=
CYYG;2005-12-04 15:00;METAR CYYG 041500Z 25018G24KT 15SM FEW033 M03/M11 A2978 RMK SC2 SLP088=
CYYG;2005-12-04 16:00;METAR CYYG 041600Z 25013G19KT 15SM FEW034 FEW300 M02/M10 A2975 RMK SC2CI0 SLP077=
CYYG;2005-12-04 17:00;METAR CYYG 041700Z 25015G20KT 15SM FEW031 BKN290 M01/M09 A2975 RMK CU2CI1 SLP076=
CYYG;2005-12-04 18:00;METAR CYYG 041800Z 24017G22KT 15SM FEW032 BKN290 M01/M09 A2974 RMK CU2CI1 SLP074=
CYYG;2005-12-04 19:00;METAR CYYG 041900Z 24016G22KT 15SM FEW032 BKN260 M01/M09 A2975 RMK CU1CS2 SLP076=
CYYG;2005-12-04 20:00;METAR CYYG 042000Z 25008G15KT 15SM FEW032 BKN110 BKN260 M01/M08 A2974 RMK SC1AS5CS2 SLP075=
CYYG;2005-12-04 21:00;METAR CYYG 042100Z 24011KT 15SM FEW032 BKN100 M00/M09 A2974 RMK SC1AS6 SLP074=
CYYG;2005-12-04 22:00;METAR CYYG 042200Z 24006KT 15SM FEW032 OVC088 M00/M08 A2972 RMK SC1AS7 SLP068=
CYYG;2005-12-04 23:00;METAR CYYG 042300Z 23009KT 15SM OVC070 M00/M08 A2971 RMK AS8 SLP062=
CYYG;2005-12-05 00:00;METAR CYYG 050000Z 23007KT 15SM FEW075 OVC120 M00/M07 A2970 RMK AC2AS6 SLP059=
CYYG;2005-12-05 01:00;METAR CYYG 050100Z 25008KT 15SM OVC045 00/M07 A2967 RMK SC8 SLP051=
CYYG;2005-12-05 01:45;SPECI CYYG 050145Z 26007KT 12SM -SHSN OVC038 M00/ RMK SC8=
CYYG;2005-12-05 02:00;METAR CYYG 050200Z 27007KT 15SM OVC037 M01/M08 A2967 RMK SC8 OCNL -SHSN SLP049=
CYYG;2005-12-05 02:10;SPECI CYYG 050210Z 27008KT 15SM OVC037 M01/ RMK SC8=
CYYG;2005-12-05 02:42;SPECI CYYG 050242Z 26010G16KT 12SM -SHSN OVC037 M01/ RMK SC8=
CYYG;2005-12-05 03:00;METAR CYYG 050300Z 27010KT 12SM -SHSN OVC037 M01/M09 A2967 RMK SC8 SLP050=
CYYG;2005-12-05 04:00;METAR CYYG 050400Z 28011KT 10SM -SHSN OVC040 M02/M08 A2966 RMK SC8 SLP047=
CYYG;2005-12-05 05:00;METAR CYYG 050500Z 27011G17KT 5SM -SN OVC035 M03/M07 A2966 RMK SC8 SLP046=
CYYG;2005-12-05 05:39;SPECI CYYG 050539Z 28012KT 15SM BKN040 OVC120 M03/ RMK SC6AC2=
CYYG;2005-12-05 06:00;METAR CYYG 050600Z 28009G15KT 10SM -SHSN BKN040 OVC120 M03/M08 A2967 RMK SC6AC2 SLP049=
CYYG;2005-12-05 07:00;METAR CYYG 050700Z 28011KT 10SM -SHSN BKN040 OVC130 M03/M08 A2967 RMK SC6AC2 SLP051=
CYYG;2005-12-05 08:00;METAR CYYG 050800Z 28012G22KT 12SM -SHSN OVC037 M03/M09 A2968 RMK SC8 SLP053=
CYYG;2005-12-05 08:30;SPECI CYYG 050830Z 29013G20KT 15SM OVC033 M03/ RMK SC8=
CYYG;2005-12-05 09:00;METAR CYYG 050900Z 28013G22KT 15SM BKN033 M03/M09 A2969 RMK SC6 SLP056=
CYYG;2005-12-05 10:00;METAR CYYG 051000Z 27012G22KT 15SM FEW033 M04/M09 A2970 RMK SC2 SLP059=
CYYG;2005-12-05 11:00;METAR CYYG 051100Z 27015G25KT 15SM FEW033 M03/M09 A2971 RMK SC2 SLP063=
CYYG;2005-12-05 12:00;METAR CYYG 051200Z 29016G24KT 15SM SCT029 M03/M09 A2973 RMK SC3 SLP071=
CYYG;2005-12-05 13:00;METAR CYYG 051300Z 27021G28KT 15SM SCT028 M03/M09 A2975 RMK SC3 SLP077=
CYYG;2005-12-05 14:00;METAR CYYG 051400Z 28022G29KT 15SM FEW028 M03/M12 A2978 RMK SC2 SLP086=
CYYG;2005-12-05 15:00;METAR CYYG 051500Z 27017G32KT 15SM FEW028 M03/M12 A2978 RMK SC2 VIRGA ALQDS SLP087=
CYYG;2005-12-05 16:00;METAR CYYG 051600Z 28021G29KT 15SM FEW034 M01/M12 A2978 RMK SC2 VIRGA ALQDS SLP087=
CYYG;2005-12-05 17:00;METAR CYYG 051700Z 27025G34KT 15SM FEW038 M01/M12 A2978 RMK SC2 VIRGA ALQDS SLP086=
CYYG;2005-12-05 18:00;METAR CYYG 051800Z 26021G29KT 15SM FEW043 M01/M12 A2978 RMK SC2 VIRGA ALQDS SLP088=
CYYG;2005-12-05 19:00;METAR CYYG 051900Z 27022G31KT 15SM FEW045 M01/M12 A2980 RMK SC2 VIRGA=
CYYG;2005-12-05 20:00;METAR CYYG 052000Z 27020G30KT 15SM FEW045 M01/M12 A2982 RMK SC2 SLP101=
CYYG;2005-12-05 21:00;METAR CYYG 052100Z 26016G28KT 15SM FEW045 M01/M12 A2985 RMK SC1 SLP110=
CYYG;2005-12-05 22:00;METAR CYYG 052200Z 27016G27KT 15SM FEW045 M01/M12 A2987 RMK SC1 SLP116=
CYYG;2005-12-05 23:00;METAR CYYG 052300Z 27017KT 15SM FEW045 M01/M12 A2987 RMK SC1 SLP118=
CYYG;2005-12-06 00:00;METAR CYYG 060000Z 28016G24KT 15SM FEW045 M02/M12 A2988 RMK SC1 SLP122=
CYYG;2005-12-06 01:00;METAR CYYG 060100Z 27019G29KT 15SM FEW045 M02/M12 A2989 RMK SC1 SLP125=
CYYG;2005-12-06 02:00;METAR CYYG 060200Z 27018G25KT 15SM FEW045 M02/M12 A2992 RMK SC1 SLP135=
CYYG;2005-12-06 03:00;METAR CYYG 060300Z 27014G24KT 15SM FEW045 M03/M12 A2994 RMK SC1 SLP140=
CYYG;2005-12-06 04:00;METAR CYYG 060400Z 27014G21KT 15SM FEW045 FEW280 M03/M12 A2995 RMK SC1CI0 SLP143=
CYYG;2005-12-06 05:00;METAR CYYG 060500Z 28010KT 15SM FEW045 FEW280 M04/M11 A2994 RMK SC1CI0 SLP142=
CYYG;2005-12-06 06:00;METAR CYYG 060600Z 27007KT 15SM FEW045 FEW280 M04/M11 A2995 RMK SC1CI0 SLP143=
CYYG;2005-12-06 07:00;METAR CYYG 060700Z 27008KT 15SM FEW045 FEW280 M05/M11 A2995 RMK SC1CI0 SLP144=
CYYG;2005-12-06 09:00;METAR CYYG 060900Z 29006KT 15SM FEW045 SCT200 M06/M10 A2991 RMK SC1CI2 SLP132=
CYYG;2005-12-06 10:00;METAR CYYG 061000Z 27005KT 15SM FEW045 SCT200 M05/M11 A2990 RMK SC1CI2 SLP128=
CYYG;2005-12-06 11:00;METAR CYYG 061100Z 24004KT 15SM FEW045 FEW200 M06/M10 A2990 RMK SC1CI1 SLP128=
CYYG;2005-12-06 12:00;METAR CYYG 061200Z 28005KT 15SM FEW045 BKN200 M06/M10 A2989 RMK SC1CI2 SLP124=
CYYG;2005-12-06 13:00;METAR CYYG 061300Z 26004KT 15SM FEW045 FEW150 BKN200 M05/M10 A2990 RMK SC1AS2CI3 SLP127=
CYYG;2005-12-06 14:00;METAR CYYG 061400Z 27006KT 15SM FEW040 FEW120 BKN150 BKN200 M04/M10 A2988 RMK SC1AC1AS3CI2 SLP122=
CYYG;2005-12-06 15:00;METAR CYYG 061500Z 29008KT 15SM FEW040 FEW120 OVC150 M04/M10 A2984 RMK SC1AC2AS5 SLP106=
CYYG;2005-12-06 16:00;METAR CYYG 061600Z 29006KT 15SM FEW040 FEW120 BKN150 BKN200 M04/M10 A2980 RMK SC1AC1AS3CI1 SLP094=
CYYG;2005-12-06 17:00;METAR CYYG 061700Z 32006KT 15SM FEW040 FEW120 SCT150 OVC250 M04/M10 A2974 RMK SC1AC2AS2CI2 PRESFR SLP073=
CYYG;2005-12-06 18:00;METAR CYYG 061800Z 32005KT 15SM FEW040 FEW100 SCT150 OVC250 M04/M11 A2971 RMK SC1AC1AS2CI3 SLP064=
CYYG;2005-12-06 19:00;METAR CYYG 061900Z 29006KT 15SM FEW040 BKN110 M04/M11 A2971 RMK SC1AS6 SLP063=
CYYG;2005-12-06 20:00;METAR CYYG 062000Z 29005KT 15SM FEW040 BKN100 M04/M11 A2971 RMK SC1AS6 SLP065=
CYYG;2005-12-06 21:00;METAR CYYG 062100Z 28008KT 15SM FEW040 BKN100 M05/M11 A2972 RMK SC1AS6 SLP066=
CYYG;2005-12-06 22:00;METAR CYYG 062200Z 29007KT 15SM FEW040 OVC098 M05/M11 A2972 RMK SC1AS7 SLP068=
CYYG;2005-12-06 23:00;METAR CYYG 062300Z 29007KT 15SM FEW040 OVC120 M05/M10 A2970 RMK SC1AS8 MOON DIMLY VIS SLP059=
CYYG;2005-12-07 00:00;METAR CYYG 070000Z 29008KT 15SM FEW040 OVC110 M05/M10 A2970 RMK SC1AS8 SLP059=
CYYG;2005-12-07 01:00;METAR CYYG 070100Z 28008KT 15SM FEW040 OVC110 M04/M11 A2969 RMK SC1AS8 MOON DIMLY VIS SLP057=
CYYG;2005-12-07 02:00;METAR CYYG 070200Z 29011KT 15SM FEW040 OVC110 M04/M11 A2969 RMK SC1AS6 SLP057=
CYYG;2005-12-07 03:00;METAR CYYG 070300Z 29015KT 15SM FEW040 OVC100 M05/M12 A2969 RMK SC1AS7 SLP056=
CYYG;2005-12-07 04:00;METAR CYYG 070400Z 29012G18KT 15SM FEW040 BKN110 M06/M12 A2970 RMK SC1AS3 SLP060=
CYYG;2005-12-07 05:00;METAR CYYG 070500Z 29012G20KT 15SM FEW040 SCT160 M06/M12 A2970 RMK SC1AS0 SLP061=
CYYG;2005-12-07 06:00;METAR CYYG 070600Z 28009KT 15SM SCT022 M07/M12 A2971 RMK SC3 SLP064=
CYYG;2005-12-07 07:00;METAR CYYG 070700Z 29010KT 15SM FEW022 M07/M12 A2972 RMK SC2 SLP066=
CYYG;2005-12-07 08:00;METAR CYYG 070800Z 29012G17KT 15SM FEW022 M07/M12 A2973 RMK SC1 SLP069=
CYYG;2005-12-07 09:00;METAR CYYG 070900Z 29010G17KT 15SM FEW030 M07/M13 A2973 RMK SC1 SLP070=
CYYG;2005-12-07 10:00;METAR CYYG 071000Z 28012G19KT 15SM FEW030 M07/M12 A2974 RMK SC1 SLP073=
CYYG;2005-12-07 11:00;METAR CYYG 071100Z 28014G24KT 15SM FEW025 FEW270 M07/M13 A2974 RMK SC1CI1 CLD OVR WTR SHSN ASOCTD SLP074=
CYYG;2005-12-07 12:00;METAR CYYG 071200Z 28014G24KT 15SM FEW025 FEW270 M07/M13 A2975 RMK SC1CI1 SLP076=
CYYG;2005-12-07 13:00;METAR CYYG 071300Z 29019G24KT 15SM -SHSN FEW025 FEW270 M07/M12 A2976 RMK SC2CI1 SLP080=
CYYG;2005-12-07 14:00;METAR CYYG 071400Z 29018G25KT 15SM -SHSN FEW025 M06/M13 A2977 RMK SC2 SLP082=
CYYG;2005-12-07 15:00;METAR CYYG 071500Z 28015G24KT 15SM FEW025 M06/M13 A2976 RMK SC2 SLP081=
CYYG;2005-12-07 16:00;METAR CYYG 071600Z 27013G20KT 15SM FEW030 M06/M12 A2976 RMK SC2 SLP080=
CYYG;2005-12-07 16:06;SPECI CYYG 071606Z 28016G21KT 15SM -SHSN SCT030 M06/ RMK SC3=
CYYG;2005-12-07 17:00;METAR CYYG 071700Z 23017G22KT 15SM -SHSN SCT033 M05/M14 A2974 RMK SC4 SLP074=
CYYG;2005-12-07 18:00;METAR CYYG 071800Z 27012G28KT 15SM BKN031 M05/M13 A2975 RMK SC5 SLP077=
CYYG;2005-12-07 19:00;METAR CYYG 071900Z 28014G22KT 15SM -SHSN SCT030 BKN050 M06/M14 A2977 RMK SC3SC2 SLP084=
CYYG;2005-12-07 20:00;METAR CYYG 072000Z 29015G20KT 15SM FEW030 SCT046 M06/M16 A2978 RMK SC2SC2 SLP088=
CYYG;2005-12-07 21:00;METAR CYYG 072100Z 29011G16KT 15SM FEW050 M07/M16 A2981 RMK SC2 SLP099=
CYYG;2005-12-07 22:00;METAR CYYG 072200Z 29010G16KT 15SM FEW043 M07/M16 A2984 RMK SC2 SLP108=
CYYG;2005-12-07 23:00;METAR CYYG 072300Z 29012G17KT 15SM FEW040 M07/M15 A2987 RMK SC2 SLP118=
CYYG;2005-12-08 00:00;METAR CYYG 080000Z 30010KT 15SM BKN037 M07/M15 A2989 RMK SC6 SLP124=
CYYG;2005-12-08 01:00;METAR CYYG 080100Z 28009G17KT 15SM BKN040 M08/M15 A2990 RMK SC5 SLP128=
CYYG;2005-12-08 02:00;METAR CYYG 080200Z 27010KT 15SM BKN038 M08/M14 A2991 RMK SC6 SLP132=
CYYG;2005-12-08 03:00;METAR CYYG 080300Z 28013KT 15SM -SHSN BKN034 M07/M13 A2992 RMK SC6 SLP136=
CYYG;2005-12-08 04:00;METAR CYYG 080400Z 27010G16KT 15SM -SHSN BKN029 M07/M12 A2995 RMK SC6 SLP144=
CYYG;2005-12-08 05:00;METAR CYYG 080500Z 27013G19KT 15SM -SHSN OVC028 M07/M12 A2996 RMK SC8 SLP150=
CYYG;2005-12-08 06:00;METAR CYYG 080600Z 28012KT 15SM -SHSN OVC027 M07/M12 A2999 RMK SC8 SLP158=
CYYG;2005-12-08 07:00;METAR CYYG 080700Z 28010G17KT 15SM -SHSN BKN023 OVC049 M07/M12 A3002 RMK SC6SC2 SLP168=
CYYG;2005-12-08 08:00;METAR CYYG 080800Z 27010G15KT 15SM -SHSN FEW023 BKN049 M07/M11 A3004 RMK SC2SC4 SLP174=
CYYG;2005-12-08 09:00;METAR CYYG 080900Z 29013G19KT 15SM -SHSN OVC027 M05/M09 A3006 RMK SC8 SLP181=
CYYG;2005-12-08 10:00;METAR CYYG 081000Z 29014G20KT 15SM -SHSN OVC027 M05/M07 A3008 RMK SC8 SLP190=
CYYG;2005-12-08 11:00;METAR CYYG 081100Z 29013KT 15SM -SHSN OVC024 M03/M07 A3012 RMK SC8 SLP204=
CYYG;2005-12-08 12:00;METAR CYYG 081200Z 28013KT 15SM -SHSN OVC023 M04/M07 A3016 RMK SC8 SLP217=
CYYG;2005-12-08 13:00;METAR CYYG 081300Z 29010G17KT 15SM -SHSN OVC028 M04/M07 A3020 RMK SC8 SLP229=
CYYG;2005-12-08 14:00;METAR CYYG 081400Z 30010G16KT 15SM OVC029 M03/M07 A3023 RMK SC8 SLP238=
CYYG;2005-12-08 14:32;SPECI CYYG 081432Z 29010KT 15SM -SHSN OVC034 M02/ RMK SC8=
CYYG;2005-12-08 15:00;METAR CYYG 081500Z 29008KT 15SM -SHSN OVC034 M02/M08 A3025 RMK SC8 SLP245=
CYYG;2005-12-08 16:00;METAR CYYG 081600Z 31014KT 15SM -SHSN OVC031 M02/M09 A3025 RMK SC8 SLP247=
CYYG;2005-12-08 17:00;METAR CYYG 081700Z 31010G18KT 15SM -SHSN OVC029 M02/M09 A3025 RMK SC8 SLP247=
CYYG;2005-12-08 18:00;METAR CYYG 081800Z 32010G16KT 15SM -SHSN BKN024 M03/M09 A3026 RMK SC6 SLP251=
CYYG;2005-12-08 18:31;SPECI CYYG 081831Z 30010KT 15SM FEW024 FEW300 M03/ RMK SC2CI0=
CYYG;2005-12-08 19:00;METAR CYYG 081900Z 29008KT 15SM FEW024 FEW300 M03/M10 A3027 RMK SC2CI0 SLP253=
CYYG;2005-12-08 20:00;METAR CYYG 082000Z 26009KT 15SM FEW025 FEW300 M04/M11 A3030 RMK SC1CI0 SLP262=
CYYG;2005-12-08 21:00;METAR CYYG 082100Z 27005KT 15SM FEW025 FEW300 M06/M11 A3031 RMK SC1CI0 SLP267=
CYYG;2005-12-08 22:00;METAR CYYG 082200Z 27005KT 15SM FEW025 M06/M12 A3032 RMK SC1 SLP270=
CYYG;2005-12-08 23:00;METAR CYYG 082300Z 30005KT 15SM SKC M06/M13 A3032 RMK SLP271=
CYYG;2005-12-09 00:00;METAR CYYG 090000Z 29008KT 15SM SKC M06/M13 A3033 RMK SLP272=
CYYG;2005-12-09 01:00;METAR CYYG 090100Z 28006KT 15SM SKC M06/M13 A3032 RMK SLP271=
CYYG;2005-12-09 02:00;METAR CYYG 090200Z 31008KT 15SM FEW025 M07/M13 A3033 RMK SC1 SLP272=
CYYG;2005-12-09 03:00;METAR CYYG 090300Z 31005KT 15SM FEW025 M08/M13 A3033 RMK SC1 SLP272=
CYYG;2005-12-09 04:00;METAR CYYG 090400Z 30006KT 15SM FEW025 M08/M13 A3032 RMK SC1 SLP269=
CYYG;2005-12-09 05:00;METAR CYYG 090500Z 25006KT 15SM FEW025 M09/M13 A3032 RMK SC1 SLP270=
CYYG;2005-12-09 06:00;METAR CYYG 090600Z 27005KT 15SM SKC M09/M13 A3033 RMK SLP273=
CYYG;2005-12-09 07:00;METAR CYYG 090700Z 27005KT 15SM SKC M10/M13 A3032 RMK SLP270=
CYYG;2005-12-09 08:00;METAR CYYG 090800Z 25005KT 15SM -SHSN FEW023 M09/M12 A3031 RMK SC2 SLP268=
CYYG;2005-12-09 08:49;SPECI CYYG 090849Z 25006KT 15SM FEW023 M08/ RMK SC1=
CYYG;2005-12-09 09:00;METAR CYYG 090900Z 25005KT 15SM FEW023 M09/M13 A3028 RMK SC1 SLP259=
CYYG;2005-12-09 10:00;METAR CYYG 091000Z 25006KT 15SM FEW023 M09/M13 A3028 RMK SC1 SLP257=
CYYG;2005-12-09 11:00;METAR CYYG 091100Z 24005KT 15SM FEW023 M10/M13 A3026 RMK SC1 SLP251=
CYYG;2005-12-09 12:00;METAR CYYG 091200Z 25006KT 15SM FEW023 M10/M13 A3026 RMK SC1 SLP252=
CYYG;2005-12-09 13:00;METAR CYYG 091300Z 24004KT 15SM FEW023 FEW300 M08/M12 A3023 RMK SC1CI0 SLP240=
CYYG;2005-12-09 14:00;METAR CYYG 091400Z 25010KT 15SM FEW025 BKN300 M06/M12 A3020 RMK SC1CI2 SLP232=
CYYG;2005-12-09 15:00;METAR CYYG 091500Z 24012G17KT 15SM FEW025 BKN300 M05/M11 A3019 RMK SC1CI3 SLP227=
CYYG;2005-12-09 16:00;METAR CYYG 091600Z 23010G17KT 15SM FEW025 BKN250 M05/M11 A3014 RMK SC1CI5 SLP211=
CYYG;2005-12-09 17:00;METAR CYYG 091700Z 22010KT 15SM FEW025 OVC250 M04/M08 A3008 RMK SC1CI7 PRESFR SLP190=
CYYG;2005-12-09 18:00;METAR CYYG 091800Z 20011KT 15SM FEW030 BKN110 OVC200 M02/M07 A3003 RMK SC2AC3CI2 PRESFR SLP171=
CYYG;2005-12-09 19:00;METAR CYYG 091900Z 20009KT 15SM FEW030 BKN080 OVC200 M02/M06 A2998 RMK SC2AC3CI2 SLP155=
CYYG;2005-12-09 20:00;METAR CYYG 092000Z 19009KT 15SM SCT026 BKN080 OVC200 M01/M05 A2992 RMK SC4AC2CI2 PRESFR SLP135=
CYYG;2005-12-09 20:17;SPECI CYYG 092017Z 19011KT 15SM -SHSN BKN025 OVC080 M01/ RMK SC6AC2=
CYYG;2005-12-09 21:00;METAR CYYG 092100Z 19007KT 8SM -SHSN FEW015 OVC025 M01/M03 A2990 RMK SC2SC6 SLP127=
CYYG;2005-12-09 22:00;METAR CYYG 092200Z 18006KT 6SM -SHSN OVC016 M01/M02 A2986 RMK SN3SC5 SLP116=
CYYG;2005-12-09 22:19;SPECI CYYG 092219Z 18005KT 3SM -SHSN BKN005 OVC016 M01/ RMK SN2SF5SC1=
CYYG;2005-12-09 22:52;SPECI CYYG 092252Z 17007KT 2SM -SN BKN003 OVC009 M01/ RMK SF6SF2=
CYYG;2005-12-09 23:00;METAR CYYG 092300Z 17008KT 2SM -SN BKN003 OVC007 M01/M01 A2982 RMK SF6SF2 /S01/ SLP103=
CYYG;2005-12-09 23:44;SPECI CYYG 092344Z 15005KT 3SM -SN BKN003 OVC007 M01/ RMK SF5SF3=
CYYG;2005-12-10 00:00;METAR CYYG 100000Z 13005KT 2SM -SN BKN002 OVC007 M01/M01 A2977 RMK SF6SF2 /S02/ SLP084=
CYYG;2005-12-10 01:00;METAR CYYG 100100Z 12005KT 3SM -SN OVC003 M01/M01 A2970 RMK SF8 PRESFR SLP060=
CYYG;2005-12-10 02:00;METAR CYYG 100200Z 08007KT 5SM -SN BKN002 OVC024 M01/M01 A2962 RMK SF6SC2 PRESFR SLP034=
CYYG;2005-12-10 02:48;SPECI CYYG 100248Z 08006KT 3SM -SN FEW002 OVC008 M01/ RMK SF2SF6=
CYYG;2005-12-10 03:00;METAR CYYG 100300Z 08006KT 3SM -SN FEW003 OVC006 M01/M01 A2958 RMK SF2SF6 /S01/ SLP021=
CYYG;2005-12-10 04:00;METAR CYYG 100400Z 06008KT 10SM -SN OVC003 M00/M00 A2953 RMK SF8 SLP002=
CYYG;2005-12-10 05:00;METAR CYYG 100500Z 03008KT 15SM -SN BKN006 BKN008 OVC053 M00/M01 A2950 RMK SF5SF2SC2 SLP994=
CYYG;2005-12-10 06:00;METAR CYYG 100600Z 02010KT 15SM -SN FEW006 OVC040 M00/M01 A2948 RMK SF2SC6 SLP986=
CYYG;2005-12-10 07:00;METAR CYYG 100700Z 36008KT 10SM -SN BKN012 OVC038 00/M00 A2950 RMK SF6SC2 SLP990=
CYYG;2005-12-10 07:24;SPECI CYYG 100724Z 35009KT 3SM -SN BKN005 BKN012 OVC038 00/ RMK SF5SF2SC2=
CYYG;2005-12-10 07:29;SPECI CYYG 100729Z 34015G24KT 1SM -SN BLSN OVC004 M00/ RMK SN2SF6 RVR RWY03 5000 FT=
CYYG;2005-12-10 07:40;SPECI CYYG 100740Z 35017G25KT 1/2SM -SN BLSN VV003 M01/ RMK SN8 RVR RWY03 1600 FT=
CYYG;2005-12-10 07:48;SPECI CYYG 100748Z 34014G22KT 3SM -SN BLSN OVC007 M01/ RMK SF8=
CYYG;2005-12-10 08:00;METAR CYYG 100800Z 35016G22KT 10SM -SN DRSN OVC008 M01/M02 A2952 REBLSN RMK SF8 SLP999=
CYYG;2005-12-10 08:37;SPECI CYYG 100837Z 34013G21KT 15SM DRSN FEW008 OVC013 M01/ RMK SF2SC6=
CYYG;2005-12-10 09:04;SPECI CYYG 100904Z 34012G22KT 15SM -SN DRSN OVC011 M01/ RMK SC8=
CYYG;2005-12-10 10:00;METAR CYYG 101000Z 34012G18KT 10SM -SN DRSN FEW008 OVC015 M02/M04 A2960 RMK SF2SC6 SLP024=
CYYG;2005-12-10 11:00;METAR CYYG 101100Z 34010G16KT 12SM -SN DRSN OVC020 M02/M05 A2963 RMK SC8 /S01/ SLP034=
CYYG;2005-12-10 11:26;SPECI CYYG 101126Z 33013G18KT 15SM DRSN OVC022 M02/ RMK SC8=
CYYG;2005-12-10 12:00;METAR CYYG 101200Z 33013G19KT 12SM DRSN OVC025 M02/M06 A2967 RMK SC8 SLP051=
CYYG;2005-12-10 12:08;SPECI CYYG 101208Z 33010G17KT 10SM -SHSN DRSN OVC025 M02/ RMK SC8=
CYYG;2005-12-10 13:00;METAR CYYG 101300Z 32009G18KT 10SM -SHSN DRSN BKN025 M02/M07 A2972 RMK SC7 SLP066=
CYYG;2005-12-10 13:44;SPECI CYYG 101344Z 31011G18KT 2SM -SHSN DRSN BKN025 M03/ RMK SC7=
CYYG;2005-12-10 14:00;METAR CYYG 101400Z 31008G15KT 4SM -SHSN DRSN BKN025 M03/M06 A2976 RMK SC7 CU ASOCTD SLP079=
CYYG;2005-12-10 15:00;METAR CYYG 101500Z 30011G17KT 15SM -SHSN DRSN BKN025 M03/M06 A2977 RMK SC6 CU ASOCTD SLP082=
CYYG;2005-12-10 15:33;SPECI CYYG 101533Z 30014G19KT 15SM DRSN VCSH SCT018 M03/ RMK SC3=
CYYG;2005-12-10 16:00;METAR CYYG 101600Z 31012G18KT 15SM DRSN FEW018 FEW300 M03/M07 A2978 RMK SC2CI1 SLP087=
CYYG;2005-12-10 17:00;METAR CYYG 101700Z 32008KT 15SM SCT018 BKN300 M03/M07 A2977 RMK SC4CI0 SLP082=
CYYG;2005-12-10 18:00;METAR CYYG 101800Z 32009KT 15SM FEW018 BKN310 M03/M08 A2976 RMK SC2CI2 CONTRAILS SLP081=
CYYG;2005-12-10 19:00;METAR CYYG 101900Z 28009KT 15SM BKN022 BKN310 M03/M07 A2982 RMK SC6CI0 CONTRAILS SLP099=
CYYG;2005-12-10 20:00;METAR CYYG 102000Z 26008KT 15SM FEW022 SCT310 M04/M08 A2986 RMK SC1CI0 CONTRAILS SLP115=
CYYG;2005-12-10 21:00;METAR CYYG 102100Z 26004KT 15SM FEW022 FEW330 M05/M08 A2987 RMK SC1CI1 SLP118=
CYYG;2005-12-10 22:00;METAR CYYG 102200Z 26006KT 15SM FEW022 BKN330 M05/M08 A2989 RMK SC1CI2 SLP124=
CYYG;2005-12-10 23:00;METAR CYYG 102300Z 25005KT 15SM FEW020 FEW150 BKN330 M05/M08 A2990 RMK SC1AC1CI2 SLP128=
CYYG;2005-12-11 00:00;METAR CYYG 110000Z 22003KT 15SM FEW020 FEW150 FEW330 M05/M09 A2990 RMK SC1AC1CI0 SLP127=
CYYG;2005-12-11 02:00;METAR CYYG 110200Z 15004KT 15SM FEW150 BKN300 M07/M08 A2987 RMK AC1CI1 SLP117=
CYYG;2005-12-11 04:00;METAR CYYG 110400Z 19007KT 15SM FEW140 OVC200 M03/M04 A2985 RMK AC1CI4 SLP112=
CYYG;2005-12-11 05:00;METAR CYYG 110500Z 18009KT 15SM FEW035 BKN060 OVC110 M01/M04 A2984 RMK SC2SC2AC3 SLP108=
CYYG;2005-12-11 06:00;METAR CYYG 110600Z 18009KT 15SM BKN028 OVC045 M01/M03 A2984 RMK SC5SC3 SLP108=
CYYG;2005-12-11 08:00;METAR CYYG 110800Z 18011KT 15SM FEW028 OVC051 01/M02 A2978 RMK SC2SC6 SLP086=
CYYG;2005-12-11 09:00;METAR CYYG 110900Z 17015KT 15SM FEW025 OVC055 01/M01 A2976 RMK SC1SC7 SLP080=
CYYG;2005-12-11 10:00;METAR CYYG 111000Z 18017KT 15SM FEW025 OVC053 01/M01 A2976 RMK SC1SC7 SLP080=
CYYG;2005-12-11 11:00;METAR CYYG 111100Z 18017KT 15SM BKN053 BKN160 02/00 A2976 RMK SC5AS2 SLP081=
CYYG;2005-12-11 12:00;METAR CYYG 111200Z 18015KT 15SM FEW035 FEW055 OVC170 03/01 A2977 RMK SC1CU1AS7 SLP084=
CYYG;2005-12-11 13:00;METAR CYYG 111300Z 17012KT 15SM FEW022 BKN070 BKN170 02/01 A2974 RMK SC2AC3AC2 SLP073=
CYYG;2005-12-11 14:00;METAR CYYG 111400Z 15009KT 15SM FEW020 BKN035 OVC170 03/01 A2972 RMK SC1SC7AC1 SLP066=
CYYG;2005-12-11 15:00;METAR CYYG 111500Z 16013KT 12SM BKN045 BKN070 03/02 A2970 RMK SC5AC2 SLP059=
CYYG;2005-12-11 16:00;METAR CYYG 111600Z 15014G19KT 12SM SCT030 OVC045 04/02 A2964 RMK SC3SC5 SLP041=
CYYG;2005-12-11 16:06;SPECI CYYG 111606Z 16017G24KT 10SM -SHRA BKN030 OVC045 04/ RMK SC6SC2=
CYYG;2005-12-11 17:00;METAR CYYG 111700Z 16014G20KT 8SM -RA FEW012 OVC028 04/03 A2960 RMK SC2SC6 SLP028=
CYYG;2005-12-11 17:50;SPECI CYYG 111750Z 14013KT 4SM -RA BR FEW004 OVC018 04/ RMK SF2SC6=
CYYG;2005-12-11 18:00;METAR CYYG 111800Z 14012KT 3SM -RA BR SCT005 OVC018 04/04 A2954 RERA RMK SF3SC5 PRESFR SLP005=
CYYG;2005-12-11 18:15;SPECI CYYG 111815Z 14010KT 4SM -RA BR FEW004 OVC008 04/ RMK SF2SF6=
CYYG;2005-12-11 19:00;METAR CYYG 111900Z 13012G17KT 5SM RA BR FEW004 OVC007 04/04 A2948 RMK SF2SF6 PRESFR SLP984=
CYYG;2005-12-11 19:24;SPECI CYYG 111924Z 14012KT 5SM RA BR BKN005 OVC010 05/ RMK SF6SC2=
CYYG;2005-12-11 20:00;METAR CYYG 112000Z 14013KT 10SM -RA OVC005 05/05 A2942 RERA RMK SF8 SLP966=
CYYG;2005-12-11 21:00;METAR CYYG 112100Z 15012KT 6SM -RA BR BKN005 OVC014 06/06 A2939 RMK SF7SC1 SLP952=
CYYG;2005-12-11 21:18;SPECI CYYG 112118Z 20006KT 6SM -RA BR OVC004 06/ RERA RMK SF8=
CYYG;2005-12-11 21:25;SPECI CYYG 112125Z 26011KT 6SM -RA BR OVC004 06/ RERA RMK SF8 WSHFT 2115=
CYYG;2005-12-11 22:00;METAR CYYG 112200Z 18009KT 3SM -RADZ BR BKN004 OVC020 06/06 A2939 RERA RMK SF7SC1 SLP953=
CYYG;2005-12-11 22:18;SPECI CYYG 112218Z 16007KT 2SM -DZ BR BKN002 OVC010 06/ RMK SF7SC1=
CYYG;2005-12-11 22:40;SPECI CYYG 112240Z 18004KT 6SM BR FEW001 OVC020 06/ RMK SF2SC6=
CYYG;2005-12-11 23:00;METAR CYYG 112300Z 22005KT 8SM VCFG FEW002 OVC022 06/06 A2937 RMK SF1SC7 VIS SW-NW 1 SLP948=
CYYG;2005-12-11 23:17;SPECI CYYG 112317Z 22003KT 1SM BR OVC016 06/ RMK FG2SC6=
CYYG;2005-12-12 00:00;METAR CYYG 120000Z 22006KT 10SM FEW008 OVC015 06/05 A2937 RMK SF2SC6 SLP948=
CYYG;2005-12-12 01:00;METAR CYYG 120100Z 25006KT 8SM BKN008 OVC030 05/05 A2938 RMK SF5SC3 SLP950=
CYYG;2005-12-12 02:46;SPECI CYYG 120246Z 25005KT 8SM SCT006 OVC020 03/ RMK SF3SC5=
CYYG;2005-12-12 03:00;METAR CYYG 120300Z 23004KT 8SM FEW006 OVC020 03/02 A2943 RMK SF2SC6 SLP968=
CYYG;2005-12-12 03:20;SPECI CYYG 120320Z 22004KT 10SM FEW006 OVC022 02/ RMK SF2SC6=
CYYG;2005-12-12 04:00;METAR CYYG 120400Z 23003KT 10SM FEW007 BKN021 OVC032 02/02 A2945 RMK SF1SC4SC2 SLP976=
CYYG;2005-12-12 05:00;METAR CYYG 120500Z 25005KT 10SM FEW007 OVC023 02/01 A2946 RMK SF2SC6 SLP977=
CYYG;2005-12-12 06:00;METAR CYYG 120600Z 26006KT 10SM FEW006 OVC026 01/M00 A2950 RMK SF2SC6 SLP990=
CYYG;2005-12-12 08:00;METAR CYYG 120800Z 29004KT 15SM FEW025 FEW250 M01/M03 A2952 RMK SC1CI0 SLP997=
CYYG;2005-12-12 09:00;METAR CYYG 120900Z 27003KT 15SM FEW025 FEW250 M01/M03 A2953 RMK SC1CI0 SLP003=
CYYG;2005-12-12 10:00;METAR CYYG 121000Z 26005KT 15SM FEW025 SCT250 M02/M03 A2955 RMK SC1CI0 SLP007=
CYYG;2005-12-12 11:00;METAR CYYG 121100Z 27004KT 15SM FEW025 SCT250 M02/M04 A2957 RMK SC1CI1 SLP014=
CYYG;2005-12-12 12:00;METAR CYYG 121200Z 26003KT 15SM SCT250 M02/M04 A2957 RMK CI2 SLP015=
CYYG;2005-12-12 13:00;METAR CYYG 121300Z 26004KT 15SM SCT250 M02/M03 A2958 RMK CS3 SLP019=
CYYG;2005-12-12 14:00;METAR CYYG 121400Z 27003KT 10SM SCT250 M02/M03 A2958 RMK CS3 HAZY SLP020=
CYYG;2005-12-12 15:00;METAR CYYG 121500Z 28004KT 15SM FEW250 M00/M02 A2957 RMK CS2 SLP014=
CYYG;2005-12-12 16:00;METAR CYYG 121600Z 24005KT 15SM FEW250 01/M03 A2955 RMK CI1 SLP010=
CYYG;2005-12-12 17:00;METAR CYYG 121700Z 25004KT 15SM BKN080 OVC250 01/M03 A2956 RMK AC6CI1 SLP013=
CYYG;2005-12-12 18:00;METAR CYYG 121800Z 26004KT 15SM BKN084 OVC250 01/M03 A2958 RMK AC7CI1 SLP019=
CYYG;2005-12-12 19:00;METAR CYYG 121900Z 28004KT 15SM OVC078 M00/M05 A2959 RMK AC8 SLP021=
CYYG;2005-12-12 20:00;METAR CYYG 122000Z 26004KT 15SM OVC063 M01/M04 A2962 RMK SC8 SLP032=
CYYG;2005-12-12 22:00;METAR CYYG 122200Z 27003KT 15SM BKN060 OVC120 M01/M05 A2966 RMK SC6AC2 SLP046=
CYYG;2005-12-12 23:00;METAR CYYG 122300Z 24003KT 15SM SCT050 BKN110 M02/M04 A2969 RMK SC4AC3 SLP056=
CYYG;2005-12-13 00:00;METAR CYYG 130000Z 23004KT 15SM SCT050 BKN100 M01/M04 A2971 RMK SC3AC4 SLP064=
CYYG;2005-12-13 01:00;METAR CYYG 130100Z 25003KT 15SM FEW050 BKN090 M01/M03 A2974 RMK SC2AC6 SLP072=
CYYG;2005-12-13 02:00;METAR CYYG 130200Z 23003KT 15SM FEW065 BKN090 BKN130 M01/M04 A2976 RMK SC2AC4AC2 SLP079=
CYYG;2005-12-13 03:00;METAR CYYG 130300Z 24004KT 15SM FEW060 SCT090 OVC120 M02/M03 A2978 RMK SC2AC2AC4 SLP087=
CYYG;2005-12-13 04:00;METAR CYYG 130400Z 27003KT 15SM FEW060 SCT080 OVC120 M01/M04 A2979 RMK SC2AC2AC4 SLP091=
CYYG;2005-12-13 05:00;METAR CYYG 130500Z 00000KT 15SM -SHSN BKN003 OVC080 M02/M03 A2981 RMK SC6AC2 SLP097=
CYYG;2005-12-13 06:00;METAR CYYG 130600Z 33002KT 15SM -SHSN OVC028 M02/M03 A2984 RMK SC8 SLP106=
CYYG;2005-12-13 07:00;METAR CYYG 130700Z 32002KT 15SM -SHSN OVC025 M01/M03 A2986 RMK SC8 SLP114=
CYYG;2005-12-13 08:00;METAR CYYG 130800Z 33004KT 15SM OVC024 M01/M02 A2988 RMK SC8 SLP121=
CYYG;2005-12-13 09:00;METAR CYYG 130900Z 34009KT 15SM -SHSN FEW007 OVC022 M02/M03 A2992 RMK SF2SC6 SLP133=
CYYG;2005-12-13 09:19;SPECI CYYG 130919Z 34008KT 12SM -SHSN BKN008 OVC022 M03/ RMK SF5SC3=
CYYG;2005-12-13 10:00;METAR CYYG 131000Z 34008KT 15SM -SHSN BKN010 OVC023 M03/M05 A2995 RMK SC6SC2 SLP145=
CYYG;2005-12-13 10:32;SPECI CYYG 131032Z 34010G15KT 15SM -SHSN BKN011 OVC023 M04/ RMK SC5SC3=
CYYG;2005-12-13 10:51;SPECI CYYG 131051Z 33010KT 15SM BKN012 OVC023 M04/ RMK SC5SC3=
CYYG;2005-12-13 11:00;METAR CYYG 131100Z 34010KT 15SM BKN012 OVC023 M04/M06 A2998 RMK SC5SC3 SLP156=
CYYG;2005-12-13 12:00;METAR CYYG 131200Z 33010KT 15SM BKN013 OVC019 M04/M07 A3002 RMK SC6SC2 SLP169=
CYYG;2005-12-13 13:00;METAR CYYG 131300Z 34007KT 15SM BKN018 OVC042 M04/M06 A3005 RMK SC6SC2 SLP178=
CYYG;2005-12-13 14:00;METAR CYYG 131400Z 32006KT 15SM BKN011 OVC040 M04/M06 A3008 RMK SC6SC2 SLP189=
CYYG;2005-12-13 15:00;METAR CYYG 131500Z 36009KT 15SM OVC011 M04/M06 A3007 RMK SC8 SLP187=
CYYG;2005-12-13 16:00;METAR CYYG 131600Z 33008KT 15SM OVC011 M04/M06 A3008 RMK SC8 SLP189=
CYYG;2005-12-13 17:00;METAR CYYG 131700Z 35008KT 15SM OVC012 M03/M06 A3007 RMK SC8 SLP185=
CYYG;2005-12-13 18:00;METAR CYYG 131800Z 35006KT 15SM OVC013 M03/M06 A3010 RMK SC8 SLP195=
CYYG;2005-12-13 19:00;METAR CYYG 131900Z 34009KT 15SM OVC016 M03/M06 A3009 RMK SC8 SLP193=
CYYG;2005-12-13 20:00;METAR CYYG 132000Z 36011G16KT 15SM OVC014 M04/M06 A3009 RMK SC8 SLP194=
CYYG;2005-12-13 21:00;METAR CYYG 132100Z 36008KT 15SM OVC016 M04/M07 A3012 RMK SC8 SLP202=
CYYG;2005-12-13 22:00;METAR CYYG 132200Z 02011KT 15SM BKN020 OVC060 M03/M07 A3012 RMK SC6SC2 SLP204=
CYYG;2005-12-13 23:00;METAR CYYG 132300Z 02009KT 15SM BKN022 OVC059 M03/M07 A3011 RMK SC5SC3 SLP200=
CYYG;2005-12-14 00:00;METAR CYYG 140000Z 02013KT 15SM BKN028 OVC058 M02/M05 A3008 RMK SC6SC2 SLP190=
CYYG;2005-12-14 00:13;SPECI CYYG 140013Z 03011KT 10SM -SHSN OVC025 M01/ RMK SC8=
CYYG;2005-12-14 00:29;SPECI CYYG 140029Z 02012KT 4SM -SHSN SCT009 OVC015 M02/ RMK SF3SC5=
CYYG;2005-12-14 00:50;SPECI CYYG 140050Z 04015KT 3SM -SN OVC010 M01/ RMK SF8=
CYYG;2005-12-14 02:00;METAR CYYG 140200Z 04020G26KT 3/4SM -SN OVC006 M02/M03 A3007 RMK SF8 RVR RWY03 3500FT SLP187=
CYYG;2005-12-14 02:45;SPECI CYYG 140245Z 03018G27KT 1SM -SN BKN006 OVC014 M02/ RMK SF6SC2 /S03/=
CYYG;2005-12-14 03:00;METAR CYYG 140300Z 03017G26KT 1 1/2SM -SN BKN007 OVC014 M02/M03 A3007 RMK SF6SC2 /S04/ SLP186=
CYYG;2005-12-14 04:00;METAR CYYG 140400Z 02020G27KT 1 1/2SM -SN OVC009 M03/M04 A3006 RMK SF8 /S06/ SLP183=
CYYG;2005-12-14 05:00;METAR CYYG 140500Z 02020G28KT 2SM -SN DRSN OVC010 M03/M05 A3006 RMK SF8 SLP184=
CYYG;2005-12-14 06:00;METAR CYYG 140600Z 02021G27KT 1 1/2SM -SN DRSN OVC009 M04/M05 A3005 RMK SF8 /S06/ SLP179=
CYYG;2005-12-14 07:00;METAR CYYG 140700Z 01022G28KT 1SM -SN DRSN OVC006 M04/M05 A3005 RMK SF8 SLP179=
CYYG;2005-12-14 08:00;METAR CYYG 140800Z 01017G26KT 3/4SM -SN DRSN OVC007 M03/M04 A3006 RMK SF8 /S01/ SLP183=
CYYG;2005-12-14 09:00;METAR CYYG 140900Z 01016G24KT 3/4SM -SN DRSN OVC008 M04/M04 A3007 RMK SF8 RVR RWY03 3500FT SLP187=
CYYG;2005-12-14 10:00;METAR CYYG 141000Z 36018G24KT 1 1/2SM -SN DRSN BKN009 OVC020 M04/M05 A3007 RMK SF6SC2 /S04/ SLP185=
CYYG;2005-12-14 10:37;SPECI CYYG 141037Z 35018G26KT 3SM -SN DRSN BKN010 OVC020 M04/ RMK SF6SC2=
CYYG;2005-12-14 11:00;METAR CYYG 141100Z 36018G27KT 3SM -SN BLSN BKN008 OVC022 M04/M05 A3008 RMK SF6SC2 SLP190=
CYYG;2005-12-14 11:23;SPECI CYYG 141123Z 36018G26KT 1/2SM -SN BLSN SCT008 OVC015 M04/ RMK SN2SF2SC4 RVR RWY03 3500 FT=
CYYG;2005-12-14 11:39;SPECI CYYG 141139Z 36018G26KT 2SM -SN BLSN SCT009 OVC015 M04/ RMK SF3SC5=
CYYG;2005-12-14 12:00;METAR CYYG 141200Z 35017G25KT 2SM -SN BLSN FEW009 OVC017 M04/M05 A3010 RMK SF2SC6 RVR RWY03 6000 FT SLP195=
CYYG;2005-12-14 13:00;METAR CYYG 141300Z 36018G30KT 2SM -SN BLSN OVC009 M03/M04 A3010 RMK SF8 /S01/ RVR RWY03 4500 FT SLP195=
CYYG;2005-12-14 14:00;METAR CYYG 141400Z 36016G27KT 2SM -SN BLSN -FZDZ SCT008 OVC025 M03/M04 A3010 RMK SF3SC5 SLP197=
CYYG;2005-12-14 15:00;METAR CYYG 141500Z 36018G27KT 2SM -SN BLSN -FZDZ BKN007 OVC019 M03/M04 A3007 RMK SF5SC3 /S02/ SLP187=
CYYG;2005-12-14 16:00;METAR CYYG 141600Z 36017G26KT 2SM -SN BLSN -FZDZ SCT008 OVC015 M03/M04 A3004 RMK SF3SC5 /S03/ SLP176=
CYYG;2005-12-14 16:21;SPECI CYYG 141621Z 35020G29KT 2SM -SN BLSN BKN008 OVC017 M03/ RMK SF5SC3 REFZDZ=
CYYG;2005-12-14 17:00;METAR CYYG 141700Z 35017G27KT 2SM -SN BLSN BKN009 OVC017 M03/M04 A3002 REFZDZ RMK SF5SC3 SLP169=
CYYG;2005-12-14 18:00;METAR CYYG 141800Z 36019G27KT 2SM -SN BLSN BKN009 OVC014 M03/M04 A3001 RMK SC6SC2 SLP166=
CYYG;2005-12-14 19:00;METAR CYYG 141900Z 35017G28KT 2SM -SN BLSN OVC009 M03/M04 A3001 RMK SC8 SLP166=
CYYG;2005-12-14 20:00;METAR CYYG 142000Z 35020G28KT 1SM -SN BLSN OVC008 M03/M04 A3001 RMK SF8 /S02/ RVR RWY03 4000 FT SLP166=
CYYG;2005-12-14 21:00;METAR CYYG 142100Z 35018G31KT 2SM -SN BLSN BKN007 OVC023 M03/M04 A3000 RMK SF6SC2 RVR RWY03 3000 FT SLP163=
CYYG;2005-12-14 22:00;METAR CYYG 142200Z 35020G29KT 2SM -SN BLSN OVC008 M03/M04 A2999 RMK SF8 SLP158=
CYYG;2005-12-14 23:00;METAR CYYG 142300Z 35016G30KT 2SM -SN BLSN OVC009 M03/M04 A2997 RMK SF8 SLP153=
CYYG;2005-12-15 00:00;METAR CYYG 150000Z 35021G30KT 2SM -SN BLSN OVC008 M03/M04 A2996 RMK SF8 SLP148=
CYYG;2005-12-15 01:00;METAR CYYG 150100Z 35017G32KT 1 1/2SM -SN BLSN OVC007 M03/M04 A2993 RMK SF8 SLP139=
CYYG;2005-12-15 02:00;METAR CYYG 150200Z 35019G33KT 1 1/2SM -SN BLSN OVC007 M03/M04 A2993 RMK SF8 /S03/ SLP137=
CYYG;2005-12-15 03:00;METAR CYYG 150300Z 35018G32KT 1 1/2SM -SN BLSN OVC008 M03/M04 A2992 RMK SF8 SLP133=
CYYG;2005-12-15 04:00;METAR CYYG 150400Z 34026G36KT 1 1/2SM -SN BLSN OVC011 M03/M05 A2990 RMK SF8 SLP128=
CYYG;2005-12-15 05:00;METAR CYYG 150500Z 34021G39KT 3/4SM -SN BLSN OVC007 M04/M05 A2987 RMK SF8 /S05/ SLP118=
CYYG;2005-12-15 06:00;METAR CYYG 150600Z 34021G31KT 3/4SM -SN BLSN OVC008 M04/M05 A2987 RMK SF8 /S05/ SLP118=
CYYG;2005-12-15 07:00;METAR CYYG 150700Z 33022G37KT 1SM -SN BLSN OVC008 M04/M05 A2986 RMK SC8 SLP115=
CYYG;2005-12-15 08:00;METAR CYYG 150800Z 33020G30KT 3/4SM -SN BLSN OVC006 M04/M05 A2986 RMK SF8 SLP113=
CYYG;2005-12-15 09:00;METAR CYYG 150900Z 33022G30KT 3/4SM -SN BLSN OVC010 M04/M06 A2984 RMK SF8 SLP106=
CYYG;2005-12-15 10:00;METAR CYYG 151000Z 32024G31KT 3/4SM -SN BLSN OVC010 M04/M07 A2983 RMK SF8 RVR RWY03 2600FT SLP104=
CYYG;2005-12-15 11:00;METAR CYYG 151100Z 32020G27KT 2SM -SN BLSN BKN011 OVC023 M05/M06 A2983 RMK SC6SC2 SLP104=
CYYG;2005-12-15 12:00;METAR CYYG 151200Z 31019G27KT 1SM -SN BLSN OVC015 M05/M07 A2985 RMK SC8 /S01/ SLP111=
CYYG;2005-12-15 13:00;METAR CYYG 151300Z 30017G24KT 1 1/2SM -SN BLSN OVC017 M06/M08 A2987 RMK SC8 RVR RWY03 4500 FT SLP116=
CYYG;2005-12-15 14:00;METAR CYYG 151400Z 29018G24KT 2SM -SN BLSN OVC017 M07/M08 A2988 RMK SC8 SLP120=
CYYG;2005-12-15 15:00;METAR CYYG 151500Z 29018G28KT 2SM -SN BLSN BKN013 OVC300 M07/M09 A2987 RMK SC5CI2 SLP120=
CYYG;2005-12-15 15:09;SPECI CYYG 151509Z 29016G21KT 5SM -SN DRSN BKN016 OVC300 M07/ REBLSN RMK SC6CI2=
CYYG;2005-12-15 15:38;SPECI CYYG 151538Z 29020KT 2SM -SN DRSN BKN016 OVC300 M07/ REBLSN RMK SC6CI2=
CYYG;2005-12-15 16:00;METAR CYYG 151600Z 28015G22KT 2SM -SN BLSN OVC016 M07/M09 A2986 REBLSN RMK SC8 SLP116=
CYYG;2005-12-15 16:21;SPECI CYYG 151621Z 29016G22KT 3SM -SN DRSN BKN016 OVC021 M07/ RMK SC5SC3=
CYYG;2005-12-15 17:00;METAR CYYG 151700Z 28015G25KT 3SM -SN DRSN OVC024 M07/M10 A2986 RMK SC8 /S01/ SLP114=
CYYG;2005-12-15 18:00;METAR CYYG 151800Z 29017G26KT 15SM -SN DRSN BKN026 M07/M10 A2987 RMK SC7 SLP120=
CYYG;2005-12-15 19:00;METAR CYYG 151900Z 29016G22KT 15SM -SN DRSN BKN030 M06/M10 A2990 RMK SC7 SLP129=
CYYG;2005-12-15 19:18;SPECI CYYG 151918Z 29019G25KT 15SM DRSN FEW020 BKN031 M06/ RMK SC1SC6=
CYYG;2005-12-15 20:00;METAR CYYG 152000Z 29014G20KT 15SM DRSN FEW020 FEW031 SCT044 M06/M11 A2993 RMK SC1SC2SC2 SLP137=
CYYG;2005-12-15 21:00;METAR CYYG 152100Z 29015G22KT 15SM DRSN FEW031 BKN044 M05/M11 A2994 RMK SC1SC5 SLP142=
CYYG;2005-12-15 22:00;METAR CYYG 152200Z 29015G20KT 15SM DRSN FEW044 M06/M11 A2994 RMK SC2 SLP141=
CYYG;2005-12-15 23:00;METAR CYYG 152300Z 29016KT 15SM DRSN FEW042 M05/M11 A2997 RMK SC2 SLP153=
CYYG;2005-12-16 01:00;METAR CYYG 160100Z 29014KT 15SM DRSN FEW042 M07/M11 A3000 RMK SC1 SLP163=
CYYG;2005-12-16 02:00;METAR CYYG 160200Z 29014KT 15SM DRSN FEW040 M07/M11 A3002 RMK SC1 SLP168=
CYYG;2005-12-16 03:00;METAR CYYG 160300Z 27010KT 15SM BKN022 M07/M11 A3005 RMK SC6 SLP179=
CYYG;2005-12-16 04:00;METAR CYYG 160400Z 27010KT 15SM BKN022 M07/M11 A3006 RMK SC7 SLP182=
CYYG;2005-12-16 05:00;METAR CYYG 160500Z 27010KT 15SM BKN021 M07/M11 A3006 RMK SC7 SLP182=
CYYG;2005-12-16 06:00;METAR CYYG 160600Z 27011KT 15SM OVC018 M07/M11 A3008 RMK SC8 SLP190=
CYYG;2005-12-16 07:00;METAR CYYG 160700Z 27010KT 15SM OVC018 M07/M10 A3013 RMK SC8 SLP205=
CYYG;2005-12-16 08:00;METAR CYYG 160800Z 27008KT 15SM OVC018 M08/M11 A3015 RMK SC8 SLP214=
CYYG;2005-12-16 09:00;METAR CYYG 160900Z 25008KT 15SM OVC018 M08/M11 A3016 RMK SC8 SLP216=
CYYG;2005-12-16 10:00;METAR CYYG 161000Z 25008KT 15SM OVC017 M08/M11 A3018 RMK SC8 SLP222=
CYYG;2005-12-16 11:00;METAR CYYG 161100Z 28007KT 15SM SCT017 M09/M11 A3020 RMK SC4 SLP231=
CYYG;2005-12-16 12:00;METAR CYYG 161200Z 23005KT 15SM SCT017 10/M11 A3022 RMK SC4 SLP234=
CYYG;2005-12-16 14:00;METAR CYYG 161400Z 30002KT 15SM FEW020 M08/M10 A3025 RMK SC2 SLP245=
CYYG;2005-12-16 15:00;METAR CYYG 161500Z 26005KT 15SM FEW020 FEW250 M07/M09 A3025 RMK SC2CI1 SLP249=
CYYG;2005-12-16 16:00;METAR CYYG 161600Z 26002KT 15SM FEW020 BKN250 M06/M09 A3024 RMK SC1CI2 SLP243=
CYYG;2005-12-16 17:00;METAR CYYG 161700Z 19003KT 15SM FEW015 BKN250 M05/M08 A3021 RMK SC2CI3 SLP235=
CYYG;2005-12-16 18:00;METAR CYYG 161800Z 16004KT 15SM BKN012 BKN250 M05/M08 A3023 RMK SC5CI2 SLP239=
CYYG;2005-12-16 19:00;METAR CYYG 161900Z 17004KT 15SM FEW012 BKN250 M05/M07 A3024 RMK SC2CI5 SLP242=
CYYG;2005-12-16 20:00;METAR CYYG 162000Z 15004KT 15SM FEW012 BKN250 M05/M07 A3023 RMK SC2CI6 SLP240=
CYYG;2005-12-16 21:00;METAR CYYG 162100Z 14004KT 15SM FEW015 OVC150 M05/M07 A3023 RMK SC2AC6 SLP241=
CYYG;2005-12-16 22:00;METAR CYYG 162200Z 12007KT 15SM FEW015 BKN140 M04/M07 A3023 RMK SC2AC6 SLP238=
CYYG;2005-12-16 23:00;METAR CYYG 162300Z 12007KT 15SM FEW015 OVC085 M04/M06 A3021 RMK SC1AS8 SLP234=
CYYG;2005-12-17 00:00;METAR CYYG 170000Z 11007KT 15SM FEW015 OVC070 M03/M05 A3020 RMK SC1AS8 SLP229=
CYYG;2005-12-17 01:00;METAR CYYG 170100Z 10011KT 15SM OVC055 M02/M04 A3018 RMK NS8 SLP221=
CYYG;2005-12-17 01:11;SPECI CYYG 170111Z 10010KT 15SM -SN OVC055 M02/ RMK NS8=
CYYG;2005-12-17 02:00;METAR CYYG 170200Z 10012KT 12SM -SN OVC055 M02/M04 A3015 RMK NS8 SLP211=
CYYG;2005-12-17 02:19;SPECI CYYG 170219Z 09014KT 2SM -SN VV020 M02/ RMK SN8=
CYYG;2005-12-17 02:24;SPECI CYYG 170224Z 09013G18KT 1SM -SN VV010 M02/ RMK SN8=
CYYG;2005-12-17 02:30;SPECI CYYG 170230Z 10013G18KT 1/2SM SN VV005 M02/ RMK SN8=
CYYG;2005-12-17 02:38;SPECI CYYG 170238Z 09014KT 3/4SM -SN VV007 M02/ RESN RMK SN8=
CYYG;2005-12-17 02:48;SPECI CYYG 170248Z 10014G19KT 3/8SM SN VV003 M02/ RMK SN8=
CYYG;2005-12-17 03:29;SPECI CYYG 170329Z 08017KT 2SM -SN DRSN OVC009 M01/ RMK SF8=
CYYG;2005-12-17 04:00;METAR CYYG 170400Z 07007KT 2 1/2SM -FZRA BR OVC006 M01/M01 A3006 RMK SF8 SLP184=
CYYG;2005-12-17 05:00;METAR CYYG 170500Z 09012G20KT 2 1/2SM -FZRA BR FEW002 OVC008 M00/M00 A2998 RMK SF2SF6 PRESFR SLP156=
CYYG;2005-12-17 05:12;SPECI CYYG 170512Z 09013G20KT 4SM -RA BR FEW002 OVC008 00/ REFZRA RMK SF2SF6=
CYYG;2005-12-17 06:00;METAR CYYG 170600Z 10014KT 2 1/2SM -RA BR OVC008 00/M00 A2994 REFZRA RMK SF8 SLP142=
CYYG;2005-12-17 06:36;SPECI CYYG 170636Z 10012G17KT 6SM -DZ BR OVC006 01/ RMK SF8=
CYYG;2005-12-17 07:00;METAR CYYG 170700Z 11014KT 10SM -DZ OVC007 01/00 A2991 RMK SF8 SLP130=
CYYG;2005-12-17 08:00;METAR CYYG 170800Z 11012KT 2 1/2SM -DZ BR OVC004 02/01 A2985 RMK SF8 SLP112=
CYYG;2005-12-17 09:00;METAR CYYG 170900Z 15012KT 5SM -DZ BR OVC004 03/02 A2982 RMK SF8 SLP102=
CYYG;2005-12-17 09:43;SPECI CYYG 170943Z 17017G24KT 10SM BKN003 OVC010 04/ RMK SF7SC1=
CYYG;2005-12-17 10:00;METAR CYYG 171000Z 18014G19KT 2 1/2SM -DZ BR OVC002 04/04 A2982 RMK SF8 SLP101=
CYYG;2005-12-17 10:23;SPECI CYYG 171023Z 18011KT 8SM FEW002 OVC026 04/ RMK SF2SC6=
CYYG;2005-12-17 11:00;METAR CYYG 171100Z 20009KT 10SM FEW002 OVC029 04/03 A2985 RMK SF2SC6 SLP110=
CYYG;2005-12-17 12:00;METAR CYYG 171200Z 22010G16KT 10SM FEW010 OVC027 04/03 A2987 RMK SF2SC6 SLP119=
CYYG;2005-12-17 12:47;SPECI CYYG 171247Z 22017G25KT 10SM -DZ BKN010 OVC027 03/ RMK SF6SC2=
CYYG;2005-12-17 13:00;METAR CYYG 171300Z 22013G21KT 10SM -DZ BKN010 OVC027 03/02 A2991 RMK SF7SC1 SLP132=
CYYG;2005-12-17 13:25;SPECI CYYG 171325Z 25018G23KT 15SM BKN015 BKN025 02/ RMK SC5SC2=
CYYG;2005-12-17 14:00;METAR CYYG 171400Z 25014G21KT 15SM BKN017 01/M01 A2997 RMK SC6 SLP151=
CYYG;2005-12-17 15:00;METAR CYYG 171500Z 26014G21KT 15SM FEW017 01/M03 A2999 RMK SC2 SLP159=
CYYG;2005-12-17 16:00;METAR CYYG 171600Z 27018G28KT 15SM FEW020 M00/M05 A3001 RMK CU2 SLP165=
CYYG;2005-12-17 17:00;METAR CYYG 171700Z 26015G29KT 15SM FEW024 00/M05 A3001 RMK CU2 SLP166=
CYYG;2005-12-17 18:00;METAR CYYG 171800Z 25014G19KT 15SM FEW023 00/M05 A3001 RMK CU2 SLP166=
CYYG;2005-12-17 19:00;METAR CYYG 171900Z 25010G17KT 15SM FEW023 01/M05 A3004 RMK CU1 SLP173=
CYYG;2005-12-17 20:00;METAR CYYG 172000Z 25010KT 15SM FEW023 00/M05 A3006 RMK CU1 SLP181=
CYYG;2005-12-17 22:00;METAR CYYG 172200Z 25009G17KT 15SM SCT033 M00/M05 A3009 RMK SC3 SLP193=
CYYG;2005-12-17 23:00;METAR CYYG 172300Z 25014KT 15SM BKN032 M00/M05 A3011 RMK SC7 SLP197=
CYYG;2005-12-18 00:00;METAR CYYG 180000Z 26014G22KT 15SM BKN030 M00/M05 A3011 RMK SC7 SLP198=
CYYG;2005-12-18 01:00;METAR CYYG 180100Z 26014G20KT 15SM FEW030 M01/M05 A3012 RMK SC2 SLP201=
CYYG;2005-12-18 02:00;METAR CYYG 180200Z 27015G20KT 15SM SKC M01/M05 A3013 RMK SLP205=
CYYG;2005-12-18 03:00;METAR CYYG 180300Z 27015G24KT 15SM SKC M01/M05 A3015 RMK SLP212=
CYYG;2005-12-18 04:00;METAR CYYG 180400Z 26011G17KT 15SM SKC M02/M06 A3015 RMK SLP212=
CYYG;2005-12-18 05:00;METAR CYYG 180500Z 25011KT 15SM SKC M02/M06 A3015 RMK SLP211=
CYYG;2005-12-18 06:00;METAR CYYG 180600Z 25010KT 15SM SKC M02/M06 A3017 RMK SLP218=
CYYG;2005-12-18 07:00;METAR CYYG 180700Z 25011G16KT 15SM SKC M03/M06 A3017 RMK FROIN SLP219=
CYYG;2005-12-18 08:00;METAR CYYG 180800Z 27013G19KT 15SM SKC M02/M06 A3017 RMK FROIN SLP220=
CYYG;2005-12-18 09:00;METAR CYYG 180900Z 27011G18KT 15SM SKC M03/M06 A3017 RMK SLP218=
CYYG;2005-12-18 10:00;METAR CYYG 181000Z 26011G17KT 15SM SKC M03/M06 A3018 RMK SLP222=
CYYG;2005-12-18 11:00;METAR CYYG 181100Z 27009KT 15SM SKC M03/M06 A3019 RMK SLP226=
CYYG;2005-12-18 12:00;METAR CYYG 181200Z 26007KT 15SM FEW030 M03/M06 A3021 RMK SC1 SLP234=
CYYG;2005-12-18 13:00;METAR CYYG 181300Z 27009KT 15SM FEW250 M03/M06 A3022 RMK CI1 SLP235=
CYYG;2005-12-18 14:00;METAR CYYG 181400Z 27010KT 15SM FEW250 M02/M06 A3023 RMK CI0 SLP238=
CYYG;2005-12-18 15:00;METAR CYYG 181500Z 27011G17KT 15SM FEW020 FEW250 M01/M06 A3022 RMK SC1CI0 SLP236=
CYYG;2005-12-18 16:00;METAR CYYG 181600Z 28015KT 15SM FEW030 M01/M06 A3018 RMK SC2 SLP223=
CYYG;2005-12-18 17:00;METAR CYYG 181700Z 27014G21KT 15SM FEW030 M01/M06 A3015 RMK SC1 SLP214=
CYYG;2005-12-18 18:00;METAR CYYG 181800Z 28013G18KT 15SM FEW030 M01/M06 A3014 RMK SC1 SLP211=
CYYG;2005-12-18 19:00;METAR CYYG 181900Z 27010G15KT 15SM FEW250 M01/M06 A3015 RMK CI1 SLP213=
CYYG;2005-12-18 20:00;METAR CYYG 182000Z 25009KT 15SM FEW250 M01/M07 A3015 RMK CI1 SLP214=
CYYG;2005-12-18 21:00;METAR CYYG 182100Z 26006KT 15SM FEW250 M02/M06 A3016 RMK CI1 SLP216=
CYYG;2005-12-18 22:00;METAR CYYG 182200Z 25007KT 15SM SKC M02/M06 A3017 RMK SLP219=
CYYG;2005-12-18 23:00;METAR CYYG 182300Z 25007KT 15SM SKC M02/M06 A3017 RMK SLP220=
CYYG;2005-12-19 00:00;METAR CYYG 190000Z 25006KT 15SM FEW035 M02/M06 A3016 RMK SC2 SLP216=
CYYG;2005-12-19 01:00;METAR CYYG 190100Z 25005KT 15SM FEW035 M02/M06 A3014 RMK SC2 SLP211=
CYYG;2005-12-19 02:00;METAR CYYG 190200Z 26005KT 15SM FEW035 M03/M06 A3012 RMK SC1 SLP204=
CYYG;2005-12-19 03:00;METAR CYYG 190300Z 25006KT 15SM FEW035 M03/M07 A3010 RMK SC1 SLP196=
CYYG;2005-12-19 04:00;METAR CYYG 190400Z 24005KT 15SM SKC M04/M07 A3008 RMK SLP190=
CYYG;2005-12-19 05:00;METAR CYYG 190500Z 25005KT 15SM SKC M04/M07 A3006 RMK SLP182=
CYYG;2005-12-19 06:00;METAR CYYG 190600Z 25004KT 15SM SKC M05/M07 A3005 RMK SLP180=
CYYG;2005-12-19 08:00;METAR CYYG 190800Z 26004KT 15SM SKC M05/M08 A3004 RMK SLP174=
CYYG;2005-12-19 09:00;METAR CYYG 190900Z 25005KT 15SM SKC M06/M08 A3002 RMK SLP170=
CYYG;2005-12-19 10:00;METAR CYYG 191000Z 24005KT 15SM SKC M06/M08 A3002 RMK SLP169=
CYYG;2005-12-19 11:00;METAR CYYG 191100Z 25005KT 15SM SKC M06/M08 A3002 RMK SLP168=
CYYG;2005-12-19 12:00;METAR CYYG 191200Z 22004KT 15SM FEW250 M06/M08 A3001 RMK CI1 SLP164=
CYYG;2005-12-19 13:00;METAR CYYG 191300Z 23005KT 15SM FEW030 FEW250 M06/M08 A3000 RMK SC1CI1 OBS TAKEN +10 SLP163=
CYYG;2005-12-19 14:00;METAR CYYG 191400Z 24005KT 15SM FEW030 BKN250 M05/M07 A3000 RMK SC1CI1 SLP163=
CYYG;2005-12-19 15:00;METAR CYYG 191500Z 25008KT 15SM FEW030 BKN250 M03/M07 A2998 RMK SC1CI2 SLP157=
CYYG;2005-12-19 16:00;METAR CYYG 191600Z 25009KT 15SM FEW024 BKN250 M03/M08 A2996 RMK SC2CI2 SLP148=
CYYG;2005-12-19 17:00;METAR CYYG 191700Z 25010KT 15SM FEW024 BKN250 M03/M08 A2992 RMK SC2CI2 SLP136=
CYYG;2005-12-19 18:00;METAR CYYG 191800Z 24007KT 15SM FEW025 SCT250 M03/M08 A2989 RMK SC1CI1 SLP124=
CYYG;2005-12-19 19:00;METAR CYYG 191900Z 23003KT 15SM FEW025 SCT250 M02/M07 A2986 RMK SC1CI1 SLP115=
CYYG;2005-12-19 20:00;METAR CYYG 192000Z 23005KT 15SM FEW030 SCT250 M03/M08 A2985 RMK SC1CI1 SLP111=
CYYG;2005-12-19 21:00;METAR CYYG 192100Z 20004KT 15SM FEW030 SCT250 M04/M08 A2983 RMK SC1CI1 SLP103=
CYYG;2005-12-19 22:00;METAR CYYG 192200Z 21005KT 15SM FEW080 FEW250 M04/M08 A2981 RMK AC2CI1 SLP097=
CYYG;2005-12-19 23:00;METAR CYYG 192300Z 23002KT 15SM BKN080 M06/M09 A2979 RMK AC6 SLP092=
CYYG;2005-12-20 00:00;METAR CYYG 200000Z 21005KT 15SM BKN083 M03/M07 A2979 RMK AC6 SLP091=
CYYG;2005-12-20 01:00;METAR CYYG 200100Z 23004KT 15SM FEW060 BKN085 BKN110 M04/M07 A2977 RMK SC2AC2AC2 SLP084=
CYYG;2005-12-20 02:00;METAR CYYG 200200Z 25004KT 15SM FEW085 SCT110 M04/M07 A2976 RMK AC2AC2 SLP079=
CYYG;2005-12-20 03:00;METAR CYYG 200300Z 24004KT 15SM FEW032 FEW110 M04/M07 A2974 RMK SC1AC1 SLP073=
CYYG;2005-12-20 04:00;METAR CYYG 200400Z 23004KT 15SM SKC M05/M08 A2972 RMK SLP068=
CYYG;2005-12-20 05:00;METAR CYYG 200500Z 25007KT 15SM SKC M05/M08 A2971 RMK SLP063=
CYYG;2005-12-20 06:00;METAR CYYG 200600Z 26006KT 15SM SKC M06/M08 A2970 RMK SLP059=
CYYG;2005-12-20 07:00;METAR CYYG 200700Z 27006KT 15SM SKC M07/M10 A2969 RMK SLP058=
CYYG;2005-12-20 08:00;METAR CYYG 200800Z 25008KT 15SM SKC M07/M11 A2969 RMK SLP055=
CYYG;2005-12-20 09:00;METAR CYYG 200900Z 25008KT 15SM SCT140 M07/M12 A2967 RMK AC2 SLP050=
CYYG;2005-12-20 10:00;METAR CYYG 201000Z 25009G15KT 15SM SCT130 M06/M11 A2966 RMK AC2 SLP048=
CYYG;2005-12-20 11:00;METAR CYYG 201100Z 24006KT 15SM FEW030 FEW130 BKN220 M07/M11 A2967 RMK SC1AC1CI1 SLP050=
CYYG;2005-12-20 12:00;METAR CYYG 201200Z 25008KT 15SM FEW030 FEW130 SCT220 M06/M11 A2968 RMK SC1AC1CI1 SLP053=
CYYG;2005-12-20 13:00;METAR CYYG 201300Z 26008KT 15SM FEW028 FEW100 SCT220 M05/M10 A2969 RMK SC1AC1CI1 SLP058=
CYYG;2005-12-20 14:00;METAR CYYG 201400Z 26009KT 15SM FEW028 FEW100 FEW240 M05/M10 A2969 RMK SC1AC1CI0 SLP056=
CYYG;2005-12-20 15:00;METAR CYYG 201500Z 25015KT 15SM FEW026 FEW130 SCT240 M04/M09 A2968 RMK SC1AC2CI0 SLP052=
CYYG;2005-12-20 16:00;METAR CYYG 201600Z 26013G20KT 15SM FEW026 BKN130 BKN240 M03/M08 A2965 RMK SC1AC4CI1 SLP044=
CYYG;2005-12-20 17:00;METAR CYYG 201700Z 26010G15KT 15SM FEW026 BKN120 BKN240 M03/M09 A2964 RMK SC2AC5CI1 SLP039=
CYYG;2005-12-20 18:00;METAR CYYG 201800Z 27014KT 15SM FEW026 BKN120 BKN240 M02/M09 A2963 RMK SC2AC3CI1 SLP038=
CYYG;2005-12-20 20:00;METAR CYYG 202000Z 27005KT 15SM FEW030 BKN120 M03/M08 A2966 RMK SC1AC6 SLP046=
CYYG;2005-12-20 21:00;METAR CYYG 202100Z 25005KT 15SM FEW030 BKN120 M03/M08 A2966 RMK SC1AC6 SLP047=
CYYG;2005-12-20 22:00;METAR CYYG 202200Z 26003KT 15SM BKN027 OVC120 M03/M08 A2968 RMK SC5AC3 SLP052=
CYYG;2005-12-20 23:00;METAR CYYG 202300Z 27003KT 15SM FEW028 BKN087 OVC110 M03/M08 A2969 RMK SC2AC4AC2 SLP056=
CYYG;2005-12-21 00:00;METAR CYYG 210000Z 23003KT 15SM FEW025 OVC083 M03/M07 A2971 RMK SC2AC6 SLP062=
CYYG;2005-12-21 01:00;METAR CYYG 210100Z 25004KT 15SM FEW028 OVC092 M03/M07 A2972 RMK SC2AC6 SLP066=
CYYG;2005-12-21 02:00;METAR CYYG 210200Z 26006KT 15SM -SHSN BKN023 BKN039 OVC092 M03/M07 A2972 RMK SC5SC2AC2 SLP067=
CYYG;2005-12-21 03:00;METAR CYYG 210300Z 31007KT 15SM -SHSN FEW015 BKN027 OVC066 M04/M08 A2974 RMK SC2SC4AC2 SLP074=
CYYG;2005-12-21 04:00;METAR CYYG 210400Z 31007KT 15SM -SHSN FEW015 BKN031 OVC047 M05/M07 A2975 RMK SC2SC3SC3 SLP077=
CYYG;2005-12-21 05:00;METAR CYYG 210500Z 29009KT 15SM FEW031 BKN095 M05/M10 A2976 RMK SC2AC6 SLP080=
CYYG;2005-12-21 06:00;METAR CYYG 210600Z 30009KT 15SM BKN100 M06/M11 A2978 RMK AC7 SLP087=
CYYG;2005-12-21 07:00;METAR CYYG 210700Z 28007KT 15SM SCT097 M06/M11 A2981 RMK AC4 SLP097=
CYYG;2005-12-21 08:00;METAR CYYG 210800Z 29010KT 15SM FEW022 FEW047 M07/M11 A2984 RMK SC1SC2 SLP106=
CYYG;2005-12-21 09:00;METAR CYYG 210900Z 29009KT 15SM FEW050 M08/M12 A2986 RMK SC2 SLP114=
CYYG;2005-12-21 10:00;METAR CYYG 211000Z 29011KT 15SM FEW025 FEW050 M08/M12 A2988 RMK SC1SC1 SLP122=
CYYG;2005-12-21 11:00;METAR CYYG 211100Z 29008KT 15SM -SHSN FEW012 SCT030 M09/M13 A2991 RMK SC1SC2 SLP132=
CYYG;2005-12-21 12:00;METAR CYYG 211200Z 29007KT 15SM VCSH FEW030 M10/M14 A2994 RMK SC2 SHSN=
CYYG;2005-12-21 13:00;METAR CYYG 211300Z 27007KT 15SM VCSH FEW030 M10/M14 A2997 RMK SC2 SHSN=
CYYG;2005-12-21 14:00;METAR CYYG 211400Z 29007KT 15SM VCSH FEW030 M08/M14 A2999 RMK SC2 SHSN=
CYYG;2005-12-21 15:00;METAR CYYG 211500Z 28008KT 15SM FEW030 SCT048 M07/M14 A3000 RMK CU1SC2 SHSN NW-E SLP162=
CYYG;2005-12-21 16:00;METAR CYYG 211600Z 29008KT 15SM FEW010 FEW050 M07/M15 A3000 RMK CU1SC2 SHSN N-E SLP162=
CYYG;2005-12-21 17:00;METAR CYYG 211700Z 29008KT 15SM FEW010 FEW050 M07/M17 A3000 RMK CU1SC1 SHSN NE-E SLP161=
CYYG;2005-12-21 18:00;METAR CYYG 211800Z 31006KT 15SM FEW010 FEW050 M07/M17 A3000 RMK CU1SC1 SLP162=
CYYG;2005-12-21 19:00;METAR CYYG 211900Z 30005KT 15SM FEW010 FEW050 M07/M16 A3001 RMK CU1SC1 SLP165=
CYYG;2005-12-21 20:00;METAR CYYG 212000Z 25005KT 15SM FEW020 FEW050 M08/M15 A3002 RMK CU1SC1 SLP170=
CYYG;2005-12-21 21:00;METAR CYYG 212100Z 24003KT 15SM FEW025 M09/M14 A3002 RMK SC1 SLP170=
CYYG;2005-12-21 22:00;METAR CYYG 212200Z 24002KT 15SM FEW025 M09/M14 A3002 RMK SC1 SLP169=
CYYG;2005-12-21 23:00;METAR CYYG 212300Z 00000KT 15SM FEW025 M13/M15 A3002 RMK SC1 SLP168=
CYYG;2005-12-22 00:00;METAR CYYG 220000Z 00000KT 15SM FEW025 M15/M16 A3002 RMK SC1 SLP169=
CYYG;2005-12-22 01:00;METAR CYYG 220100Z 00000KT 15SM FEW025 M14/M15 A3000 RMK SC1 SLP162=
CYYG;2005-12-22 02:00;METAR CYYG 220200Z 00000KT 15SM FEW130 M12/M15 A2998 RMK AC1 SLP158=
CYYG;2005-12-22 03:00;METAR CYYG 220300Z 27003KT 15SM FEW130 M11/M15 A2998 RMK AC2 SLP156=
CYYG;2005-12-22 04:00;METAR CYYG 220400Z 26004KT 15SM FEW110 M11/M15 A2996 RMK AC2 SLP148=
CYYG;2005-12-22 05:00;METAR CYYG 220500Z 26003KT 15SM FEW035 SCT100 M11/M15 A2995 RMK SC1AC3 SLP144=
CYYG;2005-12-22 06:00;METAR CYYG 220600Z 26005KT 15SM FEW035 SCT100 M10/M15 A2995 RMK SC1AC3 SLP144=
CYYG;2005-12-22 07:00;METAR CYYG 220700Z 26004KT 15SM SCT100 M11/M15 A2993 RMK AC3 SLP139=
CYYG;2005-12-22 08:00;METAR CYYG 220800Z 26004KT 15SM SCT110 M10/M16 A2992 RMK AC4 SLP134=
CYYG;2005-12-22 09:00;METAR CYYG 220900Z 18003KT 15SM BKN110 M11/M16 A2990 RMK AC6 SLP128=
CYYG;2005-12-22 10:00;METAR CYYG 221000Z 21002KT 15SM BKN100 M11/M16 A2988 RMK AC4 SLP123=
CYYG;2005-12-22 11:00;METAR CYYG 221100Z 20003KT 15SM BKN100 M10/M16 A2988 RMK AC6 SLP122=
CYYG;2005-12-22 12:00;METAR CYYG 221200Z 24003KT 15SM FEW130 M11/M17 A2990 RMK AC2 SLP128=
CYYG;2005-12-22 13:00;METAR CYYG 221300Z 27007KT 15SM VCSH FEW030 SCT130 M10/M16 A2993 RMK SC2AC2 SLP138=
CYYG;2005-12-22 13:20;SPECI CYYG 221320Z 27007KT 10SM -SHSN FEW030 BKN130 M09/ RMK SC2AC1=
CYYG;2005-12-22 13:53;SPECI CYYG 221353Z 28007KT 4SM -SN SCT017 OVC033 M09/ RMK SC4SC4=
CYYG;2005-12-22 14:00;METAR CYYG 221400Z 29008KT 4SM -SN FEW013 OVC026 M09/M12 A2994 RMK SC2SC4 SLP143=
CYYG;2005-12-22 14:27;SPECI CYYG 221427Z 29009KT 8SM -SHSN FEW030 BKN130 M09/ RMK SC2AC2=
CYYG;2005-12-22 15:00;METAR CYYG 221500Z 29012G17KT 12SM -SHSN FEW030 SCT130 M09/M13 A2995 RMK SC2AC1 SLP144=
CYYG;2005-12-22 15:38;SPECI CYYG 221538Z 29011KT 15SM FEW020 M09/ RMK SC2=
CYYG;2005-12-22 16:00;METAR CYYG 221600Z 30012KT 15SM FEW020 M09/M14 A2994 RMK SC2 SLP142=
CYYG;2005-12-22 17:00;METAR CYYG 221700Z 29010G17KT 15SM FEW020 M09/M15 A2993 RMK SC2 SLP140=
CYYG;2005-12-22 18:00;METAR CYYG 221800Z 27010KT 15SM FEW020 M09/M15 A2995 RMK SC1 SLP145=
CYYG;2005-12-22 19:00;METAR CYYG 221900Z 30011KT 15SM FEW240 M09/M16 A2997 RMK CI0 SLP151=
CYYG;2005-12-22 20:00;METAR CYYG 222000Z 28009KT 15SM FEW240 M10/M16 A2999 RMK CI1 SLP160=
CYYG;2005-12-22 21:00;METAR CYYG 222100Z 27005KT 15SM FEW240 M10/M17 A2998 RMK CI1 SLP157=
CYYG;2005-12-22 22:00;METAR CYYG 222200Z 27004KT 15SM FEW240 M11/M17 A3000 RMK CI1 SLP163=
CYYG;2005-12-22 23:00;METAR CYYG 222300Z 22004KT 15SM FEW240 M11/M16 A3002 RMK CI1 SLP169=
CYYG;2005-12-23 00:00;METAR CYYG 230000Z 26006KT 15SM FEW240 M10/M17 A3001 RMK CI1 SLP167=
CYYG;2005-12-23 01:00;METAR CYYG 230100Z 25007KT 15SM FEW240 M10/M17 A2999 RMK CI1 SLP161=
CYYG;2005-12-23 02:00;METAR CYYG 230200Z 25007KT 15SM FEW110 M10/M17 A2998 RMK AC2 SLP155=
CYYG;2005-12-23 03:00;METAR CYYG 230300Z 21005KT 15SM SCT100 M10/M16 A2995 RMK AC3 SLP145=
CYYG;2005-12-23 04:00;METAR CYYG 230400Z 20006KT 15SM BKN110 M09/M15 A2991 RMK AC6 SLP132=
CYYG;2005-12-23 05:00;METAR CYYG 230500Z 21010KT 15SM FEW025 BKN110 M06/M09 A2990 RMK SC2AC5 SLP129=
CYYG;2005-12-23 06:00;METAR CYYG 230600Z 20011KT 15SM SCT020 BKN120 M06/M08 A2989 RMK SC3AC4 SLP125=
CYYG;2005-12-23 07:00;METAR CYYG 230700Z 20009KT 15SM SCT020 BKN160 M06/M08 A2987 RMK SC3AC4 SLP117=
CYYG;2005-12-23 08:00;METAR CYYG 230800Z 21011KT 15SM FEW020 BKN140 M05/M08 A2984 RMK SC2AC5 SLP109=
CYYG;2005-12-23 10:00;METAR CYYG 231000Z 22012G17KT 15SM -SHSN SCT020 BKN078 OVC140 M03/M07 A2979 RMK SC4AC2AC2 SLP093=
CYYG;2005-12-23 11:00;METAR CYYG 231100Z 21010KT 15SM -SHSN SCT020 OVC031 M03/M05 A2977 RMK SC3SC5 SLP085=
CYYG;2005-12-23 12:00;METAR CYYG 231200Z 21009KT 15SM -SHSN OVC021 M02/M05 A2977 RMK SC8 SLP084=
CYYG;2005-12-23 13:00;METAR CYYG 231300Z 22008KT 15SM -SHSN BKN019 OVC070 M02/M04 A2978 RMK SC6AC2 SLP087=
CYYG;2005-12-23 14:00;METAR CYYG 231400Z 22007KT 3SM -SN OVC015 M02/M03 A2977 RMK SN4SC4 SLP082=
CYYG;2005-12-23 14:19;SPECI CYYG 231419Z 23008KT 2SM -SN OVC006 M02/ RMK SF8=
CYYG;2005-12-23 15:00;METAR CYYG 231500Z 23006KT 2SM -SN BKN005 OVC010 M01/M02 A2975 RMK SF6SC2 SLP078=
CYYG;2005-12-23 15:23;SPECI CYYG 231523Z 23008KT 10SM -SHSN OVC012 M01/ RMK SC8=
CYYG;2005-12-23 16:00;METAR CYYG 231600Z 25007KT 15SM -SHSN SCT008 OVC012 M01/M02 A2974 RMK SF3SC5 SLP073=
CYYG;2005-12-23 17:00;METAR CYYG 231700Z 26007KT 15SM -SHSN FEW008 BKN018 OVC060 M01/M03 A2974 RMK SF2SC5SC2 SLP072=
CYYG;2005-12-23 18:00;METAR CYYG 231800Z 27012G18KT 15SM -SHSN FEW008 BKN020 OVC040 M00/M03 A2974 RMK SF1SC5SC2 SLP074=
CYYG;2005-12-23 19:00;METAR CYYG 231900Z 28010G15KT 15SM -SHSN OVC019 M01/M04 A2976 RMK SC8 SLP081=
CYYG;2005-12-23 20:00;METAR CYYG 232000Z 29010KT 15SM -SHSN BKN020 OVC100 M01/M04 A2979 RMK SC6AC1 SLP090=
CYYG;2005-12-23 21:00;METAR CYYG 232100Z 27004KT 15SM BKN035 M02/M04 A2982 RMK SC5 SLP099=
CYYG;2005-12-23 22:00;METAR CYYG 232200Z 29006KT 15SM SCT035 BKN070 M02/M05 A2984 RMK SC3AC2 SLP108=
CYYG;2005-12-23 23:00;METAR CYYG 232300Z 30005KT 15SM SCT035 BKN070 M03/M05 A2987 RMK SC3AC2 SLP118=
CYYG;2005-12-24 00:00;METAR CYYG 240000Z 32004KT 15SM FEW070 M04/M06 A2988 RMK AC2 SLP120=
CYYG;2005-12-24 01:00;METAR CYYG 240100Z 31004KT 15SM FEW070 M04/M06 A2990 RMK AC1 SLP126=
CYYG;2005-12-24 02:00;METAR CYYG 240200Z 26004KT 15SM FEW070 M05/M06 A2991 RMK AC1 SLP131=
CYYG;2005-12-24 03:00;METAR CYYG 240300Z 32004KT 15SM SCT020 BKN070 M05/M06 A2992 RMK SC3AC2 SLP133=
CYYG;2005-12-24 04:00;METAR CYYG 240400Z 29002KT 15SM BKN028 M03/M05 A2992 RMK SC7 SLP134=
CYYG;2005-12-24 05:00;METAR CYYG 240500Z 00000KT 15SM BKN035 M05/M06 A2991 RMK SC7 SLP132=
CYYG;2005-12-24 06:00;METAR CYYG 240600Z 00000KT 15SM BKN035 BKN130 M05/M06 A2992 RMK SC6AC2 SLP134=
CYYG;2005-12-24 07:00;METAR CYYG 240700Z 14002KT 15SM SCT035 BKN130 M05/M06 A2991 RMK SC4AC3 SLP132=
CYYG;2005-12-24 08:00;METAR CYYG 240800Z 00000KT 15SM FEW035 OVC087 M04/M05 A2991 RMK SC2AC6 SLP132=
CYYG;2005-12-24 08:37;SPECI CYYG 240837Z 00000KT 10SM -SN OVC049 M05/ RMK SC8=
CYYG;2005-12-24 09:00;METAR CYYG 240900Z 00000KT 8SM -SN SCT015 OVC035 M05/M05 A2991 RMK SC4SC4 SLP130=
CYYG;2005-12-24 09:29;SPECI CYYG 240929Z 00000KT 8SM -SN BKN011 OVC023 M04/ RMK SC6SC2=
CYYG;2005-12-24 10:00;METAR CYYG 241000Z 00000KT 6SM -SN BKN011 OVC023 M04/M05 A2990 RMK SC7SC1 SLP129=
CYYG;2005-12-24 10:33;SPECI CYYG 241033Z 09002KT 3SM -SN BKN007 OVC016 M04/ RMK SF6SC2=
CYYG;2005-12-24 10:50;SPECI CYYG 241050Z 00000KT 1 1/2SM -SN VV006 M03/ RMK SN8=
CYYG;2005-12-24 11:00;METAR CYYG 241100Z 10002KT 1 1/2SM -SN VV006 M03/M04 A2991 RMK SN8 /S02/ SLP130=
CYYG;2005-12-24 12:00;METAR CYYG 241200Z 09003KT 1 1/2SM -SN OVC013 M03/M04 A2991 RMK SN4SC4 /S03/ SLP131=
CYYG;2005-12-24 12:04;SPECI CYYG 241204Z 09003KT 1SM -SN VV007 M03/ RMK SN8 RVR RWY03 6000FT=
CYYG;2005-12-24 12:09;SPECI CYYG 241209Z 10003KT 3/4SM -SN VV005 M03/ RMK SN8 RVR RWY03 5000FT=
CYYG;2005-12-24 12:27;SPECI CYYG 241227Z 10003KT 1 1/2SM -SN VV008 M03/ RMK SN8=
CYYG;2005-12-24 13:00;METAR CYYG 241300Z 10004KT 2SM -SN OVC016 M03/M04 A2991 RMK SC8 /S01/ SLP131=
CYYG;2005-12-24 13:18;SPECI CYYG 241318Z 09004KT 1SM -SN VV008 M03/ RMK SN8=
CYYG;2005-12-24 14:00;METAR CYYG 241400Z 11003KT 2SM -SN OVC011 M03/M03 A2991 RMK SC8 SLP132=
CYYG;2005-12-24 15:00;METAR CYYG 241500Z 10004KT 1 1/2SM -SN VV008 M02/M03 A2990 RMK SN8 /S02/ SLP128=
CYYG;2005-12-24 15:09;SPECI CYYG 241509Z 10003KT 2SM -SN FEW003 FEW100 BKN250 M02/ RMK SF2AC1CI4=
CYYG;2005-12-24 15:36;SPECI CYYG 241536Z 08005KT 5SM -SN SCT006 BKN100 M02/ RMK SF3AC3=
CYYG;2005-12-24 16:00;METAR CYYG 241600Z 08004KT 6SM -SN FEW006 BKN100 OVC250 M02/M02 A2987 RMK SF2AC3CI2 SLP118=
CYYG;2005-12-24 16:23;SPECI CYYG 241623Z 10004KT 10SM -SN FEW004 OVC007 M01/ RMK SF2SF6=
CYYG;2005-12-24 17:00;METAR CYYG 241700Z 09002KT 15SM -SN BKN004 OVC007 M01/M02 A2985 RMK SF6SF2 SLP112=
CYYG;2005-12-24 18:00;METAR CYYG 241800Z 09002KT 15SM -SN BKN005 M01/M02 A2984 RMK SF7 SLP108=
CYYG;2005-12-24 18:26;SPECI CYYG 241826Z 10003KT 15SM BKN006 M01/ RMK SF7=
CYYG;2005-12-24 19:00;METAR CYYG 241900Z 10002KT 15SM OVC007 M01/M02 A2985 RMK ST8 SLP110=
CYYG;2005-12-24 20:00;METAR CYYG 242000Z 36002KT 15SM BKN008 OVC018 M01/M02 A2988 RMK ST6SC2 SLP122=
CYYG;2005-12-24 21:00;METAR CYYG 242100Z 00000KT 15SM FEW008 OVC016 M01/M03 A2989 RMK SF2SC6 SLP125=
CYYG;2005-12-24 21:48;SPECI CYYG 242148Z 00000KT 15SM BKN007 OVC016 M02/ RMK SF5SC3=
CYYG;2005-12-24 22:00;METAR CYYG 242200Z 00000KT 15SM SCT007 OVC016 M02/M03 A2990 RMK SF4SC4 SLP128=
CYYG;2005-12-24 23:00;METAR CYYG 242300Z 33002KT 15SM FEW007 BKN018 M04/M05 A2993 RMK SF2SC5 SLP136=
CYYG;2005-12-25 00:00;METAR CYYG 250000Z 34002KT 15SM SCT007 BKN017 M04/M05 A2994 RMK SF4SC3 SLP141=
CYYG;2005-12-25 01:00;METAR CYYG 250100Z 23002KT 15SM FEW007 BKN014 M03/M03 A2996 RMK SF2SC5 SLP148=
CYYG;2005-12-25 02:00;METAR CYYG 250200Z 00000KT 10SM SCT014 OVC050 M03/M04 A2996 RMK SC4SC4 SLP149=
CYYG;2005-12-25 02:38;SPECI CYYG 250238Z 23002KT 10SM BKN011 OVC020 M03/ RMK SC6SC2=
CYYG;2005-12-25 03:00;METAR CYYG 250300Z 22004KT 10SM MIFG OVC012 M02/M03 A2997 RMK SC8 SLP152=
CYYG;2005-12-25 04:00;METAR CYYG 250400Z 20005KT 15SM OVC012 M02/M03 A2997 RMK SC8 SLP151=
CYYG;2005-12-25 05:00;METAR CYYG 250500Z 21004KT 7SM OVC011 M02/M03 A2999 RMK SC8 SLP158=
CYYG;2005-12-25 06:00;METAR CYYG 250600Z 21006KT 10SM OVC010 M01/M02 A3000 RMK SC8 SLP160=
CYYG;2005-12-25 07:00;METAR CYYG 250700Z 20004KT 6SM BR OVC009 M01/M02 A3001 RMK SF8 SLP164=
CYYG;2005-12-25 08:00;METAR CYYG 250800Z 21002KT 6SM BR OVC007 M01/M02 A3001 RMK SF8 SLP163=
CYYG;2005-12-25 09:00;METAR CYYG 250900Z 19003KT 15SM BKN006 OVC012 M01/M02 A3000 RMK SF5SC3 SLP161=
CYYG;2005-12-25 10:00;METAR CYYG 251000Z 18003KT 15SM OVC008 M01/M02 A3001 RMK ST8 SLP163=
CYYG;2005-12-25 11:00;METAR CYYG 251100Z 21002KT 6SM BR OVC008 M01/M01 A3001 RMK ST8 SLP164=
CYYG;2005-12-25 12:00;METAR CYYG 251200Z 00000KT 5SM BR OVC008 M01/M01 A3003 RMK ST8 SLP170=
CYYG;2005-12-25 13:00;METAR CYYG 251300Z 34002KT 2SM BR OVC007 M01/M01 A3004 RMK ST8 SLP176=
CYYG;2005-12-25 13:05;SPECI CYYG 251305Z 00000KT 2SM -SHSN BR OVC007 M01/ RMK ST8=
CYYG;2005-12-25 13:23;SPECI CYYG 251323Z 36002KT 1 1/2SM -SHSN BR BKN002 OVC007 M01/ RMK SF6ST2=
CYYG;2005-12-25 14:00;METAR CYYG 251400Z 33003KT 1SM -SHSN BR OVC002 M01/M01 A3006 RMK FG2SF6 SLP181=
CYYG;2005-12-25 15:00;METAR CYYG 251500Z 03004KT 3/4SM -SN BR OVC003 M01/M01 A3005 RMK FG2SF6 SLP179=
CYYG;2005-12-25 15:25;SPECI CYYG 251525Z 02003KT 1 1/2SM -SN BR BKN002 OVC010 M01/ RMK SF6SC2=
CYYG;2005-12-25 16:00;METAR CYYG 251600Z 04003KT 2 1/2SM -SN BR OVC003 M01/M01 A3004 RMK SF8 SLP175=
CYYG;2005-12-25 17:00;METAR CYYG 251700Z 05003KT 3SM -SN BR OVC003 M01/M01 A3004 RMK SF8 SLP174=
CYYG;2005-12-25 18:00;METAR CYYG 251800Z 02004KT 3SM -SN BR OVC004 M01/M01 A3003 RMK SF8 SLP170=
CYYG;2005-12-25 19:00;METAR CYYG 251900Z 04004KT 3SM -SN BR BKN005 OVC014 M00/M01 A3003 RMK SF7SC1 SLP172=
CYYG;2005-12-25 19:36;SPECI CYYG 251936Z 06004KT 5SM -SN BR BKN006 OVC014 M00/ RMK SF7SC1=
CYYG;2005-12-25 20:00;METAR CYYG 252000Z 04005KT 5SM -SN BR OVC006 M00/M01 A3005 RMK SF8 SLP177=
CYYG;2005-12-25 21:00;METAR CYYG 252100Z 03004KT 4SM -SN BR OVC005 M01/M01 A3007 RMK SF8 SLP186=
CYYG;2005-12-25 22:00;METAR CYYG 252200Z 06003KT 6SM -SN BR BKN006 BKN015 OVC058 M01/M01 A3007 RMK SF5SC2SC1 SLP185=
CYYG;2005-12-25 22:21;SPECI CYYG 252221Z 07004KT 8SM -SN SCT006 BKN016 OVC058 M00/ RMK SF3SC2SC2=
CYYG;2005-12-25 23:00;METAR CYYG 252300Z 07005KT 8SM -SN FEW006 BKN023 OVC056 M00/M01 A3007 RMK SF2SC6SC1 SLP184=
CYYG;2005-12-25 23:21;SPECI CYYG 252321Z 07005KT 15SM BKN021 BKN034 OVC057 M00/ RMK SC5SC2SC2=
CYYG;2005-12-26 00:00;METAR CYYG 260000Z 09005KT 15SM BKN015 OVC033 M00/M01 A3007 RMK SC6SC2 SLP185=
CYYG;2005-12-26 01:00;METAR CYYG 260100Z 08005KT 15SM BKN012 OVC058 M00/M01 A3006 RMK SC6SC2 SLP183=
CYYG;2005-12-26 01:41;SPECI CYYG 260141Z 08006KT 15SM FEW004 SCT007 BKN012 OVC027 M00/ RMK SF2SF2SC2SC2=
CYYG;2005-12-26 02:00;METAR CYYG 260200Z 07007KT 15SM BKN003 OVC025 M00/M01 A3006 RMK SF5SC3 SLP181=
CYYG;2005-12-26 03:00;METAR CYYG 260300Z 08008KT 3SM BR OVC002 00/M00 A3004 RMK SF8 SLP175=
CYYG;2005-12-26 03:27;SPECI CYYG 260327Z 08008KT 1SM BR OVC002 00/ RMK ST8 RVR RWY03 6000FT=
CYYG;2005-12-26 04:00;METAR CYYG 260400Z 09009KT 3/4SM BR OVC002 00/00 A3001 RMK FG2ST6 RVR RWY03 4500FT SLP166=
CYYG;2005-12-26 05:00;METAR CYYG 260500Z 09010KT 1SM BR OVC002 00/00 A2999 RMK FG2ST6 RVR RWY03 5000FT SLP157=
CYYG;2005-12-26 06:00;METAR CYYG 260600Z 08008KT 3SM BR OVC002 01/00 A3000 RMK ST8 SLP162=
CYYG;2005-12-26 07:00;METAR CYYG 260700Z 07011KT 5SM -DZ BR OVC004 01/00 A2998 RMK ST8 SLP154=
CYYG;2005-12-26 07:51;SPECI CYYG 260751Z 08010KT 5SM BR OVC003 01/ RMK ST8=
CYYG;2005-12-26 08:00;METAR CYYG 260800Z 08011KT 5SM BR OVC003 01/00 A2995 RMK ST8 SLP144=
CYYG;2005-12-26 08:31;SPECI CYYG 260831Z 07013KT 2SM -DZ BR OVC002 01/ RMK ST8=
CYYG;2005-12-26 09:00;METAR CYYG 260900Z 07014KT 1SM -DZ BR OVC002 00/00 A2991 RMK ST8 SLP132=
CYYG;2005-12-26 09:49;SPECI CYYG 260949Z 08011G16KT 1SM -SN BR OVC002 00/ RMK ST8=
CYYG;2005-12-26 10:00;METAR CYYG 261000Z 09011G16KT 1SM -SN BR OVC002 01/00 A2990 RMK ST8 SLP129=
CYYG;2005-12-26 10:16;SPECI CYYG 261016Z 07012KT 3SM -SN BR OVC002 00/ RMK SF8=
CYYG;2005-12-26 11:00;METAR CYYG 261100Z 08014KT 3SM -SN BR BKN002 OVC010 00/00 A2984 RMK SF6SF2 PRESFR SLP108=
CYYG;2005-12-26 11:22;SPECI CYYG 261122Z 08015G20KT 5SM -DZSN BR SCT002 OVC006 00/ RMK SF4SF4=
CYYG;2005-12-26 12:00;METAR CYYG 261200Z 07016G21KT 4SM -DZSN BR FEW002 OVC006 01/00 A2980 RMK SF2SF6 /S01/ SLP093=
CYYG;2005-12-26 12:48;SPECI CYYG 261248Z 07015KT 8SM -DZSN FEW003 BKN007 OVC040 01/ RMK SF2SF6SC1=
CYYG;2005-12-26 13:00;METAR CYYG 261300Z 08016G21KT 8SM -DZSN FEW003 BKN008 OVC037 01/00 A2978 RMK SF2SF6SC1 SLP086=
CYYG;2005-12-26 13:43;SPECI CYYG 261343Z 08016KT 6SM -RAPL BR FEW004 BKN008 OVC024 01/ RMK SF2SF4SC2=
CYYG;2005-12-26 14:00;METAR CYYG 261400Z 07016KT 8SM -RAPL FEW004 BKN009 OVC025 01/00 A2975 RMK SF1SF4SC3 SLP078=
CYYG;2005-12-26 14:47;SPECI CYYG 261447Z 07017KT 10SM -RA OVC008 01/ RMK SF8=
CYYG;2005-12-26 15:00;METAR CYYG 261500Z 07015G20KT 12SM -RA OVC007 01/00 A2970 RMK SF8 SLP058=
CYYG;2005-12-26 16:00;METAR CYYG 261600Z 08017KT 8SM -RA OVC006 01/00 A2961 RMK SF8 PRESFR SLP029=
CYYG;2005-12-26 17:00;METAR CYYG 261700Z 08017KT 12SM -RA OVC007 01/01 A2955 RMK SF8 PRESFR SLP008=
CYYG;2005-12-26 18:00;METAR CYYG 261800Z 07018G24KT 12SM -SHRA OVC008 02/01 A2950 RMK SF8 SLP991=
CYYG;2005-12-26 19:00;METAR CYYG 261900Z 05012G21KT 12SM -SHRA OVC006 01/01 A2945 RMK SF8 SLP975=
CYYG;2005-12-26 20:00;METAR CYYG 262000Z 06019G26KT 12SM -SHRA OVC005 01/01 A2939 RMK SF8 PRESFR SLP955=
CYYG;2005-12-26 20:41;SPECI CYYG 262041Z 06025G32KT 10SM -SHRA OVC004 01/ RMK SF8=
CYYG;2005-12-26 21:00;METAR CYYG 262100Z 07024G31KT 10SM -SHRA OVC004 01/01 A2933 RMK SF8 PRESFR SLP934=
CYYG;2005-12-26 22:00;METAR CYYG 262200Z 06020G25KT 10SM -SHRA OVC005 02/01 A2931 RMK SF8 SLP926=
CYYG;2005-12-26 22:39;SPECI CYYG 262239Z 06019G28KT 10SM -SHRA OVC007 01/ RMK SF8=
CYYG;2005-12-26 23:00;METAR CYYG 262300Z 06026G36KT 6SM -RA BR OVC007 01/01 A2923 RMK SF8 PRESFR SLP901=
CYYG;2005-12-27 00:00;METAR CYYG 270000Z 06019G26KT 6SM -RA BR OVC006 01/01 A2916 RMK SF8 PRESFR SLP876=
CYYG;2005-12-27 01:00;METAR CYYG 270100Z 06017G26KT 6SM -RA BR OVC005 01/01 A2909 RMK SF8 PRESFR SLP854=
CYYG;2005-12-27 02:00;METAR CYYG 270200Z 05014G20KT 5SM -RA BR OVC005 01/01 A2905 RMK SF8 SLP840=
CYYG;2005-12-27 02:43;SPECI CYYG 270243Z 03013KT 2SM -RA BR OVC005 01/ RMK SF8=
CYYG;2005-12-27 03:00;METAR CYYG 270300Z 03014KT 2SM -RA BR SCT005 OVC012 01/01 A2903 RMK SF3SC5 SLP831=
CYYG;2005-12-27 04:00;METAR CYYG 270400Z 01007KT 2SM -RA BR FEW005 OVC012 01/01 A2899 RMK SF2SC6 SLP819=
CYYG;2005-12-27 04:33;SPECI CYYG 270433Z 36009KT 2SM -RASN BR FEW005 OVC010 01/ RMK SF2SC6=
CYYG;2005-12-27 05:00;METAR CYYG 270500Z 03012G30KT 5SM -RA BR FEW005 OVC028 01/01 A2893 RERA RMK SF2SC6 RERA PRESFR SLP797=
CYYG;2005-12-27 06:00;METAR CYYG 270600Z 04008KT 6SM -RA BR OVC006 01/01 A2893 RMK SF8 SLP797=
CYYG;2005-12-27 06:45;SPECI CYYG 270645Z 26002KT 6SM BR OVC004 01/ RMK SF8=
CYYG;2005-12-27 07:00;METAR CYYG 270700Z 26003KT 6SM BR OVC004 01/01 A2893 RMK ST8 SLP800=
CYYG;2005-12-27 07:40;SPECI CYYG 270740Z 27003KT 1SM BR OVC002 01/ RMK ST8=
CYYG;2005-12-27 08:00;METAR CYYG 270800Z 24003KT 1/2SM FG VV002 01/01 A2893 RMK FG8 RVR RWY03 3000FT SLP797=
CYYG;2005-12-27 09:00;METAR CYYG 270900Z 23004KT 3/8SM FG VV002 01/00 A2893 RMK FG8 RVR RWY03 2400FT SLP797=
CYYG;2005-12-27 10:00;METAR CYYG 271000Z 25005KT 1/2SM FG VV002 01/00 A2893 RMK FG8 RVR RWY03 3000FT SLP800=
CYYG;2005-12-27 11:00;METAR CYYG 271100Z 29006KT 3/4SM BR VV002 01/00 A2894 RMK FG8 RVR RWY03 4000 FT SLP801=
CYYG;2005-12-27 12:00;METAR CYYG 271200Z 28004KT 1/2SM FG VV002 01/00 A2895 RMK FG8 RVR RWY03 3000 FT SLP805=
CYYG;2005-12-27 12:42;SPECI CYYG 271242Z 23004KT 1/4SM FG VV002 01/ RMK FG8 RVR RWY03 1800 FT=
CYYG;2005-12-27 13:00;METAR CYYG 271300Z 26003KT 1/2SM FG VV002 01/01 A2896 RMK FG8 RVR RWY03 2600 FT SLP810=
CYYG;2005-12-27 13:38;SPECI CYYG 271338Z 26005KT 3/8SM FG VV002 01/ RMK FG8 RVR RWY03 2000 FT=
CYYG;2005-12-27 14:00;METAR CYYG 271400Z 27007KT 5/8SM BR VV003 01/01 A2899 RMK FG8 RVR RWY03 3500 FT SLP819=
CYYG;2005-12-27 14:12;SPECI CYYG 271412Z 28006KT 1SM BR OVC003 01/ RMK ST8=
CYYG;2005-12-27 15:00;METAR CYYG 271500Z 31009KT 1 1/2SM -DZ BR BKN003 OVC007 01/01 A2899 RMK SF5SF3 SLP820=
CYYG;2005-12-27 15:30;SPECI CYYG 271530Z 31010KT 5SM -DZ BR BKN004 BKN008 01/ RMK SF5SF2=
CYYG;2005-12-27 16:00;METAR CYYG 271600Z 31012KT 5SM -DZ BR BKN005 OVC008 00/00 A2899 RMK SF5SF3 SLP818=
CYYG;2005-12-27 17:00;METAR CYYG 271700Z 27007KT 3SM -DZ BR OVC005 01/00 A2897 RMK SF8 SLP813=
CYYG;2005-12-27 17:20;SPECI CYYG 271720Z 26006KT 2SM -DZ BR OVC003 01/ RMK SF8=
CYYG;2005-12-27 18:00;METAR CYYG 271800Z 33005KT 3SM -DZ BR BKN003 OVC007 01/01 A2898 RMK SF6SF2 SLP816=
CYYG;2005-12-27 19:00;METAR CYYG 271900Z 34005KT 3SM -DZ BR OVC003 01/01 A2901 RMK SF8 SLP825=
CYYG;2005-12-27 19:48;SPECI CYYG 271948Z 36009KT 1SM BR OVC002 01/ RMK SF8=
CYYG;2005-12-27 20:00;METAR CYYG 272000Z 36010KT 3/4SM BR VV002 01/01 A2906 RMK FG8 SLP843=
CYYG;2005-12-27 20:28;SPECI CYYG 272028Z 36007KT 1 1/2SM BR OVC003 01/ RMK ST8=
CYYG;2005-12-27 21:00;METAR CYYG 272100Z 36008KT 1 1/2SM BR OVC003 01/00 A2910 RMK ST8 SLP855=
CYYG;2005-12-27 21:11;SPECI CYYG 272111Z 35007KT 1SM -DZ BR OVC003 01/ RMK ST8=
CYYG;2005-12-27 21:52;SPECI CYYG 272152Z 36019G24KT 3SM -DZ BR OVC004 01/ RMK ST8=
CYYG;2005-12-27 22:00;METAR CYYG 272200Z 01017G27KT 3SM -DZ BR OVC005 01/01 A2913 RMK ST8 SLP865=
CYYG;2005-12-27 22:44;SPECI CYYG 272244Z 35013G20KT 4SM -SHSN OVC005 01/ RMK SF8=
CYYG;2005-12-27 23:00;METAR CYYG 272300Z 35018G26KT 6SM -SHSN OVC006 01/00 A2919 RMK SF8 PRESRR SLP885=
CYYG;2005-12-28 00:00;METAR CYYG 280000Z 34017G25KT 4SM -SHSN OVC008 01/00 A2924 RMK SF8 SLP904=
CYYG;2005-12-28 01:00;METAR CYYG 280100Z 34017G27KT 3SM -SN OVC006 00/00 A2928 RMK SF8 SLP917=
CYYG;2005-12-28 02:00;METAR CYYG 280200Z 35017G22KT 3SM -SN OVC007 00/M00 A2932 RMK SF8 SLP930=
CYYG;2005-12-28 03:00;METAR CYYG 280300Z 35020G30KT 3SM -SN BKN007 OVC016 M00/M01 A2935 RMK SF6SC2 SLP941=
CYYG;2005-12-28 04:00;METAR CYYG 280400Z 35019G28KT 4SM -SN BKN007 OVC016 M00/M01 A2938 RMK SF6SC2 SLP950=
CYYG;2005-12-28 05:00;METAR CYYG 280500Z 34017G26KT 3SM -SN OVC006 M00/M01 A2942 RMK SF8 SLP964=
CYYG;2005-12-28 06:00;METAR CYYG 280600Z 35015G22KT 3SM -SN OVC006 M01/M01 A2947 RMK SF8 SLP981=
CYYG;2005-12-28 09:00;METAR CYYG 280900Z 34017G24KT 6SM -SHSN BKN009 OVC017 M01/M02 A2960 RMK SF6SC2 SLP027=
CYYG;2005-12-28 10:00;METAR CYYG 281000Z 34014G21KT 10SM -SHSN OVC010 M01/M02 A2964 RMK SC8 SLP039=
CYYG;2005-12-28 11:00;METAR CYYG 281100Z 33014G20KT 12SM OVC013 M01/M02 A2968 RMK SC8 SLP053=
CYYG;2005-12-28 11:49;SPECI CYYG 281149Z 32013G18KT 8SM -SHSN OVC010 M01/ RMK SC8=
CYYG;2005-12-28 12:00;METAR CYYG 281200Z 32010G15KT 6SM -SHSN BR OVC007 M01/M02 A2972 RMK SF8 SLP068=
CYYG;2005-12-28 12:14;SPECI CYYG 281214Z 32008KT 10SM -SHSN OVC013 M01/ RMK SC8=
CYYG;2005-12-28 13:00;METAR CYYG 281300Z 32011G17KT 10SM -SHSN OVC012 M01/M03 A2976 RMK SC8 SLP079=
CYYG;2005-12-28 14:00;METAR CYYG 281400Z 32011G16KT 10SM -SHSN OVC011 M01/M03 A2979 RMK SC8 SLP089=
CYYG;2005-12-28 14:35;SPECI CYYG 281435Z 31009KT 6SM -SHSN OVC008 M02/ RMK SF8=
CYYG;2005-12-28 15:00;METAR CYYG 281500Z 30010KT 10SM -SHSN OVC011 M02/M03 A2981 RMK SF8 SLP097=
CYYG;2005-12-28 16:00;METAR CYYG 281600Z 30009KT 15SM -SHSN BKN011 M02/M03 A2982 RMK SC7 SLP099=
CYYG;2005-12-28 16:09;SPECI CYYG 281609Z 32009KT 15SM BKN016 M02/ RMK SC6=
CYYG;2005-12-28 17:00;METAR CYYG 281700Z 29008KT 15SM BKN016 M02/M04 A2980 RMK SC6 SLP094=
CYYG;2005-12-28 18:00;METAR CYYG 281800Z 27008KT 15SM OVC011 M02/M04 A2982 RMK SC8 SLP102=
CYYG;2005-12-28 19:00;METAR CYYG 281900Z 25007KT 15SM OVC010 M03/M05 A2983 RMK SC8 SLP105=
CYYG;2005-12-28 19:15;SPECI CYYG 281915Z 27007KT 15SM OVC007 M04/ RMK SC8=
CYYG;2005-12-28 20:00;METAR CYYG 282000Z 27005KT 15SM OVC007 M04/M06 A2987 RMK SC8 SLP117=
CYYG;2005-12-28 21:00;METAR CYYG 282100Z 25004KT 15SM SCT007 BKN110 M04/M06 A2987 RMK SC4AC3 SLP116=
CYYG;2005-12-28 22:00;METAR CYYG 282200Z 23003KT 15SM FEW007 BKN110 M04/M05 A2988 RMK SC1AC6 SLP122=
CYYG;2005-12-28 23:00;METAR CYYG 282300Z 20006KT 15SM BKN120 M03/M05 A2988 RMK AC6 SLP121=
CYYG;2005-12-29 00:00;METAR CYYG 290000Z 20005KT 15SM BKN120 M04/M05 A2989 RMK AC6 SLP123=
CYYG;2005-12-29 01:00;METAR CYYG 290100Z 24004KT 15SM BKN130 M03/M04 A2989 RMK AC6 SLP124=
CYYG;2005-12-29 02:00;METAR CYYG 290200Z 25006KT 15SM SCT130 M03/M04 A2990 RMK AC4 SLP128=
CYYG;2005-12-29 03:00;METAR CYYG 290300Z 25007KT 15SM SCT110 M04/M07 A2990 RMK AC4 SLP129=
CYYG;2005-12-29 04:00;METAR CYYG 290400Z 24007KT 15SM BKN110 M03/M07 A2991 RMK AC6 SLP131=
CYYG;2005-12-29 05:00;METAR CYYG 290500Z 25007KT 15SM BKN100 M03/M07 A2990 RMK AC7 SLP128=
CYYG;2005-12-29 06:00;METAR CYYG 290600Z 23006KT 15SM BKN100 M03/M05 A2991 RMK AC7 SLP131=
CYYG;2005-12-29 07:00;METAR CYYG 290700Z 22005KT 15SM FEW073 OVC110 M02/M04 A2993 RMK AC2AC6 SLP136=
CYYG;2005-12-29 08:00;METAR CYYG 290800Z 21004KT 15SM BKN071 OVC110 M02/M03 A2993 RMK AC6AC2 SLP139=
CYYG;2005-12-29 09:00;METAR CYYG 290900Z 18006KT 15SM OVC072 M01/M03 A2993 RMK AC8 SLP137=
CYYG;2005-12-29 10:00;METAR CYYG 291000Z 16005KT 15SM OVC077 M01/M03 A2993 RMK AC8 SLP138=
CYYG;2005-12-29 11:00;METAR CYYG 291100Z 18007KT 15SM OVC061 M01/M04 A2994 RMK SC8 SLP142=
CYYG;2005-12-29 12:00;METAR CYYG 291200Z 16010KT 15SM BKN061 BKN089 M01/M03 A2993 RMK SC5AC2 SLP137=
CYYG;2005-12-29 12:46;SPECI CYYG 291246Z 17009KT 8SM -SHSN BKN016 OVC060 M00/ RMK SC5SC3=
CYYG;2005-12-29 13:00;METAR CYYG 291300Z 16010KT 8SM -SHSN SCT016 OVC042 M00/M01 A2994 RMK SC4SC4 SLP140=
CYYG;2005-12-29 13:46;SPECI CYYG 291346Z 17010KT 15SM FEW016 OVC033 00/ RMK SC2SC6=
CYYG;2005-12-29 14:00;METAR CYYG 291400Z 18013KT 15SM FEW016 OVC033 00/M01 A2994 RMK SC2SC6 SLP140=
CYYG;2005-12-29 15:00;METAR CYYG 291500Z 16010G15KT 15SM FEW016 SCT035 BKN120 01/M00 A2992 RMK SC1SC3AC3 SLP134=
CYYG;2005-12-29 16:00;METAR CYYG 291600Z 17014G19KT 15SM FEW016 SCT035 BKN078 02/01 A2987 RMK SC1SC2AC4 SLP118=
CYYG;2005-12-29 17:00;METAR CYYG 291700Z 16016KT 15SM FEW035 BKN099 02/01 A2984 RMK SC2AC5 SLP107=
CYYG;2005-12-29 18:00;METAR CYYG 291800Z 16012G17KT 15SM FEW015 BKN032 OVC100 03/02 A2981 RMK SC2SC4AC2 SLP096=
CYYG;2005-12-29 19:00;METAR CYYG 291900Z 16012KT 15SM FEW010 BKN017 OVC076 04/03 A2980 RMK SF1SC4AC3 SLP093=
CYYG;2005-12-29 20:00;METAR CYYG 292000Z 16014KT 15SM SCT015 BKN082 04/03 A2978 RMK SC3AC4 SLP087=
CYYG;2005-12-29 21:00;METAR CYYG 292100Z 17013KT 15SM FEW015 BKN079 OVC160 04/04 A2976 RMK SC2AC5AC2 SLP080=
CYYG;2005-12-29 22:00;METAR CYYG 292200Z 17011KT 12SM FEW045 BKN071 OVC160 06/05 A2974 RMK SC2AC5AC2 SLP072=
CYYG;2005-12-29 23:00;METAR CYYG 292300Z 16011KT 12SM BKN046 BKN080 OVC160 05/05 A2973 RMK SC5AC2AC2 SLP070=
CYYG;2005-12-29 23:33;SPECI CYYG 292333Z 16010KT 15SM BKN013 BKN033 OVC045 06/ RMK SC5SC2SC2=
CYYG;2005-12-30 00:00;METAR CYYG 300000Z 16011KT 15SM FEW013 FEW033 OVC052 06/05 A2972 RMK SC2SC1SC6 SLP065=
CYYG;2005-12-30 01:00;METAR CYYG 300100Z 17014KT 15SM FEW012 SCT035 OVC061 06/06 A2969 RMK SC2SC2SC5 SLP057=
CYYG;2005-12-30 03:00;METAR CYYG 300300Z 17016KT 15SM FEW030 FEW053 OVC098 06/06 A2965 RMK SC2SC1AC6 SLP042=
CYYG;2005-12-30 04:00;METAR CYYG 300400Z 17015KT 15SM FEW018 BKN028 OVC098 08/07 A2962 RMK SC2SC4AC2 SLP032=
CYYG;2005-12-30 05:00;METAR CYYG 300500Z 17014KT 15SM FEW018 OVC021 07/07 A2959 RMK SC2SC6 SLP021=
CYYG;2005-12-30 06:00;METAR CYYG 300600Z 16015KT 15SM FEW018 BKN033 OVC060 08/07 A2957 RMK SC2SC4SC2 SLP015=
CYYG;2005-12-30 07:00;METAR CYYG 300700Z 16013KT 15SM BKN023 OVC032 08/08 A2956 RMK SC6SC2 SLP011=
CYYG;2005-12-30 08:00;METAR CYYG 300800Z 17018KT 15SM OVC020 09/08 A2953 RMK SC8 SLP002=
CYYG;2005-12-30 09:00;METAR CYYG 300900Z 16015G20KT 15SM BKN020 OVC039 09/08 A2949 RMK SC6SC2 SLP988=
CYYG;2005-12-30 10:00;METAR CYYG 301000Z 16015G21KT 15SM BKN025 OVC034 10/09 A2946 RMK SC6SC2 SLP977=
CYYG;2005-12-30 11:00;METAR CYYG 301100Z 16018KT 15SM BKN020 OVC048 10/08 A2943 RMK SC6SC2 SLP968=
CYYG;2005-12-30 12:00;METAR CYYG 301200Z 16018G25KT 15SM BKN022 OVC040 10/09 A2941 RMK SC6SC2 SLP960=
CYYG;2005-12-30 12:37;SPECI CYYG 301237Z 16017G24KT 12SM -SHRA OVC023 10/ RMK SC8=
CYYG;2005-12-30 13:00;METAR CYYG 301300Z 16017KT 12SM -SHRA OVC023 10/09 A2939 RMK SC8 SLP954=
CYYG;2005-12-30 14:00;METAR CYYG 301400Z 16015KT 15SM -SHRA OVC022 11/09 A2935 RMK SC8 SLP941=
CYYG;2005-12-30 15:00;METAR CYYG 301500Z 16019G24KT 15SM -SHRA OVC022 11/09 A2932 RMK SC8 SLP929=
CYYG;2005-12-30 16:00;METAR CYYG 301600Z 15016G27KT 12SM -SHRA OVC020 11/10 A2924 RMK SC8 PRESFR SLP903=
CYYG;2005-12-30 16:40;SPECI CYYG 301640Z 17019G27KT 4SM -SHRA BR FEW005 OVC010 11/ RMK SF2SC6=
CYYG;2005-12-30 17:00;METAR CYYG 301700Z 17020G26KT 15SM -SHRA FEW005 OVC015 10/09 A2921 RMK SF1SC7 SLP892=
CYYG;2005-12-30 17:03;SPECI CYYG 301703Z 17019G25KT 15SM -SHRA FEW005 OVC014 10/ RMK SF1SC8=
CYYG;2005-12-30 18:00;METAR CYYG 301800Z 18017G22KT 15SM -SHRA FEW005 OVC010 10/09 A2920 RMK SF1SC8 SLP888=
CYYG;2005-12-30 18:47;SPECI CYYG 301847Z 20009KT 10SM -SHRA BKN007 OVC012 09/ RMK SF5SC3=
CYYG;2005-12-30 19:07;SPECI CYYG 301907Z 19008KT 1SM -SHRA BR FEW003 BKN007 OVC013 08/ RMK SF2SF4SC2=
CYYG;2005-12-30 19:13;SPECI CYYG 301913Z 18007KT 1/2SM -SHRA FG VV002 08/ RMK FG8 RVR RWY03 2800FT=
CYYG;2005-12-30 19:33;SPECI CYYG 301933Z 24004KT 1/4SM -SHRA FG VV002 08/ RMK FG8 RVR RWY03 1200FT=
CYYG;2005-12-30 19:45;SPECI CYYG 301945Z 27006KT 1 1/2SM -SHRA BR OVC004 07/ RMK FG2SF6=
CYYG;2005-12-30 20:00;METAR CYYG 302000Z 27006KT 1 1/2SM -SHRA BR OVC003 07/06 A2920 RMK FG2SF6 SLP889=
CYYG;2005-12-30 20:17;SPECI CYYG 302017Z 29010KT 6SM -SHRA BR BKN004 OVC008 06/ RMK SF6SF2=
CYYG;2005-12-30 20:47;SPECI CYYG 302047Z 30015KT 6SM -SHRA BR OVC003 02/ RMK SF8=
CYYG;2005-12-30 21:00;METAR CYYG 302100Z 31015G21KT 5SM -SHRA BR OVC004 01/01 A2924 RMK SF8 SLP902=
CYYG;2005-12-30 21:24;SPECI CYYG 302124Z 33014G22KT 3SM -RA BR OVC005 00/ RMK SF8=
CYYG;2005-12-30 21:40;SPECI CYYG 302140Z 32017G28KT 2 1/2SM -RA BR OVC006 00/ RMK SF8=
CYYG;2005-12-30 21:50;SPECI CYYG 302150Z 32017G26KT 2 1/2SM -FZRA BR OVC005 M00/ RMK SF8=
CYYG;2005-12-30 22:00;METAR CYYG 302200Z 33017G28KT 2 1/2SM -FZRA BR OVC005 M00/M01 A2928 RMK SF8 SLP917=
CYYG;2005-12-30 22:35;SPECI CYYG 302235Z 33020G26KT 5SM -FZRA BR BKN005 OVC011 M01/ RMK SF6SC2=
CYYG;2005-12-30 23:00;METAR CYYG 302300Z 34015G27KT 3SM -FZRA BR BKN007 OVC013 M01/M02 A2932 RMK SF6SC2 SLP930=
CYYG;2005-12-30 23:50;SPECI CYYG 302350Z 33018G25KT 10SM -FZRA OVC009 M02/ RMK SF8=
CYYG;2005-12-31 00:00;METAR CYYG 310000Z 33019G27KT 10SM -FZRA OVC009 M02/M03 A2937 RMK SF8 SLP948=
CYYG;2005-12-31 00:48;SPECI CYYG 310048Z 34015G24KT 3SM -SN OVC011 M03/ REFZRA RMK SC8=
CYYG;2005-12-31 01:00;METAR CYYG 310100Z 34016G24KT 3SM -SN DRSN OVC009 M03/M04 A2940 REFZRA RMK SC8 SLP958=
CYYG;2005-12-31 02:00;METAR CYYG 310200Z 34015G26KT 10SM -SN DRSN BKN010 BKN023 OVC054 M03/M05 A2944 RMK SC5SC2SC2 SLP969=
CYYG;2005-12-31 03:00;METAR CYYG 310300Z 34018G26KT 15SM OVC018 M03/M06 A2947 RMK SC8 SLP980=
CYYG;2005-12-31 03:09;SPECI CYYG 310309Z 33019G27KT 15SM -SN BKN015 BKN027 OVC049 M03/ RMK SC5SC2SC2=
CYYG;2005-12-31 03:47;SPECI CYYG 310347Z 33017G27KT 15SM OVC017 M04/ RMK SC8=
CYYG;2005-12-31 04:00;METAR CYYG 310400Z 33017G27KT 15SM BKN017 OVC029 M04/M06 A2948 RMK SC6SC2 SLP984=
CYYG;2005-12-31 04:26;SPECI CYYG 310426Z 33016G24KT 10SM -SN OVC018 M04/ RMK SC8=
CYYG;2005-12-31 05:00;METAR CYYG 310500Z 33016G21KT 15SM -SN OVC016 M04/M07 A2951 RMK SC8 SLP994=
CYYG;2005-12-31 06:00;METAR CYYG 310600Z 34011G18KT 15SM -SN OVC017 M04/M07 A2953 RMK SC8 SLP003=
CYYG;2005-12-31 07:00;METAR CYYG 310700Z 33016G24KT 15SM -SN OVC016 M04/M07 A2956 RMK SC8 SLP013=
CYYG;2005-12-31 08:00;METAR CYYG 310800Z 33013G19KT 10SM -SN DRSN SCT015 OVC025 M04/M07 A2959 RMK SC3SC5 SLP021=
CYYG;2005-12-31 09:00;METAR CYYG 310900Z 32014G19KT 15SM -SN DRSN OVC020 M04/M08 A2962 RMK SC8 SLP034=
CYYG;2005-12-31 10:00;METAR CYYG 311000Z 32013G20KT 15SM -SN OVC020 M04/M08 A2964 RMK SC8 SLP041=
CYYG;2005-12-31 11:00;METAR CYYG 311100Z 33010G19KT 15SM -SN OVC020 M05/M08 A2968 RMK SC8 SLP053=
CYYG;2005-12-31 12:00;METAR CYYG 311200Z 32010G19KT 10SM -SHSN OVC022 M05/M09 A2971 RMK SC8 SLP065=
CYYG;2005-12-31 13:00;METAR CYYG 311300Z 29010G15KT 8SM -SHSN OVC012 M07/M09 A2975 RMK SC8 SLP076=
CYYG;2005-12-31 14:00;METAR CYYG 311400Z 29011G17KT 10SM -SHSN OVC014 M07/M09 A2977 RMK SC8 SLP082=
CYYG;2005-12-31 15:00;METAR CYYG 311500Z 29013KT 10SM -SHSN BKN012 OVC018 M07/M10 A2978 RMK SC6SC2 SLP087=
CYYG;2005-12-31 15:44;SPECI CYYG 311544Z 29011G16KT 12SM -SHSN FEW012 OVC019 M07/ RMK SC2SC6=
CYYG;2005-12-31 16:00;METAR CYYG 311600Z 29014KT 10SM -SHSN FEW012 OVC020 M07/M09 A2978 RMK SC1SC7 SLP086=
CYYG;2005-12-31 17:00;METAR CYYG 311700Z 30010KT 10SM -SHSN OVC020 M06/M08 A2977 RMK SC8 SLP084=
CYYG;2005-12-31 18:00;METAR CYYG 311800Z 34007KT 15SM -SHSN OVC020 M06/M09 A2979 RMK SC8 SLP092=
CYYG;2005-12-31 19:00;METAR CYYG 311900Z 31013KT 12SM -SHSN OVC019 M06/M09 A2984 RMK SC8 SLP106=
CYYG;2005-12-31 20:00;METAR CYYG 312000Z 31008KT 12SM -SHSN OVC019 M06/M09 A2986 RMK SC8 SLP113=
CYYG;2005-12-31 21:00;METAR CYYG 312100Z 33012KT 12SM -SHSN OVC020 M06/M09 A2988 RMK SC8 SLP122=
CYYG;2005-12-31 22:00;METAR CYYG 312200Z 36010KT 12SM -SHSN OVC019 M05/M08 A2988 RMK SC8 SLP122=
CYYG;2005-12-31 23:00;METAR CYYG 312300Z 35006KT 12SM -SHSN OVC019 M05/M09 A2990 RMK SC8 SLP128=
