CYYZ;2009-01-01 07:00;CYYZ 010700Z 28004KT 15SM BKN034 M13/M18 A3031 RMK SC6 SLP277

CYYZ;2009-01-01 08:00;CYYZ 010800Z 25002KT 15SM BKN032 M13/M18 A3032 RMK SC6 SLP280

CYYZ;2009-01-01 09:00;CYYZ 010900Z 23003KT 15SM SCT030 M14/M18 A3032 RMK SC3 SLP281

CYYZ;2009-01-01 10:00;CYYZ 011000Z 22002KT 15SM FEW030 FEW220 M14/M17 A3031 RMK SC1CI0 SLP278

CYYZ;2009-01-01 11:00;CYYZ 011100Z 28003KT 15SM FEW030 FEW220 M15/M18 A3032 RMK SC1CI0 SLP280

CYYZ;2009-01-01 12:00;CYYZ 011200Z 00000KT 15SM FEW015 BKN180 M14/M18 A3032 RMK SC1AC6 SLP282

CYYZ;2009-01-01 13:00;CYYZ 011300Z 24003KT 15SM FEW015 BKN170 M15/M18 A3032 RMK SC1AC6 SLP283

CYYZ;2009-01-01 14:00;CYYZ 011400Z 26003KT 15SM FEW015 FEW160 FEW270 M13/M17 A3034 RMK SC1AC2CI1 SLP290

CYYZ;2009-01-01 15:00;CYYZ 011500Z 27002KT 15SM FEW015 FEW160 FEW270 M12/M16 A3034 RMK SC1AC1CI1 SLP287

CYYZ;2009-01-01 16:00;CYYZ 011600Z 22003KT 15SM FEW015 FEW080 BKN160 M09/M16 A3034 RMK SC1AC1AS1 SLP287

CYYZ;2009-01-01 17:00;CYYZ 011700Z 24006KT 15SM FEW015 FEW090 BKN270 M08/M14 A3031 RMK SC1AC1CI2 SLP278

CYYZ;2009-01-01 18:00;CYYZ 011800Z 16004KT 15SM FEW020 FEW040 BKN140 M07/M14 A3026 RMK SC1SC1AS2 SLP260

CYYZ;2009-01-01 19:00;CYYZ 011900Z 19006KT 15SM FEW020 OVC120 M06/M14 A3023 RMK SC1AS6 SLP251

CYYZ;2009-01-01 20:00;CYYZ 012000Z 18009KT 15SM BKN028 OVC110 M06/M13 A3022 RMK SC6AS2 SLP246

CYYZ;2009-01-01 21:00;CYYZ 012100Z 17005KT 15SM SCT027 OVC120 M06/M12 A3020 RMK SC3AS5 SLP240

CYYZ;2009-01-01 22:00;CYYZ 012200Z 16009KT 15SM BKN025 OVC120 M06/M12 A3016 RMK SC4AS2 SLP226

CYYZ;2009-01-01 23:00;CYYZ 012300Z 14008G15KT 15SM BKN023 BKN120 M06/M11 A3011 RMK SC7AS1 SLP210

CYYZ;2009-01-02 00:00;CYYZ 020000Z 15009G16KT 15SM BKN022 BKN120 M05/M11 A3009 RMK SC6AS2 SLP201

CYYZ;2009-01-02 01:00;CYYZ 020100Z 14008KT 15SM FEW022 OVC110 M05/M11 A3004 RMK SC2AS6 SLP185

CYYZ;2009-01-02 02:00;CYYZ 020200Z 13009KT 15SM FEW022 OVC100 M05/M11 A2998 RMK SC1AS8 SLP166

CYYZ;2009-01-02 03:00;CYYZ 020300Z CCA 14008KT 15SM OVC091 M05/M10 A2993 RMK AS8 SLP146

CYYZ;2009-01-02 04:00;CYYZ 020400Z 13009G16KT 15SM OVC084 M04/M10 A2986 RMK AS8 PRESFR SLP124

CYYZ;2009-01-02 05:00;CYYZ 020500Z 12006KT 15SM OVC110 M04/M10 A2983 RMK AS8 SLP113

CYYZ;2009-01-02 06:00;CYYZ 020600Z 14004KT 15SM SCT090 OVC110 M04/M10 A2980 RMK AC3AS5 SLP101

CYYZ;2009-01-02 07:00;CYYZ 020700Z 12004KT 15SM OVC082 M03/M09 A2976 RMK AS8 SLP088

CYYZ;2009-01-02 08:00;CYYZ 020800Z 13005KT 15SM SCT140 OVC170 M03/M09 A2974 RMK AC3AS5 SLP082

CYYZ;2009-01-02 09:00;CYYZ 020900Z 16004KT 15SM SCT120 OVC170 M02/M08 A2971 RMK AC3AS5 SLP071

CYYZ;2009-01-02 10:00;CYYZ 021000Z 20005KT 15SM OVC068 M01/M08 A2969 RMK AS8 SLP062

CYYZ;2009-01-02 11:00;CYYZ 021100Z 22007KT 15SM OVC068 M01/M08 A2967 RMK AS8 SLP058

CYYZ;2009-01-02 12:00;CYYZ 021200Z 23007KT 12SM OVC060 M02/M08 A2969 RMK SC8 SLP063

CYYZ;2009-01-02 13:00;CYYZ 021300Z 22007KT 15SM OVC030 M02/M07 A2969 RMK SC8 SLP062

CYYZ;2009-01-02 14:00;CYYZ 021400Z 23011KT 15SM BKN028 BKN043 M01/M07 A2969 RMK SC6SC2 SLP062

CYYZ;2009-01-02 15:00;CYYZ 021500Z 24012G18KT 15SM BKN033 M00/M07 A2968 RMK SC7 SLP058

CYYZ;2009-01-02 16:00;CYYZ 021600Z 24016G21KT 15SM BKN032 M00/M07 A2967 RMK SC6 SLP055

CYYZ;2009-01-02 17:00;CYYZ 021700Z 25015G22KT 15SM SCT032 00/M07 A2964 RMK SC4 SLP046

CYYZ;2009-01-02 18:00;CYYZ 021800Z 26012G18KT 15SM BKN032 00/M07 A2962 RMK SC7 SLP040

CYYZ;2009-01-02 19:00;CYYZ 021900Z 25015G21KT 15SM BKN035 BKN042 00/M07 A2962 RMK SC5SC2 SLP038

CYYZ;2009-01-02 20:00;CYYZ 022000Z 23010G16KT 15SM OVC030 00/M06 A2962 RMK SC8 SH W SLP040

CYYZ;2009-01-02 20:08;CYYZ 022008Z 23013KT 12SM -SHSN OVC030 M00/ RMK SC8 VIS 6 W

CYYZ;2009-01-02 20:15;CYYZ 022015Z 23012G17KT 1 3/4SM -SHSN VV018 M01/ RMK SN8

CYYZ;2009-01-02 20:47;CYYZ 022047Z 24008KT 4SM -SHSN OVC022 M01/ RMK SC8

CYYZ;2009-01-02 21:00;CYYZ 022100Z 22008KT 6SM -SHSN FEW022 BKN083 M01/M04 A2963 RMK SC2AC6 SLP041

CYYZ;2009-01-02 21:17;CYYZ 022117Z 22009KT 2 1/4SM -SHSN FEW018 BKN028 OVC080 M01/ RMK SF1SC6AC1

CYYZ;2009-01-02 21:25;CYYZ 022125Z 25011KT 3/4SM R23/P6000FT/D R24L/P6000FT/D -SHSN VV008 M01/ RMK SN8

CYYZ;2009-01-02 21:33;CYYZ 022133Z 27010KT 1/2SM R23/P6000FT/U R24L/3000VP6000FT/D SHSN VV005 M01/ RMK SN8

CYYZ;2009-01-02 21:38;CYYZ 022138Z 26013KT 1 1/2SM R23/P6000FT/U R24L/3000VP6000FT/U -SHSN FEW009 VV016 M02/ RESN RMK SF1SN7

CYYZ;2009-01-02 21:43;CYYZ 022143Z 26017KT 6SM R23/P6000FT/U R24L/3000VP6000FT/U -SHSN FEW009 OVC045 M02/ RESN RMK SF2SC6

CYYZ;2009-01-02 22:00;CYYZ 022200Z 27017KT 3SM -SHSN DRSN BKN022 OVC043 M01/M05 A2966 RESN RMK SF6SC2 /S01/ SLP052

CYYZ;2009-01-02 22:07;CYYZ 022207Z 28019KT 1 1/2SM -SHSN DRSN VV016 M02/ RMK SN8 PRESRR

CYYZ;2009-01-02 22:17;CYYZ 022217Z 28015G20KT 6SM -SHSN DRSN FEW022 OVC042 M02/ RMK SF2SC6 PRESRR

CYYZ;2009-01-02 23:00;CYYZ 022300Z 27017KT 15SM FEW020 BKN080 M02/M06 A2969 RMK SF1AC5 SLP061

CYYZ;2009-01-03 00:00;CYYZ 030000Z 26017G22KT 15SM SCT042 BKN083 M03/M07 A2971 RMK SC3AC2 SLP070

CYYZ;2009-01-03 00:31;CYYZ 030031Z 26018G24KT 12SM -SHSN SCT032 BKN053 M03/ RMK SC3SC3

CYYZ;2009-01-03 00:51;CYYZ 030051Z 27019G24KT 3SM -SHSN BKN007 OVC022 M03/ RMK SC5SC3

CYYZ;2009-01-03 01:00;CYYZ 030100Z 28018G26KT 1 1/2SM -SHSN OVC005 M04/M07 A2975 RMK SN4SF4 SLP082

CYYZ;2009-01-03 01:14;CYYZ 030114Z 29015G21KT 10SM -SHSN FEW007 BKN016 OVC025 M03/ RMK SF2SC4SC2

CYYZ;2009-01-03 02:00;CYYZ 030200Z 30016KT 15SM -SHSN BKN032 M02/M07 A2978 RMK SC6 SLP094

CYYZ;2009-01-03 02:29;CYYZ 030229Z 29013G19KT 15SM FEW032 M02/ RMK SC2

CYYZ;2009-01-03 03:00;CYYZ 030300Z CCA 20010G17KT 15SM FEW032 M03/M08 A2981 RMK SC2 SLP103

CYYZ;2009-01-03 04:00;CYYZ 030400Z 27012KT 15SM FEW040 M04/M09 A2984 RMK SC1 SLP113

CYYZ;2009-01-03 05:00;CYYZ 030500Z 27010KT 15SM FEW042 M04/M09 A2986 RMK SC2 SLP119

CYYZ;2009-01-03 06:00;CYYZ 030600Z 25009KT 15SM BKN039 M04/M07 A2986 RMK SC5 SLP120

CYYZ;2009-01-03 07:00;CYYZ 030700Z 27013KT 15SM BKN032 M03/M07 A2989 RMK SC4 SLP130

CYYZ;2009-01-03 08:00;CYYZ 030800Z 28012G19KT 15SM BKN034 M02/M07 A2993 RMK SC6 SLP144

CYYZ;2009-01-03 09:00;CYYZ 030900Z 31017KT 15SM BKN045 M02/M07 A2996 RMK SC7 SLP153

CYYZ;2009-01-03 10:00;CYYZ 031000Z 30014G19KT 15SM SCT043 M03/M10 A2999 RMK SC3 SLP164

CYYZ;2009-01-03 11:00;CYYZ 031100Z 30013KT 15SM SCT052 M04/M10 A3001 RMK SC2 SLP171

CYYZ;2009-01-03 12:00;CYYZ 031200Z 30012KT 15SM FEW040 SCT240 M05/M11 A3004 RMK SC1CI2 SLP184

CYYZ;2009-01-03 13:00;CYYZ 031300Z 29009KT 15SM FEW040 FEW220 M06/M11 A3007 RMK SC1CI1 SLP194

CYYZ;2009-01-03 14:00;CYYZ 031400Z 30010KT 15SM BKN017 BKN240 M06/M11 A3013 RMK SC4CI1 SLP211

CYYZ;2009-01-03 15:00;CYYZ 031500Z 31011KT 15SM FEW018 FEW240 M06/M11 A3015 RMK SF1CI1 SLP221

CYYZ;2009-01-03 16:00;CYYZ 031600Z 33010KT 15SM FEW020 FEW240 M05/M11 A3016 RMK SF1CI1 SLP225

CYYZ;2009-01-03 17:00;CYYZ 031700Z 02012KT 15SM FEW220 M06/M11 A3015 RMK CI1 SLP221

CYYZ;2009-01-03 18:00;CYYZ 031800Z 36013KT 15SM FEW240 M06/M11 A3014 RMK CI1 SLP218

CYYZ;2009-01-03 19:00;CYYZ 031900Z 34012KT 15SM FEW240 M05/M11 A3014 RMK CI1 SLP217

CYYZ;2009-01-03 20:00;CYYZ 032000Z 35013KT 15SM SKC M05/M11 A3016 RMK SLP224

CYYZ;2009-01-03 21:00;CYYZ 032100Z 33012KT 15SM SKC M05/M12 A3018 RMK SLP230

CYYZ;2009-01-03 22:00;CYYZ 032200Z 01009KT 15SM FEW260 M06/M13 A3020 RMK CI1 SLP237

CYYZ;2009-01-03 23:00;CYYZ 032300Z 35010KT 15SM FEW260 M07/M13 A3021 RMK CI1 SLP240

CYYZ;2009-01-04 00:00;CYYZ 040000Z 31007KT 15SM FEW260 M07/M13 A3023 RMK CI1 SLP247

CYYZ;2009-01-04 01:00;CYYZ 040100Z 31007KT 15SM FEW260 M08/M14 A3023 RMK CI1 SLP249

CYYZ;2009-01-04 02:00;CYYZ 040200Z 30005KT 15SM SKC M08/M13 A3023 RMK SLP247

CYYZ;2009-01-04 03:00;CYYZ 040300Z 34008KT 15SM SKC M08/M14 A3022 RMK SLP245

CYYZ;2009-01-04 04:00;CYYZ 040400Z 35008KT 15SM FEW260 M10/M14 A3021 RMK CI1 SLP242

CYYZ;2009-01-04 05:00;CYYZ 040500Z 36005KT 15SM FEW260 M10/M15 A3022 RMK CI1 SLP247

CYYZ;2009-01-04 06:00;CYYZ 040600Z 01006KT 15SM FEW260 M11/M15 A3020 RMK CI1 SLP239

CYYZ;2009-01-04 07:00;CYYZ 040700Z 32006KT 15SM FEW260 M11/M16 A3021 RMK CI1 SLP243

CYYZ;2009-01-04 08:00;CYYZ 040800Z 36006KT 15SM FEW260 M11/M16 A3021 RMK CI1 SLP243

CYYZ;2009-01-04 09:00;CYYZ 040900Z 35004KT 15SM SCT190 BKN220 M11/M16 A3021 RMK AC3CI1 SLP241

CYYZ;2009-01-04 10:00;CYYZ 041000Z 01007KT 15SM FEW190 BKN240 M11/M16 A3019 RMK AC2CI2 SLP236

CYYZ;2009-01-04 11:00;CYYZ 041100Z 02006KT 15SM BKN250 M11/M17 A3016 RMK CI3 SLP225

CYYZ;2009-01-04 12:00;CYYZ 041200Z 03002KT 15SM BKN250 M11/M17 A3014 RMK CI3 SLP218

CYYZ;2009-01-04 13:00;CYYZ 041300Z 06003KT 15SM SCT250 M10/M16 A3014 RMK CI2 SLP218

CYYZ;2009-01-04 14:00;CYYZ 041400Z 01007KT 15SM BKN250 M09/M15 A3014 RMK CS6 SLP218

CYYZ;2009-01-04 15:00;CYYZ 041500Z 01004KT 15SM FEW030 FEW160 BKN250 M08/M13 A3013 RMK SC1AC1CS7 SLP213

CYYZ;2009-01-04 16:00;CYYZ 041600Z 09006KT 15SM FEW030 FEW160 BKN240 M05/M10 A3007 RMK SC1AC2CS6 SLP196

CYYZ;2009-01-04 17:00;CYYZ 041700Z CCA 12006KT 15SM FEW030 BKN160 OVC250 M03/M08 A3007 RMK SC1AC4CS2 SLP193

CYYZ;2009-01-04 18:00;CYYZ 041800Z 11009G16KT 15SM SCT014 BKN100 OVC230 M03/M07 A2999 RMK SC3AC2CS2 SLP166

CYYZ;2009-01-04 19:00;CYYZ 041900Z 12006KT 15SM FEW014 BKN090 BKN230 M02/M07 A2998 RMK SC2AC3CS1 SLP165

CYYZ;2009-01-04 20:00;CYYZ 042000Z 11007KT 15SM FEW011 BKN031 OVC090 M02/M06 A2995 RMK SC1SC5AC2 SLP153

CYYZ;2009-01-04 20:37;CYYZ 042037Z 11009KT 5SM -FZRA FEW011 BKN031 OVC090 M02/ RMK SC2SC5AC1

CYYZ;2009-01-04 21:00;CYYZ 042100Z 10007KT 12SM FEW011 OVC028 M02/M06 A2993 REFZRA RMK SC2SC6 SLP147

CYYZ;2009-01-04 21:17;CYYZ 042117Z 09004KT 9SM -FZRA FEW011 OVC028 M02/ RMK SC2SC6

CYYZ;2009-01-04 21:54;CYYZ 042154Z 09006KT 10SM SCT012 OVC025 M02/ REFZDZ RMK SC3SC5

CYYZ;2009-01-04 22:00;CYYZ 042200Z 08006KT 10SM SCT011 OVC025 M02/M05 A2994 REFZRA RMK SC3SC5 SLP150

CYYZ;2009-01-04 22:35;CYYZ 042235Z 09007KT 12SM BKN010 OVC024 M02/ RMK SC5SC3

CYYZ;2009-01-04 23:00;CYYZ 042300Z 09006KT 9SM BKN010 OVC023 M02/M05 A2994 RMK SC6SC2 SLP150

CYYZ;2009-01-05 00:00;CYYZ 050000Z 11004KT 12SM BKN011 OVC023 M02/M05 A2992 RMK SC6SC2 SLP141

CYYZ;2009-01-05 00:54;CYYZ 050054Z 03004KT 8SM -FZDZ OVC010 M03/ RMK ST8

CYYZ;2009-01-05 01:00;CYYZ 050100Z 04004KT 7SM -FZDZ OVC009 M03/M05 A2993 RMK ST8 SLP145

CYYZ;2009-01-05 01:40;CYYZ 050140Z 36003KT 10SM SCT009 OVC017 M03/ REFZDZ RMK ST3SC5

CYYZ;2009-01-05 02:00;CYYZ 050200Z 01005KT 10SM SCT008 OVC018 M03/M05 A2992 REFZDZ RMK ST3SC5 SLP143

CYYZ;2009-01-05 02:39;CYYZ 050239Z 27002KT 10SM OVC013 M03/ RMK SC8

CYYZ;2009-01-05 02:54;CYYZ 050254Z 30002KT 7SM -FZDZ BKN010 OVC013 M03/ RMK ST5SC3

CYYZ;2009-01-05 03:00;CYYZ 050300Z 28002KT 5SM -FZDZ HZ BKN010 OVC013 M03/M05 A2994 RMK ST5SC3 SLP148

CYYZ;2009-01-05 03:43;CYYZ 050343Z 23004KT 8SM OVC013 M02/ REFZDZ RMK SC8

CYYZ;2009-01-05 04:00;CYYZ 050400Z 23005KT 10SM BKN011 OVC030 M02/M04 A2993 REFZDZ RMK SC5SC3 SLP147

CYYZ;2009-01-05 04:23;CYYZ 050423Z 25010KT 10SM FEW012 OVC032 M02/ RMK SC2SC6

CYYZ;2009-01-05 05:00;CYYZ 050500Z 25008KT 10SM OVC012 M01/M04 A2992 RMK SC8 SLP144

CYYZ;2009-01-05 06:00;CYYZ 050600Z 23008KT 10SM BKN017 OVC023 M01/M03 A2994 RMK SC5SC3 SLP146

CYYZ;2009-01-05 06:15;CYYZ 050615Z 23008KT 8SM -FZRA SCT017 OVC023 M00/ RMK SC3SC5

CYYZ;2009-01-05 07:00;CYYZ 050700Z 22006KT 10SM -FZRA OVC022 M00/M03 A2995 RMK SC8 SLP149

CYYZ;2009-01-05 07:19;CYYZ 050719Z 22006KT 10SM SCT021 OVC027 M00/ REFZRA RMK SC3SC5

CYYZ;2009-01-05 08:00;CYYZ 050800Z 26007KT 10SM BKN021 OVC028 00/M02 A2997 REFZRA RMK SC5SC3 SLP156

CYYZ;2009-01-05 09:00;CYYZ 050900Z 27011KT 12SM OVC039 01/M04 A2997 RMK SC8 SLP158

CYYZ;2009-01-05 10:00;CYYZ 051000Z 27014G19KT 12SM SCT028 OVC032 M00/M06 A2998 RMK SC3SC5 SLP160

CYYZ;2009-01-05 11:00;CYYZ 051100Z 28016KT 15SM BKN031 BKN039 M01/M07 A2999 RMK SC6SC2 SLP164

CYYZ;2009-01-05 12:00;CYYZ 051200Z 27017G24KT 15SM BKN032 M01/M08 A3000 RMK SC7 SLP168

CYYZ;2009-01-05 13:00;CYYZ 051300Z 27014G20KT 15SM FEW028 SCT050 M03/M10 A3002 RMK SC2SC2 SLP174

CYYZ;2009-01-05 14:00;CYYZ 051400Z 27014G20KT 15SM FEW024 SCT070 M04/M10 A3004 RMK SC2AC2 SLP181

CYYZ;2009-01-05 15:00;CYYZ 051500Z 27019KT 15SM SCT026 SCT090 M04/M10 A3005 RMK SC3AC1 SLP187

CYYZ;2009-01-05 16:00;CYYZ 051600Z 29017G22KT 15SM FEW024 FEW090 M04/M11 A3005 RMK SC2AC1 SLP185

CYYZ;2009-01-05 17:00;CYYZ 051700Z 29018KT 15SM FEW024 FEW090 M04/M11 A3004 RMK SC2AC1 SLP181

CYYZ;2009-01-05 18:00;CYYZ 051800Z 27016G22KT 15SM FEW023 FEW090 FEW230 M04/M11 A3002 RMK SC1AC1CI1 SLP175

CYYZ;2009-01-05 19:00;CYYZ 051900Z 28017KT 15SM FEW025 FEW090 FEW230 M04/M12 A3000 RMK SC1AC1CI1 SLP169

CYYZ;2009-01-05 20:00;CYYZ 052000Z 28014KT 15SM FEW025 FEW090 FEW230 M04/M12 A3001 RMK SC1AC1CI1 SLP171

CYYZ;2009-01-05 21:00;CYYZ 052100Z 27013KT 15SM FEW120 FEW250 M05/M12 A3002 RMK AC1CI1 SLP174

CYYZ;2009-01-05 22:00;CYYZ 052200Z 27010KT 15SM FEW120 FEW250 M06/M13 A3002 RMK AC1CI1 SLP176

CYYZ;2009-01-05 23:00;CYYZ 052300Z 27006KT 15SM FEW120 M07/M13 A3002 RMK AC1 SLP176

CYYZ;2009-01-06 00:00;CYYZ 060000Z 25008KT 15SM SKC M07/M13 A3002 RMK SLP177

CYYZ;2009-01-06 01:00;CYYZ 060100Z 24010KT 15SM SKC M07/M13 A3001 RMK SLP173

CYYZ;2009-01-06 02:00;CYYZ 060200Z 24011KT 15SM SKC M07/M13 A3000 RMK SLP170

CYYZ;2009-01-06 03:00;CYYZ 060300Z 25016KT 15SM SKC M07/M13 A2999 RMK SLP166

CYYZ;2009-01-06 04:00;CYYZ 060400Z 25014G19KT 15SM SKC M07/M13 A2999 RMK SLP165

CYYZ;2009-01-06 05:00;CYYZ 060500Z 26015KT 15SM SKC M07/M13 A2998 RMK SLP162

CYYZ;2009-01-06 06:00;CYYZ 060600Z 26012KT 15SM SKC M07/M13 A2997 RMK SLP160

CYYZ;2009-01-06 07:00;CYYZ 060700Z 27010KT 15SM SKC M08/M13 A2998 RMK SLP161

CYYZ;2009-01-06 08:00;CYYZ 060800Z 27008KT 15SM SKC M09/M13 A2998 RMK SLP161

CYYZ;2009-01-06 09:00;CYYZ 060900Z 27009KT 15SM SKC M08/M13 A2996 RMK SLP157

CYYZ;2009-01-06 10:00;CYYZ 061000Z 28006KT 15SM SKC M08/M13 A2996 RMK SLP157

CYYZ;2009-01-06 11:00;CYYZ 061100Z 31005KT 15SM SKC M08/M13 A2997 RMK SLP160

CYYZ;2009-01-06 12:00;CYYZ 061200Z 35003KT 15SM FEW080 M07/M12 A2998 RMK AC1 SLP162

CYYZ;2009-01-06 13:00;CYYZ 061300Z 02006KT 15SM BKN160 M10/M13 A2998 RMK AC2 SLP163

CYYZ;2009-01-06 14:00;CYYZ 061400Z 00000KT 15SM BKN150 M06/M10 A2997 RMK AC2 SLP161

CYYZ;2009-01-06 15:00;CYYZ 061500Z 00000KT 15SM BKN150 M04/M09 A2996 RMK AC1 SLP156

CYYZ;2009-01-06 16:00;CYYZ 061600Z 16004KT 15SM FEW140 M02/M09 A2994 RMK AC1 SLP150

CYYZ;2009-01-06 17:00;CYYZ 061700Z 17005KT 15SM FEW040 BKN140 BKN200 M02/M09 A2992 RMK SC1AS4CC1 SLP141

CYYZ;2009-01-06 18:00;CYYZ 061800Z 11003KT 15SM BKN120 BKN200 M02/M08 A2989 RMK AS6CC1 SLP131

CYYZ;2009-01-06 19:00;CYYZ 061900Z 08005KT 15SM FEW120 FEW200 FEW270 M01/M08 A2984 RMK AC1CC1CI1 SLP114

CYYZ;2009-01-06 20:00;CYYZ 062000Z 13006KT 15SM BKN130 BKN270 M02/M10 A2983 RMK AC6CI0 SLP110

CYYZ;2009-01-06 21:00;CYYZ 062100Z 10008KT 15SM OVC090 M02/M08 A2981 RMK AS8 SLP103

CYYZ;2009-01-06 22:00;CYYZ 062200Z 10007KT 15SM OVC081 M01/M08 A2979 RMK AS8 SLP097

CYYZ;2009-01-06 23:00;CYYZ 062300Z 11009G16KT 15SM OVC078 M01/M08 A2978 RMK AS8 SLP093

CYYZ;2009-01-07 00:00;CYYZ 070000Z 10007KT 15SM OVC066 M01/M08 A2977 RMK AS8 SLP090

CYYZ;2009-01-07 01:00;CYYZ 070100Z 10010KT 15SM OVC056 M01/M08 A2972 RMK SC8 SLP074

CYYZ;2009-01-07 02:00;CYYZ 070200Z 10010G17KT 15SM FEW024 BKN059 OVC074 M01/M07 A2969 RMK SC1SC6AC2 SLP063

CYYZ;2009-01-07 02:12;CYYZ 070212Z 10011KT 12SM -SHSN BKN019 OVC074 M01/ RMK SC6AC2

CYYZ;2009-01-07 03:00;CYYZ 070300Z 11010G18KT 5SM -SN SCT013 OVC018 M01/M05 A2964 RMK SF3SC5 SLP044

CYYZ;2009-01-07 03:38;CYYZ 070338Z 11014KT 1 1/2SM -SN DRSN OVC009 M02/ RMK SN3SC5

CYYZ;2009-01-07 04:00;CYYZ 070400Z 11012G17KT 3/4SM R05/P6000FT/D R06L/P6000FT -SN DRSN VV005 M02/M05 A2960 RMK SN8 RWY 15L P6000FT D SLP032

CYYZ;2009-01-07 04:30;CYYZ 070430Z 10010G15KT 3/4SM R05/5000FT/U R06L/6000FT/U -SN DRSN VV004 M02/ RMK SN8 RWY 15L 4500VP6000 U

CYYZ;2009-01-07 05:00;CYYZ 070500Z 10007KT 1SM R05/5500FT/U R06L/P6000FT/U -SN OVC005 M02/M04 A2956 RMK SN4NS4 /S02/ RWY P6000FT/U SLP020

CYYZ;2009-01-07 05:13;CYYZ 070513Z 11012KT 1 1/2SM -SN OVC006 M02/ RMK SN3NS5

CYYZ;2009-01-07 05:27;CYYZ 070527Z 09012KT 4SM -SN -FZRA SCT006 OVC015 M02/ RMK SF3NS5

CYYZ;2009-01-07 06:00;CYYZ 070600Z 09009KT 7SM -SN -FZRA SCT005 OVC012 M02/M04 A2950 RMK SF3NS5 PRESFR /S04/ SLP999

CYYZ;2009-01-07 06:29;CYYZ 070629Z 10006KT 8SM -SN OVC007 M02/ REFZRA RMK SC8

CYYZ;2009-01-07 07:00;CYYZ 070700Z 09006KT 6SM -SN OVC008 M01/M03 A2947 REFZRA RMK SC8 SLP988

CYYZ;2009-01-07 07:51;CYYZ 070751Z 10006KT 5SM -SN -FZRA BKN008 OVC012 M01/ RMK SC5NS3

CYYZ;2009-01-07 08:00;CYYZ 070800Z 10007KT 5SM -SN -FZRA BKN007 OVC012 M01/M03 A2943 RMK SC5NS3 SLP976

CYYZ;2009-01-07 09:00;CYYZ 070900Z 10007KT 5SM -SN -FZRA BKN006 OVC009 M01/M03 A2940 RMK SF5NS3 /S01/ SLP962

CYYZ;2009-01-07 10:00;CYYZ 071000Z 10009KT 8SM -SN -FZRA OVC006 M00/M02 A2933 RMK SF8 PRESFR SLP940

CYYZ;2009-01-07 11:00;CYYZ 071100Z 09013G18KT 8SM -SN -FZRA OVC006 M00/M02 A2926 RMK SF8 PRESFR SLP916

CYYZ;2009-01-07 11:21;CYYZ 071121Z 08009KT 7SM -FZDZ OVC004 M01/ REFZRA RMK ST8

CYYZ;2009-01-07 11:30;CYYZ 071130Z 08008KT 3SM -PLSN -FZRA OVC004 M01/ REFZDZ RMK NS8

CYYZ;2009-01-07 12:00;CYYZ 071200Z CCA 08005KT 4SM -SN -FZRA OVC004 M01/M02 A2925 REFZDZ RMK NS8 SLP910

CYYZ;2009-01-07 12:22;CYYZ 071222Z 09006KT 2SM -SN OVC003 00/ REFZRA RMK NS8

CYYZ;2009-01-07 12:46;CYYZ 071246Z CCA 09012KT 1SM R05/P6000FT/D R06L/P6000FT/D -SN FEW003 OVC006 00/ REFZRA RMK SN1SF2NS6

CYYZ;2009-01-07 13:00;CYYZ 071300Z 10010KT 1SM R05/P6000FT/U R06R/P6000FT/U -SN OVC005 00/M01 A2922 REFZRA RMK SN1SF7 SLP900

CYYZ;2009-01-07 13:05;CYYZ 071305Z 09007KT 1 1/2SM -SN FEW002 OVC005 00/ RMK SN1SF1NS6 PRESFR

CYYZ;2009-01-07 13:14;CYYZ 071314Z 09009KT 1SM R05/P6000FT/D R06R/P6000FT/D -SN OVC004 00/ RMK SN1NS7

CYYZ;2009-01-07 13:20;CYYZ 071320Z 10008KT 3/4SM R05/P6000FT/D R06R/P6000FT/D -SN OVC003 00/ RMK SN1SF7 PRESFR

CYYZ;2009-01-07 14:00;CYYZ 071400Z 11006KT 3/4SM R05/4500FT/D R06R/4500VP6000FT/U -SN OVC003 00/M01 A2919 RMK SN1NS7 /S02/ SLP891

CYYZ;2009-01-07 14:47;CYYZ 071447Z 09008KT 1SM R05/P6000FT/U R06R/6000FT/U -SN OVC003 00/ RMK SN1NS7

CYYZ;2009-01-07 15:00;CYYZ 071500Z 09010KT 1SM R05/6000FT/N R06R/5500FT/D -SN OVC003 00/M01 A2915 RMK SN1NS7 /S03/ SLP877

CYYZ;2009-01-07 15:36;CYYZ 071536Z 09008KT 1 1/2SM R05/P6000FT/U R06R/5500FT/U -SN OVC003 00/ RMK NS8 PRESFR

CYYZ;2009-01-07 15:50;CYYZ 071550Z 09007KT 3SM -SN OVC004 00/ RMK NS8

CYYZ;2009-01-07 16:00;CYYZ 071600Z 10004KT 5SM -SN OVC004 00/M01 A2911 RMK NS8 /S04/ SLP864

CYYZ;2009-01-07 16:15;CYYZ 071615Z 09004KT 1 1/2SM -SN OVC003 00/ RMK NS8

CYYZ;2009-01-07 16:47;CYYZ 071647Z 06002KT 1SM R05/6000FT/D R06R/3500VP6000FT/D -SN OVC002 01/ RMK NS8 PRESFR

CYYZ;2009-01-07 17:00;CYYZ 071700Z 04002KT 1SM R50/6000FT/U R06R/3500VP6000FT/U -SN OVC002 00/M01 A2906 RMK NS8 SLP849

CYYZ;2009-01-07 17:21;CYYZ 071721Z 06003KT 2SM R05/P6000FT/U R06R/6000FT/U -SN OVC004 00/ RMK NS8

CYYZ;2009-01-07 18:00;CYYZ 071800Z 04002KT 2 1/4SM -SN OVC004 01/M01 A2903 RMK NS8 /S05/ SLP836

CYYZ;2009-01-07 18:28;CYYZ 071828Z 00000KT 2 1/4SM -SN OVC002 01/ RMK NS8

CYYZ;2009-01-07 19:00;CYYZ 071900Z 27003KT 1 1/4SM -DZ OVC002 00/M01 A2902 RMK ST8 SLP833

CYYZ;2009-01-07 19:25;CYYZ 071925Z 27004KT 1SM R23/4000VP6000FT/D R24R/P6000FT/D -SG OVC004 00/ RMK SN1ST7

CYYZ;2009-01-07 20:00;CYYZ 072000Z 29007KT 1 1/4SM R23/5000FT/U R24R/P6000FT/U -SG OVC004 M00/M01 A2901 RMK SN1ST7 SLP830

CYYZ;2009-01-07 20:15;CYYZ 072015Z 29008KT 2SM -SG OVC004 M00/ RMK ST8

CYYZ;2009-01-07 20:36;CYYZ 072036Z 29006KT 5SM -SG FEW004 OVC010 M00/ RMK SF2NS6

CYYZ;2009-01-07 20:54;CYYZ 072054Z 29005KT 10SM FEW006 OVC017 M00/ RMK SF2SF6

CYYZ;2009-01-07 21:00;CYYZ 072100Z 26012KT 12SM FEW007 OVC018 00/M02 A2903 RMK SF2SF6 SLP838

CYYZ;2009-01-07 21:31;CYYZ 072131Z 25017G25KT 6SM -SN OVC016 M00/ RMK NS8

CYYZ;2009-01-07 22:00;CYYZ 072200Z 24016KT 6SM -SN OVC015 M00/M03 A2905 RMK NS8 SLP843

CYYZ;2009-01-07 23:00;CYYZ 072300Z 24012KT 10SM -SN SCT013 BKN020 OVC055 M00/M04 A2906 RMK SF3SF2SC1 SLP846

CYYZ;2009-01-08 00:00;CYYZ 080000Z 24012KT 9SM -SN SCT042 OVC053 M01/M04 A2906 RMK SC3SC5 /S01/ SLP847

CYYZ;2009-01-08 01:00;CYYZ 080100Z 25012KT 10SM -SN SCT021 OVC033 M01/M04 A2906 RMK SC4SC4 SLP847

CYYZ;2009-01-08 02:00;CYYZ 080200Z 24014KT 10SM -SHSN BKN042 OVC053 M02/M05 A2905 RMK SC6SC2 SLP845

CYYZ;2009-01-08 03:00;CYYZ 080300Z 25015G21KT 10SM -SHSN BKN052 OVC077 M02/M05 A2905 RMK SC6AC2 SLP845

CYYZ;2009-01-08 04:00;CYYZ 080400Z 28016G21KT 15SM -SHSN FEW046 OVC083 M02/M05 A2907 RMK SC2AC6 SLP850

CYYZ;2009-01-08 04:31;CYYZ 080431Z 28019KT 15SM DRSN FEW026 BKN085 M02/ RMK SC2AC4

CYYZ;2009-01-08 05:00;CYYZ 080500Z 28015KT 15SM FEW022 BKN076 M02/M07 A2910 RMK SC2AC5 SLP860

CYYZ;2009-01-08 06:00;CYYZ 080600Z 28017KT 15SM FEW026 SCT043 OVC076 M03/M08 A2913 RMK SC1SC2AS5 SLP871

CYYZ;2009-01-08 07:00;CYYZ 080700Z 28012G19KT 15SM FEW022 BKN045 OVC073 M03/M08 A2916 RMK SC1SC4AS3 MOON DIMLY VISBL SLP881

CYYZ;2009-01-08 07:06;CYYZ 080706Z 27012KT 15SM -SHSN FEW022 BKN044 OVC076 M04/ RMK SC1SC6AS2

CYYZ;2009-01-08 08:00;CYYZ 080800Z 28013KT 12SM -SHSN OVC021 M04/M08 A2919 RMK SC8 SLP893

CYYZ;2009-01-08 09:00;CYYZ 080900Z 29017KT 12SM -SHSN FEW026 OVC043 M05/M08 A2922 RMK SC2SC6 SLP901

CYYZ;2009-01-08 09:20;CYYZ 080920Z 29018KT 15SM DRSN OVC062 M05/ RMK SC8

CYYZ;2009-01-08 10:00;CYYZ 081000Z 29012KT 15SM DRSN FEW032 OVC048 M05/M09 A2924 RMK SC2SC6 SLP910

CYYZ;2009-01-08 10:42;CYYZ 081042Z 31013KT 12SM -SHSN DRSN FEW028 OVC041 M05/ RMK SC2SC6

CYYZ;2009-01-08 11:00;CYYZ 081100Z 31012G18KT 12SM -SHSN DRSN SCT022 OVC036 M06/M10 A2927 RMK SC3SC5 SLP919

CYYZ;2009-01-08 12:00;CYYZ 081200Z 30015KT 9SM -SHSN DRSN FEW030 OVC065 M06/M11 A2930 RMK SC2SC6 SLP930

CYYZ;2009-01-08 12:48;CYYZ 081248Z CCA 29015G20KT 15SM DRSN SCT060 BKN110 M07/ RMK SC2AS2

CYYZ;2009-01-08 13:00;CYYZ 081300Z 30015KT 15SM FEW060 SCT110 M06/M11 A2934 RMK SC2AS1 SLP943

CYYZ;2009-01-08 14:00;CYYZ 081400Z 29017KT 15SM FEW020 BKN075 M07/M12 A2939 RMK SF1AS7 SLP960

CYYZ;2009-01-08 15:00;CYYZ 081500Z 30016G21KT 15SM FEW025 FEW090 OVC110 M07/M12 A2942 RMK SF1AC2AS5 SLP972

CYYZ;2009-01-08 16:00;CYYZ 081600Z 30018KT 15SM FEW025 BKN080 OVC130 M06/M12 A2945 RMK SC1AS6AC1 SLP981

CYYZ;2009-01-08 17:00;CYYZ 081700Z 30015KT 15SM FEW025 FEW080 BKN120 M06/M12 A2946 RMK SF1AC2AS5 SLP985

CYYZ;2009-01-08 18:00;CYYZ 081800Z 30018G26KT 15SM FEW020 FEW060 BKN110 M05/M12 A2948 RMK SF1SC2AS5 SLP993

CYYZ;2009-01-08 19:00;CYYZ 081900Z 31013G20KT 15SM FEW025 FEW060 BKN090 M04/M11 A2952 RMK SF1SC1AS5 SLP005

CYYZ;2009-01-08 20:00;CYYZ 082000Z 31017KT 15SM FEW025 FEW100 BKN140 M05/M12 A2956 RMK SF2AC1AS2 SLP019

CYYZ;2009-01-08 21:00;CYYZ 082100Z 31019KT 15SM FEW030 FEW270 M05/M12 A2961 RMK SF1CI0 SLP035

CYYZ;2009-01-08 22:00;CYYZ 082200Z 31015KT 15SM FEW025 FEW140 FEW270 M05/M12 A2964 RMK SF1AS1CI0 SLP046

CYYZ;2009-01-08 23:00;CYYZ 082300Z 30013KT 15SM FEW270 M06/M12 A2967 RMK CI1 SLP055

CYYZ;2009-01-09 00:00;CYYZ 090000Z 28008KT 15SM FEW120 M06/M12 A2970 RMK AC1 SLP067

CYYZ;2009-01-09 01:00;CYYZ 090100Z 29007KT 15SM SCT110 M07/M12 A2973 RMK AC2 SLP078

CYYZ;2009-01-09 02:00;CYYZ 090200Z 28006KT 15SM SCT110 M08/M12 A2976 RMK AC2 SLP087

CYYZ;2009-01-09 03:00;CYYZ 090300Z 28006KT 15SM FEW110 M09/M14 A2978 RMK AC2 SLP096

CYYZ;2009-01-09 04:00;CYYZ 090400Z 29008KT 15SM FEW120 M09/M14 A2980 RMK AC1 SLP103

CYYZ;2009-01-09 05:00;CYYZ 090500Z 27008KT 15SM FEW092 M11/M15 A2982 RMK AC1 SLP110

CYYZ;2009-01-09 06:00;CYYZ 090600Z 29009KT 15SM FEW100 M10/M14 A2983 RMK AC1 SLP112

CYYZ;2009-01-09 07:00;CYYZ 090700Z 29008KT 15SM FEW100 M10/M15 A2986 RMK AC1 SLP121

CYYZ;2009-01-09 08:00;CYYZ 090800Z 34008KT 15SM FEW100 M11/M15 A2988 RMK AC1 SLP128

CYYZ;2009-01-09 09:00;CYYZ 090900Z 33008KT 15SM FEW100 M11/M16 A2991 RMK AC1 SLP140

CYYZ;2009-01-09 10:00;CYYZ 091000Z 35009KT 15SM FEW062 BKN093 M12/M16 A2994 RMK SC2AC2 SLP149

CYYZ;2009-01-09 11:00;CYYZ 091100Z 34008KT 15SM FEW063 BKN091 M12/M16 A2996 RMK SC2AC6 SLP156

CYYZ;2009-01-09 12:00;CYYZ 091200Z 35009KT 15SM SCT073 OVC087 M12/M16 A3000 RMK AC3AC5 SLP170

CYYZ;2009-01-09 13:00;CYYZ 091300Z 36009KT 15SM FEW055 BKN075 M12/M16 A3003 RMK SC1AC7 SLP180

CYYZ;2009-01-09 14:00;CYYZ 091400Z 36008KT 15SM FEW020 FEW040 BKN083 M12/M16 A3006 RMK SF1SC1AC3 SLP190

CYYZ;2009-01-09 15:00;CYYZ 091500Z 35006KT 15SM OVC035 M11/M16 A3008 RMK SC8 SLP200

CYYZ;2009-01-09 15:12;CYYZ 091512Z 36005KT 12SM -SN OVC032 M11/ RMK NS8 VIS 6 W

CYYZ;2009-01-09 16:00;CYYZ 091600Z 31005KT 15SM OVC035 M10/M15 A3010 RMK NS8 SLP205

CYYZ;2009-01-09 16:17;CYYZ 091617Z 01005KT 7SM -SN OVC030 M10/ RMK NS8

CYYZ;2009-01-09 17:00;CYYZ 091700Z 01004KT 6SM -SN OVC032 M09/M14 A3009 RMK SC7 SLP203

CYYZ;2009-01-09 17:32;CYYZ 091732Z 02004KT 15SM FEW030 BKN075 M09/ RMK SC1AC4

CYYZ;2009-01-09 18:00;CYYZ 091800Z 02004KT 15SM FEW030 BKN071 M08/M13 A3008 RMK SC1AC4 SLP198

CYYZ;2009-01-09 19:00;CYYZ 091900Z 31007KT 15SM FEW015 BKN033 M07/M13 A3011 RMK SF1SC7 SLP207

CYYZ;2009-01-09 20:00;CYYZ 092000Z 02002KT 15SM FEW032 BKN062 M06/M14 A3013 RMK SC1SC6 SLP213

CYYZ;2009-01-09 21:00;CYYZ 092100Z 36005KT 15SM BKN055 M06/M14 A3014 RMK SC7 SLP218

CYYZ;2009-01-09 22:00;CYYZ 092200Z 04004KT 15SM BKN052 M06/M14 A3015 RMK SC7 SLP221

CYYZ;2009-01-09 23:00;CYYZ 092300Z 01007KT 15SM BKN053 M07/M14 A3017 RMK SC7 SLP229

CYYZ;2009-01-10 00:00;CYYZ 100000Z 01006KT 15SM BKN051 M07/M15 A3019 RMK SC7 SLP237

CYYZ;2009-01-10 01:00;CYYZ 100100Z 01007KT 15SM BKN051 M08/M15 A3021 RMK SC7 SLP244

CYYZ;2009-01-10 02:00;CYYZ 100200Z 01006KT 15SM BKN051 M08/M15 A3022 RMK SC6 SLP246

CYYZ;2009-01-10 03:00;CYYZ 100300Z 36006KT 15SM BKN051 M09/M16 A3023 RMK SC6 SLP251

CYYZ;2009-01-10 04:00;CYYZ 100400Z 02003KT 15SM FEW032 BKN049 M10/M16 A3024 RMK SC1SC7 SLP253

CYYZ;2009-01-10 05:00;CYYZ 100500Z 36005KT 15SM BKN047 M11/M16 A3023 RMK SC7 SLP251

CYYZ;2009-01-10 06:00;CYYZ 100600Z 01004KT 15SM BKN045 M11/M17 A3024 RMK SC6 SLP254

CYYZ;2009-01-10 07:00;CYYZ 100700Z 36004KT 15SM FEW022 BKN044 M12/M17 A3025 RMK SC1SC6 SLP257

CYYZ;2009-01-10 08:00;CYYZ 100800Z 01003KT 15SM FEW021 BKN041 M13/M17 A3026 RMK SC2SC3 SLP261

CYYZ;2009-01-10 09:00;CYYZ 100900Z 36006KT 15SM SCT041 BKN230 M14/M18 A3025 RMK SC3CI2 SLP256

CYYZ;2009-01-10 10:00;CYYZ 101000Z 01005KT 15SM SCT022 BKN039 M13/M17 A3025 RMK SC3SC3 SLP256

CYYZ;2009-01-10 11:00;CYYZ 101100Z 01007KT 15SM BKN040 M13/M18 A3025 RMK SC6 SLP255

CYYZ;2009-01-10 12:00;CYYZ 101200Z 02009KT 15SM FEW023 SCT035 BKN200 M12/M17 A3024 RMK SC2SC2CI2 SLP253

CYYZ;2009-01-10 13:00;CYYZ 101300Z 02006KT 15SM FEW023 FEW120 BKN200 M12/M16 A3024 RMK SC1AC1CI3 SLP252

CYYZ;2009-01-10 14:00;CYYZ 101400Z 05007KT 6SM -SHSN FEW030 BKN160 BKN200 M11/M14 A3022 RMK SC2AC2CI1 VIS 15 NE SLP245

CYYZ;2009-01-10 15:00;CYYZ 101500Z CCA 06008KT 6SM -SHSN SCT026 BKN160 BKN200 M09/M12 A3020 RMK SC4AC1CI1 VIS 15 E SLP241

CYYZ;2009-01-10 15:52;CYYZ 101552Z 06009KT 12SM BKN020 BKN160 BKN220 M08/ RMK SC5AC1CI1 VIS W 6 BR

CYYZ;2009-01-10 16:00;CYYZ 101600Z 07008KT 12SM FEW020 SCT160 BKN200 M08/M11 A3019 RMK SC2AC1CS2 SLP237

CYYZ;2009-01-10 17:00;CYYZ 101700Z CCA 06011G16KT 12SM FEW020 SCT160 BKN200 M07/M11 A3015 RMK SC2AC2CS2 SLP224

CYYZ;2009-01-10 18:00;CYYZ 101800Z 06010G17KT 12SM FEW010 BKN034 BKN150 OVC200 M07/M11 A3012 RMK SC2SC3AC1CS2 SLP213

CYYZ;2009-01-10 19:00;CYYZ 101900Z 05011G16KT 10SM FEW010 BKN034 BKN160 OVC200 M07/M11 A3009 RMK SC1SC6AC1CS1 SLP202

CYYZ;2009-01-10 20:00;CYYZ 102000Z 05010KT 7SM -SHSN BKN018 OVC150 M07/M11 A3007 RMK SC6AC2 SLP197

CYYZ;2009-01-10 20:35;CYYZ 102035Z 05014KT 3SM -SN OVC017 M07/ RMK SC8

CYYZ;2009-01-10 21:00;CYYZ 102100Z 06009G15KT 6SM -SN BKN024 OVC150 M07/M11 A3005 RMK SC6AC2 SLP190

CYYZ;2009-01-10 21:50;CYYZ 102150Z 06013KT 12SM BKN031 BKN160 BKN200 M08/ RMK SC5AC1CI0

CYYZ;2009-01-10 22:00;CYYZ 102200Z 06010G18KT 15SM SCT032 BKN100 BKN200 M08/M14 A3004 RMK SC3AC2CS1 SLP187

CYYZ;2009-01-10 23:00;CYYZ 102300Z 05014KT 15SM FEW035 BKN080 BKN200 M08/M15 A3002 RMK SC1AC6CI0 SLP179

CYYZ;2009-01-11 00:00;CYYZ 110000Z 04013KT 15SM FEW029 BKN075 M08/M16 A3002 RMK SC2AS6 SLP180

CYYZ;2009-01-11 00:54;CYYZ 110054Z 05012KT 8SM -SN BKN011 OVC024 M09/ RMK SF5SC3

CYYZ;2009-01-11 01:00;CYYZ 110100Z 04011KT 5SM -SN BKN009 OVC019 M09/M16 A2999 RMK SF5SC3 SLP169

CYYZ;2009-01-11 01:11;CYYZ 110111Z 05011G16KT 2 1/2SM -SN BKN009 OVC017 M09/ RMK SN2SF5SC2

CYYZ;2009-01-11 01:51;CYYZ 110151Z 04012G17KT 1 1/4SM -SN OVC005 M10/ RMK SN4SF4

CYYZ;2009-01-11 02:00;CYYZ 110200Z 03015KT 1 1/4SM -SN OVC005 M10/M14 A2997 RMK SN4SF4 SLP161

CYYZ;2009-01-11 02:12;CYYZ 110212Z 02013KT 1SM R05/P6000FT/U R06L/3500V6000FT/D -SN VV004 M10/ RMK SN8

CYYZ;2009-01-11 02:36;CYYZ 110236Z 01015KT 3/4SM R05/2800V5500FT/N R06L/5000FT/D -SN DRSN VV004 M10/ RMK SN8

CYYZ;2009-01-11 03:00;CYYZ 110300Z 02019KT 3/4SM R05/3000VP6000FT/D R06R/4500FT/N -SN DRSN VV004 M10/M13 A2995 RMK SN8 /S01/ SLP156

CYYZ;2009-01-11 03:29;CYYZ 110329Z 01016G21KT 1 1/4SM -SN DRSN OVC005 M10/ RMK SN3NS5

CYYZ;2009-01-11 04:00;CYYZ 110400Z 01014KT 1 1/2SM -SN DRSN OVC005 M11/M13 A2996 RMK SN3NS5 /S02/ SLP157

CYYZ;2009-01-11 04:13;CYYZ 110413Z 01015KT 4SM -SN DRSN OVC008 M11/ RMK NS8

CYYZ;2009-01-11 04:30;CYYZ 110430Z 36014KT 6SM -SN DRSN BKN011 OVC022 M11/ RMK SC5NS3

CYYZ;2009-01-11 04:49;CYYZ 110449Z 01012KT 2 1/2SM -SN DRSN OVC007 M10/ RMK NS8

CYYZ;2009-01-11 05:00;CYYZ 110500Z 01012G17KT 1 3/4SM -SN DRSN OVC005 M10/M13 A2995 RMK SN2NS6 SLP156

CYYZ;2009-01-11 05:22;CYYZ 110522Z 36015KT 2SM -SN DRSN OVC008 M10/ RMK SN2NS6

CYYZ;2009-01-11 06:00;CYYZ 110600Z 36012G18KT 2SM -SN DRSN OVC008 M10/M14 A2995 RMK SN2NS6 /S04/ SLP155

CYYZ;2009-01-11 06:32;CYYZ 110632Z 36013G18KT 5SM -SN DRSN OVC011 M10/ RMK NS8

CYYZ;2009-01-11 06:50;CYYZ 110650Z 36014KT 10SM -SN DRSN BKN021 OVC036 M10/ RMK SC5SC3

CYYZ;2009-01-11 07:00;CYYZ 110700Z 35011G16KT 10SM -SN DRSN SCT035 BKN066 OVC087 M10/M13 A2995 RMK SC3AC3AC2 SLP154

CYYZ;2009-01-11 07:30;CYYZ 110730Z 34011KT 10SM BKN048 M10/ RMK SC5

CYYZ;2009-01-11 08:00;CYYZ 110800Z 34014KT 12SM FEW048 BKN067 M10/M15 A2998 RMK SC2AC3 SLP165

CYYZ;2009-01-11 09:00;CYYZ 110900Z 34012G17KT 15SM BKN100 M10/M15 A2999 RMK AC6 SLP168

CYYZ;2009-01-11 10:00;CYYZ 111000Z 34010KT 15SM BKN130 M10/M16 A3001 RMK AC5 SLP173

CYYZ;2009-01-11 11:00;CYYZ 111100Z 34008KT 15SM FEW120 M11/M17 A3003 RMK AC2 SLP180

CYYZ;2009-01-11 12:00;CYYZ 111200Z 34009KT 15SM FEW120 M12/M17 A3004 RMK AC1 SLP185

CYYZ;2009-01-11 13:00;CYYZ 111300Z 35008KT 15SM FEW120 M13/M18 A3005 RMK AC1 SLP189

CYYZ;2009-01-11 14:00;CYYZ 111400Z 35006KT 15SM FEW120 M12/M18 A3007 RMK AC1 SLP196

CYYZ;2009-01-11 15:00;CYYZ 111500Z 35007KT 15SM FEW050 FEW120 FEW250 M11/M17 A3008 RMK CU1AC1CI1 SLP199

CYYZ;2009-01-11 16:00;CYYZ 111600Z 34006KT 15SM FEW050 FEW250 M10/M17 A3009 RMK CU1CI0 SLP202

CYYZ;2009-01-11 17:00;CYYZ 111700Z 32010KT 15SM FEW050 BKN210 M09/M15 A3009 RMK CU1CI2 SLP201

CYYZ;2009-01-11 18:00;CYYZ 111800Z 31005KT 15SM FEW050 BKN220 M07/M15 A3008 RMK CU1CI2 SLP197

CYYZ;2009-01-11 19:00;CYYZ 111900Z 03006KT 15SM FEW050 FEW180 BKN220 M07/M15 A3003 RMK CU1AC2CI2 SLP182

CYYZ;2009-01-11 20:00;CYYZ 112000Z 32005KT 15SM FEW170 BKN220 M07/M15 A3004 RMK AC2CI2 SLP186

CYYZ;2009-01-11 21:00;CYYZ 112100Z 00000KT 15SM FEW092 BKN110 BKN220 M07/M14 A3003 RMK AC2AC2CI1 SLP181

CYYZ;2009-01-11 22:00;CYYZ 112200Z 06002KT 15SM FEW082 BKN110 OVC210 M07/M14 A3003 RMK AC2AC4CI2 SLP181

CYYZ;2009-01-11 23:00;CYYZ 112300Z 00000KT 15SM BKN081 OVC120 M07/M14 A3003 RMK AC5AS3 SLP181

CYYZ;2009-01-12 00:00;CYYZ 120000Z 22003KT 15SM OVC110 M06/M13 A3003 RMK AC8 SLP180

CYYZ;2009-01-12 01:00;CYYZ 120100Z 24004KT 15SM OVC110 M06/M12 A3002 RMK AC8 SLP179

CYYZ;2009-01-12 02:00;CYYZ 120200Z CCA 27005KT 15SM BKN110 M07/M13 A3003 RMK AS6 SLP181

CYYZ;2009-01-12 02:35;CYYZ 120235Z 27004KT 6SM -SHSN SCT025 BKN040 OVC080 M07/ RMK SC3SC2AC2

CYYZ;2009-01-12 03:00;CYYZ 120300Z 28005KT 4SM -SHSN SCT018 BKN034 OVC080 M07/M11 A3003 RMK SC3SC2AS2 SLP181

CYYZ;2009-01-12 04:00;CYYZ 120400Z 27004KT 7SM -SN SCT030 OVC100 M08/M11 A3002 RMK SC4AS3 SLP179

CYYZ;2009-01-12 05:00;CYYZ 120500Z 27008KT 12SM -SN SCT036 SCT100 M08/M11 A3002 RMK SC3AC1 SLP179

CYYZ;2009-01-12 05:42;CYYZ 120542Z 28006KT 15SM FEW060 BKN100 M09/ RMK SC2AC2

CYYZ;2009-01-12 06:00;CYYZ 120600Z 29005KT 15SM SCT064 BKN100 M08/M11 A3001 RMK SC3AC2 SLP174

CYYZ;2009-01-12 07:00;CYYZ 120700Z 23003KT 15SM FEW065 SCT090 BKN220 M09/M12 A3001 RMK SC1AC2CI1 SLP174

CYYZ;2009-01-12 08:00;CYYZ 120800Z 27007KT 15SM SCT080 BKN090 M08/M12 A3002 RMK AC3AC2 SLP176

CYYZ;2009-01-12 09:00;CYYZ 120900Z 29007KT 15SM SCT090 M09/M13 A3002 RMK AC2 SLP179

CYYZ;2009-01-12 10:00;CYYZ 121000Z 30008KT 15SM FEW035 M10/M13 A3004 RMK SC2 SLP184

CYYZ;2009-01-12 11:00;CYYZ 121100Z 26008KT 15SM SCT053 BKN060 M08/M12 A3005 RMK SC3SC3 SLP187

CYYZ;2009-01-12 12:00;CYYZ 121200Z 28007KT 15SM BKN056 M09/M12 A3007 RMK SC6 SLP194

CYYZ;2009-01-12 13:00;CYYZ 121300Z 27008KT 10SM BKN058 M08/M12 A3009 RMK SC6 SLP202

CYYZ;2009-01-12 14:00;CYYZ 121400Z 27014KT 15SM SCT060 M07/M11 A3011 RMK SC3 SLP209

CYYZ;2009-01-12 15:00;CYYZ 121500Z 27009KT 15SM FEW060 M06/M11 A3013 RMK SC1 SLP216

CYYZ;2009-01-12 16:00;CYYZ 121600Z 27013KT 12SM FEW060 M05/M10 A3014 RMK SC1 SLP218

CYYZ;2009-01-12 17:00;CYYZ 121700Z 27013G19KT 15SM SCT033 M04/M10 A3015 RMK SC3 SLP220

CYYZ;2009-01-12 18:00;CYYZ 121800Z 27012KT 15SM OVC032 M04/M10 A3014 RMK SC8 SLP216

CYYZ;2009-01-12 19:00;CYYZ 121900Z 26014KT 15SM OVC026 M04/M10 A3014 RMK SC8 SLP216

CYYZ;2009-01-12 20:00;CYYZ 122000Z 24012KT 15SM OVC026 M04/M10 A3014 RMK SC8 SLP216

CYYZ;2009-01-12 21:00;CYYZ 122100Z 25008KT 15SM OVC023 M04/M10 A3015 RMK SC8 SLP221

CYYZ;2009-01-12 22:00;CYYZ 122200Z 25010KT 15SM BKN024 OVC210 M05/M11 A3015 RMK SC6CI2 SLP221

CYYZ;2009-01-12 23:00;CYYZ 122300Z 22007KT 15SM BKN021 M06/M10 A3014 RMK SC6 SLP219

CYYZ;2009-01-13 00:00;CYYZ 130000Z 25008KT 15SM BKN018 OVC170 M06/M11 A3015 RMK SF7AS1 SLP221

CYYZ;2009-01-13 01:00;CYYZ 130100Z 24005KT 15SM OVC026 M06/M11 A3013 RMK NS8 SLP216

CYYZ;2009-01-13 02:00;CYYZ 130200Z 25004KT 15SM OVC027 M06/M10 A3012 RMK SC8 SLP210

CYYZ;2009-01-13 03:00;CYYZ 130300Z 19005KT 15SM OVC027 M05/M10 A3009 RMK SC8 SLP199

CYYZ;2009-01-13 04:00;CYYZ 130400Z 17003KT 15SM OVC028 M05/M09 A3006 RMK SC8 SLP189

CYYZ;2009-01-13 05:00;CYYZ 130500Z 19004KT 15SM OVC026 M04/M08 A3003 RMK SC8 SLP179

CYYZ;2009-01-13 06:00;CYYZ 130600Z 17004KT 15SM FEW018 OVC024 M04/M08 A2999 RMK SF1SC7 SLP166

CYYZ;2009-01-13 07:00;CYYZ 130700Z 18004KT 6SM -SN OVC015 M03/M07 A2997 RMK SC8 SLP157

CYYZ;2009-01-13 08:00;CYYZ 130800Z 16004KT 7SM -SN OVC030 M03/M06 A2995 RMK SC8 SLP150

CYYZ;2009-01-13 09:00;CYYZ 130900Z 15005KT 15SM -SN OVC032 M02/M05 A2989 RMK SC8 PRESFR SLP130

CYYZ;2009-01-13 10:00;CYYZ 131000Z 14008KT 6SM -SN FEW025 OVC042 M02/M05 A2983 RMK SC2NS6 PRESFR SLP110

CYYZ;2009-01-13 10:42;CYYZ 131042Z 16008KT 2SM -SN OVC013 M01/ RMK SN1SF7

CYYZ;2009-01-13 10:54;CYYZ 131054Z 17012KT 1 3/4SM -SN OVC007 M01/ RMK SN1SF7

CYYZ;2009-01-13 11:00;CYYZ 131100Z 17009G15KT 2 1/4SM -SN OVC005 M01/M03 A2979 RMK SF8 SLP098

CYYZ;2009-01-13 11:28;CYYZ 131128Z 16008G15KT 1 3/4SM -SN BKN004 OVC009 M01/ RMK SN2SF5NS2

CYYZ;2009-01-13 12:00;CYYZ 131200Z 17015KT 2 1/2SM -SN SCT004 OVC006 M01/M03 A2974 RMK SN2SF2SC5 /S01/ SLP080

CYYZ;2009-01-13 12:31;CYYZ 131231Z 18011G22KT 1 1/4SM -SN SCT004 OVC006 M01/ RMK SN2SF2NS5

CYYZ;2009-01-13 13:00;CYYZ 131300Z 19010G20KT 1 1/4SM -SN BKN005 OVC009 M01/M02 A2971 RMK SN2SF5NS1 /S01/ SLP070

CYYZ;2009-01-13 14:00;CYYZ 131400Z 19011KT 1SM R15L/6000FT/N R15R/P6000FT/N -SN BKN005 OVC011 M01/M02 A2967 RMK SN2SF4NS2 RWY 24L 4500FT N /S02/ SLP058

CYYZ;2009-01-13 14:30;CYYZ 131430Z 20012KT 2SM -SN BKN007 OVC011 M00/ RMK SN2SF4NS2

CYYZ;2009-01-13 15:00;CYYZ 131500Z 21011G17KT 2 1/2SM -SN BKN007 OVC012 00/M01 A2966 RMK SN2SF5NS2 SLP053

CYYZ;2009-01-13 15:19;CYYZ 131519Z 21013KT 4SM -SN SCT006 BKN010 OVC021 00/ RMK SF3SC3NS2

CYYZ;2009-01-13 16:00;CYYZ 131600Z 21010KT 8SM -SN FEW007 BKN012 OVC022 01/M01 A2964 RMK SF2SC5SC2 SLP045

CYYZ;2009-01-13 16:20;CYYZ 131620Z 21013KT 8SM -SN FEW009 OVC026 01/ RMK SC2SC6

CYYZ;2009-01-13 16:42;CYYZ 131642Z 22010G15KT 4SM -SN BKN011 OVC022 01/ RMK SC6SC2

CYYZ;2009-01-13 16:54;CYYZ 131654Z 23009KT 2SM -SN BKN007 OVC022 01/ RMK SN2SF5SC2

CYYZ;2009-01-13 17:00;CYYZ 131700Z 24008KT 3/4SM R23/4000VP6000FT/D R24R/4500VP6000FT/D -SN OVC007 01/M01 A2961 RMK SN3SF5 SLP035

CYYZ;2009-01-13 17:05;CYYZ 131705Z 23014KT 3/8SM R23/4000VP6000FT/D R24R/3000V5000FT/D SN VV003 00/ RMK SN8

CYYZ;2009-01-13 17:15;CYYZ 131715Z 24014KT 1SM R23/5500FT/U R24R/3000VP6000FT/U -SN SCT004 OVC012 00/ RESN RMK SN2SF2SC4

CYYZ;2009-01-13 17:26;CYYZ 131726Z 26013G18KT 5/8SM R23/5000FT/D R24R/2800VP6000FT/D -SN BKN004 OVC011 00/ RESN RMK SN2SF5NS1

CYYZ;2009-01-13 17:39;CYYZ 131739Z 24011KT 3SM -SN FEW007 BKN015 OVC029 00/ RESN RMK SF2SC4NS2

CYYZ;2009-01-13 18:00;CYYZ 131800Z CCA 24013KT 5SM -SN SCT012 OVC020 00/M01 A2959 RESN RMK SC3SC5 /S03/ SLP027

CYYZ;2009-01-13 18:10;CYYZ 131810Z 26015KT 1 1/2SM R23/P6000FT/U R24R/4500VP6000FT/D -SN BKN007 OVC012 00/ RMK SN2SF3NS3

CYYZ;2009-01-13 18:25;CYYZ 131825Z 27021KT 8SM -SN FEW007 SCT014 OVC034 M01/ RMK SF2SC2SC4

CYYZ;2009-01-13 18:50;CYYZ 131850Z 28020KT 15SM FEW018 OVC043 M01/ RMK SC2SC6

CYYZ;2009-01-13 19:00;CYYZ 131900Z 28022G27KT 15SM DRSN SCT022 OVC056 M01/M04 A2961 RMK SC3SC5 SLP034

CYYZ;2009-01-13 20:00;CYYZ 132000Z 29024G30KT 15SM DRSN SCT024 OVC069 M03/M08 A2964 RMK SC3AC5 SLP044

CYYZ;2009-01-13 21:00;CYYZ 132100Z 30025KT 15SM DRSN FEW030 BKN120 M06/M12 A2972 RMK CU1AC5 PRESRR SLP072

CYYZ;2009-01-13 22:00;CYYZ 132200Z 30024G31KT 15SM DRSN FEW030 FEW100 M08/M14 A2978 RMK SC1AC1 PRESRR SLP092

CYYZ;2009-01-13 23:00;CYYZ 132300Z 31024G30KT 15SM DRSN FEW030 FEW070 M09/M16 A2984 RMK SC1AC1 PRESRR SLP113

CYYZ;2009-01-14 00:00;CYYZ 140000Z 31020G35KT 15SM DRSN FEW030 M11/M17 A2990 RMK SF1 PRESRR SLP137

CYYZ;2009-01-14 01:00;CYYZ 140100Z 31018KT 15SM SKC M12/M18 A2994 RMK SLP150

CYYZ;2009-01-14 02:00;CYYZ 140200Z 30016KT 15SM SKC M13/M19 A2997 RMK SLP160

CYYZ;2009-01-14 03:00;CYYZ 140300Z 29016KT 15SM SKC M14/M20 A3000 RMK SLP170

CYYZ;2009-01-14 04:00;CYYZ 140400Z 30012G17KT 15SM FEW030 M14/M20 A3001 RMK SC1 SLP173

CYYZ;2009-01-14 05:00;CYYZ 140500Z 29013KT 15SM FEW030 M15/M21 A3003 RMK SC1 SLP180

CYYZ;2009-01-14 06:00;CYYZ 140600Z 31012KT 15SM FEW030 M16/M22 A3005 RMK SC1 SLP187

CYYZ;2009-01-14 07:00;CYYZ 140700Z 34006KT 15SM SKC M18/M22 A3007 RMK SLP194

CYYZ;2009-01-14 08:00;CYYZ 140800Z 36008KT 15SM SKC M19/M23 A3008 RMK SLP199

CYYZ;2009-01-14 09:00;CYYZ 140900Z 34008KT 15SM SKC M20/M24 A3010 RMK SLP206

CYYZ;2009-01-14 10:00;CYYZ 141000Z 34006KT 15SM SKC M21/M25 A3011 RMK SLP212

CYYZ;2009-01-14 11:00;CYYZ 141100Z 36008KT 15SM SKC M21/M26 A3013 RMK SLP219

CYYZ;2009-01-14 12:00;CYYZ 141200Z 36006KT 15SM FEW220 M22/M26 A3016 RMK CI1 SLP228

CYYZ;2009-01-14 13:00;CYYZ 141300Z 01008KT 15SM FEW160 BKN220 M21/M26 A3016 RMK AC2CI0 CI TR SLP228

CYYZ;2009-01-14 14:00;CYYZ 141400Z 01006KT 15SM FEW025 BKN130 BKN220 M21/M26 A3016 RMK SC1AS5CI0 CI TR SLP228

CYYZ;2009-01-14 15:00;CYYZ 141500Z 04003KT 15SM FEW025 FEW110 BKN130 M20/M25 A3016 RMK SC1AC2AS5 SLP228

CYYZ;2009-01-14 16:00;CYYZ 141600Z 00000KT 15SM FEW025 FEW120 OVC130 M17/M23 A3015 RMK SC1AC2AS4 SLP227

CYYZ;2009-01-14 17:00;CYYZ 141700Z 00000KT 15SM BKN057 BKN079 OVC110 M17/M22 A3013 RMK SC5AC1AS2 SLP219

CYYZ;2009-01-14 18:00;CYYZ 141800Z 00000KT 12SM BKN042 BKN066 OVC070 M15/M22 A3012 RMK SC5AC1AS2 SLP215

CYYZ;2009-01-14 19:00;CYYZ 141900Z 35003KT 12SM OVC034 OVC052 M15/M21 A3010 RMK SC5SC3 SLP208

CYYZ;2009-01-14 19:23;CYYZ 141923Z 03005KT 10SM -SHSN BKN030 OVC039 M14/ RMK SC5SC3

CYYZ;2009-01-14 19:46;CYYZ 141946Z 02003KT 2 1/2SM -SN BKN019 OVC035 M14/ RMK SC5SC3

CYYZ;2009-01-14 20:00;CYYZ 142000Z 02004KT 2SM -SN BKN018 OVC032 M13/M19 A3008 RMK SC5SC3 SLP202

CYYZ;2009-01-14 20:39;CYYZ 142039Z 02005KT 2SM -SN OVC011 M13/ RMK SN2SC6

CYYZ;2009-01-14 21:00;CYYZ 142100Z 02005KT 2SM -SN SCT014 OVC019 M13/M18 A3008 RMK SN2SF2SC5 SLP203

CYYZ;2009-01-14 21:22;CYYZ 142122Z 36005KT 1 3/4SM -SN BKN009 OVC022 M13/ RMK SN2SF3NS3

CYYZ;2009-01-14 22:00;CYYZ 142200Z 02006KT 2 1/4SM -SN BKN009 OVC014 M13/M17 A3009 RMK SN2SF3SC3 SLP205

CYYZ;2009-01-14 22:25;CYYZ 142225Z 05008KT 2 1/2SM -SN SCT014 OVC025 M13/ RMK SC3SC5

CYYZ;2009-01-14 23:00;CYYZ 142300Z 04007KT 5SM -SN BKN021 OVC035 M13/M16 A3009 RMK SC5SC3 SLP206

CYYZ;2009-01-15 00:00;CYYZ 150000Z 04006KT 7SM -SN BKN017 OVC036 M14/M17 A3011 RMK SC6SC2 SLP212

CYYZ;2009-01-15 01:00;CYYZ 150100Z 04007KT 9SM -SN BKN017 OVC029 M14/M17 A3012 RMK SC6NS2 SLP216

CYYZ;2009-01-15 02:00;CYYZ 150200Z 05006KT 10SM -SN SCT036 BKN076 M14/M18 A3012 RMK SC3AC4 SLP216

CYYZ;2009-01-15 02:47;CYYZ 150247Z 04009KT 5SM -SN BKN013 BKN024 OVC076 M14/ RMK SC5SC2AC1

CYYZ;2009-01-15 03:00;CYYZ 150300Z 04008KT 3SM -SN BKN013 OVC027 M14/M18 A3012 RMK SC6NS2 SLP217

CYYZ;2009-01-15 03:42;CYYZ 150342Z 04009KT 5SM -SN BKN023 OVC042 M14/ RMK SC5SC3

CYYZ;2009-01-15 04:00;CYYZ 150400Z 02009KT 5SM -SN BKN018 OVC032 M14/M17 A3012 RMK SC6NS2 SLP217

CYYZ;2009-01-15 05:00;CYYZ 150500Z 02011KT 4SM -SN SCT014 OVC026 M15/M18 A3013 RMK SC3NS5 SLP220

CYYZ;2009-01-15 06:00;CYYZ 150600Z 01010KT 5SM -SN BKN015 OVC029 M16/M19 A3014 RMK SC6NS2 SLP222

CYYZ;2009-01-15 06:49;CYYZ 150649Z 36011KT 4SM -SN BKN011 OVC028 M15/ RMK SC6NS2

CYYZ;2009-01-15 07:00;CYYZ 150700Z 36009KT 4SM -SN SCT013 OVC020 M15/M18 A3015 RMK SC4NS4 SLP226

CYYZ;2009-01-15 07:46;CYYZ 150746Z 35009KT 12SM BKN043 BKN059 M16/ RMK SC5SC1

CYYZ;2009-01-15 08:00;CYYZ 150800Z 35010KT 8SM -SN SCT013 BKN042 M17/M20 A3017 RMK SC3SC3 SLP233

CYYZ;2009-01-15 08:49;CYYZ 150849Z 36010KT 15SM BKN043 M17/ RMK SC6

CYYZ;2009-01-15 09:00;CYYZ 150900Z 35008KT 15SM BKN039 M16/M20 A3019 RMK SC6 SLP238

CYYZ;2009-01-15 10:00;CYYZ 151000Z 35006KT 15SM FEW023 BKN041 M16/M20 A3021 RMK SC2SC5 SLP244

CYYZ;2009-01-15 11:00;CYYZ 151100Z 35005KT 15SM FEW026 BKN064 M17/M21 A3023 RMK SC1SC3 SLP253

CYYZ;2009-01-15 12:00;CYYZ 151200Z 36009KT 15SM FEW060 M18/M22 A3025 RMK SC2 SLP261

CYYZ;2009-01-15 13:00;CYYZ 151300Z 36009KT 15SM FEW060 FEW100 M19/M23 A3027 RMK SC1AC1 SLP265

CYYZ;2009-01-15 14:00;CYYZ 151400Z 34009KT 15SM FEW050 FEW090 M19/M23 A3028 RMK SC1AC0 SLP271

CYYZ;2009-01-15 15:00;CYYZ 151500Z 03004KT 15SM FEW110 M18/M23 A3030 RMK AC1 SLP278

CYYZ;2009-01-15 16:00;CYYZ 151600Z 33002KT 15SM FEW110 M17/M23 A3031 RMK AC1 SLP280

CYYZ;2009-01-15 17:00;CYYZ 151700Z 00000KT 15SM FEW070 FEW220 M15/M22 A3030 RMK AC1CI0 SLP277

CYYZ;2009-01-15 18:00;CYYZ 151800Z 23006KT 15SM FEW021 SCT080 M13/M21 A3027 RMK SC2AC1 SLP266

CYYZ;2009-01-15 19:00;CYYZ 151900Z 23008KT 15SM FEW027 FEW032 SCT070 M12/M19 A3027 RMK CU1SC2AC1 AC TR SLP265

CYYZ;2009-01-15 20:00;CYYZ 152000Z 24008KT 15SM FEW042 SCT062 M12/M18 A3026 RMK CU2SC2 SLP262

CYYZ;2009-01-15 21:00;CYYZ 152100Z CCA 26011KT 8SM DRSN FEW034 SCT052 M11/M17 A3026 RMK CU2SC2 SLP261

CYYZ;2009-01-15 22:00;CYYZ 152200Z 26013G18KT 15SM FEW033 SCT052 SCT072 M12/M18 A3027 RMK CU2SC2AC1 SLP266

CYYZ;2009-01-15 23:00;CYYZ 152300Z 26012KT 15SM FEW062 FEW080 M13/M19 A3028 RMK SC1AC1 SLP269

CYYZ;2009-01-16 00:00;CYYZ 160000Z 29010KT 15SM VCSH BKN026 BKN042 M13/M18 A3031 RMK SC5SC2 SH N SLP279

CYYZ;2009-01-16 00:25;CYYZ 160025Z 29013KT 3SM -SN OVC027 M13/ RMK SC8

CYYZ;2009-01-16 00:29;CYYZ 160029Z 34009G15KT 1 1/2SM -SN OVC024 M14/ RMK SN2SC6

CYYZ;2009-01-16 01:00;CYYZ 160100Z 35009KT 2SM -SN VV020 M14/M18 A3033 RMK SN8 SLP285

CYYZ;2009-01-16 01:19;CYYZ 160119Z 34009KT 4SM -SN BKN028 M15/ RMK SC6

CYYZ;2009-01-16 02:00;CYYZ 160200Z 36006KT 8SM -SN FEW022 FEW070 M16/M19 A3034 RMK SC2AC1 SLP289

CYYZ;2009-01-16 02:18;CYYZ 160218Z 36005KT 15SM BKN028 M16/ RMK SC7

CYYZ;2009-01-16 03:00;CYYZ 160300Z 29002KT 15SM OVC027 M15/M19 A3034 RMK SC7 SLP291

CYYZ;2009-01-16 04:00;CYYZ 160400Z 02002KT 15SM FEW025 SCT085 M16/M21 A3034 RMK SC1AS2 SLP292

CYYZ;2009-01-16 05:00;CYYZ 160500Z 00000KT 8SM SCT033 M17/M21 A3034 RMK ST1 SLP290

CYYZ;2009-01-16 06:00;CYYZ 160600Z 10003KT 15SM FEW025 FEW070 M17/M21 A3032 RMK SC1AS0 SLP282

CYYZ;2009-01-16 07:00;CYYZ 160700Z 24009KT 15SM FEW025 M17/M20 A3030 RMK SC1 SLP277

CYYZ;2009-01-16 08:00;CYYZ 160800Z 26015KT 15SM FEW025 FEW085 M17/M21 A3031 RMK SC1AS1 SLP280

CYYZ;2009-01-16 09:00;CYYZ 160900Z 26012KT 15SM SKC M17/M21 A3031 RMK SLP279

CYYZ;2009-01-16 10:00;CYYZ 161000Z 26015KT 15SM FEW070 M17/M21 A3032 RMK AC1 SLP284

CYYZ;2009-01-16 11:00;CYYZ 161100Z 25015KT 15SM SKC M17/M21 A3034 RMK SLP288

CYYZ;2009-01-16 12:00;CYYZ 161200Z 25014KT 15SM FEW030 M18/M22 A3035 RMK SC1 SLP294

CYYZ;2009-01-16 13:00;CYYZ 161300Z 25018KT 15SM FEW030 FEW070 M18/M22 A3036 RMK SC1AC1 SLP298

CYYZ;2009-01-16 14:00;CYYZ 161400Z 25018KT 15SM DRSN FEW030 FEW070 M17/M21 A3038 RMK SC1AC1 SLP305

CYYZ;2009-01-16 15:00;CYYZ 161500Z 26021G26KT 15SM DRSN FEW040 FEW100 FEW250 M16/M20 A3040 RMK CU1AC1CI0 SLP310

CYYZ;2009-01-16 16:00;CYYZ 161600Z 26020G27KT 15SM DRSN FEW040 FEW060 M14/M21 A3040 RMK CU1SC1 SLP312

CYYZ;2009-01-16 17:00;CYYZ 161700Z 26019G24KT 15SM DRSN FEW016 M13/M18 A3040 RMK SC2 SLP312

CYYZ;2009-01-16 18:00;CYYZ 161800Z 27022KT 15SM DRSN FEW024 FEW040 FEW120 FEW230 M13/M19 A3039 RMK SC2CU1AC1CI1 SLP308

CYYZ;2009-01-16 19:00;CYYZ 161900Z 26020KT 15SM DRSN FEW028 FEW040 FEW140 FEW230 M13/M19 A3040 RMK SC1CU1AC1CI1 AC CI TR SLP310

CYYZ;2009-01-16 20:00;CYYZ 162000Z 27020G26KT 15SM DRSN FEW030 FEW040 FEW120 M13/M19 A3041 RMK SC2CU1AC1 AC TR SLP314

CYYZ;2009-01-16 21:00;CYYZ 162100Z 27012KT 15SM DRSN BKN041 BKN100 M14/M19 A3043 RMK SC3AC1 CU ASOCTD SLP320

CYYZ;2009-01-16 22:00;CYYZ 162200Z 26013KT 15SM FEW042 FEW100 FEW230 M14/M19 A3042 RMK SC2AC1CI1 SLP318

CYYZ;2009-01-16 23:00;CYYZ 162300Z 24015KT 15SM FEW030 FEW120 FEW230 M15/M20 A3043 RMK SC1AC1CI1 SLP319

CYYZ;2009-01-17 00:00;CYYZ 170000Z 25015G20KT 15SM SKC M15/M21 A3043 RMK SLP321

CYYZ;2009-01-17 01:00;CYYZ 170100Z 25012KT 15SM SKC M17/M21 A3042 RMK SLP319

CYYZ;2009-01-17 02:00;CYYZ 170200Z 25014KT 15SM SKC M17/M22 A3041 RMK SLP315

CYYZ;2009-01-17 03:00;CYYZ 170300Z 25012KT 15SM SKC M17/M21 A3040 RMK SLP312

CYYZ;2009-01-17 04:00;CYYZ 170400Z 25014KT 15SM SKC M17/M21 A3040 RMK SLP311

CYYZ;2009-01-17 05:00;CYYZ 170500Z 24013G18KT 15SM FEW070 M18/M22 A3039 RMK AC1 SLP309

CYYZ;2009-01-17 06:00;CYYZ 170600Z 23011KT 15SM SKC M17/M22 A3038 RMK SLP304

CYYZ;2009-01-17 07:00;CYYZ 170700Z 25011KT 15SM SKC M18/M23 A3039 RMK SLP306

CYYZ;2009-01-17 08:00;CYYZ 170800Z 24012KT 15SM SKC M19/M23 A3039 RMK SLP307

CYYZ;2009-01-17 09:00;CYYZ 170900Z 23007KT 15SM SCT029 M19/M23 A3038 RMK SC2 SLP304

CYYZ;2009-01-17 10:00;CYYZ 171000Z 22008KT 15SM FEW030 M19/M23 A3037 RMK SC1 SLP302

CYYZ;2009-01-17 11:00;CYYZ 171100Z 22009KT 15SM BKN250 M20/M24 A3037 RMK CS2 SLP300

CYYZ;2009-01-17 12:00;CYYZ 171200Z 21010KT 15SM BKN210 M19/M25 A3037 RMK CS2 SLP303

CYYZ;2009-01-17 13:00;CYYZ 171300Z 21008KT 15SM FEW020 SCT180 BKN220 M19/M26 A3036 RMK CF1AC2CS3 SLP298

CYYZ;2009-01-17 14:00;CYYZ 171400Z 20004KT 15SM FEW020 FEW110 OVC130 M17/M24 A3034 RMK CF1AC2AS6 SLP291

CYYZ;2009-01-17 15:00;CYYZ 171500Z 19006KT 12SM FEW020 FEW094 OVC120 M16/M21 A3030 RMK CF1AC2AS6 SLP276

CYYZ;2009-01-17 16:00;CYYZ 171600Z 20006KT 12SM FEW020 OVC091 M13/M20 A3027 RMK CU1AS8 SLP266

CYYZ;2009-01-17 17:00;CYYZ 171700Z 20011KT 12SM FEW020 OVC081 M12/M21 A3022 RMK CF1AS8 SLP252

CYYZ;2009-01-17 18:00;CYYZ 171800Z 20010G16KT 12SM FEW020 FEW085 OVC098 M10/M21 A3018 RMK CU1AC2AS6 SLP234

CYYZ;2009-01-17 19:00;CYYZ 171900Z 19010G15KT 15SM SCT042 OVC084 M10/M20 A3013 RMK SC3AS5 SLP220

CYYZ;2009-01-17 19:11;CYYZ 171911Z CCA 18011G16KT 8SM -SN SCT023 OVC040 M10/ RMK SC3SC5

CYYZ;2009-01-17 20:00;CYYZ 172000Z 17011G17KT 4SM -SN BKN017 OVC032 M10/M15 A3009 RMK SC5SC3 SLP204

CYYZ;2009-01-17 20:10;CYYZ 172010Z 18010G17KT 1 1/2SM -SN SCT013 OVC025 M10/ RMK SN2SF2NS4

CYYZ;2009-01-17 20:48;CYYZ 172048Z 15014G19KT 1 1/4SM -SN DRSN OVC009 M10/ RMK SN3SF5

CYYZ;2009-01-17 21:00;CYYZ 172100Z 16010G16KT 3/4SM R23/P6000FT/N R24R/P6000FT/D -SN DRSN OVC004 M10/M14 A3005 RMK SN5SF3 SLP192

CYYZ;2009-01-17 21:19;CYYZ 172119Z 16011G17KT 3/4SM R23/5000FT/U R24R/P6000FT/U -SN DRSN OVC007 M11/ RMK SN5SF3 RWY R15L/P6000FT/U

CYYZ;2009-01-17 22:00;CYYZ 172200Z 14012G18KT 3/4SM R23/P6000FT/U R24R/P6000FT/D -SN DRSN OVC007 M10/M13 A3000 RMK SN5SF3 RWY R15L/P6000FT/U 15R/P6000FT/N SLP174

CYYZ;2009-01-17 22:32;CYYZ 172232Z 14014G20KT 1 1/2SM -SN DRSN OVC009 M10/ RMK SN3SF5

CYYZ;2009-01-17 23:00;CYYZ 172300Z 15012G19KT 1 1/4SM -SN DRSN OVC006 M10/M12 A2997 RMK SN3SF5 /S01/ SLP163

CYYZ;2009-01-17 23:35;CYYZ 172335Z 16015KT 3/4SM R23/P6000FT/N R24R/P6000FT/U -SN DRSN VV008 M10/ RMK SN8 RVR R15L/P6000FT/U R15R/P6000FT/D

CYYZ;2009-01-18 00:00;CYYZ 180000Z 15012G18KT 1SM R23/P6000FT/N R24R/P6000FT/U -SN DRSN VV010 M09/M12 A2995 RMK SN8 RVR R15L/P6000FT/D R15R/P6000FT/U SLP157

CYYZ;2009-01-18 00:32;CYYZ 180032Z 16014KT 3/4SM R23/P6000FT/D R24R/P6000FT/D -SN DRSN VV008 M09/ RMK SN8 RVR R15L/P6000FT/D 15R/P6000FT/D

CYYZ;2009-01-18 01:00;CYYZ 180100Z 15013KT 1SM R23/P6000FT/N R24R/P6000FT/U -SN DRSN VV010 M09/M11 A2993 RMK SN8 RVR R15L/P6000FT/U 15R/P6000FT/D SLP149

CYYZ;2009-01-18 02:00;CYYZ 180200Z 15009G17KT 1SM R23/P6000FT/U R24R/P6000FT/D -SN DRSN VV010 M09/M11 A2993 RMK SN8 RVR R15L/P6000FT/U 15R/P6000FT/N SLP149

CYYZ;2009-01-18 02:55;CYYZ 180255Z 14008KT 1SM R23/P6000FT/D R24R/P6000FT/D -SN DRSN OVC017 M08/ RMK SN2NS6 RVR 15L/P6000FT/D 15R/P6000FT/D

CYYZ;2009-01-18 03:00;CYYZ 180300Z 15010KT 1 1/4SM R23/P6000FT/D R24R/P6000FT/N -SN DRSN FEW011 OVC017 M08/M10 A2986 RMK SN2SF1NS5 /S01/ RVR 15L/P6000FT/N 15R/P6000FT/U SLP124

CYYZ;2009-01-18 04:00;CYYZ 180400Z 14009KT 1SM R15L/P6000FT/D R15R/P6000FT/D -SN DRSN FEW010 OVC015 M07/M10 A2982 RMK SN2SF1NS5 SLP111

CYYZ;2009-01-18 05:00;CYYZ 180500Z 14011G17KT 1SM R15L/P6000FT/N R15R/P6000FT/U -SN DRSN FEW010 OVC015 M07/M09 A2980 RMK SN2SF1NS5 SLP104

CYYZ;2009-01-18 06:00;CYYZ 180600Z 14012G19KT 3SM -SN DRSN OVC012 M07/M09 A2977 RMK SN1SF7 /S03/ SLP091

CYYZ;2009-01-18 06:48;CYYZ 180648Z 14011G16KT 1 1/2SM -SN DRSN BKN009 OVC016 M07/ RMK SN1SF5SF2

CYYZ;2009-01-18 07:00;CYYZ 180700Z 14013G18KT 2SM -SN DRSN BKN009 OVC013 M07/M09 A2975 RMK SN1SF4SF3 SLP086

CYYZ;2009-01-18 08:00;CYYZ 180800Z 14012KT 1 1/2SM -SN DRSN BKN009 OVC013 M06/M09 A2972 RMK SN1SF4SF3 SLP076

CYYZ;2009-01-18 08:22;CYYZ 180822Z 15010G15KT 2 1/2SM -SN DRSN FEW005 OVC009 M06/ RMK SN1SF1SF6

CYYZ;2009-01-18 08:42;CYYZ 180842Z 14011KT 4SM -SN DRSN OVC007 M06/ RMK SF8

CYYZ;2009-01-18 09:00;CYYZ 180900Z 14008KT 4SM -SN DRSN OVC007 M06/M08 A2969 RMK SF8 SLP066

CYYZ;2009-01-18 10:00;CYYZ 181000Z 15006KT 4SM -SN DRSN OVC007 M04/M07 A2967 RMK SF8 SLP058

CYYZ;2009-01-18 10:19;CYYZ 181019Z 16007KT 1 1/4SM -SN DRSN BKN007 OVC011 M04/ RMK SN1SF4SF3

CYYZ;2009-01-18 10:27;CYYZ 181027Z 17008KT 4SM -SN DRSN OVC007 M04/ RMK SF8

CYYZ;2009-01-18 11:00;CYYZ 181100Z 15008KT 6SM -SN DRSN BKN005 OVC013 M04/M06 A2965 RMK SF5SF3 SLP052

CYYZ;2009-01-18 11:21;CYYZ 181121Z 16009KT 6SM -SN DRSN BKN007 OVC012 M04/ RMK SF5SF3

CYYZ;2009-01-18 12:00;CYYZ 181200Z 16008KT 6SM -SN BKN007 OVC012 M03/M05 A2965 RMK SF5SF3 /S01/ SLP050

CYYZ;2009-01-18 12:39;CYYZ 181239Z 17006KT 2 1/2SM -SN FEW014 OVC018 M03/ RMK SF2NS6

CYYZ;2009-01-18 12:47;CYYZ 181247Z 17006KT 1 1/4SM -SN SCT009 OVC018 M03/ RMK SN2SF2NS4

CYYZ;2009-01-18 13:00;CYYZ 181300Z 18005KT 1 1/2SM -SN SCT014 OVC021 M03/M05 A2965 RMK SN2SF2NS4 SLP051

CYYZ;2009-01-18 13:12;CYYZ 181312Z 19004KT 1 1/4SM -SN BKN006 OVC014 M03/ RMK SN2SF4SF2

CYYZ;2009-01-18 13:18;CYYZ 181318Z 19003KT 3/4SM R15L/P6000FT/D R15R/P6000FT/D -SN VV006 M03/ RMK SN8

CYYZ;2009-01-18 13:38;CYYZ 181338Z 18008KT 1 1/2SM -SN SCT009 OVC021 M03/ RMK SN2SF2NS4

CYYZ;2009-01-18 13:48;CYYZ 181348Z 21008KT 4SM -SN BKN013 OVC028 M03/ RMK SF5NS3

CYYZ;2009-01-18 14:00;CYYZ 181400Z 22008KT 8SM -SN FEW015 OVC052 M03/M06 A2965 RMK SF2SC6 /S01/ PCPN VRY LGT SLP051

CYYZ;2009-01-18 15:00;CYYZ 181500Z 22008KT 6SM -SN FEW018 OVC042 M04/M07 A2966 RMK SF2SC6 SLP055

CYYZ;2009-01-18 16:00;CYYZ 181600Z 22007KT 5SM -SN FEW019 SCT043 OVC068 M04/M08 A2966 RMK CF1SC3AS4 SLP055

CYYZ;2009-01-18 17:00;CYYZ 181700Z 20004KT 6SM -SN FEW025 OVC043 M04/M08 A2964 RMK SC2SC6 SLP049

CYYZ;2009-01-18 17:41;CYYZ 181741Z 19004KT 2 1/2SM -SN SCT014 OVC021 M04/ RMK SF3SC5

CYYZ;2009-01-18 18:00;CYYZ 181800Z 17004KT 2 1/2SM -SN SCT017 OVC031 M04/M08 A2962 RMK SC3SC5 SLP040

CYYZ;2009-01-18 19:00;CYYZ 181900Z 18003KT 1 1/4SM -SN OVC017 M04/M07 A2961 RMK SN3SC5 SLP037

CYYZ;2009-01-18 19:16;CYYZ 181916Z 14003KT 1SM R23/P6000FT/N R24R/P6000FT/D -SN BKN008 OVC014 M04/ RMK SN3SF2SC2

CYYZ;2009-01-18 19:31;CYYZ 181931Z 13004KT 1 1/2SM -SN BKN016 OVC027 M04/ RMK SN2SC3SC3

CYYZ;2009-01-18 20:00;CYYZ 182000Z 14003KT 1 1/2SM -SN BKN011 OVC018 M04/M06 A2961 RMK SN2SF3SC3 SLP038

CYYZ;2009-01-18 20:54;CYYZ 182054Z 19006KT 1SM R23/P6000FT/D R24L/P6000FT/N -SN BKN007 OVC016 M04/ RMK SN3SF2SC3

CYYZ;2009-01-18 21:00;CYYZ 182100Z 19004KT 1/2SM R23/3500VP6000FT/D R24L/P6000FT/D SN VV006 M04/M06 A2963 RMK SN8 SLP042

CYYZ;2009-01-18 21:09;CYYZ 182109Z 23006KT 1/2SM R23/2800VP6000FT/U R24L/3000V5000FT/D SN VV004 M04/ RMK SN8

CYYZ;2009-01-18 21:22;CYYZ 182122Z 20005KT 1 1/2SM -SN SCT013 OVC022 M05/ RMK SN2SF2SC4 RESN

CYYZ;2009-01-18 21:34;CYYZ 182134Z 22006KT 4SM -SN FEW025 SCT040 OVC067 M04/ RMK SC2SC2AC4 RESN

CYYZ;2009-01-18 22:00;CYYZ 182200Z 22009KT 2 1/2SM -SN FEW012 OVC035 M04/M07 A2964 RMK SF2SC6 RESN /S01/ SLP048

CYYZ;2009-01-18 23:00;CYYZ 182300Z 22008KT 4SM -SN FEW017 OVC021 M06/M10 A2967 RMK SC2SC6 SLP055

CYYZ;2009-01-18 23:20;CYYZ 182320Z 23007KT 3SM -SN SCT009 OVC021 M06/ RMK SC3SC5

CYYZ;2009-01-19 00:00;CYYZ 190000Z 24010KT 6SM -SN FEW012 SCT018 OVC038 M07/M10 A2968 RMK SC2SC2SC4 SLP060

CYYZ;2009-01-19 01:00;CYYZ 190100Z 24009KT 6SM -SN FEW012 BKN025 OVC120 M08/M11 A2969 RMK SC2SC3AC2 SLP065

CYYZ;2009-01-19 02:00;CYYZ 190200Z 22005KT 7SM -SN FEW030 OVC120 M08/M11 A2969 RMK SC2AC6 SLP063

CYYZ;2009-01-19 03:00;CYYZ 190300Z 21005KT 7SM -SN FEW030 SCT075 OVC090 M08/M11 A2969 RMK SC2AC2AC4 SLP063

CYYZ;2009-01-19 04:00;CYYZ 190400Z 22005KT 10SM -SN FEW030 OVC090 M08/M11 A2968 RMK SC1AC7 SLP062

CYYZ;2009-01-19 05:00;CYYZ 190500Z 23004KT 10SM -SN OVC095 M08/M12 A2967 RMK AC8 SLP058

CYYZ;2009-01-19 06:00;CYYZ 190600Z 24004KT 15SM OVC094 M09/M12 A2965 RMK AC8 SLP052

CYYZ;2009-01-19 07:00;CYYZ 190700Z 23005KT 15SM OVC092 M09/M12 A2964 RMK AC8 SLP046

CYYZ;2009-01-19 08:00;CYYZ 190800Z 24004KT 15SM OVC092 M09/M12 A2963 RMK AC8 SLP045

CYYZ;2009-01-19 09:00;CYYZ 190900Z 23002KT 15SM OVC092 M09/M12 A2963 RMK AC8 SLP044

CYYZ;2009-01-19 10:00;CYYZ 191000Z 24002KT 15SM BKN053 OVC092 M09/M12 A2963 RMK SC5AC3 SLP045

CYYZ;2009-01-19 10:22;CYYZ 191022Z 24004KT 7SM -SHSN BKN054 OVC092 M09/ RMK SC6AC2

CYYZ;2009-01-19 11:00;CYYZ 191100Z 25005KT 6SM -SN FEW025 BKN054 OVC089 M09/M12 A2963 RMK SC2SC3AC3 SLP043

CYYZ;2009-01-19 12:00;CYYZ 191200Z 21004KT 7SM -SN SCT023 OVC091 M08/M12 A2962 RMK SC3AS5 SLP042

CYYZ;2009-01-19 13:00;CYYZ 191300Z 22005KT 4SM -SN FEW026 OVC093 M09/M12 A2962 RMK SC2AS6 SLP042

CYYZ;2009-01-19 14:00;CYYZ 191400Z 25004KT 4SM -SN FEW022 BKN036 OVC092 M09/M12 A2962 RMK SC2SC5AS2 SLP043

CYYZ;2009-01-19 15:00;CYYZ 191500Z 26005KT 3SM -SN BKN023 OVC038 M08/M11 A2962 RMK SC6SC2 SLP042

CYYZ;2009-01-19 16:00;CYYZ 191600Z 30003KT 4SM -SN FEW013 OVC021 M08/M12 A2961 RMK SC2SC6 SLP038

CYYZ;2009-01-19 16:49;CYYZ 191649Z 31002KT 5SM HZ SCT023 OVC100 M07/ RMK SC3AS5

CYYZ;2009-01-19 17:00;CYYZ 191700Z 29002KT 5SM HZ SCT023 OVC100 M07/M11 A2960 RMK SC3AS5 SLP036

CYYZ;2009-01-19 18:00;CYYZ 191800Z 00000KT 5SM HZ FEW021 BKN043 OVC100 M07/M11 A2960 RMK SC2SC4AS2 SLP033

CYYZ;2009-01-19 18:28;CYYZ 191828Z 00000KT 3SM -SN SCT016 OVC028 M07/ RMK SC3SC5

CYYZ;2009-01-19 19:00;CYYZ 191900Z 00000KT 3SM -SN BKN024 OVC039 M07/M11 A2959 RMK SC6SC2 SLP032

CYYZ;2009-01-19 19:34;CYYZ 191934Z 33002KT 2 1/4SM -SN OVC017 M07/ RMK SN2SC6

CYYZ;2009-01-19 20:00;CYYZ 192000Z 27003KT 2 1/4SM -SN OVC018 M07/M11 A2961 RMK SN2NS6 SLP036

CYYZ;2009-01-19 20:31;CYYZ 192031Z 31005KT 2SM -SN BKN013 OVC019 M07/ RMK SN2SC5NS2

CYYZ;2009-01-19 21:00;CYYZ 192100Z 35004KT 2SM -SN OVC014 M07/M10 A2961 RMK SN2NS6 SLP040

CYYZ;2009-01-19 21:45;CYYZ 192145Z 35008KT 4SM -SN FEW012 OVC031 M07/ RMK SC2SC6

CYYZ;2009-01-19 22:00;CYYZ 192200Z 36008KT 4SM -SN FEW012 BKN023 OVC039 M07/M10 A2963 RMK SC2SC5NS2 SLP045

CYYZ;2009-01-19 23:00;CYYZ 192300Z 36009KT 7SM -SN SCT022 BKN120 M07/M11 A2964 RMK SC3AC4 SLP048

CYYZ;2009-01-20 00:00;CYYZ 200000Z 36007KT 7SM -SN SCT041 BKN130 M08/M11 A2967 RMK SC3AC4 SLP060

CYYZ;2009-01-20 00:42;CYYZ 200042Z 35010KT 10SM BKN130 M08/ RMK AC5

CYYZ;2009-01-20 01:00;CYYZ 200100Z 36008KT 10SM BKN120 M09/M12 A2969 RMK AC5 SLP065

CYYZ;2009-01-20 02:00;CYYZ 200200Z 35010KT 12SM FEW120 M09/M13 A2970 RMK AC2 SLP068

CYYZ;2009-01-20 03:00;CYYZ 200300Z 34009KT 12SM FEW120 M10/M13 A2971 RMK AC2 SLP073

CYYZ;2009-01-20 04:00;CYYZ 200400Z 36009KT 12SM FEW120 M10/M13 A2972 RMK AC1 SLP076

CYYZ;2009-01-20 05:00;CYYZ 200500Z 34012KT 12SM FEW120 M11/M14 A2973 RMK AC1 SLP080

CYYZ;2009-01-20 06:00;CYYZ 200600Z 34009KT 15SM FEW120 M12/M14 A2974 RMK AC1 SLP084

CYYZ;2009-01-20 07:00;CYYZ 200700Z 34013KT 15SM DRSN FEW057 M11/M14 A2977 RMK SC2 SLP091

CYYZ;2009-01-20 07:42;CYYZ 200742Z 33012KT 15SM -SHSN DRSN FEW018 BKN058 M11/ RMK SC2SC5

CYYZ;2009-01-20 08:00;CYYZ 200800Z 34012KT 15SM -SHSN DRSN BKN057 M11/M14 A2977 RMK SC6 SLP094

CYYZ;2009-01-20 08:47;CYYZ 200847Z 35010KT 15SM DRSN FEW057 M12/ RMK SC2

CYYZ;2009-01-20 09:00;CYYZ 200900Z 34010G15KT 15SM DRSN FEW055 M12/M15 A2978 RMK SC2 SLP097

CYYZ;2009-01-20 10:00;CYYZ 201000Z 36008KT 15SM FEW055 M13/M16 A2979 RMK SC2 SLP098

CYYZ;2009-01-20 11:00;CYYZ 201100Z 36011KT 15SM FEW050 M13/M16 A2979 RMK SC2 SLP099

CYYZ;2009-01-20 12:00;CYYZ 201200Z 36015G20KT 15SM DRSN FEW046 FEW120 M13/M16 A2981 RMK SC2AC1 SLP106

CYYZ;2009-01-20 13:00;CYYZ 201300Z 36017G24KT 15SM DRSN FEW050 FEW120 M14/M17 A2984 RMK SC1AC2 SLP117

CYYZ;2009-01-20 14:00;CYYZ 201400Z 35016KT 15SM DRSN FEW050 FEW120 M14/M18 A2986 RMK SC1AC1 SLP123

CYYZ;2009-01-20 15:00;CYYZ 201500Z 34013KT 15SM DRSN FEW050 FEW120 M14/M18 A2987 RMK CU1AC1 SLP127

CYYZ;2009-01-20 16:00;CYYZ 201600Z 35018KT 15SM DRSN FEW050 FEW120 M14/M18 A2989 RMK CU1AC1 SLP134

CYYZ;2009-01-20 17:00;CYYZ 201700Z 34011KT 15SM FEW046 FEW052 M14/M18 A2988 RMK SC2CU1 SLP131

CYYZ;2009-01-20 18:00;CYYZ 201800Z 34015KT 15SM FEW050 FEW220 M13/M17 A2987 RMK SC1CI1 SLP130

CYYZ;2009-01-20 19:00;CYYZ 201900Z 34009KT 15SM FEW042 FEW230 M12/M16 A2986 RMK CU1CI1 SLP125

CYYZ;2009-01-20 20:00;CYYZ 202000Z 34010KT 15SM FEW045 FEW250 M11/M16 A2987 RMK CU1CI1 SLP129

CYYZ;2009-01-20 21:00;CYYZ 202100Z 35011G16KT 15SM FEW250 M10/M17 A2988 RMK CI1 SLP132

CYYZ;2009-01-20 22:00;CYYZ 202200Z 33009KT 15SM FEW250 M10/M16 A2989 RMK CI1 SLP133

CYYZ;2009-01-20 23:00;CYYZ 202300Z 33008KT 15SM FEW120 FEW250 M12/M16 A2989 RMK AC1CI1 SLP135

CYYZ;2009-01-21 00:00;CYYZ 210000Z 31007KT 15SM SKC M12/M17 A2989 RMK SLP137

CYYZ;2009-01-21 01:00;CYYZ 210100Z 30012KT 15SM SKC M13/M17 A2990 RMK SLP140

CYYZ;2009-01-21 02:00;CYYZ 210200Z 31011KT 15SM SKC M14/M18 A2991 RMK SLP142

CYYZ;2009-01-21 03:00;CYYZ 210300Z 32008KT 15SM SKC M15/M19 A2992 RMK SLP145

CYYZ;2009-01-21 04:00;CYYZ 210400Z 32007KT 15SM SKC M16/M20 A2993 RMK SLP149

CYYZ;2009-01-21 05:00;CYYZ 210500Z 28004KT 15SM SKC M15/M19 A2993 RMK SLP150

CYYZ;2009-01-21 06:00;CYYZ 210600Z 28005KT 15SM SKC M16/M19 A2994 RMK SLP153

CYYZ;2009-01-21 07:00;CYYZ 210700Z 23006KT 15SM BKN230 M16/M19 A2993 RMK CS0 SLP149

CYYZ;2009-01-21 08:00;CYYZ 210800Z 27004KT 15SM BKN230 M18/M21 A2993 RMK CS3 SLP151

CYYZ;2009-01-21 09:00;CYYZ 210900Z 24005KT 15SM BKN250 M18/M20 A2991 RMK CS2 SLP144

CYYZ;2009-01-21 10:00;CYYZ 211000Z 27008KT 15SM SCT120 BKN220 M17/M20 A2990 RMK AC3CS0 SLP141

CYYZ;2009-01-21 11:00;CYYZ 211100Z 24009KT 15SM FEW120 BKN260 M15/M18 A2989 RMK AC1CS0 SLP137

CYYZ;2009-01-21 12:00;CYYZ 211200Z 24004KT 15SM BKN120 BKN250 M15/M18 A2989 RMK AS5CS1 SLP134

CYYZ;2009-01-21 13:00;CYYZ 211300Z 26012KT 15SM SCT064 OVC096 M12/M17 A2989 RMK SC3AS5 SLP136

CYYZ;2009-01-21 14:00;CYYZ 211400Z 21007KT 15SM BKN053 OVC130 M11/M17 A2988 RMK SC5AS3 SLP133

CYYZ;2009-01-21 15:00;CYYZ 211500Z 23009KT 15SM SCT062 BKN120 M10/M16 A2987 RMK SC3AC4 SLP130

CYYZ;2009-01-21 16:00;CYYZ 211600Z 23007KT 15SM FEW062 OVC120 M09/M15 A2986 RMK SC2AC6 SLP127

CYYZ;2009-01-21 17:00;CYYZ 211700Z 23012KT 15SM BKN024 OVC120 M07/M13 A2985 RMK SC6AC2 SLP122

CYYZ;2009-01-21 17:49;CYYZ 211749Z 24009KT 12SM -SN OVC023 M07/ RMK SC8

CYYZ;2009-01-21 18:00;CYYZ 211800Z 22010KT 10SM -SN OVC023 M07/M12 A2982 RMK SC8 SLP112

CYYZ;2009-01-21 18:47;CYYZ 211847Z 27016KT 15SM OVC024 M06/ RMK SC8

CYYZ;2009-01-21 19:00;CYYZ 211900Z 27017G22KT 15SM OVC021 M06/M10 A2981 RMK SC8 SLP109

CYYZ;2009-01-21 20:00;CYYZ 212000Z 26015KT 15SM OVC019 M06/M10 A2981 RMK SC8 SLP109

CYYZ;2009-01-21 21:00;CYYZ 212100Z 26014KT 15SM OVC021 M06/M11 A2982 RMK SC8 SLP112

CYYZ;2009-01-21 22:00;CYYZ 212200Z 25012G17KT 15SM OVC020 M06/M11 A2983 RMK SC8 SLP114

CYYZ;2009-01-21 23:00;CYYZ 212300Z 24014KT 15SM OVC020 M06/M10 A2984 RMK SC8 SLP119

CYYZ;2009-01-22 00:00;CYYZ 220000Z 22009KT 15SM OVC023 M06/M11 A2986 RMK SC8 SLP124

CYYZ;2009-01-22 01:00;CYYZ 220100Z 24013KT 15SM OVC024 M07/M12 A2986 RMK SC8 SLP124

CYYZ;2009-01-22 02:00;CYYZ 220200Z 25015KT 15SM OVC024 M07/M12 A2986 RMK SC8 SLP124

CYYZ;2009-01-22 03:00;CYYZ 220300Z 23015G20KT 15SM OVC024 M07/M12 A2984 RMK SC8 SLP117

CYYZ;2009-01-22 04:00;CYYZ 220400Z 23012G17KT 15SM OVC023 M07/M11 A2984 RMK SC8 SLP118

CYYZ;2009-01-22 05:00;CYYZ 220500Z 24011G16KT 15SM OVC024 M06/M11 A2984 RMK SC8 SLP118

CYYZ;2009-01-22 06:00;CYYZ 220600Z 24011KT 15SM BKN022 OVC036 M06/M11 A2983 RMK SC6SC2 SLP110

CYYZ;2009-01-22 07:00;CYYZ 220700Z 24010KT 15SM OVC019 M06/M10 A2981 RMK SC8 SLP104

CYYZ;2009-01-22 08:00;CYYZ 220800Z 23007KT 15SM OVC020 M05/M10 A2982 RMK SC8 SLP109

CYYZ;2009-01-22 09:00;CYYZ 220900Z 23008KT 15SM OVC019 M05/M09 A2981 RMK SC8 SLP104

CYYZ;2009-01-22 10:00;CYYZ 221000Z 24008KT 15SM OVC017 M05/M09 A2981 RMK SC8 SLP104

CYYZ;2009-01-22 11:00;CYYZ 221100Z 24009KT 15SM OVC015 M04/M09 A2981 RMK SC8 SLP106

CYYZ;2009-01-22 11:35;CYYZ 221135Z 25009KT 15SM OVC014 M04/ RMK SC8

CYYZ;2009-01-22 12:00;CYYZ 221200Z 24007KT 15SM OVC014 M04/M08 A2983 RMK SC8 SLP112

CYYZ;2009-01-22 13:00;CYYZ 221300Z 23008KT 12SM OVC014 M04/M08 A2984 RMK SC8 SLP115

CYYZ;2009-01-22 14:00;CYYZ 221400Z 23006KT 10SM OVC014 M04/M08 A2985 RMK SC8 SLP118

CYYZ;2009-01-22 14:36;CYYZ 221436Z 24009KT 4SM -SN OVC014 M04/ RMK SC8

CYYZ;2009-01-22 15:00;CYYZ 221500Z 24009KT 3SM -SN OVC016 M04/M07 A2987 RMK SC8 SLP124

CYYZ;2009-01-22 16:00;CYYZ 221600Z 21009KT 3SM -SN HZ OVC023 M04/M07 A2986 RMK SC8 SLP123

CYYZ;2009-01-22 17:00;CYYZ 221700Z 23009KT 4SM -SN HZ OVC023 M03/M07 A2986 RMK SC8 SLP123

CYYZ;2009-01-22 18:00;CYYZ 221800Z 24008KT 5SM -SN HZ OVC023 M03/M07 A2986 RMK SC8 SLP120

CYYZ;2009-01-22 18:38;CYYZ 221838Z 25007KT 7SM OVC022 M02/ RMK SC8

CYYZ;2009-01-22 19:00;CYYZ 221900Z 24008KT 7SM OVC022 M02/M07 A2986 RMK SC8 SLP121

CYYZ;2009-01-22 20:00;CYYZ 222000Z 26008KT 7SM OVC022 M02/M07 A2988 RMK SC8 SLP127

CYYZ;2009-01-22 20:05;CYYZ 222005Z 28008KT 7SM -SN OVC022 M02/ RMK SC8

CYYZ;2009-01-22 20:37;CYYZ 222037Z 28007KT 6SM HZ OVC022 M02/ RMK SC8

CYYZ;2009-01-22 21:00;CYYZ 222100Z 27010KT 6SM HZ OVC021 M02/M07 A2989 RMK SC8 SLP130

CYYZ;2009-01-22 22:00;CYYZ 222200Z 26008KT 6SM HZ OVC022 M02/M07 A2991 RMK SC8 SLP136

CYYZ;2009-01-22 22:45;CYYZ 222245Z 25006KT 7SM -SN OVC022 M03/ RMK SC8

CYYZ;2009-01-22 23:00;CYYZ 222300Z 25005KT 10SM -SN OVC021 M02/M06 A2991 RMK SC8 SLP138

CYYZ;2009-01-22 23:47;CYYZ 222347Z 26008KT 10SM OVC020 M02/ RMK SC8

CYYZ;2009-01-23 00:00;CYYZ 230000Z 26007KT 10SM OVC020 M02/M07 A2993 RMK SC8 SLP146

CYYZ;2009-01-23 01:00;CYYZ 230100Z 27005KT 8SM OVC019 M02/M07 A2993 RMK SC8 SLP144

CYYZ;2009-01-23 02:00;CYYZ 230200Z 24004KT 8SM OVC017 M03/M07 A2993 RMK SC8 SLP145

CYYZ;2009-01-23 03:00;CYYZ 230300Z 22005KT 8SM OVC018 M02/M07 A2992 RMK SC8 SLP140

CYYZ;2009-01-23 04:00;CYYZ 230400Z 25003KT 7SM OVC016 M03/M07 A2992 RMK SC8 SLP139

CYYZ;2009-01-23 05:00;CYYZ 230500Z 21004KT 7SM OVC018 M03/M07 A2990 RMK SC8 SLP135

CYYZ;2009-01-23 06:00;CYYZ 230600Z 24003KT 8SM OVC018 M03/M07 A2990 RMK SC8 SLP134

CYYZ;2009-01-23 07:00;CYYZ 230700Z 24009KT 8SM OVC018 M03/M07 A2989 RMK SC8 SLP130

CYYZ;2009-01-23 08:00;CYYZ 230800Z 22003KT 8SM OVC015 M03/M07 A2988 RMK SC8 SLP126

CYYZ;2009-01-23 09:00;CYYZ 230900Z 23008KT 7SM OVC015 M03/M07 A2986 RMK SC8 SLP122

CYYZ;2009-01-23 10:00;CYYZ 231000Z 23002KT 7SM FEW014 OVC020 M03/M07 A2983 RMK SC2SC6 SLP111

CYYZ;2009-01-23 11:00;CYYZ 231100Z 19004KT 7SM FEW014 OVC019 M03/M07 A2981 RMK SC1SC7 SLP104

CYYZ;2009-01-23 12:00;CYYZ 231200Z 18003KT 8SM SCT012 OVC018 M03/M07 A2979 RMK SC3SC5 HZ SLP096

CYYZ;2009-01-23 12:21;CYYZ 231221Z 16003KT 7SM OVC010 M03/ RMK SC8 HZ

CYYZ;2009-01-23 13:00;CYYZ 231300Z 16003KT 4SM HZ BKN014 OVC170 M03/M07 A2977 RMK SC5AS2 SLP090

CYYZ;2009-01-23 13:34;CYYZ 231334Z 16004KT 4SM HZ SCT022 OVC160 M03/ RMK SC3AS4

CYYZ;2009-01-23 14:00;CYYZ 231400Z 15003KT 4SM HZ FEW100 OVC160 M03/M06 A2976 RMK AC2AS5 SLP085

CYYZ;2009-01-23 15:00;CYYZ 231500Z 16005KT 4SM HZ FEW120 OVC160 M01/M05 A2973 RMK AC2AS6 SLP075

CYYZ;2009-01-23 16:00;CYYZ 231600Z 21008KT 5SM HZ BKN140 OVC230 M00/M04 A2971 RMK AS5CI2 SLP068

CYYZ;2009-01-23 17:00;CYYZ 231700Z 19005KT 5SM HZ BKN150 BKN210 01/M04 A2964 RMK AC5CI1 PRESFR SLP047

CYYZ;2009-01-23 18:00;CYYZ 231800Z 18005KT 5SM HZ BKN170 BKN210 01/M03 A2960 RMK AC5CI2 SLP030

CYYZ;2009-01-23 19:00;CYYZ 231900Z 14006KT 8SM BKN024 OVC160 03/M03 A2956 RMK SC6AS2 HZ SLP017

CYYZ;2009-01-23 20:00;CYYZ 232000Z 25014KT 7SM OVC023 03/M02 A2957 RMK SC8 HZ SLP020

CYYZ;2009-01-23 21:00;CYYZ 232100Z 27020G25KT 7SM OVC022 03/M02 A2958 RMK SC8 HZ SLP025

CYYZ;2009-01-23 22:00;CYYZ 232200Z 28022G28KT 5SM HZ OVC018 01/M03 A2962 RMK SC8 SLP038

CYYZ;2009-01-23 23:00;CYYZ 232300Z 29019G27KT 8SM OVC023 00/M04 A2967 RMK SC8 HZ SLP053

CYYZ;2009-01-23 23:30;CYYZ 232330Z 28019G25KT 10SM -SHSN OVC020 00/ RMK SC8 PCPN VRY LGT

CYYZ;2009-01-24 00:00;CYYZ 240000Z 28021KT 10SM -SHSN BKN023 OVC028 00/M04 A2970 RMK SC5SC3 SLP066

CYYZ;2009-01-24 01:00;CYYZ 240100Z 28017G26KT 10SM BKN023 OVC040 M00/M05 A2972 RMK SC5SC3 SLP073

CYYZ;2009-01-24 01:28;CYYZ 240128Z 28016G21KT 10SM -SHSN OVC024 M00/ RMK SC8

CYYZ;2009-01-24 02:00;CYYZ 240200Z 28016KT 10SM -SHSN BKN022 OVC027 M00/M05 A2976 RMK SC5SC3 SLP085

CYYZ;2009-01-24 02:33;CYYZ 240233Z 30028G34KT 8SM DRSN BKN024 BKN045 M01/ RMK SC5SC2

CYYZ;2009-01-24 03:00;CYYZ 240300Z 30027G33KT 8SM DRSN SCT038 BKN065 M02/M08 A2981 RMK SC3SC3 SLP102

CYYZ;2009-01-24 04:00;CYYZ 240400Z 30023G29KT 10SM FEW035 BKN068 M03/M09 A2985 RMK SC2AC5 SLP116

CYYZ;2009-01-24 05:00;CYYZ 240500Z 31024G29KT 10SM SCT064 M05/M11 A2989 RMK SC4 SLP130

CYYZ;2009-01-24 05:11;CYYZ 240511Z 32024KT 10SM -SHSN FEW018 BKN030 M05/ RMK SC2SC2

CYYZ;2009-01-24 05:29;CYYZ 240529Z 30023G28KT 10SM FEW025 M06/ RMK SC2

CYYZ;2009-01-24 06:00;CYYZ 240600Z 31017G28KT 10SM FEW025 M07/M13 A2995 RMK SC2 PRESRR SLP151

CYYZ;2009-01-24 07:00;CYYZ 240700Z 30019G24KT 10SM FEW024 M08/M15 A3000 RMK SC2 SLP166

CYYZ;2009-01-24 08:00;CYYZ 240800Z 31018G25KT 12SM FEW024 M10/M18 A3004 RMK SC1 SLP179

CYYZ;2009-01-24 09:00;CYYZ 240900Z 31017KT 15SM FEW023 M12/M19 A3006 RMK SC1 SLP188

CYYZ;2009-01-24 10:00;CYYZ 241000Z 33020KT 15SM FEW023 M12/M20 A3007 RMK SC1 SLP194

CYYZ;2009-01-24 11:00;CYYZ 241100Z 32014KT 15SM FEW023 M13/M20 A3010 RMK SC1 SLP204

CYYZ;2009-01-24 12:00;CYYZ 241200Z 02013KT 15SM FEW026 M16/M20 A3015 RMK SC1 SLP222

CYYZ;2009-01-24 13:00;CYYZ 241300Z 34014KT 15SM FEW025 M18/M22 A3021 RMK SC1 SLP241

CYYZ;2009-01-24 14:00;CYYZ 241400Z 35013KT 15SM FEW025 M19/M24 A3024 RMK SC1 SLP252

CYYZ;2009-01-24 15:00;CYYZ 241500Z 35010G16KT 15SM FEW030 M19/M25 A3027 RMK SC1 SLP263

CYYZ;2009-01-24 16:00;CYYZ 241600Z 34008KT 15SM FEW030 M18/M24 A3028 RMK CU1 SLP269

CYYZ;2009-01-24 17:00;CYYZ 241700Z 32003KT 15SM FEW030 M17/M23 A3028 RMK CU1 SLP269

CYYZ;2009-01-24 18:00;CYYZ 241800Z 30004KT 15SM FEW030 M16/M22 A3028 RMK CU1 SLP266

CYYZ;2009-01-24 19:00;CYYZ 241900Z 26004KT 15SM FEW030 M13/M20 A3027 RMK CU1 SLP265

CYYZ;2009-01-24 20:00;CYYZ 242000Z 27009KT 15SM FEW030 M12/M21 A3028 RMK CU1 SLP266

CYYZ;2009-01-24 21:00;CYYZ 242100Z 24006KT 15SM FEW030 FEW100 M12/M21 A3028 RMK SC1AC1 SLP267

CYYZ;2009-01-24 22:00;CYYZ 242200Z 23008KT 15SM FEW036 FEW070 M12/M21 A3028 RMK SC2AC1 SLP267

CYYZ;2009-01-24 23:00;CYYZ 242300Z 25008KT 15SM FEW038 FEW070 M12/M20 A3028 RMK SC2AC1 SLP266

CYYZ;2009-01-25 00:00;CYYZ 250000Z 23011KT 15SM BKN035 M11/M18 A3026 RMK SC6 SLP263

CYYZ;2009-01-25 01:00;CYYZ 250100Z 24010KT 15SM BKN031 M11/M17 A3025 RMK SC6 SLP260

CYYZ;2009-01-25 02:00;CYYZ 250200Z 24010KT 15SM BKN031 M11/M17 A3024 RMK SC6 SLP255

CYYZ;2009-01-25 03:00;CYYZ 250300Z 22011KT 15SM BKN034 M11/M17 A3023 RMK SC6 SLP254

CYYZ;2009-01-25 04:00;CYYZ 250400Z 23009KT 15SM FEW035 M13/M18 A3022 RMK SC1 SLP250

CYYZ;2009-01-25 05:00;CYYZ 250500Z 24012KT 15SM SKC M13/M19 A3020 RMK SLP244

CYYZ;2009-01-25 06:00;CYYZ 250600Z 23013KT 15SM SKC M14/M19 A3019 RMK SLP239

CYYZ;2009-01-25 07:00;CYYZ 250700Z 24010KT 15SM SKC M14/M19 A3019 RMK SLP239

CYYZ;2009-01-25 08:00;CYYZ 250800Z 23010KT 15SM SKC M14/M19 A3018 RMK SLP236

CYYZ;2009-01-25 09:00;CYYZ 250900Z 25010KT 15SM SKC M15/M19 A3017 RMK SLP231

CYYZ;2009-01-25 10:00;CYYZ 251000Z 26015KT 15SM SKC M14/M19 A3016 RMK SLP229

CYYZ;2009-01-25 11:00;CYYZ 251100Z 27013KT 15SM SCT240 M14/M18 A3016 RMK CI1 SLP227

CYYZ;2009-01-25 12:00;CYYZ 251200Z 26016KT 15SM FEW015 SCT240 M14/M18 A3016 RMK SC1CI1 SLP227

CYYZ;2009-01-25 13:00;CYYZ 251300Z 25012KT 15SM FEW015 BKN220 M14/M18 A3018 RMK SC1CI3 SLP235

CYYZ;2009-01-25 14:00;CYYZ 251400Z 26013KT 15SM FEW015 BKN260 M13/M17 A3019 RMK SC1CI2 SLP239

CYYZ;2009-01-25 15:00;CYYZ 251500Z 26016KT 15SM FEW015 FEW260 M12/M16 A3020 RMK SC1CC1 SLP242

CYYZ;2009-01-25 16:00;CYYZ 251600Z 27014G19KT 15SM FEW025 FEW160 SCT260 M10/M15 A3021 RMK CF1AC1CS2 SLP245

CYYZ;2009-01-25 17:00;CYYZ 251700Z 25017KT 15SM FEW025 BKN270 M10/M15 A3020 RMK CF1CS6 SLP240

CYYZ;2009-01-25 18:00;CYYZ 251800Z 26014G19KT 15SM FEW025 BKN270 M10/M15 A3019 RMK SC1CS5 SLP238

CYYZ;2009-01-25 19:00;CYYZ 251900Z 25017KT 15SM FEW025 BKN270 M09/M15 A3019 RMK SC1CS5 SLP239

CYYZ;2009-01-25 20:00;CYYZ 252000Z 25015KT 15SM FEW025 BKN270 M09/M16 A3020 RMK CF1CI3 SLP242

CYYZ;2009-01-25 21:00;CYYZ 252100Z 25018KT 15SM FEW025 BKN270 M09/M16 A3021 RMK CF1CI2 SLP245

CYYZ;2009-01-25 22:00;CYYZ 252200Z 25013G20KT 15SM FEW025 FEW080 FEW270 M10/M16 A3023 RMK CF1AC1CI1 SLP252

CYYZ;2009-01-25 23:00;CYYZ 252300Z 25013KT 15SM FEW080 FEW270 M11/M17 A3025 RMK AC1CI1 SLP257

CYYZ;2009-01-26 00:00;CYYZ 260000Z 26014KT 15SM FEW270 M11/M17 A3026 RMK CI1 SLP263

CYYZ;2009-01-26 01:00;CYYZ 260100Z 27014KT 15SM FEW250 M12/M18 A3028 RMK CI2 SLP267

CYYZ;2009-01-26 02:00;CYYZ 260200Z 25008KT 15SM FEW250 M13/M18 A3028 RMK CI1 SLP270

CYYZ;2009-01-26 03:00;CYYZ 260300Z 25008KT 15SM SKC M14/M19 A3029 RMK SLP271

CYYZ;2009-01-26 04:00;CYYZ 260400Z 25007KT 15SM SKC M15/M19 A3029 RMK SLP272

CYYZ;2009-01-26 05:00;CYYZ 260500Z 24007KT 15SM SKC M15/M19 A3030 RMK SLP274

CYYZ;2009-01-26 06:00;CYYZ 260600Z 27006KT 15SM SKC M15/M19 A3031 RMK SLP277

CYYZ;2009-01-26 07:00;CYYZ 260700Z 28008KT 15SM SKC M15/M19 A3031 RMK SLP277

CYYZ;2009-01-26 08:00;CYYZ 260800Z 28007KT 15SM SKC M15/M19 A3031 RMK SLP280

CYYZ;2009-01-26 09:00;CYYZ 260900Z 24010KT 15SM SKC M16/M19 A3031 RMK SLP279

CYYZ;2009-01-26 10:00;CYYZ 261000Z 25007KT 15SM SKC M16/M20 A3031 RMK SLP278

CYYZ;2009-01-26 11:00;CYYZ 261100Z 24006KT 15SM SKC M16/M19 A3031 RMK SLP279

CYYZ;2009-01-26 12:00;CYYZ 261200Z 27008KT 15SM FEW015 M16/M20 A3033 RMK SC1 SLP286

CYYZ;2009-01-26 13:00;CYYZ 261300Z 28008KT 15SM FEW015 FEW180 M16/M19 A3034 RMK SC1AC1 SLP291

CYYZ;2009-01-26 14:00;CYYZ 261400Z 27008KT 15SM FEW015 FEW090 FEW210 M15/M18 A3036 RMK SC1AC1CI1 SLP295

CYYZ;2009-01-26 15:00;CYYZ 261500Z 26011KT 15SM FEW015 FEW090 FEW210 M13/M17 A3036 RMK SC1AC1CI1 SLP296

CYYZ;2009-01-26 16:00;CYYZ 261600Z 27012KT 15SM FEW020 FEW080 FEW220 M11/M16 A3036 RMK SC1AC1CI0 SLP297

CYYZ;2009-01-26 17:00;CYYZ 261700Z 27017KT 15SM FEW020 FEW220 M10/M16 A3035 RMK CF1CI1 SLP294

CYYZ;2009-01-26 18:00;CYYZ 261800Z 27014KT 15SM FEW020 BKN280 M10/M16 A3034 RMK CF1CI2 SLP290

CYYZ;2009-01-26 19:00;CYYZ 261900Z 27011KT 15SM FEW020 FEW200 BKN270 M10/M16 A3033 RMK CF1CC2CI5 SLP285

CYYZ;2009-01-26 20:00;CYYZ 262000Z 26013G18KT 15SM SCT170 BKN230 M09/M17 A3033 RMK AS3CS4 SLP284

CYYZ;2009-01-26 21:00;CYYZ 262100Z 27014KT 15SM BKN140 BKN170 M09/M16 A3034 RMK AS6AS2 SLP288

CYYZ;2009-01-26 22:00;CYYZ 262200Z 28010KT 15SM BKN150 M09/M16 A3035 RMK AS6 SLP292

CYYZ;2009-01-26 23:00;CYYZ 262300Z 27004KT 15SM OVC130 M09/M16 A3036 RMK AS4 SLP294

CYYZ;2009-01-27 00:00;CYYZ 270000Z 25009KT 15SM BKN130 M10/M16 A3037 RMK AS6 SLP298

CYYZ;2009-01-27 01:00;CYYZ 270100Z 28007KT 15SM BKN130 M10/M16 A3037 RMK AS6 SLP298

CYYZ;2009-01-27 02:00;CYYZ 270200Z 26008KT 15SM OVC120 M10/M16 A3036 RMK AS7 SLP297

CYYZ;2009-01-27 03:00;CYYZ 270300Z 26008KT 15SM OVC110 M10/M16 A3036 RMK AS8 SLP295

CYYZ;2009-01-27 04:00;CYYZ 270400Z 25008KT 15SM FEW100 BKN140 M10/M16 A3037 RMK AC2AS5 SLP300

CYYZ;2009-01-27 05:00;CYYZ 270500Z 27003KT 15SM BKN110 M10/M16 A3039 RMK AS6 SLP304

CYYZ;2009-01-27 06:00;CYYZ 270600Z 26005KT 15SM BKN120 M11/M16 A3038 RMK AS6 SLP301

CYYZ;2009-01-27 07:00;CYYZ 270700Z 26007KT 15SM SCT120 M12/M16 A3038 RMK AS3 SLP302

CYYZ;2009-01-27 08:00;CYYZ 270800Z 27008KT 15SM SCT120 M12/M16 A3039 RMK AC2 SLP304

CYYZ;2009-01-27 09:00;CYYZ 270900Z 24009KT 15SM SCT150 M12/M16 A3040 RMK AC2 SLP309

CYYZ;2009-01-27 10:00;CYYZ 271000Z 27009KT 15SM FEW130 M13/M16 A3041 RMK AC1 SLP312

CYYZ;2009-01-27 11:00;CYYZ 271100Z 28008KT 15SM FEW150 FEW210 M13/M16 A3043 RMK AC1CI1 CI TR SLP317

CYYZ;2009-01-27 12:00;CYYZ 271200Z 29009KT 15SM FEW015 BKN280 M13/M17 A3044 RMK SC1CI2 SLP321

CYYZ;2009-01-27 13:00;CYYZ 271300Z 27004KT 15SM FEW030 SCT280 M14/M18 A3047 RMK SC1CI0 SLP333

CYYZ;2009-01-27 14:00;CYYZ 271400Z 27003KT 15SM FEW090 FEW280 M12/M16 A3047 RMK AC1CI0 SLP332

CYYZ;2009-01-27 15:00;CYYZ 271500Z 30005KT 15SM FEW280 M10/M15 A3045 RMK CI1 SLP326

CYYZ;2009-01-27 16:00;CYYZ 271600Z 31004KT 15SM FEW280 M08/M14 A3045 RMK CI1 SLP326

CYYZ;2009-01-27 17:00;CYYZ 271700Z 00000KT 15SM BKN280 M06/M14 A3044 RMK CI1 SLP322

CYYZ;2009-01-27 18:00;CYYZ 271800Z 21005KT 15SM FEW280 M05/M15 A3040 RMK CI1 SLP307

CYYZ;2009-01-27 19:00;CYYZ 271900Z 22005KT 15SM FEW030 FEW280 M06/M15 A3038 RMK CF1CI1 SLP300

CYYZ;2009-01-27 20:00;CYYZ 272000Z 15005KT 15SM FEW030 FEW280 M06/M13 A3038 RMK CF1CI1 SLP301

CYYZ;2009-01-27 21:00;CYYZ 272100Z 14005KT 15SM BKN260 M06/M13 A3038 RMK CS6 SLP301

CYYZ;2009-01-27 22:00;CYYZ 272200Z 14005KT 15SM BKN260 M06/M14 A3036 RMK CS6 SLP295

CYYZ;2009-01-27 23:00;CYYZ 272300Z 15004KT 15SM SCT160 BKN260 M07/M14 A3035 RMK AS3CI2 SLP290

CYYZ;2009-01-28 00:00;CYYZ 280000Z 13003KT 15SM BKN140 BKN250 M07/M14 A3034 RMK AC5CI1 SLP286

CYYZ;2009-01-28 01:00;CYYZ 280100Z 09003KT 15SM BKN120 M07/M14 A3030 RMK AC6 SLP274

CYYZ;2009-01-28 02:00;CYYZ 280200Z 08005KT 15SM OVC110 M06/M13 A3026 RMK AC8 SLP260

CYYZ;2009-01-28 03:00;CYYZ 280300Z 11006KT 15SM BKN085 M05/M12 A3023 RMK AC7 SLP250

CYYZ;2009-01-28 04:00;CYYZ 280400Z 12008KT 15SM OVC076 M05/M12 A3020 RMK AC8 SLP238

CYYZ;2009-01-28 05:00;CYYZ 280500Z 10009KT 15SM OVC068 M04/M12 A3014 RMK AC8 PRESFR SLP218

CYYZ;2009-01-28 05:44;CYYZ 280544Z 12010KT 10SM -SN OVC016 M04/ RMK SC8

CYYZ;2009-01-28 05:48;CYYZ 280548Z 11013KT 5SM -SN OVC012 M04/ RMK SC8

CYYZ;2009-01-28 06:00;CYYZ 280600Z 11009G18KT 3SM -SN OVC011 M04/M10 A3012 RMK SC8 SLP211

CYYZ;2009-01-28 06:13;CYYZ 280613Z 10008KT 3SM -SN OVC008 M05/ RMK SC8

CYYZ;2009-01-28 06:35;CYYZ 280635Z 11006KT 2SM -SN OVC006 M05/ RMK SN2SF6

CYYZ;2009-01-28 07:00;CYYZ 280700Z 09005KT 2 1/4SM -SN OVC007 M06/M08 A3009 RMK SN3SF5 SLP200

CYYZ;2009-01-28 07:48;CYYZ 280748Z 08005KT 3SM -SN SCT007 OVC014 M05/ RMK SF3SC5

CYYZ;2009-01-28 08:00;CYYZ 280800Z CCA 07005KT 3SM -SN BKN009 OVC022 M05/M08 A3006 RMK SF6SC2 /S01/ SLP190

CYYZ;2009-01-28 09:00;CYYZ 280900Z 09006KT 3SM -SN BKN009 OVC018 M05/M07 A2999 RMK SF6SC2 PRESFR SLP166

CYYZ;2009-01-28 10:00;CYYZ 281000Z 11009KT 5SM -SN BKN008 OVC014 M05/M07 A2994 RMK SC5NS3 /S02/ SLP148

CYYZ;2009-01-28 10:15;CYYZ 281015Z 10007KT 2SM -SN BKN007 OVC012 M05/ RMK SN2SF4SC2

CYYZ;2009-01-28 11:00;CYYZ 281100Z 10008KT 2 1/2SM -SN BKN007 OVC013 M05/M07 A2988 RMK SN2SF4SC2 SLP130

CYYZ;2009-01-28 11:46;CYYZ 281146Z 09007KT 3SM -SN SCT007 OVC019 M04/ RMK SF3SC5

CYYZ;2009-01-28 12:00;CYYZ 281200Z 10008KT 3SM -SN BKN008 OVC018 M05/M07 A2984 RMK SF6NS2 /S03/ SLP115

CYYZ;2009-01-28 12:05;CYYZ 281205Z 09006KT 1 1/2SM -SN OVC008 M04/ RMK SN3SF5

CYYZ;2009-01-28 12:53;CYYZ 281253Z 09006KT 1 1/4SM -SN OVC007 M04/ RMK SN4SF4

CYYZ;2009-01-28 13:00;CYYZ 281300Z 10006KT 1 1/4SM -SN OVC006 M04/M07 A2981 RMK SN4SF4 /S01/ SLP104

CYYZ;2009-01-28 13:09;CYYZ 281309Z 09004KT 3/4SM R05/P6000FT/D R06R/P6000FT/D -SN VV006 M04/ RMK SN8 RWY 15L P6000FT D

CYYZ;2009-01-28 14:00;CYYZ 281400Z 09008KT 3/4SM R05/P6000FT/N R06R/6000FT/N -SN VV006 M04/M06 A2975 RMK SN8 RWY 15L P6000FT D /S02/ PRESFR SLP084

CYYZ;2009-01-28 14:39;CYYZ 281439Z 07004KT 1 1/4SM -SN SCT008 OVC015 M04/ RMK SN2SF2SC4

CYYZ;2009-01-28 15:00;CYYZ 281500Z 07003KT 1 1/4SM R05/6000FT/D R06R/5000FT/N -SN OVC007 M04/M06 A2972 RMK SN2SF6 YWY 15L 6000FT D SLP074

CYYZ;2009-01-28 16:00;CYYZ 281600Z 07004KT 1 1/4SM R05/5500FT/N R06R/4500FT/U -SN BKN007 OVC012 M04/M06 A2967 RMK SN2SF4NS2 RWY 15L 6000FT D /S03/ SLP056

CYYZ;2009-01-28 16:48;CYYZ 281648Z 34007KT 3/4SM R05/4000FT/N R06R/3000FT/N -SN BKN006 OVC011 M05/ RMK SN2SF4NS2 RWY 15L 3500FT N

CYYZ;2009-01-28 17:00;CYYZ 281700Z CCA 34009KT 3/4SM R05/4500FT/N R06L/2800FT/N -SN BKN006 OVC012 M05/M07 A2960 RMK SN2SF3NS2 RWY 06R 3000FT N 33L 3500FT D /S04/ PRESFR SLP035

CYYZ;2009-01-28 18:00;CYYZ 281800Z 34014KT 3/4SM R05/4000FT/N R06L/4000FT/N -SN OVC006 M06/M08 A2957 RMK SN3SF5 RWY 33L 3000FT N 33R 3500FT N /S07/ SLP024

CYYZ;2009-01-28 19:00;CYYZ 281900Z 36014KT 5/8SM R05/3000V4000FT/D R06L/3500FT/D -SN OVC006 M06/M09 A2952 RMK SN3SF5 RWY 33L 2800FT N 33R 3000FT D /S01/ PRESFR SLP005

CYYZ;2009-01-28 19:24;CYYZ 281924Z CCA 35013KT 3/4SM R05/4500FT/N R06L/3500V5000FT/U -SN OVC007 M06/ RMK SN3SF5 RWY R33L/3000V5000FT/U RWY R33R 3500FT/U

CYYZ;2009-01-28 20:00;CYYZ 282000Z 34015KT 1 1/4SM -SN SCT009 OVC013 M06/M09 A2953 RMK SN2SF2NS4 SLP010

CYYZ;2009-01-28 20:38;CYYZ 282038Z 32018KT 1SM R05/P6000FT/U R06L/P6000FT/U -SN OVC007 M06/ RMK SN3SF5 RWY R33L/P6000FT/D R33R/6000FT/N

CYYZ;2009-01-28 21:00;CYYZ 282100Z 32017KT 3/4SM R05/P6000FT/N R06L/6000FT/U -SN OVC008 M06/M09 A2958 RMK SN5SF3 /S02/ RWY T33L/5500FT/U R33R/5000FT/N SLP028

CYYZ;2009-01-28 21:10;CYYZ 282110Z 33017KT 1/2SM R05/6000FT/N R06L/5500FT/U SN VV006 M06/ RMK SN8 RWY R33L/4000V5500FT/U R33R/3000V5000FT/N

CYYZ;2009-01-28 21:34;CYYZ 282134Z 32016KT 1 1/4SM -SN OVC009 M06/ RMK SN5SF3 RESN

CYYZ;2009-01-28 22:00;CYYZ 282200Z 31016KT 1SM R05/P6000FT/U R06L/P6000FT/U -SN OVC011 M06/M09 A2961 RMK SN5SF3 RESN RWY R33L/P6000FT/N R33R/P6000FT/N SLP037

CYYZ;2009-01-28 22:18;CYYZ 282218Z 31016KT 2SM -SN SCT014 OVC018 M06/ RMK SN2SF2SC4

CYYZ;2009-01-28 22:30;CYYZ 282230Z 29016KT 1 1/4SM -SN OVC009 M06/ RMK SN4SF4

CYYZ;2009-01-28 22:44;CYYZ 282244Z 29013KT 3SM -SN SCT014 OVC018 M06/ RMK SF3SC5

CYYZ;2009-01-28 23:00;CYYZ 282300Z 29012G17KT 5SM -SN DRSN SCT019 OVC024 M06/M09 A2966 RMK SC3SC5 SLP052

CYYZ;2009-01-29 00:00;CYYZ 290000Z 28014KT 8SM -SN DRSN SCT060 BKN077 M06/M09 A2969 RMK SC4AC3 /S03/ SLP063

CYYZ;2009-01-29 00:18;CYYZ 290018Z 27014KT 10SM DRSN FEW060 SCT120 M06/ RMK SC2AC2

CYYZ;2009-01-29 01:00;CYYZ 290100Z 27014G19KT 10SM DRSN SCT082 BKN110 M06/M10 A2972 RMK AC3AC2 SLP075

CYYZ;2009-01-29 02:00;CYYZ 290200Z 26013KT 10SM DRSN FEW020 FEW110 M07/M11 A2976 RMK SC1AC1 SC TR SLP086

CYYZ;2009-01-29 03:00;CYYZ 290300Z 27009KT 10SM FEW031 FEW045 M08/M12 A2980 RMK SC2SC1 SLP100

CYYZ;2009-01-29 03:15;CYYZ 290315Z 27009KT 10SM -SN BKN040 M07/ RMK SC5

CYYZ;2009-01-29 04:00;CYYZ 290400Z 26007KT 7SM -SN SCT021 OVC028 M06/M10 A2983 RMK SC4SC3 SLP112

CYYZ;2009-01-29 05:00;CYYZ 290500Z 26012KT 10SM -SN SCT024 OVC039 M06/M10 A2984 RMK SC4SC3 SLP115

CYYZ;2009-01-29 06:00;CYYZ 290600Z 26012KT 10SM DRSN FEW039 M08/M12 A2985 RMK SC2 SLP118

CYYZ;2009-01-29 07:00;CYYZ 290700Z 27013KT 15SM DRSN FEW035 M09/M13 A2986 RMK SC1 SLP124

CYYZ;2009-01-29 08:00;CYYZ 290800Z 26008KT 15SM SCT210 M10/M14 A2987 RMK CI1 SLP127

CYYZ;2009-01-29 09:00;CYYZ 290900Z 27007KT 15SM SCT220 M10/M14 A2988 RMK CI1 SLP131

CYYZ;2009-01-29 10:00;CYYZ 291000Z 26003KT 15SM BKN170 BKN220 M10/M14 A2988 RMK AC5CI1 SLP131

CYYZ;2009-01-29 11:00;CYYZ 291100Z 23004KT 15SM SCT120 BKN160 M09/M13 A2987 RMK AC3AC3 SLP127

CYYZ;2009-01-29 12:00;CYYZ 291200Z 22009KT 15SM BKN110 M08/M12 A2987 RMK AC7 SLP126

CYYZ;2009-01-29 13:00;CYYZ 291300Z 22010KT 10SM OVC079 M08/M12 A2987 RMK AC8 SLP127

CYYZ;2009-01-29 13:47;CYYZ 291347Z 21008KT 9SM -SHSN OVC076 M08/ RMK AS8

CYYZ;2009-01-29 14:00;CYYZ 291400Z 20007KT 9SM -SHSN FEW056 OVC073 M07/M11 A2987 RMK SC2AS6 SLP126

CYYZ;2009-01-29 14:34;CYYZ 291434Z 21010KT 12SM FEW011 SCT023 OVC073 M07/ RMK SC2SC2AC5

CYYZ;2009-01-29 15:00;CYYZ 291500Z 22011KT 15SM SCT013 OVC065 M07/M11 A2988 RMK SC3SC5 SLP128

CYYZ;2009-01-29 16:00;CYYZ 291600Z 22012G19KT 15SM FEW016 OVC073 M08/M12 A2987 RMK SC2AC6 SLP126

CYYZ;2009-01-29 17:00;CYYZ 291700Z 23013G18KT 15SM FEW020 OVC071 M08/M12 A2985 RMK SC2AC6 SLP120

CYYZ;2009-01-29 17:21;CYYZ 291721Z 22014KT 9SM -SHSN BKN018 BKN053 OVC071 M07/ RMK SC5SC2AC2

CYYZ;2009-01-29 18:00;CYYZ 291800Z 21011KT 8SM -SHSN BKN018 OVC052 M07/M11 A2982 RMK SC6SC2 SLP109

CYYZ;2009-01-29 19:00;CYYZ 291900Z 22008KT 6SM -SHSN BKN018 OVC032 M07/M10 A2981 RMK SC6SC2 SLP107

CYYZ;2009-01-29 20:00;CYYZ 292000Z 22008KT 5SM -SHSN FEW018 OVC036 M06/M10 A2982 RMK SC2SC6 SLP108

CYYZ;2009-01-29 21:00;CYYZ 292100Z 27010KT 3SM -SHSN BKN019 OVC034 M06/M09 A2981 RMK SC6NS2 SLP107

CYYZ;2009-01-29 22:00;CYYZ 292200Z 22007KT 3SM -SHSN BKN015 OVC037 M06/M09 A2981 RMK SC6NS2 SLP105

CYYZ;2009-01-29 23:00;CYYZ 292300Z 22011G16KT 3SM -SHSN SCT020 OVC087 M05/M09 A2980 RMK SC3AC5 SLP103

CYYZ;2009-01-30 00:00;CYYZ 300000Z 22011KT 4SM -SHSN SCT018 OVC038 M05/M09 A2980 RMK SC3SC5 SLP102

CYYZ;2009-01-30 01:00;CYYZ 300100Z 22011KT 4SM -SHSN SCT019 OVC042 M05/M08 A2980 RMK SC3SC5 SLP100

CYYZ;2009-01-30 02:00;CYYZ 300200Z 23010KT 5SM -SHSN BKN019 OVC027 M04/M07 A2978 RMK SC5SC3 SLP096

CYYZ;2009-01-30 03:00;CYYZ 300300Z 23011KT 7SM -SHSN BKN018 OVC024 M04/M07 A2979 RMK SC5SC3 SLP098

CYYZ;2009-01-30 04:00;CYYZ 300400Z 23012KT 7SM -SHSN BKN018 OVC024 M04/M07 A2978 RMK SC5SC3 SLP094

CYYZ;2009-01-30 05:00;CYYZ 300500Z 23013KT 7SM -SHSN FEW019 OVC034 M03/M07 A2977 RMK SC2SC6 SLP092

CYYZ;2009-01-30 05:25;CYYZ 300525Z 23011KT 10SM BKN018 OVC032 M03/ RMK SC5SC3

CYYZ;2009-01-30 06:00;CYYZ 300600Z 23009KT 10SM BKN020 OVC025 M03/M07 A2976 RMK SC5SC3 SLP087

CYYZ;2009-01-30 06:36;CYYZ 300636Z 23009KT 10SM -SN BKN021 OVC026 M03/ RMK SC5SC3

CYYZ;2009-01-30 07:00;CYYZ 300700Z 22010KT 10SM -SN SCT016 OVC078 M03/M07 A2975 RMK SC3AS5 SLP084

CYYZ;2009-01-30 08:00;CYYZ 300800Z 23010KT 10SM FEW025 BKN087 M04/M07 A2974 RMK SC2AS5 SLP080

CYYZ;2009-01-30 08:37;CYYZ 300837Z 22009KT 10SM -SN OVC081 M04/ RMK AS8

CYYZ;2009-01-30 09:00;CYYZ 300900Z 22009KT 10SM -SN OVC082 M04/M07 A2973 RMK AS8 SLP077

CYYZ;2009-01-30 10:00;CYYZ 301000Z 22010G15KT 8SM -SN FEW018 SCT035 OVC110 M04/M07 A2972 RMK SC2SC2AS4 SLP074

CYYZ;2009-01-30 11:00;CYYZ 301100Z 27012KT 10SM -SN SCT013 OVC082 M04/M07 A2972 RMK SF3AS5 SLP075

CYYZ;2009-01-30 12:00;CYYZ 301200Z 26016KT 12SM -SN FEW015 OVC075 M06/M11 A2974 RMK SF1AS7 SLP081

CYYZ;2009-01-30 13:00;CYYZ 301300Z 27013KT 8SM -SN OVC052 M06/M11 A2976 RMK SC8 SLP088

CYYZ;2009-01-30 14:00;CYYZ 301400Z 27015KT 9SM -SN BKN063 OVC093 M06/M11 A2977 RMK SC6AS2 SLP092

CYYZ;2009-01-30 15:00;CYYZ 301500Z 25017KT 10SM -SN FEW020 BKN060 OVC100 M06/M11 A2978 RMK SF1SC5AS3 SLP093

CYYZ;2009-01-30 16:00;CYYZ 301600Z 26019KT 15SM DRSN OVC065 M06/M11 A2977 RMK SC8 SLP092

CYYZ;2009-01-30 17:00;CYYZ 301700Z 25014G20KT 15SM DRSN FEW020 BKN065 OVC100 M05/M11 A2977 RMK SF1SC6AS0 SLP090

CYYZ;2009-01-30 18:00;CYYZ 301800Z 26013G22KT 10SM DRSN SCT030 BKN070 M05/M11 A2976 RMK CF4AC3 SLP088

CYYZ;2009-01-30 19:00;CYYZ 301900Z 27014G20KT 15SM DRSN FEW028 BKN096 M05/M11 A2977 RMK CF1AC6 SLP090

CYYZ;2009-01-30 20:00;CYYZ 302000Z 27019KT 15SM DRSN FEW030 OVC085 M06/M13 A2979 RMK SC1AC6 SLP097

CYYZ;2009-01-30 20:43;CYYZ 302043Z 27022KT 9SM -SN DRSN FEW025 BKN045 OVC085 M07/ RMK SF1SC4AC3

CYYZ;2009-01-30 21:00;CYYZ 302100Z 28021KT 15SM DRSN FEW030 BKN055 BKN270 M07/M13 A2981 RMK CF1SC5CI2 SLP106

CYYZ;2009-01-30 22:00;CYYZ 302200Z 27020G26KT 15SM DRSN FEW030 OVC050 M07/M13 A2983 RMK CF1SC7 SLP112

CYYZ;2009-01-30 23:00;CYYZ 302300Z 27018KT 15SM DRSN FEW060 BKN100 BKN270 M07/M13 A2986 RMK SC1AC6CI1 SLP120

CYYZ;2009-01-31 00:00;CYYZ 310000Z 27014G19KT 15SM DRSN BKN086 M08/M14 A2987 RMK AC3 SLP126

CYYZ;2009-01-31 01:00;CYYZ 310100Z 27013KT 15SM BKN091 M09/M13 A2987 RMK AC5 SLP126

CYYZ;2009-01-31 02:00;CYYZ 310200Z 27013KT 15SM FEW062 SCT120 M10/M14 A2988 RMK SC1AC2 SLP129

CYYZ;2009-01-31 03:00;CYYZ 310300Z 26013KT 15SM FEW036 FEW100 M10/M15 A2989 RMK SC2AC1 SLP132

CYYZ;2009-01-31 03:37;CYYZ 310337Z 26013KT 15SM -SHSN BKN049 M10/ RMK SC5

CYYZ;2009-01-31 04:00;CYYZ 310400Z 25012KT 15SM -SHSN FEW032 SCT043 M10/M14 A2988 RMK SC1SC2 SLP131

CYYZ;2009-01-31 05:00;CYYZ 310500Z 28010KT 15SM -SHSN BKN042 M10/M14 A2988 RMK SC6 SLP131

CYYZ;2009-01-31 06:00;CYYZ 310600Z 30009KT 15SM -SHSN FEW022 BKN037 M10/M14 A2989 RMK SC2SC5 SLP133

CYYZ;2009-01-31 06:50;CYYZ 310650Z 30010KT 15SM SCT038 M11/ RMK SC4

CYYZ;2009-01-31 07:00;CYYZ 310700Z 30010KT 15SM SCT038 M11/M17 A2992 RMK SC4 SLP141

CYYZ;2009-01-31 08:00;CYYZ 310800Z 35008KT 15SM BKN046 M12/M17 A2994 RMK SC7 SLP149

CYYZ;2009-01-31 09:00;CYYZ 310900Z 36009KT 15SM SCT034 M14/M18 A2995 RMK SC3 SLP153

CYYZ;2009-01-31 10:00;CYYZ 311000Z 00000KT 15SM SCT031 M15/M19 A2996 RMK SC2 SLP159

CYYZ;2009-01-31 11:00;CYYZ 311100Z 04003KT 15SM BKN024 M16/M19 A2997 RMK SC5 SLP161

CYYZ;2009-01-31 12:00;CYYZ 311200Z 07002KT 15SM BKN024 M15/M19 A2997 RMK SC7 SLP162

CYYZ;2009-01-31 13:00;CYYZ 311300Z 00000KT 15SM FEW015 OVC028 M14/M18 A2997 RMK SF1SC8 SLP161

CYYZ;2009-01-31 14:00;CYYZ 311400Z 17003KT 15SM FEW015 OVC032 M12/M16 A2998 RMK SF1SC8 SLP164

CYYZ;2009-01-31 15:00;CYYZ 311500Z 23013G20KT 15SM BKN025 BKN085 M10/M16 A2997 RMK SC6AC1 SLP162

CYYZ;2009-01-31 16:00;CYYZ 311600Z 23016KT 15SM BKN025 BKN080 M11/M16 A2998 RMK SF5AC2 SLP164

CYYZ;2009-01-31 17:00;CYYZ 311700Z 22011G16KT 15SM BKN025 BKN075 M10/M16 A2994 RMK SC5AC2 SLP152

CYYZ;2009-01-31 18:00;CYYZ 311800Z 20010G18KT 15SM BKN025 OVC040 M09/M15 A2991 RMK SF5SC3 SLP142

CYYZ;2009-01-31 18:19;CYYZ 311819Z 22011G17KT 10SM -SN SCT025 OVC038 M09/ RMK SF3SC5

CYYZ;2009-01-31 19:00;CYYZ 311900Z 22012G18KT 6SM -SN FEW020 OVC035 M09/M14 A2989 RMK SF1SC8 SLP134

CYYZ;2009-01-31 20:00;CYYZ 312000Z 22012G17KT 2SM -SN VV020 M08/M13 A2987 RMK SN8 SLP127

CYYZ;2009-01-31 21:00;CYYZ 312100Z 20010G17KT 2 1/2SM -SN DRSN FEW015 OVC025 M08/M12 A2984 RMK SF2SC6 SLP119

CYYZ;2009-01-31 21:12;CYYZ 312112Z CCA 21009G15KT 6SM -SN DRSN FEW025 OVC052 M08/ RMK SF2SC5

CYYZ;2009-01-31 21:55;CYYZ 312155Z 22012KT 2SM -SN DRSN BKN020 OVC050 M08/ RMK SF6SC2

CYYZ;2009-01-31 22:00;CYYZ 312200Z 20010G15KT 2 1/2SM -SN DRSN BKN020 OVC050 M08/M12 A2983 RMK SF6SC2 SLP114

CYYZ;2009-01-31 23:00;CYYZ 312300Z 20011KT 4SM -SN DRSN OVC030 M08/M12 A2980 RMK NS8 SLP106

CYYZ;2009-02-01 01:00;CYYZ 010100Z 18005KT 12SM -SN SCT018 OVC028 M08/M11 A2977 RMK SC3SC5 VRY LGT SN SLP093

CYYZ;2009-02-01 02:00;CYYZ 010200Z 18006KT 12SM -SN FEW015 OVC029 M07/M11 A2974 RMK SC2SC6 VRY LGT SN SLP083

CYYZ;2009-02-01 02:22;CYYZ 010222Z 19006KT 15SM OVC030 M06/ RMK SC8

CYYZ;2009-02-01 03:00;CYYZ 010300Z 20005KT 15SM BKN032 M06/M11 A2971 RMK SC6 SLP073

CYYZ;2009-02-01 04:00;CYYZ 010400Z 19009KT 15SM OVC029 M05/M11 A2968 RMK SC8 SLP063

CYYZ;2009-02-01 05:00;CYYZ 010500Z 20009KT 15SM OVC023 M05/M10 A2965 RMK SC8 SLP051

CYYZ;2009-02-01 06:00;CYYZ 010600Z 20010KT 15SM OVC020 M05/M10 A2962 RMK SC8 SLP040

CYYZ;2009-02-01 07:00;CYYZ 010700Z 18008KT 15SM OVC017 M04/M09 A2959 RMK SC8 SLP030

CYYZ;2009-02-01 08:00;CYYZ 010800Z 17007KT 15SM OVC017 M04/M08 A2957 RMK SC8 SLP024

CYYZ;2009-02-01 09:00;CYYZ 010900Z 15006KT 15SM OVC017 M04/M08 A2955 RMK SC8 SLP015

CYYZ;2009-02-01 10:00;CYYZ 011000Z 16006KT 15SM BKN023 M03/M07 A2954 RMK SC7 SLP012

CYYZ;2009-02-01 11:00;CYYZ 011100Z 15006KT 15SM BKN022 M02/M05 A2953 RMK SC7 SLP011

CYYZ;2009-02-01 12:00;CYYZ 011200Z 23009KT 15SM BKN023 M00/M04 A2956 RMK SC7 SLP018

CYYZ;2009-02-01 13:00;CYYZ 011300Z 21007KT 12SM BKN023 00/M04 A2958 RMK SC7 SLP026

CYYZ;2009-02-01 14:00;CYYZ 011400Z 23006KT 15SM BKN024 BKN140 00/M04 A2963 RMK SC6AC2 SLP041

CYYZ;2009-02-01 15:00;CYYZ 011500Z 27016KT 15SM SCT025 SCT140 BKN220 02/M03 A2966 RMK SC3AC1CI1 SLP051

CYYZ;2009-02-01 16:00;CYYZ 011600Z 27014KT 15SM FEW025 BKN220 03/M03 A2968 RMK SC1CI2 SLP058

CYYZ;2009-02-01 17:00;CYYZ 011700Z 27017KT 15SM FEW025 SCT220 03/M04 A2969 RMK SC1CI2 SLP061

CYYZ;2009-02-01 18:00;CYYZ 011800Z 25022KT 15SM FEW025 SCT200 04/M05 A2968 RMK SC1CI2 SLP059

CYYZ;2009-02-01 19:00;CYYZ 011900Z 26023G28KT 15SM BKN200 04/M06 A2970 RMK CI3 SLP063

CYYZ;2009-02-01 20:00;CYYZ 012000Z 25016G22KT 15SM FEW120 BKN200 04/M06 A2972 RMK AC1CI3 SLP070

CYYZ;2009-02-01 21:00;CYYZ 012100Z 25015KT 15SM FEW130 BKN200 04/M07 A2973 RMK AC1CI2 SLP076

CYYZ;2009-02-01 22:00;CYYZ 012200Z 23013G19KT 15SM FEW130 BKN200 03/M07 A2974 RMK AC1CI2 SLP077

CYYZ;2009-02-01 23:00;CYYZ 012300Z 22014G19KT 15SM FEW130 BKN200 02/M05 A2975 RMK AC1CI2 SLP083

CYYZ;2009-02-02 00:00;CYYZ 020000Z 23011KT 15SM BKN170 01/M05 A2978 RMK AC3 SLP092

CYYZ;2009-02-02 01:00;CYYZ 020100Z 23015KT 15SM FEW120 BKN200 01/M05 A2979 RMK AC2CI1 SLP095

CYYZ;2009-02-02 02:00;CYYZ 020200Z 25011KT 15SM FEW120 FEW200 01/M06 A2980 RMK AC1CI0 SLP100

CYYZ;2009-02-02 03:00;CYYZ 020300Z 25011KT 15SM FEW120 M00/M07 A2982 RMK AC1 SLP105

CYYZ;2009-02-02 04:00;CYYZ 020400Z 26012KT 15SM FEW120 M01/M07 A2983 RMK AC1 SLP110

CYYZ;2009-02-02 05:00;CYYZ 020500Z 27015G21KT 15SM SKC M00/M08 A2985 RMK SLP115

CYYZ;2009-02-02 06:00;CYYZ 020600Z 27013KT 15SM FEW080 M01/M09 A2986 RMK AC1 SLP117

CYYZ;2009-02-02 07:00;CYYZ 020700Z 28013KT 15SM FEW080 M02/M09 A2987 RMK AC1 SLP122

CYYZ;2009-02-02 08:00;CYYZ 020800Z 28012KT 15SM SCT140 M02/M09 A2988 RMK AC3 SLP126

CYYZ;2009-02-02 09:00;CYYZ 020900Z 30007KT 15SM FEW140 SCT180 M03/M09 A2989 RMK AC2AC2 SLP131

CYYZ;2009-02-02 10:00;CYYZ 021000Z 30005KT 15SM SCT150 SCT200 M04/M09 A2991 RMK AC3CI1 SLP136

CYYZ;2009-02-02 11:00;CYYZ 021100Z 27004KT 15SM FEW150 M04/M09 A2992 RMK AC2 SLP138

CYYZ;2009-02-02 12:00;CYYZ 021200Z 24005KT 15SM FEW160 M06/M10 A2994 RMK AC1 SLP146

CYYZ;2009-02-02 13:00;CYYZ 021300Z 21005KT 15SM FEW160 M04/M09 A2996 RMK AC1 SLP153

CYYZ;2009-02-02 14:00;CYYZ 021400Z 25004KT 15SM FEW160 M06/M09 A2998 RMK AC1 SLP159

CYYZ;2009-02-02 15:00;CYYZ 021500Z 26005KT 15SM FEW150 M04/M08 A2999 RMK AC1 SLP164

CYYZ;2009-02-02 16:00;CYYZ 021600Z 25004KT 15SM FEW150 M02/M07 A2999 RMK AC1 SLP164

CYYZ;2009-02-02 17:00;CYYZ 021700Z 25006KT 15SM FEW150 M01/M07 A2997 RMK AC1 SLP157

CYYZ;2009-02-02 18:00;CYYZ 021800Z 27004KT 15SM FEW030 FEW150 00/M08 A2996 RMK CF1AC1 SLP153

CYYZ;2009-02-02 19:00;CYYZ 021900Z 24003KT 15SM FEW030 FEW140 01/M08 A2995 RMK CF1AC1 SLP149

CYYZ;2009-02-02 20:00;CYYZ 022000Z 14003KT 15SM FEW030 FEW140 01/M07 A2995 RMK CU1AC1 SLP151

CYYZ;2009-02-02 21:00;CYYZ 022100Z 15006KT 15SM FEW030 FEW140 01/M08 A2995 RMK CU1AC1 SLP152

CYYZ;2009-02-02 22:00;CYYZ 022200Z 15005KT 15SM FEW035 FEW140 00/M08 A2997 RMK SC1AC1 SLP156

CYYZ;2009-02-02 23:00;CYYZ 022300Z 14005KT 15SM FEW035 FEW140 M00/M08 A2998 RMK SC1AC1 SLP159

CYYZ;2009-02-03 00:00;CYYZ 030000Z 12004KT 15SM FEW140 M01/M07 A2998 RMK AC1 SLP163

CYYZ;2009-02-03 01:00;CYYZ 030100Z 16002KT 15SM FEW140 M01/M06 A2998 RMK AC1 SLP161

CYYZ;2009-02-03 02:00;CYYZ 030200Z 20003KT 15SM FEW030 M02/M07 A2997 RMK SC1 SLP159

CYYZ;2009-02-03 03:00;CYYZ 030300Z 00000KT 15SM FEW030 M03/M08 A2997 RMK SC1 SLP157

CYYZ;2009-02-03 04:00;CYYZ 030400Z 05002KT 15SM FEW025 M04/M08 A2996 RMK SC1 SLP154

CYYZ;2009-02-03 05:00;CYYZ 030500Z 27002KT 15SM FEW025 M07/M11 A2995 RMK SC2 SLP152

CYYZ;2009-02-03 05:45;CYYZ 030545Z 36002KT 15SM BKN011 M07/ RMK ST5

CYYZ;2009-02-03 06:00;CYYZ 030600Z 02004KT 15SM BKN012 M07/M10 A2994 RMK ST6 SLP147

CYYZ;2009-02-03 07:00;CYYZ 030700Z 29003KT 15SM BKN013 M08/M11 A2994 RMK ST6 SLP147

CYYZ;2009-02-03 07:29;CYYZ 030729Z 00000KT 15SM FEW016 BKN150 M07/ RMK SC2AC2

CYYZ;2009-02-03 08:00;CYYZ 030800Z 00000KT 15SM FEW062 BKN110 M08/M11 A2992 RMK SC2AC3 SLP143

CYYZ;2009-02-03 09:00;CYYZ 030900Z 03003KT 15SM FEW062 BKN075 M08/M12 A2992 RMK SC2AC2 SLP143

CYYZ;2009-02-03 09:27;CYYZ 030927Z 07003KT 15SM -SHSN FEW061 BKN079 M07/ RMK SC2AC4

CYYZ;2009-02-03 09:44;CYYZ 030944Z 12005KT 15SM SCT007 BKN060 M06/ RMK SF3SC3

CYYZ;2009-02-03 10:00;CYYZ 031000Z 19003KT 15SM BKN006 M07/M10 A2993 RMK ST6 SLP146

CYYZ;2009-02-03 10:47;CYYZ 031047Z 20004KT 10SM OVC004 M07/ RMK ST8

CYYZ;2009-02-03 11:00;CYYZ 031100Z 22006KT 10SM OVC006 M07/M11 A2993 RMK ST8 FROIN SLP146

CYYZ;2009-02-03 11:34;CYYZ 031134Z 23004KT 10SM BKN011 OVC036 M08/ RMK ST6SC2

CYYZ;2009-02-03 11:54;CYYZ 031154Z 25005KT 2 1/2SM -SN OVC013 M07/ RMK SN2ST6

CYYZ;2009-02-03 12:00;CYYZ 031200Z 24005KT 1SM -SN OVC007 M07/M10 A2993 RMK SN3ST5 SLP146

CYYZ;2009-02-03 12:09;CYYZ 031209Z 26004KT 3SM -SN SCT010 OVC028 M07/ RMK ST3SC5

CYYZ;2009-02-03 12:27;CYYZ 031227Z 28002KT 1SM -SN OVC005 M06/ RMK SN3ST5

CYYZ;2009-02-03 12:34;CYYZ 031234Z 29002KT 3/4SM -SN VV003 M06/ RMK SN8

CYYZ;2009-02-03 13:00;CYYZ 031300Z CCA 02004KT 3/4SM R06L/3000V5500FT/U R06R/3000V5500FT/D -SN VV005 M06/M08 A2994 RMK SN8 /S02/ R05 4000FT U SLP147

CYYZ;2009-02-03 13:46;CYYZ 031346Z 03005KT 1/2SM R06R/3500FT/N R05/6000FT/N SN VV004 M06/ RMK SN8

CYYZ;2009-02-03 14:00;CYYZ 031400Z 04006KT 1/4SM R06R/2800V4000FT/D R05/5000FT/D +SN VV004 M06/M08 A2993 RMK SN8 /S03/ SLP146

CYYZ;2009-02-03 14:11;CYYZ 031411Z 03005KT 1 1/2SM R06R/3000FT/U R05/3500FT/N -SN OVC013 M05/ RESN RMK SN3ST5

CYYZ;2009-02-03 14:47;CYYZ 031447Z 06009KT 1/2SM R06R/3000V5500FT/D R05/6000FT/D SN VV005 M05/ RESN RMK SN8

CYYZ;2009-02-03 15:00;CYYZ 031500Z 06008KT 1/2SM R05/4000V6000FT/D R06R/2400V4000FT/D SN VV003 M05/M07 A2993 RESN RMK SN8 /S05/ SLP145

CYYZ;2009-02-03 15:31;CYYZ 031531Z 07011KT 3/4SM R05/3500V6000FT/D R06R/2600V4500FT/D -SN OVC013 M05/ RESN RMK SN5ST3

CYYZ;2009-02-03 15:48;CYYZ 031548Z 08010G20KT 1 1/2SM R05/5000FT/N R06R/3000V6000FT/U -SN DRSN OVC012 M04/ RESN RMK SN3ST5

CYYZ;2009-02-03 16:00;CYYZ 031600Z 08012KT 2SM -SN DRSN OVC012 M04/M07 A2992 RESN RMK SN2ST6 /S06/ SLP143

CYYZ;2009-02-03 16:15;CYYZ 031615Z 08012G18KT 4SM -SN DRSN OVC012 M04/ RMK ST8

CYYZ;2009-02-03 16:24;CYYZ 031624Z 09011G17KT 1 1/2SM -SN DRSN OVC011 M04/ RMK SN2ST6

CYYZ;2009-02-03 16:40;CYYZ 031640Z 08012G17KT 3/4SM R05/4500V6000FT/D R06R/4000V6000FT/D -SN DRSN VV005 M04/ RMK SN8

CYYZ;2009-02-03 17:00;CYYZ 031700Z 08012G18KT 3/4SM R05/3500V6000FT/D R06R/3500V6000FT/N -SN DRSN VV006 M04/M07 A2991 RMK SN8 /S07/ SLP139

CYYZ;2009-02-03 17:49;CYYZ 031749Z CCA 08012KT 4SM -SN DRSN SCT010 OVC020 M04/ RMK SF3SC5

CYYZ;2009-02-03 18:00;CYYZ 031800Z 09011KT 4SM -SN DRSN SCT011 OVC021 M04/M07 A2990 RMK SF3SC5 SLP136

CYYZ;2009-02-03 19:00;CYYZ 031900Z 09005KT 6SM -SN OVC017 M04/M07 A2990 RMK SC8 SLP135

CYYZ;2009-02-03 19:49;CYYZ 031949Z 09008KT 10SM BKN017 OVC050 M04/ RMK SC6SC2

CYYZ;2009-02-03 20:00;CYYZ 032000Z 08006KT 10SM BKN017 BKN050 M04/M08 A2991 RMK SC6SC2 SLP138

CYYZ;2009-02-03 21:00;CYYZ 032100Z 08007KT 12SM BKN020 BKN080 M04/M09 A2992 RMK SC5AC2 SLP141

CYYZ;2009-02-03 22:00;CYYZ 032200Z 11005KT 12SM FEW025 BKN070 M04/M10 A2993 RMK SC1AC2 SLP145

CYYZ;2009-02-03 23:00;CYYZ 032300Z 05003KT 12SM FEW030 BKN083 M05/M10 A2995 RMK SC2AC3 SLP152

CYYZ;2009-02-04 00:00;CYYZ 040000Z 03005KT 12SM FEW031 BKN064 M05/M10 A2996 RMK SC2SC3 SLP157

CYYZ;2009-02-04 01:00;CYYZ 040100Z 36006KT 12SM BKN029 BKN049 M05/M12 A2998 RMK SC5SC2 SLP161

CYYZ;2009-02-04 01:53;CYYZ 040153Z 36010KT 8SM -SN BKN026 BKN049 M05/ RMK SC5SC2

CYYZ;2009-02-04 02:00;CYYZ 040200Z 36010KT 4SM -SN BKN022 OVC051 M06/M11 A2998 RMK SC5SC3 SLP164

CYYZ;2009-02-04 02:44;CYYZ 040244Z 36008KT 10SM FEW024 BKN058 M06/ RMK SC2SC3

CYYZ;2009-02-04 03:00;CYYZ 040300Z 36009KT 10SM FEW035 BKN051 M07/M11 A3000 RMK SC2SC3 SLP168

CYYZ;2009-02-04 03:53;CYYZ 040353Z 03009KT 8SM -SN BKN033 BKN051 M07/ RMK SC5SC2

CYYZ;2009-02-04 04:00;CYYZ 040400Z 02009KT 7SM -SN BKN028 BKN041 M07/M12 A3001 RMK SC5SC2 SLP172

CYYZ;2009-02-04 05:00;CYYZ 040500Z 03007KT 10SM -SN SCT028 BKN048 M10/M14 A3001 RMK SC3SC2 SLP174

CYYZ;2009-02-04 05:29;CYYZ 040529Z 35008KT 10SM BKN041 M09/ RMK SC4

CYYZ;2009-02-04 06:00;CYYZ 040600Z 36012KT 10SM FEW041 BKN082 M10/M14 A3002 RMK SC2AC2 SLP178

CYYZ;2009-02-04 06:41;CYYZ 040641Z 36011KT 10SM -SN BKN041 M10/ RMK SC6

CYYZ;2009-02-04 07:00;CYYZ 040700Z 01013KT 5SM -SN DRSN SCT022 OVC041 M10/M15 A3004 RMK SC3SC5 SLP184

CYYZ;2009-02-04 08:00;CYYZ 040800Z 36013KT 5SM -SN DRSN SCT019 OVC035 M11/M15 A3006 RMK SC3SC5 SLP191

CYYZ;2009-02-04 08:29;CYYZ 040829Z 01014KT 4SM -SN DRSN BKN012 OVC025 M12/ RMK SF5SC3

CYYZ;2009-02-04 08:52;CYYZ 040852Z 36012KT 7SM -SN DRSN FEW019 BKN029 OVC077 M12/ RMK SC2SC3AC3

CYYZ;2009-02-04 09:00;CYYZ 040900Z 36010KT 10SM -SN DRSN BKN031 OVC076 M12/M16 A3007 RMK SC5AC3 SLP196

CYYZ;2009-02-04 09:38;CYYZ 040938Z 36016KT 2 1/2SM -SN DRSN SCT013 OVC030 M13/ RMK SF3SC5

CYYZ;2009-02-04 09:52;CYYZ 040952Z 36011G17KT 7SM -SN DRSN SCT025 OVC055 M13/ RMK SC3SC5

CYYZ;2009-02-04 10:00;CYYZ 041000Z 36016KT 7SM -SN DRSN OVC055 M13/M17 A3009 RMK SC8 /S01/ SLP201

CYYZ;2009-02-04 10:23;CYYZ 041023Z 02012KT 2SM -SN DRSN OVC010 M13/ RMK SN3SF5

CYYZ;2009-02-04 11:00;CYYZ 041100Z 36013KT 1 1/2SM -SN DRSN OVC011 M13/M17 A3011 RMK SN3SF5 SLP207

CYYZ;2009-02-04 11:07;CYYZ 041107Z 36013KT 1 1/2SM -SN DRSN OVC007 M13/ RMK SN3SF5

CYYZ;2009-02-04 11:23;CYYZ 041123Z 01013KT 3SM -SN DRSN OVC017 M13/ RMK SF8

CYYZ;2009-02-04 11:43;CYYZ 041143Z 36013KT 3SM -SN DRSN OVC013 M13/ RMK SF8

CYYZ;2009-02-04 12:00;CYYZ 041200Z 35013KT 3SM -SN DRSN OVC014 M13/M17 A3013 RMK SF8 SLP216

CYYZ;2009-02-04 12:49;CYYZ 041249Z 35013G19KT 5SM -SN DRSN BKN028 OVC050 M14/ RMK SC7SC1

CYYZ;2009-02-04 13:00;CYYZ 041300Z 35013G19KT 6SM -SN DRSN BKN030 OVC060 M14/M18 A3016 RMK SC6SC2 SLP224

CYYZ;2009-02-04 13:18;CYYZ 041318Z 34016KT 10SM DRSN BKN049 M15/ RMK SC7

CYYZ;2009-02-04 14:00;CYYZ 041400Z 34013G18KT 10SM DRSN FEW045 BKN062 M15/M19 A3017 RMK SC2SC4 SLP230

CYYZ;2009-02-04 15:00;CYYZ 041500Z CCA 34014KT 12SM DRSN FEW038 BKN048 M15/M19 A3019 RMK SC2SC4 SLP238

CYYZ;2009-02-04 16:00;CYYZ 041600Z 34016KT 15SM BKN064 M15/M20 A3022 RMK SC7 SLP245

CYYZ;2009-02-04 17:00;CYYZ 041700Z 36012KT 15SM DRSN BKN065 M14/M19 A3022 RMK SC6 SLP246

CYYZ;2009-02-04 18:00;CYYZ 041800Z 35013KT 15SM DRSN BKN058 M14/M20 A3022 RMK SC6 SLP247

CYYZ;2009-02-04 19:00;CYYZ 041900Z CCA 34012KT 15SM DRSN FEW060 FEW084 BKN160 BKN220 M14/M20 A3023 RMK SC1AC2AC1CI1 SC TR SLP250

CYYZ;2009-02-04 20:00;CYYZ 042000Z 36015KT 15SM DRSN FEW090 M14/M20 A3024 RMK AC1 SLP255

CYYZ;2009-02-04 21:00;CYYZ 042100Z 35013KT 15SM DRSN FEW090 M13/M19 A3026 RMK AC1 SLP261

CYYZ;2009-02-04 22:00;CYYZ 042200Z 34014KT 15SM DRSN FEW090 M13/M19 A3028 RMK AC1 SLP269

CYYZ;2009-02-04 23:00;CYYZ 042300Z 36014KT 15SM DRSN FEW090 M14/M20 A3031 RMK AC1 SLP277

CYYZ;2009-02-05 00:00;CYYZ 050000Z 34010G16KT 15SM DRSN FEW090 M14/M20 A3033 RMK AC1 SLP285

CYYZ;2009-02-05 01:00;CYYZ 050100Z 33010KT 15SM FEW240 M15/M20 A3034 RMK CI1 SLP289

CYYZ;2009-02-05 02:00;CYYZ 050200Z 33011KT 15SM DRSN FEW240 M15/M20 A3035 RMK CI1 SLP294

CYYZ;2009-02-05 03:00;CYYZ 050300Z 33013KT 15SM DRSN SKC M16/M20 A3036 RMK SLP298

CYYZ;2009-02-05 04:00;CYYZ 050400Z 34012KT 15SM DRSN SKC M16/M20 A3038 RMK SLP303

CYYZ;2009-02-05 05:00;CYYZ 050500Z 32014KT 15SM DRSN SKC M17/M21 A3039 RMK SLP306

CYYZ;2009-02-05 06:00;CYYZ 050600Z 32011KT 15SM DRSN SKC M18/M22 A3038 RMK SLP303

CYYZ;2009-02-05 07:00;CYYZ 050700Z 32008KT 15SM SKC M18/M22 A3038 RMK SLP304

CYYZ;2009-02-05 08:00;CYYZ 050800Z 31007KT 15SM SKC M19/M23 A3039 RMK SLP307

CYYZ;2009-02-05 09:00;CYYZ 050900Z 28006KT 15SM SKC M20/M24 A3040 RMK SLP312

CYYZ;2009-02-05 10:00;CYYZ 051000Z 27004KT 15SM FEW240 M20/M23 A3041 RMK CI1 SLP315

CYYZ;2009-02-05 11:00;CYYZ 051100Z 25003KT 15SM FEW240 M20/M23 A3041 RMK CI1 SLP316

CYYZ;2009-02-05 12:00;CYYZ 051200Z 28005KT 15SM FEW015 M20/M24 A3043 RMK SC1 SLP320

CYYZ;2009-02-05 13:00;CYYZ 051300Z 28003KT 15SM FEW015 M20/M23 A3044 RMK SC1 SLP326

CYYZ;2009-02-05 14:00;CYYZ 051400Z 27005KT 15SM FEW015 M19/M22 A3045 RMK SC1 SLP328

CYYZ;2009-02-05 15:00;CYYZ 051500Z 28005KT 15SM FEW015 M16/M20 A3045 RMK SC1 SLP329

CYYZ;2009-02-05 16:00;CYYZ 051600Z 28003KT 15SM FEW020 FEW220 M14/M20 A3045 RMK SC1CI1 SLP327

CYYZ;2009-02-05 17:00;CYYZ 051700Z 24007KT 15SM FEW020 FEW220 M12/M18 A3042 RMK SC1CI1 SLP318

CYYZ;2009-02-05 18:00;CYYZ 051800Z 23008KT 15SM FEW025 FEW220 M11/M17 A3040 RMK SC1CI1 SLP312

CYYZ;2009-02-05 19:00;CYYZ 051900Z 24009KT 15SM FEW025 FEW220 M10/M17 A3038 RMK CF1CI0 SLP304

CYYZ;2009-02-05 20:00;CYYZ 052000Z 25010KT 15SM FEW028 BKN240 M10/M16 A3036 RMK CF2CI2 SLP297

CYYZ;2009-02-05 21:00;CYYZ 052100Z 23012KT 15SM FEW030 BKN240 M10/M17 A3035 RMK CF1CI2 SLP295

CYYZ;2009-02-05 22:00;CYYZ 052200Z 20009KT 15SM FEW030 FEW180 BKN230 M10/M18 A3033 RMK CF1AC1CC2 SLP286

CYYZ;2009-02-05 23:00;CYYZ 052300Z 22012KT 15SM FEW030 FEW130 BKN240 M12/M20 A3032 RMK CF1AC1CI1 SLP284

CYYZ;2009-02-06 00:00;CYYZ 060000Z 24011KT 15SM BKN110 BKN240 M12/M19 A3033 RMK AC5CI1 SLP287

CYYZ;2009-02-06 01:00;CYYZ 060100Z 20005KT 15SM BKN100 M12/M19 A3031 RMK AC6 SLP281

CYYZ;2009-02-06 02:00;CYYZ 060200Z 21007KT 15SM FEW062 OVC085 M11/M18 A3030 RMK SC2AC6 SLP277

CYYZ;2009-02-06 03:00;CYYZ 060300Z 21006KT 15SM -SHSN OVC058 M11/M17 A3029 RMK SC8 SLP272

CYYZ;2009-02-06 04:00;CYYZ 060400Z 23010KT 15SM -SHSN OVC057 M10/M15 A3029 RMK SC8 SLP271

CYYZ;2009-02-06 05:00;CYYZ 060500Z 22010KT 15SM OVC059 M09/M15 A3028 RMK SC8 SLP267

CYYZ;2009-02-06 06:00;CYYZ 060600Z 22008KT 15SM BKN054 OVC071 M09/M15 A3027 RMK SC6AC2 SLP262

CYYZ;2009-02-06 07:00;CYYZ 060700Z 21008KT 15SM OVC068 M09/M15 A3024 RMK AC8 SLP254

CYYZ;2009-02-06 08:00;CYYZ 060800Z 22009KT 15SM BKN068 M09/M15 A3021 RMK AC6 SLP244

CYYZ;2009-02-06 09:00;CYYZ 060900Z 21008KT 15SM OVC059 M09/M14 A3020 RMK SC8 SLP240

CYYZ;2009-02-06 10:00;CYYZ 061000Z 22006KT 15SM BKN056 M08/M14 A3020 RMK SC6 SLP240

CYYZ;2009-02-06 11:00;CYYZ 061100Z 24007KT 15SM SCT058 M09/M14 A3022 RMK SC3 SLP245

CYYZ;2009-02-06 12:00;CYYZ 061200Z 22003KT 15SM FEW020 FEW050 M10/M14 A3022 RMK SC1SC1 SLP248

CYYZ;2009-02-06 13:00;CYYZ 061300Z 25006KT 12SM FEW020 FEW050 FEW220 M11/M15 A3023 RMK SC1SC1CI1 SLP250

CYYZ;2009-02-06 14:00;CYYZ 061400Z 25007KT 12SM FEW020 BKN038 M10/M14 A3025 RMK SC1SC4 SLP258

CYYZ;2009-02-06 15:00;CYYZ 061500Z 28004KT 12SM FEW038 M08/M13 A3026 RMK SC1 SLP260

CYYZ;2009-02-06 16:00;CYYZ 061600Z CCA 26004KT 12SM FEW040 FEW240 M07/M12 A3026 RMK SC1CI1 SLP260

CYYZ;2009-02-06 17:00;CYYZ 061700Z 26004KT 12SM FEW040 M06/M11 A3027 RMK SC1 SLP263

CYYZ;2009-02-06 18:00;CYYZ 061800Z 00000KT 15SM FEW034 M04/M11 A3025 RMK SF0 SLP253

CYYZ;2009-02-06 19:00;CYYZ 061900Z 25005KT 15SM SKC M04/M10 A3022 RMK SLP246

CYYZ;2009-02-06 20:00;CYYZ 062000Z 23005KT 15SM FEW040 M02/M10 A3023 RMK SF1 SLP247

CYYZ;2009-02-06 21:00;CYYZ 062100Z 18005KT 15SM FEW030 FEW240 M02/M09 A3024 RMK CF1CI1 SLP250

CYYZ;2009-02-06 22:00;CYYZ 062200Z 21007KT 15SM FEW240 M03/M10 A3023 RMK CI1 SLP249

CYYZ;2009-02-06 23:00;CYYZ 062300Z 20004KT 15SM FEW250 M03/M10 A3023 RMK CI1 SLP247

CYYZ;2009-02-07 00:00;CYYZ 070000Z 20005KT 15SM FEW250 M03/M10 A3023 RMK CI1 SLP249

CYYZ;2009-02-07 01:00;CYYZ 070100Z 19005KT 15SM SKC M04/M10 A3022 RMK SLP246

CYYZ;2009-02-07 02:00;CYYZ 070200Z 20003KT 15SM SKC M04/M10 A3022 RMK SLP244

CYYZ;2009-02-07 03:00;CYYZ 070300Z 18004KT 15SM SKC M05/M10 A3021 RMK SLP240

CYYZ;2009-02-07 04:00;CYYZ 070400Z 18004KT 15SM FEW230 M06/M10 A3020 RMK CI0 SLP238

CYYZ;2009-02-07 05:00;CYYZ 070500Z 00000KT 15SM FEW230 M06/M10 A3018 RMK CI0 SLP232

CYYZ;2009-02-07 06:00;CYYZ 070600Z 18002KT 15SM FEW230 M07/M11 A3016 RMK CI0 SLP225

CYYZ;2009-02-07 07:00;CYYZ 070700Z 20002KT 15SM BKN240 M06/M10 A3014 RMK CI3 SLP217

CYYZ;2009-02-07 08:00;CYYZ 070800Z 00000KT 12SM BKN240 M07/M11 A3012 RMK CI4 SLP210

CYYZ;2009-02-07 09:00;CYYZ 070900Z 14003KT 12SM BKN035 BKN240 M06/M10 A3008 RMK SC5CI2 SLP196

CYYZ;2009-02-07 10:00;CYYZ 071000Z 16004KT 10SM OVC028 M03/M07 A3004 RMK SC8 SLP183

CYYZ;2009-02-07 11:00;CYYZ 071100Z CCA 14006KT 10SM OVC024 M02/M07 A2999 RMK SC8 SLP166

CYYZ;2009-02-07 12:00;CYYZ 071200Z 13004KT 12SM OVC024 M01/M05 A2996 RMK SC7 SLP154

CYYZ;2009-02-07 13:00;CYYZ 071300Z 15006KT 15SM OVC028 01/M04 A2992 RMK SC8 SLP139

CYYZ;2009-02-07 14:00;CYYZ 071400Z 17007KT 15SM BKN028 BKN070 03/M02 A2988 RMK SC6AC2 SLP126

CYYZ;2009-02-07 15:00;CYYZ 071500Z 19012KT 15SM BKN034 OVC070 04/M01 A2984 RMK SC6AC2 SLP112

CYYZ;2009-02-07 16:00;CYYZ 071600Z 21015G24KT 15SM BKN030 BKN070 07/02 A2981 RMK SC5AC1 SLP102

CYYZ;2009-02-07 17:00;CYYZ 071700Z 23024G30KT 15SM SCT024 BKN037 BKN070 08/02 A2978 RMK SC3SC2AC1 SLP092

CYYZ;2009-02-07 18:00;CYYZ 071800Z 24026G34KT 15SM FEW037 SCT070 SCT220 07/02 A2974 RMK SC2AC1CI0 SLP080

CYYZ;2009-02-07 19:00;CYYZ 071900Z 24029KT 15SM FEW035 FEW080 07/02 A2973 RMK SC1AC1 SLP074

CYYZ;2009-02-07 20:00;CYYZ 072000Z 24027G38KT 15SM BKN028 07/03 A2974 RMK SC7 SLP077

CYYZ;2009-02-07 21:00;CYYZ 072100Z 23022G29KT 15SM SCT018 BKN028 07/03 A2973 RMK SC4SC3 SLP073

CYYZ;2009-02-07 22:00;CYYZ 072200Z 23020G26KT 15SM SCT018 BKN028 06/02 A2974 RMK SC3SC4 SLP078

CYYZ;2009-02-07 23:00;CYYZ 072300Z 24023G30KT 15SM SCT019 BKN025 05/02 A2974 RMK SC3SC4 SLP078

CYYZ;2009-02-08 00:00;CYYZ 080000Z 24023G29KT 15SM BKN017 05/02 A2975 RMK SC6 SLP081

CYYZ;2009-02-08 01:00;CYYZ 080100Z 24021G27KT 12SM BKN015 05/02 A2976 RMK SC5 SLP083

CYYZ;2009-02-08 02:00;CYYZ 080200Z 26011G17KT 12SM FEW015 FEW140 SCT230 05/03 A2978 RMK SC1AC1CI1 SLP091

CYYZ;2009-02-08 03:00;CYYZ 080300Z 28007KT 12SM BKN016 06/03 A2980 RMK SC7 SLP097

CYYZ;2009-02-08 04:00;CYYZ 080400Z 29007KT 12SM BKN026 05/02 A2982 RMK SC6 SLP104

CYYZ;2009-02-08 05:00;CYYZ 080500Z 31007KT 12SM OVC021 04/01 A2983 RMK SC8 SLP108

CYYZ;2009-02-08 06:00;CYYZ 080600Z 29008KT 12SM BKN039 04/00 A2985 RMK SC6 SLP114

CYYZ;2009-02-08 07:00;CYYZ 080700Z 29006KT 12SM OVC042 03/M00 A2989 RMK SC8 SLP125

CYYZ;2009-02-08 08:00;CYYZ 080800Z 29012KT 12SM OVC035 04/M01 A2989 RMK SC8 SLP127

CYYZ;2009-02-08 09:00;CYYZ 080900Z 29014G20KT 12SM OVC037 03/M01 A2991 RMK SC8 SLP133

CYYZ;2009-02-08 10:00;CYYZ 081000Z CCA 30023G31KT 12SM BKN049 03/M03 A2995 RMK SC5 SLP146

CYYZ;2009-02-08 11:00;CYYZ 081100Z 30017G22KT 12SM BKN025 02/M03 A2999 RMK SC6 SLP161

CYYZ;2009-02-08 12:00;CYYZ 081200Z 31022G30KT 15SM OVC023 02/M04 A3004 RMK SC8 PRESRR SLP179

CYYZ;2009-02-08 13:00;CYYZ 081300Z 32012KT 15SM BKN019 01/M03 A3009 RMK SC7 SLP196

CYYZ;2009-02-08 14:00;CYYZ 081400Z 32021KT 15SM SCT026 BKN035 01/M05 A3013 RMK SC3SC2 SLP207

CYYZ;2009-02-08 15:00;CYYZ 081500Z 33013G19KT 15SM SCT025 BKN035 00/M06 A3018 RMK SC4SC2 SLP228

CYYZ;2009-02-08 16:00;CYYZ 081600Z 29012KT 15SM FEW028 SCT260 01/M06 A3022 RMK SC2CI1 SLP239

CYYZ;2009-02-08 17:00;CYYZ 081700Z 31014KT 15SM FEW030 BKN260 01/M07 A3021 RMK CF1CI3 SLP238

CYYZ;2009-02-08 18:00;CYYZ 081800Z 28016G21KT 15SM FEW030 BKN260 02/M06 A3022 RMK CF1CS6 SLP242

CYYZ;2009-02-08 19:00;CYYZ 081900Z 28011G19KT 15SM FEW030 FEW260 02/M06 A3019 RMK CF1CS2 SLP232

CYYZ;2009-02-08 20:00;CYYZ 082000Z 29013G18KT 15SM FEW030 FEW220 02/M07 A3020 RMK CF1CS1 SLP235

CYYZ;2009-02-08 21:00;CYYZ 082100Z 28019KT 15SM FEW040 FEW055 02/M06 A3022 RMK SC1SC1 SLP242

CYYZ;2009-02-08 22:00;CYYZ 082200Z 28016KT 15SM FEW040 FEW075 01/M07 A3024 RMK SC1AC1 SLP248

CYYZ;2009-02-08 23:00;CYYZ 082300Z 27012KT 15SM BKN120 M00/M07 A3027 RMK AC6 SLP256

CYYZ;2009-02-09 00:00;CYYZ 090000Z 26012KT 15SM FEW120 M01/M07 A3027 RMK AC1 SLP258

CYYZ;2009-02-09 01:00;CYYZ 090100Z 27011KT 15SM SKC M01/M07 A3028 RMK SLP260

CYYZ;2009-02-09 02:00;CYYZ 090200Z 25008KT 15SM SKC M03/M07 A3027 RMK SLP258

CYYZ;2009-02-09 03:00;CYYZ 090300Z 00000KT 15SM SKC M03/M07 A3028 RMK SLP262

CYYZ;2009-02-09 04:00;CYYZ 090400Z 27008KT 15SM SKC M03/M08 A3030 RMK SLP268

CYYZ;2009-02-09 05:00;CYYZ 090500Z 23006KT 15SM SKC M04/M08 A3029 RMK SLP267

CYYZ;2009-02-09 06:00;CYYZ 090600Z 27004KT 15SM SKC M04/M08 A3030 RMK SLP268

CYYZ;2009-02-09 07:00;CYYZ 090700Z 31006KT 15SM SKC M04/M07 A3030 RMK SLP269

CYYZ;2009-02-09 08:00;CYYZ 090800Z 29007KT 15SM SKC M04/M08 A3031 RMK SLP271

CYYZ;2009-02-09 09:00;CYYZ 090900Z 27005KT 15SM SKC M06/M09 A3032 RMK SLP277

CYYZ;2009-02-09 10:00;CYYZ 091000Z 31006KT 15SM SKC M05/M08 A3033 RMK SLP280

CYYZ;2009-02-09 11:00;CYYZ 091100Z CCB 27003KT 15SM FEW210 M06/M09 A3034 RMK CI2 FROIN SLP282

CYYZ;2009-02-09 12:00;CYYZ 091200Z 29004KT 15SM SCT210 M04/M08 A3034 RMK CI2 FROIN SLP283

CYYZ;2009-02-09 13:00;CYYZ 091300Z 31004KT 15SM BKN220 M04/M07 A3036 RMK CI2 SLP290

CYYZ;2009-02-09 14:00;CYYZ 091400Z 27004KT 15SM FEW210 BKN260 M02/M06 A3037 RMK CI1CI2 SLP295

CYYZ;2009-02-09 15:00;CYYZ 091500Z 00000KT 15SM BKN260 M00/M05 A3037 RMK CI2 SLP293

CYYZ;2009-02-09 16:00;CYYZ 091600Z 00000KT 15SM FEW170 BKN260 01/M05 A3037 RMK AC1CI2 AC TR SLP294

CYYZ;2009-02-09 17:00;CYYZ 091700Z 18002KT 15SM FEW170 SCT230 03/M05 A3037 RMK AC1CI2 AC TR SLP295

CYYZ;2009-02-09 18:00;CYYZ 091800Z 14005KT 15SM FEW170 SCT230 03/M05 A3034 RMK AC1CI2 AC TR SLP283

CYYZ;2009-02-09 19:00;CYYZ 091900Z 16007KT 15SM FEW120 BKN240 02/M05 A3033 RMK AC2CI2 SLP278

CYYZ;2009-02-09 20:00;CYYZ 092000Z 15007KT 15SM FEW160 BKN190 BKN240 02/M05 A3033 RMK AC2AC3CI1 SLP279

CYYZ;2009-02-09 21:00;CYYZ 092100Z 15005KT 12SM FEW035 SCT180 BKN230 02/M04 A3032 RMK CU1AC3CI2 SLP277

CYYZ;2009-02-09 22:00;CYYZ 092200Z 16006KT 12SM SCT180 BKN220 01/M04 A3034 RMK AC4CI2 SLP282

CYYZ;2009-02-09 23:00;CYYZ 092300Z 12005KT 12SM SCT180 BKN210 01/M03 A3030 RMK AC4CI2 SLP271

CYYZ;2009-02-10 00:00;CYYZ 100000Z 13008KT 12SM FEW020 BKN180 BKN200 01/M03 A3028 RMK SC1AC4CI2 SLP262

CYYZ;2009-02-10 01:00;CYYZ 100100Z 11007KT 12SM FEW020 BKN180 BKN200 00/M02 A3026 RMK SC1AC4CS2 MOON DIMILY VSBL SLP256

CYYZ;2009-02-10 02:00;CYYZ 100200Z 11007KT 12SM FEW020 BKN180 OVC200 01/M02 A3025 RMK SC1AC4CS3 MOON DIMILY VSBL SLP252

CYYZ;2009-02-10 03:00;CYYZ 100300Z 10006KT 12SM FEW020 FEW180 BKN250 00/M02 A3023 RMK SC1AC1CS2 SLP244

CYYZ;2009-02-10 04:00;CYYZ 100400Z 10005KT 12SM FEW020 FEW180 BKN250 00/M03 A3020 RMK SC1AC1CS2 SC TR SLP234

CYYZ;2009-02-10 05:00;CYYZ 100500Z 09004KT 12SM BKN240 00/M03 A3019 RMK CI0 SLP231

CYYZ;2009-02-10 06:00;CYYZ 100600Z 09003KT 12SM FEW025 BKN240 00/M03 A3019 RMK SC1CI0 SLP229

CYYZ;2009-02-10 07:00;CYYZ 100700Z 12008KT 12SM FEW025 BKN075 BKN240 00/M03 A3015 RMK SC1AC6CI0 SLP217

CYYZ;2009-02-10 08:00;CYYZ 100800Z 10008KT 12SM FEW025 BKN075 01/M02 A3011 RMK SC1AC6 SLP205

CYYZ;2009-02-10 09:00;CYYZ 100900Z 09009KT 12SM BKN087 01/M02 A3007 RMK AC7 SLP190

CYYZ;2009-02-10 10:00;CYYZ 101000Z 11008KT 12SM FEW090 BKN150 01/M02 A3003 RMK AC2AC4 SLP176

CYYZ;2009-02-10 11:00;CYYZ 101100Z 11002KT 12SM -SHRA FEW082 BKN110 01/M02 A3004 RMK AC2AC4 SLP180

CYYZ;2009-02-10 12:00;CYYZ 101200Z 11004KT 10SM -SHRA FEW061 BKN098 01/M02 A3001 RMK SC2AC4 SLP169

CYYZ;2009-02-10 12:21;CYYZ 101221Z 09005KT 10SM FEW061 OVC082 01/ RMK SC2AC6

CYYZ;2009-02-10 12:42;CYYZ 101242Z 09005KT 10SM -RA SCT061 OVC070 01/ RMK SC3AC5

CYYZ;2009-02-10 13:00;CYYZ 101300Z 06006KT 10SM -RA BKN060 OVC066 01/M02 A2996 RMK SC5AC3 SLP153

CYYZ;2009-02-10 13:24;CYYZ 101324Z 00000KT 10SM BKN053 OVC061 01/ RMK SC5SC3

CYYZ;2009-02-10 14:00;CYYZ 101400Z 00000KT 10SM BKN018 OVC045 02/M01 A2997 RMK SC5SC3 SLP155

CYYZ;2009-02-10 14:35;CYYZ 101435Z 13004KT 8SM -DZ BKN014 OVC021 02/ RMK ST5SC3

CYYZ;2009-02-10 15:00;CYYZ 101500Z 13005KT 10SM -DZ BKN011 OVC020 02/M01 A2995 RMK ST5SC3 SLP148

CYYZ;2009-02-10 15:20;CYYZ 101520Z 13004KT 10SM BKN010 OVC021 02/ RMK ST5SC3

CYYZ;2009-02-10 15:29;CYYZ 101529Z 16003KT 10SM BKN009 OVC021 02/ RMK ST5SC3

CYYZ;2009-02-10 16:00;CYYZ 101600Z 14004KT 10SM OVC008 02/M01 A2993 RMK ST8 SLP142

CYYZ;2009-02-10 17:00;CYYZ 101700Z 13003KT 8SM OVC007 03/M00 A2990 RMK ST8 SLP134

CYYZ;2009-02-10 17:36;CYYZ 101736Z 16005KT 8SM BKN013 OVC038 04/ RMK ST5SC3

CYYZ;2009-02-10 18:00;CYYZ 101800Z 14006KT 8SM SCT007 OVC014 04/01 A2986 RMK ST3SC5 SLP120

CYYZ;2009-02-10 18:16;CYYZ 101816Z 14006KT 8SM SCT017 BKN037 05/ RMK SC3SC4

CYYZ;2009-02-10 19:00;CYYZ 101900Z 15006KT 8SM BKN019 05/02 A2985 RMK SC6 SLP115

CYYZ;2009-02-10 20:00;CYYZ 102000Z 14005KT 8SM BKN021 05/01 A2983 RMK SC6 SLP110

CYYZ;2009-02-10 21:00;CYYZ 102100Z 16003KT 10SM OVC022 06/02 A2983 RMK SC7 SLP108

CYYZ;2009-02-10 22:00;CYYZ 102200Z 13003KT 10SM OVC021 07/03 A2984 RMK SC8 SLP110

CYYZ;2009-02-10 23:00;CYYZ 102300Z 14004KT 10SM OVC024 07/04 A2984 RMK SC8 SLP111

CYYZ;2009-02-11 00:00;CYYZ 110000Z 20010KT 12SM BKN031 09/06 A2984 RMK SC6 SLP109

CYYZ;2009-02-11 01:00;CYYZ 110100Z 21009KT 10SM BKN031 09/06 A2984 RMK SC5 SLP111

CYYZ;2009-02-11 02:00;CYYZ 110200Z 18005KT 10SM SCT027 BKN250 08/05 A2985 RMK SC3CI1 SLP112

CYYZ;2009-02-11 03:00;CYYZ 110300Z 20006KT 10SM BKN021 09/06 A2986 RMK SC7 SLP115

CYYZ;2009-02-11 04:00;CYYZ 110400Z 21010KT 10SM OVC016 09/06 A2985 RMK SC8 SLP114

CYYZ;2009-02-11 04:25;CYYZ 110425Z 22008G16KT 10SM OVC013 08/ RMK SC8

CYYZ;2009-02-11 05:00;CYYZ 110500Z 22013G19KT 10SM OVC012 09/06 A2986 RMK SC8 SLP118

CYYZ;2009-02-11 06:00;CYYZ 110600Z 19004KT 10SM OVC010 09/06 A2986 RMK ST8 SLP115

CYYZ;2009-02-11 07:00;CYYZ 110700Z 23007KT 10SM OVC010 08/06 A2986 RMK ST8 SLP115

CYYZ;2009-02-11 08:00;CYYZ 110800Z 25005KT 10SM OVC010 08/06 A2984 RMK ST8 SLP109

CYYZ;2009-02-11 09:00;CYYZ 110900Z 24009KT 10SM OVC009 08/06 A2983 RMK ST8 SLP106

CYYZ;2009-02-11 10:00;CYYZ 111000Z 25004KT 10SM OVC010 08/06 A2983 RMK ST8 SLP106

CYYZ;2009-02-11 11:00;CYYZ 111100Z 23007KT 10SM BKN012 OVC020 08/06 A2983 RMK ST6SC2 SLP104

CYYZ;2009-02-11 11:33;CYYZ 111133Z 20006KT 10SM BKN019 08/ RMK SC6

CYYZ;2009-02-11 12:00;CYYZ 111200Z 19005KT 10SM BKN022 BKN220 07/05 A2980 RMK SC5CI1 SLP093

CYYZ;2009-02-11 13:00;CYYZ 111300Z 17004KT 8SM BKN110 OVC130 08/06 A2978 RMK AC5AS2 SLP089

CYYZ;2009-02-11 13:11;CYYZ 111311Z 20005KT 7SM BKN009 BKN110 OVC130 08/ RMK ST5AC2AS1 HZ

CYYZ;2009-02-11 14:00;CYYZ 111400Z 16006KT 4SM BR SCT004 OVC008 07/05 A2978 RMK SF3ST5 SLP087

CYYZ;2009-02-11 14:10;CYYZ 111410Z 17004KT 2SM BR OVC005 07/ RMK FG2SF6

CYYZ;2009-02-11 14:21;CYYZ 111421Z 16002KT 2 1/2SM BR OVC003 08/ RMK FG2SF6

CYYZ;2009-02-11 14:46;CYYZ 111446Z 16002KT 1 1/4SM BR OVC003 08/ RMK FG3SF5

CYYZ;2009-02-11 15:00;CYYZ 111500Z 13003KT 1 1/4SM BR OVC003 08/06 A2976 RMK FG3SF5 SLP081

CYYZ;2009-02-11 15:25;CYYZ 111525Z 12002KT 5/8SM -DZ BR OVC003 07/ RMK FG3SF5

CYYZ;2009-02-11 15:30;CYYZ 111530Z 10002KT 1/2SM R05/1600V2200FT/N R24R/2400FT/N -DZ FG VV002 07/ RMK FG8

CYYZ;2009-02-11 15:46;CYYZ 111546Z 10003KT 1/4SM R05/1400V2200FT/N R06L/1800FT/N -RA FG VV002 07/ RMK FG8

CYYZ;2009-02-11 16:00;CYYZ 111600Z 14003KT 1/4SM R05/3000VP6000FT/N R06L/2600FT/N -RA FG VV002 08/06 A2973 RMK FG8 SLP072

CYYZ;2009-02-11 17:00;CYYZ 111700Z 12004KT 1/4SM R05/1200FT/N R06L/2000FT/N -RA FG VV002 07/06 A2969 RMK FG8 SLP057

CYYZ;2009-02-11 18:00;CYYZ 111800Z 15006KT 1/4SM R05/3000VP6000FT/U R06L/1800FT/N -RA FG VV002 07/06 A2965 RMK FG8 SLP044

CYYZ;2009-02-11 19:00;CYYZ 111900Z 12005KT 1/4SM R05/1200FT/N R06L/1600FT/N -RA FG VV002 07/06 A2960 RMK FG8 SLP027

CYYZ;2009-02-11 20:00;CYYZ 112000Z 12004KT 1/4SM R05/1600FT/N R06L/2400FT/N -RA FG VV002 07/06 A2956 RMK FG8 SLP016

CYYZ;2009-02-11 21:00;CYYZ 112100Z 10006KT 1/4SM R05/1600FT/N R06L/2200FT/N -RA FG VV002 08/07 A2952 RMK FG8 SLP002

CYYZ;2009-02-11 22:00;CYYZ 112200Z 08006KT 1/4SM R05/1200FT/N R06L/1400FT/N FG VV002 07/06 A2949 RMK FG8 SLP991

CYYZ;2009-02-11 22:09;CYYZ 112209Z 08006KT 1/4SM R05/1100FT/N R06L/1400FT/N -RA FG VV002 07/ RMK FG8

CYYZ;2009-02-11 22:52;CYYZ 112252Z 09007KT 1/4SM R05/1400FT/N R06L/1800FT/N FG VV002 07/ RMK FG8

CYYZ;2009-02-11 23:00;CYYZ 112300Z 09007KT 1/4SM R05/1400FT/N R06L/1800FT/N -RA FG VV002 07/06 A2944 RMK FG8 SLP974

CYYZ;2009-02-12 00:00;CYYZ 120000Z 08006KT 1/4SM R05/1400FT/N R06L/1400FT/N -RA FG OVC002 07/06 A2937 RMK FG2ST6 PRESFR PCPN VRY LGT SLP951

CYYZ;2009-02-12 01:00;CYYZ 120100Z 11005KT 1/4SM R05/2800V4500FT/N R06L/3500FT/U RA FG OVC002 07/07 A2934 RMK FG2NS6 SLP938

CYYZ;2009-02-12 01:16;CYYZ 120116Z 09005KT 5/8SM R05/2600V4000FT/N R06L/3500FT/N RA BR OVC003 08/ RMK FG1NS7 PRESFR

CYYZ;2009-02-12 01:25;CYYZ 120125Z 09006KT 3/4SM R05/2800V5000FT/D R06L/3500FT/N RA BR OVC002 08/ RMK FG1NS7

CYYZ;2009-02-12 02:00;CYYZ 120200Z 09007KT 3/4SM R05/2800V4500FT/N R06L/3500V5500FT/D RA BR OVC002 08/07 A2928 RMK FG1NS7 PRESFR SLP918

CYYZ;2009-02-12 03:00;CYYZ 120300Z 12007KT 3/4SM R05/2800V6000FT/U R06L/5000FT/D +RA BR BKN002 OVC006 08/08 A2925 RMK FG1NS6NS2 PRESFR SLP909

CYYZ;2009-02-12 03:14;CYYZ 120314Z 09005KT 1/2SM R05/2000FT/N R06L/3000V5500FT/U RA FG OVC002 08/ RERA RMK FG1NS7 PRESFR

CYYZ;2009-02-12 03:44;CYYZ 120344Z 13005KT 3/4SM R05/3000VP6000FT/D R24L/P6000FT/U -RA BR OVC002 08/ RERA RMK FG1NS7 PRESFR

CYYZ;2009-02-12 03:52;CYYZ 120352Z 13007KT 3/8SM R23/P6000FT/N R24L/3500VP6000FT/D -RA FG OVC002 08/ RERA RMK FG1NS7

CYYZ;2009-02-12 04:00;CYYZ 120400Z 14009KT 2SM R23/P6000FT/N R24L/3000VP6000FT/N -RA BR OVC002 08/08 A2918 RERA RMK NS8 SLP885

CYYZ;2009-02-12 04:17;CYYZ 120417Z 14007KT 3/8SM R23/P6000FT/D R24L/P6000FT/D -RA FG OVC002 08/ RMK NS8

CYYZ;2009-02-12 04:36;CYYZ 120436Z 17009G15KT 3/4SM R23/3000VP6000FT/N R24L/3500VP6000FT/D -RA BR OVC002 08/ RMK FG1NS7 RVR R15L/26000VP6000FT/N

CYYZ;2009-02-12 04:46;CYYZ 120446Z 17009G15KT 3/8SM R23/P6000FT/D R24L/P6000FT/U -RA FG OVC002 07/ RMK FG1NS7 RVR R15L/2600VP6000FT/N

CYYZ;2009-02-12 05:00;CYYZ 120500Z 17007KT 3/8SM R23/P6000FT/D R24L/3500V6000FT/D -RA FG OVC002 07/06 A2915 RMK FG1NS7 RVR R15L/3500VP6000FT/D SLP874

CYYZ;2009-02-12 05:07;CYYZ 120507Z 18009KT 2SM R23/P6000FT/U R24L/4500VP6000FT/U -RA BR OVC002 07/ RMK NS8 RVR R15L/4000VP6000FT/D

CYYZ;2009-02-12 05:17;CYYZ 120517Z 20009KT 4SM R23/P6000FT/N R24L/P6000FT/N -RA BR BKN002 OVC045 07/ RMK SF6SC2 RVR R15L/3500VP6000FT/U

CYYZ;2009-02-12 05:23;CYYZ 120523Z 19010KT 5SM -RA BR FEW002 BKN045 OVC095 07/ RMK SF2SC5AC1

CYYZ;2009-02-12 06:00;CYYZ 120600Z CCA 20011KT 7SM -RA FEW003 BKN065 OVC090 08/07 A2912 RMK SF1SC6AC2 /R20/ SLP864

CYYZ;2009-02-12 07:00;CYYZ 120700Z 23014G24KT 7SM -RA OVC038 07/06 A2911 RMK NS8 SLP860

CYYZ;2009-02-12 08:00;CYYZ 120800Z 22015G20KT 8SM -RA OVC040 07/05 A2909 RMK NS8 SLP853

CYYZ;2009-02-12 09:00;CYYZ 120900Z 21011G18KT 8SM -RA OVC045 06/05 A2905 RMK NS8 SLP841

CYYZ;2009-02-12 10:00;CYYZ 121000Z 26017G31KT 10SM -RA FEW011 OVC017 05/02 A2905 RMK SF2SF6 SLP842

CYYZ;2009-02-12 11:00;CYYZ 121100Z 30028G36KT 10SM -RA OVC018 04/01 A2908 RMK SF8 SLP850

CYYZ;2009-02-12 12:00;CYYZ 121200Z 29027G38KT 10SM -RA SCT027 OVC047 03/00 A2918 RMK SC3NS5 PRESRR /R10/ SLP885

CYYZ;2009-02-12 12:41;CYYZ 121241Z 29028G40KT 10SM BKN021 OVC041 04/ RMK SC6SC2

CYYZ;2009-02-12 12:53;CYYZ 121253Z 29031G36KT 10SM -RA BKN022 OVC041 04/ RMK SC6SC2

CYYZ;2009-02-12 13:00;CYYZ 121300Z 29031G38KT 10SM -RA BKN020 OVC041 04/01 A2925 RMK SC6SC2 PRESRR SLP908

CYYZ;2009-02-12 13:42;CYYZ 121342Z 29034G46KT 15SM FEW022 OVC054 03/ RMK SC2SC6

CYYZ;2009-02-12 14:00;CYYZ 121400Z 29034G43KT 15SM SCT023 BKN042 OVC076 04/M01 A2933 RMK SC3SC2AS3 PRESRR SLP934

CYYZ;2009-02-12 15:00;CYYZ 121500Z 29035G46KT 15SM FEW024 BKN054 OVC120 04/M01 A2940 RMK SC2SC2AC3 PRESRR SLP961

CYYZ;2009-02-12 15:52;CYYZ 121552Z 29028G42KT 15SM FEW024 BKN047 OVC120 04/ RMK SC2SC3AC3

CYYZ;2009-02-12 16:00;CYYZ 121600Z 29030G37KT 12SM -RA FEW023 BKN048 OVC080 03/M01 A2946 RMK SC2SC6AC1 PRESRR SLP981

CYYZ;2009-02-12 16:45;CYYZ 121645Z 29026G35KT 15SM FEW024 BKN041 BKN061 04/ RMK SC2SC3SC2

CYYZ;2009-02-12 17:00;CYYZ 121700Z 29029G35KT 15SM FEW024 BKN042 BKN067 04/M00 A2951 RMK SC2SC3AC2 SLP996

CYYZ;2009-02-12 18:00;CYYZ 121800Z 29026G34KT 15SM BKN024 BKN028 05/M00 A2955 RMK SC5SC2 SLP011

CYYZ;2009-02-12 19:00;CYYZ 121900Z 28023G32KT 15SM BKN023 OVC031 04/M00 A2957 RMK SC5SC3 SLP019

CYYZ;2009-02-12 20:00;CYYZ 122000Z 29022G28KT 15SM -SHRA BKN024 OVC031 04/M01 A2960 RMK SC5SC3 SLP029

CYYZ;2009-02-12 20:25;CYYZ 122025Z 29019G28KT 15SM BKN023 OVC034 04/ RMK SC5SC3

CYYZ;2009-02-12 21:00;CYYZ 122100Z 28020G28KT 15SM BKN023 OVC034 04/M01 A2964 RMK SC5SC3 SLP044

CYYZ;2009-02-12 22:00;CYYZ 122200Z 28018G25KT 15SM BKN024 BKN032 04/M01 A2968 RMK SC5SC2 SLP056

CYYZ;2009-02-12 23:00;CYYZ 122300Z 29019G25KT 15SM BKN023 BKN042 03/M01 A2971 RMK SC5SC2 SLP065

CYYZ;2009-02-13 00:00;CYYZ 130000Z 29014G22KT 15SM BKN023 OVC055 03/M02 A2974 RMK SF6SC2 SLP075

CYYZ;2009-02-13 01:00;CYYZ 130100Z 30015G20KT 15SM BKN025 OVC060 03/M02 A2975 RMK SF5SC2 SLP079

CYYZ;2009-02-13 02:00;CYYZ 130200Z 36012G19KT 15SM FEW010 OVC020 01/M03 A2978 RMK SF1SF7 SLP090

CYYZ;2009-02-13 02:19;CYYZ 130219Z 35012KT 10SM -SG SCT011 OVC016 00/ RMK SF4SF4

CYYZ;2009-02-13 02:53;CYYZ 130253Z 35017KT 15SM OVC020 M00/ RMK SC8

CYYZ;2009-02-13 03:00;CYYZ 130300Z 34015G21KT 15SM BKN022 OVC220 M00/M05 A2981 RMK SC7CS1 SLP102

CYYZ;2009-02-13 04:00;CYYZ 130400Z 34013KT 15SM BKN025 OVC042 M01/M05 A2984 RMK SC7SC1 SLP110

CYYZ;2009-02-13 05:00;CYYZ 130500Z 35015G20KT 15SM FEW025 OVC075 M02/M06 A2986 RMK SC2AC6 SLP117

CYYZ;2009-02-13 06:00;CYYZ 130600Z 34011KT 15SM FEW022 OVC034 M02/M06 A2987 RMK SC2SC6 SLP123

CYYZ;2009-02-13 07:00;CYYZ 130700Z 36014KT 15SM BKN025 OVC085 M03/M07 A2990 RMK SC6AC1 SLP133

CYYZ;2009-02-13 08:00;CYYZ 130800Z 33018KT 15SM FEW025 OVC093 M03/M09 A2993 RMK SF1AS8 SLP141

CYYZ;2009-02-13 09:00;CYYZ 130900Z 35010G17KT 15SM FEW025 OVC096 M04/M10 A2996 RMK SF1AS8 SLP152

CYYZ;2009-02-13 10:00;CYYZ 131000Z 36015KT 15SM SCT100 BKN120 M05/M11 A2997 RMK AC4AC3 SLP157

CYYZ;2009-02-13 11:00;CYYZ 131100Z 35014KT 15SM BKN110 M05/M11 A3000 RMK AC7 SLP167

CYYZ;2009-02-13 12:00;CYYZ 131200Z 36015KT 15SM BKN100 M06/M12 A3002 RMK AC6 SLP175

CYYZ;2009-02-13 13:00;CYYZ 131300Z 36015KT 15SM SCT100 M07/M13 A3005 RMK AC4 SLP185

CYYZ;2009-02-13 14:00;CYYZ 131400Z 35012KT 15SM BKN100 M06/M13 A3007 RMK AC6 SLP192

CYYZ;2009-02-13 15:00;CYYZ 131500Z 34010G15KT 15SM BKN100 M06/M13 A3008 RMK AC7 SLP195

CYYZ;2009-02-13 16:00;CYYZ 131600Z 34012KT 15SM SCT100 M04/M12 A3009 RMK AC4 SLP199

CYYZ;2009-02-13 17:00;CYYZ 131700Z 36010G15KT 15SM FEW100 M04/M12 A3008 RMK AC1 SLP196

CYYZ;2009-02-13 18:00;CYYZ 131800Z 36010KT 15SM FEW100 M03/M12 A3008 RMK AC1 SLP196

CYYZ;2009-02-13 19:00;CYYZ 131900Z 32009G15KT 15SM FEW100 FEW250 M02/M12 A3009 RMK AC1CI1 SLP199

CYYZ;2009-02-13 20:00;CYYZ 132000Z 35009KT 15SM FEW100 FEW250 M02/M13 A3010 RMK AC1CI1 SLP201

CYYZ;2009-02-13 21:00;CYYZ 132100Z 36007KT 15SM FEW100 FEW250 M01/M12 A3010 RMK AC1CI1 SLP202

CYYZ;2009-02-13 22:00;CYYZ 132200Z 01010KT 15SM SKC M02/M12 A3010 RMK SLP204

CYYZ;2009-02-13 23:00;CYYZ 132300Z 36011KT 15SM SKC M03/M12 A3010 RMK SLP203

CYYZ;2009-02-14 00:00;CYYZ 140000Z 35011KT 15SM SKC M04/M12 A3011 RMK SLP208

CYYZ;2009-02-14 01:00;CYYZ 140100Z 35009KT 15SM SKC M05/M11 A3011 RMK SLP207

CYYZ;2009-02-14 02:00;CYYZ 140200Z 33011KT 15SM SKC M06/M12 A3011 RMK SLP208

CYYZ;2009-02-14 03:00;CYYZ 140300Z 31007KT 15SM SKC M07/M12 A3013 RMK SLP212

CYYZ;2009-02-14 04:00;CYYZ 140400Z 31008KT 15SM SKC M07/M12 A3012 RMK SLP211

CYYZ;2009-02-14 05:00;CYYZ 140500Z 34007KT 15SM SKC M07/M13 A3011 RMK SLP208

CYYZ;2009-02-14 06:00;CYYZ 140600Z 35009KT 15SM SKC M07/M13 A3011 RMK SLP206

CYYZ;2009-02-14 07:00;CYYZ 140700Z 33007KT 15SM SCT250 M07/M12 A3011 RMK CI1 SLP206

CYYZ;2009-02-14 08:00;CYYZ 140800Z 32004KT 15SM FEW250 M08/M12 A3010 RMK CI0 SLP203

CYYZ;2009-02-14 09:00;CYYZ 140900Z CCA 00000KT 15SM OVC200 M08/M12 A3008 RMK CI4 SLP196

CYYZ;2009-02-14 10:00;CYYZ 141000Z 30004KT 15SM OVC200 M07/M12 A3007 RMK CI2 SLP192

CYYZ;2009-02-14 11:00;CYYZ 141100Z 36005KT 15SM FEW150 OVC200 M07/M11 A3005 RMK AC2CI2 SLP186

CYYZ;2009-02-14 12:00;CYYZ 141200Z 36006KT 15SM FEW120 BKN140 M07/M12 A3004 RMK AC2AS4 SLP183

CYYZ;2009-02-14 13:00;CYYZ 141300Z 36006KT 15SM BKN120 BKN150 M07/M13 A3004 RMK AC5AC1 SLP182

CYYZ;2009-02-14 14:00;CYYZ 141400Z 35006KT 15SM BKN100 BKN130 M06/M13 A3004 RMK AC5AC2 SLP181

CYYZ;2009-02-14 15:00;CYYZ 141500Z 34006KT 15SM FEW084 BKN100 M06/M13 A3003 RMK AC2AS5 SLP180

CYYZ;2009-02-14 16:00;CYYZ 141600Z 34003KT 15SM FEW030 BKN120 M05/M13 A3002 RMK CU1AC6 CU TR SLP178

CYYZ;2009-02-14 17:00;CYYZ 141700Z 34005KT 15SM FEW030 BKN100 M03/M12 A3001 RMK CU1AC6 CU TR SLP174

CYYZ;2009-02-14 18:00;CYYZ 141800Z 31003KT 15SM FEW030 BKN100 M03/M11 A2999 RMK CU1AC6 CU TR SLP166

CYYZ;2009-02-14 19:00;CYYZ 141900Z 32008KT 15SM FEW030 SCT090 BKN110 M03/M11 A2998 RMK SC1AC2AS3 SLP164

CYYZ;2009-02-14 20:00;CYYZ 142000Z 33009KT 15SM FEW030 SCT072 BKN078 M02/M11 A2998 RMK CU1AC3AS3 CU TR SLP163

CYYZ;2009-02-14 21:00;CYYZ 142100Z 34009KT 15SM FEW072 BKN080 M02/M12 A2998 RMK AC2AS5 SLP163

CYYZ;2009-02-14 22:00;CYYZ 142200Z 35010KT 15SM FEW079 BKN083 M02/M11 A3000 RMK AC2AS5 SLP168

CYYZ;2009-02-14 23:00;CYYZ 142300Z 36014KT 15SM FEW082 BKN095 M03/M11 A3001 RMK AC2AS2 SLP172

CYYZ;2009-02-15 00:00;CYYZ 150000Z 36010G16KT 15SM BKN100 M04/M11 A3003 RMK AC6 SLP179

CYYZ;2009-02-15 01:00;CYYZ 150100Z 33013KT 15SM BKN110 M05/M11 A3005 RMK AC2 SLP185

CYYZ;2009-02-15 02:00;CYYZ 150200Z 34010G15KT 15SM BKN150 M05/M10 A3007 RMK AC2 SLP191

CYYZ;2009-02-15 03:00;CYYZ 150300Z 32015KT 15SM BKN110 M05/M11 A3008 RMK AC2 SLP196

CYYZ;2009-02-15 04:00;CYYZ 150400Z 32012KT 15SM SCT200 M06/M11 A3009 RMK CS0 SLP200

CYYZ;2009-02-15 05:00;CYYZ 150500Z 33010KT 15SM BKN170 M06/M11 A3010 RMK AS2 SLP204

CYYZ;2009-02-15 06:00;CYYZ 150600Z 33010KT 15SM FEW170 M06/M11 A3011 RMK AS0 SLP205

CYYZ;2009-02-15 07:00;CYYZ 150700Z 33008KT 15SM FEW250 M06/M11 A3012 RMK CI0 SLP208

CYYZ;2009-02-15 08:00;CYYZ 150800Z 32005KT 15SM SKC M07/M11 A3012 RMK SLP209

CYYZ;2009-02-15 09:00;CYYZ 150900Z 26004KT 15SM SKC M07/M11 A3013 RMK SLP212

CYYZ;2009-02-15 10:00;CYYZ 151000Z 26005KT 15SM SKC M08/M12 A3013 RMK SLP214

CYYZ;2009-02-15 11:00;CYYZ 151100Z 28004KT 15SM SKC M08/M12 A3014 RMK FROIN SLP218

CYYZ;2009-02-15 12:00;CYYZ 151200Z 26004KT 15SM FEW240 M08/M13 A3016 RMK CI1 FROIN SLP224

CYYZ;2009-02-15 13:00;CYYZ 151300Z 27003KT 15SM FEW240 M08/M12 A3018 RMK CI1 SLP232

CYYZ;2009-02-15 14:00;CYYZ 151400Z 29004KT 15SM FEW030 FEW240 M04/M11 A3019 RMK SC1CI0 SLP236

CYYZ;2009-02-15 15:00;CYYZ 151500Z 32006KT 15SM FEW030 FEW240 M03/M11 A3020 RMK SC1CI0 SLP237

CYYZ;2009-02-15 16:00;CYYZ 151600Z 31007KT 15SM FEW025 FEW240 M02/M10 A3020 RMK CF1CI0 SLP236

CYYZ;2009-02-15 17:00;CYYZ 151700Z 35003KT 15SM FEW025 FEW240 M01/M10 A3019 RMK CF1CI0 SLP233

CYYZ;2009-02-15 18:00;CYYZ 151800Z 29007KT 15SM FEW025 FEW240 00/M10 A3016 RMK CF1CI0 SLP223

CYYZ;2009-02-15 19:00;CYYZ 151900Z 03007KT 15SM FEW025 FEW240 01/M10 A3014 RMK CU1CI0 SLP217

CYYZ;2009-02-15 20:00;CYYZ 152000Z 01008KT 15SM FEW041 SCT140 SCT240 01/M11 A3015 RMK CU2AC1CI0 SLP218

CYYZ;2009-02-15 21:00;CYYZ 152100Z 01007KT 15SM FEW041 SCT160 01/M11 A3015 RMK CU2AC2 SLP219

CYYZ;2009-02-15 22:00;CYYZ 152200Z 36011KT 15SM FEW048 SCT150 M01/M11 A3016 RMK SC2AC2 SLP224

CYYZ;2009-02-15 23:00;CYYZ 152300Z 36011KT 15SM FEW051 SCT170 M02/M11 A3018 RMK SC1AC2 SLP230

CYYZ;2009-02-16 00:00;CYYZ 160000Z 36011KT 15SM SCT170 M03/M12 A3020 RMK AC2 SLP238

CYYZ;2009-02-16 01:00;CYYZ 160100Z 36011KT 15SM SCT085 BKN095 M04/M11 A3020 RMK AC3AC2 SLP238

CYYZ;2009-02-16 02:00;CYYZ 160200Z 36015KT 15SM BKN090 M04/M11 A3020 RMK AC6 SLP239

CYYZ;2009-02-16 03:00;CYYZ 160300Z 35010G16KT 15SM BKN085 M04/M11 A3021 RMK AC7 SLP241

CYYZ;2009-02-16 04:00;CYYZ 160400Z 34011KT 15SM BKN090 M04/M11 A3021 RMK AC7 SLP241

CYYZ;2009-02-16 05:00;CYYZ 160500Z 34012KT 15SM BKN090 M05/M11 A3022 RMK AC5 SLP242

CYYZ;2009-02-16 06:00;CYYZ 160600Z 34011KT 15SM SCT090 M06/M11 A3022 RMK AC3 SLP244

CYYZ;2009-02-16 07:00;CYYZ 160700Z 35011KT 15SM SCT090 M06/M11 A3024 RMK AC3 SLP248

CYYZ;2009-02-16 08:00;CYYZ 160800Z 35010KT 15SM FEW090 SCT220 M06/M11 A3024 RMK AC2CI0 SLP249

CYYZ;2009-02-16 09:00;CYYZ 160900Z 34009KT 15SM BKN090 BKN220 M07/M11 A3024 RMK AC3CI0 SLP251

CYYZ;2009-02-16 10:00;CYYZ 161000Z 35010KT 15SM SCT095 SCT220 M07/M11 A3025 RMK AC2CI0 SLP254

CYYZ;2009-02-16 11:00;CYYZ 161100Z 35010KT 15SM FEW100 M07/M11 A3026 RMK AC1 SLP257

CYYZ;2009-02-16 12:00;CYYZ 161200Z 35008KT 15SM FEW120 M07/M11 A3027 RMK AC1 SLP262

CYYZ;2009-02-16 13:00;CYYZ 161300Z 36009KT 15SM FEW140 FEW240 M07/M11 A3028 RMK AC1CI0 SLP264

CYYZ;2009-02-16 14:00;CYYZ 161400Z 35009KT 15SM FEW240 M06/M12 A3029 RMK CI0 SLP269

CYYZ;2009-02-16 15:00;CYYZ 161500Z 36006KT 15SM FEW030 SCT240 M04/M12 A3030 RMK CU1CI0 SLP271

CYYZ;2009-02-16 16:00;CYYZ 161600Z 35007KT 15SM FEW030 BKN240 M03/M13 A3031 RMK CU1CI1 SLP275

CYYZ;2009-02-16 17:00;CYYZ 161700Z 34007KT 15SM FEW030 BKN240 M02/M13 A3031 RMK CU1CI1 CONTRAIL SLP275

CYYZ;2009-02-16 18:00;CYYZ 161800Z 36009G15KT 15SM FEW030 BKN240 M01/M14 A3030 RMK CU1CI1 SLP270

CYYZ;2009-02-16 19:00;CYYZ 161900Z 33007KT 15SM FEW030 BKN220 M01/M14 A3029 RMK CU1CI1 CONTRAIL SLP267

CYYZ;2009-02-16 20:00;CYYZ 162000Z 33005G16KT 15SM FEW030 BKN220 M00/M13 A3030 RMK CU1CI1 CONTRAIL SLP270

CYYZ;2009-02-16 21:00;CYYZ 162100Z 32004KT 15SM FEW030 BKN220 00/M13 A3029 RMK CU1CI1 CONTRAIL SLP268

CYYZ;2009-02-16 22:00;CYYZ 162200Z 28006KT 15SM FEW040 SCT230 00/M13 A3029 RMK CU1CI0 SLP267

CYYZ;2009-02-16 23:00;CYYZ 162300Z 31008KT 15SM FEW040 FEW230 M01/M12 A3029 RMK CU1CI1 SLP268

CYYZ;2009-02-17 00:00;CYYZ 170000Z 36007KT 15SM FEW040 M03/M12 A3030 RMK CU1 SLP271

CYYZ;2009-02-17 01:00;CYYZ 170100Z 02005KT 15SM SKC M04/M12 A3029 RMK SLP268

CYYZ;2009-02-17 02:00;CYYZ 170200Z 01004KT 15SM SKC M05/M12 A3029 RMK SLP269

CYYZ;2009-02-17 03:00;CYYZ 170300Z 31006KT 15SM FEW250 M06/M12 A3029 RMK CI1 SLP268

CYYZ;2009-02-17 04:00;CYYZ 170400Z 28006KT 15SM FEW250 M06/M12 A3029 RMK CI1 SLP269

CYYZ;2009-02-17 05:00;CYYZ 170500Z 28004KT 15SM SKC M05/M11 A3029 RMK SLP267

CYYZ;2009-02-17 06:00;CYYZ 170600Z 28004KT 15SM SKC M06/M11 A3029 RMK SLP268

CYYZ;2009-02-17 07:00;CYYZ 170700Z 26003KT 15SM FEW180 M07/M11 A3028 RMK AC2 SLP264

CYYZ;2009-02-17 08:00;CYYZ 170800Z 26003KT 15SM FEW180 M06/M10 A3027 RMK AC2 SLP261

CYYZ;2009-02-17 09:00;CYYZ 170900Z 22003KT 15SM FEW180 SCT230 M06/M10 A3028 RMK AC2CI1 SLP264

CYYZ;2009-02-17 10:00;CYYZ 171000Z 19003KT 15SM FEW180 FEW230 M06/M10 A3027 RMK AC1CI1 SLP260

CYYZ;2009-02-17 11:00;CYYZ 171100Z 18002KT 15SM FEW180 FEW230 M06/M10 A3025 RMK AC1CI1 FROIN SLP253

CYYZ;2009-02-17 12:00;CYYZ 171200Z 21004KT 15SM FEW025 FEW110 BKN210 M05/M10 A3025 RMK CF1AC2CI2 FROIN SLP252

CYYZ;2009-02-17 13:00;CYYZ 171300Z 25004KT 15SM FEW025 FEW170 BKN210 M06/M10 A3025 RMK CF1AC1CI2 CF TR SLP252

CYYZ;2009-02-17 14:00;CYYZ 171400Z 19005KT 15SM FEW025 FEW150 BKN210 M04/M08 A3023 RMK CF1AC1CI2 CF TR SLP248

CYYZ;2009-02-17 15:00;CYYZ 171500Z 24010KT 15SM FEW025 BKN220 M02/M07 A3022 RMK CF1CI2 CF TR SLP242

CYYZ;2009-02-17 16:00;CYYZ 171600Z 24010KT 15SM FEW021 FEW140 BKN210 01/M06 A3020 RMK CU2AC1CI1 AC TR SLP236

CYYZ;2009-02-17 17:00;CYYZ 171700Z 22009G17KT 15SM FEW027 SCT120 BKN210 01/M08 A3017 RMK CU2AC2CI1 SLP228

CYYZ;2009-02-17 18:00;CYYZ 171800Z 22011KT 15SM SCT032 BKN081 BKN210 02/M08 A3014 RMK CU3AC2CI0 SLP216

CYYZ;2009-02-17 19:00;CYYZ 171900Z 20009G16KT 15SM FEW032 BKN036 BKN110 BKN210 01/M08 A3010 RMK CU2SC3AC2CI0 SLP204

CYYZ;2009-02-17 20:00;CYYZ 172000Z 21008KT 15SM FEW031 BKN035 OVC110 01/M08 A3009 RMK CU2SC3AC2 SLP199

CYYZ;2009-02-17 21:00;CYYZ 172100Z 18009G15KT 15SM BKN035 BKN091 01/M08 A3007 RMK SC5AC2 SLP193

CYYZ;2009-02-17 22:00;CYYZ 172200Z 18007KT 15SM SCT033 BKN110 BKN210 00/M08 A3006 RMK SC3AC2CI1 SLP187

CYYZ;2009-02-17 23:00;CYYZ 172300Z 17008KT 15SM FEW031 BKN120 BKN140 M00/M08 A3004 RMK SC1AC4AC1 SLP181

CYYZ;2009-02-18 00:00;CYYZ 180000Z 17005KT 15SM OVC170 M00/M09 A3003 RMK AC4 SLP179

CYYZ;2009-02-18 01:00;CYYZ 180100Z 15004KT 15SM BKN140 M01/M09 A3002 RMK AC2 SLP174

CYYZ;2009-02-18 02:00;CYYZ 180200Z 14005KT 15SM FEW140 M01/M08 A3000 RMK AC1 SLP167

CYYZ;2009-02-18 03:00;CYYZ 180300Z 14006KT 15SM SKC M01/M08 A2997 RMK SLP158

CYYZ;2009-02-18 04:00;CYYZ 180400Z 14006KT 15SM SKC M01/M07 A2994 RMK SLP147

CYYZ;2009-02-18 05:00;CYYZ 180500Z 12008KT 15SM FEW150 BKN280 M01/M06 A2990 RMK AC1CS2 SLP135

CYYZ;2009-02-18 06:00;CYYZ 180600Z 14007KT 15SM BKN130 BKN150 M01/M06 A2987 RMK AS1AC2 SLP121

CYYZ;2009-02-18 07:00;CYYZ 180700Z 13006KT 15SM FEW100 OVC130 M00/M06 A2983 RMK AC1AS7 SLP109

CYYZ;2009-02-18 08:00;CYYZ 180800Z 13007KT 15SM BKN100 OVC140 M01/M07 A2979 RMK AC6AS2 SLP095

CYYZ;2009-02-18 09:00;CYYZ 180900Z 13006KT 15SM BKN100 OVC130 M01/M07 A2975 RMK AC7AC1 SLP081

CYYZ;2009-02-18 10:00;CYYZ 181000Z 13005KT 15SM FEW065 OVC090 M00/M06 A2971 RMK SC1AS8 SLP070

CYYZ;2009-02-18 11:00;CYYZ 181100Z 14006KT 15SM -SN BKN052 OVC090 00/M06 A2967 RMK SC6AC2 VRY LGT SN SLP057

CYYZ;2009-02-18 12:00;CYYZ 181200Z 11007KT 15SM -SN BKN055 OVC090 00/M06 A2963 RMK SC6AC2 VRY LGT SN SLP040

CYYZ;2009-02-18 12:32;CYYZ 181232Z 13010KT 2SM -SN OVC018 M00/ RMK SN2SC6

CYYZ;2009-02-18 12:53;CYYZ 181253Z 18006KT 6SM -SN OVC022 00/ RMK SC8

CYYZ;2009-02-18 13:00;CYYZ 181300Z 14008KT 10SM -SN OVC023 00/M05 A2963 RMK SC8 SLP041

CYYZ;2009-02-18 14:00;CYYZ 181400Z 12008KT 3SM -SN OVC020 00/M05 A2958 RMK SC8 SLP023

CYYZ;2009-02-18 14:03;CYYZ 181403Z CCA 11009KT 3/4SM R05/6000FT/D R06R/4500V6000FT/D -SN VV005 M00/ RMK SN8 RNY 15L 6000 FT D - RNY 15R 4500-6000 D

CYYZ;2009-02-18 14:14;CYYZ 181414Z 12010KT 1 1/2SM -SN OVC015 M01/ RMK SN3SC5

CYYZ;2009-02-18 14:51;CYYZ 181451Z 14008G15KT 3SM -SN OVC018 M00/ RMK SC8

CYYZ;2009-02-18 15:00;CYYZ 181500Z 14007KT 6SM -SN BKN018 OVC025 M00/M04 A2953 RMK SC7SC1 SLP007

CYYZ;2009-02-18 15:09;CYYZ 181509Z 15007KT 1 1/4SM -SN VV018 M00/ RMK SN8

CYYZ;2009-02-18 15:16;CYYZ 181516Z 15005KT 4SM -SN OVC016 M00/ RMK SC8

CYYZ;2009-02-18 16:00;CYYZ 181600Z 15007KT 1 1/2SM -SN VV011 00/M03 A2949 RMK SN8 SLP995

CYYZ;2009-02-18 16:41;CYYZ 181641Z 16008KT 4SM -SN BKN005 OVC015 00/ RMK SC5SC3

CYYZ;2009-02-18 17:00;CYYZ 181700Z 15009KT 6SM -SN BKN007 OVC015 00/M02 A2945 RMK SC5SC3 SLP981

CYYZ;2009-02-18 18:00;CYYZ 181800Z 14006KT 3SM -SN OVC006 01/M02 A2941 RMK SC8 /S01/ SLP966

CYYZ;2009-02-18 19:00;CYYZ 181900Z 12007KT 1 1/2SM -SN OVC005 01/M01 A2936 RMK SN2SC6 SLP950

CYYZ;2009-02-18 19:23;CYYZ 181923Z 10007KT 3SM -SN OVC007 01/ RMK SC8

CYYZ;2009-02-18 19:37;CYYZ 181937Z 10007KT 3/4SM R05/6000FT/D R06R/4500V6000FT/U -SN VV004 01/ RMK SN8 RNY 15L 6000 FT D - RNY 15R 6000 FT D

CYYZ;2009-02-18 19:53;CYYZ 181953Z 11008KT 2SM -SN OVC003 01/ RMK SN5SC3

CYYZ;2009-02-18 20:00;CYYZ 182000Z 11008KT 2SM -SN OVC004 01/M01 A2934 RMK SN3SC5 SLP941

CYYZ;2009-02-18 20:29;CYYZ 182029Z 10009KT 1 1/4SM -SN VV006 01/ RMK SN8

CYYZ;2009-02-18 21:00;CYYZ 182100Z 10007KT 1 1/4SM -SN VV004 01/M01 A2931 RMK SN8 SLP934

CYYZ;2009-02-18 22:00;CYYZ 182200Z 09008KT 1 1/4SM -SN VV003 00/M01 A2930 RMK SN8 SLP929

CYYZ;2009-02-18 22:55;CYYZ 182255Z 10006KT 2SM -SN OVC007 01/ RMK SN6SC2

CYYZ;2009-02-18 23:00;CYYZ 182300Z 10006KT 2SM -SN OVC005 01/M01 A2929 RMK SN6SC2 SLP926

CYYZ;2009-02-18 23:33;CYYZ 182333Z 11005KT 2SM -SN OVC002 01/ RMK NS8

CYYZ;2009-02-19 00:00;CYYZ 190000Z 12005KT 1 1/2SM -SN OVC002 01/M01 A2928 RMK NS8 /S01/ SLP923

CYYZ;2009-02-19 00:52;CYYZ 190052Z 09003KT 1 1/4SM -SN BR OVC002 01/ RMK NS8

CYYZ;2009-02-19 01:00;CYYZ 190100Z 08004KT 1SM R05/P6000FT/D R06R/P6000FT/D -SN BR OVC002 01/M01 A2927 RMK NS8 SLP919

CYYZ;2009-02-19 02:00;CYYZ 190200Z 08002KT 1SM R05/P6000FT/N R06R/P6000FT/U -SN BR OVC002 00/M01 A2928 RMK NS8 SLP920

CYYZ;2009-02-19 03:00;CYYZ 190300Z CCA 00000KT 1SM R05/P6000FT/N R06R/P6000FT/N -SN BR BKN002 OVC004 00/M01 A2928 RMK NS6NS2 /S01/ SLP921

CYYZ;2009-02-19 03:07;CYYZ 190307Z 00000KT 2SM -SN BR BKN004 OVC011 00/ RMK NS6NS2

CYYZ;2009-02-19 04:00;CYYZ 190400Z 26003KT 2 1/4SM -SN BR OVC004 00/M01 A2928 RMK NS8 SLP921

CYYZ;2009-02-19 04:28;CYYZ 190428Z 26003KT 2 1/4SM -SN BR OVC007 00/ RMK NS8

CYYZ;2009-02-19 04:54;CYYZ 190454Z 23002KT 2 1/2SM -SN BR SCT007 OVC055 00/ RMK NS4NS4

CYYZ;2009-02-19 05:00;CYYZ 190500Z 24003KT 2 1/2SM -SN BR FEW007 OVC058 00/M01 A2928 RMK SF2NS6 /S02/ SLP923

CYYZ;2009-02-19 05:13;CYYZ 190513Z 24005KT 3SM -SN BR FEW016 BKN045 OVC062 01/ RMK SF2NS5NS2

CYYZ;2009-02-19 06:00;CYYZ 190600Z 28011KT 4SM -SN BR OVC016 01/M01 A2930 RMK NS8 SLP927

CYYZ;2009-02-19 07:00;CYYZ 190700Z 27016KT 15SM BKN020 OVC055 01/M01 A2931 RMK SC7SC1 SLP930

CYYZ;2009-02-19 08:00;CYYZ 190800Z 27014G20KT 15SM BKN018 OVC047 01/M03 A2932 RMK SC6SC2 SLP934

CYYZ;2009-02-19 09:00;CYYZ 190900Z 27015G21KT 15SM BKN018 OVC042 M00/M04 A2933 RMK SC7SC1 SLP940

CYYZ;2009-02-19 10:00;CYYZ 191000Z 27019KT 15SM BKN018 OVC100 M02/M06 A2935 RMK SC7AC1 SLP946

CYYZ;2009-02-19 11:00;CYYZ 191100Z 30021G27KT 15SM OVC022 M03/M08 A2936 RMK SC8 SLP950

CYYZ;2009-02-19 12:00;CYYZ 191200Z 29021G28KT 15SM BKN028 BKN140 M04/M09 A2938 RMK SC5AC2 SLP958

CYYZ;2009-02-19 13:00;CYYZ 191300Z 30019KT 15SM SCT030 BKN100 BKN120 M05/M10 A2941 RMK SC3AC2AC1 SLP966

CYYZ;2009-02-19 14:00;CYYZ 191400Z 27016G21KT 15SM FEW025 FEW030 BKN130 M05/M11 A2943 RMK CU1SC2AC2 SLP974

CYYZ;2009-02-19 15:00;CYYZ 191500Z 27017G22KT 15SM FEW025 FEW030 BKN130 M05/M11 A2945 RMK CU1SC2AC2 SLP982

CYYZ;2009-02-19 16:00;CYYZ 191600Z 27017G28KT 15SM SCT033 BKN100 M05/M11 A2947 RMK SC3AC2 CU ASOCTD SLP987

CYYZ;2009-02-19 17:00;CYYZ 191700Z 27020G27KT 15SM BKN027 BKN080 M06/M12 A2949 RMK SC6AC2 SLP994

CYYZ;2009-02-19 17:41;CYYZ 191741Z 27020G29KT 8SM -SN BKN021 OVC035 M06/ RMK SC6SC2 VRY LGT SN

CYYZ;2009-02-19 18:00;CYYZ 191800Z 26019G28KT 3SM -SN BKN020 OVC035 M06/M13 A2950 RMK SC6SC2 SLP999

CYYZ;2009-02-19 19:00;CYYZ 191900Z 25019G25KT 6SM -SN BKN028 OVC120 M07/M12 A2952 RMK SC5AS3 SUN DIMILY VSBL SLP003

CYYZ;2009-02-19 19:12;CYYZ 191912Z 25020G25KT 3SM -SN BKN018 OVC120 M07/ RMK SC6AS2 SUN DIMILY VSBL

CYYZ;2009-02-19 19:38;CYYZ 191938Z 27018G25KT 3/4SM R23/3000V6000FT/D R24L/4000V6000FT/D -SN VV007 M08/ RMK SN8 RNY 33L 4000-6000 FT D - RNY 33R 4000-6000 FT D

CYYZ;2009-02-19 20:00;CYYZ 192000Z 27018G27KT 2SM -SN BKN017 OVC100 M07/M12 A2953 RMK SN1SC6AS1 SLP007

CYYZ;2009-02-19 21:00;CYYZ 192100Z 27019G25KT 6SM -SN BKN025 BKN035 BKN140 M07/M12 A2954 RMK SC5SC1AS2 SUN DIMILY VSBL SLP013

CYYZ;2009-02-19 21:46;CYYZ 192146Z 28016KT 1 1/2SM -SN VV009 M07/ RMK SN8

CYYZ;2009-02-19 21:55;CYYZ 192155Z 28014G19KT 4SM -SN BKN025 OVC045 M07/ RMK SC6SC2

CYYZ;2009-02-19 22:00;CYYZ 192200Z 29014G20KT 10SM -SN BKN025 BKN042 M07/M12 A2956 RMK SC5SC2 SLP019

CYYZ;2009-02-19 22:23;CYYZ 192223Z 28015G25KT 1 1/2SM -SN OVC014 M07/ RMK SN2SC6

CYYZ;2009-02-19 22:44;CYYZ 192244Z 26007KT 1 1/4SM -SN VV006 M07/ RMK SN8

CYYZ;2009-02-19 22:54;CYYZ 192254Z 26014KT 2SM -SN BKN018 OVC025 M07/ RMK SN3SC3SC2

CYYZ;2009-02-19 23:00;CYYZ 192300Z 28019G27KT 2SM -SN DRSN OVC024 M07/M11 A2957 RMK SN3SC5 SLP023

CYYZ;2009-02-19 23:06;CYYZ 192306Z 29020G27KT 6SM -SN DRSN FEW018 SCT028 OVC050 M07/ RMK SF2SF2SC5

CYYZ;2009-02-20 00:00;CYYZ 200000Z 28019G25KT 15SM -SHSN DRSN BKN035 OVC060 M07/M12 A2959 RMK SF5SC2 SLP031

CYYZ;2009-02-20 00:44;CYYZ 200044Z 28019G31KT 15SM DRSN FEW035 BKN087 M07/ RMK SF1AC6

CYYZ;2009-02-20 01:00;CYYZ 200100Z 28020G29KT 15SM DRSN FEW030 FEW050 BKN085 M07/M13 A2961 RMK SF1SF2AC2 SLP035

CYYZ;2009-02-20 02:00;CYYZ 200200Z 28023G30KT 15SM FEW030 BKN085 M07/M13 A2962 RMK SF1AC4 SLP039

CYYZ;2009-02-20 03:00;CYYZ 200300Z 27020G26KT 15SM FEW030 BKN140 M07/M13 A2963 RMK SF2AC3 SLP043

CYYZ;2009-02-20 04:00;CYYZ 200400Z 27023G32KT 15SM FEW025 BKN130 M07/M13 A2962 RMK SF1AC6 SLP042

CYYZ;2009-02-20 05:00;CYYZ 200500Z 28023G32KT 15SM FEW030 OVC100 M08/M13 A2962 RMK SF1AC7 SLP041

CYYZ;2009-02-20 06:00;CYYZ 200600Z 27025G31KT 15SM FEW030 OVC060 M08/M13 A2962 RMK SF1SC8 SLP042

CYYZ;2009-02-20 07:00;CYYZ 200700Z 28021G26KT 15SM VCSH OVC041 M07/M13 A2963 RMK SC8 SLP044

CYYZ;2009-02-20 07:18;CYYZ 200718Z 28021G27KT 12SM -SHSN OVC035 M07/ RMK SC8

CYYZ;2009-02-20 08:00;CYYZ 200800Z 29018KT 1 1/4SM -SHSN DRSN VV014 M08/M12 A2964 RMK SN8 SLP047

CYYZ;2009-02-20 08:20;CYYZ 200820Z 33007G15KT 2SM -SHSN DRSN SCT010 OVC014 M08/ RMK SN1SF2SC5

CYYZ;2009-02-20 08:31;CYYZ 200831Z 31008KT 3SM -SHSN FEW009 OVC018 M08/ RMK SN1SF2SC6

CYYZ;2009-02-20 09:00;CYYZ 200900Z 30011KT 15SM -SHSN FEW025 BKN038 OVC055 M08/M12 A2964 RMK SF2SC4SC2 SLP050

CYYZ;2009-02-20 09:39;CYYZ 200939Z 30018G24KT 15SM DRSN FEW030 OVC080 M08/ RMK SC1AS7

CYYZ;2009-02-20 10:00;CYYZ 201000Z 30017G24KT 15SM DRSN FEW030 BKN055 OVC065 M08/M14 A2966 RMK SC1SC6SC2 SLP054

CYYZ;2009-02-20 11:00;CYYZ 201100Z 30015KT 15SM DRSN FEW030 OVC095 M09/M14 A2967 RMK SC2AC6 SLP057

CYYZ;2009-02-20 12:00;CYYZ 201200Z 31012KT 15SM DRSN FEW030 OVC090 M08/M14 A2969 RMK SC1AC7 SLP064

CYYZ;2009-02-20 13:00;CYYZ 201300Z 31010KT 15SM FEW025 BKN083 M08/M13 A2971 RMK SC1AC5 SLP070

CYYZ;2009-02-20 14:00;CYYZ 201400Z 32009KT 15SM FEW025 BKN080 M07/M12 A2972 RMK SC1AC5 SLP076

CYYZ;2009-02-20 15:00;CYYZ 201500Z 30018G24KT 15SM BKN030 BKN080 M05/M11 A2974 RMK SC5AC2 SLP081

CYYZ;2009-02-20 16:00;CYYZ 201600Z 30020G28KT 15SM SCT035 BKN100 M04/M11 A2975 RMK SC3AC1 SLP085

CYYZ;2009-02-20 17:00;CYYZ 201700Z 29021G28KT 15SM SCT036 BKN100 M03/M10 A2977 RMK SC4AC2 SLP090

CYYZ;2009-02-20 18:00;CYYZ 201800Z 29021G30KT 15SM SCT035 SCT100 M03/M10 A2977 RMK SC4AC1 SLP091

CYYZ;2009-02-20 19:00;CYYZ 201900Z 30026G36KT 15SM SCT041 M03/M10 A2977 RMK SC4 SLP090

CYYZ;2009-02-20 20:00;CYYZ 202000Z 29022G32KT 15SM SCT038 M03/M09 A2979 RMK SC4 SLP098

CYYZ;2009-02-20 21:00;CYYZ 202100Z 29028G38KT 15SM FEW035 M03/M10 A2981 RMK SC2 SLP106

CYYZ;2009-02-20 22:00;CYYZ 202200Z 29021G29KT 15SM FEW035 M03/M10 A2985 RMK SC2 SLP119

CYYZ;2009-02-20 23:00;CYYZ 202300Z 29019G27KT 8SM -SHSN BKN034 M04/M10 A2989 RMK SC5 SLP130

CYYZ;2009-02-20 23:32;CYYZ 202332Z 29020G25KT 15SM FEW025 FEW035 FEW270 M04/ RMK SF1SF2CI1

CYYZ;2009-02-21 00:00;CYYZ 210000Z 28015G21KT 15SM FEW025 FEW270 M05/M10 A2993 RMK SF1CI1 SLP146

CYYZ;2009-02-21 01:00;CYYZ 210100Z 28012KT 15SM FEW030 M05/M11 A2995 RMK SF1 SLP154

CYYZ;2009-02-21 02:00;CYYZ 210200Z 28011KT 15SM FEW030 M06/M11 A2998 RMK SF1 SLP161

CYYZ;2009-02-21 03:00;CYYZ 210300Z 28009KT 15SM SKC M06/M11 A3000 RMK SLP168

CYYZ;2009-02-21 04:00;CYYZ 210400Z 27009KT 15SM FEW040 M07/M11 A3001 RMK SC1 SLP171

CYYZ;2009-02-21 05:00;CYYZ 210500Z 27010KT 15SM FEW030 M07/M11 A3002 RMK SF1 SLP175

CYYZ;2009-02-21 06:00;CYYZ 210600Z 27010KT 15SM SKC M07/M11 A3004 RMK SLP181

CYYZ;2009-02-21 07:00;CYYZ 210700Z 26008KT 15SM SKC M08/M12 A3006 RMK SLP189

CYYZ;2009-02-21 08:00;CYYZ 210800Z 26006KT 15SM SKC M09/M13 A3008 RMK SLP197

CYYZ;2009-02-21 09:00;CYYZ 210900Z 27008KT 15SM SKC M09/M13 A3010 RMK SLP204

CYYZ;2009-02-21 10:00;CYYZ 211000Z 25007KT 15SM SKC M10/M14 A3012 RMK SLP209

CYYZ;2009-02-21 11:00;CYYZ 211100Z 24005KT 15SM SKC M10/M13 A3013 RMK SLP214

CYYZ;2009-02-21 12:00;CYYZ 211200Z 23003KT 15SM FEW220 M11/M14 A3014 RMK CI0 SLP217

CYYZ;2009-02-21 13:00;CYYZ 211300Z 28002KT 15SM FEW220 M09/M12 A3018 RMK CI0 SLP230

CYYZ;2009-02-21 14:00;CYYZ 211400Z 29003KT 15SM BKN230 M07/M11 A3017 RMK CI2 SLP229

CYYZ;2009-02-21 15:00;CYYZ 211500Z 15002KT 15SM BKN230 M04/M09 A3016 RMK CS5 SLP223

CYYZ;2009-02-21 16:00;CYYZ 211600Z 17003KT 15SM FEW030 BKN230 M03/M10 A3016 RMK SC1CS4 SLP223

CYYZ;2009-02-21 17:00;CYYZ 211700Z 15009KT 15SM FEW030 BKN230 M03/M09 A3011 RMK SC1CS3 SLP207

CYYZ;2009-02-21 18:00;CYYZ 211800Z 12009KT 15SM FEW016 OVC140 M03/M08 A3009 RMK SC2AS6 SLP201

CYYZ;2009-02-21 19:00;CYYZ 211900Z CCA 13008KT 15SM FEW022 OVC090 M02/M08 A3006 RMK SC2AS6 SLP190

CYYZ;2009-02-21 20:00;CYYZ 212000Z 13010G15KT 15SM SCT020 OVC065 M02/M08 A3004 RMK SC3NS5 SLP183

CYYZ;2009-02-21 21:00;CYYZ 212100Z 11016KT 15SM SCT020 OVC040 M02/M07 A2998 RMK SC3NS5 SLP161

CYYZ;2009-02-21 21:15;CYYZ 212115Z 12015G20KT 3SM -SN SCT016 OVC020 M02/ RMK SC3NS5

CYYZ;2009-02-21 21:26;CYYZ 212126Z 10016KT 2SM -SN SCT018 OVC020 M02/ RMK SC3NS5

CYYZ;2009-02-21 21:46;CYYZ 212146Z 11009G17KT 1 1/2SM -SN OVC015 M02/ RMK NS8

CYYZ;2009-02-21 22:00;CYYZ 212200Z CCA 12011G16KT 3/4SM R05/5000FT/N R06R/4000FT/N -SN VV010 M03/M07 A2995 RMK SN8 SLP153

CYYZ;2009-02-21 22:07;CYYZ 212207Z 11009G17KT 1/2SM SN VV005 M03/ RMK SN8

CYYZ;2009-02-21 22:40;CYYZ 212240Z 12014KT 1/2SM SN VV003 M03/ RMK SN8

CYYZ;2009-02-21 22:49;CYYZ 212249Z 13010G17KT 3/8SM SN VV003 M03/ RMK SN8

CYYZ;2009-02-21 23:00;CYYZ 212300Z 13011G16KT 3/8SM R05/P6000FT/U R06R/6000FT/U SN OVC005 M03/M05 A2995 RMK SN4ST4 RVR R15L/6000FT/U R15R/6000FT/U SLP151

CYYZ;2009-02-21 23:18;CYYZ 212318Z 12010G17KT 1SM R05/P6000FT/D R06R/P6000FT/D -SN OVC008 M02/ RESN RMK SN4SF4 RWY R15L/P6000FT/D R15R/4500VP6000FT/D

CYYZ;2009-02-21 23:38;CYYZ 212338Z 11011KT 2SM -SN SCT006 OVC008 M02/ RESN RMK SN2SF2SC4

CYYZ;2009-02-22 00:00;CYYZ 220000Z 12011G17KT 2 1/2SM -SN BKN005 OVC008 M02/M04 A2992 RESN RMK SF5ST3 /S03/ SLP143

CYYZ;2009-02-22 00:35;CYYZ 220035Z 12011G16KT 3SM -SN BKN007 OVC011 M02/ RMK SF5ST3

CYYZ;2009-02-22 01:00;CYYZ 220100Z 11012KT 5SM -SN BKN008 OVC014 M02/M04 A2989 RMK SF5SC3 SLP133

CYYZ;2009-02-22 01:36;CYYZ 220136Z 10010KT 6SM -SN SCT014 OVC021 M02/ RMK SC3SC5

CYYZ;2009-02-22 01:46;CYYZ 220146Z 18007KT 4SM -SN BKN007 OVC018 M02/ RMK SF5SC3

CYYZ;2009-02-22 02:00;CYYZ 220200Z 11009KT 3SM -SN SCT009 OVC015 M02/M04 A2987 RMK SF3SC5 SLP126

CYYZ;2009-02-22 03:00;CYYZ 220300Z 11008KT 5SM -SN BKN018 OVC031 M01/M03 A2984 RMK SC5SC3 SLP114

CYYZ;2009-02-22 03:34;CYYZ 220334Z 14008KT 3SM -SN BKN013 OVC022 M01/ RMK SC5SC3

CYYZ;2009-02-22 04:00;CYYZ 220400Z 15010KT 3SM -SN BKN012 OVC022 M01/M03 A2984 RMK SC5SC3 SLP112

CYYZ;2009-02-22 04:10;CYYZ 220410Z 16006KT 1 1/4SM -SN BKN007 OVC022 M01/ RMK SF5SC3

CYYZ;2009-02-22 04:43;CYYZ 220443Z 17011KT 3SM -SN BKN007 OVC018 M01/ RMK SF5SC3

CYYZ;2009-02-22 05:00;CYYZ 220500Z 18008KT 4SM -SN SCT006 BKN025 OVC041 M01/M03 A2982 RMK SF3SC2SC2 SLP107

CYYZ;2009-02-22 05:50;CYYZ 220550Z 22014KT 7SM SCT014 BKN039 BKN140 M01/ RMK SC3SC2AC1

CYYZ;2009-02-22 06:00;CYYZ 220600Z CCA 22016KT 8SM BKN038 BKN140 M02/M04 A2983 RMK SC5AC2 /S01/ SLP109

CYYZ;2009-02-22 07:00;CYYZ 220700Z 22013KT 10SM DRSN BKN024 BKN071 OVC210 M04/M09 A2984 RMK SC5AC2CI1 SLP113

CYYZ;2009-02-22 08:00;CYYZ 220800Z 22017G24KT 10SM DRSN BKN026 BKN180 OVC210 M04/M10 A2985 RMK SC5AC2CI1 SLP115

CYYZ;2009-02-22 09:00;CYYZ 220900Z 23012G18KT 10SM DRSN OVC026 M05/M10 A2985 RMK SC8 SLP118

CYYZ;2009-02-22 10:00;CYYZ 221000Z 22010KT 10SM OVC028 M04/M09 A2985 RMK SC8 SLP116

CYYZ;2009-02-22 10:37;CYYZ 221037Z 20012G19KT 10SM -SHSN DRSN BKN026 BKN034 M04/ RMK SC5SC2

CYYZ;2009-02-22 11:00;CYYZ 221100Z 21017KT 10SM -SHSN DRSN FEW027 BKN069 M04/M09 A2983 RMK SC2AC5 SLP112

CYYZ;2009-02-22 12:00;CYYZ 221200Z 20010G21KT 3SM -SHSN DRSN FEW032 OVC066 M04/M09 A2983 RMK SF2AS6 SLP112

CYYZ;2009-02-22 13:00;CYYZ 221300Z 20013G19KT 3SM -SHSN DRSN FEW015 BKN030 M04/M08 A2984 RMK SF2SC6 SLP113

CYYZ;2009-02-22 13:19;CYYZ 221319Z 20012G17KT 2SM -SHSN DRSN OVC020 M04/ RMK SN2SC6

CYYZ;2009-02-22 14:00;CYYZ 221400Z 21014KT 1 1/2SM -SHSN DRSN FEW010 OVC020 M04/M07 A2984 RMK SF1SC6 SLP115

CYYZ;2009-02-22 14:27;CYYZ 221427Z 21011G16KT 3SM -SHSN DRSN FEW010 OVC028 M04/ RMK SF1SC7

CYYZ;2009-02-22 15:00;CYYZ 221500Z 23013KT 12SM -SHSN DRSN FEW012 FEW025 BKN070 M03/M06 A2984 RMK SF1SF2AC6 SLP114

CYYZ;2009-02-22 16:00;CYYZ 221600Z 24015G20KT 10SM -SHSN DRSN OVC028 M03/M08 A2985 RMK SC8 SLP117

CYYZ;2009-02-22 16:46;CYYZ 221646Z 23013G22KT 15SM DRSN OVC025 M03/ RMK SC8

CYYZ;2009-02-22 17:00;CYYZ 221700Z 23017KT 15SM DRSN BKN027 M03/M08 A2987 RMK SC7 SLP122

CYYZ;2009-02-22 17:45;CYYZ 221745Z 25025KT 12SM -SHSN DRSN OVC031 M03/ RMK SC8

CYYZ;2009-02-22 18:00;CYYZ 221800Z 25021G27KT 12SM -SHSN DRSN OVC031 M03/M08 A2987 RMK SC8 SLP123

CYYZ;2009-02-22 19:00;CYYZ 221900Z 25024G29KT 10SM -SHSN DRSN FEW028 BKN067 M03/M08 A2988 RMK SF1AC6 SLP126

CYYZ;2009-02-22 19:49;CYYZ 221949Z 25020G25KT 1 1/2SM R15L/4500VP6000FT/D R15R/3500VP6000FT/D -SHSN DRSN OVC023 M04/ RMK SC8 RVR R23/4500VP6000FT/D R24L/P6000FT/N R24R/P6000FT/D

CYYZ;2009-02-22 20:00;CYYZ 222000Z 28012G21KT 1 1/2SM R15L/P6000FT/N R15R/4500VP6000FT/U -SHSN DRSN VV016 M04/M08 A2991 RMK SN8 RVR R23/P6000FT/N R24L/3500V6000FT/U R24R/P6000FT/D SLP136

CYYZ;2009-02-22 20:16;CYYZ 222016Z 27015G24KT 3SM -SHSN DRSN FEW019 OVC027 M04/ RMK SF1SC7

CYYZ;2009-02-22 20:21;CYYZ 222021Z 27017G24KT 1 1/4SM R23/4000VP6000FT/D R24L/6000FT/U -SHSN DRSN BKN018 OVC028 M04/ RMK SN2SF3SC2

CYYZ;2009-02-22 20:27;CYYZ 222027Z 27019G24KT 4SM R23/4500VP6000FT/U R24L/3000VP6000FT/U -SHSN DRSN FEW018 BKN030 BKN050 M04/ RMK SF1SC5SC1

CYYZ;2009-02-22 20:50;CYYZ 222050Z 26020G25KT 15SM DRSN VCSH FEW033 FEW050 M04/ RMK SC2SC1

CYYZ;2009-02-22 21:00;CYYZ 222100Z 27021KT 12SM DRSN VCSH BKN025 BKN045 BKN070 M04/M08 A2993 RMK SC5SC2AC1 SLP145

CYYZ;2009-02-22 22:00;CYYZ 222200Z 28021G26KT 15SM DRSN BKN033 BKN080 M03/M09 A2996 RMK SC6AC2 SLP156

CYYZ;2009-02-22 23:00;CYYZ 222300Z 29020G28KT 15SM DRSN VCSH FEW030 BKN043 BKN080 M04/M10 A3000 RMK SC2SC3AC1 SLP167

CYYZ;2009-02-23 00:00;CYYZ 230000Z 28018KT 15SM DRSN FEW080 M05/M11 A3002 RMK AC1 SLP177

CYYZ;2009-02-23 01:00;CYYZ 230100Z 28015G20KT 15SM FEW080 M06/M12 A3005 RMK AC1 SLP187

CYYZ;2009-02-23 02:00;CYYZ 230200Z 29015KT 15SM DRSN SKC M06/M12 A3007 RMK SLP192

CYYZ;2009-02-23 03:00;CYYZ 230300Z 30015KT 15SM SKC M07/M12 A3008 RMK SLP197

CYYZ;2009-02-23 04:00;CYYZ 230400Z 30020KT 15SM FEW080 M07/M12 A3010 RMK AC1 SLP201

CYYZ;2009-02-23 05:00;CYYZ 230500Z 30017KT 15SM FEW025 FEW080 M07/M13 A3012 RMK SC1AC1 SLP208

CYYZ;2009-02-23 06:00;CYYZ 230600Z 29015G22KT 15SM FEW080 M08/M14 A3013 RMK AC1 SLP215

CYYZ;2009-02-23 07:00;CYYZ 230700Z 30017KT 15SM FEW080 M09/M15 A3016 RMK AC1 SLP222

CYYZ;2009-02-23 08:00;CYYZ 230800Z 31017G25KT 15SM FEW080 M09/M15 A3016 RMK AC1 SLP223

CYYZ;2009-02-23 09:00;CYYZ 230900Z 30014KT 15SM BKN024 M09/M15 A3017 RMK SC5 SLP229

CYYZ;2009-02-23 10:00;CYYZ 231000Z 30012KT 15SM BKN025 M10/M15 A3020 RMK SC5 SLP237

CYYZ;2009-02-23 11:00;CYYZ 231100Z 30015KT 15SM FEW012 M10/M16 A3022 RMK SC2 SLP244

CYYZ;2009-02-23 12:00;CYYZ 231200Z 31011KT 15SM FEW015 M11/M16 A3024 RMK SF1 SLP253

CYYZ;2009-02-23 13:00;CYYZ 231300Z 32016KT 15SM FEW015 M10/M15 A3028 RMK SF1 SLP264

CYYZ;2009-02-23 14:00;CYYZ 231400Z 34022G28KT 15SM FEW018 M10/M15 A3030 RMK SF1 SLP271

CYYZ;2009-02-23 15:00;CYYZ 231500Z 34022G32KT 15SM FEW025 M09/M15 A3031 RMK SF1 SLP276

CYYZ;2009-02-23 16:00;CYYZ 231600Z 33024KT 15SM FEW027 M08/M14 A3033 RMK SF1 SLP283

CYYZ;2009-02-23 17:00;CYYZ 231700Z 33023G29KT 15SM FEW030 M08/M15 A3033 RMK SF1 SLP282

CYYZ;2009-02-23 18:00;CYYZ 231800Z 32019G25KT 15SM FEW030 M07/M15 A3032 RMK SF1 SLP280

CYYZ;2009-02-23 19:00;CYYZ 231900Z 32019G28KT 15SM FEW036 M06/M14 A3033 RMK SF1 SLP281

CYYZ;2009-02-23 20:00;CYYZ 232000Z 31021KT 15SM FEW033 M06/M14 A3034 RMK SF1 SLP285

CYYZ;2009-02-23 21:00;CYYZ 232100Z 31019G26KT 15SM FEW030 M07/M15 A3035 RMK SF1 SLP289

CYYZ;2009-02-23 22:00;CYYZ 232200Z 31019G27KT 15SM FEW028 M07/M16 A3036 RMK SF1 SLP294

CYYZ;2009-02-23 23:00;CYYZ 232300Z 32019G24KT 15SM FEW025 M08/M16 A3038 RMK SF1 SLP299

CYYZ;2009-02-24 00:00;CYYZ 240000Z 31013G18KT 15SM SKC M09/M16 A3040 RMK SLP306

CYYZ;2009-02-24 01:00;CYYZ 240100Z 31016KT 15SM SKC M10/M16 A3041 RMK SLP311

CYYZ;2009-02-24 02:00;CYYZ 240200Z 31013KT 15SM SKC M10/M16 A3042 RMK SLP315

CYYZ;2009-02-24 03:00;CYYZ 240300Z 32012KT 15SM SKC M10/M16 A3042 RMK SLP313

CYYZ;2009-02-24 04:00;CYYZ 240400Z 31010KT 15SM SKC M10/M16 A3042 RMK SLP314

CYYZ;2009-02-24 05:00;CYYZ 240500Z 33013KT 15SM SKC M10/M16 A3043 RMK SLP317

CYYZ;2009-02-24 06:00;CYYZ 240600Z 31009KT 15SM SKC M11/M16 A3044 RMK SLP321

CYYZ;2009-02-24 07:00;CYYZ 240700Z 30008KT 15SM SKC M12/M17 A3044 RMK SLP322

CYYZ;2009-02-24 08:00;CYYZ 240800Z 29007KT 15SM SKC M13/M18 A3044 RMK SLP320

CYYZ;2009-02-24 09:00;CYYZ 240900Z 31007KT 15SM SKC M13/M18 A3043 RMK SLP319

CYYZ;2009-02-24 10:00;CYYZ 241000Z 29005KT 15SM SKC M14/M19 A3044 RMK SLP321

CYYZ;2009-02-24 11:00;CYYZ 241100Z 28005KT 15SM SKC M14/M19 A3045 RMK SLP324

CYYZ;2009-02-24 12:00;CYYZ 241200Z 28006KT 15SM FEW230 M14/M18 A3046 RMK CI1 SLP330

CYYZ;2009-02-24 13:00;CYYZ 241300Z 28004KT 15SM FEW140 FEW230 M13/M17 A3049 RMK AC1CI1 SLP338

CYYZ;2009-02-24 14:00;CYYZ 241400Z 31004KT 15SM FEW140 FEW230 M11/M16 A3049 RMK AC1CI0 SLP341

CYYZ;2009-02-24 15:00;CYYZ 241500Z 30003KT 15SM FEW140 BKN230 M10/M15 A3049 RMK AC1CI2 SLP339

CYYZ;2009-02-24 16:00;CYYZ 241600Z 29002KT 15SM FEW140 FEW200 SCT230 M08/M14 A3048 RMK AC1CC1CI1 AC CC TR SLP335

CYYZ;2009-02-24 17:00;CYYZ 241700Z 00000KT 15SM FEW030 FEW140 FEW210 SCT250 M06/M14 A3047 RMK SC1AC1CC1CI0 SLP331

CYYZ;2009-02-24 18:00;CYYZ 241800Z 00000KT 15SM FEW030 FEW100 BKN230 M05/M13 A3044 RMK SC2AC1CI1 SLP322

CYYZ;2009-02-24 19:00;CYYZ 241900Z 25002KT 15SM SCT033 SCT100 BKN230 M04/M13 A3042 RMK SC3AC1CI1 AC TR SLP314

CYYZ;2009-02-24 20:00;CYYZ 242000Z 22004KT 15SM FEW035 FEW100 BKN230 M03/M12 A3040 RMK SC2AC1CI1 AC TR SLP306

CYYZ;2009-02-24 21:00;CYYZ 242100Z 15008KT 15SM FEW040 SCT250 M03/M11 A3040 RMK SC1CI1 SLP305

CYYZ;2009-02-24 22:00;CYYZ 242200Z 14006KT 15SM FEW040 BKN230 M04/M11 A3039 RMK SC1CI4 SLP302

CYYZ;2009-02-24 23:00;CYYZ 242300Z 15004KT 15SM SCT180 BKN220 M04/M11 A3038 RMK AC3CI1 SLP299

CYYZ;2009-02-25 00:00;CYYZ 250000Z 23005KT 15SM SCT120 BKN220 M04/M13 A3038 RMK AC3CI1 SLP300

CYYZ;2009-02-25 01:00;CYYZ 250100Z 23006KT 15SM BKN090 BKN220 M04/M13 A3036 RMK AC6CI1 SLP295

CYYZ;2009-02-25 02:00;CYYZ 250200Z 22007KT 15SM BKN100 BKN220 M04/M11 A3035 RMK AC6CI1 SLP291

CYYZ;2009-02-25 03:00;CYYZ 250300Z 22004KT 15SM BKN100 BKN220 M04/M11 A3035 RMK AC5CI1 SLP288

CYYZ;2009-02-25 04:00;CYYZ 250400Z 19006KT 15SM BKN090 BKN200 M04/M11 A3034 RMK AC5CI1 SLP284

CYYZ;2009-02-25 05:00;CYYZ 250500Z 18004KT 15SM BKN090 BKN200 M05/M12 A3034 RMK AC5CI2 SLP287

CYYZ;2009-02-25 06:00;CYYZ 250600Z 21008KT 15SM BKN090 BKN200 M05/M13 A3034 RMK AC5CI2 SLP283

CYYZ;2009-02-25 07:00;CYYZ 250700Z 19004KT 15SM BKN120 BKN200 M05/M12 A3035 RMK AC5CI2 SLP288

CYYZ;2009-02-25 08:00;CYYZ 250800Z 18005KT 15SM BKN100 BKN200 M05/M11 A3034 RMK AC5CI0 SLP283

CYYZ;2009-02-25 09:00;CYYZ 250900Z 00000KT 15SM SCT100 BKN200 M06/M11 A3034 RMK AC4CI0 SLP285

CYYZ;2009-02-25 10:00;CYYZ 251000Z 00000KT 15SM BKN110 BKN200 M07/M11 A3034 RMK AC5CI0 SLP285

CYYZ;2009-02-25 11:00;CYYZ 251100Z 18003KT 15SM FEW110 SCT200 M05/M11 A3033 RMK AC2CI0 SLP281

CYYZ;2009-02-25 12:00;CYYZ 251200Z 16003KT 15SM SCT120 M05/M10 A3032 RMK AC2 SLP279

CYYZ;2009-02-25 13:00;CYYZ 251300Z 17005KT 15SM FEW120 FEW250 M04/M10 A3032 RMK AC1CI1 SLP277

CYYZ;2009-02-25 14:00;CYYZ 251400Z 19005KT 15SM SCT260 M02/M09 A3031 RMK CI0 SLP276

CYYZ;2009-02-25 15:00;CYYZ 251500Z 20007KT 15SM SCT260 M01/M10 A3030 RMK CI1 SLP270

CYYZ;2009-02-25 16:00;CYYZ 251600Z 18004KT 15SM FEW230 SCT260 00/M10 A3028 RMK CI1CI0 SLP264

CYYZ;2009-02-25 17:00;CYYZ 251700Z 16008KT 15SM SCT220 BKN240 00/M09 A3025 RMK CI2CI1 SLP255

CYYZ;2009-02-25 18:00;CYYZ 251800Z 14010KT 15SM SCT220 BKN240 01/M09 A3023 RMK CI2CI1 SLP246

CYYZ;2009-02-25 19:00;CYYZ 251900Z 15009KT 15SM FEW140 BKN220 BKN240 02/M09 A3021 RMK AC2CI2CI1 SLP239

CYYZ;2009-02-25 20:00;CYYZ 252000Z 14009KT 15SM FEW140 BKN220 BKN240 02/M08 A3018 RMK AC2CI3CI1 SLP229

CYYZ;2009-02-25 21:00;CYYZ 252100Z 14008KT 15SM BKN093 BKN140 02/M07 A3016 RMK AC6AC2 SLP222

CYYZ;2009-02-25 22:00;CYYZ 252200Z 12008KT 15SM BKN078 BKN100 01/M07 A3013 RMK AC6AC2 SLP214

CYYZ;2009-02-25 23:00;CYYZ 252300Z 12006KT 15SM BKN084 BKN170 01/M07 A3010 RMK AC5AC2 SLP204

CYYZ;2009-02-26 00:00;CYYZ 260000Z 14002KT 15SM SCT034 OVC050 01/M06 A3011 RMK SC3SC5 SLP205

CYYZ;2009-02-26 00:23;CYYZ 260023Z 21003KT 15SM -SHSN SCT019 OVC035 01/ RMK SC3SC5

CYYZ;2009-02-26 00:39;CYYZ 260039Z 22005KT 2 1/2SM -RASN BKN008 OVC035 01/ RMK SC5SC3

CYYZ;2009-02-26 00:46;CYYZ 260046Z CCA 22010G16KT 1 1/2SM -RASN BKN005 OVC035 00/ RMK SF5SC3

CYYZ;2009-02-26 01:00;CYYZ 260100Z 20005KT 1 1/4SM -SN BKN005 OVC007 00/M04 A3012 RMK SF5SC3 SLP208

CYYZ;2009-02-26 01:20;CYYZ 260120Z 16005KT 1 3/4SM -SN SCT006 OVC008 00/ RMK SN2SF2SC4

CYYZ;2009-02-26 01:52;CYYZ 260152Z 15004KT 1 1/4SM -SN BKN003 OVC007 00/ RMK SN2SF2SC3

CYYZ;2009-02-26 02:00;CYYZ 260200Z 15006KT 1 1/4SM -SN BKN005 OVC009 00/M02 A3009 RMK SN3SF2SC2 SLP198

CYYZ;2009-02-26 02:15;CYYZ 260215Z 16006KT 3/4SM R23/P6000FT/U R24R/P6000FT/U -SN VV003 00/ RMK SN8

CYYZ;2009-02-26 02:31;CYYZ 260231Z 15004KT 3SM -SN BKN003 OVC008 00/ RMK SN2SF3SC3

CYYZ;2009-02-26 02:41;CYYZ 260241Z 16005KT 6SM -RASN BKN018 OVC052 00/ RMK SC5NS3

CYYZ;2009-02-26 03:00;CYYZ 260300Z 14004KT 10SM -RASN FEW036 OVC046 01/M01 A3007 RMK SC2SC6 /S01/ SLP189

CYYZ;2009-02-26 04:00;CYYZ 260400Z 13004KT 10SM -RA SCT038 OVC062 02/M00 A3004 RMK SC3SC5 SLP179

CYYZ;2009-02-26 05:00;CYYZ 260500Z 16004KT 10SM -RA OVC048 02/00 A3001 RMK SC8 SLP172

CYYZ;2009-02-26 06:00;CYYZ 260600Z 14002KT 10SM -RA OVC045 03/01 A3001 RMK SC8 SLP171

CYYZ;2009-02-26 06:18;CYYZ 260618Z 13002KT 10SM OVC043 03/ RMK SC8

CYYZ;2009-02-26 06:29;CYYZ 260629Z 00000KT 10SM OVC042 02/ RMK SC8

CYYZ;2009-02-26 07:00;CYYZ 260700Z 32004KT 10SM OVC038 01/M01 A3001 RMK SC8 SLP171

CYYZ;2009-02-26 08:00;CYYZ 260800Z 00000KT 10SM OVC047 01/M01 A3001 RMK SC8 SLP171

CYYZ;2009-02-26 09:00;CYYZ 260900Z 00000KT 10SM FEW041 01/M01 A3003 RMK SC2 SLP177

CYYZ;2009-02-26 10:00;CYYZ 261000Z 32005KT 10SM BKN033 M00/M02 A3005 RMK SC6 SLP184

CYYZ;2009-02-26 11:00;CYYZ 261100Z 27006KT 10SM BKN031 01/M01 A3009 RMK SC6 SLP195

CYYZ;2009-02-26 12:00;CYYZ 261200Z 27006KT 10SM BKN033 03/00 A3011 RMK SC7 SLP202

CYYZ;2009-02-26 13:00;CYYZ 261300Z 26006KT 10SM BKN032 02/M01 A3014 RMK SC7 SLP213

CYYZ;2009-02-26 14:00;CYYZ 261400Z 28007KT 12SM FEW030 FEW040 03/00 A3016 RMK SC1SC2 SLP218

CYYZ;2009-02-26 15:00;CYYZ 261500Z 28008KT 15SM FEW030 04/00 A3016 RMK SC1 SLP222

CYYZ;2009-02-26 16:00;CYYZ 261600Z 28004KT 15SM BKN030 04/M01 A3017 RMK SC6 CU ASOCTD SLP225

CYYZ;2009-02-26 17:00;CYYZ 261700Z 29005KT 15SM BKN036 05/M02 A3017 RMK SC7 SLP224

CYYZ;2009-02-26 18:00;CYYZ 261800Z 27006KT 15SM BKN031 05/M02 A3017 RMK SC7 SLP223

CYYZ;2009-02-26 19:00;CYYZ 261900Z 24005KT 15SM FEW025 BKN032 05/M02 A3016 RMK SC1SC6 SLP221

CYYZ;2009-02-26 20:00;CYYZ 262000Z 26002KT 15SM FEW030 BKN210 06/M02 A3015 RMK SC1CI2 SLP217

CYYZ;2009-02-26 21:00;CYYZ 262100Z 15005KT 15SM FEW032 BKN210 06/M02 A3013 RMK SC2CI3 SLP211

CYYZ;2009-02-26 22:00;CYYZ 262200Z 15005KT 15SM FEW030 BKN200 BKN230 05/M02 A3013 RMK SC1CI4CI1 SLP208

CYYZ;2009-02-26 23:00;CYYZ 262300Z CCA 12005KT 15SM FEW030 BKN200 OVC230 04/M02 A3010 RMK SC1CI4CI1 SLP201

CYYZ;2009-02-27 00:00;CYYZ 270000Z 10004KT 15SM BKN030 OVC210 04/M03 A3007 RMK SC6CI1 SLP188

CYYZ;2009-02-27 01:00;CYYZ 270100Z 12006KT 15SM BKN033 OVC220 03/M02 A3004 RMK SC6CS2 SLP178

CYYZ;2009-02-27 02:00;CYYZ 270200Z 12011KT 15SM FEW033 OVC180 03/M02 A2999 RMK SC2AS6 SLP162

CYYZ;2009-02-27 03:00;CYYZ 270300Z 12010G16KT 15SM OVC041 03/M01 A2996 RMK SC8 SLP151

CYYZ;2009-02-27 03:41;CYYZ 270341Z 11009KT 10SM -RA OVC039 03/ RMK SC8

CYYZ;2009-02-27 04:00;CYYZ 270400Z CCA 11008KT 8SM -RA OVC033 03/M00 A2989 RMK SC8 PRESFR SLP130

CYYZ;2009-02-27 05:00;CYYZ 270500Z 10010KT 10SM -RA OVC023 03/00 A2983 RMK SC8 PRESFR SLP109

CYYZ;2009-02-27 05:50;CYYZ 270550Z 11007KT 8SM -TSRA FEW027CB OVC029 03/ RMK CB1SC7

CYYZ;2009-02-27 06:00;CYYZ 270600Z 09008KT 8SM -TSRA FEW027CB OVC029 03/01 A2977 RMK CB1SC7 PRESFR SLP085

CYYZ;2009-02-27 06:19;CYYZ 270619Z 09006KT 8SM -RA OVC030 03/ RETS RMK SC8

CYYZ;2009-02-27 06:48;CYYZ 270648Z CCA 09009KT 8SM SCT045 BKN071 03/ RETS RMK SC3AC3

CYYZ;2009-02-27 07:00;CYYZ 270700Z 10005KT 8SM FEW058 BKN074 BKN170 03/01 A2970 RETS RMK SC2AC3AC2 PRESFR SLP063

CYYZ;2009-02-27 08:00;CYYZ 270800Z 10004KT 8SM -RA FEW045 OVC068 04/02 A2964 RMK SC2AS6 SLP045

CYYZ;2009-02-27 09:00;CYYZ 270900Z 13008KT 8SM -RA OVC047 05/03 A2956 RMK SC8 PRESFR SLP016

CYYZ;2009-02-27 10:00;CYYZ 271000Z 15007KT 8SM -RA SCT038 BKN049 OVC075 05/02 A2955 RMK SC3SC2AC3 SLP011

CYYZ;2009-02-27 11:00;CYYZ 271100Z 18011KT 8SM -RA FEW033 BKN071 OVC092 07/05 A2950 RERA RMK SC2AC3AS3 SLP996

CYYZ;2009-02-27 12:00;CYYZ 271200Z 20019G26KT 8SM -RA BKN015 OVC025 09/07 A2950 RMK SC5SC3 SLP993

CYYZ;2009-02-27 13:00;CYYZ 271300Z 20010G17KT 6SM -RA SCT012 OVC020 09/07 A2950 RMK SF3SC5 SLP993

CYYZ;2009-02-27 13:35;CYYZ 271335Z 22009KT 1 1/2SM -RA BR OVC010 09/ RMK FG3SF5

CYYZ;2009-02-27 14:00;CYYZ 271400Z 22008KT 2SM -RA BR OVC009 09/07 A2950 RMK FG2SF6 SLP994

CYYZ;2009-02-27 14:22;CYYZ 271422Z 21006KT 3SM -RA BR SCT007 OVC014 09/ RMK SF3SC5

CYYZ;2009-02-27 15:00;CYYZ 271500Z 22007KT 8SM -RA FEW015 OVC031 09/08 A2950 RMK SC2SC6 VRY LGT RA SLP994

CYYZ;2009-02-27 16:00;CYYZ 271600Z 27010KT 12SM -RA BKN015 OVC030 09/08 A2953 RMK SC7SC1 VRY LGT RA SLP004

CYYZ;2009-02-27 16:03;CYYZ 271603Z 27010KT 12SM BKN014 OVC030 09/ RMK SC7SC1

CYYZ;2009-02-27 16:47;CYYZ 271647Z 36020G25KT 15SM FEW015 BKN027 BKN040 04/ RMK SF1SC5SC2 WND SHIFT 1638 Z

CYYZ;2009-02-27 16:55;CYYZ 271655Z 35016G25KT 15SM -RA SCT012 BKN035 04/ RMK SC4SC3

CYYZ;2009-02-27 17:00;CYYZ 271700Z 36016G24KT 15SM -RA SCT012 BKN035 04/01 A2958 RMK SC4SC3 SLP022

CYYZ;2009-02-27 17:12;CYYZ 271712Z 36017G22KT 15SM FEW015 FEW040 SCT110 BKN220 04/ RMK CF1SC2AC2CI0

CYYZ;2009-02-27 18:00;CYYZ 271800Z 35023KT 15SM SCT011 BKN030 01/M02 A2965 RMK SC3SC2 PRESRR SLP046

CYYZ;2009-02-27 19:00;CYYZ 271900Z 34020G27KT 15SM FEW030 BKN058 BKN080 00/M04 A2970 RMK SC2SC3AC1 SLP063

CYYZ;2009-02-27 20:00;CYYZ 272000Z CCA 34025KT 15SM FEW030 BKN059 BKN080 M02/M08 A2977 RMK SC1SC5AC1 PRESRR SLP085

CYYZ;2009-02-27 21:00;CYYZ 272100Z 35018G24KT 15SM SCT020 BKN080 M05/M11 A2984 RMK SC3AC4 PRESRR SLP113

CYYZ;2009-02-27 22:00;CYYZ 272200Z 32025G30KT 15SM BKN022 BKN120 M06/M12 A2993 RMK SC6AC2 PRESRR SLP141

CYYZ;2009-02-27 23:00;CYYZ 272300Z CCA 33022G30KT 15SM BKN028 BKN140 M06/M12 A2999 RMK SC5AC1 PRESRR SLP163

CYYZ;2009-02-28 00:00;CYYZ 280000Z 33022G32KT 15SM BKN026 BKN120 M07/M13 A3007 RMK SC5AC1 PRESRR SLP188

CYYZ;2009-02-28 00:41;CYYZ 280041Z 34022G31KT 15SM -SN BKN027 M07/ RMK SC6

CYYZ;2009-02-28 01:00;CYYZ 280100Z 34025G31KT 15SM -SN BKN024 M07/M13 A3011 RMK SC6 SLP203

CYYZ;2009-02-28 01:22;CYYZ 280122Z 33023G31KT 15SM SCT024 M08/ RMK SC3

CYYZ;2009-02-28 02:00;CYYZ 280200Z 34024G29KT 15SM SCT021 M08/M14 A3017 RMK SC3 PRESRR SLP223

CYYZ;2009-02-28 03:00;CYYZ 280300Z 35026G32KT 15SM FEW021 M08/M15 A3021 RMK SC2 SLP238

CYYZ;2009-02-28 04:00;CYYZ 280400Z 35027G32KT 15SM FEW021 M10/M16 A3026 RMK SC2 SLP254

CYYZ;2009-02-28 05:00;CYYZ 280500Z 36019G29KT 15SM FEW021 M11/M18 A3029 RMK SC1 SLP266

CYYZ;2009-02-28 06:00;CYYZ 280600Z 36016G27KT 15SM FEW020 M12/M18 A3033 RMK SC1 SLP283

CYYZ;2009-02-28 07:00;CYYZ 280700Z 36013G19KT 15SM SKC M13/M19 A3036 RMK SLP293

CYYZ;2009-02-28 08:00;CYYZ 280800Z 35018KT 15SM SKC M14/M20 A3038 RMK SLP300

CYYZ;2009-02-28 09:00;CYYZ 280900Z 36012G17KT 15SM SKC M15/M21 A3039 RMK SLP304

CYYZ;2009-02-28 10:00;CYYZ 281000Z 02012KT 15SM SKC M15/M21 A3040 RMK SLP307

CYYZ;2009-02-28 11:00;CYYZ 281100Z 36013KT 15SM SKC M16/M22 A3042 RMK SLP315

CYYZ;2009-02-28 12:00;CYYZ 281200Z 02011G17KT 15SM SKC M16/M22 A3045 RMK SLP324

CYYZ;2009-02-28 13:00;CYYZ 281300Z 01013KT 15SM SKC M16/M22 A3047 RMK SLP331

CYYZ;2009-02-28 14:00;CYYZ 281400Z 35006KT 15SM SKC M15/M21 A3049 RMK SLP337

CYYZ;2009-02-28 15:00;CYYZ 281500Z 02007KT 15SM SKC M14/M21 A3047 RMK SLP332

CYYZ;2009-02-28 16:00;CYYZ 281600Z 36006KT 15SM SKC M12/M20 A3046 RMK SLP330

CYYZ;2009-02-28 17:00;CYYZ 281700Z 04008KT 15SM SKC M11/M19 A3044 RMK SLP323

CYYZ;2009-02-28 18:00;CYYZ 281800Z 02007KT 15SM SKC M09/M19 A3041 RMK SLP313

CYYZ;2009-02-28 19:00;CYYZ 281900Z 07004KT 15SM SKC M08/M19 A3038 RMK SLP301

CYYZ;2009-02-28 20:00;CYYZ 282000Z 14003KT 15SM FEW210 M07/M18 A3035 RMK CI1 SLP291

CYYZ;2009-02-28 21:00;CYYZ 282100Z 16009KT 15SM FEW210 M08/M16 A3034 RMK CI1 SLP290

CYYZ;2009-02-28 22:00;CYYZ 282200Z 12007KT 15SM FEW210 M08/M16 A3036 RMK CI0 SLP295

CYYZ;2009-02-28 23:00;CYYZ 282300Z 14005KT 15SM FEW210 M09/M16 A3037 RMK CI0 SLP297

CYYZ;2009-03-01 01:00;CYYZ 010100Z 04008KT 15SM FEW210 M09/M16 A3031 RMK CI0 SLP280

CYYZ;2009-03-01 02:00;CYYZ 010200Z 02006KT 15SM FEW220 M10/M15 A3030 RMK CI0 SLP275

CYYZ;2009-03-01 03:00;CYYZ 010300Z 02004KT 15SM SKC M10/M15 A3029 RMK SLP272

CYYZ;2009-03-01 04:00;CYYZ 010400Z 01006KT 15SM SKC M10/M15 A3029 RMK SLP273

CYYZ;2009-03-01 05:00;CYYZ 010500Z 36004KT 15SM SKC M10/M15 A3028 RMK SLP270

CYYZ;2009-03-01 06:00;CYYZ 010600Z 36009KT 15SM FEW220 M11/M15 A3027 RMK CI0 SLP264

CYYZ;2009-03-01 07:00;CYYZ 010700Z 36007KT 15SM SKC M11/M15 A3026 RMK SLP261

CYYZ;2009-03-01 08:00;CYYZ 010800Z 02005KT 15SM SKC M11/M15 A3024 RMK SLP254

CYYZ;2009-03-01 09:00;CYYZ 010900Z 01003KT 15SM SKC M11/M16 A3024 RMK SLP252

CYYZ;2009-03-01 10:00;CYYZ 011000Z 34003KT 15SM SKC M11/M16 A3024 RMK SLP252

CYYZ;2009-03-01 11:00;CYYZ 011100Z 33006KT 15SM FEW210 M12/M16 A3023 RMK CI0 FROIN SLP249

CYYZ;2009-03-01 12:00;CYYZ 011200Z 35011KT 15SM FEW020 FEW120 M11/M16 A3024 RMK SC1AC1 SLP254

CYYZ;2009-03-01 13:00;CYYZ 011300Z 36012KT 15SM FEW020 M11/M16 A3026 RMK SC1 SLP260

CYYZ;2009-03-01 14:00;CYYZ 011400Z 36014KT 15SM SKC M10/M15 A3026 RMK SLP261

CYYZ;2009-03-01 15:00;CYYZ 011500Z 34015KT 15SM SKC M07/M15 A3027 RMK SLP263

CYYZ;2009-03-01 16:00;CYYZ 011600Z 35014G20KT 15SM SKC M06/M16 A3026 RMK SLP260

CYYZ;2009-03-01 17:00;CYYZ 011700Z 01012G20KT 15SM FEW025 M06/M15 A3027 RMK SC1 SLP263

CYYZ;2009-03-01 18:00;CYYZ 011800Z 35010G21KT 15SM FEW035 M06/M15 A3026 RMK SC2 SLP258

CYYZ;2009-03-01 19:00;CYYZ 011900Z 34015G21KT 15SM SCT036 M05/M15 A3025 RMK SC3 SLP257

CYYZ;2009-03-01 20:00;CYYZ 012000Z CCA 35015G22KT 15SM SCT035 M05/M15 A3025 RMK SC3 CU ASOCTD SLP255

CYYZ;2009-03-01 21:00;CYYZ 012100Z 36014G21KT 15SM SCT038 M06/M15 A3029 RMK SC3 SLP269

CYYZ;2009-03-01 22:00;CYYZ 012200Z 33021KT 15SM FEW040 M06/M16 A3029 RMK SC2 SLP269

CYYZ;2009-03-01 23:00;CYYZ 012300Z 34020G28KT 15SM FEW040 M09/M17 A3031 RMK SC1 SLP276

CYYZ;2009-03-02 00:00;CYYZ 020000Z 34013G22KT 15SM FEW040 M09/M17 A3034 RMK SC1 SLP289

CYYZ;2009-03-02 01:00;CYYZ 020100Z 34022G27KT 15SM FEW030 M10/M17 A3033 RMK SC1 SLP283

CYYZ;2009-03-02 02:00;CYYZ 020200Z 34014G21KT 15SM SKC M10/M17 A3033 RMK SLP283

CYYZ;2009-03-02 03:00;CYYZ 020300Z 35015KT 15SM SKC M10/M17 A3035 RMK SLP290

CYYZ;2009-03-02 04:00;CYYZ 020400Z 36015KT 15SM FEW030 M11/M18 A3039 RMK SC0 SLP303

CYYZ;2009-03-02 05:00;CYYZ 020500Z 36017G22KT 15SM SKC M11/M18 A3035 RMK SLP290

CYYZ;2009-03-02 06:00;CYYZ 020600Z 01017KT 15SM SKC M12/M18 A3037 RMK SLP296

CYYZ;2009-03-02 07:00;CYYZ 020700Z 01018G24KT 15SM SKC M13/M18 A3032 RMK SLP282

CYYZ;2009-03-02 08:00;CYYZ 020800Z 01017G22KT 15SM SKC M13/M19 A3034 RMK SLP289

CYYZ;2009-03-02 09:00;CYYZ 020900Z 01013G18KT 15SM SKC M14/M19 A3040 RMK SLP306

CYYZ;2009-03-02 10:00;CYYZ 021000Z 36015KT 15SM SKC M14/M19 A3037 RMK SLP297

CYYZ;2009-03-02 11:00;CYYZ 021100Z 34019G27KT 15SM FEW240 M15/M20 A3036 RMK CI0 SLP294

CYYZ;2009-03-02 12:00;CYYZ 021200Z 36015G21KT 15SM FEW015 SCT270 M15/M20 A3037 RMK SC1CI2 SLP298

CYYZ;2009-03-02 13:00;CYYZ 021300Z 35017G22KT 15SM FEW015 FEW270 M15/M20 A3039 RMK SC1CI1 SLP304

CYYZ;2009-03-02 14:00;CYYZ 021400Z 35015G20KT 15SM FEW015 FEW270 M14/M20 A3041 RMK SC1CI1 SLP312

CYYZ;2009-03-02 15:00;CYYZ 021500Z 34015KT 15SM FEW015 FEW270 M13/M20 A3041 RMK SC1CI1 SLP311

CYYZ;2009-03-02 16:00;CYYZ 021600Z 01011G19KT 15SM FEW015 FEW270 M11/M21 A3039 RMK SC1CI1 SLP305

CYYZ;2009-03-02 17:00;CYYZ 021700Z 36018KT 15SM FEW015 FEW260 M11/M21 A3037 RMK SF1CI1 SLP299

CYYZ;2009-03-02 18:00;CYYZ 021800Z 34018KT 15SM FEW015 FEW260 M10/M21 A3035 RMK SC1CI1 SLP293

CYYZ;2009-03-02 19:00;CYYZ 021900Z 34019G27KT 15SM FEW020 FEW260 M10/M21 A3034 RMK SF1CI1 SLP287

CYYZ;2009-03-02 20:00;CYYZ 022000Z 34019G26KT 15SM FEW020 FEW260 M10/M21 A3031 RMK SF1CI1 SLP280

CYYZ;2009-03-02 21:00;CYYZ 022100Z 33019G26KT 15SM FEW020 FEW250 M11/M20 A3031 RMK SF1CI1 SLP278

CYYZ;2009-03-02 22:00;CYYZ 022200Z 35019G28KT 15SM FEW020 M11/M21 A3032 RMK SF1 SLP283

CYYZ;2009-03-02 23:00;CYYZ 022300Z 34021G28KT 15SM FEW020 M12/M20 A3034 RMK SF1 SLP288

CYYZ;2009-03-03 00:00;CYYZ 030000Z 34018KT 15SM SKC M13/M20 A3036 RMK SLP295

CYYZ;2009-03-03 01:00;CYYZ 030100Z 33017G25KT 15SM SKC M13/M20 A3036 RMK SLP296

CYYZ;2009-03-03 02:00;CYYZ 030200Z 35014G19KT 15SM SKC M13/M20 A3037 RMK SLP299

CYYZ;2009-03-03 03:00;CYYZ 030300Z 35020G27KT 15SM SKC M13/M22 A3037 RMK SLP299

CYYZ;2009-03-03 04:00;CYYZ 030400Z 35017G22KT 15SM SKC M13/M22 A3036 RMK SLP296

CYYZ;2009-03-03 05:00;CYYZ 030500Z 36016KT 15SM SKC M14/M22 A3037 RMK SLP298

CYYZ;2009-03-03 06:00;CYYZ 030600Z 35013G19KT 15SM SKC M14/M22 A3037 RMK SLP298

CYYZ;2009-03-03 07:00;CYYZ 030700Z 35015KT 15SM SKC M15/M23 A3038 RMK SLP303

CYYZ;2009-03-03 08:00;CYYZ 030800Z 35009KT 15SM SKC M15/M23 A3038 RMK SLP303

CYYZ;2009-03-03 09:00;CYYZ 030900Z 36010KT 15SM SKC M15/M23 A3040 RMK SLP309

CYYZ;2009-03-03 10:00;CYYZ 031000Z 34011KT 15SM SKC M15/M23 A3042 RMK SLP315

CYYZ;2009-03-03 11:00;CYYZ 031100Z 34011KT 15SM SKC M15/M22 A3043 RMK SLP319

CYYZ;2009-03-03 12:00;CYYZ 031200Z 35011KT 15SM SKC M15/M23 A3044 RMK SLP323

CYYZ;2009-03-03 13:00;CYYZ 031300Z 34012KT 15SM SKC M14/M22 A3045 RMK SLP327

CYYZ;2009-03-03 14:00;CYYZ 031400Z 33013KT 15SM SKC M12/M22 A3046 RMK SLP331

CYYZ;2009-03-03 15:00;CYYZ 031500Z 34011KT 15SM SKC M11/M21 A3046 RMK SLP329

CYYZ;2009-03-03 16:00;CYYZ 031600Z 34013KT 15SM SKC M10/M21 A3045 RMK SLP326

CYYZ;2009-03-03 17:00;CYYZ 031700Z 33010KT 15SM SKC M08/M21 A3045 RMK SLP325

CYYZ;2009-03-03 18:00;CYYZ 031800Z 34004KT 15SM SKC M07/M20 A3042 RMK SLP315

CYYZ;2009-03-03 19:00;CYYZ 031900Z 29007KT 15SM FEW020 FEW080 M05/M18 A3040 RMK SF1AC1 SLP309

CYYZ;2009-03-03 20:00;CYYZ 032000Z 27008KT 15SM FEW020 FEW220 M05/M18 A3039 RMK SF1CI1 SLP306

CYYZ;2009-03-03 21:00;CYYZ 032100Z 30011KT 15SM FEW025 FEW220 M05/M17 A3039 RMK SF1CI1 SLP304

CYYZ;2009-03-03 22:00;CYYZ 032200Z 28010G15KT 15SM FEW025 FEW220 M05/M17 A3039 RMK SF1CI1 SLP304

CYYZ;2009-03-03 23:00;CYYZ 032300Z 29016KT 15SM FEW030 FEW220 M06/M16 A3040 RMK SF1CI1 SLP306

CYYZ;2009-03-04 00:00;CYYZ 040000Z 30012KT 15SM FEW220 M07/M16 A3040 RMK CI1 SLP310

CYYZ;2009-03-04 01:00;CYYZ 040100Z 28008KT 15SM FEW220 M08/M15 A3040 RMK CI0 SLP310

CYYZ;2009-03-04 02:00;CYYZ 040200Z 29008KT 15SM SKC M08/M15 A3040 RMK SLP309

CYYZ;2009-03-04 03:00;CYYZ 040300Z 29006KT 15SM FEW160 M08/M14 A3040 RMK AC1 SLP309

CYYZ;2009-03-04 04:00;CYYZ 040400Z 31006KT 15SM FEW150 M09/M14 A3040 RMK AC2 SLP308

CYYZ;2009-03-04 05:00;CYYZ 040500Z 29004KT 15SM FEW150 M09/M14 A3039 RMK AC2 SLP305

CYYZ;2009-03-04 06:00;CYYZ 040600Z 27003KT 15SM FEW150 M10/M14 A3040 RMK AC2 SLP306

CYYZ;2009-03-04 07:00;CYYZ 040700Z 25002KT 15SM SKC M10/M15 A3040 RMK SLP305

CYYZ;2009-03-04 08:00;CYYZ 040800Z 25004KT 15SM SKC M12/M16 A3039 RMK SLP303

CYYZ;2009-03-04 09:00;CYYZ 040900Z 25006KT 15SM SKC M11/M17 A3039 RMK SLP302

CYYZ;2009-03-04 10:00;CYYZ 041000Z 25004KT 15SM SKC M11/M17 A3039 RMK SLP303

CYYZ;2009-03-04 11:00;CYYZ 041100Z 26007KT 15SM FEW230 M12/M17 A3040 RMK CI0 SLP306

CYYZ;2009-03-04 12:00;CYYZ 041200Z 28005KT 15SM FEW015 SCT230 M10/M15 A3041 RMK SF1CI1 SLP310

CYYZ;2009-03-04 13:00;CYYZ 041300Z 28008KT 15SM FEW230 M08/M13 A3041 RMK CI1 SLP312

CYYZ;2009-03-04 14:00;CYYZ 041400Z 29008KT 15SM FEW230 M06/M12 A3042 RMK CI1 SLP315

CYYZ;2009-03-04 15:00;CYYZ 041500Z 29006KT 15SM SKC M04/M13 A3041 RMK SLP310

CYYZ;2009-03-04 16:00;CYYZ 041600Z 27007KT 15SM FEW030 M02/M13 A3040 RMK CF1 SLP304

CYYZ;2009-03-04 17:00;CYYZ 041700Z 30007KT 15SM FEW035 M01/M14 A3038 RMK CF1 SLP299

CYYZ;2009-03-04 18:00;CYYZ 041800Z 27011KT 15SM SKC M00/M13 A3036 RMK SLP291

CYYZ;2009-03-04 19:00;CYYZ 041900Z 28008KT 15SM FEW260 01/M14 A3034 RMK CI0 SLP286

CYYZ;2009-03-04 20:00;CYYZ 042000Z 28010G15KT 15SM FEW260 01/M14 A3032 RMK CI1 SLP278

CYYZ;2009-03-04 21:00;CYYZ 042100Z 30009KT 15SM FEW260 01/M14 A3031 RMK CI1 SLP275

CYYZ;2009-03-04 22:00;CYYZ 042200Z 28007KT 15SM FEW260 01/M15 A3030 RMK CI1 SLP271

CYYZ;2009-03-04 23:00;CYYZ 042300Z 29007KT 15SM FEW260 M01/M14 A3030 RMK CI0 SLP272

CYYZ;2009-03-05 00:00;CYYZ 050000Z 31006KT 15SM FEW150 FEW260 M02/M14 A3030 RMK AC1CI1 SLP273

CYYZ;2009-03-05 01:00;CYYZ 050100Z 32004KT 15SM FEW150 FEW260 M02/M13 A3032 RMK AC1CI1 SLP278

CYYZ;2009-03-05 02:00;CYYZ 050200Z 36006KT 15SM FEW260 M04/M13 A3032 RMK CI0 SLP279

CYYZ;2009-03-05 03:00;CYYZ 050300Z 01002KT 15SM FEW260 M04/M13 A3033 RMK CI0 SLP281

CYYZ;2009-03-05 04:00;CYYZ 050400Z 00000KT 15SM SCT220 M04/M13 A3033 RMK CI1 SLP281

CYYZ;2009-03-05 05:00;CYYZ 050500Z 07002KT 15SM SCT230 M04/M12 A3032 RMK CI1 SLP278

CYYZ;2009-03-05 06:00;CYYZ 050600Z 11003KT 15SM SCT230 M03/M12 A3031 RMK CI1 SLP275

CYYZ;2009-03-05 07:00;CYYZ 050700Z 22003KT 15SM FEW230 M05/M11 A3032 RMK CI0 SLP278

CYYZ;2009-03-05 08:00;CYYZ 050800Z 25003KT 15SM FEW230 M06/M11 A3032 RMK CI0 SLP276

CYYZ;2009-03-05 09:00;CYYZ 050900Z 19002KT 15SM FEW230 M06/M10 A3031 RMK CI0 SLP272

CYYZ;2009-03-05 10:00;CYYZ 051000Z 27002KT 15SM FEW230 M06/M11 A3031 RMK CI1 FROIN SLP275

CYYZ;2009-03-05 11:00;CYYZ 051100Z 20002KT 15SM FEW096 SCT230 M06/M11 A3031 RMK AC1CI0 SLP275

CYYZ;2009-03-05 12:00;CYYZ 051200Z 13002KT 15SM FEW090 BKN270 M06/M11 A3030 RMK AC1CI1 SLP271

CYYZ;2009-03-05 13:00;CYYZ 051300Z 14002KT 15SM FEW090 BKN270 M02/M11 A3030 RMK AC1CS4 SLP270

CYYZ;2009-03-05 14:00;CYYZ 051400Z 16005KT 15SM FEW030 BKN140 BKN270 M02/M09 A3028 RMK SF1AS7CI1 SLP265

CYYZ;2009-03-05 15:00;CYYZ 051500Z 15007KT 15SM FEW140 BKN270 00/M09 A3025 RMK AS1CI3 SLP254

CYYZ;2009-03-05 16:00;CYYZ 051600Z 14009KT 15SM FEW150 BKN280 02/M09 A3023 RMK AC1CI6 SLP247

CYYZ;2009-03-05 17:00;CYYZ 051700Z 13010KT 15SM FEW060 BKN270 02/M09 A3020 RMK SC1CS2 SLP236

CYYZ;2009-03-05 18:00;CYYZ 051800Z 14010KT 15SM BKN048 04/M08 A3014 RMK SC7 PRESFR SLP214

CYYZ;2009-03-05 19:00;CYYZ 051900Z 13008KT 15SM FEW046 OVC061 04/M09 A3010 RMK SC1SC7 SLP201

CYYZ;2009-03-05 20:00;CYYZ 052000Z 11007KT 15SM OVC047 04/M09 A3007 RMK SC8 SLP192

CYYZ;2009-03-05 21:00;CYYZ 052100Z 11009KT 15SM OVC050 04/M07 A3004 RMK SC8 SLP179

CYYZ;2009-03-05 22:00;CYYZ 052200Z 10009KT 15SM OVC055 04/M06 A3001 RMK SC8 SLP169

CYYZ;2009-03-05 23:00;CYYZ 052300Z 10007KT 15SM OVC055 03/M05 A2998 RMK SC8 SLP160

CYYZ;2009-03-06 00:00;CYYZ 060000Z 09008KT 15SM OVC053 04/M05 A2995 RMK SC8 SLP152

CYYZ;2009-03-06 01:00;CYYZ 060100Z 10004KT 15SM OVC052 04/M04 A2995 RMK SC8 SLP151

CYYZ;2009-03-06 02:00;CYYZ 060200Z 11003KT 15SM OVC054 04/M04 A2993 RMK SC8 SLP143

CYYZ;2009-03-06 02:46;CYYZ 060246Z 11004KT 15SM -TSRA BKN049 OVC058CB 04/ RMK SC6CB2 CB W

CYYZ;2009-03-06 03:00;CYYZ 060300Z 12004KT 15SM TS OVC048 04/M02 A2989 RMK SC8 CB EMBD SLP128

CYYZ;2009-03-06 03:07;CYYZ 060307Z 12003KT 15SM OVC048 04/ RETS RMK SC8

CYYZ;2009-03-06 04:00;CYYZ 060400Z CCA 18002KT 15SM BKN043 OVC054 05/M02 A2987 RETS RMK SC6SC2 SLP123

CYYZ;2009-03-06 05:00;CYYZ 060500Z 14005KT 15SM SCT042 OVC056 05/M02 A2984 RMK SC3SC5 SLP111

CYYZ;2009-03-06 06:00;CYYZ 060600Z 15005KT 15SM OVC038 06/M01 A2981 RMK SC8 SLP101

CYYZ;2009-03-06 07:00;CYYZ 060700Z 13004KT 15SM OVC037 06/M01 A2980 RMK SC8 SLP096

CYYZ;2009-03-06 08:00;CYYZ 060800Z 15005KT 15SM OVC033 08/01 A2978 RMK SC8 SLP089

CYYZ;2009-03-06 09:00;CYYZ 060900Z 14004KT 15SM BKN035 OVC061 08/01 A2977 RMK SC6SC2 SLP085

CYYZ;2009-03-06 10:00;CYYZ 061000Z 22008KT 15SM BKN046 OVC065 11/05 A2976 RMK SC6SC2 SLP083

CYYZ;2009-03-06 11:00;CYYZ 061100Z 22008KT 15SM SCT031 OVC072 11/06 A2976 RMK SC3AC5 SLP083

CYYZ;2009-03-06 12:00;CYYZ 061200Z 22009KT 15SM BKN030 BKN048 BKN270 11/06 A2976 RMK SC6SC1CI1 SLP080

CYYZ;2009-03-06 13:00;CYYZ 061300Z 22013G19KT 15SM OVC028 12/07 A2975 RMK SC8 SLP079

CYYZ;2009-03-06 14:00;CYYZ 061400Z 22015G25KT 15SM BKN028 BKN058 13/07 A2975 RMK SC6SC1 SLP078

CYYZ;2009-03-06 15:00;CYYZ 061500Z 20009G15KT 15SM BKN025 13/08 A2973 RMK SC7 SLP070

CYYZ;2009-03-06 16:00;CYYZ 061600Z 23023G28KT 15SM FEW025 BKN047 15/09 A2971 RMK SC2SC5 SLP064

CYYZ;2009-03-06 17:00;CYYZ 061700Z 24023G30KT 15SM SCT025 OVC041 14/09 A2971 RMK SC3SC5 SLP064

CYYZ;2009-03-06 18:00;CYYZ 061800Z 24027G33KT 15SM FEW025 15/09 A2969 RMK CF2 SLP058

CYYZ;2009-03-06 19:00;CYYZ 061900Z 23017KT 15SM FEW028 16/09 A2968 RMK CF2 SLP054

CYYZ;2009-03-06 20:00;CYYZ 062000Z 28017G24KT 15SM FEW035 BKN050 18/09 A2971 RMK SC2SC6 CU ASOCTD SLP062

CYYZ;2009-03-06 21:00;CYYZ 062100Z 30024G30KT 15SM BKN032 BKN040 16/08 A2974 RMK SC6SC1 SLP075

CYYZ;2009-03-06 22:00;CYYZ 062200Z 29012KT 15SM FEW055 16/03 A2978 RMK SC2 SLP087

CYYZ;2009-03-06 23:00;CYYZ 062300Z 29015KT 15SM FEW050 FEW270 12/04 A2983 RMK CF1CI1 SLP102

CYYZ;2009-03-07 00:00;CYYZ 070000Z 31013G18KT 15SM FEW080 08/03 A2989 RMK AC1 PRESRR SLP125

CYYZ;2009-03-07 01:00;CYYZ 070100Z 31014KT 15SM FEW100 06/02 A2993 RMK AC1 SLP139

CYYZ;2009-03-07 02:00;CYYZ 070200Z 32009KT 15SM SKC 05/00 A2996 RMK SLP149

CYYZ;2009-03-07 03:00;CYYZ 070300Z 32007KT 15SM SKC 04/M00 A3000 RMK SLP162

CYYZ;2009-03-07 04:00;CYYZ 070400Z 31006KT 15SM SKC 03/M01 A3002 RMK SLP169

CYYZ;2009-03-07 04:26;CYYZ 070426Z 27006KT 15SM FEW220 02/ RMK CI1

CYYZ;2009-03-07 05:00;CYYZ 070500Z 29008KT 15SM FEW220 02/M01 A3004 RMK CI1 SLP176

CYYZ;2009-03-07 06:00;CYYZ 070600Z 31011KT 15SM SKC 02/M01 A3005 RMK SLP180

CYYZ;2009-03-07 07:00;CYYZ 070700Z 23004KT 15SM SKC 01/M03 A3006 RMK SLP184

CYYZ;2009-03-07 08:00;CYYZ 070800Z 26005KT 15SM SKC M01/M03 A3007 RMK SLP188

CYYZ;2009-03-07 09:00;CYYZ 070900Z 23005KT 15SM SKC M01/M03 A3008 RMK SLP192

CYYZ;2009-03-07 10:00;CYYZ 071000Z 00000KT 15SM SKC 01/M02 A3008 RMK SLP190

CYYZ;2009-03-07 11:00;CYYZ 071100Z 26002KT 15SM FEW240 M00/M03 A3007 RMK CI0 FROIN SLP189

CYYZ;2009-03-07 12:00;CYYZ 071200Z 22002KT 5SM HZ FEW120 SCT240 M01/M04 A3008 RMK AC2CI0 VIS SE 12 SLP192

CYYZ;2009-03-07 13:00;CYYZ 071300Z 00000KT 7SM FEW120 SCT160 BKN250 01/M01 A3009 RMK AC1AC2CI2 VIS SE 10 HZ SLP196

CYYZ;2009-03-07 14:00;CYYZ 071400Z 36004KT 7SM FEW130 SCT170 OVC230 03/00 A3008 RMK AC2AS2CI4 HZ SLP192

CYYZ;2009-03-07 15:00;CYYZ 071500Z 03003KT 7SM OVC170 03/00 A3008 RMK AC8 HZ SLP191

CYYZ;2009-03-07 16:00;CYYZ 071600Z 02006KT 6SM HZ OVC120 04/00 A3007 RMK AC8 SLP190

CYYZ;2009-03-07 17:00;CYYZ 071700Z 02005KT 6SM HZ BKN062 OVC073 04/01 A3004 RMK SC5AC3 SLP178

CYYZ;2009-03-07 17:14;CYYZ 071714Z 06003KT 5SM -RA HZ OVC057 04/ RMK SC8

CYYZ;2009-03-07 18:00;CYYZ 071800Z 08005KT 4SM -RA HZ BKN043 OVC054 04/01 A3000 RMK SC6SC2 SLP164

CYYZ;2009-03-07 18:46;CYYZ 071846Z CCA 06005KT 2 1/2SM -RA HZ BKN021 OVC042 04/ RMK SC5SC3

CYYZ;2009-03-07 19:00;CYYZ 071900Z 04004KT 3SM -RA HZ SCT023 OVC058 04/01 A2996 RMK SC3SC5 SLP151

CYYZ;2009-03-07 20:00;CYYZ 072000Z 36004KT 2 1/4SM RA BKN024 OVC046 04/01 A2998 RMK SC5SC3 SLP158

CYYZ;2009-03-07 20:51;CYYZ 072051Z CCA 05006KT 2 1/4SM -RA HZ BKN007 OVC022 04/ RERA RMK SC6NS2

CYYZ;2009-03-07 21:00;CYYZ 072100Z 05006KT 2SM -RA HZ BKN006 OVC022 04/02 A2991 RERA RMK SC6NS2 PRESFR SLP135

CYYZ;2009-03-07 21:41;CYYZ 072141Z 05004KT 2 1/4SM -RA HZ SCT006 OVC015 04/ RMK SC3NS5

CYYZ;2009-03-07 22:00;CYYZ 072200Z 07005KT 2 1/4SM -RA BR SCT006 OVC022 04/02 A2989 RMK SC3NS5 SLP129

CYYZ;2009-03-07 22:18;CYYZ 072218Z 09006KT 2 1/2SM -RA BR BKN005 BKN023 OVC044 04/ RMK SC5SC2NS2

CYYZ;2009-03-07 22:43;CYYZ 072243Z 07003KT 2 1/2SM -RA BR BKN004 OVC022 04/ RMK SF5NS3

CYYZ;2009-03-07 23:00;CYYZ 072300Z 09004KT 2 1/2SM -RA BR BKN006 OVC043 04/02 A2986 RMK SC6NS2 SLP118

CYYZ;2009-03-08 00:00;CYYZ 080000Z 09003KT 3SM -RA BR BKN005 OVC042 03/02 A2986 RMK SF6NS2 SLP120

CYYZ;2009-03-08 00:13;CYYZ 080013Z 03002KT 2 1/2SM -RA BR BKN004 OVC006 03/ RMK SF5SC3

CYYZ;2009-03-08 00:28;CYYZ 080028Z 04006KT 2SM RA BR BKN005 OVC008 03/ RMK SF5SC3

CYYZ;2009-03-08 01:00;CYYZ 080100Z 04005KT 3SM -RA BR BKN005 OVC008 03/01 A2984 RMK SF5SC3 RERA SLP111

CYYZ;2009-03-08 01:35;CYYZ 080135Z 33004KT 2 1/2SM -RA BR BKN004 BKN008 OVC022 03/ RMK SF5SC2SC2

CYYZ;2009-03-08 02:00;CYYZ 080200Z 35008KT 2SM RA BR SCT005 BKN009 OVC029 03/01 A2986 RMK SF3SC2SC2 SLP118

CYYZ;2009-03-08 02:19;CYYZ 080219Z 34007KT 2 1/2SM -RA BR SCT015 OVC029 03/ RMK SC3SC5 RERA

CYYZ;2009-03-08 03:00;CYYZ 080300Z 35014KT 4SM -RA BR SCT021 OVC038 03/01 A2986 RMK SC3SC5 RERA SLP119

CYYZ;2009-03-08 04:00;CYYZ 080400Z 36008KT 5SM -RA BR BKN054 OVC071 03/01 A2987 RMK SC5AS3 SLP120

CYYZ;2009-03-08 05:00;CYYZ 080500Z 35006KT 5SM -RA BR FEW038 BKN056 OVC066 03/01 A2986 RMK SC2SC2AS3 SLP118

CYYZ;2009-03-08 06:00;CYYZ 080600Z 32007KT 7SM -RA SCT028 BKN057 OVC100 03/01 A2988 RMK SC3SC2AS2 SLP125

CYYZ;2009-03-08 06:22;CYYZ 080622Z 30006KT 10SM FEW031 OVC041 03/ RMK SC2SC6

CYYZ;2009-03-08 07:00;CYYZ 080700Z 22004KT 10SM BKN039 OVC056 03/01 A2989 RMK SC5SC3 SLP129

CYYZ;2009-03-08 08:00;CYYZ 080800Z 29006KT 10SM BKN078 03/02 A2992 RMK AC6 SLP137

CYYZ;2009-03-08 09:00;CYYZ 080900Z 32007KT 10SM BKN082 03/01 A2993 RMK AC5 SLP142

CYYZ;2009-03-08 10:00;CYYZ 081000Z 36003KT 10SM FEW006 SCT240 02/00 A2994 RMK SF2CI2 SLP146

CYYZ;2009-03-08 11:00;CYYZ 081100Z 33004KT 10SM FEW005 BKN016 BKN240 02/M00 A2997 RMK SF1SC5CI0 VIS 5 SW-W SLP155

CYYZ;2009-03-08 11:31;CYYZ 081131Z 32003KT 10SM OVC012 02/ RMK SC8

CYYZ;2009-03-08 12:00;CYYZ 081200Z 35007KT 10SM OVC011 02/M00 A2998 RMK SC8 VIS LWR W 6 SLP160

CYYZ;2009-03-08 12:21;CYYZ 081221Z 35010KT 7SM OVC008 02/ RMK SC8 BR

CYYZ;2009-03-08 13:00;CYYZ 081300Z 36007KT 5SM HZ OVC008 02/00 A3002 RMK SC8 SLP171

CYYZ;2009-03-08 13:33;CYYZ 081333Z 01008KT 6SM HZ OVC006 03/ RMK SC8

CYYZ;2009-03-08 14:00;CYYZ 081400Z 02008KT 5SM HZ OVC007 03/00 A3001 RMK SC8 SLP170

CYYZ;2009-03-08 15:00;CYYZ 081500Z 03006KT 5SM HZ OVC008 03/00 A3002 RMK SC8 SLP171

CYYZ;2009-03-08 15:30;CYYZ 081530Z 07008KT 8SM OVC011 03/ RMK SC8 HZ

CYYZ;2009-03-08 16:00;CYYZ 081600Z 05006KT 7SM OVC013 03/00 A3002 RMK SC8 SLP172

CYYZ;2009-03-08 17:00;CYYZ 081700Z 06006KT 7SM OVC013 04/00 A3001 RMK SC8 HZ SLP170

CYYZ;2009-03-08 17:35;CYYZ 081735Z 06006KT 7SM BKN015 OVC180 04/ RMK SC6AC2 HZ

CYYZ;2009-03-08 18:00;CYYZ 081800Z 08007KT 8SM BKN016 OVC180 04/00 A3000 RMK SC6AC2 HZ SLP166

CYYZ;2009-03-08 19:00;CYYZ 081900Z 14007KT 10SM OVC018 04/00 A2997 RMK SC8 SLP155

CYYZ;2009-03-08 20:00;CYYZ 082000Z 11006KT 10SM OVC022 05/00 A2996 RMK SC8 SLP152

CYYZ;2009-03-08 21:00;CYYZ 082100Z 11007KT 15SM SCT020 BKN074 OVC100 05/00 A2995 RMK SC3AC3AC2 SLP149

CYYZ;2009-03-08 22:00;CYYZ 082200Z 09011KT 12SM SCT062 BKN068 OVC100 05/M00 A2991 RMK SC3AC3AC2 SLP134

CYYZ;2009-03-08 23:00;CYYZ 082300Z 10010G16KT 10SM OVC052 04/M01 A2988 RMK SC8 SLP123

CYYZ;2009-03-09 00:00;CYYZ 090000Z 10017G27KT 12SM BKN051 OVC056 04/M00 A2983 RMK SC5SC3 SLP108

CYYZ;2009-03-09 01:00;CYYZ 090100Z 10017G26KT 10SM -RA OVC045 04/M01 A2980 RMK SC8 SLP098

CYYZ;2009-03-09 01:32;CYYZ 090132Z 09020G30KT 10SM -RASN OVC045 04/ RMK SC8

CYYZ;2009-03-09 02:00;CYYZ 090200Z 08016G24KT 6SM -RASN OVC038 03/M00 A2978 RMK SC8 SLP090

CYYZ;2009-03-09 02:36;CYYZ 090236Z 09020G29KT 6SM -RASN FEW010 SCT018 OVC032 03/ RMK SF2SC2SC4

CYYZ;2009-03-09 03:00;CYYZ 090300Z CCA 09024G32KT 6SM -RASN BKN016 OVC026 02/M01 A2973 RMK SC5SC3 SLP073

CYYZ;2009-03-09 04:00;CYYZ 090400Z 09019G27KT 7SM -RASN SCT011 OVC020 02/M01 A2970 RMK SC4SC4 SLP063

CYYZ;2009-03-09 05:00;CYYZ 090500Z 08016G27KT 12SM -SN OVC010 01/M02 A2967 RMK SC8 SLP054

CYYZ;2009-03-09 05:18;CYYZ 090518Z 09017G24KT 12SM -SN OVC009 01/ RMK SC8

CYYZ;2009-03-09 05:35;CYYZ 090535Z 08020G26KT 12SM OVC009 01/ RMK SC8

CYYZ;2009-03-09 06:00;CYYZ 090600Z 09017G25KT 12SM OVC010 01/M01 A2963 RMK SC8 SLP041

CYYZ;2009-03-09 06:22;CYYZ 090622Z 09015KT 10SM -RA OVC009 01/ RMK SC8

CYYZ;2009-03-09 07:00;CYYZ 090700Z 09017G22KT 12SM OVC010 01/M02 A2964 RMK SC8 SLP043

CYYZ;2009-03-09 07:43;CYYZ 090743Z 08009G15KT 6SM -SHSN OVC008 01/ RMK SC8

CYYZ;2009-03-09 08:00;CYYZ 090800Z 07009KT 8SM -SN OVC007 01/M02 A2962 RMK SC8 SLP038

CYYZ;2009-03-09 09:00;CYYZ 090900Z 05004KT 6SM -RA OVC007 01/M01 A2964 RMK SF8 SLP042

CYYZ;2009-03-09 10:00;CYYZ 091000Z 03008KT 7SM -RA FEW004 OVC008 01/M01 A2968 RMK SF2SC6 SLP058

CYYZ;2009-03-09 10:39;CYYZ 091039Z 01011KT 6SM -RASN FEW004 OVC009 01/ RMK SF2SC6

CYYZ;2009-03-09 11:00;CYYZ 091100Z 36011KT 5SM -SN SCT004 OVC009 01/M01 A2974 RMK SF3SC5 SLP075

CYYZ;2009-03-09 11:17;CYYZ 091117Z 34012KT 3SM -SN BKN005 OVC012 01/ RMK SF6SC2

CYYZ;2009-03-09 12:00;CYYZ 091200Z 35010G15KT 6SM -SN BKN006 OVC022 00/M02 A2979 RMK SC6SC2 SLP094

CYYZ;2009-03-09 12:21;CYYZ 091221Z 35013G18KT 10SM SCT007 BKN023 OVC062 M00/ RMK SF3SC4SC1

CYYZ;2009-03-09 13:00;CYYZ 091300Z 34018G25KT 15SM BKN012 OVC024 M00/M03 A2986 RMK SC5SC3 PRESRR SLP119

CYYZ;2009-03-09 14:00;CYYZ 091400Z 34016G21KT 15SM BKN014 OVC023 M00/M03 A2995 RMK SC6SC2 PRESRR SLP149

CYYZ;2009-03-09 14:51;CYYZ 091451Z 33021G26KT 15SM FEW014 OVC021 M00/ RMK SC2SC6

CYYZ;2009-03-09 15:00;CYYZ 091500Z 33019G26KT 15SM FEW014 OVC020 M00/M03 A3001 RMK SC2SC6 SLP168

CYYZ;2009-03-09 15:42;CYYZ 091542Z 35013G18KT 15SM OVC014 M00/ RMK SC8

CYYZ;2009-03-09 16:00;CYYZ 091600Z 33015G20KT 15SM OVC014 M00/M03 A3006 RMK SC8 SLP185

CYYZ;2009-03-09 16:33;CYYZ 091633Z 32014KT 15SM FEW012 BKN019 00/ RMK SC2SC6

CYYZ;2009-03-09 17:00;CYYZ 091700Z 34011G17KT 15SM FEW013 BKN018 01/M03 A3009 RMK SC2SC6 SLP195

CYYZ;2009-03-09 18:00;CYYZ 091800Z 32008KT 15SM SCT016 BKN022 01/M03 A3012 RMK SC3SC4 SLP207

CYYZ;2009-03-09 19:00;CYYZ 091900Z 31009KT 15SM FEW018 BKN023 04/M01 A3013 RMK SC2SC5 SLP209

CYYZ;2009-03-09 20:00;CYYZ 092000Z 32012KT 15SM BKN022 04/M01 A3016 RMK SC7 SLP219

CYYZ;2009-03-09 21:00;CYYZ 092100Z 33010KT 15SM OVC021 04/M02 A3018 RMK SC8 SLP228

CYYZ;2009-03-09 22:00;CYYZ 092200Z 31010KT 15SM OVC018 03/M02 A3021 RMK SC8 SLP236

CYYZ;2009-03-09 23:00;CYYZ 092300Z 29009KT 15SM OVC016 02/M03 A3022 RMK SC8 SLP239

CYYZ;2009-03-10 00:00;CYYZ 100000Z 28007KT 15SM OVC015 01/M03 A3025 RMK SC8 SLP252

CYYZ;2009-03-10 01:00;CYYZ 100100Z 31006KT 15SM OVC015 01/M03 A3027 RMK SC8 SLP258

CYYZ;2009-03-10 01:13;CYYZ 100113Z 29005KT 15SM OVC013 01/ RMK SC8

CYYZ;2009-03-10 02:00;CYYZ 100200Z 29004KT 15SM OVC013 01/M03 A3029 RMK SC8 SLP266

CYYZ;2009-03-10 03:00;CYYZ 100300Z 21004KT 15SM OVC013 01/M03 A3030 RMK SC8 SLP269

CYYZ;2009-03-10 03:15;CYYZ 100315Z 00000KT 15SM FEW013 OVC017 01/ RMK SC2SC6

CYYZ;2009-03-10 04:00;CYYZ 100400Z 28003KT 15SM OVC016 00/M03 A3029 RMK SC8 SLP266

CYYZ;2009-03-10 04:40;CYYZ 100440Z 26002KT 15SM OVC013 00/ RMK SC8

CYYZ;2009-03-10 05:00;CYYZ 100500Z 24002KT 15SM OVC013 00/M03 A3028 RMK SC8 SLP264

CYYZ;2009-03-10 06:00;CYYZ 100600Z 22004KT 15SM OVC013 00/M03 A3028 RMK SC8 SLP260

CYYZ;2009-03-10 07:00;CYYZ 100700Z 22004KT 15SM OVC014 00/M03 A3028 RMK SC8 SLP260

CYYZ;2009-03-10 08:00;CYYZ 100800Z 17002KT 15SM OVC013 01/M03 A3025 RMK SC8 SLP252

CYYZ;2009-03-10 09:00;CYYZ 100900Z 14004KT 15SM OVC013 01/M03 A3024 RMK SC8 SLP248

CYYZ;2009-03-10 09:22;CYYZ 100922Z 11005KT 15SM BKN007 OVC013 01/ RMK SC6SC2

CYYZ;2009-03-10 10:00;CYYZ 101000Z 11007KT 15SM BKN007 OVC013 01/M02 A3023 RMK SC6SC2 SLP243

CYYZ;2009-03-10 11:00;CYYZ 101100Z 11008KT 15SM SCT007 OVC014 01/M02 A3019 RMK SC3SC5 SLP231

CYYZ;2009-03-10 12:00;CYYZ 101200Z 13009KT 8SM BKN007 OVC013 01/M02 A3022 RMK SC6SC2 SLP241

CYYZ;2009-03-10 13:00;CYYZ 101300Z 13007KT 8SM BKN007 BKN016 OVC110 01/M02 A3022 RMK SC5SC2AS2 SLP240

CYYZ;2009-03-10 13:43;CYYZ 101343Z 14004KT 7SM SCT018 BKN120 OVC220 02/ RMK SC3AS3CS2

CYYZ;2009-03-10 14:00;CYYZ 101400Z 12005KT 7SM FEW007 BKN019 OVC090 02/M01 A3021 RMK SF2SC2AS3 SLP238

CYYZ;2009-03-10 15:00;CYYZ 101500Z 11009KT 7SM BKN011 OVC100 02/M01 A3019 RMK SC5AS3 SLP230

CYYZ;2009-03-10 16:00;CYYZ 101600Z 11014KT 8SM SCT018 OVC074 02/M02 A3016 RMK SC3AS5 SLP220

CYYZ;2009-03-10 17:00;CYYZ 101700Z 12009KT 12SM BKN020 OVC054 03/M02 A3015 RMK SC5SC3 SLP216

CYYZ;2009-03-10 17:16;CYYZ 101716Z 11010G17KT 10SM -RA BKN020 OVC054 02/ RMK SC6SC2

CYYZ;2009-03-10 18:00;CYYZ 101800Z 10012KT 7SM -RA FEW020 OVC046 02/M01 A3008 RMK SC2SC6 PRESFR SLP193

CYYZ;2009-03-10 18:26;CYYZ 101826Z 09011KT 7SM -RA BKN011 OVC045 02/ RMK SC5SC3

CYYZ;2009-03-10 19:00;CYYZ 101900Z 10010KT 7SM -RA BKN010 OVC058 02/M01 A3003 RMK SC5SC3 SLP177

CYYZ;2009-03-10 19:18;CYYZ 101918Z 11010G15KT 8SM BKN009 OVC045 02/ RMK SC6SC2

CYYZ;2009-03-10 20:00;CYYZ 102000Z 09008G15KT 8SM BKN009 OVC016 02/M01 A3000 RMK SC6SC2 SLP167

CYYZ;2009-03-10 21:00;CYYZ 102100Z 10008G15KT 5SM HZ OVC007 02/M01 A2999 RMK SC8 SLP163

CYYZ;2009-03-10 21:13;CYYZ 102113Z 09009KT 2SM -DZ HZ OVC007 02/ RMK ST8

CYYZ;2009-03-10 21:25;CYYZ 102125Z 09009KT 1 1/4SM -DZ HZ OVC008 02/ RMK ST8

CYYZ;2009-03-10 21:42;CYYZ 102142Z 08011KT 1 1/4SM -DZ HZ OVC005 02/ RMK ST8

CYYZ;2009-03-10 22:00;CYYZ 102200Z CCA 08009KT 1 3/4SM -DZ HZ OVC005 02/M01 A2997 RMK ST8 SLP157

CYYZ;2009-03-10 22:23;CYYZ 102223Z 10010G16KT 2SM -DZ HZ OVC003 02/ RMK ST8

CYYZ;2009-03-10 23:00;CYYZ 102300Z 09011G16KT 2SM -DZ HZ OVC003 02/00 A2994 RMK ST8 SLP145

CYYZ;2009-03-10 23:54;CYYZ 102354Z 09010KT 1 1/2SM -DZ HZ OVC002 02/ RMK ST8

CYYZ;2009-03-11 00:00;CYYZ 110000Z 08010KT 1 1/2SM -DZ BR OVC002 03/01 A2991 RMK ST8 SLP134

CYYZ;2009-03-11 01:00;CYYZ 110100Z 12004KT 1 1/2SM -DZ BR OVC002 03/01 A2990 RMK ST8 SLP131

CYYZ;2009-03-11 01:09;CYYZ 110109Z 13005KT 1 1/2SM -RADZ BR OVC003 03/ RMK ST8

CYYZ;2009-03-11 01:37;CYYZ 110137Z 12008KT 3SM -RA BR OVC003 03/ RMK NS8 PRESFR

CYYZ;2009-03-11 02:00;CYYZ 110200Z 12009KT 3SM -RA BR FEW003 OVC007 04/02 A2985 RMK SF2NS6 SLP115

CYYZ;2009-03-11 03:00;CYYZ 110300Z 13006KT 3SM -RA BR SCT003 OVC007 03/02 A2983 RMK SF4NS4 SLP107

CYYZ;2009-03-11 03:13;CYYZ 110313Z 13006KT 2 1/2SM -RA BR BKN003 OVC008 03/ RMK SF6NS2

CYYZ;2009-03-11 03:43;CYYZ 110343Z 14007KT 2 1/2SM -RA BR BKN002 OVC007 03/ RMK SF6NS2

CYYZ;2009-03-11 04:00;CYYZ 110400Z 13005KT 2 1/4SM -RA BR OVC002 03/02 A2980 RMK NS8 PRESFR SLP096

CYYZ;2009-03-11 05:00;CYYZ 110500Z 15003KT 1 1/2SM -RA BR OVC002 04/02 A2978 RMK NS8 SLP092

CYYZ;2009-03-11 05:17;CYYZ 110517Z 14006KT 1SM R15L/P6000FT/U R15R/4000V5500FT/U -RA BR OVC002 04/ RMK NS8 PRESFR RVR R05/P6000FT/U R06R/P6000FT/D

CYYZ;2009-03-11 06:00;CYYZ 110600Z 13005KT 1SM R15R/P6000FT/D R23/P6000FT/U -RA BR OVC002 04/02 A2974 RMK NS8 RVR R15L/P6000FT/D SLP076

CYYZ;2009-03-11 06:33;CYYZ 110633Z 15005KT 3/4SM R15R/4000FT/N R23/3500V6000FT/D -RA BR OVC002 04/ RMK FG1NS7 RVR R15L/P6000FT/U

CYYZ;2009-03-11 06:54;CYYZ 110654Z 14007KT 5/8SM R15R/3500FT/D R23/2800VP6000FT/D -RA BR OVC002 04/ RMK FG1NS7 PRESFR RVR R15L/5500FT/D

CYYZ;2009-03-11 07:00;CYYZ 110700Z 14005KT 5/8SM R15R/3500FT/N R23/3500FT/U -RA BR OVC002 04/02 A2968 RMK FG1NS7 PRESFR RVR R15L/4500VP6000FT/U SLP057

CYYZ;2009-03-11 07:27;CYYZ 110727Z CCA 09003KT 1/4SM R15R/2800FT/N R23/4000VP6000FT/U -RA FG OVC002 04/ RMK FG2NS6 PRESFR RVR R15L/3000VP6000FT/D

CYYZ;2009-03-11 08:00;CYYZ 110800Z 20004KT 1/4SM R15R/2400FT/N R23/2200FT/N -RA FG OVC002 04/03 A2967 RMK FG2NS6 PRESRR RVR R15L/2400FT/N SLP055

CYYZ;2009-03-11 08:25;CYYZ 110825Z 12002KT 1/2SM R15R/2600FT/N R23/3000FT/N -RA FG OVC002 04/ RMK FG1NS7 RVR R15L/3000FT/U

CYYZ;2009-03-11 09:00;CYYZ 110900Z 14008KT 3/4SM R15R/3000V4500FT/D R23/P6000FT/D -RA BR OVC002 05/04 A2958 RMK FG1NS7 PRESFR RVR R15L/4500VP6000FT/D SLP021

CYYZ;2009-03-11 09:51;CYYZ 110951Z 19010G17KT 1/2SM R15R/P6000FT/U R23/P6000FT/D -DZ FG OVC002 05/ RMK FG1ST7 PRESRR RVR 15L/P6000FT/N

CYYZ;2009-03-11 10:00;CYYZ 111000Z 19008G15KT 1/2SM R15R/P6000FT/D R23/4000VP6000FT/D -DZ FG OVC002 05/04 A2958 RMK FG1ST7 PRESRR RVR 15L/4000VP6000FT/N SLP024

CYYZ;2009-03-11 10:29;CYYZ 111029Z 18010KT 1 1/4SM BR OVC003 06/ RMK FG2ST6

CYYZ;2009-03-11 10:40;CYYZ 111040Z 19009KT 3SM BR OVC003 06/ RMK ST8

CYYZ;2009-03-11 11:00;CYYZ 111100Z 20008KT 5SM BR SCT007 OVC012 06/06 A2958 RMK ST4SC4 SLP021

CYYZ;2009-03-11 11:37;CYYZ 111137Z 27031G38KT 5SM BR SCT018 OVC022 09/ RMK SC4SC4

CYYZ;2009-03-11 12:00;CYYZ 111200Z 27027G41KT 15SM SCT028 BKN240 08/06 A2963 RMK SC3CI2 SLP039

CYYZ;2009-03-11 13:00;CYYZ 111300Z 27033G44KT 15SM BKN031 BKN220 05/M00 A2971 RMK SC5CI1 PRESRR SLP066

CYYZ;2009-03-11 14:00;CYYZ 111400Z 26023G34KT 15SM FEW031 BKN036 BKN220 04/M02 A2977 RMK CU2SC3CI1 PRESRR SLP086

CYYZ;2009-03-11 15:00;CYYZ 111500Z 25039G44KT 15SM FEW036 BKN041 04/M03 A2981 RMK CU1SC6 SLP099

CYYZ;2009-03-11 16:00;CYYZ 111600Z 27028G39KT 15SM FEW037 BKN042 04/M04 A2985 RMK CU2SC5 SLP113

CYYZ;2009-03-11 16:47;CYYZ 111647Z 27031G40KT 15SM FEW036 BKN042 02/ RMK CU2SC6

CYYZ;2009-03-11 17:00;CYYZ 111700Z 26034G41KT 15SM FEW036 BKN042 02/M06 A2991 RMK CU2SC6 PRESRR SLP133

CYYZ;2009-03-11 18:00;CYYZ 111800Z 27029G35KT 15SM FEW034 BKN040 02/M05 A2994 RMK CU2SC6 PRESRR SLP144

CYYZ;2009-03-11 19:00;CYYZ 111900Z 26038G44KT 15SM BKN037 01/M07 A2997 RMK SC7 SLP156

CYYZ;2009-03-11 20:00;CYYZ 112000Z 26033G40KT 15SM BKN036 M00/M08 A3002 RMK SC6 SLP172

CYYZ;2009-03-11 21:00;CYYZ 112100Z 27031G44KT 15SM BKN042 M01/M09 A3009 RMK SC6 PRESRR SLP196

CYYZ;2009-03-11 21:47;CYYZ 112147Z 27029G36KT 15SM -SHSN BKN036 M01/ RMK SC6

CYYZ;2009-03-11 22:00;CYYZ 112200Z 29023G36KT 15SM -SHSN BKN040 M02/M10 A3016 RMK SC6 PRESRR SLP221

CYYZ;2009-03-11 23:00;CYYZ 112300Z 29023G31KT 15SM -SHSN BKN039 M03/M11 A3022 RMK SC7 SLP238

CYYZ;2009-03-12 00:00;CYYZ 120000Z CCA 29019G28KT 15SM -SHSN BKN052 M03/M11 A3026 RMK SC7 SLP255

CYYZ;2009-03-12 01:00;CYYZ 120100Z 31017G22KT 15SM -SHSN SCT034 BKN042 M03/M11 A3031 RMK SC3SC4 SLP270

CYYZ;2009-03-12 01:52;CYYZ 120152Z 31014G22KT 15SM SCT042 M04/ RMK SC3

CYYZ;2009-03-12 02:00;CYYZ 120200Z 31015KT 15SM FEW042 M04/M12 A3034 RMK SC2 SLP281

CYYZ;2009-03-12 03:00;CYYZ 120300Z 32016KT 15SM FEW032 SCT040 M04/M12 A3037 RMK SC1SC2 SLP291

CYYZ;2009-03-12 04:00;CYYZ 120400Z 32011G17KT 15SM BKN053 M05/M12 A3038 RMK SC5 SLP297

CYYZ;2009-03-12 05:00;CYYZ 120500Z 30016KT 15SM SCT032 BKN048 M05/M12 A3040 RMK SC3SC1 SLP303

CYYZ;2009-03-12 06:00;CYYZ 120600Z 30012G19KT 15SM FEW036 M05/M12 A3041 RMK SC2 SLP308

CYYZ;2009-03-12 06:21;CYYZ 120621Z 31017KT 15SM -SHSN FEW034 BKN048 M05/ RMK SC2SC4

CYYZ;2009-03-12 07:00;CYYZ 120700Z 31013KT 12SM -SHSN FEW031 BKN054 M05/M11 A3043 RMK SC2SC4 SLP312

CYYZ;2009-03-12 07:24;CYYZ 120724Z 31010G15KT 15SM BKN056 M05/ RMK SC7

CYYZ;2009-03-12 08:00;CYYZ 120800Z 35008KT 15SM FEW034 BKN058 M06/M12 A3044 RMK SC2SC6 SLP317

CYYZ;2009-03-12 09:00;CYYZ 120900Z 31017G22KT 15SM FEW036 BKN059 M06/M13 A3045 RMK SC1SC5 SLP320

CYYZ;2009-03-12 10:00;CYYZ 121000Z 30017G22KT 15SM FEW032 FEW056 M06/M14 A3047 RMK SC1SC1 SLP329

CYYZ;2009-03-12 11:00;CYYZ 121100Z 30012G18KT 15SM FEW030 FEW056 M07/M14 A3050 RMK SC1SC1 SLP337

CYYZ;2009-03-12 12:00;CYYZ 121200Z 29012KT 15SM FEW030 SCT054 SCT250 M07/M13 A3052 RMK SC1SC2CI0 SLP348

CYYZ;2009-03-12 12:45;CYYZ 121245Z 28010KT 6SM -SHSN FEW025 BKN054 M06/ RMK SC2SC3

CYYZ;2009-03-12 12:50;CYYZ 121250Z 29009KT 2SM -SHSN FEW018 BKN041 M06/ RMK SC2SC4

CYYZ;2009-03-12 13:00;CYYZ 121300Z 29011KT 1 1/4SM -SN BKN012 BKN025 M06/M12 A3055 RMK SC5SC2 SLP355

CYYZ;2009-03-12 13:08;CYYZ 121308Z 31013KT 3SM -SN SCT019 BKN025 M06/ RMK SC3SC2 VIS W 12

CYYZ;2009-03-12 13:23;CYYZ 121323Z 31013KT 10SM FEW019 BKN031 BKN250 M06/ RMK CU1SC4CI0

CYYZ;2009-03-12 13:31;CYYZ 121331Z 32013KT 8SM -SHSN FEW019 BKN025 BKN250 M06/ RMK CU1SC4CI0

CYYZ;2009-03-12 14:00;CYYZ 121400Z 34010KT 10SM FEW022 SCT031 BKN260 M06/M11 A3056 RMK CU2SC2CI1 SLP361

CYYZ;2009-03-12 14:23;CYYZ 121423Z 34010KT 10SM -SHSN FEW031 SCT038 BKN260 M06/ RMK CU2SC2CI1

CYYZ;2009-03-12 14:38;CYYZ 121438Z 35008KT 2SM -SHSN FEW026 BKN038 BKN260 M06/ RMK CU2SC2CI0 VIS W-SW 10

CYYZ;2009-03-12 14:43;CYYZ 121443Z 36008KT 1 1/4SM -SHSN FEW026 BKN038 BKN260 M06/ RMK CU2SC2CI0

CYYZ;2009-03-12 14:49;CYYZ 121449Z 36007KT 8SM -SHSN FEW023 BKN036 BKN260 M06/ RMK CU2SC2CI1

CYYZ;2009-03-12 15:00;CYYZ 121500Z 34009KT 10SM FEW024 SCT034 BKN260 M05/M11 A3058 RMK CU2SC2CI2 SLP365

CYYZ;2009-03-12 16:00;CYYZ 121600Z 32014KT 12SM FEW040 BKN045 M05/M14 A3057 RMK CU2SC5 SLP364

CYYZ;2009-03-12 17:00;CYYZ 121700Z 30011G17KT 12SM FEW040 BKN046 BKN220 M04/M14 A3058 RMK CU2SC5CI1 SLP366

CYYZ;2009-03-12 18:00;CYYZ 121800Z 31013KT 12SM FEW039 BKN045 BKN220 M04/M14 A3058 RMK CU2SC5CI1 SLP365

CYYZ;2009-03-12 19:00;CYYZ 121900Z 32013KT 15SM BKN041 BKN220 M04/M14 A3055 RMK SC6CI1 CU ASOCTD SLP357

CYYZ;2009-03-12 20:00;CYYZ 122000Z 29012KT 15SM FEW038 BKN044 BKN230 M03/M14 A3054 RMK CU1SC4CI1 SLP353

CYYZ;2009-03-12 21:00;CYYZ 122100Z 29007KT 15SM FEW040 BKN046 BKN230 M04/M15 A3053 RMK CU1SC4CI1 SLP351

CYYZ;2009-03-12 22:00;CYYZ 122200Z 32011KT 15SM BKN048 BKN250 M04/M14 A3052 RMK SC5CI1 SLP348

CYYZ;2009-03-12 23:00;CYYZ 122300Z 32011KT 15SM FEW045 FEW260 M05/M14 A3053 RMK SC1CI1 SLP351

CYYZ;2009-03-13 00:00;CYYZ 130000Z 31013KT 15SM FEW045 FEW260 M05/M14 A3054 RMK SC1CI1 SLP352

CYYZ;2009-03-13 01:00;CYYZ 130100Z 32010KT 15SM FEW045 FEW260 M06/M14 A3054 RMK SC1CI1 SLP354

CYYZ;2009-03-13 02:00;CYYZ 130200Z 35010KT 15SM FEW260 M08/M13 A3056 RMK CI1 SLP359

CYYZ;2009-03-13 03:00;CYYZ 130300Z 36010KT 15SM FEW260 M08/M13 A3056 RMK CI0 SLP361

CYYZ;2009-03-13 04:00;CYYZ 130400Z 36006KT 15SM SKC M09/M14 A3057 RMK SLP364

CYYZ;2009-03-13 05:00;CYYZ 130500Z 33007KT 15SM SKC M09/M14 A3056 RMK SLP360

CYYZ;2009-03-13 06:00;CYYZ 130600Z 35005KT 15SM SKC M09/M15 A3055 RMK SLP358

CYYZ;2009-03-13 07:00;CYYZ 130700Z 31004KT 15SM FEW260 M10/M15 A3056 RMK CI0 SLP360

CYYZ;2009-03-13 08:00;CYYZ 130800Z 32002KT 15SM SKC M10/M15 A3055 RMK SLP357

CYYZ;2009-03-13 09:00;CYYZ 130900Z 32003KT 15SM SCT220 M09/M15 A3054 RMK CI0 SLP355

CYYZ;2009-03-13 10:00;CYYZ 131000Z 00000KT 15SM FEW220 M10/M15 A3054 RMK CI0 SLP355

CYYZ;2009-03-13 11:00;CYYZ 131100Z 00000KT 15SM FEW180 SCT220 M09/M14 A3055 RMK AC1CI0 SLP356

CYYZ;2009-03-13 12:00;CYYZ 131200Z 00000KT 15SM FEW180 BKN220 M09/M14 A3055 RMK AC1CI2 SLP357

CYYZ;2009-03-13 13:00;CYYZ 131300Z 16002KT 15SM FEW180 BKN240 M07/M14 A3053 RMK AC1CI2 SLP352

CYYZ;2009-03-13 14:00;CYYZ 131400Z 15003KT 15SM FEW170 BKN230 M06/M14 A3053 RMK AC1CI2 SLP350

CYYZ;2009-03-13 15:00;CYYZ 131500Z 14003KT 15SM FEW030 FEW160 SCT250 M05/M14 A3052 RMK CF1AC1CI0 SLP346

CYYZ;2009-03-13 16:00;CYYZ 131600Z 26003KT 15SM FEW030 FEW160 FEW250 M04/M14 A3050 RMK CF1AC1CI0 SLP339

CYYZ;2009-03-13 17:00;CYYZ 131700Z 15008KT 15SM FEW030 FEW160 FEW250 M03/M13 A3047 RMK CF1AC1CI0 SLP330

CYYZ;2009-03-13 18:00;CYYZ 131800Z 19007KT 15SM FEW030 FEW160 FEW250 M03/M13 A3044 RMK CF1AC1CI0 SLP320

CYYZ;2009-03-13 19:00;CYYZ 131900Z 15006KT 15SM FEW030 FEW160 FEW250 M02/M12 A3040 RMK CU1AC1CI1 SLP306

CYYZ;2009-03-13 20:00;CYYZ 132000Z CCA 16007KT 15SM FEW030 FEW140 FEW250 M02/M11 A3037 RMK CF1AC1CI0 CF TR SLP297

CYYZ;2009-03-13 21:00;CYYZ 132100Z 14008KT 15SM FEW150 FEW260 M01/M10 A3036 RMK AC1CI1 SLP291

CYYZ;2009-03-13 22:00;CYYZ 132200Z 15009KT 15SM FEW120 SCT240 M02/M10 A3034 RMK AC1CI1 SLP284

CYYZ;2009-03-13 23:00;CYYZ 132300Z 16009KT 15SM FEW120 M03/M09 A3031 RMK AC1 SLP275

CYYZ;2009-03-14 00:00;CYYZ 140000Z 16006KT 15SM SKC M03/M09 A3031 RMK SLP274

CYYZ;2009-03-14 01:00;CYYZ 140100Z 18005KT 15SM SKC M03/M09 A3030 RMK SLP272

CYYZ;2009-03-14 02:00;CYYZ 140200Z 18004KT 15SM SKC M03/M09 A3029 RMK SLP268

CYYZ;2009-03-14 03:00;CYYZ 140300Z 17005KT 15SM SKC M03/M08 A3028 RMK SLP265

CYYZ;2009-03-14 04:00;CYYZ 140400Z 20005KT 15SM SKC M03/M09 A3027 RMK SLP261

CYYZ;2009-03-14 05:00;CYYZ 140500Z 21003KT 15SM SKC M03/M10 A3026 RMK SLP257

CYYZ;2009-03-14 06:00;CYYZ 140600Z 19004KT 15SM SKC M03/M10 A3025 RMK SLP253

CYYZ;2009-03-14 07:00;CYYZ 140700Z 20005KT 15SM SKC M04/M10 A3025 RMK SLP253

CYYZ;2009-03-14 08:00;CYYZ 140800Z 20006KT 15SM SKC M03/M11 A3023 RMK SLP246

CYYZ;2009-03-14 09:00;CYYZ 140900Z 21005KT 15SM SKC M04/M10 A3023 RMK SLP246

CYYZ;2009-03-14 10:00;CYYZ 141000Z 22003KT 15SM SKC M04/M10 A3023 RMK SLP247

CYYZ;2009-03-14 11:00;CYYZ 141100Z 23005KT 15SM SKC M06/M10 A3024 RMK SLP250

CYYZ;2009-03-14 12:00;CYYZ 141200Z 24005KT 15SM FEW270 M05/M10 A3025 RMK CI1 SLP253

CYYZ;2009-03-14 13:00;CYYZ 141300Z 25007KT 15SM FEW270 M03/M08 A3025 RMK CI1 SLP254

CYYZ;2009-03-14 14:00;CYYZ 141400Z 25007KT 15SM FEW270 M01/M07 A3025 RMK CI1 SLP255

CYYZ;2009-03-14 15:00;CYYZ 141500Z 27005KT 15SM FEW270 02/M07 A3025 RMK CI1 SLP252

CYYZ;2009-03-14 16:00;CYYZ 141600Z 25006KT 15SM SKC 04/M07 A3025 RMK SLP252

CYYZ;2009-03-14 17:00;CYYZ 141700Z 23005KT 15SM SKC 05/M06 A3023 RMK SLP247

CYYZ;2009-03-14 18:00;CYYZ 141800Z 16007KT 12SM SKC 06/M05 A3021 RMK SLP237

CYYZ;2009-03-14 19:00;CYYZ 141900Z 14006KT 12SM FEW260 06/M05 A3018 RMK CI1 SLP228

CYYZ;2009-03-14 20:00;CYYZ 142000Z 12007KT 12SM FEW260 06/M05 A3017 RMK CI1 SLP223

CYYZ;2009-03-14 21:00;CYYZ 142100Z 13007KT 10SM FEW260 06/M04 A3016 RMK CI1 SLP220

CYYZ;2009-03-14 22:00;CYYZ 142200Z 14007KT 10SM FEW260 06/M04 A3015 RMK CI1 SLP217

CYYZ;2009-03-14 23:00;CYYZ 142300Z 14004KT 10SM SCT260 05/M03 A3015 RMK CI1 SLP216

CYYZ;2009-03-15 00:00;CYYZ 150000Z 11002KT 10SM FEW260 04/M03 A3015 RMK CI1 SLP218

CYYZ;2009-03-15 01:00;CYYZ 150100Z 18003KT 10SM FEW260 04/M03 A3015 RMK CI1 SLP219

CYYZ;2009-03-15 02:00;CYYZ 150200Z 22002KT 10SM FEW260 03/M05 A3016 RMK CI1 SLP221

CYYZ;2009-03-15 03:00;CYYZ 150300Z 00000KT 10SM FEW260 03/M05 A3016 RMK CI1 SLP219

CYYZ;2009-03-15 04:00;CYYZ 150400Z 00000KT 10SM SKC 01/M05 A3015 RMK SLP217

CYYZ;2009-03-15 05:00;CYYZ 150500Z 01002KT 10SM SKC 00/M06 A3014 RMK SLP214

CYYZ;2009-03-15 06:00;CYYZ 150600Z CCA 27004KT 10SM SKC M01/M06 A3014 RMK SLP215

CYYZ;2009-03-15 07:00;CYYZ 150700Z 31002KT 10SM SKC M02/M06 A3014 RMK SLP215

CYYZ;2009-03-15 08:00;CYYZ 150800Z 34002KT 10SM SKC M02/M06 A3014 RMK SLP213

CYYZ;2009-03-15 09:00;CYYZ 150900Z 00000KT 10SM SKC M03/M06 A3014 RMK SLP213

CYYZ;2009-03-15 10:00;CYYZ 151000Z 00000KT 10SM SKC M03/M07 A3015 RMK SLP216

CYYZ;2009-03-15 11:00;CYYZ 151100Z 00000KT 10SM SKC M02/M06 A3016 RMK FROIN SLP221

CYYZ;2009-03-15 12:00;CYYZ 151200Z 00000KT 10SM SKC M03/M07 A3017 RMK FROIN SLP226

CYYZ;2009-03-15 13:00;CYYZ 151300Z 15002KT 10SM SKC 02/M02 A3019 RMK SLP230

CYYZ;2009-03-15 14:00;CYYZ 151400Z 17002KT 10SM SKC 03/M02 A3020 RMK SLP234

CYYZ;2009-03-15 15:00;CYYZ 151500Z 00000KT 10SM SKC 05/M02 A3019 RMK SLP231

CYYZ;2009-03-15 16:00;CYYZ 151600Z 00000KT 12SM SKC 08/M03 A3019 RMK SLP230

CYYZ;2009-03-15 17:00;CYYZ 151700Z 15002KT 12SM SKC 09/M05 A3019 RMK SLP228

CYYZ;2009-03-15 18:00;CYYZ 151800Z 15008KT 12SM SKC 09/M06 A3017 RMK SLP224

CYYZ;2009-03-15 19:00;CYYZ 151900Z 15010KT 12SM SKC 09/M07 A3016 RMK SLP221

CYYZ;2009-03-15 20:00;CYYZ 152000Z 16008KT 12SM SKC 09/M06 A3016 RMK SLP219

CYYZ;2009-03-15 21:00;CYYZ 152100Z 14005KT 10SM SKC 09/M06 A3016 RMK SLP219

CYYZ;2009-03-15 22:00;CYYZ 152200Z 14005KT 10SM FEW260 09/M06 A3016 RMK CI1 SLP219

CYYZ;2009-03-15 23:00;CYYZ 152300Z 15015KT 15SM FEW260 07/M06 A3018 RMK CI1 SLP225

CYYZ;2009-03-16 00:00;CYYZ 160000Z 16003KT 15SM FEW240 06/M06 A3019 RMK CI1 SLP230

CYYZ;2009-03-16 01:00;CYYZ 160100Z 00000KT 15SM SKC 04/M06 A3021 RMK SLP237

CYYZ;2009-03-16 02:00;CYYZ 160200Z 24003KT 15SM SKC 03/M06 A3022 RMK SLP239

CYYZ;2009-03-16 03:00;CYYZ 160300Z 00000KT 15SM SKC 01/M06 A3022 RMK SLP241

CYYZ;2009-03-16 04:00;CYYZ 160400Z 02002KT 15SM SKC 02/M06 A3022 RMK SLP242

CYYZ;2009-03-16 05:00;CYYZ 160500Z 34004KT 15SM SKC 00/M06 A3022 RMK SLP241

CYYZ;2009-03-16 06:00;CYYZ 160600Z 32002KT 15SM SKC M00/M06 A3023 RMK SLP242

CYYZ;2009-03-16 07:00;CYYZ 160700Z 27004KT 15SM SKC M01/M07 A3025 RMK SLP248

CYYZ;2009-03-16 08:00;CYYZ 160800Z 36002KT 15SM SKC M00/M06 A3025 RMK SLP249

CYYZ;2009-03-16 09:00;CYYZ 160900Z 02006KT 15SM SKC M00/M06 A3025 RMK SLP249

CYYZ;2009-03-16 10:00;CYYZ 161000Z 36002KT 15SM SKC M01/M07 A3025 RMK SLP249

CYYZ;2009-03-16 11:00;CYYZ 161100Z 36004KT 15SM FEW260 M01/M06 A3025 RMK CI1 SLP250

CYYZ;2009-03-16 12:00;CYYZ 161200Z 02003KT 10SM FEW120 BKN230 M01/M06 A3028 RMK AC1CI2 SLP259

CYYZ;2009-03-16 13:00;CYYZ 161300Z 04004KT 10SM FEW120 BKN220 02/M04 A3028 RMK AC1CI2 SLP260

CYYZ;2009-03-16 14:00;CYYZ 161400Z 11007KT 10SM FEW150 BKN220 06/M04 A3029 RMK AC1CI2 SLP265

CYYZ;2009-03-16 15:00;CYYZ 161500Z 11005KT 12SM FEW150 BKN220 07/M05 A3030 RMK AC1CI2 SLP266

CYYZ;2009-03-16 16:00;CYYZ 161600Z 08011KT 12SM FEW150 BKN210 08/M04 A3029 RMK AC1CI4 SLP263

CYYZ;2009-03-16 17:00;CYYZ 161700Z 07010KT 12SM FEW160 BKN210 09/M05 A3027 RMK AC1CI4 SLP258

CYYZ;2009-03-16 18:00;CYYZ 161800Z 10008KT 12SM BKN150 BKN210 09/M05 A3026 RMK AC5CI2 SLP252

CYYZ;2009-03-16 19:00;CYYZ 161900Z 10010KT 12SM BKN160 BKN210 09/M06 A3023 RMK AC5CI2 SLP244

CYYZ;2009-03-16 20:00;CYYZ 162000Z 06007KT 12SM BKN140 BKN210 10/M05 A3022 RMK AC5CI1 SLP239

CYYZ;2009-03-16 21:00;CYYZ 162100Z 08010KT 12SM SCT170 BKN210 09/M07 A3022 RMK AC3CI2 SLP238

CYYZ;2009-03-16 22:00;CYYZ 162200Z 07006KT 12SM SCT170 BKN210 09/M05 A3021 RMK AC3CI2 SLP235

CYYZ;2009-03-16 23:00;CYYZ 162300Z 11007KT 15SM FEW150 BKN260 08/M06 A3021 RMK AC1CI3 SLP235

CYYZ;2009-03-17 00:00;CYYZ 170000Z 08006KT 15SM FEW150 BKN230 07/M05 A3021 RMK AC1CI3 SLP238

CYYZ;2009-03-17 01:00;CYYZ 170100Z 04003KT 15SM SCT170 05/M05 A3022 RMK AC1 SLP239

CYYZ;2009-03-17 02:00;CYYZ 170200Z 02003KT 15SM SKC 05/M05 A3021 RMK SLP238

CYYZ;2009-03-17 03:00;CYYZ 170300Z 07003KT 15SM SKC 04/M05 A3020 RMK SLP233

CYYZ;2009-03-17 04:00;CYYZ 170400Z 02003KT 15SM SKC 03/M05 A3021 RMK SLP234

CYYZ;2009-03-17 05:00;CYYZ 170500Z 00000KT 15SM SKC 02/M05 A3019 RMK SLP228

CYYZ;2009-03-17 06:00;CYYZ 170600Z 35003KT 15SM SKC 02/M05 A3020 RMK SLP231

CYYZ;2009-03-17 07:00;CYYZ 170700Z 36002KT 15SM SKC 01/M05 A3020 RMK SLP231

CYYZ;2009-03-17 08:00;CYYZ 170800Z 30005KT 15SM SKC M01/M06 A3019 RMK SLP230

CYYZ;2009-03-17 09:00;CYYZ 170900Z 32005KT 15SM SKC M01/M06 A3019 RMK SLP228

CYYZ;2009-03-17 10:00;CYYZ 171000Z 29002KT 15SM SKC M00/M06 A3020 RMK SLP232

CYYZ;2009-03-17 11:00;CYYZ 171100Z 30003KT 15SM FEW090 M00/M06 A3020 RMK AC1 SLP233

CYYZ;2009-03-17 12:00;CYYZ 171200Z 25002KT 12SM FEW100 FEW260 00/M05 A3021 RMK AC1CI1 VIS W 7 SLP238

CYYZ;2009-03-17 13:00;CYYZ 171300Z 20004KT 15SM FEW120 FEW260 03/M03 A3022 RMK AC1CI1 SLP240

CYYZ;2009-03-17 14:00;CYYZ 171400Z 18003KT 12SM FEW120 FEW260 05/M03 A3022 RMK AC1CI0 SLP240

CYYZ;2009-03-17 15:00;CYYZ 171500Z 18004KT 15SM FEW120 FEW240 07/M02 A3021 RMK AC1CI0 SLP236

CYYZ;2009-03-17 16:00;CYYZ 171600Z 16005KT 15SM FEW120 FEW240 09/M02 A3019 RMK AC1CI1 SLP231

CYYZ;2009-03-17 17:00;CYYZ 171700Z 15008KT 15SM FEW120 FEW240 09/M01 A3018 RMK AC1CI1 SLP226

CYYZ;2009-03-17 18:00;CYYZ 171800Z 13007KT 15SM FEW120 FEW240 09/M01 A3016 RMK AC1CI0 SLP219

CYYZ;2009-03-17 19:00;CYYZ 171900Z 14009KT 15SM FEW120 FEW250 11/00 A3013 RMK AC1CI1 SLP209

CYYZ;2009-03-17 20:00;CYYZ 172000Z 16013KT 15SM FEW120 FEW250 11/01 A3010 RMK AC1CI1 SLP200

CYYZ;2009-03-17 21:00;CYYZ 172100Z 15010KT 15SM FEW120 FEW250 11/01 A3009 RMK AC1CI0 SLP194

CYYZ;2009-03-17 22:00;CYYZ 172200Z 17010KT 15SM BKN100 11/01 A3007 RMK AC4 SLP188

CYYZ;2009-03-17 23:00;CYYZ 172300Z 16010KT 15SM BKN090 BKN270 11/00 A3006 RMK AC4CS2 SLP184

CYYZ;2009-03-18 00:00;CYYZ 180000Z 18009KT 15SM SCT250 10/M01 A3004 RMK CI1 SLP179

CYYZ;2009-03-18 01:00;CYYZ 180100Z 16007KT 15SM BKN140 OVC270 09/M02 A3002 RMK AC6CS1 SLP173

CYYZ;2009-03-18 02:00;CYYZ 180200Z 17006KT 15SM OVC160 09/M02 A3001 RMK AC7 SLP167

CYYZ;2009-03-18 03:00;CYYZ 180300Z 14002KT 15SM BKN140 OVC260 07/M01 A3002 RMK AC7CI1 SLP170

CYYZ;2009-03-18 04:00;CYYZ 180400Z 16008KT 15SM BKN180 BKN250 06/M00 A2998 RMK AC6CI1 SLP159

CYYZ;2009-03-18 05:00;CYYZ 180500Z 17005KT 15SM FEW120 BKN170 06/M00 A2996 RMK AC2AC2 SLP150

CYYZ;2009-03-18 06:00;CYYZ 180600Z 15008KT 15SM FEW075 BKN085 07/00 A2993 RMK AC2AC6 SLP140

CYYZ;2009-03-18 07:00;CYYZ 180700Z 15004KT 15SM BKN081 OVC240 07/00 A2991 RMK AC6CS2 SLP134

CYYZ;2009-03-18 08:00;CYYZ 180800Z 22004KT 15SM FEW078 BKN170 OVC260 10/03 A2990 RMK AC1AC5CS2 SLP129

CYYZ;2009-03-18 09:00;CYYZ 180900Z 24009KT 15SM OVC140 11/04 A2990 RMK AS8 SLP128

CYYZ;2009-03-18 10:00;CYYZ 181000Z 25004KT 15SM OVC140 09/04 A2992 RMK AS8 SLP134

CYYZ;2009-03-18 11:00;CYYZ 181100Z 28008KT 15SM OVC110 10/04 A2992 RMK AS8 SLP134

CYYZ;2009-03-18 12:00;CYYZ 181200Z 32007KT 10SM BKN064 OVC110 09/04 A2995 RMK SC5AS3 SLP146

CYYZ;2009-03-18 13:00;CYYZ 181300Z 35009KT 12SM SCT062 OVC120 10/03 A2999 RMK SC3AC5 SLP158

CYYZ;2009-03-18 14:00;CYYZ 181400Z 33009KT 12SM FEW058 OVC120 10/02 A3000 RMK SC2AC6 SLP163

CYYZ;2009-03-18 15:00;CYYZ 181500Z 33013KT 15SM FEW056 OVC086 09/02 A3001 RMK SC2AS6 SLP165

CYYZ;2009-03-18 16:00;CYYZ 181600Z 30006KT 15SM FEW063 SCT076 OVC089 10/02 A3001 RMK SC2AC2AS4 SLP165

CYYZ;2009-03-18 17:00;CYYZ 181700Z 32009KT 15SM SCT078 BKN120 BKN240 11/01 A3000 RMK AC3AC2CI0 SLP164

CYYZ;2009-03-18 18:00;CYYZ 181800Z 32009G17KT 15SM FEW062 FEW130 BKN160 BKN240 13/M02 A2999 RMK SC1AC1AC2CI0 SLP160

CYYZ;2009-03-18 19:00;CYYZ 181900Z CCA 29011G17KT 15SM FEW072 BKN180 14/M03 A2998 RMK AC2AC2 SLP156

CYYZ;2009-03-18 20:00;CYYZ 182000Z 29009G16KT 15SM FEW070 BKN130 14/M06 A2998 RMK AC2AC2 SLP156

CYYZ;2009-03-18 21:00;CYYZ 182100Z 30012KT 15SM OVC120 14/M06 A2998 RMK AC7 SLP156

CYYZ;2009-03-18 22:00;CYYZ 182200Z 28029G41KT 15SM -SHRA BKN060 OVC073 12/M05 A2999 RMK SC5AC3 SLP157

CYYZ;2009-03-18 22:14;CYYZ 182214Z 27018G27KT 15SM OVC058 12/ RMK SC8

CYYZ;2009-03-18 23:00;CYYZ 182300Z 29014G20KT 15SM OVC088 11/M06 A3001 RMK AS8 OBS TAKEN + 19 SLP163

CYYZ;2009-03-19 00:00;CYYZ 190000Z 30012KT 15SM BKN100 10/M06 A3001 RMK AS7 SLP167

CYYZ;2009-03-19 01:00;CYYZ 190100Z 28004KT 15SM OVC120 09/M05 A3001 RMK AS8 SLP167

CYYZ;2009-03-19 02:00;CYYZ 190200Z 26004KT 15SM OVC130 07/M05 A3001 RMK AS8 SLP167

CYYZ;2009-03-19 03:00;CYYZ 190300Z 27007KT 15SM FEW130 BKN180 06/M04 A3001 RMK AS1AS5 SLP167

CYYZ;2009-03-19 04:00;CYYZ 190400Z 29007KT 15SM FEW130 FEW180 05/M05 A3001 RMK AS1AS1 SLP168

CYYZ;2009-03-19 05:00;CYYZ 190500Z 29004KT 15SM SCT130 05/M05 A3002 RMK AC3 SLP170

CYYZ;2009-03-19 06:00;CYYZ 190600Z 27007KT 15SM FEW130 03/M05 A3002 RMK AC2 SLP170

CYYZ;2009-03-19 07:00;CYYZ 190700Z 28006KT 15SM FEW130 02/M05 A3003 RMK AC1 SLP172

CYYZ;2009-03-19 08:00;CYYZ 190800Z 34008G15KT 15SM SKC 02/M07 A3005 RMK SLP179

CYYZ;2009-03-19 09:00;CYYZ 190900Z 34013G19KT 15SM SKC 02/M08 A3006 RMK SLP184

CYYZ;2009-03-19 10:00;CYYZ 191000Z 34008KT 15SM SKC 01/M09 A3007 RMK SLP187

CYYZ;2009-03-19 11:00;CYYZ 191100Z 33008KT 15SM FEW100 01/M09 A3009 RMK AC1 SLP194

CYYZ;2009-03-19 12:00;CYYZ 191200Z 31004KT 15SM FEW100 FEW260 M00/M09 A3011 RMK AC1CI1 SLP201

CYYZ;2009-03-19 13:00;CYYZ 191300Z 31013KT 15SM FEW040 01/M08 A3013 RMK CU1 SLP207

CYYZ;2009-03-19 14:00;CYYZ 191400Z 32013KT 15SM FEW040 FEW100 02/M07 A3014 RMK CU1AC1 SLP213

CYYZ;2009-03-19 15:00;CYYZ 191500Z 31013KT 15SM FEW040 03/M08 A3016 RMK SC1 SLP218

CYYZ;2009-03-19 16:00;CYYZ 191600Z 30013G20KT 15SM FEW040 03/M08 A3016 RMK SC1 SLP221

CYYZ;2009-03-19 17:00;CYYZ 191700Z 32016KT 15SM FEW043 03/M08 A3017 RMK CU2 SLP222

CYYZ;2009-03-19 18:00;CYYZ 191800Z 30010G21KT 15SM SCT043 03/M08 A3017 RMK SC3 SLP224

CYYZ;2009-03-19 19:00;CYYZ 191900Z 36018KT 15SM BKN041 02/M08 A3018 RMK SC7 SLP227

CYYZ;2009-03-19 20:00;CYYZ 192000Z 33017KT 15SM BKN043 02/M09 A3021 RMK SC6 SLP235

CYYZ;2009-03-19 21:00;CYYZ 192100Z 34013G19KT 15SM BKN046 01/M10 A3023 RMK SC7 SLP245

CYYZ;2009-03-19 22:00;CYYZ 192200Z 33017G22KT 15SM SCT045 SCT070 00/M10 A3025 RMK SC4AC1 SLP252

CYYZ;2009-03-19 23:00;CYYZ 192300Z 35014G20KT 15SM FEW040 M01/M11 A3027 RMK SC1 SLP259

CYYZ;2009-03-20 00:00;CYYZ 200000Z 35009G16KT 15SM FEW040 BKN054 M02/M12 A3029 RMK SC1SC6 SLP266

CYYZ;2009-03-20 01:00;CYYZ 200100Z 33013KT 15SM SCT050 M02/M12 A3030 RMK SC2 SLP269

CYYZ;2009-03-20 02:00;CYYZ 200200Z 33015KT 15SM OVC060 M03/M12 A3031 RMK SC6 SLP273

CYYZ;2009-03-20 03:00;CYYZ 200300Z 34013G18KT 15SM BKN065 M03/M12 A3031 RMK SC7 SLP274

CYYZ;2009-03-20 04:00;CYYZ 200400Z 34012KT 15SM BKN050 BKN066 M03/M11 A3031 RMK SC5AC1 SLP272

CYYZ;2009-03-20 05:00;CYYZ 200500Z 36014KT 15SM BKN063 M03/M11 A3031 RMK SC3 SLP273

CYYZ;2009-03-20 06:00;CYYZ 200600Z 36011KT 15SM BKN058 M03/M12 A3032 RMK SC4 SLP276

CYYZ;2009-03-20 07:00;CYYZ 200700Z 01011KT 15SM BKN061 M04/M13 A3034 RMK SC6 SLP284

CYYZ;2009-03-20 08:00;CYYZ 200800Z 01010KT 15SM FEW050 M05/M13 A3036 RMK SC1 SLP288

CYYZ;2009-03-20 09:00;CYYZ 200900Z 36008KT 15SM SKC M05/M13 A3037 RMK SLP295

CYYZ;2009-03-20 10:00;CYYZ 201000Z 01007KT 15SM SKC M06/M13 A3040 RMK SLP302

CYYZ;2009-03-20 11:00;CYYZ 201100Z 02008KT 15SM SKC M05/M14 A3042 RMK SLP310

CYYZ;2009-03-20 12:00;CYYZ 201200Z 36007KT 15SM SKC M06/M13 A3045 RMK SLP321

CYYZ;2009-03-20 13:00;CYYZ 201300Z 02008KT 15SM SKC M04/M13 A3047 RMK SLP329

CYYZ;2009-03-20 14:00;CYYZ 201400Z 03003KT 15SM SKC M03/M15 A3049 RMK SLP334

CYYZ;2009-03-20 15:00;CYYZ 201500Z 35007KT 15SM SKC M02/M15 A3049 RMK SLP335

CYYZ;2009-03-20 16:00;CYYZ 201600Z 36003KT 15SM SKC M00/M14 A3049 RMK SLP334

CYYZ;2009-03-20 17:00;CYYZ 201700Z 31005KT 15SM SKC 00/M15 A3048 RMK SLP332

CYYZ;2009-03-20 18:00;CYYZ 201800Z 33004KT 15SM SKC 01/M14 A3048 RMK SLP330

CYYZ;2009-03-20 18:53;CYYZ 201853Z 17006KT 15SM FEW240 03/ RMK CI1

CYYZ;2009-03-20 19:00;CYYZ 201900Z 17007KT 15SM FEW240 02/M11 A3046 RMK CI1 SLP325

CYYZ;2009-03-20 20:00;CYYZ 202000Z 13008KT 15SM SKC 02/M11 A3046 RMK SLP323

CYYZ;2009-03-20 21:00;CYYZ 202100Z 14006KT 15SM SKC 02/M10 A3046 RMK SLP323

CYYZ;2009-03-20 22:00;CYYZ 202200Z 14006KT 15SM SKC 01/M10 A3045 RMK SLP322

CYYZ;2009-03-20 23:00;CYYZ 202300Z 16007KT 15SM SKC M00/M10 A3046 RMK SLP324

CYYZ;2009-03-21 00:00;CYYZ 210000Z 16005KT 15SM SKC M01/M09 A3047 RMK SLP328

CYYZ;2009-03-21 01:00;CYYZ 210100Z 15003KT 15SM SKC M01/M10 A3047 RMK SLP329

CYYZ;2009-03-21 02:00;CYYZ 210200Z 20002KT 15SM SKC M02/M10 A3048 RMK SLP333

CYYZ;2009-03-21 03:00;CYYZ 210300Z 15002KT 15SM SKC M01/M10 A3047 RMK SLP328

CYYZ;2009-03-21 04:00;CYYZ 210400Z 17002KT 15SM SKC M01/M10 A3046 RMK SLP326

CYYZ;2009-03-21 05:00;CYYZ 210500Z 17002KT 15SM SKC M02/M10 A3046 RMK SLP323

CYYZ;2009-03-21 06:00;CYYZ 210600Z 23002KT 15SM SKC M03/M10 A3046 RMK SLP324

CYYZ;2009-03-21 07:00;CYYZ 210700Z 25002KT 15SM SKC M03/M10 A3046 RMK SLP325

CYYZ;2009-03-21 08:00;CYYZ 210800Z 23002KT 15SM SKC M04/M10 A3046 RMK SLP324

CYYZ;2009-03-21 09:00;CYYZ 210900Z 25002KT 15SM SKC M03/M10 A3046 RMK SLP325

CYYZ;2009-03-21 10:00;CYYZ 211000Z 29002KT 15SM SKC M04/M10 A3048 RMK SLP329

CYYZ;2009-03-21 11:00;CYYZ 211100Z 00000KT 15SM FEW250 M04/M10 A3048 RMK CI0 SLP330

CYYZ;2009-03-21 12:00;CYYZ 211200Z 00000KT 15SM BKN220 M03/M10 A3048 RMK CI1 SLP332

CYYZ;2009-03-21 13:00;CYYZ 211300Z 17002KT 15SM FEW170 BKN220 M01/M10 A3049 RMK AC1CI1 SLP334

CYYZ;2009-03-21 14:00;CYYZ 211400Z 18003KT 15SM FEW170 BKN220 00/M10 A3050 RMK AC1CI1 SLP337

CYYZ;2009-03-21 15:00;CYYZ 211500Z 19004KT 15SM SCT160 BKN170 02/M10 A3050 RMK AC3AC2 SLP336

CYYZ;2009-03-21 16:00;CYYZ 211600Z 15006KT 15SM SCT110 OVC120 03/M09 A3049 RMK AC4AC3 SLP332

CYYZ;2009-03-21 17:00;CYYZ 211700Z 14007KT 15SM FEW090 BKN100 BKN240 03/M10 A3047 RMK AC2AC3CI1 SLP327

CYYZ;2009-03-21 18:00;CYYZ 211800Z 14009KT 15SM BKN085 BKN100 BKN230 03/M11 A3046 RMK AC5AC2CI1 SLP324

CYYZ;2009-03-21 19:00;CYYZ 211900Z 17006KT 15SM BKN076 BKN090 04/M10 A3043 RMK AC5AC2 SLP312

CYYZ;2009-03-21 20:00;CYYZ 212000Z 15010KT 15SM BKN080 BKN100 04/M11 A3041 RMK AC5AC2 SLP306

CYYZ;2009-03-21 21:00;CYYZ 212100Z 18007KT 15SM FEW067 BKN088 05/M10 A3039 RMK AC2AC4 SLP300

CYYZ;2009-03-21 22:00;CYYZ 212200Z 17006KT 15SM FEW070 SCT100 SCT230 05/M08 A3038 RMK AC2AC2CI1 SLP297

CYYZ;2009-03-21 23:00;CYYZ 212300Z 16005KT 15SM BKN067 BKN090 BKN220 04/M08 A3040 RMK AC5AC2CI0 SLP301

CYYZ;2009-03-22 00:00;CYYZ 220000Z 17004KT 15SM BKN060 04/M07 A3040 RMK SC7 SLP303

CYYZ;2009-03-22 01:00;CYYZ 220100Z 18002KT 15SM SCT047 BKN097 04/M07 A3040 RMK SC3AC3 SLP302

CYYZ;2009-03-22 02:00;CYYZ 220200Z 21004KT 15SM FEW060 BKN095 04/M06 A3039 RMK SC2AC5 SLP298

CYYZ;2009-03-22 03:00;CYYZ 220300Z 27007KT 15SM SCT053 BKN062 BKN095 04/M05 A3039 RMK SC3SC3AC1 SLP299

CYYZ;2009-03-22 04:00;CYYZ 220400Z 29005KT 15SM BKN033 OVC053 04/M04 A3039 RMK SC5SC3 SLP297

CYYZ;2009-03-22 05:00;CYYZ 220500Z 30007KT 15SM OVC046 04/M03 A3038 RMK SC8 SLP295

CYYZ;2009-03-22 06:00;CYYZ 220600Z 31008KT 15SM OVC039 04/M03 A3038 RMK SC8 SLP294

CYYZ;2009-03-22 07:00;CYYZ 220700Z 31005KT 15SM BKN035 04/M03 A3038 RMK SC7 SLP296

CYYZ;2009-03-22 08:00;CYYZ 220800Z 32008KT 15SM SCT035 BKN074 04/M03 A3038 RMK SC3AC4 SLP295

CYYZ;2009-03-22 09:00;CYYZ 220900Z 31006KT 15SM OVC070 03/M03 A3039 RMK AC8 SLP296

CYYZ;2009-03-22 10:00;CYYZ 221000Z 36005KT 15SM BKN035 OVC070 03/M03 A3039 RMK SC5AC3 SLP297

CYYZ;2009-03-22 11:00;CYYZ 221100Z 36011KT 12SM SCT010 OVC020 02/M02 A3040 RMK SF4SC4 SLP300

CYYZ;2009-03-22 11:30;CYYZ 221130Z 36011KT 12SM BKN009 OVC015 02/ RMK SF6SC2

CYYZ;2009-03-22 12:00;CYYZ 221200Z 36012KT 12SM BKN009 OVC017 02/M02 A3041 RMK SF5SC3 SLP306

CYYZ;2009-03-22 13:00;CYYZ 221300Z 01010KT 15SM BKN011 BKN027 OVC039 02/M02 A3043 RMK SF6SF1SC2 SLP310

CYYZ;2009-03-22 14:00;CYYZ 221400Z 02011KT 15SM BKN014 OVC024 02/M03 A3043 RMK SF7SC1 SLP312

CYYZ;2009-03-22 14:19;CYYZ 221419Z 36010KT 15SM BKN016 OVC024 03/ RMK SF6SC2

CYYZ;2009-03-22 15:00;CYYZ 221500Z 01012KT 15SM FEW018 OVC022 03/M03 A3044 RMK SF2SC6 SLP316

CYYZ;2009-03-22 16:00;CYYZ 221600Z 36012G20KT 15SM BKN025 BKN035 04/M03 A3044 RMK CU5SC2 SLP315

CYYZ;2009-03-22 17:00;CYYZ 221700Z 01017G22KT 15SM FEW035 04/M07 A3044 RMK CU1 SLP315

CYYZ;2009-03-22 18:00;CYYZ 221800Z 36011G19KT 15SM FEW035 04/M10 A3043 RMK CU1 SLP312

CYYZ;2009-03-22 19:00;CYYZ 221900Z 36013G19KT 15SM FEW035 05/M09 A3042 RMK SC1 SLP307

CYYZ;2009-03-22 20:00;CYYZ 222000Z 33015KT 15SM FEW035 05/M10 A3042 RMK SC1 SLP308

CYYZ;2009-03-22 21:00;CYYZ 222100Z 36016KT 15SM FEW035 04/M10 A3042 RMK SC1 SLP308

CYYZ;2009-03-22 22:00;CYYZ 222200Z 34014KT 15SM SKC 03/M10 A3043 RMK SLP310

CYYZ;2009-03-22 23:00;CYYZ 222300Z 34015KT 15SM FEW260 01/M11 A3044 RMK CI1 SLP314

CYYZ;2009-03-23 00:00;CYYZ 230000Z 36017KT 15SM FEW260 00/M12 A3045 RMK CI1 SLP320

CYYZ;2009-03-23 01:00;CYYZ 230100Z 35013KT 15SM FEW260 M01/M13 A3047 RMK CI1 SLP327

CYYZ;2009-03-23 02:00;CYYZ 230200Z 35014G19KT 15SM FEW260 M02/M13 A3049 RMK CI1 SLP334

CYYZ;2009-03-23 03:00;CYYZ 230300Z 34012KT 15SM FEW260 M03/M12 A3050 RMK CI1 SLP338

CYYZ;2009-03-23 04:00;CYYZ 230400Z 36010KT 15SM FEW260 M03/M11 A3051 RMK CI1 SLP340

CYYZ;2009-03-23 05:00;CYYZ 230500Z 36012KT 15SM FEW260 M04/M11 A3052 RMK CI1 SLP344

CYYZ;2009-03-23 06:00;CYYZ 230600Z 35009KT 15SM FEW260 M04/M12 A3051 RMK CI1 SLP339

CYYZ;2009-03-23 07:00;CYYZ 230700Z 01010KT 15SM SKC M05/M12 A3051 RMK SLP339

CYYZ;2009-03-23 08:00;CYYZ 230800Z 02013KT 15SM SKC M05/M14 A3050 RMK SLP338

CYYZ;2009-03-23 09:00;CYYZ 230900Z 02016KT 15SM FEW250 M05/M17 A3050 RMK CI0 SLP337

CYYZ;2009-03-23 10:00;CYYZ 231000Z 01014KT 15SM FEW250 M05/M17 A3052 RMK CI1 SLP343

CYYZ;2009-03-23 11:00;CYYZ 231100Z 01015KT 15SM SKC M06/M17 A3053 RMK SLP347

CYYZ;2009-03-23 12:00;CYYZ 231200Z 01011G16KT 15SM FEW260 M06/M17 A3054 RMK CI1 SLP352

CYYZ;2009-03-23 13:00;CYYZ 231300Z 01012KT 15SM FEW260 M05/M18 A3055 RMK CI1 SLP354

CYYZ;2009-03-23 14:00;CYYZ 231400Z 02012G17KT 15SM FEW260 M03/M17 A3055 RMK CI1 SLP355

CYYZ;2009-03-23 15:00;CYYZ 231500Z 36012KT 15SM FEW270 M02/M18 A3054 RMK CI1 SLP351

CYYZ;2009-03-23 16:00;CYYZ 231600Z 05008KT 15SM FEW270 M01/M19 A3053 RMK CI1 SLP349

CYYZ;2009-03-23 17:00;CYYZ 231700Z 34007KT 15SM FEW270 00/M18 A3053 RMK CI1 SLP348

CYYZ;2009-03-23 18:00;CYYZ 231800Z 01010KT 15SM FEW270 01/M17 A3052 RMK CI1 SLP345

CYYZ;2009-03-23 19:00;CYYZ 231900Z 02008KT 15SM FEW270 02/M16 A3051 RMK CI1 SLP340

CYYZ;2009-03-23 20:00;CYYZ 232000Z 18002KT 15SM FEW270 01/M14 A3049 RMK CI1 SLP336

CYYZ;2009-03-23 21:00;CYYZ 232100Z 17007KT 15SM FEW270 01/M13 A3049 RMK CI1 SLP335

CYYZ;2009-03-23 22:00;CYYZ 232200Z 15006KT 15SM SCT270 01/M13 A3049 RMK CI1 SLP335

CYYZ;2009-03-23 23:00;CYYZ 232300Z 19004KT 15SM BKN260 M00/M12 A3050 RMK CI1 SLP337

CYYZ;2009-03-24 00:00;CYYZ 240000Z 15003KT 15SM SCT260 M01/M12 A3050 RMK CI1 SLP338

CYYZ;2009-03-24 01:00;CYYZ 240100Z 14002KT 15SM FEW260 M02/M11 A3050 RMK CI0 SLP339

CYYZ;2009-03-24 02:00;CYYZ 240200Z 11003KT 15SM FEW260 M02/M11 A3049 RMK CI0 SLP336

CYYZ;2009-03-24 03:00;CYYZ 240300Z 15002KT 15SM FEW260 M02/M11 A3050 RMK CI1 SLP338

CYYZ;2009-03-24 04:00;CYYZ 240400Z 11003KT 15SM FEW260 M02/M11 A3050 RMK CI0 SLP338

CYYZ;2009-03-24 05:00;CYYZ 240500Z 09003KT 15SM FEW260 M02/M10 A3050 RMK CI0 SLP339

CYYZ;2009-03-24 06:00;CYYZ 240600Z 08003KT 15SM SCT260 M02/M10 A3050 RMK CI0 SLP336

CYYZ;2009-03-24 07:00;CYYZ 240700Z 08005KT 15SM BKN260 M02/M10 A3050 RMK CI1 SLP338

CYYZ;2009-03-24 08:00;CYYZ 240800Z 09004KT 15SM SCT260 M03/M10 A3051 RMK CI1 SLP339

CYYZ;2009-03-24 09:00;CYYZ 240900Z 10006KT 15SM BKN240 M02/M11 A3051 RMK CI1 SLP339

CYYZ;2009-03-24 10:00;CYYZ 241000Z 13007KT 15SM SCT250 M02/M11 A3051 RMK CI1 SLP340

CYYZ;2009-03-24 11:00;CYYZ 241100Z CCA 12009KT 15SM SCT250 M02/M12 A3051 RMK CI1 SLP341

CYYZ;2009-03-24 12:00;CYYZ 241200Z 13010KT 15SM FEW100 FEW250 M02/M11 A3052 RMK AC1CI1 SLP343

CYYZ;2009-03-24 12:50;CYYZ 241250Z 13008G15KT 15SM FEW250 M01/ RMK CI1

CYYZ;2009-03-24 13:00;CYYZ 241300Z 14011G17KT 15SM FEW250 M01/M11 A3052 RMK CI1 CONTRAIL SLP346

CYYZ;2009-03-24 14:00;CYYZ 241400Z 12012KT 15SM FEW100 FEW240 M01/M11 A3054 RMK AC1CI1 CONTRAIL SLP350

CYYZ;2009-03-24 15:00;CYYZ 241500Z 12014KT 15SM FEW100 SCT240 M00/M10 A3054 RMK AC1CI1 CONTRAIL SLP350

CYYZ;2009-03-24 16:00;CYYZ 241600Z 11014KT 15SM FEW120 SCT240 01/M11 A3052 RMK AC1CI1 CONTRAIL SLP345

CYYZ;2009-03-24 17:00;CYYZ 241700Z 12017G22KT 15SM BKN240 02/M10 A3049 RMK CI1 SLP335

CYYZ;2009-03-24 18:00;CYYZ 241800Z 09014KT 15SM FEW100 BKN240 02/M10 A3047 RMK AC1CI1 CONTRAIL SLP328

CYYZ;2009-03-24 19:00;CYYZ 241900Z 09013KT 15SM FEW100 BKN240 03/M09 A3045 RMK AC1CI1 CONTRAIL SLP319

CYYZ;2009-03-24 20:00;CYYZ 242000Z 08016KT 15SM FEW100 BKN220 03/M10 A3042 RMK AC1CI2 CONTRAIL SLP311

CYYZ;2009-03-24 21:00;CYYZ 242100Z 09010G19KT 15SM FEW100 BKN220 03/M09 A3040 RMK AC1CI2 CONTRAIL SLP304

CYYZ;2009-03-24 22:00;CYYZ 242200Z 09011G19KT 15SM FEW100 BKN220 02/M09 A3039 RMK AC1CI2 CONTRAIL SLP298

CYYZ;2009-03-24 23:00;CYYZ 242300Z 08011G16KT 15SM FEW120 BKN250 01/M09 A3038 RMK AC1CI2 SLP296

CYYZ;2009-03-25 00:00;CYYZ 250000Z 09014G19KT 15SM FEW160 BKN250 01/M09 A3035 RMK AC2CI2 SLP285

CYYZ;2009-03-25 01:00;CYYZ 250100Z 10010G16KT 15SM FEW160 BKN250 01/M08 A3035 RMK AC1CI1 SLP285

CYYZ;2009-03-25 02:00;CYYZ 250200Z 10010KT 15SM FEW160 SCT240 01/M08 A3034 RMK AC1CI0 SLP282

CYYZ;2009-03-25 03:00;CYYZ 250300Z 11010G17KT 15SM BKN250 01/M08 A3031 RMK CI1 SLP273

CYYZ;2009-03-25 04:00;CYYZ 250400Z 11015G20KT 15SM BKN250 02/M07 A3029 RMK CI1 SLP265

CYYZ;2009-03-25 05:00;CYYZ 250500Z 11019G24KT 15SM BKN250 02/M08 A3028 RMK CI1 SLP261

CYYZ;2009-03-25 06:00;CYYZ 250600Z 11014G22KT 15SM BKN250 02/M09 A3024 RMK CI1 SLP247

CYYZ;2009-03-25 07:00;CYYZ 250700Z 12011G18KT 15SM FEW160 SCT240 02/M08 A3023 RMK AC1CI0 SLP244

CYYZ;2009-03-25 08:00;CYYZ 250800Z 11010G16KT 15SM BKN130 BKN240 03/M09 A3021 RMK AC6CI0 SLP237

CYYZ;2009-03-25 09:00;CYYZ 250900Z 10013KT 15SM FEW130 BKN150 BKN240 03/M09 A3016 RMK AC1AC5CI0 SLP221

CYYZ;2009-03-25 10:00;CYYZ 251000Z 10011G18KT 15SM FEW150 FEW240 02/M09 A3015 RMK AC1CI0 SLP215

CYYZ;2009-03-25 11:00;CYYZ 251100Z 10010KT 15SM FEW030 SCT110 BKN220 02/M08 A3012 RMK SC1AC2CI2 SLP206

CYYZ;2009-03-25 12:00;CYYZ 251200Z 10009KT 15SM FEW030 BKN090 BKN240 03/M08 A3012 RMK SC2AC3CI1 SLP208

CYYZ;2009-03-25 13:00;CYYZ 251300Z 11008KT 15SM FEW030 SCT090 BKN150 BKN240 04/M07 A3012 RMK SC1AC2AC2CI1 SLP206

CYYZ;2009-03-25 14:00;CYYZ 251400Z 12011KT 15SM FEW030 SCT090 BKN150 BKN240 06/M09 A3011 RMK SC1AC2AC2CI1 SLP203

CYYZ;2009-03-25 15:00;CYYZ 251500Z 12008KT 15SM BKN095 OVC110 06/M10 A3009 RMK AC6AC2 SLP197

CYYZ;2009-03-25 16:00;CYYZ 251600Z CCA 11009KT 15SM FEW030 SCT085 BKN097 OVC190 07/M10 A3008 RMK SC2AC2AC3AC2 SLP192

CYYZ;2009-03-25 17:00;CYYZ 251700Z 11011G16KT 15SM FEW027 SCT045 BKN055 OVC090 07/M08 A3005 RMK SC2SC2SC2AC2 SLP184

CYYZ;2009-03-25 18:00;CYYZ 251800Z 09010KT 15SM BKN031 BKN045 OVC055 07/M07 A3003 RMK SC5SC2SC2 SLP174

CYYZ;2009-03-25 19:00;CYYZ 251900Z 09008KT 15SM OVC031 07/M07 A2999 RMK SC8 SLP162

CYYZ;2009-03-25 20:00;CYYZ 252000Z 10012G18KT 15SM OVC037 08/M08 A2996 RMK SC8 SLP153

CYYZ;2009-03-25 21:00;CYYZ 252100Z 12010G15KT 15SM OVC035 09/M07 A2995 RMK SC8 SLP147

CYYZ;2009-03-25 21:38;CYYZ 252138Z 11010KT 15SM -SHRA OVC030 08/ RMK SC8

CYYZ;2009-03-25 22:00;CYYZ 252200Z 11007KT 8SM -SHRA BKN030 OVC035 07/M01 A2992 RMK SC6SC2 SLP139

CYYZ;2009-03-25 22:35;CYYZ 252235Z 13004KT 2 1/2SM -SHRA HZ OVC025 05/ RMK SC8

CYYZ;2009-03-25 23:00;CYYZ 252300Z 09004KT 2 1/2SM -RA HZ OVC026 05/02 A2993 RMK SC8 SLP141

CYYZ;2009-03-26 00:00;CYYZ 260000Z 09003KT 4SM -RA HZ OVC017 06/03 A2993 RMK SC8 SLP141

CYYZ;2009-03-26 00:36;CYYZ 260036Z 10005KT 2 1/2SM -RA BR BKN014 OVC019 06/ RMK ST5SC3

CYYZ;2009-03-26 00:49;CYYZ 260049Z 12004KT 2 1/2SM -RA BR BKN008 OVC015 06/ RMK ST5SC3

CYYZ;2009-03-26 01:00;CYYZ 260100Z 12005KT 3SM -RA BR BKN007 OVC012 06/04 A2993 RMK ST5SC3 SLP141

CYYZ;2009-03-26 01:21;CYYZ 260121Z 14006KT 6SM BR BKN007 OVC013 06/ RMK ST5SC3

CYYZ;2009-03-26 02:00;CYYZ 260200Z 16004KT 8SM OVC006 06/04 A2993 RMK ST8 SLP142

CYYZ;2009-03-26 02:24;CYYZ 260224Z 15006KT 8SM BKN014 OVC024 06/ RMK ST5SC3

CYYZ;2009-03-26 03:00;CYYZ 260300Z CCA 16006KT 8SM SCT015 OVC021 06/04 A2992 RMK ST3SC5 SLP137

CYYZ;2009-03-26 03:25;CYYZ 260325Z 16007KT 7SM -RA OVC019 06/ RMK SC8

CYYZ;2009-03-26 04:00;CYYZ 260400Z 17005KT 6SM -RA BR BKN013 OVC018 06/04 A2991 RMK ST5SC3 SLP134

CYYZ;2009-03-26 04:41;CYYZ 260441Z 17006KT 8SM FEW007 BKN014 OVC019 06/ RMK ST2SC2SC3

CYYZ;2009-03-26 05:00;CYYZ 260500Z 19004KT 8SM FEW018 BKN023 OVC033 06/04 A2992 RMK SC2SC2SC3 SLP136

CYYZ;2009-03-26 06:00;CYYZ 260600Z 16003KT 10SM FEW022 OVC061 06/04 A2991 RMK SC2SC6 SLP132

CYYZ;2009-03-26 07:00;CYYZ 260700Z 12004KT 10SM FEW018 BKN057 06/04 A2989 RMK SC2SC6 SLP125

CYYZ;2009-03-26 08:00;CYYZ 260800Z 14004KT 10SM BKN014 OVC054 05/03 A2987 RMK ST5SC3 SLP120

CYYZ;2009-03-26 09:00;CYYZ 260900Z 15003KT 10SM OVC013 05/03 A2986 RMK SC8 SLP117

CYYZ;2009-03-26 10:00;CYYZ 261000Z 14005KT 10SM OVC013 05/03 A2986 RMK SC8 SLP116

CYYZ;2009-03-26 11:00;CYYZ 261100Z 14004KT 7SM OVC011 05/03 A2986 RMK SC8 SLP116

CYYZ;2009-03-26 12:00;CYYZ 261200Z 13006KT 10SM OVC010 06/03 A2987 RMK SC8 SLP120

CYYZ;2009-03-26 12:20;CYYZ 261220Z 15005KT 10SM OVC009 06/ RMK SC8

CYYZ;2009-03-26 13:00;CYYZ 261300Z 14004KT 10SM OVC008 06/03 A2987 RMK SC8 SLP121

CYYZ;2009-03-26 13:46;CYYZ 261346Z 11005KT 10SM OVC007 07/ RMK SC8

CYYZ;2009-03-26 14:00;CYYZ 261400Z 13004KT 10SM OVC006 07/04 A2986 RMK SF8 SLP117

CYYZ;2009-03-26 15:00;CYYZ 261500Z 12004KT 10SM OVC006 07/04 A2985 RMK SF8 SLP111

CYYZ;2009-03-26 16:00;CYYZ 261600Z 17004KT 10SM OVC007 08/05 A2986 RMK SF8 SLP116

CYYZ;2009-03-26 17:00;CYYZ 261700Z 17004KT 8SM OVC007 08/05 A2985 RMK SF8 SLP112

CYYZ;2009-03-26 18:00;CYYZ 261800Z 19002KT 8SM OVC006 08/05 A2984 RMK SF8 SLP109

CYYZ;2009-03-26 18:48;CYYZ 261848Z 15002KT 5SM HZ FEW007 SCT018 BKN055 OVC064 09/ RMK SF2SC2SC2SC2

CYYZ;2009-03-26 19:00;CYYZ 261900Z 00000KT 5SM HZ FEW007 SCT055 OVC075 09/06 A2982 RMK SF2SC2AC4 SLP103

CYYZ;2009-03-26 20:00;CYYZ 262000Z 24003KT 5SM HZ FEW007 SCT018 BKN085 OVC100 09/06 A2982 RMK SF2SC2AC2AC2 SLP102

CYYZ;2009-03-26 21:00;CYYZ 262100Z 26005KT 12SM FEW017 SCT075 BKN096 OVC110 10/06 A2981 RMK CF2AC2AC2AC3 SLP100

CYYZ;2009-03-26 22:00;CYYZ 262200Z 26005KT 15SM FEW025 BKN080 OVC095 10/04 A2981 RMK CF1AC4AC3 SLP100

CYYZ;2009-03-26 23:00;CYYZ 262300Z 27006KT 12SM BKN082 BKN130 09/03 A2983 RMK AC5AC2 SLP107

CYYZ;2009-03-27 00:00;CYYZ 270000Z 29009KT 12SM BKN073 BKN084 09/03 A2986 RMK AC5AC2 SLP116

CYYZ;2009-03-27 00:49;CYYZ 270049Z 29008KT 12SM -SHRA BKN067 BKN075 08/ RMK AC5AC2

CYYZ;2009-03-27 01:00;CYYZ 270100Z 30014G19KT 12SM -SHRA BKN058 BKN087 08/01 A2989 RMK SC5AC2 SLP124

CYYZ;2009-03-27 01:20;CYYZ 270120Z 31015KT 12SM BKN058 BKN067 08/ RMK SC6AC2

CYYZ;2009-03-27 02:00;CYYZ 270200Z 31011KT 15SM FEW058 BKN085 06/01 A2989 RMK SC2AC4 SLP127

CYYZ;2009-03-27 03:00;CYYZ 270300Z 32006KT 15SM FEW090 05/M00 A2991 RMK AC2 SLP132

CYYZ;2009-03-27 04:00;CYYZ 270400Z 32003KT 15SM FEW080 03/M00 A2992 RMK AC1 SLP135

CYYZ;2009-03-27 04:15;CYYZ 270415Z 30003KT 15SM SKC 02/

CYYZ;2009-03-27 05:00;CYYZ 270500Z 00000KT 15SM SKC 03/00 A2993 RMK SLP139

CYYZ;2009-03-27 06:00;CYYZ 270600Z 00000KT 15SM SKC 02/M00 A2993 RMK SLP141

CYYZ;2009-03-27 07:00;CYYZ 270700Z 02004KT 15SM SKC 01/M02 A2993 RMK SLP141

CYYZ;2009-03-27 08:00;CYYZ 270800Z 36003KT 10SM SKC M00/M03 A2993 RMK SLP142

CYYZ;2009-03-27 09:00;CYYZ 270900Z 00000KT 8SM SKC M01/M03 A2996 RMK SLP152

CYYZ;2009-03-27 10:00;CYYZ 271000Z 31003KT 10SM SKC M02/M04 A2998 RMK FROIN SLP158

CYYZ;2009-03-27 11:00;CYYZ 271100Z 00000KT 15SM SKC M01/M03 A2998 RMK FROIN SLP159

CYYZ;2009-03-27 12:00;CYYZ 271200Z 33003KT 12SM SKC 00/M02 A3000 RMK SLP165

CYYZ;2009-03-27 13:00;CYYZ 271300Z 11004KT 12SM SKC 04/00 A3001 RMK SLP168

CYYZ;2009-03-27 14:00;CYYZ 271400Z 14008KT 12SM FEW220 04/00 A3002 RMK CC1 SLP172

CYYZ;2009-03-27 15:00;CYYZ 271500Z 13008KT 12SM FEW025 06/00 A3002 RMK CF1 SLP171

CYYZ;2009-03-27 16:00;CYYZ 271600Z 14007KT 12SM FEW240 07/01 A3002 RMK CI1 SLP171

CYYZ;2009-03-27 17:00;CYYZ 271700Z 16010KT 15SM FEW240 09/00 A3000 RMK CI1 SLP164

CYYZ;2009-03-27 18:00;CYYZ 271800Z 16006KT 15SM FEW040 FEW240 10/M00 A2998 RMK CF1CI1 SLP159

CYYZ;2009-03-27 19:00;CYYZ 271900Z 16010KT 15SM SCT062 SCT160 12/02 A2997 RMK SC3AC1 SLP153

CYYZ;2009-03-27 20:00;CYYZ 272000Z 15011KT 15SM FEW060 BKN074 10/01 A2995 RMK SC1AC6 SLP149

CYYZ;2009-03-27 21:00;CYYZ 272100Z 15007KT 15SM FEW065 BKN075 BKN240 09/01 A2995 RMK SC1AC6CI1 SLP149

CYYZ;2009-03-27 22:00;CYYZ 272200Z 14007KT 15SM SCT080 BKN270 09/01 A2995 RMK AC4CI2 SLP147

CYYZ;2009-03-27 23:00;CYYZ 272300Z CCA 14008KT 15SM SCT076 BKN260 07/01 A2993 RMK AC3CI1 VIS W 8 SLP142

CYYZ;2009-03-28 00:00;CYYZ 280000Z 09002KT 15SM FEW085 BKN120 BKN260 07/00 A2993 RMK AC2AC5CI0 VIS LWR W 10 SLP140

CYYZ;2009-03-28 01:00;CYYZ 280100Z 14004KT 15SM SCT120 SCT220 06/00 A2993 RMK AC2CI0 SLP142

CYYZ;2009-03-28 02:00;CYYZ 280200Z 15004KT 15SM FEW110 BKN230 05/M01 A2994 RMK AC1CI1 SLP144

CYYZ;2009-03-28 03:00;CYYZ 280300Z 00000KT 15SM BKN110 BKN230 04/M01 A2994 RMK AC4CI0 SLP144

CYYZ;2009-03-28 04:00;CYYZ 280400Z 35005KT 15SM SCT110 04/M02 A2993 RMK AC2 SLP142

CYYZ;2009-03-28 05:00;CYYZ 280500Z 36014KT 15SM FEW110 04/M01 A2994 RMK AC1 SLP143

CYYZ;2009-03-28 06:00;CYYZ 280600Z 35014KT 15SM FEW120 02/M03 A2993 RMK AC1 SLP141

CYYZ;2009-03-28 07:00;CYYZ 280700Z 34012KT 15SM FEW120 02/M03 A2993 RMK AC1 SLP141

CYYZ;2009-03-28 08:00;CYYZ 280800Z 35012KT 15SM FEW120 01/M03 A2992 RMK AC1 SLP138

CYYZ;2009-03-28 09:00;CYYZ 280900Z 35011KT 15SM FEW130 FEW220 01/M03 A2992 RMK AC1CI1 SLP137

CYYZ;2009-03-28 10:00;CYYZ 281000Z 35008KT 15SM FEW130 FEW220 01/M03 A2993 RMK AC1CI1 SLP141

CYYZ;2009-03-28 11:00;CYYZ 281100Z 35007KT 12SM FEW220 01/M03 A2995 RMK CI0 SLP147

CYYZ;2009-03-28 12:00;CYYZ 281200Z 34007KT 15SM FEW240 01/M02 A2996 RMK CI0 SLP152

CYYZ;2009-03-28 13:00;CYYZ 281300Z 36007KT 15SM SKC 03/M01 A2998 RMK CONTRAIL SLP156

CYYZ;2009-03-28 14:00;CYYZ 281400Z 36010KT 15SM FEW160 04/M00 A2997 RMK AC1 SLP155

CYYZ;2009-03-28 15:00;CYYZ 281500Z 36009KT 15SM FEW230 07/00 A2996 RMK CI1 SLP152

CYYZ;2009-03-28 16:00;CYYZ 281600Z 32006KT 15SM SCT250 09/M00 A2998 RMK CI1 SLP158

CYYZ;2009-03-28 17:00;CYYZ 281700Z 34004KT 15SM SCT250 10/00 A2995 RMK CI1 SLP147

CYYZ;2009-03-28 18:00;CYYZ 281800Z 04008KT 15SM BKN230 12/01 A2990 RMK CI1 SLP130

CYYZ;2009-03-28 19:00;CYYZ 281900Z 14008KT 15SM BKN230 12/01 A2987 RMK CI1 CONTRAIL SLP121

CYYZ;2009-03-28 20:00;CYYZ 282000Z 14007KT 15SM BKN230 11/01 A2987 RMK CI2 CONTROL SLP120

CYYZ;2009-03-28 21:00;CYYZ 282100Z 16006KT 15SM FEW140 BKN230 11/00 A2986 RMK AC2CI2 SUN DIMLY VISBL SLP115

CYYZ;2009-03-28 22:00;CYYZ 282200Z 09005KT 15SM FEW120 OVC200 11/01 A2982 RMK AC2CS3 SUN DIMLY VISBL SLP104

CYYZ;2009-03-28 23:00;CYYZ 282300Z 07006KT 15SM FEW100 BKN180 BKN220 12/01 A2980 RMK AC2AC4CI0 SLP095

CYYZ;2009-03-29 00:00;CYYZ 290000Z 06009KT 15SM FEW130 BKN180 12/00 A2977 RMK AC2AC6 SLP087

CYYZ;2009-03-29 01:00;CYYZ 290100Z 06008KT 15SM BKN170 11/01 A2975 RMK AC6 SLP078

CYYZ;2009-03-29 02:00;CYYZ 290200Z 01007KT 15SM BKN170 08/00 A2971 RMK AC6 SLP067

CYYZ;2009-03-29 03:00;CYYZ 290300Z 31007KT 15SM FEW052 OVC060 08/00 A2968 RMK SC2SC6 SLP055

CYYZ;2009-03-29 04:00;CYYZ 290400Z 05007KT 15SM OVC039 08/00 A2964 RMK SC8 SLP040

CYYZ;2009-03-29 05:00;CYYZ 290500Z 09014G24KT 15SM OVC041 10/M01 A2960 RMK SC8 SLP028

CYYZ;2009-03-29 06:00;CYYZ 290600Z 09019G27KT 15SM OVC035 10/00 A2956 RMK SC8 SLP012

CYYZ;2009-03-29 07:00;CYYZ 290700Z 09017G26KT 15SM OVC033 10/01 A2951 RMK SC8 SLP996

CYYZ;2009-03-29 08:00;CYYZ 290800Z 09014G19KT 15SM OVC030 09/02 A2947 RMK SC8 SLP983

CYYZ;2009-03-29 09:00;CYYZ 290900Z 09017KT 15SM OVC028 09/03 A2943 RMK SC8 SLP970

CYYZ;2009-03-29 10:00;CYYZ 291000Z 09014KT 15SM OVC027 08/04 A2940 RMK SC8 SLP957

CYYZ;2009-03-29 10:30;CYYZ 291030Z 09014KT 10SM -SHRA OVC027 08/ RMK SC8

CYYZ;2009-03-29 11:00;CYYZ 291100Z 09013G18KT 4SM SHRA FEW016 OVC023 08/05 A2937 RMK SC2SC6 SLP947

CYYZ;2009-03-29 12:00;CYYZ 291200Z 09012G17KT 4SM -SHRA FEW005 SCT019 OVC023 07/05 A2934 RERA RMK SF2SC2SC4 SLP937

CYYZ;2009-03-29 12:20;CYYZ 291220Z 09013G20KT 4SM -SHRA BKN005 BKN015 OVC044 07/ RMK SF5SC2SC2

CYYZ;2009-03-29 13:00;CYYZ 291300Z 09014KT 4SM -SHRA BKN004 OVC014 08/06 A2930 RERA RMK SF5SC3 SLP925

CYYZ;2009-03-29 14:00;CYYZ 291400Z 10015KT 4SM -RA BR BKN004 OVC009 07/05 A2929 RMK SF5SC3 SLP921

CYYZ;2009-03-29 14:28;CYYZ 291428Z 10014KT 2 1/2SM RA BR BKN003 OVC008 07/ RMK SF5SC3

CYYZ;2009-03-29 15:00;CYYZ 291500Z CCA 10012KT 4SM -RA BR BKN003 OVC009 07/05 A2928 RERA RMK SF6SC2 SLP919

CYYZ;2009-03-29 16:00;CYYZ 291600Z 09006KT 3SM -RA BR BKN003 OVC010 07/06 A2926 RMK SF6SC2 /R13/ SLP913

CYYZ;2009-03-29 16:20;CYYZ 291620Z 14003KT 3SM -RA BR BKN002 OVC007 07/ RMK SF6SC2

CYYZ;2009-03-29 17:00;CYYZ 291700Z 19009KT 15SM -RA SCT004 BKN022 OVC064 08/06 A2928 RMK SF3SC2SC2 PCPN VRY LGT SLP917

CYYZ;2009-03-29 18:00;CYYZ 291800Z 24019G28KT 15SM -RA FEW025 OVC069 08/03 A2929 RMK SC2AC6 SLP922

CYYZ;2009-03-29 18:52;CYYZ 291852Z 23015KT 15SM FEW025 BKN085 BKN110 07/ RMK SC2AC2AC2

CYYZ;2009-03-29 19:00;CYYZ 291900Z 23012G18KT 15SM FEW025 BKN090 BKN110 07/02 A2930 RMK SC2AC2AC2 SLP925

CYYZ;2009-03-29 20:00;CYYZ 292000Z 22018G26KT 15SM FEW025 BKN035 BKN210 11/03 A2930 RMK CU2SC3CI1 SLP924

CYYZ;2009-03-29 21:00;CYYZ 292100Z 23022G33KT 15SM SCT025 BKN090 BKN210 10/M00 A2931 RMK CU3AC2CI1 SLP927

CYYZ;2009-03-29 22:00;CYYZ 292200Z 22016KT 15SM FEW025 FEW030 BKN150 BKN210 09/00 A2932 RMK CU1SC2AC2CI1 SLP932

CYYZ;2009-03-29 23:00;CYYZ 292300Z 22012KT 15SM FEW030 FEW035 BKN130 BKN220 09/M00 A2933 RMK CU1SC2AC2CI1 SLP933

CYYZ;2009-03-30 00:00;CYYZ 300000Z 23012G17KT 15SM FEW048 BKN130 BKN220 08/M00 A2933 RMK SC2AC2CI1 SLP937

CYYZ;2009-03-30 01:00;CYYZ 300100Z 22011KT 15SM FEW160 SCT220 07/00 A2934 RMK AC2CI1 SLP941

CYYZ;2009-03-30 02:00;CYYZ 300200Z 21009KT 15SM FEW160 06/00 A2936 RMK AC2 SLP947

CYYZ;2009-03-30 03:00;CYYZ 300300Z 21007KT 15SM SCT044 SCT140 05/00 A2938 RMK SC3AC1 SLP952

CYYZ;2009-03-30 04:00;CYYZ 300400Z 23005KT 15SM SCT022 BKN041 04/01 A2939 RMK SC3SC2 SLP957

CYYZ;2009-03-30 04:36;CYYZ 300436Z 25012KT 15SM -RA BKN022 BKN041 04/ RMK SC5SC2

CYYZ;2009-03-30 05:00;CYYZ 300500Z 27009KT 15SM -RA BKN024 BKN060 04/01 A2941 RMK SC5SC2 SLP963

CYYZ;2009-03-30 05:18;CYYZ 300518Z 28014KT 15SM BKN021 BKN058 04/ RMK SC5SC2

CYYZ;2009-03-30 06:00;CYYZ 300600Z 27016G22KT 15SM BKN020 BKN057 03/M02 A2946 RMK SC5SC2 SLP979

CYYZ;2009-03-30 06:29;CYYZ 300629Z 28018G24KT 15SM FEW021 BKN160 02/ RMK SC2AC5

CYYZ;2009-03-30 07:00;CYYZ 300700Z 28022KT 15SM FEW020 BKN041 BKN160 02/M03 A2947 RMK SC2SC3AC2 SLP984

CYYZ;2009-03-30 08:00;CYYZ 300800Z 28019G24KT 15SM SCT024 BKN039 02/M03 A2949 RMK SC3SC4 SLP991

CYYZ;2009-03-30 09:00;CYYZ 300900Z 30024G29KT 15SM FEW021 BKN040 02/M04 A2954 RMK SC2SC5 SLP007

CYYZ;2009-03-30 10:00;CYYZ 301000Z 30021G26KT 15SM BKN043 01/M05 A2959 RMK SC6 SLP025

CYYZ;2009-03-30 11:00;CYYZ 301100Z 29021G28KT 15SM FEW025 FEW040 SCT050 BKN065 OVC093 01/M06 A2963 RMK CF1SC2SC2SC2AC2 SLP039

CYYZ;2009-03-30 12:00;CYYZ 301200Z 29012G21KT 15SM BKN025 OVC030 01/M06 A2968 RMK SC6SC2 SLP057

CYYZ;2009-03-30 13:00;CYYZ 301300Z 30020KT 15SM SCT022 OVC027 01/M05 A2973 RMK SC3SC5 SLP073

CYYZ;2009-03-30 14:00;CYYZ 301400Z 31023G29KT 15SM SCT023 BKN028 OVC048 01/M06 A2976 RMK SC3SC3SC2 SLP082

CYYZ;2009-03-30 15:00;CYYZ 301500Z 31025KT 15SM OVC023 01/M05 A2979 RMK SC8 SLP095

CYYZ;2009-03-30 16:00;CYYZ 301600Z 30022G29KT 15SM OVC023 01/M05 A2984 RMK SC8 SLP112

CYYZ;2009-03-30 17:00;CYYZ 301700Z 29022KT 15SM OVC022 02/M04 A2987 RMK SC8 SLP122

CYYZ;2009-03-30 18:00;CYYZ 301800Z 30015G22KT 15SM OVC028 03/M04 A2991 RMK SC8 SLP134

CYYZ;2009-03-30 19:00;CYYZ 301900Z 30019G24KT 15SM SCT025 BKN030 04/M03 A2992 RMK SC3SC4 SLP137

CYYZ;2009-03-30 20:00;CYYZ 302000Z 29018KT 15SM BKN025 BKN030 05/M03 A2994 RMK SC5SC2 SLP145

CYYZ;2009-03-30 21:00;CYYZ 302100Z 30020G26KT 15SM BKN028 05/M03 A2997 RMK SC7 SLP155

CYYZ;2009-03-30 22:00;CYYZ 302200Z 30019G25KT 15SM BKN032 04/M04 A3000 RMK SC7 SLP165

CYYZ;2009-03-30 23:00;CYYZ 302300Z 30016KT 15SM BKN031 03/M04 A3004 RMK SC7 SLP177

CYYZ;2009-03-30 23:32;CYYZ 302332Z 28015KT 15SM BKN031 02/ RMK SC6

CYYZ;2009-03-31 00:00;CYYZ 310000Z 29018KT 15SM BKN029 02/M05 A3007 RMK SC6 SLP191

CYYZ;2009-03-31 01:00;CYYZ 310100Z 29010G17KT 15SM BKN028 01/M05 A3010 RMK SC7 SLP200

CYYZ;2009-03-31 02:00;CYYZ 310200Z 30010KT 15SM FEW028 00/M06 A3012 RMK SC2 SLP207

CYYZ;2009-03-31 03:00;CYYZ 310300Z 28006KT 15SM SKC M01/M06 A3013 RMK SLP212

CYYZ;2009-03-31 04:00;CYYZ 310400Z 30008KT 15SM SKC M01/M06 A3013 RMK SLP212

CYYZ;2009-03-31 05:00;CYYZ 310500Z 28004KT 15SM SKC M03/M06 A3013 RMK SLP212

CYYZ;2009-03-31 06:00;CYYZ 310600Z 27003KT 15SM SKC M01/M06 A3015 RMK SLP218

CYYZ;2009-03-31 07:00;CYYZ 310700Z 31003KT 15SM SKC M02/M06 A3016 RMK SLP220

CYYZ;2009-03-31 08:00;CYYZ 310800Z 03003KT 15SM SKC M02/M06 A3015 RMK SLP216

CYYZ;2009-03-31 09:00;CYYZ 310900Z 01003KT 15SM SKC M02/M06 A3016 RMK SLP221

CYYZ;2009-03-31 10:00;CYYZ 311000Z 35004KT 15SM SKC M02/M06 A3019 RMK FROIN SLP229

CYYZ;2009-03-31 11:00;CYYZ 311100Z 03005KT 15SM SKC M02/M05 A3020 RMK FROIN SLP234

CYYZ;2009-03-31 12:00;CYYZ 311200Z 03005KT 15SM SKC M01/M04 A3020 RMK SLP236

CYYZ;2009-03-31 13:00;CYYZ 311300Z 08007KT 15SM SKC 01/M04 A3020 RMK SLP236

CYYZ;2009-03-31 14:00;CYYZ 311400Z 09005KT 15SM FEW025 03/M04 A3020 RMK CF1 SLP235

CYYZ;2009-03-31 15:00;CYYZ 311500Z 14007KT 15SM FEW030 FEW260 04/M04 A3019 RMK CF1CI1 SLP232

CYYZ;2009-03-31 16:00;CYYZ 311600Z 13011KT 15SM FEW023 FEW270 05/M02 A3019 RMK CF1CI0 SLP229

CYYZ;2009-03-31 17:00;CYYZ 311700Z 11010G15KT 15SM FEW024 SCT270 04/M03 A3017 RMK CU2CI0 SLP225

CYYZ;2009-03-31 18:00;CYYZ 311800Z 10014G19KT 15SM FEW025 BKN270 05/M03 A3015 RMK CF1CI2 SLP216

CYYZ;2009-03-31 19:00;CYYZ 311900Z 09013KT 15SM FEW025 BKN280 05/M03 A3011 RMK CF1CI6 SLP205

CYYZ;2009-03-31 20:00;CYYZ 312000Z 11016KT 15SM FEW025 BKN280 05/M03 A3008 RMK CF1CI2 SLP194

CYYZ;2009-03-31 21:00;CYYZ 312100Z 09013G20KT 15SM FEW025 BKN280 04/M03 A3006 RMK CF1CI1 SLP186

CYYZ;2009-03-31 22:00;CYYZ 312200Z 09013G24KT 15SM FEW280 04/M03 A3002 RMK CI1 SLP174

CYYZ;2009-03-31 23:00;CYYZ 312300Z 08014G22KT 15SM SCT180 BKN280 03/M03 A3000 RMK AC3CI1 SLP167

CYYZ;2009-04-01 01:00;CYYZ 010100Z 10014G22KT 15SM BKN140 BKN220 03/M02 A2995 RMK AC6CI1 SLP151

CYYZ;2009-04-01 02:00;CYYZ 010200Z 10013G21KT 15SM BKN130 04/M02 A2994 RMK AC6 SLP145

CYYZ;2009-04-01 03:00;CYYZ 010300Z 09012G19KT 15SM BKN120 OVC150 04/M01 A2991 RMK AC6AC2 SLP134

CYYZ;2009-04-01 04:00;CYYZ 010400Z 08010G18KT 15SM BKN110 OVC140 04/M01 A2989 RMK AC6AC2 SLP128

CYYZ;2009-04-01 04:55;CYYZ 010455Z 08009KT 15SM -SHRA BKN057 OVC074 04/ RMK SC5AC3

CYYZ;2009-04-01 05:00;CYYZ 010500Z 09011KT 15SM -SHRA BKN061 OVC074 04/M01 A2989 RMK SC5AC3 SLP128

CYYZ;2009-04-01 05:24;CYYZ 010524Z 08012G18KT 15SM BKN084 OVC090 04/ RMK AC5AC3

CYYZ;2009-04-01 06:00;CYYZ 010600Z 10009G15KT 15SM BKN110 OVC140 04/M01 A2984 RMK AC5AC3 SLP110

CYYZ;2009-04-01 07:00;CYYZ 010700Z 09010KT 15SM BKN083 OVC110 05/M00 A2982 RMK AC5AC3 SLP102

CYYZ;2009-04-01 08:00;CYYZ 010800Z 09011KT 15SM OVC089 05/M00 A2979 RMK AC8 SLP092

CYYZ;2009-04-01 09:00;CYYZ 010900Z 10009KT 15SM BKN085 OVC110 05/00 A2978 RMK AC5AC3 SLP089

CYYZ;2009-04-01 09:39;CYYZ 010939Z 10007KT 15SM -SHRA BKN068 OVC075 05/ RMK AC5AC3

CYYZ;2009-04-01 10:00;CYYZ 011000Z 09007KT 15SM -SHRA BKN084 OVC092 06/00 A2977 RMK AC5AC3 SLP087

CYYZ;2009-04-01 10:34;CYYZ 011034Z 08007KT 15SM SCT058 BKN073 06/ RMK SC3AC4

CYYZ;2009-04-01 11:00;CYYZ 011100Z 11006KT 15SM SCT060 OVC064 06/01 A2975 RMK SC3SC5 SLP081

CYYZ;2009-04-01 12:00;CYYZ 011200Z 10004KT 15SM OVC065 07/01 A2976 RMK SC8 SLP084

CYYZ;2009-04-01 12:18;CYYZ 011218Z 11005KT 15SM -RA OVC060 07/ RMK SC8

CYYZ;2009-04-01 13:00;CYYZ 011300Z 12005KT 12SM -RA OVC053 07/03 A2976 RMK SC8 SLP084

CYYZ;2009-04-01 14:00;CYYZ 011400Z 14010KT 8SM -RA FEW035 OVC055 06/03 A2977 RMK SC2SC6 SLP088

CYYZ;2009-04-01 15:00;CYYZ 011500Z 18009G18KT 8SM -RA BKN014 OVC040 07/04 A2980 RMK SF6SC2 SLP096

CYYZ;2009-04-01 15:10;CYYZ 011510Z 19011G17KT 5SM -RA FEW006 OVC012 07/ RMK SF2SF6

CYYZ;2009-04-01 15:21;CYYZ 011521Z 18014KT 7SM -RA BKN007 OVC040 07/ RMK SF6SC2

CYYZ;2009-04-01 16:00;CYYZ 011600Z 19012G17KT 9SM SCT007 BKN078 09/06 A2976 RMK SF3AC4 SLP084

CYYZ;2009-04-01 17:00;CYYZ 011700Z 19007KT 15SM FEW009 BKN015 10/08 A2975 RMK SF2SC6 SLP081

CYYZ;2009-04-01 18:00;CYYZ 011800Z 21012G21KT 15SM FEW035 BKN055 12/05 A2975 RMK SF1SC4 SLP077

CYYZ;2009-04-01 19:00;CYYZ 011900Z 19018KT 15SM FEW035 13/02 A2973 RMK SC1 SLP071

CYYZ;2009-04-01 20:00;CYYZ 012000Z 21022G31KT 15SM FEW045 13/M02 A2974 RMK SC1 SLP076

CYYZ;2009-04-01 21:00;CYYZ 012100Z 24027G38KT 15SM FEW060 12/M02 A2977 RMK CF2 CU ASOCTD SLP083

CYYZ;2009-04-01 22:00;CYYZ 012200Z 23024G32KT 15SM FEW060 12/M01 A2978 RMK CF2 SLP087

CYYZ;2009-04-01 23:00;CYYZ 012300Z 23022G29KT 15SM FEW056 12/M02 A2978 RMK CU1 SLP088

CYYZ;2009-04-02 00:00;CYYZ 020000Z 22015G20KT 15SM FEW050 11/M02 A2980 RMK SC1 SLP093

CYYZ;2009-04-02 01:00;CYYZ 020100Z 22010KT 15SM FEW050 10/M02 A2981 RMK SC1 SLP098

CYYZ;2009-04-02 02:00;CYYZ 020200Z 20008KT 15SM FEW050 09/M02 A2983 RMK SC1 SLP104

CYYZ;2009-04-02 03:00;CYYZ 020300Z 19004KT 15SM FEW050 07/M01 A2985 RMK SC1 SLP111

CYYZ;2009-04-02 04:00;CYYZ 020400Z 33012KT 15SM FEW050 FEW260 07/M01 A2989 RMK SC1CI1 SLP124

CYYZ;2009-04-02 05:00;CYYZ 020500Z 34008KT 15SM FEW240 04/M02 A2991 RMK CI1 SLP133

CYYZ;2009-04-02 06:00;CYYZ 020600Z 36005KT 15SM FEW220 03/M03 A2992 RMK CI0 SLP137

CYYZ;2009-04-02 07:00;CYYZ 020700Z 23002KT 15SM SCT210 02/M04 A2993 RMK CI0 SLP139

CYYZ;2009-04-02 08:00;CYYZ 020800Z 17003KT 15SM FEW190 SCT220 03/M03 A2993 RMK AC1CI0 SLP141

CYYZ;2009-04-02 09:00;CYYZ 020900Z 20003KT 15SM BKN180 BKN210 03/M03 A2994 RMK AC4CI0 SLP143

CYYZ;2009-04-02 10:00;CYYZ 021000Z 17004KT 15SM BKN170 BKN220 04/M02 A2994 RMK AC4CI0 SLP144

CYYZ;2009-04-02 11:00;CYYZ 021100Z 19002KT 15SM OVC140 04/M02 A2995 RMK AS2 SLP146

CYYZ;2009-04-02 12:00;CYYZ 021200Z 13005KT 15SM OVC130 05/M01 A2995 RMK AS3 SLP145

CYYZ;2009-04-02 13:00;CYYZ 021300Z 14006KT 15SM FEW140 SCT280 05/M00 A2995 RMK AC1CI0 SLP146

CYYZ;2009-04-02 14:00;CYYZ 021400Z 16004KT 15SM FEW140 FEW280 08/00 A2994 RMK AC1CI0 SLP144

CYYZ;2009-04-02 15:00;CYYZ 021500Z 17006KT 15SM SCT280 11/01 A2993 RMK CI0 SLP139

CYYZ;2009-04-02 16:00;CYYZ 021600Z 19011KT 15SM BKN280 13/01 A2992 RMK CI2 SLP134

CYYZ;2009-04-02 17:00;CYYZ 021700Z 17011G17KT 15SM BKN280 13/00 A2990 RMK CS6 SLP129

CYYZ;2009-04-02 18:00;CYYZ 021800Z 16011KT 15SM FEW050 FEW090 BKN230 14/00 A2988 RMK CF1AC1CS7 SLP122

CYYZ;2009-04-02 19:00;CYYZ 021900Z 16007KT 15SM FEW050 FEW090 BKN200 15/01 A2984 RMK SC1AC1CS6 SLP110

CYYZ;2009-04-02 20:00;CYYZ 022000Z 15007KT 15SM FEW050 OVC130 15/00 A2984 RMK CF1AS7 SLP108

CYYZ;2009-04-02 21:00;CYYZ 022100Z 12008KT 15SM FEW120 SCT280 14/M00 A2979 RMK AC2CI1 SLP092

CYYZ;2009-04-02 22:00;CYYZ 022200Z 15006KT 15SM OVC170 14/M01 A2981 RMK AC7 SLP098

CYYZ;2009-04-02 23:00;CYYZ 022300Z 09010KT 15SM FEW130 BKN170 BKN210 13/M01 A2979 RMK AC2AC3CI1 SLP091

CYYZ;2009-04-03 00:00;CYYZ 030000Z 08011KT 15SM FEW140 SCT220 12/M02 A2975 RMK AC2CI0 SLP078

CYYZ;2009-04-03 01:00;CYYZ 030100Z 08005KT 15SM FEW130 BKN170 11/M02 A2974 RMK AC1AC2 SLP075

CYYZ;2009-04-03 02:00;CYYZ 030200Z 07007KT 15SM FEW086 SCT170 11/M02 A2972 RMK AC1AC1 SLP069

CYYZ;2009-04-03 03:00;CYYZ 030300Z CCA 08012G17KT 15SM SCT120 BKN240 12/M02 A2967 RMK AC3CI0 PRESFR SLP048

CYYZ;2009-04-03 04:00;CYYZ 030400Z 10018G26KT 15SM BKN073 BKN096 12/M02 A2963 RMK AC5AC2 SLP036

CYYZ;2009-04-03 04:28;CYYZ 030428Z 10011G17KT 15SM -SHRA BKN062 OVC072 11/ RMK SC6AC2

CYYZ;2009-04-03 05:00;CYYZ 030500Z 09010KT 15SM -SHRA BKN051 OVC063 10/01 A2960 RMK SC6SC2 SLP025

CYYZ;2009-04-03 05:37;CYYZ 030537Z 08006KT 15SM BKN046 OVC058 09/ RMK SC6SC2

CYYZ;2009-04-03 06:00;CYYZ 030600Z 09009KT 15SM BKN045 OVC060 09/01 A2956 RMK SC6SC2 SLP013

CYYZ;2009-04-03 06:16;CYYZ 030616Z 08007KT 12SM -SHRA BKN039 OVC058 09/ RMK SC6SC2

CYYZ;2009-04-03 07:00;CYYZ 030700Z 08012KT 12SM -SHRA FEW014 OVC065 08/03 A2952 RERA RMK SC2SC6 SLP998

CYYZ;2009-04-03 07:38;CYYZ 030738Z 07008KT 15SM SCT062 OVC071 08/ RMK SC3AC5

CYYZ;2009-04-03 08:00;CYYZ 030800Z 08009KT 15SM BKN038 OVC070 08/05 A2947 RMK SC6AC2 SLP982

CYYZ;2009-04-03 09:00;CYYZ 030900Z 08013G19KT 15SM BKN039 OVC068 09/04 A2942 RMK SC6AC2 SLP963

CYYZ;2009-04-03 09:52;CYYZ 030952Z 08012G19KT 15SM -SHRA OVC038 09/ RMK SC8

CYYZ;2009-04-03 10:00;CYYZ 031000Z 09013G19KT 12SM -SHRA OVC037 09/06 A2938 RMK SC8 SLP951

CYYZ;2009-04-03 11:00;CYYZ 031100Z 08014KT 8SM -RA OVC028 10/08 A2934 RMK SC8 SLP937

CYYZ;2009-04-03 12:00;CYYZ 031200Z 09015G20KT 5SM -RA BR OVC019 10/08 A2930 RMK SC8 SLP923

CYYZ;2009-04-03 12:15;CYYZ 031215Z 09018G25KT 5SM RA BR BKN007 OVC018 10/ RMK SF5SC3

CYYZ;2009-04-03 12:20;CYYZ 031220Z 09018G25KT 3SM RA BR BKN004 OVC018 10/ RMK SF5SC3

CYYZ;2009-04-03 12:27;CYYZ 031227Z 09015G22KT 2SM +RA BR BKN004 OVC012 09/ RMK SF5SC3

CYYZ;2009-04-03 12:42;CYYZ 031242Z 08015KT 4SM -RA BR BKN005 OVC015 09/ RMK SF6SC2 RERA

CYYZ;2009-04-03 13:00;CYYZ 031300Z 08014KT 4SM RA BR BKN004 OVC009 09/08 A2925 RMK SF6SF2 RERA SLP909

CYYZ;2009-04-03 14:00;CYYZ 031400Z 09015G24KT 3SM RA BR BKN004 OVC008 10/08 A2921 RMK SF6NS2 SLP894

CYYZ;2009-04-03 15:00;CYYZ 031500Z 09017G25KT 4SM -RA BR BKN004 OVC008 09/08 A2918 RMK SF5NS3 RERA SLP882

CYYZ;2009-04-03 16:00;CYYZ 031600Z 09016G24KT 4SM -RA BR BKN004 OVC007 09/07 A2914 RMK SF5NS3 SLP871

CYYZ;2009-04-03 17:00;CYYZ 031700Z 09016G24KT 5SM -RA BR BKN004 BKN013 OVC021 09/08 A2911 RMK SF5SC2NS2 SLP859

CYYZ;2009-04-03 18:00;CYYZ 031800Z 09011G18KT 4SM -RA BR BKN005 OVC019 09/08 A2908 RMK SF5NS3 /R23/ SLP849

CYYZ;2009-04-03 19:00;CYYZ 031900Z 09011G17KT 3SM -RA BR BKN004 OVC012 09/08 A2905 RMK SF5NS3 SLP841

CYYZ;2009-04-03 19:21;CYYZ 031921Z 09008G15KT 2SM -RA BR BKN004 OVC012 09/ RMK SF5NS3

CYYZ;2009-04-03 20:00;CYYZ 032000Z 09006KT 2SM -RA BR OVC004 09/08 A2904 RMK FG2SF6 SLP835

CYYZ;2009-04-03 21:00;CYYZ 032100Z 08003KT 2SM -RA BR OVC004 09/08 A2903 RMK FG2SF6 SLP834

CYYZ;2009-04-03 21:27;CYYZ 032127Z 00000KT 2SM -RA BR OVC006 09/ RMK FG2SF6

CYYZ;2009-04-03 22:00;CYYZ 032200Z 28003KT 3SM -RA BR BKN009 OVC023 09/08 A2904 RMK SF5NS3 RERA SLP838

CYYZ;2009-04-03 22:24;CYYZ 032224Z 23005KT 4SM -RA BR BKN004 OVC023 10/ RMK SF6NS2

CYYZ;2009-04-03 23:00;CYYZ 032300Z 26016G25KT 8SM -RA SCT008 OVC014 09/07 A2906 RMK SF4NS4 /R11/ SLP842

CYYZ;2009-04-03 23:18;CYYZ 032318Z 27018G25KT 8SM -RA FEW007 BKN045 OVC060 08/ RMK SF2SC3SC3

CYYZ;2009-04-04 00:00;CYYZ 040000Z 27022G29KT 10SM -RA FEW007 SCT015 BKN064 OVC070 07/04 A2908 RMK SF2SC2SC3AC2 SLP851

CYYZ;2009-04-04 01:00;CYYZ 040100Z 29025G32KT 10SM -RA FEW006 BKN019 OVC050 05/02 A2912 RMK SF2SC4SC2 SLP864

CYYZ;2009-04-04 02:00;CYYZ 040200Z 29024G31KT 10SM -RA FEW007 BKN019 OVC035 04/01 A2916 RMK SF2SC4SC2 SLP875

CYYZ;2009-04-04 03:00;CYYZ 040300Z 29026G36KT 10SM -RA FEW009 BKN056 OVC064 04/00 A2917 RMK SF2SC2SC3 SLP883

CYYZ;2009-04-04 04:00;CYYZ 040400Z 29030G35KT 10SM -RA FEW018 BKN056 OVC070 03/M00 A2920 RMK SF2SC3AC3 SLP893

CYYZ;2009-04-04 05:00;CYYZ 040500Z 29031G40KT 12SM -RA FEW018 OVC058 03/M01 A2924 RMK SF2SC6 PCPN VRY LGT SLP904

CYYZ;2009-04-04 06:00;CYYZ 040600Z 29029G36KT 15SM -RA FEW022 BKN050 OVC061 03/M01 A2928 RMK SF2SC4SC2 PCPN VRY LGT SLP918

CYYZ;2009-04-04 07:00;CYYZ 040700Z 29027G35KT 15SM -RA FEW020 BKN055 OVC075 03/M01 A2931 RMK SF2SC5AC2 PCPN VRY LGT SLP928

CYYZ;2009-04-04 07:45;CYYZ 040745Z 29024G37KT 15SM FEW025 SCT100 BKN110 03/ RMK SC2AC2AC3

CYYZ;2009-04-04 08:00;CYYZ 040800Z 29029G35KT 15SM FEW025 SCT037 BKN093 BKN110 03/M01 A2934 RMK SC2SC2AC2AC2 SLP941

CYYZ;2009-04-04 09:00;CYYZ 040900Z 30028G40KT 15SM FEW025 BKN100 BKN120 03/M02 A2938 RMK SC2AC4AC2 SLP954

CYYZ;2009-04-04 10:00;CYYZ 041000Z 30026G40KT 15SM FEW025 BKN100 BKN120 03/M02 A2941 RMK SC2AC4AC2 SLP963

CYYZ;2009-04-04 11:00;CYYZ 041100Z 30029G40KT 15SM FEW023 BKN087 OVC110 03/M03 A2945 RMK SC2AC5AC2 SLP977

CYYZ;2009-04-04 12:00;CYYZ 041200Z 31029G34KT 15SM FEW023 OVC100 03/M03 A2949 RMK SC2AC6 SLP991

CYYZ;2009-04-04 13:00;CYYZ 041300Z 30027G39KT 15SM SCT028 OVC120 03/M03 A2953 RMK SC3AC5 SLP005

CYYZ;2009-04-04 14:00;CYYZ 041400Z 31031G36KT 15SM BKN031 OVC140 03/M03 A2955 RMK SC6AC2 SLP011

CYYZ;2009-04-04 15:00;CYYZ 041500Z 31026G37KT 15SM OVC024 03/M03 A2959 RMK SC8 SLP025

CYYZ;2009-04-04 16:00;CYYZ 041600Z 31028G38KT 15SM OVC022 04/M02 A2962 RMK SC8 SLP036

CYYZ;2009-04-04 17:00;CYYZ 041700Z 31034G40KT 15SM OVC023 04/M02 A2964 RMK SC8 SLP044

CYYZ;2009-04-04 18:00;CYYZ 041800Z 31037G42KT 15SM OVC023 04/M02 A2967 RMK SC8 SLP052

CYYZ;2009-04-04 19:00;CYYZ 041900Z 30034G43KT 15SM BKN026 04/M02 A2969 RMK SC7 SLP060

CYYZ;2009-04-04 20:00;CYYZ 042000Z 31027G36KT 15SM SCT028 BKN053 BKN100 05/M02 A2972 RMK SC3SC2AC1 SLP069

CYYZ;2009-04-04 21:00;CYYZ 042100Z 30029G35KT 15SM FEW026 BKN054 05/M02 A2974 RMK CU1SC6 SLP077

CYYZ;2009-04-04 22:00;CYYZ 042200Z 30027G34KT 15SM FEW022 FEW029 BKN049 04/M02 A2977 RMK CF1SC2SC6 SLP087

CYYZ;2009-04-04 23:00;CYYZ 042300Z 29024KT 15SM FEW022 FEW040 BKN045 05/M02 A2980 RMK CF1SC2SC6 SLP096

CYYZ;2009-04-05 00:00;CYYZ 050000Z 30021G33KT 15SM FEW035 BKN043 BKN250 04/M03 A2982 RMK SC2SC5CI1 CI TR SLP103

CYYZ;2009-04-05 01:00;CYYZ 050100Z 30020G30KT 15SM SCT037 BKN048 04/M04 A2984 RMK SC3SC3 SLP112

CYYZ;2009-04-05 02:00;CYYZ 050200Z 30016G22KT 15SM SCT039 BKN045 04/M04 A2986 RMK SC3SC3 SLP117

CYYZ;2009-04-05 03:00;CYYZ 050300Z 30017G24KT 15SM FEW040 BKN050 03/M04 A2987 RMK SC2SC3 SLP121

CYYZ;2009-04-05 04:00;CYYZ 050400Z 31017G24KT 15SM BKN049 03/M04 A2987 RMK SC5 SLP120

CYYZ;2009-04-05 05:00;CYYZ 050500Z 30014G19KT 15SM BKN045 03/M04 A2987 RMK SC5 SLP122

CYYZ;2009-04-05 06:00;CYYZ 050600Z 31016G22KT 15SM BKN040 03/M04 A2989 RMK SC5 SLP126

CYYZ;2009-04-05 07:00;CYYZ 050700Z 30013G19KT 15SM FEW050 02/M04 A2989 RMK SC2 SLP128

CYYZ;2009-04-05 08:00;CYYZ 050800Z 31015KT 15SM FEW050 01/M04 A2990 RMK SC1 SLP131

CYYZ;2009-04-05 09:00;CYYZ 050900Z 31013KT 15SM SKC 01/M05 A2991 RMK SLP136

CYYZ;2009-04-05 10:00;CYYZ 051000Z 31015KT 15SM SKC 01/M05 A2990 RMK SLP133

CYYZ;2009-04-05 11:00;CYYZ 051100Z 34015KT 15SM FEW050 FEW120 01/M05 A2990 RMK SC1AC1 SLP132

CYYZ;2009-04-05 12:00;CYYZ 051200Z 33009G15KT 15SM FEW050 FEW120 01/M05 A2991 RMK SC1AC1 SLP136

CYYZ;2009-04-05 13:00;CYYZ 051300Z 34015G20KT 15SM SCT120 02/M04 A2991 RMK AC2 SLP135

CYYZ;2009-04-05 14:00;CYYZ 051400Z 31013KT 15SM BKN120 04/M03 A2990 RMK AC3 SLP131

CYYZ;2009-04-05 15:00;CYYZ 051500Z 33006KT 15SM SCT130 06/M02 A2988 RMK AC2 SLP124

CYYZ;2009-04-05 16:00;CYYZ 051600Z 31005KT 15SM FEW036 FEW120 08/M01 A2987 RMK CF1AC1 CF TR SLP121

CYYZ;2009-04-05 17:00;CYYZ 051700Z 31006KT 15SM FEW035 FEW120 FEW210 09/M00 A2986 RMK CF1AC1CI1 SLP116

CYYZ;2009-04-05 18:00;CYYZ 051800Z 18002KT 15SM FEW035 FEW120 FEW220 10/00 A2983 RMK CF1AC1CI0 SLP104

CYYZ;2009-04-05 19:00;CYYZ 051900Z 04005KT 15SM FEW040 FEW130 FEW220 11/01 A2981 RMK CF1AC1CI0 SLP099

CYYZ;2009-04-05 20:00;CYYZ 052000Z 03003KT 15SM FEW046 FEW130 BKN240 12/01 A2979 RMK CF1AC1CI2 SLP091

CYYZ;2009-04-05 21:00;CYYZ 052100Z 15008KT 15SM FEW045 FEW130 BKN240 11/M01 A2977 RMK SC1AC1CI2 SLP087

CYYZ;2009-04-05 22:00;CYYZ 052200Z 14006KT 15SM FEW042 FEW130 BKN220 10/M02 A2978 RMK SC1AC1CS4 SC TR SLP089

CYYZ;2009-04-05 23:00;CYYZ 052300Z 02011KT 15SM FEW050 FEW220 BKN280 09/01 A2977 RMK SC1CC1CI4 SLP085

CYYZ;2009-04-06 00:00;CYYZ 060000Z 01011KT 15SM FEW050 OVC250 07/M00 A2977 RMK SC1CS4 SLP085

CYYZ;2009-04-06 01:00;CYYZ 060100Z 03011G16KT 15SM FEW050 OVC200 07/M02 A2976 RMK SC1CS6 SLP083

CYYZ;2009-04-06 02:00;CYYZ 060200Z 03011KT 15SM SCT095 BKN200 06/M01 A2975 RMK AC3CI2 SLP080

CYYZ;2009-04-06 03:00;CYYZ 060300Z 04011KT 15SM OVC100 06/M01 A2973 RMK AS8 SLP071

CYYZ;2009-04-06 04:00;CYYZ 060400Z 03011G17KT 15SM OVC110 05/M01 A2970 RMK AS8 SLP061

CYYZ;2009-04-06 05:00;CYYZ 060500Z 04009KT 15SM OVC080 06/M01 A2966 RMK AS8 SLP048

CYYZ;2009-04-06 05:34;CYYZ 060534Z 04014G19KT 15SM -RA OVC040 05/ RMK NS8

CYYZ;2009-04-06 06:00;CYYZ 060600Z 04014KT 12SM -RA OVC045 05/M00 A2959 RMK NS8 SLP025

CYYZ;2009-04-06 07:00;CYYZ 060700Z 05012KT 15SM -RA FEW033 OVC043 05/00 A2958 RMK SC1SC7 SLP021

CYYZ;2009-04-06 08:00;CYYZ 060800Z 08009G19KT 15SM -RA BKN017 OVC042 04/00 A2957 RMK SF6SC2 SLP016

CYYZ;2009-04-06 09:00;CYYZ 060900Z 05014G20KT 10SM -RA FEW010 OVC015 03/M00 A2946 RMK SF2SF6 PRESFR SLP982

CYYZ;2009-04-06 09:45;CYYZ 060945Z 05015G22KT 12SM -RA FEW009 BKN012 OVC016 03/ RMK SF1SF5SF2

CYYZ;2009-04-06 10:00;CYYZ 061000Z 04014G20KT 12SM -RA FEW009 OVC012 03/M01 A2943 RMK SF2SF6 SLP969

CYYZ;2009-04-06 10:27;CYYZ 061027Z 04012G17KT 7SM -RAPL FEW007 OVC010 02/ RMK SF2SC6

CYYZ;2009-04-06 10:53;CYYZ 061053Z 04012KT 3SM -RASNPL BKN007 OVC014 01/ RMK SF6SC2

CYYZ;2009-04-06 11:00;CYYZ 061100Z 04013KT 1 3/4SM -RASN BKN006 OVC011 01/M02 A2940 RMK SF6SC2 SLP961

CYYZ;2009-04-06 11:10;CYYZ 061110Z 03013G18KT 10SM -RASN SCT007 BKN014 OVC022 01/ RMK SF3SC2SC2

CYYZ;2009-04-06 12:00;CYYZ 061200Z 04012KT 3SM -RASN BKN007 OVC012 01/M01 A2938 RMK SF6SF2 SLP955

CYYZ;2009-04-06 12:24;CYYZ 061224Z 03012G17KT 8SM -RASNPL SCT007 OVC011 01/ RMK SF3SC5

CYYZ;2009-04-06 12:52;CYYZ 061252Z 02012KT 2SM -RASN SCT006 OVC010 01/ RMK SF3SF5

CYYZ;2009-04-06 13:00;CYYZ 061300Z 02012KT 1 1/2SM -RASN BKN006 OVC010 01/M01 A2937 RMK SF6SF2 SLP950

CYYZ;2009-04-06 13:12;CYYZ 061312Z 02016KT 1SM R05/6000FT/D R06R/4500VP6000FT/D -RASN BKN006 OVC012 01/ RMK SF6NS2 RWY 33L P6000FT D

CYYZ;2009-04-06 13:27;CYYZ 061327Z 01012KT 6SM -RASNPL FEW006 BKN011 OVC023 01/ RMK SF2SC4NS2

CYYZ;2009-04-06 14:00;CYYZ 061400Z 01015KT 3SM -RASNPL BKN006 OVC012 01/M02 A2935 RMK SF6NS2 SLP943

CYYZ;2009-04-06 14:34;CYYZ 061434Z 01014KT 2SM -RASNPL BKN007 OVC014 01/ RMK SF6NS2

CYYZ;2009-04-06 15:00;CYYZ 061500Z 01016KT 6SM -RASN FEW006 OVC013 01/M02 A2933 RMK SF2SC6 SLP937

CYYZ;2009-04-06 16:00;CYYZ 061600Z 02015KT 5SM -RASN FEW007 OVC012 01/M01 A2931 RMK SF2SC6 /S01/ SLP931

CYYZ;2009-04-06 16:30;CYYZ 061630Z 01018KT 2 1/4SM -RASN FEW007 OVC012 01/ RMK SF2SC6

CYYZ;2009-04-06 17:00;CYYZ 061700Z 36016G21KT 4SM -RASN FEW005 BKN010 OVC019 01/M01 A2929 RMK SF2SC5NS2 SLP925

CYYZ;2009-04-06 17:26;CYYZ 061726Z 36016G21KT 2SM -RASN FEW007 OVC012 01/ RMK SF2SF6

CYYZ;2009-04-06 18:00;CYYZ 061800Z 35019G25KT 2SM -RASN FEW007 BKN013 OVC019 01/M02 A2929 RMK SC2SC5NS2 SLP923

CYYZ;2009-04-06 18:30;CYYZ 061830Z 36019G26KT 4SM -RASNPL SCT007 OVC018 01/ RMK SF3SC5

CYYZ;2009-04-06 19:00;CYYZ 061900Z 36020G27KT 5SM -RASN FEW005 BKN009 OVC019 01/M01 A2929 RMK SF2SC4SC2 SLP924

CYYZ;2009-04-06 19:29;CYYZ 061929Z 35018G26KT 6SM -RASN FEW006 SCT012 OVC022 01/ RMK SF2SC2SC4

CYYZ;2009-04-06 20:00;CYYZ 062000Z 35020G27KT 2 1/2SM -RASN BKN009 OVC024 01/M02 A2930 RMK SF5NS3 SLP928

CYYZ;2009-04-06 20:39;CYYZ 062039Z CCA 35021G27KT 2 1/4SM -RASN FEW008 OVC029 00/ RMK SF2NS6

CYYZ;2009-04-06 21:00;CYYZ 062100Z 35021G27KT 4SM -SN FEW007 BKN011 OVC031 00/M02 A2932 RMK SF1SC6NS2 SLP935

CYYZ;2009-04-06 22:00;CYYZ 062200Z 34019G28KT 3SM -SN BKN012 OVC021 M00/M03 A2934 RMK SC6NS2 SLP940

CYYZ;2009-04-06 22:33;CYYZ 062233Z 34024G32KT 12SM -SN FEW012 OVC053 M01/ RMK SF2SC6

CYYZ;2009-04-06 23:00;CYYZ 062300Z 34026KT 15SM -SN SCT015 OVC050 M01/M04 A2936 RMK SF3SC5 SLP947

CYYZ;2009-04-06 23:20;CYYZ 062320Z 34024G33KT 15SM FEW015 BKN048 OVC065 M01/ RMK SF2SC5SC1

CYYZ;2009-04-07 00:00;CYYZ 070000Z 33026G31KT 12SM FEW016 FEW045 BKN065 OVC075 M01/M05 A2937 RMK SF1SF2SC4AC2 SLP953

CYYZ;2009-04-07 00:21;CYYZ 070021Z 34025G33KT 7SM -SN FEW015 OVC075 M01/ RMK SF1AC7

CYYZ;2009-04-07 01:00;CYYZ 070100Z 33027G33KT 3SM -SN FEW016 OVC024 M01/M05 A2938 RMK SF2NS6 SLP957

CYYZ;2009-04-07 02:00;CYYZ 070200Z 33033KT 3SM -SN FEW045 OVC080 M02/M06 A2939 RMK SC1AS7 SLP960

CYYZ;2009-04-07 02:23;CYYZ 070223Z 33028G35KT 2SM -SN SCT015 OVC020 M02/ RMK SN1SF3NS4

CYYZ;2009-04-07 03:00;CYYZ 070300Z 33025G30KT 2 1/2SM -SN FEW015 OVC080 M02/M06 A2940 RMK SF1AS8 SLP962

CYYZ;2009-04-07 03:23;CYYZ 070323Z 33020G30KT 4SM -SN OVC040 M02/ RMK NS8

CYYZ;2009-04-07 04:00;CYYZ 070400Z 32021G29KT 3SM -SN FEW015 OVC020 M02/M06 A2939 RMK SF2NS6 SLP961

CYYZ;2009-04-07 05:00;CYYZ 070500Z 33020G32KT 4SM -SN DRSN SCT018 OVC024 M03/M07 A2939 RMK SN1SF3SF4 /S01/ SLP960

CYYZ;2009-04-07 06:00;CYYZ 070600Z 32026G32KT 3SM -SN DRSN FEW015 OVC023 M03/M07 A2938 RMK SF2NS6 SLP958

CYYZ;2009-04-07 07:00;CYYZ 070700Z 32022G28KT 3SM -SN DRSN OVC028 M03/M07 A2938 RMK NS8 SLP956

CYYZ;2009-04-07 08:00;CYYZ 070800Z 32021G26KT 12SM FEW028 OVC082 M03/M08 A2937 RMK SF2AC6 SLP955

CYYZ;2009-04-07 09:00;CYYZ 070900Z 31016G22KT 15SM FEW025 OVC072 M03/M09 A2938 RMK SF2AC6 SLP956

CYYZ;2009-04-07 10:00;CYYZ 071000Z 31019G25KT 15SM FEW027 BKN095 M04/M10 A2938 RMK SF1AC6 SLP957

CYYZ;2009-04-07 11:00;CYYZ 071100Z 31018G26KT 15SM FEW022 BKN032 BKN061 M04/M09 A2940 RMK SC2SC3SC2 SLP962

CYYZ;2009-04-07 11:25;CYYZ 071125Z 30019G24KT 10SM -SN SCT023 OVC041 M04/ RMK SC3SC5

CYYZ;2009-04-07 12:00;CYYZ 071200Z 29015KT 8SM -SN SCT024 OVC031 M04/M09 A2941 RMK SC3NS5 SLP966

CYYZ;2009-04-07 13:00;CYYZ 071300Z 29022KT 8SM -SN FEW023 OVC039 M03/M09 A2941 RMK SC2NS6 SLP968

CYYZ;2009-04-07 13:27;CYYZ 071327Z 29019G25KT 2 1/2SM -SN SCT014 OVC029 M04/ RMK SF4NS4

CYYZ;2009-04-07 13:39;CYYZ 071339Z 29021G26KT 6SM -SN SCT029 BKN039 M03/ RMK SC4SC3

CYYZ;2009-04-07 14:00;CYYZ 071400Z 30023G30KT 10SM -SN SCT029 BKN039 M03/M09 A2942 RMK SC3SC4 SLP971

CYYZ;2009-04-07 14:45;CYYZ 071445Z 30022G27KT 10SM SCT028 BKN036 M03/ RMK SC3SC3

CYYZ;2009-04-07 15:00;CYYZ 071500Z 31018G25KT 6SM -SHSN SCT023 BKN029 M03/M08 A2943 RMK SC3SC4 SLP974

CYYZ;2009-04-07 15:38;CYYZ 071538Z 29020G27KT 10SM FEW027 BKN035 M02/ RMK SC2SC4

CYYZ;2009-04-07 16:00;CYYZ 071600Z 30019G26KT 10SM FEW025 BKN031 M02/M08 A2943 RMK SC2SC5 SLP976

CYYZ;2009-04-07 16:13;CYYZ 071613Z 30016G22KT 10SM -SHSN BKN028 OVC035 M01/ RMK SC6SC2

CYYZ;2009-04-07 16:48;CYYZ 071648Z 30019G26KT 10SM BKN027 BKN032 M01/ RMK SC5SC2

CYYZ;2009-04-07 17:00;CYYZ 071700Z 29021G27KT 10SM -SHSN BKN028 BKN033 M01/M07 A2943 RMK SC5SC2 SLP973

CYYZ;2009-04-07 18:00;CYYZ 071800Z 30022G30KT 10SM -SHSN BKN033 OVC037 M00/M07 A2943 RMK SC5SC3 SLP973

CYYZ;2009-04-07 19:00;CYYZ 071900Z 29022G29KT 10SM -SHSN BKN028 OVC033 M00/M07 A2944 RMK SC5SC3 SLP976

CYYZ;2009-04-07 20:00;CYYZ 072000Z 30017G25KT 10SM -SHSN BKN027 OVC032 M01/M07 A2946 RMK SC5SC3 SLP982

CYYZ;2009-04-07 21:00;CYYZ 072100Z 29019G26KT 8SM -SHSN BKN031 OVC037 M01/M07 A2947 RMK SC5SC3 SLP987

CYYZ;2009-04-07 22:00;CYYZ 072200Z 27017KT 8SM -SHSN FEW014 BKN031 OVC041 M01/M06 A2948 RMK SF2SC4SC2 SLP991

CYYZ;2009-04-07 23:00;CYYZ 072300Z 27020KT 10SM -SHSN BKN025 OVC040 M01/M06 A2949 RMK SF7SC1 SLP995

CYYZ;2009-04-07 23:53;CYYZ 072353Z 28019KT 12SM SCT028 OVC041 M01/ RMK SF4SC4

CYYZ;2009-04-08 00:00;CYYZ 080000Z 27014G22KT 12SM SCT032 OVC040 M01/M07 A2950 RMK SF4SC4 SLP997

CYYZ;2009-04-08 01:00;CYYZ 080100Z 27016KT 12SM FEW028 OVC045 M01/M07 A2951 RMK SF1SC7 SLP001

CYYZ;2009-04-08 02:00;CYYZ 080200Z 27010G16KT 15SM FEW025 BKN075 OVC130 M01/M07 A2952 RMK SF1AS6AC2 SLP005

CYYZ;2009-04-08 03:00;CYYZ 080300Z 26010KT 15SM FEW025 OVC055 M01/M06 A2952 RMK SF1SC7 SLP004

CYYZ;2009-04-08 03:45;CYYZ 080345Z 26015KT 10SM -SHSN OVC035 M01/ RMK SC8

CYYZ;2009-04-08 04:00;CYYZ 080400Z 25012G17KT 10SM -SHSN FEW018 OVC030 M01/M06 A2951 RMK SF2SC6 SLP001

CYYZ;2009-04-08 04:45;CYYZ 080445Z 25013KT 12SM FEW020 OVC070 M01/ RMK SF1AS6

CYYZ;2009-04-08 05:00;CYYZ 080500Z 26011KT 15SM FEW020 BKN070 OVC130 M02/M06 A2950 RMK SF1AS5AS1 SLP998

CYYZ;2009-04-08 06:00;CYYZ 080600Z 26010G15KT 12SM FEW020 OVC095 M01/M06 A2949 RMK SF1AS8 SLP994

CYYZ;2009-04-08 07:00;CYYZ 080700Z 26011G19KT 15SM SCT035 OVC080 M01/M06 A2948 RMK SC4AS2 SLP990

CYYZ;2009-04-08 08:00;CYYZ 080800Z 27010G15KT 15SM BKN045 BKN095 M01/M06 A2948 RMK SC5AS1 SLP990

CYYZ;2009-04-08 09:00;CYYZ 080900Z 25012KT 15SM SCT045 OVC090 M01/M06 A2947 RMK SC3AS3 SLP988

CYYZ;2009-04-08 10:00;CYYZ 081000Z 24011KT 15SM OVC041 M01/M06 A2948 RMK SC8 SLP990

CYYZ;2009-04-08 10:25;CYYZ 081025Z 24011G16KT 10SM -SHSN OVC027 M01/ RMK SC8

CYYZ;2009-04-08 11:00;CYYZ 081100Z 25016KT 12SM -SHSN BKN022 OVC028 M01/M06 A2949 RMK SC5SC3 SLP992

CYYZ;2009-04-08 11:17;CYYZ 081117Z 25013KT 15SM OVC023 M01/ RMK SC8

CYYZ;2009-04-08 12:00;CYYZ 081200Z 26015KT 15SM SCT022 OVC027 M00/M05 A2950 RMK SC4SC4 SLP997

CYYZ;2009-04-08 13:00;CYYZ 081300Z 27016KT 15SM BKN031 OVC039 00/M05 A2952 RMK SC5SC3 SLP002

CYYZ;2009-04-08 13:26;CYYZ 081326Z 26015G20KT 15SM -SHSN SCT020 BKN025 00/ RMK SC3SC4

CYYZ;2009-04-08 13:46;CYYZ 081346Z 26016KT 15SM FEW025 BKN034 BKN220 01/ RMK CU2SC4CI1

CYYZ;2009-04-08 14:00;CYYZ 081400Z 27018KT 15SM FEW023 BKN062 BKN220 01/M04 A2952 RMK CU2SC3CI1 SLP004

CYYZ;2009-04-08 15:00;CYYZ 081500Z 27016G21KT 15SM FEW024 SCT041 BKN078 BKN240 03/M04 A2953 RMK CU2SC1AC1CI1 SC AC TR SLP008

CYYZ;2009-04-08 16:00;CYYZ 081600Z 25020G27KT 15SM FEW038 SCT088 BKN220 04/M05 A2953 RMK CU2AS2CI1 SLP006

CYYZ;2009-04-08 17:00;CYYZ 081700Z 26017G27KT 15SM FEW035 BKN097 BKN240 06/M05 A2952 RMK CU2AS2CI1 SLP004

CYYZ;2009-04-08 18:00;CYYZ 081800Z 27024G31KT 15SM FEW035 SCT092 BKN110 BKN240 06/M07 A2951 RMK CU1AC2AS2CI0 SLP000

CYYZ;2009-04-08 19:00;CYYZ 081900Z 26023G28KT 15SM FEW035 SCT092 BKN110 BKN240 07/M07 A2951 RMK CU2AC2AS2CI0 SLP999

CYYZ;2009-04-08 20:00;CYYZ 082000Z 27027G34KT 15SM FEW035 BKN098 BKN240 07/M08 A2952 RMK CU2AC3CI1 SLP001

CYYZ;2009-04-08 21:00;CYYZ 082100Z 27021G33KT 15SM FEW035 BKN120 BKN240 07/M06 A2952 RMK CU2AC3CI1 SLP002

CYYZ;2009-04-08 22:00;CYYZ 082200Z 27020G31KT 15SM FEW035 BKN120 BKN240 07/M06 A2952 RMK CU2AC3CI1 SLP004

CYYZ;2009-04-08 23:00;CYYZ 082300Z 27018G24KT 15SM FEW035 BKN110 BKN220 08/M05 A2954 RMK CU2AC3CI2 SLP009

CYYZ;2009-04-09 00:00;CYYZ 090000Z 26011G17KT 15SM FEW035 BKN100 BKN110 BKN220 07/M05 A2955 RMK SC1AC5AC2CI1 SC TR SLP012

CYYZ;2009-04-09 01:00;CYYZ 090100Z 26010KT 15SM BKN110 BKN220 06/M05 A2957 RMK AC5CI1 SLP020

CYYZ;2009-04-09 02:00;CYYZ 090200Z 29009KT 15SM SCT130 BKN220 06/M04 A2960 RMK AC3CI1 SLP029

CYYZ;2009-04-09 03:00;CYYZ 090300Z 28006KT 15SM FEW080 FEW220 03/M06 A2962 RMK AC1CI1 SLP036

CYYZ;2009-04-09 04:00;CYYZ 090400Z 27009KT 15SM FEW090 FEW220 03/M06 A2963 RMK AC2CI1 SLP039

CYYZ;2009-04-09 05:00;CYYZ 090500Z 27011KT 15SM FEW090 FEW220 03/M06 A2964 RMK AC2CI1 SLP045

CYYZ;2009-04-09 06:00;CYYZ 090600Z 28010KT 15SM FEW090 02/M07 A2966 RMK AC2 SLP049

CYYZ;2009-04-09 07:00;CYYZ 090700Z 27011KT 15SM FEW080 01/M07 A2967 RMK AC1 SLP053

CYYZ;2009-04-09 08:00;CYYZ 090800Z 26007KT 15SM FEW080 M00/M07 A2968 RMK AC1 SLP055

CYYZ;2009-04-09 09:00;CYYZ 090900Z 26007KT 15SM SKC M01/M08 A2970 RMK SLP062

CYYZ;2009-04-09 10:00;CYYZ 091000Z 25007KT 15SM FEW100 FEW230 M01/M07 A2971 RMK AC2CI1 CI TR SLP066

CYYZ;2009-04-09 11:00;CYYZ 091100Z 26009KT 15SM FEW250 M00/M07 A2973 RMK CI1 SLP073

CYYZ;2009-04-09 12:00;CYYZ 091200Z 25006KT 15SM FEW250 02/M06 A2975 RMK CI1 SLP079

CYYZ;2009-04-09 13:00;CYYZ 091300Z 27008KT 15SM FEW250 05/M06 A2976 RMK CI1 SLP083

CYYZ;2009-04-09 14:00;CYYZ 091400Z 27010KT 15SM SKC 07/M05 A2977 RMK SLP087

CYYZ;2009-04-09 15:00;CYYZ 091500Z 28013G21KT 15SM SKC 08/M05 A2978 RMK SLP091

CYYZ;2009-04-09 16:00;CYYZ 091600Z 28019G25KT 15SM FEW035 09/M04 A2980 RMK CU1 SLP095

CYYZ;2009-04-09 17:00;CYYZ 091700Z 30021KT 15SM FEW061 10/M04 A2980 RMK CU2 SLP097

CYYZ;2009-04-09 18:00;CYYZ 091800Z 30018G28KT 15SM SCT063 11/M04 A2980 RMK CU3 SLP097

CYYZ;2009-04-09 19:00;CYYZ 091900Z 29013G25KT 15SM SCT064 BKN069 10/M04 A2981 RMK CU3AC3 SLP099

CYYZ;2009-04-09 20:00;CYYZ 092000Z 29013G20KT 15SM SCT059 BKN064 BKN078 11/M03 A2981 RMK CU3SC2AC1 SLP099

CYYZ;2009-04-09 21:00;CYYZ 092100Z 31018KT 15SM FEW064 BKN075 11/M03 A2983 RMK CU2AC3 SLP106

CYYZ;2009-04-09 22:00;CYYZ 092200Z 31016KT 15SM FEW063 SCT078 10/M04 A2985 RMK CU2AC2 SLP113

CYYZ;2009-04-09 23:00;CYYZ 092300Z 32013G18KT 15SM FEW035 SCT075 BKN096 09/M05 A2986 RMK CU2AC2AC2 SLP118

CYYZ;2009-04-10 00:00;CYYZ 100000Z 32006KT 15SM FEW030 FEW090 BKN110 08/M05 A2987 RMK SC1AC2AC2 SLP120

CYYZ;2009-04-10 01:00;CYYZ 100100Z 31005KT 15SM FEW030 BKN110 07/M05 A2989 RMK SC1AC4 SLP127

CYYZ;2009-04-10 02:00;CYYZ 100200Z 01006KT 15SM FEW030 BKN100 06/M05 A2992 RMK SC2AC3 SLP136

CYYZ;2009-04-10 03:00;CYYZ 100300Z 01008KT 15SM FEW030 BKN098 05/M05 A2994 RMK SC2AC4 SLP143

CYYZ;2009-04-10 04:00;CYYZ 100400Z 01006KT 15SM FEW030 SCT095 04/M05 A2995 RMK SC1AC3 SLP146

CYYZ;2009-04-10 05:00;CYYZ 100500Z 35005KT 15SM FEW030 FEW087 03/M05 A2995 RMK SC1AC2 SC TR SLP146

CYYZ;2009-04-10 06:00;CYYZ 100600Z 34007KT 15SM FEW090 02/M05 A2996 RMK AC1 SLP149

CYYZ;2009-04-10 07:00;CYYZ 100700Z 33006KT 15SM FEW080 01/M06 A2996 RMK AC1 SLP150

CYYZ;2009-04-10 08:00;CYYZ 100800Z 35009KT 15SM SKC 02/M06 A2997 RMK SLP152

CYYZ;2009-04-10 09:00;CYYZ 100900Z 02003KT 15SM SKC 00/M07 A2998 RMK SLP157

CYYZ;2009-04-10 10:00;CYYZ 101000Z 35004KT 15SM SKC 00/M07 A2999 RMK SLP161

CYYZ;2009-04-10 11:00;CYYZ 101100Z 04006KT 15SM FEW260 M00/M07 A3001 RMK CI1 SLP167

CYYZ;2009-04-10 12:00;CYYZ 101200Z 01009KT 15SM FEW260 02/M06 A3003 RMK CI0 SLP175

CYYZ;2009-04-10 13:00;CYYZ 101300Z 01008KT 15SM FEW260 03/M04 A3004 RMK CI0 SLP180

CYYZ;2009-04-10 14:00;CYYZ 101400Z 01009KT 15SM SCT250 04/M03 A3004 RMK CI1 SLP178

CYYZ;2009-04-10 15:00;CYYZ 101500Z 03006KT 15SM BKN250 06/M03 A3004 RMK CI2 SLP176

CYYZ;2009-04-10 16:00;CYYZ 101600Z 04006KT 15SM BKN240 08/M03 A3003 RMK CI2 SLP175

CYYZ;2009-04-10 17:00;CYYZ 101700Z 16002KT 15SM FEW180 BKN250 09/M03 A3001 RMK AC1CI3 SLP169

CYYZ;2009-04-10 18:00;CYYZ 101800Z 19004KT 15SM FEW180 BKN250 09/M01 A3000 RMK AC2CI2 SLP165

CYYZ;2009-04-10 19:00;CYYZ 101900Z 14007KT 15SM FEW180 BKN230 08/M01 A3001 RMK AC2CS3 SLP166

CYYZ;2009-04-10 20:00;CYYZ 102000Z 21002KT 15SM FEW180 BKN230 08/M01 A2998 RMK AC2CI3 SLP158

CYYZ;2009-04-10 21:00;CYYZ 102100Z 15003KT 15SM FEW180 BKN230 10/M01 A2998 RMK AC2CI3 SLP158

CYYZ;2009-04-10 22:00;CYYZ 102200Z 02013G18KT 15SM FEW160 BKN230 09/M01 A2997 RMK AC2CI2 SLP153

CYYZ;2009-04-10 23:00;CYYZ 102300Z 02012KT 15SM BKN240 08/M04 A2998 RMK CI7 SLP159

CYYZ;2009-04-11 00:00;CYYZ 110000Z 35012KT 15SM BKN240 07/M05 A3000 RMK CI6 SLP165

CYYZ;2009-04-11 01:00;CYYZ 110100Z 36015KT 15SM BKN250 04/M04 A3002 RMK CS6 SLP172

CYYZ;2009-04-11 02:00;CYYZ 110200Z 35011KT 15SM BKN250 03/M05 A3004 RMK CI4 SLP178

CYYZ;2009-04-11 03:00;CYYZ 110300Z 36013KT 15SM SCT250 02/M06 A3001 RMK CI1 SLP170

CYYZ;2009-04-11 04:00;CYYZ 110400Z 36013KT 15SM FEW250 02/M06 A3002 RMK CI1 SLP173

CYYZ;2009-04-11 05:00;CYYZ 110500Z 36007KT 15SM BKN270 01/M06 A3004 RMK CI2 SLP177

CYYZ;2009-04-11 06:00;CYYZ 110600Z 01005KT 15SM BKN270 01/M06 A3004 RMK CI2 SLP179

CYYZ;2009-04-11 07:00;CYYZ 110700Z 02004KT 15SM FEW270 02/M05 A3005 RMK CI0 SLP182

CYYZ;2009-04-11 08:00;CYYZ 110800Z 35006KT 15SM SCT042 00/M06 A3007 RMK SC2 SLP188

CYYZ;2009-04-11 09:00;CYYZ 110900Z 36011KT 15SM SKC 00/M06 A3008 RMK SLP192

CYYZ;2009-04-11 10:00;CYYZ 111000Z 36012KT 15SM FEW240 M00/M07 A3009 RMK CI1 SLP196

CYYZ;2009-04-11 11:00;CYYZ 111100Z 36009KT 15SM FEW160 FEW240 M01/M07 A3012 RMK AC1CI1 CI TR SLP206

CYYZ;2009-04-11 12:00;CYYZ 111200Z 01009KT 15SM FEW250 01/M07 A3014 RMK CI1 SLP214

CYYZ;2009-04-11 13:00;CYYZ 111300Z 02012KT 15SM FEW210 03/M06 A3016 RMK CI1 SLP221

CYYZ;2009-04-11 14:00;CYYZ 111400Z 03012KT 15SM FEW240 04/M07 A3017 RMK CI1 SLP223

CYYZ;2009-04-11 15:00;CYYZ 111500Z 03014G21KT 15SM FEW045 FEW240 05/M08 A3019 RMK CU1CI1 CU TR SLP229

CYYZ;2009-04-11 16:00;CYYZ 111600Z 01011KT 15SM FEW045 FEW240 07/M07 A3020 RMK CU1CI1 CU TR SLP232

CYYZ;2009-04-11 17:00;CYYZ 111700Z 02013G19KT 15SM FEW061 FEW240 07/M06 A3020 RMK CU2CI1 SLP233

CYYZ;2009-04-11 18:00;CYYZ 111800Z 36012G19KT 15SM FEW060 FEW240 07/M07 A3020 RMK CU2CI1 SLP232

CYYZ;2009-04-11 19:00;CYYZ 111900Z 35018G28KT 15SM SCT063 08/M08 A3019 RMK CU3 SLP229

CYYZ;2009-04-11 20:00;CYYZ 112000Z 35021G27KT 15SM FEW063 08/M08 A3019 RMK CU2 SLP230

CYYZ;2009-04-11 21:00;CYYZ 112100Z 33023G30KT 15SM FEW063 06/M10 A3019 RMK CU2 SLP231

CYYZ;2009-04-11 22:00;CYYZ 112200Z 34024G29KT 15SM FEW064 05/M10 A3020 RMK CU2 SLP234

CYYZ;2009-04-11 23:00;CYYZ 112300Z 35016G28KT 15SM FEW060 04/M09 A3022 RMK SC1 SLP241

CYYZ;2009-04-12 00:00;CYYZ 120000Z 34018KT 15SM FEW060 03/M09 A3024 RMK SC1 SLP247

CYYZ;2009-04-12 01:00;CYYZ 120100Z 34016KT 15SM SKC 02/M09 A3025 RMK SLP251

CYYZ;2009-04-12 02:00;CYYZ 120200Z 33012G17KT 15SM SKC 02/M09 A3026 RMK SLP254

CYYZ;2009-04-12 03:00;CYYZ 120300Z 34010KT 15SM SKC 01/M09 A3027 RMK SLP256

CYYZ;2009-04-12 04:00;CYYZ 120400Z 35011KT 15SM SKC 00/M09 A3027 RMK SLP256

CYYZ;2009-04-12 05:00;CYYZ 120500Z 34011KT 15SM SKC M00/M08 A3027 RMK SLP257

CYYZ;2009-04-12 06:00;CYYZ 120600Z 35010KT 15SM SKC M00/M08 A3028 RMK SLP259

CYYZ;2009-04-12 07:00;CYYZ 120700Z 34007KT 15SM SKC M01/M07 A3028 RMK SLP262

CYYZ;2009-04-12 08:00;CYYZ 120800Z 34009KT 15SM SKC M01/M07 A3030 RMK SLP266

CYYZ;2009-04-12 09:00;CYYZ 120900Z 33007KT 15SM SKC M02/M07 A3031 RMK SLP271

CYYZ;2009-04-12 10:00;CYYZ 121000Z 35008KT 15SM SKC M02/M08 A3032 RMK SLP275

CYYZ;2009-04-12 11:00;CYYZ 121100Z 34009KT 15SM FEW260 M02/M10 A3034 RMK CI1 SLP282

CYYZ;2009-04-12 12:00;CYYZ 121200Z 34008KT 15SM FEW260 M01/M10 A3037 RMK CI1 SLP291

CYYZ;2009-04-12 13:00;CYYZ 121300Z 34012G17KT 15SM FEW026 M00/M10 A3037 RMK CF1 SLP294

CYYZ;2009-04-12 14:00;CYYZ 121400Z 36018KT 15SM SKC 01/M11 A3037 RMK SLP294

CYYZ;2009-04-12 15:00;CYYZ 121500Z 35012G19KT 15SM SKC 02/M11 A3038 RMK SLP297

CYYZ;2009-04-12 16:00;CYYZ 121600Z 35015G25KT 15SM SKC 03/M11 A3038 RMK SLP296

CYYZ;2009-04-12 17:00;CYYZ 121700Z 36015KT 15SM SKC 04/M11 A3037 RMK SLP292

CYYZ;2009-04-12 18:00;CYYZ 121800Z 34011KT 15SM SKC 05/M10 A3036 RMK SLP288

CYYZ;2009-04-12 19:00;CYYZ 121900Z 31012G19KT 15SM FEW036 FEW260 06/M10 A3035 RMK CF1CI1 SLP286

CYYZ;2009-04-12 20:00;CYYZ 122000Z 32013G19KT 15SM FEW040 FEW260 06/M10 A3034 RMK CF1CI1 SLP283

CYYZ;2009-04-12 21:00;CYYZ 122100Z 36014G20KT 15SM FEW260 06/M11 A3032 RMK CI1 SLP275

CYYZ;2009-04-12 22:00;CYYZ 122200Z 36014G22KT 15SM FEW260 05/M10 A3032 RMK CI1 SLP276

CYYZ;2009-04-12 23:00;CYYZ 122300Z 35012G17KT 15SM FEW260 04/M10 A3031 RMK CI1 SLP271

CYYZ;2009-04-13 00:00;CYYZ 130000Z 35012KT 15SM FEW250 03/M10 A3033 RMK CI1 SLP277

CYYZ;2009-04-13 00:43;CYYZ 130043Z 35014KT 15SM FEW250 02/ RMK CI1

CYYZ;2009-04-13 01:00;CYYZ 130100Z 34012KT 15SM FEW250 02/M10 A3034 RMK CI1 SLP281

CYYZ;2009-04-13 02:00;CYYZ 130200Z 36012KT 15SM FEW250 01/M11 A3034 RMK CI1 SLP282

CYYZ;2009-04-13 03:00;CYYZ 130300Z 35012KT 15SM SKC M00/M10 A3034 RMK SLP280

CYYZ;2009-04-13 04:00;CYYZ 130400Z 36013KT 15SM SKC M01/M11 A3031 RMK SLP273

CYYZ;2009-04-13 05:00;CYYZ 130500Z 35010KT 15SM SKC M01/M11 A3031 RMK SLP270

CYYZ;2009-04-13 06:00;CYYZ 130600Z 29003KT 15SM SKC M02/M11 A3031 RMK SLP273

CYYZ;2009-04-13 07:00;CYYZ 130700Z 32007KT 15SM SKC M03/M11 A3030 RMK SLP267

CYYZ;2009-04-13 08:00;CYYZ 130800Z 35009KT 15SM SKC M02/M11 A3030 RMK SLP267

CYYZ;2009-04-13 09:00;CYYZ 130900Z 01009KT 15SM SKC M02/M11 A3028 RMK SLP262

CYYZ;2009-04-13 10:00;CYYZ 131000Z 35004KT 15SM FEW250 M03/M11 A3029 RMK CI1 SLP264

CYYZ;2009-04-13 11:00;CYYZ 131100Z 02006KT 15SM SCT250 M02/M10 A3029 RMK CI1 SLP264

CYYZ;2009-04-13 12:00;CYYZ 131200Z 03008KT 15SM SCT250 M01/M09 A3027 RMK CI1 SLP257

CYYZ;2009-04-13 13:00;CYYZ 131300Z 06003KT 15SM SCT260 02/M09 A3026 RMK CI1 SLP256

CYYZ;2009-04-13 14:00;CYYZ 131400Z 14006KT 15SM BKN260 04/M10 A3026 RMK CI1 SLP255

CYYZ;2009-04-13 15:00;CYYZ 131500Z 18006KT 15SM BKN220 05/M09 A3023 RMK CI2 SLP244

CYYZ;2009-04-13 16:00;CYYZ 131600Z 15007KT 15SM BKN210 05/M09 A3022 RMK CI2 SLP242

CYYZ;2009-04-13 17:00;CYYZ 131700Z 15006KT 15SM SCT160 BKN210 04/M09 A3020 RMK AS3CI1 SLP233

CYYZ;2009-04-13 18:00;CYYZ 131800Z 14006KT 15SM SCT140 BKN240 05/M07 A3015 RMK AS3CI2 SLP218

CYYZ;2009-04-13 19:00;CYYZ 131900Z 15008KT 15SM FEW160 BKN230 04/M09 A3011 RMK AC1CS5 SLP205

CYYZ;2009-04-13 20:00;CYYZ 132000Z 13008KT 15SM BKN220 06/M09 A3010 RMK CS5 SLP201

CYYZ;2009-04-13 21:00;CYYZ 132100Z 12009KT 15SM FEW150 BKN210 06/M10 A3008 RMK AC1CS4 SLP194

CYYZ;2009-04-13 22:00;CYYZ 132200Z 13007KT 15SM FEW180 BKN240 06/M10 A3007 RMK AC1CS5 SLP190

CYYZ;2009-04-13 23:00;CYYZ 132300Z 08005KT 15SM FEW170 BKN180 OVC220 06/M11 A3006 RMK AC2AS3CS2 SLP186

CYYZ;2009-04-14 00:00;CYYZ 140000Z 11007KT 15SM BKN140 OVC150 06/M10 A3005 RMK AC5AS3 SLP182

CYYZ;2009-04-14 01:00;CYYZ 140100Z 08008KT 15SM SCT110 OVC120 06/M11 A3007 RMK AC3AS5 SLP190

CYYZ;2009-04-14 02:00;CYYZ 140200Z 09007KT 15SM BKN120 OVC140 06/M10 A3005 RMK AC5AS3 SLP184

CYYZ;2009-04-14 03:00;CYYZ 140300Z 08005KT 15SM FEW035 SCT140 BKN190 05/M11 A3004 RMK SC2AC2AC2 SLP178

CYYZ;2009-04-14 04:00;CYYZ 140400Z 07005KT 15SM FEW030 SCT140 BKN220 05/M12 A3004 RMK SC1AC2CI2 SLP179

CYYZ;2009-04-14 05:00;CYYZ 140500Z 08008KT 15SM SCT150 BKN220 04/M12 A3002 RMK AC3CI2 SLP172

CYYZ;2009-04-14 06:00;CYYZ 140600Z 08007KT 15SM BKN150 04/M12 A3002 RMK AC6 SLP171

CYYZ;2009-04-14 07:00;CYYZ 140700Z 06007KT 15SM BKN140 04/M11 A3002 RMK AC6 SLP171

CYYZ;2009-04-14 08:00;CYYZ 140800Z 08004KT 15SM BKN140 04/M11 A3002 RMK AC6 SLP173

CYYZ;2009-04-14 09:00;CYYZ 140900Z 08008KT 15SM BKN140 04/M11 A3001 RMK AC5 SLP168

CYYZ;2009-04-14 10:00;CYYZ 141000Z 10008KT 15SM FEW130 BKN200 04/M11 A3000 RMK AC2CI2 SLP165

CYYZ;2009-04-14 11:00;CYYZ 141100Z 09008KT 15SM FEW170 BKN210 04/M09 A3001 RMK AC2CI2 SLP167

CYYZ;2009-04-14 12:00;CYYZ 141200Z 10010KT 15SM FEW170 BKN210 05/M08 A3001 RMK AC2CI2 SLP168

CYYZ;2009-04-14 13:00;CYYZ 141300Z 09013G20KT 15SM FEW160 BKN240 06/M07 A3001 RMK AC2CI2 SLP168

CYYZ;2009-04-14 14:00;CYYZ 141400Z 08015G21KT 15SM BKN170 BKN220 07/M07 A3001 RMK AC5CI1 SLP167

CYYZ;2009-04-14 15:00;CYYZ 141500Z 09018G26KT 15SM BKN130 BKN230 07/M08 A2999 RMK AC6CI1 SLP161

CYYZ;2009-04-14 16:00;CYYZ 141600Z 08015G24KT 15SM BKN130 BKN240 08/M09 A2999 RMK AC6CI1 SLP162

CYYZ;2009-04-14 17:00;CYYZ 141700Z 07016G21KT 15SM BKN130 BKN230 08/M09 A2997 RMK AC6CI1 SLP155

CYYZ;2009-04-14 18:00;CYYZ 141800Z 09016G30KT 15SM BKN140 BKN240 09/M10 A2997 RMK AC6CI1 SLP152

CYYZ;2009-04-14 19:00;CYYZ 141900Z 08023G31KT 15SM SCT100 BKN140 BKN210 10/M10 A2995 RMK AC3AC2CI2 SLP148

CYYZ;2009-04-14 20:00;CYYZ 142000Z 08018G29KT 15SM FEW098 BKN140 BKN210 11/M10 A2993 RMK AC2AC2CI2 SLP141

CYYZ;2009-04-14 21:00;CYYZ 142100Z CCA 08017G27KT 15SM FEW110 BKN170 BKN240 11/M09 A2993 RMK AC2AC2CI2 SLP140

CYYZ;2009-04-14 22:00;CYYZ 142200Z 08016G25KT 15SM FEW140 BKN180 BKN240 11/M09 A2993 RMK AC2AC3CI1 SLP141

CYYZ;2009-04-14 23:00;CYYZ 142300Z 09014G21KT 15SM BKN110 BKN140 BKN240 12/M09 A2994 RMK AC5AC2CI1 SLP143

CYYZ;2009-04-15 00:00;CYYZ 150000Z 08011G21KT 15SM BKN110 BKN140 BKN240 11/M08 A2995 RMK AC5AC2CI1 SLP146

CYYZ;2009-04-15 01:00;CYYZ 150100Z 08010G17KT 15SM BKN110 BKN240 10/M08 A2996 RMK AC5CI1 SLP149

CYYZ;2009-04-15 02:00;CYYZ 150200Z 06008KT 15SM FEW060 BKN066 10/M07 A2997 RMK SC2AC3 SLP154

CYYZ;2009-04-15 03:00;CYYZ 150300Z 07013KT 15SM FEW050 SCT130 SCT240 10/M08 A2998 RMK SC2AC2CI1 SLP155

CYYZ;2009-04-15 04:00;CYYZ 150400Z 08012G18KT 15SM FEW040 BKN130 10/M08 A2998 RMK SC2AC3 SLP158

CYYZ;2009-04-15 05:00;CYYZ 150500Z 07014G19KT 15SM FEW065 SCT130 SCT240 09/M08 A2999 RMK SC2AC2CI1 SLP159

CYYZ;2009-04-15 06:00;CYYZ 150600Z 07013G18KT 15SM FEW070 09/M09 A2999 RMK AC2 SLP160

CYYZ;2009-04-15 07:00;CYYZ 150700Z 07012G18KT 15SM FEW090 SCT230 09/M10 A2999 RMK AC2CI1 SLP160

CYYZ;2009-04-15 08:00;CYYZ 150800Z 07009G15KT 15SM FEW090 SCT230 08/M09 A3000 RMK AC2CI1 SLP164

CYYZ;2009-04-15 09:00;CYYZ 150900Z 06009G16KT 15SM BKN190 BKN230 08/M10 A3003 RMK AC5CI1 SLP173

CYYZ;2009-04-15 10:00;CYYZ 151000Z 06012KT 15SM FEW035 BKN190 BKN230 08/M11 A3004 RMK SC2AC4CI1 SLP178

CYYZ;2009-04-15 11:00;CYYZ 151100Z 07007KT 15SM FEW050 BKN190 BKN230 07/M11 A3007 RMK SC1AC3CI0 SLP188

CYYZ;2009-04-15 12:00;CYYZ 151200Z 06010KT 15SM FEW100 SCT190 BKN230 08/M10 A3010 RMK AC2AC1CI1 SLP198

CYYZ;2009-04-15 13:00;CYYZ 151300Z 07010G16KT 15SM FEW100 SCT160 BKN240 08/M09 A3012 RMK AC1AC2CI1 SLP203

CYYZ;2009-04-15 14:00;CYYZ 151400Z 09012G17KT 15SM FEW120 BKN230 10/M08 A3014 RMK AC2CI2 SLP209

CYYZ;2009-04-15 15:00;CYYZ 151500Z 06011G16KT 15SM FEW130 BKN230 11/M08 A3014 RMK AC2CI2 SLP211

CYYZ;2009-04-15 16:00;CYYZ 151600Z 10010KT 15SM FEW130 BKN240 12/M07 A3015 RMK AC2CI2 SLP212

CYYZ;2009-04-15 17:00;CYYZ 151700Z 09009G17KT 15SM FEW130 BKN240 13/M07 A3015 RMK AC2CI1 SLP213

CYYZ;2009-04-15 18:00;CYYZ 151800Z 11010KT 15SM FEW130 BKN220 13/M05 A3015 RMK AC2CI1 SLP213

CYYZ;2009-04-15 19:00;CYYZ 151900Z 14011KT 15SM SCT160 SCT240 14/M05 A3015 RMK AC2CI0 SLP213

CYYZ;2009-04-15 20:00;CYYZ 152000Z 14008KT 15SM FEW160 SCT250 13/M05 A3015 RMK AC2CI0 SLP214

CYYZ;2009-04-15 21:00;CYYZ 152100Z 13009KT 15SM FEW160 FEW230 13/M06 A3016 RMK AC1CI0 SLP215

CYYZ;2009-04-15 22:00;CYYZ 152200Z 12011KT 15SM FEW160 FEW240 13/M07 A3017 RMK AC1CI0 SLP220

CYYZ;2009-04-15 23:00;CYYZ 152300Z 15005KT 15SM FEW240 12/M08 A3019 RMK CI1 SLP226

CYYZ;2009-04-16 00:00;CYYZ 160000Z 16002KT 15SM FEW240 11/M08 A3020 RMK CI1 SLP232

CYYZ;2009-04-16 01:00;CYYZ 160100Z 28003KT 15SM FEW240 10/M09 A3022 RMK CI1 SLP239

CYYZ;2009-04-16 02:00;CYYZ 160200Z 31004KT 15SM SKC 09/M08 A3025 RMK SLP247

CYYZ;2009-04-16 03:00;CYYZ 160300Z 31004KT 15SM SKC 07/M07 A3027 RMK SLP255

CYYZ;2009-04-16 04:00;CYYZ 160400Z 34009KT 15SM SKC 07/M06 A3028 RMK SLP259

CYYZ;2009-04-16 05:00;CYYZ 160500Z 34006KT 15SM SKC 06/M05 A3029 RMK SLP261

CYYZ;2009-04-16 06:00;CYYZ 160600Z 35007KT 15SM SKC 05/M05 A3030 RMK SLP266

CYYZ;2009-04-16 07:00;CYYZ 160700Z 34004KT 15SM SKC 04/M05 A3031 RMK SLP267

CYYZ;2009-04-16 08:00;CYYZ 160800Z 35012KT 15SM SKC 04/M05 A3031 RMK SLP270

CYYZ;2009-04-16 09:00;CYYZ 160900Z 36008KT 15SM SKC 03/M05 A3032 RMK SLP272

CYYZ;2009-04-16 10:00;CYYZ 161000Z 36008KT 15SM FEW120 03/M06 A3034 RMK AC1 SLP278

CYYZ;2009-04-16 11:00;CYYZ 161100Z 34007KT 15SM FEW120 04/M06 A3037 RMK AC1 SLP288

CYYZ;2009-04-16 12:00;CYYZ 161200Z 35008KT 15SM FEW260 06/M06 A3039 RMK CI1 SLP296

CYYZ;2009-04-16 13:00;CYYZ 161300Z 36006KT 15SM FEW260 08/M05 A3040 RMK CI1 SLP301

CYYZ;2009-04-16 14:00;CYYZ 161400Z 36003KT 15SM SKC 10/M05 A3042 RMK SLP305

CYYZ;2009-04-16 15:00;CYYZ 161500Z 28002KT 15SM SKC 11/M04 A3042 RMK SLP306

CYYZ;2009-04-16 16:00;CYYZ 161600Z 13009KT 15SM SKC 12/M05 A3042 RMK SLP307

CYYZ;2009-04-16 17:00;CYYZ 161700Z 14011KT 15SM SKC 11/M06 A3042 RMK SLP306

CYYZ;2009-04-16 18:00;CYYZ 161800Z 16007KT 15SM FEW130 FEW270 12/M06 A3041 RMK AC1CI1 SLP303

CYYZ;2009-04-16 19:00;CYYZ 161900Z 14007KT 15SM FEW270 12/M05 A3040 RMK CI1 SLP300

CYYZ;2009-04-16 20:00;CYYZ 162000Z 15009KT 15SM FEW270 13/M05 A3038 RMK CI1 SLP292

CYYZ;2009-04-16 21:00;CYYZ 162100Z 14008KT 15SM FEW270 13/M06 A3037 RMK CI1 SLP290

CYYZ;2009-04-16 22:00;CYYZ 162200Z 15006KT 15SM FEW270 13/M06 A3037 RMK CI1 CONTRAILS SLP289

CYYZ;2009-04-16 23:00;CYYZ 162300Z 18005KT 15SM FEW270 12/M06 A3037 RMK CI1 SLP288

CYYZ;2009-04-17 00:00;CYYZ 170000Z 16004KT 15SM FEW270 12/M07 A3037 RMK CI0 SLP288

CYYZ;2009-04-17 01:00;CYYZ 170100Z 21003KT 15SM FEW260 11/M07 A3038 RMK CI1 SLP291

CYYZ;2009-04-17 02:00;CYYZ 170200Z 27005KT 15SM SKC 08/M05 A3038 RMK SLP293

CYYZ;2009-04-17 03:00;CYYZ 170300Z 36010KT 15SM SKC 08/M06 A3038 RMK SLP292

CYYZ;2009-04-17 04:00;CYYZ 170400Z 35006KT 15SM SKC 08/M07 A3037 RMK SLP289

CYYZ;2009-04-17 05:00;CYYZ 170500Z 32006KT 15SM SKC 05/M06 A3037 RMK SLP288

CYYZ;2009-04-17 06:00;CYYZ 170600Z 34007KT 15SM SKC 06/M07 A3036 RMK SLP285

CYYZ;2009-04-17 07:00;CYYZ 170700Z 32008KT 15SM SKC 04/M05 A3035 RMK SLP282

CYYZ;2009-04-17 08:00;CYYZ 170800Z 31003KT 15SM SKC 04/M05 A3035 RMK SLP282

CYYZ;2009-04-17 09:00;CYYZ 170900Z 32003KT 15SM SKC 05/M07 A3035 RMK SLP281

CYYZ;2009-04-17 10:00;CYYZ 171000Z 34007KT 15SM FEW270 04/M07 A3034 RMK CI1 SLP280

CYYZ;2009-04-17 11:00;CYYZ 171100Z 33005KT 15SM FEW250 05/M07 A3034 RMK CI1 SLP280

CYYZ;2009-04-17 12:00;CYYZ 171200Z 30003KT 15SM FEW250 06/M06 A3035 RMK CI1 SLP282

CYYZ;2009-04-17 13:00;CYYZ 171300Z 33007KT 15SM FEW250 09/M05 A3035 RMK CI1 CONTRAIL SLP281

CYYZ;2009-04-17 14:00;CYYZ 171400Z 33006KT 15SM FEW250 12/M04 A3034 RMK CI1 CONTRAIL SLP277

CYYZ;2009-04-17 15:00;CYYZ 171500Z 30003KT 15SM FEW250 14/M04 A3033 RMK CI1 CONTRAIL SLP273

CYYZ;2009-04-17 16:00;CYYZ 171600Z 27008KT 15SM FEW250 16/M03 A3030 RMK CI1 CONTRAIL SLP265

CYYZ;2009-04-17 17:00;CYYZ 171700Z 22005KT 15SM FEW250 18/M03 A3028 RMK CI1 CONTRAIL SLP257

CYYZ;2009-04-17 18:00;CYYZ 171800Z CCA 29008G18KT 15SM FEW120 FEW250 19/M02 A3025 RMK AC1CI1 AC TR SLP247

CYYZ;2009-04-17 19:00;CYYZ 171900Z 31012G21KT 15SM FEW120 FEW250 20/M02 A3024 RMK AC1CI1 AC TR CONTRAIL SLP242

CYYZ;2009-04-17 20:00;CYYZ 172000Z 31015G22KT 15SM FEW100 FEW250 20/M03 A3021 RMK AC1CI1 CONTRAIL SLP233

CYYZ;2009-04-17 21:00;CYYZ 172100Z 29017G22KT 15SM FEW100 FEW240 21/M04 A3019 RMK AC1CI1 SLP225

CYYZ;2009-04-17 22:00;CYYZ 172200Z 30017G22KT 15SM FEW100 SCT240 20/M04 A3017 RMK AC1CI2 CONTRAIL SLP218

CYYZ;2009-04-17 23:00;CYYZ 172300Z 30015G20KT 15SM FEW120 BKN240 19/M03 A3016 RMK AC1CI2 CONTRAIL SLP216

CYYZ;2009-04-18 00:00;CYYZ 180000Z 30013KT 15SM FEW120 BKN260 18/M03 A3014 RMK AC1CI2 SLP210

CYYZ;2009-04-18 01:00;CYYZ 180100Z 27010KT 15SM BKN260 15/M02 A3015 RMK CI2 SLP211

CYYZ;2009-04-18 02:00;CYYZ 180200Z 26009KT 15SM BKN260 11/M03 A3014 RMK CI2 SLP209

CYYZ;2009-04-18 03:00;CYYZ 180300Z 26006KT 15SM BKN260 11/M03 A3013 RMK CI2 SLP206

CYYZ;2009-04-18 04:00;CYYZ 180400Z 26008KT 15SM FEW260 09/M03 A3011 RMK CI1 SLP200

CYYZ;2009-04-18 05:00;CYYZ 180500Z 27009KT 15SM BKN110 12/M02 A3010 RMK AC6 SLP194

CYYZ;2009-04-18 06:00;CYYZ 180600Z 27013KT 15SM BKN140 13/M01 A3008 RMK AC5 SLP187

CYYZ;2009-04-18 07:00;CYYZ 180700Z 31008KT 15SM SCT089 BKN120 13/M00 A3007 RMK AC3AC3 SLP184

CYYZ;2009-04-18 08:00;CYYZ 180800Z 28007KT 15SM FEW090 BKN110 13/00 A3005 RMK AC2AC2 SLP177

CYYZ;2009-04-18 09:00;CYYZ 180900Z 28007KT 15SM FEW100 BKN150 12/00 A3004 RMK AC2AC2 SLP175

CYYZ;2009-04-18 10:00;CYYZ 181000Z 29006KT 15SM FEW110 BKN130 12/00 A3004 RMK AC2AC3 SLP172

CYYZ;2009-04-18 11:00;CYYZ 181100Z 26004KT 15SM BKN110 BKN130 BKN280 10/M00 A3002 RMK AC5AC1CC0 SLP167

CYYZ;2009-04-18 12:00;CYYZ 181200Z 29009KT 15SM BKN150 BKN280 13/M01 A3002 RMK AC6CC1 SLP168

CYYZ;2009-04-18 13:00;CYYZ 181300Z 28009KT 15SM BKN130 BKN170 15/M01 A3002 RMK AC6AC1 SLP167

CYYZ;2009-04-18 14:00;CYYZ 181400Z 28009KT 15SM BKN100 15/M00 A3002 RMK AC7 SLP167

CYYZ;2009-04-18 15:00;CYYZ 181500Z 29006KT 15SM OVC100 16/01 A3001 RMK AC8 SLP165

CYYZ;2009-04-18 16:00;CYYZ 181600Z 27006KT 15SM OVC100 17/01 A3001 RMK AS8 SLP166

CYYZ;2009-04-18 17:00;CYYZ 181700Z 00000KT 15SM BKN110 BKN270 18/02 A3000 RMK AC6CI1 SLP160

CYYZ;2009-04-18 18:00;CYYZ 181800Z 10004KT 15SM SCT140 BKN280 19/02 A2997 RMK AC3CI1 SLP149

CYYZ;2009-04-18 19:00;CYYZ 181900Z 14008KT 15SM FEW100 BKN280 20/03 A2995 RMK AC2CI4 SLP142

CYYZ;2009-04-18 20:00;CYYZ 182000Z 14006KT 15SM BKN098 OVC280 20/03 A2993 RMK AC6CI2 SLP136

CYYZ;2009-04-18 21:00;CYYZ 182100Z 09005KT 15SM BKN120 BKN260 18/01 A2994 RMK AC7CI1 SLP139

CYYZ;2009-04-18 22:00;CYYZ 182200Z 02008KT 15SM BKN150 BKN270 18/03 A2995 RMK AC6CI1 SLP142

CYYZ;2009-04-18 23:00;CYYZ 182300Z 02010KT 15SM FEW120 BKN140 BKN220 16/02 A2996 RMK AC2AC3CI1 SLP147

CYYZ;2009-04-19 00:00;CYYZ 190000Z 02011KT 15SM SCT120 OVC140 14/02 A2996 RMK AC3AC5 SLP147

CYYZ;2009-04-19 01:00;CYYZ 190100Z 35010KT 15SM BKN087 OVC110 13/M00 A3001 RMK AC5AC3 SLP165

CYYZ;2009-04-19 02:00;CYYZ 190200Z 13005KT 15SM FEW091 BKN130 10/03 A3005 RMK AC2AC3 SLP177

CYYZ;2009-04-19 03:00;CYYZ 190300Z 10010KT 15SM BKN020 BKN092 09/03 A3006 RMK SC5AC2 SLP183

CYYZ;2009-04-19 04:00;CYYZ 190400Z 10006KT 15SM BKN019 BKN024 09/04 A3006 RMK SC6SC2 SLP183

CYYZ;2009-04-19 05:00;CYYZ 190500Z 08010KT 15SM SCT018 OVC021 09/03 A3008 RMK SC3SC5 SLP190

CYYZ;2009-04-19 06:00;CYYZ 190600Z 05008KT 15SM OVC019 08/02 A3009 RMK SC8 SLP192

CYYZ;2009-04-19 06:12;CYYZ 190612Z 05012KT 15SM -SHRA OVC020 08/ RMK SC8

CYYZ;2009-04-19 06:44;CYYZ 190644Z 08009KT 15SM OVC022 08/ RMK SC8

CYYZ;2009-04-19 07:00;CYYZ 190700Z 06011KT 15SM FEW019 OVC032 08/01 A3009 RMK CF2SC6 SLP191

CYYZ;2009-04-19 08:00;CYYZ 190800Z 07013KT 15SM FEW022 OVC036 07/00 A3009 RMK CF2SC6 SLP191

CYYZ;2009-04-19 09:00;CYYZ 190900Z 06008KT 15SM FEW036 SCT072 BKN240 07/M01 A3010 RMK SC2AC2CI1 SLP194

CYYZ;2009-04-19 10:00;CYYZ 191000Z 06010KT 15SM FEW100 BKN250 06/M03 A3011 RMK AC2CI1 SLP199

CYYZ;2009-04-19 11:00;CYYZ 191100Z 07007KT 15SM FEW065 BKN280 05/M04 A3014 RMK SC1CI5 SLP208

CYYZ;2009-04-19 12:00;CYYZ 191200Z 09008G15KT 15SM FEW070 BKN280 06/M06 A3015 RMK AC1CI4 SLP214

CYYZ;2009-04-19 13:00;CYYZ 191300Z 09014G22KT 15SM FEW200 BKN280 07/M10 A3016 RMK CC2CI1 SLP216

CYYZ;2009-04-19 14:00;CYYZ 191400Z 10014KT 15SM FEW130 BKN280 08/M10 A3015 RMK AC2CI2 SLP213

CYYZ;2009-04-19 15:00;CYYZ 191500Z 09013G19KT 15SM FEW130 BKN280 08/M10 A3014 RMK AC1CI1 SLP212

CYYZ;2009-04-19 16:00;CYYZ 191600Z 10014G20KT 15SM FEW130 BKN280 09/M08 A3014 RMK AC1CI1 SLP210

CYYZ;2009-04-19 17:00;CYYZ 191700Z 10015G21KT 15SM FEW120 BKN280 10/M09 A3013 RMK AC1CI2 SLP208

CYYZ;2009-04-19 18:00;CYYZ 191800Z 08019G24KT 15SM FEW130 BKN280 11/M10 A3011 RMK AC1CI3 SLP199

CYYZ;2009-04-19 19:00;CYYZ 191900Z 10013G22KT 15SM FEW120 BKN280 12/M11 A3010 RMK AC1CI5 SLP197

CYYZ;2009-04-19 20:00;CYYZ 192000Z 10014G20KT 15SM BKN280 12/M09 A3008 RMK CI6 SLP191

CYYZ;2009-04-19 21:00;CYYZ 192100Z 09011G20KT 15SM BKN280 11/M09 A3007 RMK CI4 SLP185

CYYZ;2009-04-19 22:00;CYYZ 192200Z 10017G22KT 15SM FEW130 BKN280 10/M10 A3004 RMK AC1CI4 SLP178

CYYZ;2009-04-19 23:00;CYYZ 192300Z 09011G22KT 15SM FEW120 BKN260 10/M10 A3004 RMK AC2CI2 SLP176

CYYZ;2009-04-20 00:00;CYYZ 200000Z 09014G19KT 15SM FEW160 BKN230 10/M10 A3003 RMK AC2CI3 SLP172

CYYZ;2009-04-20 01:00;CYYZ 200100Z 09009G17KT 15SM FEW160 BKN230 09/M09 A3002 RMK AC2CI3 SLP171

CYYZ;2009-04-20 02:00;CYYZ 200200Z 09013G22KT 15SM FEW140 BKN190 BKN220 10/M08 A3002 RMK AC2AC4CI0 SLP169

CYYZ;2009-04-20 03:00;CYYZ 200300Z 09014G22KT 15SM FEW120 OVC180 10/M08 A3000 RMK AC2AC6 SLP163

CYYZ;2009-04-20 04:00;CYYZ 200400Z 09018G26KT 15SM SCT084 BKN150 10/M08 A2997 RMK AC3AC2 SLP154

CYYZ;2009-04-20 05:00;CYYZ 200500Z 09020G30KT 15SM BKN079 09/M07 A2995 RMK AC6 SLP145

CYYZ;2009-04-20 06:00;CYYZ 200600Z 09018G32KT 15SM SCT092 BKN160 09/M07 A2991 RMK AC3AC4 SLP131

CYYZ;2009-04-20 07:00;CYYZ 200700Z 09021G31KT 15SM BKN063 OVC092 09/M05 A2988 RMK SC6AC2 SLP122

CYYZ;2009-04-20 08:00;CYYZ 200800Z 10020G27KT 15SM BKN062 OVC093 08/M04 A2987 RMK SC6AC2 SLP119

CYYZ;2009-04-20 08:50;CYYZ 200850Z 09015G22KT 15SM -RA OVC025 07/ RMK SC8

CYYZ;2009-04-20 09:00;CYYZ 200900Z 09012G18KT 15SM -RA OVC023 07/M02 A2986 RMK SC8 SLP116

CYYZ;2009-04-20 10:00;CYYZ 201000Z 08012G17KT 12SM -RA FEW024 BKN046 OVC072 06/M00 A2983 RMK SC2SC4AC2 SLP106

CYYZ;2009-04-20 11:00;CYYZ 201100Z 09008KT 12SM -RA FEW025 OVC048 06/01 A2983 RMK CF1SC8 SLP104

CYYZ;2009-04-20 12:00;CYYZ 201200Z 09008KT 7SM -RA FEW030 OVC048 06/03 A2981 RMK CF1SC7 SLP099

CYYZ;2009-04-20 12:53;CYYZ 201253Z 11010G18KT 6SM -RA BKN007 OVC028 08/ RMK SF5SC3

CYYZ;2009-04-20 13:00;CYYZ 201300Z 11013G19KT 6SM -RA FEW007 OVC025 08/05 A2980 RMK SF2SC6 SLP097

CYYZ;2009-04-20 13:46;CYYZ 201346Z 11015G20KT 5SM -RA BKN009 OVC019 07/ RMK SF6SC2

CYYZ;2009-04-20 14:00;CYYZ 201400Z 11014G21KT 4SM -RA BKN008 OVC018 07/04 A2980 RMK SF7NS1 SLP094

CYYZ;2009-04-20 14:33;CYYZ 201433Z 10013G20KT 5SM -RA BKN006 OVC018 06/ RMK SF7NS1

CYYZ;2009-04-20 15:00;CYYZ 201500Z 10018KT 5SM -RA BKN006 OVC016 06/03 A2978 RMK SF7NS1 SLP090

CYYZ;2009-04-20 15:45;CYYZ 201545Z 10015G24KT 6SM -RA FEW007 OVC020 06/ RMK SF2SF6

CYYZ;2009-04-20 16:00;CYYZ 201600Z 10016G25KT 6SM -RA SCT007 OVC018 06/03 A2977 RMK SF4SF4 SLP084

CYYZ;2009-04-20 16:17;CYYZ 201617Z 10017G26KT 6SM -RA BKN006 OVC016 06/ RMK SF7SF1

CYYZ;2009-04-20 17:00;CYYZ 201700Z 10020G25KT 5SM -RA OVC007 06/03 A2974 RMK SF8 SLP077

CYYZ;2009-04-20 18:00;CYYZ 201800Z CCA 09016G26KT 5SM -RA OVC006 05/03 A2972 RMK SF8 /R12/ SLP068

CYYZ;2009-04-20 19:00;CYYZ 201900Z 09016G27KT 6SM -RA OVC005 05/03 A2970 RMK SF8 SLP062

CYYZ;2009-04-20 20:00;CYYZ 202000Z 09020G29KT 5SM -RA OVC005 05/03 A2967 RMK SF8 SLP053

CYYZ;2009-04-20 21:00;CYYZ 202100Z 09019G29KT 6SM -RA OVC005 05/03 A2966 RMK SF8 SLP049

CYYZ;2009-04-20 22:00;CYYZ 202200Z 09021G28KT 4SM -RA OVC007 05/03 A2964 RMK SF8 SLP044

CYYZ;2009-04-20 23:00;CYYZ 202300Z 09021G30KT 3SM -RA BR BKN007 OVC018 04/02 A2965 RMK SF5NS3 SLP045

CYYZ;2009-04-21 00:00;CYYZ 210000Z 09019G28KT 5SM -RA BR BKN007 OVC022 04/02 A2966 RMK SC5SC3 /R10/ SLP049

CYYZ;2009-04-21 01:00;CYYZ 210100Z 09018G24KT 7SM -RA BKN006 OVC018 04/02 A2967 RMK SC6NS2 BR SLP052

CYYZ;2009-04-21 02:00;CYYZ 210200Z 09015G24KT 7SM -RA BKN006 OVC015 04/02 A2967 RMK SC6NS2 BR SLP053

CYYZ;2009-04-21 02:26;CYYZ 210226Z 09017G22KT 7SM -RA FEW006 OVC012 05/ RMK SF2SC6 BR

CYYZ;2009-04-21 02:44;CYYZ 210244Z 11014G21KT 5SM -RA BR FEW004 OVC007 05/ RMK SF2SC6

CYYZ;2009-04-21 03:00;CYYZ 210300Z 13005KT 5SM -RA BR OVC003 05/03 A2967 RMK SF8 SLP054

CYYZ;2009-04-21 03:23;CYYZ 210323Z 14008G15KT 5SM -DZ BR OVC003 05/ RMK ST8

CYYZ;2009-04-21 04:00;CYYZ 210400Z 15008KT 6SM -DZ BR SCT003 OVC007 06/04 A2968 RMK ST3SC5 SLP055

CYYZ;2009-04-21 04:35;CYYZ 210435Z 16007KT 8SM FEW003 OVC011 06/ RMK SF2SC6 BR

CYYZ;2009-04-21 05:00;CYYZ 210500Z 18006KT 10SM FEW012 OVC019 06/04 A2967 RMK SC2SC6 SLP054

CYYZ;2009-04-21 06:00;CYYZ 210600Z 23006KT 15SM SCT022 06/04 A2967 RMK SC3 SLP053

CYYZ;2009-04-21 07:00;CYYZ 210700Z 14005KT 15SM SCT028 05/03 A2967 RMK SC3 SLP052

CYYZ;2009-04-21 08:00;CYYZ 210800Z 14004KT 15SM FEW030 05/02 A2967 RMK SC2 SLP053

CYYZ;2009-04-21 09:00;CYYZ 210900Z 15004KT 15SM FEW030 04/02 A2968 RMK SC1 SLP056

CYYZ;2009-04-21 10:00;CYYZ 211000Z 15004KT 12SM FEW030 SCT100 04/02 A2967 RMK SC1AC2 SLP052

CYYZ;2009-04-21 11:00;CYYZ 211100Z 14005KT 5SM HZ BKN022 OVC030 05/03 A2966 RMK SC5SC3 SLP050

CYYZ;2009-04-21 12:00;CYYZ 211200Z 13005KT 6SM HZ FEW017 BKN043 BKN130 06/04 A2966 RMK SC2SC3AC2 SLP050

CYYZ;2009-04-21 13:00;CYYZ 211300Z 14006KT 10SM FEW010 SCT017 OVC050 07/05 A2967 RMK CF2SC2SC4 HZ SLP051

CYYZ;2009-04-21 14:00;CYYZ 211400Z 15007KT 12SM FEW018 BKN025 OVC050 07/04 A2967 RMK CF2SC4SC2 SLP051

CYYZ;2009-04-21 15:00;CYYZ 211500Z 15007KT 15SM FEW017 SCT030 BKN045 09/05 A2964 RMK CU2SC2SC3 SLP043

CYYZ;2009-04-21 16:00;CYYZ 211600Z 15011KT 15SM FEW030 SCT040 BKN230 10/05 A2962 RMK CU2SC2CI2 SLP036

CYYZ;2009-04-21 17:00;CYYZ 211700Z 16013KT 15SM FEW025 SCT045 BKN060 BKN160 BKN230 11/05 A2961 RMK CU2SC2SC2AC2CI1 SLP030

CYYZ;2009-04-21 18:00;CYYZ 211800Z 15014KT 15SM FEW025 SCT040 BKN060 OVC090 11/04 A2960 RMK CU2SC2SC2AC2 SLP026

CYYZ;2009-04-21 18:46;CYYZ 211846Z 17013G21KT 15SM -SHRA FEW025 SCT040 BKN060 OVC090 09/ RMK CU2SC2SC3AC2 PCPN VRY LGT

CYYZ;2009-04-21 19:00;CYYZ 211900Z 17011G17KT 15SM -SHRA FEW025 SCT037 BKN045 OVC100 10/04 A2960 RMK CU2SC2SC3AC2 PCPN VRY LGT SLP026

CYYZ;2009-04-21 20:00;CYYZ 212000Z 14010G15KT 15SM -SHRA FEW023 SCT035 BKN045 OVC100 08/04 A2958 RMK CU2SC2SC3AC2 PCPN VRY LGT SLP022

CYYZ;2009-04-21 20:15;CYYZ 212015Z 13009KT 15SM FEW023 SCT035 BKN045 BKN085 08/ RMK CU2SC2SC2AC2

CYYZ;2009-04-21 21:00;CYYZ 212100Z 16010KT 10SM -SHRA FEW037 BKN045 BKN075 OVC120 09/04 A2959 RMK CU2SC3AC2AC2 CB EMBD DARK TWD S SLP025

CYYZ;2009-04-21 21:30;CYYZ 212130Z 18007KT 15SM FEW045 BKN056 BKN085 08/ RMK CU2SC3AC2

CYYZ;2009-04-21 22:00;CYYZ 212200Z 16007KT 15SM FEW045 SCT055 BKN130 BKN230 09/05 A2959 RMK CU2SC2AC2CI1 SLP026

CYYZ;2009-04-21 23:00;CYYZ 212300Z 15008KT 15SM FEW042 SCT062 BKN120 08/04 A2959 RMK CU1SC2AC1 SLP024

CYYZ;2009-04-22 00:00;CYYZ 220000Z 14006KT 15SM FEW030 FEW060 SCT120 BKN230 07/02 A2962 RMK CU1SC2AC2CI0 SLP035

CYYZ;2009-04-22 01:00;CYYZ 220100Z 15007KT 15SM FEW048 BKN140 BKN230 06/03 A2960 RMK SC2AC2CI0 SLP028

CYYZ;2009-04-22 02:00;CYYZ 220200Z 17007KT 15SM FEW042 FEW082 SCT180 06/02 A2959 RMK SC1AC1AC2 SLP026

CYYZ;2009-04-22 03:00;CYYZ 220300Z 17006KT 15SM FEW040 SCT100 BKN180 06/02 A2959 RMK SC1AC2AC2 SLP023

CYYZ;2009-04-22 04:00;CYYZ 220400Z 17008KT 15SM FEW046 BKN130 06/02 A2958 RMK SC2AC2 SLP022

CYYZ;2009-04-22 05:00;CYYZ 220500Z 17008KT 15SM SCT058 BKN150 05/02 A2958 RMK SC3AC2 SLP019

CYYZ;2009-04-22 06:00;CYYZ 220600Z CCA 18007KT 15SM FEW022 BKN130 BKN180 05/02 A2956 RMK SC2AC3AC1 SLP013

CYYZ;2009-04-22 07:00;CYYZ 220700Z 20010KT 15SM FEW018 FEW046 BKN092 05/02 A2955 RMK SC1SC2AC2 SLP010

CYYZ;2009-04-22 08:00;CYYZ 220800Z 22013KT 15SM FEW022 BKN061 BKN100 05/01 A2955 RMK SC1SC5AC1 SLP010

CYYZ;2009-04-22 09:00;CYYZ 220900Z 21009KT 15SM FEW023 BKN054 BKN160 05/01 A2956 RMK SC1SC4AC1 SLP013

CYYZ;2009-04-22 10:00;CYYZ 221000Z 22010G16KT 15SM BKN046 BKN090 04/M00 A2957 RMK SC5AC1 SLP016

CYYZ;2009-04-22 11:00;CYYZ 221100Z 22010KT 15SM SCT042 BKN049 BKN070 05/M00 A2957 RMK SC3SC3AC1 SLP018

CYYZ;2009-04-22 12:00;CYYZ 221200Z 23009KT 15SM FEW022 BKN031 BKN070 05/M00 A2959 RMK SC2SC2AC2 SLP026

CYYZ;2009-04-22 12:28;CYYZ 221228Z 24013KT 15SM -SHRA FEW019 BKN025 BKN070 05/ RMK SC2SC2AC2 PCPN VRY LGT

CYYZ;2009-04-22 13:00;CYYZ 221300Z 24008KT 15SM SCT018 BKN025 OVC070 05/01 A2961 RMK SC3SC2AC2 SLP031

CYYZ;2009-04-22 14:00;CYYZ 221400Z 25013KT 15SM BKN021 OVC027 06/01 A2962 RMK SC5SC3 CIG RAG SLP035

CYYZ;2009-04-22 15:00;CYYZ 221500Z 25014KT 15SM FEW022 BKN031 OVC090 07/02 A2964 RMK SC2SC3AC2 SLP040

CYYZ;2009-04-22 15:22;CYYZ 221522Z CCA 25016KT 15SM -SHRA FEW021 BKN030 OVC090 06/ RMK SC2SC4AC2

CYYZ;2009-04-22 16:00;CYYZ 221600Z CCA 26014G21KT 15SM -SHRA FEW020 OVC025 07/01 A2964 RMK SC2SC6 PCPN VRY LGT SLP043

CYYZ;2009-04-22 16:15;CYYZ 221615Z 25015KT 15SM FEW025 OVC034 07/ RMK SC2SC6

CYYZ;2009-04-22 17:00;CYYZ 221700Z 24018KT 15SM BKN025 OVC030 07/01 A2966 RMK SC5SC3 SLP048

CYYZ;2009-04-22 18:00;CYYZ 221800Z 26013KT 15SM BKN025 BKN030 OVC093 08/02 A2966 RMK SC5SC2AC2 SLP048

CYYZ;2009-04-22 18:12;CYYZ 221812Z 26017KT 15SM -SHRA BKN025 BKN030 OVC093 07/ RMK SC5SC2AC2 PCPN VRY LGT

CYYZ;2009-04-22 19:00;CYYZ 221900Z 27015G22KT 15SM -SHRA SCT025 BKN030 OVC080 07/01 A2967 RMK SC3SC2AC2 PCPN VRY LGT SLP053

CYYZ;2009-04-22 20:00;CYYZ 222000Z 27017G24KT 15SM FEW030 BKN044 OVC100 07/01 A2968 RMK SC2SC3AC2 SLP054

CYYZ;2009-04-22 21:00;CYYZ 222100Z 28017KT 15SM FEW025 BKN030 BKN055 OVC090 07/00 A2969 RMK SC2SC2SC2AC2 SLP060

CYYZ;2009-04-22 21:08;CYYZ 222108Z 27014G20KT 15SM -SHRA FEW025 BKN030 BKN055 OVC090 07/ RMK SC2SC2SC2AC2 PCPN VRY LGT

CYYZ;2009-04-22 21:45;CYYZ 222145Z 28014G19KT 15SM FEW030 BKN038 OVC066 07/ RMK SC2SC4AC2

CYYZ;2009-04-22 22:00;CYYZ 222200Z 30014KT 15SM -SHRA FEW030 BKN035 OVC066 07/M00 A2971 RMK SC2SC4AC2 PCPN VRY LGT SLP064

CYYZ;2009-04-22 22:24;CYYZ 222224Z 30016KT 15SM FEW032 BKN038 OVC066 06/ RMK SC2SC3AC3

CYYZ;2009-04-22 23:00;CYYZ 222300Z 30015KT 15SM FEW028 SCT034 OVC068 06/M01 A2971 RMK SC2SC2AC4 SLP067

CYYZ;2009-04-23 00:00;CYYZ 230000Z 31019G24KT 15SM FEW031 BKN035 OVC068 06/M01 A2973 RMK SC2SC4AC2 SLP071

CYYZ;2009-04-23 01:00;CYYZ 230100Z 30018G26KT 15SM SCT032 OVC057 05/M02 A2975 RMK SC3SC5 SLP079

CYYZ;2009-04-23 02:00;CYYZ 230200Z 29016KT 15SM SCT028 OVC091 04/M02 A2977 RMK SC3AC5 SLP085

CYYZ;2009-04-23 03:00;CYYZ 230300Z 30014G19KT 15SM FEW028 SCT038 OVC059 04/M02 A2977 RMK SC2SC2SC4 SLP085

CYYZ;2009-04-23 04:00;CYYZ 230400Z 31018KT 15SM FEW019 SCT041 BKN092 04/M02 A2977 RMK SC2SC2AC2 SLP085

CYYZ;2009-04-23 05:00;CYYZ 230500Z 29017KT 15SM SCT020 BKN041 BKN086 04/M02 A2978 RMK SC4SC2AC1 SLP088

CYYZ;2009-04-23 05:25;CYYZ 230525Z 31016KT 15SM -SHRA SCT036 BKN041 BKN086 04/ RMK SC4SC2AC1

CYYZ;2009-04-23 06:00;CYYZ 230600Z 30017KT 15SM -SHRA BKN024 OVC032 04/M01 A2978 RMK SC6SC2 SLP089

CYYZ;2009-04-23 06:45;CYYZ 230645Z 30017KT 15SM BKN021 OVC031 04/ RMK SC6SC2

CYYZ;2009-04-23 07:00;CYYZ 230700Z 30017G24KT 15SM OVC022 04/M01 A2979 RMK SC8 SLP091

CYYZ;2009-04-23 08:00;CYYZ 230800Z 31013G18KT 15SM OVC019 04/M01 A2981 RMK SC8 SLP099

CYYZ;2009-04-23 09:00;CYYZ 230900Z 32016G24KT 15SM OVC018 04/M00 A2984 RMK SC8 SLP110

CYYZ;2009-04-23 10:00;CYYZ 231000Z 32019G25KT 15SM BKN019 BKN042 04/M00 A2987 RMK SC5SC2 SLP119

CYYZ;2009-04-23 11:00;CYYZ 231100Z 34018G30KT 15SM BKN020 04/M02 A2991 RMK SC7 SLP132

CYYZ;2009-04-23 12:00;CYYZ 231200Z 33016G24KT 15SM BKN022 04/M02 A2995 RMK SC7 SLP147

CYYZ;2009-04-23 13:00;CYYZ 231300Z 32018G24KT 15SM BKN025 05/M02 A2999 RMK SC7 CIG RAG SLP161

CYYZ;2009-04-23 14:00;CYYZ 231400Z 33018G29KT 15SM BKN025 06/M01 A3002 RMK SC7 SLP170

CYYZ;2009-04-23 15:00;CYYZ 231500Z 31017KT 15SM SCT030 07/M00 A3004 RMK SC4 SLP177

CYYZ;2009-04-23 16:00;CYYZ 231600Z 29015KT 15SM FEW035 09/01 A3005 RMK SC2 SLP181

CYYZ;2009-04-23 17:00;CYYZ 231700Z 31012G17KT 15SM FEW030 SCT035 10/00 A3005 RMK CU2SC2 SLP181

CYYZ;2009-04-23 18:00;CYYZ 231800Z 27010G15KT 15SM FEW035 BKN040 10/00 A3006 RMK CU2SC5 SLP183

CYYZ;2009-04-23 19:00;CYYZ 231900Z 27013G20KT 15SM FEW035 BKN040 11/01 A3007 RMK CU1SC4 SLP187

CYYZ;2009-04-23 20:00;CYYZ 232000Z 27017KT 15SM FEW035 SCT040 11/01 A3007 RMK CU1SC3 SLP187

CYYZ;2009-04-23 21:00;CYYZ 232100Z 28014G20KT 15SM SCT040 12/01 A3008 RMK SC4 SLP191

CYYZ;2009-04-23 22:00;CYYZ 232200Z 28013G18KT 15SM FEW040 SCT240 11/01 A3009 RMK SC2CI1 SLP194

CYYZ;2009-04-23 23:00;CYYZ 232300Z 27013KT 15SM FEW040 SCT260 10/00 A3009 RMK CU1CI2 SLP194

CYYZ;2009-04-24 00:00;CYYZ 240000Z 27010KT 15SM FEW150 SCT260 08/M01 A3008 RMK AC1CI1 SLP191

CYYZ;2009-04-24 01:00;CYYZ 240100Z 26005KT 15SM FEW150 FEW260 07/M02 A3010 RMK AC1CI0 SLP197

CYYZ;2009-04-24 02:00;CYYZ 240200Z 23005KT 15SM FEW150 FEW260 07/M01 A3011 RMK AC1CI0 SLP201

CYYZ;2009-04-24 03:00;CYYZ 240300Z 22002KT 15SM FEW260 07/M01 A3013 RMK CI1 SLP206

CYYZ;2009-04-24 04:00;CYYZ 240400Z 22008KT 15SM FEW150 06/M00 A3012 RMK AC1 SLP203

CYYZ;2009-04-24 05:00;CYYZ 240500Z 22002KT 15SM SCT140 06/00 A3012 RMK AC3 SLP204

CYYZ;2009-04-24 06:00;CYYZ 240600Z 19005KT 15SM BKN150 06/M00 A3010 RMK AC6 SLP199

CYYZ;2009-04-24 07:00;CYYZ 240700Z 11003KT 15SM SCT120 BKN150 06/01 A3010 RMK AC3AC2 SLP198

CYYZ;2009-04-24 08:00;CYYZ 240800Z 15004KT 15SM FEW130 BKN160 05/00 A3010 RMK AC2AC3 SLP198

CYYZ;2009-04-24 09:00;CYYZ 240900Z 16004KT 15SM FEW120 SCT160 05/01 A3010 RMK AC2AC2 SLP195

CYYZ;2009-04-24 10:00;CYYZ 241000Z 17003KT 15SM SCT140 05/00 A3010 RMK AC4 SLP197

CYYZ;2009-04-24 11:00;CYYZ 241100Z 10005KT 15SM FEW140 FEW260 05/00 A3009 RMK AC1CI1 SLP194

CYYZ;2009-04-24 12:00;CYYZ 241200Z 12005KT 15SM FEW050 FEW260 07/M00 A3009 RMK SC1CI0 SLP195

CYYZ;2009-04-24 13:00;CYYZ 241300Z 13006KT 15SM FEW050 FEW140 FEW260 09/00 A3009 RMK SC1AC1CI0 SLP194

CYYZ;2009-04-24 14:00;CYYZ 241400Z 13009KT 15SM FEW050 FEW140 FEW260 11/00 A3004 RMK SC1AC1CI1 SLP179

CYYZ;2009-04-24 15:00;CYYZ 241500Z 16008KT 15SM FEW050 FEW200 FEW260 13/01 A3004 RMK SC1CC1CI1 SLP176

CYYZ;2009-04-24 16:00;CYYZ 241600Z 14011KT 15SM FEW060 FEW260 15/02 A3002 RMK SC1CI1 SLP169

CYYZ;2009-04-24 17:00;CYYZ 241700Z 15010G16KT 15SM FEW110 BKN270 17/03 A3000 RMK AC1CI2 SLP162

CYYZ;2009-04-24 18:00;CYYZ 241800Z 13012G17KT 15SM FEW110 FEW270 18/03 A2997 RMK AC1CI1 SLP152

CYYZ;2009-04-24 19:00;CYYZ 241900Z 13010KT 15SM FEW035 BKN270 19/03 A2996 RMK SC1CI0 SLP148

CYYZ;2009-04-24 20:00;CYYZ 242000Z 14011KT 15SM FEW065 BKN120 BKN270 18/04 A2994 RMK SC1AC6CI0 SLP141

CYYZ;2009-04-24 21:00;CYYZ 242100Z 10007KT 15SM OVC067 18/04 A2991 RMK AC8 SLP132

CYYZ;2009-04-24 22:00;CYYZ 242200Z 08006KT 15SM BKN062 OVC075 17/04 A2989 RMK SC5AC3 SLP125

CYYZ;2009-04-24 23:00;CYYZ 242300Z 05006KT 15SM SCT064 BKN100 BKN250 16/06 A2989 RMK SC3AC2CI0 SLP126

CYYZ;2009-04-25 00:00;CYYZ 250000Z 36006KT 15SM BKN110 BKN250 15/07 A2991 RMK AC4CI0 SLP132

CYYZ;2009-04-25 01:00;CYYZ 250100Z 36003KT 15SM BKN120 BKN250 14/07 A2993 RMK AC4CI0 SLP138

CYYZ;2009-04-25 02:00;CYYZ 250200Z 36002KT 15SM FEW120 BKN250 14/08 A2995 RMK AC2CI1 SLP143

CYYZ;2009-04-25 03:00;CYYZ 250300Z 20003KT 15SM SCT150 BKN250 14/08 A2995 RMK AC2CI0 SLP144

CYYZ;2009-04-25 04:00;CYYZ 250400Z 15005KT 15SM BKN170 13/08 A2994 RMK AC6 SLP142

CYYZ;2009-04-25 05:00;CYYZ 250500Z 17005KT 15SM BKN160 11/05 A2994 RMK AC6 SLP141

CYYZ;2009-04-25 06:00;CYYZ 250600Z 12003KT 15SM FEW170 11/04 A2994 RMK AC2 SLP139

CYYZ;2009-04-25 07:00;CYYZ 250700Z 15003KT 15SM FEW180 11/04 A2992 RMK AC2 SLP135

CYYZ;2009-04-25 08:00;CYYZ 250800Z 13003KT 15SM SCT150 13/05 A2994 RMK AC2 SLP139

CYYZ;2009-04-25 09:00;CYYZ 250900Z CCA 18003KT 15SM BKN140 14/06 A2993 RMK AC5 SLP137

CYYZ;2009-04-25 10:00;CYYZ 251000Z 20006KT 15SM FEW140 BKN170 17/08 A2993 RMK AC2AC2 SLP136

CYYZ;2009-04-25 11:00;CYYZ 251100Z 20006KT 15SM FEW120 BKN150 BKN240 17/08 A2996 RMK AC2AC2CI1 SLP145

CYYZ;2009-04-25 12:00;CYYZ 251200Z 21008KT 15SM FEW120 SCT150 BKN240 18/09 A2998 RMK AC2AC2CI2 SLP152

CYYZ;2009-04-25 13:00;CYYZ 251300Z 21008KT 15SM FEW100 BKN140 BKN240 20/10 A2999 RMK AC2AC2CI2 CB EMBD SUN DIMLY VISBL SLP157

CYYZ;2009-04-25 14:00;CYYZ 251400Z 23014G20KT 15SM FEW110 BKN150 BKN240 22/11 A3000 RMK AC2AC2CI2 SLP160

CYYZ;2009-04-25 15:00;CYYZ 251500Z 22014KT 15SM FEW090 SCT120 BKN240 24/12 A3000 RMK AC2AC2CI1 SLP159

CYYZ;2009-04-25 16:00;CYYZ 251600Z 21014KT 15SM FEW050 FEW090 SCT130 BKN240 25/14 A2999 RMK CU1AC2AC2CI1 SLP156

CYYZ;2009-04-25 17:00;CYYZ 251700Z 23018KT 15SM FEW050 FEW120 BKN240 26/14 A2998 RMK CU1AC2CI2 CONTRAIL SLP153

CYYZ;2009-04-25 18:00;CYYZ 251800Z 22021G26KT 15SM FEW045 FEW070 SCT120 BKN240 26/15 A2998 RMK CU1AC1AC2CI1 SLP152

CYYZ;2009-04-25 19:00;CYYZ 251900Z 22024G31KT 15SM FEW050 SCT230 27/15 A2995 RMK CU1CI1 SLP144

CYYZ;2009-04-25 20:00;CYYZ 252000Z 22025G32KT 15SM FEW050TCU FEW120 BKN230 27/15 A2995 RMK TCU1AC2CI2 SUN DIMLY VISBL SLP144

CYYZ;2009-04-25 21:00;CYYZ 252100Z 23029G36KT 12SM FEW050 FEW120 BKN180 OVC230 26/14 A2996 RMK SC1AC2AC3CI2 CB EMBD DARK TWD W SLP145

CYYZ;2009-04-25 21:05;CYYZ 252105Z 26051G62KT 3SM -SHRA FEW055 FEW120 BKN180 OVC230 24/ RMK SC1AC2AC3CI2 CB EMBD DARK TWD W LTNGCC

CYYZ;2009-04-25 21:13;CYYZ 252113Z CCA 27041G62KT 2 1/2SM TSRA FEW045 BKN055 OVC066 17/ RMK SC2SC3AC2 CB EMBD DARK TWD W LTGCG

CYYZ;2009-04-25 21:27;CYYZ 252127Z 26028G44KT 15SM -TSRA SCT050 BKN074 OVC094 18/ RERA RMK SC3AC2AC2 CB EMBD LTGCC

CYYZ;2009-04-25 22:00;CYYZ 252200Z 26019G29KT 10SM TSRA FEW030 BKN045 OVC075 17/14 A3004 RMK SC2SC4AC2 CB EMBD LTGCC PRESSRR SLP172

CYYZ;2009-04-25 22:34;CYYZ 252234Z 27016G24KT 7SM -SHRA SCT043 BKN083 OVC110 17/ RETSRA RMK SC3AC2AS2

CYYZ;2009-04-25 23:00;CYYZ 252300Z 25016KT 12SM -SHRA SCT042 BKN078 OVC120 17/14 A3002 RETSRA RMK SC3AC3AC2 SLP166

CYYZ;2009-04-25 23:26;CYYZ 252326Z 24010G16KT 15SM SCT040 BKN100 OVC150 18/ RMK SC3AC2AS2

CYYZ;2009-04-26 00:00;CYYZ 260000Z 23012G18KT 15SM FEW046 BKN078 OVC096 18/15 A3004 RMK SC2AC4AC2 SLP174

CYYZ;2009-04-26 00:29;CYYZ 260029Z 24013KT 15SM -SHRA FEW052 OVC089 18/ RMK SC2AC6

CYYZ;2009-04-26 01:00;CYYZ 260100Z 25015KT 15SM -SHRA FEW023 SCT076 OVC120 18/15 A3005 RMK SC2AC2AS4 SLP177

CYYZ;2009-04-26 02:00;CYYZ 260200Z 29010G16KT 12SM -SHRA FEW020 SCT062 OVC100 18/14 A3011 RMK SC1SC2AC5 SLP195

CYYZ;2009-04-26 03:00;CYYZ 260300Z 26006KT 15SM -SHRA FEW022 BKN081 OVC110 17/14 A3012 RMK SC2AC4AS2 SLP200

CYYZ;2009-04-26 04:00;CYYZ 260400Z 25008KT 12SM -RA FEW026 BKN087 OVC110 17/14 A3014 RMK SC2AC4AS2 SLP206

CYYZ;2009-04-26 05:00;CYYZ 260500Z 36002KT 15SM -RA FEW023 SCT062 OVC070 17/15 A3012 RMK SC1SC3AC4 SLP199

CYYZ;2009-04-26 05:36;CYYZ 260536Z 03002KT 15SM BKN010 OVC070 17/ RMK SC6AC2

CYYZ;2009-04-26 05:43;CYYZ 260543Z 36007KT 15SM BKN007 OVC012 16/ RMK SC7SC1

CYYZ;2009-04-26 05:51;CYYZ 260551Z 36007KT 15SM FEW007 BKN012 16/ RMK SC2SC5

CYYZ;2009-04-26 06:00;CYYZ 260600Z 34008KT 15SM BKN010 BKN016 16/14 A3013 RMK SC5SC2 SLP204

CYYZ;2009-04-26 06:25;CYYZ 260625Z 35013KT 12SM -RA BKN006 OVC013 14/ RMK SF5SC3

CYYZ;2009-04-26 07:00;CYYZ 260700Z 36013KT 10SM -RA FEW006 BKN013 OVC021 12/09 A3016 RMK SF2SC4NS2 SLP212

CYYZ;2009-04-26 07:49;CYYZ 260749Z 36007KT 12SM -RA FEW012 SCT064 OVC083 11/ RMK SC2SC2AC4

CYYZ;2009-04-26 08:00;CYYZ 260800Z 36010KT 15SM -RA FEW010 SCT062 BKN087 11/09 A3015 RMK SC2SC2AC3 SLP210

CYYZ;2009-04-26 08:20;CYYZ 260820Z 34010G16KT 15SM BKN012 BKN086 OVC120 11/ RMK SC5AC2AC2

CYYZ;2009-04-26 08:54;CYYZ 260854Z 35017KT 12SM -SHRA SCT007 OVC015 10/ RMK SC3SC5

CYYZ;2009-04-26 09:00;CYYZ 260900Z 36018KT 12SM -SHRA SCT007 OVC015 10/08 A3020 RMK SC3SC5 SLP226

CYYZ;2009-04-26 09:51;CYYZ 260951Z 01009KT 15SM SCT007 OVC016 09/ RMK SC3SC5

CYYZ;2009-04-26 10:00;CYYZ 261000Z 01010KT 15SM SCT007 OVC016 09/07 A3020 RMK SC4SC4 SLP226

CYYZ;2009-04-26 11:00;CYYZ 261100Z 35011KT 15SM BKN007 OVC017 09/07 A3024 RMK SC5SC3 SLP241

CYYZ;2009-04-26 12:00;CYYZ 261200Z 02004KT 15SM BKN008 OVC017 10/08 A3026 RMK SC6SC2 SLP249

CYYZ;2009-04-26 12:33;CYYZ 261233Z 03005KT 4SM BR BKN005 OVC013 10/ RMK SC6SC2

CYYZ;2009-04-26 12:39;CYYZ 261239Z 03004KT 1 1/2SM BR OVC004 10/ RMK FG3SF5

CYYZ;2009-04-26 13:00;CYYZ 261300Z 01004KT 1 1/2SM BR OVC004 10/08 A3028 RMK FG4SF4 SLP257

CYYZ;2009-04-26 13:18;CYYZ 261318Z 34009KT 1 1/2SM -DZ BR OVC004 10/ RMK FG4SF4

CYYZ;2009-04-26 13:30;CYYZ 261330Z 11007KT 1 1/4SM -DZ BR OVC002 10/ RMK FG5SF3

CYYZ;2009-04-26 14:00;CYYZ 261400Z 08005KT 1 1/4SM -DZ BR OVC004 10/08 A3029 RMK FG5SF3 PCPN VRY LGT SLP260

CYYZ;2009-04-26 14:23;CYYZ 261423Z 11011KT 4SM BR BKN007 OVC011 10/ RMK SF5SC3

CYYZ;2009-04-26 15:00;CYYZ 261500Z 11011KT 4SM BR BKN007 OVC012 08/06 A3031 RMK SF6SC2 SLP265

CYYZ;2009-04-26 16:00;CYYZ 261600Z 10010G16KT 15SM FEW007 OVC012 08/06 A3030 RMK SF2SC6 SLP264

CYYZ;2009-04-26 17:00;CYYZ 261700Z 10012KT 15SM FEW007 OVC012 09/05 A3029 RMK SF2SC6 SLP259

CYYZ;2009-04-26 17:44;CYYZ 261744Z 10012KT 15SM OVC016 09/ RMK SC8

CYYZ;2009-04-26 18:00;CYYZ 261800Z 07010KT 15SM OVC016 09/04 A3030 RMK SC8 SLP262

CYYZ;2009-04-26 19:00;CYYZ 261900Z 08012KT 15SM OVC015 09/04 A3028 RMK SC8 SLP256

CYYZ;2009-04-26 20:00;CYYZ 262000Z 10009KT 15SM OVC015 10/05 A3027 RMK SC8 SLP254

CYYZ;2009-04-26 21:00;CYYZ 262100Z 10008KT 15SM BKN017 BKN070 BKN210 11/05 A3027 RMK SC5AC2CI1 SLP255

CYYZ;2009-04-26 22:00;CYYZ 262200Z 11009KT 15SM FEW021 SCT150 BKN250 12/05 A3025 RMK SC2AC2CI0 SLP248

CYYZ;2009-04-26 23:00;CYYZ 262300Z 09006KT 15SM SCT150 BKN260 11/05 A3025 RMK AC3CI1 SLP247

CYYZ;2009-04-27 00:00;CYYZ 270000Z 07006KT 15SM FEW110 BKN150 BKN260 11/05 A3028 RMK AC2AC3CI1 SLP257

CYYZ;2009-04-27 01:00;CYYZ 270100Z 12005KT 15SM FEW086 BKN130 BKN240 10/04 A3029 RMK AC2AC4CI1 SLP260

CYYZ;2009-04-27 02:00;CYYZ 270200Z 11008KT 15SM SCT100 BKN120 10/04 A3026 RMK AC3AC3 SLP252

CYYZ;2009-04-27 03:00;CYYZ 270300Z 14006KT 15SM SCT140 BKN160 09/04 A3027 RMK AC3AC2 SLP256

CYYZ;2009-04-27 04:00;CYYZ 270400Z 11005KT 15SM FEW140 BKN260 09/04 A3026 RMK AC2CI1 SLP252

CYYZ;2009-04-27 05:00;CYYZ 270500Z 10008KT 15SM FEW140 OVC260 09/04 A3025 RMK AC2CI2 SLP247

CYYZ;2009-04-27 06:00;CYYZ 270600Z 09005KT 15SM FEW140 BKN260 08/04 A3023 RMK AC2CI2 SLP242

CYYZ;2009-04-27 07:00;CYYZ 270700Z 09005KT 15SM SCT260 08/03 A3021 RMK CI2 SLP233

CYYZ;2009-04-27 08:00;CYYZ 270800Z 08003KT 15SM FEW260 08/03 A3020 RMK CI1 SLP230

CYYZ;2009-04-27 09:00;CYYZ 270900Z 11002KT 15SM FEW230 07/03 A3020 RMK CI1 SLP230

CYYZ;2009-04-27 10:00;CYYZ 271000Z 06002KT 15SM FEW230 07/02 A3020 RMK CI1 SLP230

CYYZ;2009-04-27 11:00;CYYZ 271100Z 06003KT 15SM FEW160 FEW230 08/03 A3020 RMK AC1CI1 SLP230

CYYZ;2009-04-27 12:00;CYYZ 271200Z 09004KT 15SM FEW230 09/03 A3020 RMK CI1 SLP230

CYYZ;2009-04-27 13:00;CYYZ 271300Z 16003KT 15SM FEW230 11/05 A3019 RMK CI1 SLP229

CYYZ;2009-04-27 14:00;CYYZ 271400Z 21003KT 15SM FEW120 FEW250 14/06 A3020 RMK AC1CI1 SLP231

CYYZ;2009-04-27 15:00;CYYZ 271500Z 16006KT 15SM FEW120 FEW250 15/07 A3019 RMK AC1CI1 SLP226

CYYZ;2009-04-27 16:00;CYYZ 271600Z 15006KT 15SM SCT220 16/08 A3018 RMK CI2 SLP224

CYYZ;2009-04-27 17:00;CYYZ 271700Z 15009KT 15SM FEW120 SCT220 19/10 A3016 RMK AC1CI2 SLP216

CYYZ;2009-04-27 18:00;CYYZ 271800Z CCA 15011G16KT 15SM FEW035 FEW120 SCT240 19/10 A3014 RMK CU1AC1CI2 CU TR SLP209

CYYZ;2009-04-27 19:00;CYYZ 271900Z 23023G34KT 15SM FEW035 FEW150 SCT240 27/13 A3013 RMK CU1AC1CI2 SLP206

CYYZ;2009-04-27 20:00;CYYZ 272000Z 23028G36KT 15SM FEW035 FEW150 SCT240 27/13 A3011 RMK CU1AC1CI2 SLP200

CYYZ;2009-04-27 21:00;CYYZ 272100Z 23023G37KT 15SM FEW045 FEW150 BKN240 27/12 A3010 RMK CU1AC1CI2 SLP193

CYYZ;2009-04-27 22:00;CYYZ 272200Z 24022G32KT 15SM FEW050 FEW160 BKN240 26/12 A3010 RMK CU1AC1CI2 CU TR SLP194

CYYZ;2009-04-27 23:00;CYYZ 272300Z 24022KT 15SM FEW180 BKN230 26/12 A3009 RMK AC2CI2 SLP190

CYYZ;2009-04-28 00:00;CYYZ 280000Z 22015KT 15SM FEW160 BKN230 25/12 A3008 RMK AC2CI2 SLP188

CYYZ;2009-04-28 01:00;CYYZ 280100Z 22013KT 15SM FEW160 BKN240 24/11 A3009 RMK AC2CI1 SLP189

CYYZ;2009-04-28 02:00;CYYZ 280200Z CCA 23011G16KT 15SM SCT096 BKN240 23/11 A3009 RMK AC4CI1 SLP189

CYYZ;2009-04-28 03:00;CYYZ 280300Z 31017KT 15SM SCT097 BKN250 21/13 A3011 RMK AC3CI1 SLP196

CYYZ;2009-04-28 04:00;CYYZ 280400Z 31011G17KT 15SM FEW110 BKN220 19/14 A3012 RMK AC2CI2 SLP200

CYYZ;2009-04-28 05:00;CYYZ 280500Z 31008KT 15SM FEW110 BKN230 18/14 A3011 RMK AC2CI2 SLP198

CYYZ;2009-04-28 06:00;CYYZ 280600Z 28005KT 15SM FEW110 BKN220 17/13 A3011 RMK AC2CI2 SLP196

CYYZ;2009-04-28 07:00;CYYZ 280700Z 28005KT 15SM FEW190 BKN230 16/13 A3011 RMK AC2CI2 SLP197

CYYZ;2009-04-28 08:00;CYYZ 280800Z 24005KT 15SM SCT180 BKN220 15/12 A3011 RMK AC3CI2 SLP196

CYYZ;2009-04-28 09:00;CYYZ 280900Z 23007KT 15SM SCT170 BKN210 16/13 A3010 RMK AC3CI2 SLP192

CYYZ;2009-04-28 10:00;CYYZ 281000Z 22005KT 15SM BKN110 OVC140 16/13 A3011 RMK AC6AC2 SLP194

CYYZ;2009-04-28 10:36;CYYZ 281036Z 21005KT 12SM -RA FEW080 OVC100 16/ RMK AC1AC7

CYYZ;2009-04-28 11:00;CYYZ 281100Z 26004KT 10SM -RA BKN030 OVC095 16/13 A3011 RMK SC7AC1 SLP195

CYYZ;2009-04-28 11:43;CYYZ 281143Z 34015KT 5SM -RA SCT009 BKN016 OVC028 13/ RMK SF3SF4SC1 VIS 15 E

CYYZ;2009-04-28 12:00;CYYZ 281200Z 35027G32KT 3SM +RA BR SCT009 OVC015 11/09 A3015 RMK SF4SF4 SLP209

CYYZ;2009-04-28 13:00;CYYZ 281300Z 35017G28KT 4SM -RA FEW020 OVC032 09/09 A3019 RERA RMK SF1SC7 SLP223

CYYZ;2009-04-28 14:00;CYYZ 281400Z 36020G25KT 12SM -RA FEW010 FEW025 OVC058 09/09 A3020 RMK SF1SF1SC7 SLP226

CYYZ;2009-04-28 15:00;CYYZ 281500Z 34018G24KT 12SM -RA FEW012 OVC060 08/08 A3025 RMK SF1NS7 SLP245

CYYZ;2009-04-28 16:00;CYYZ 281600Z 34019G25KT 10SM -RA SCT012 OVC040 07/07 A3028 RMK SF4NS4 SLP254

CYYZ;2009-04-28 16:08;CYYZ 281608Z 34021KT 12SM -RA BKN012 OVC040 07/ RMK SF6NS2

CYYZ;2009-04-28 16:39;CYYZ 281639Z 34017G26KT 15SM FEW012 BKN030 OVC120 07/ RMK SF2SC4AC2

CYYZ;2009-04-28 17:00;CYYZ 281700Z 34019G26KT 15SM SCT012 OVC120 08/08 A3029 RMK SF4AS4 SLP259

CYYZ;2009-04-28 18:00;CYYZ 281800Z 35023G30KT 15SM SCT016 OVC130 09/09 A3031 RMK SF3AC5 SLP268

CYYZ;2009-04-28 19:00;CYYZ 281900Z 34015G20KT 15SM BKN018 BKN150 10/10 A3034 RMK SF6AC2 SLP277

CYYZ;2009-04-28 20:00;CYYZ 282000Z 35019G27KT 15SM BKN022 OVC130 10/05 A3036 RMK SF5AC3 SLP282

CYYZ;2009-04-28 21:00;CYYZ 282100Z 36013G19KT 15SM FEW022 BKN140 10/05 A3039 RMK SF2AC5 SLP293

CYYZ;2009-04-28 22:00;CYYZ 282200Z 35015KT 15SM SCT150 BKN270 12/05 A3041 RMK AC3CI3 SLP300

CYYZ;2009-04-28 23:00;CYYZ 282300Z 36012KT 15SM FEW150 SCT260 11/04 A3043 RMK AC2CI2 SLP307

CYYZ;2009-04-29 00:00;CYYZ 290000Z 35011KT 15SM FEW170 SCT260 10/04 A3045 RMK AC2CI1 SLP316

CYYZ;2009-04-29 01:00;CYYZ 290100Z 36011KT 15SM FEW160 SCT260 09/03 A3047 RMK AC2CI0 SLP322

CYYZ;2009-04-29 02:00;CYYZ 290200Z 36008KT 15SM FEW160 FEW260 08/02 A3050 RMK AC1CI0 SLP332

CYYZ;2009-04-29 03:00;CYYZ 290300Z 36008KT 15SM SKC 07/01 A3051 RMK SLP338

CYYZ;2009-04-29 04:00;CYYZ 290400Z 36010KT 15SM FEW260 06/00 A3051 RMK CI1 SLP338

CYYZ;2009-04-29 05:00;CYYZ 290500Z 01007KT 15SM FEW260 05/M00 A3052 RMK CI1 SLP339

CYYZ;2009-04-29 06:00;CYYZ 290600Z 01008KT 15SM FEW260 04/M00 A3051 RMK CI1 SLP338

CYYZ;2009-04-29 07:00;CYYZ 290700Z 36008KT 15SM FEW260 05/M00 A3051 RMK CI1 SLP338

CYYZ;2009-04-29 08:00;CYYZ 290800Z 36007KT 15SM FEW260 04/M00 A3052 RMK CI1 SLP341

CYYZ;2009-04-29 09:00;CYYZ 290900Z 02005KT 15SM SCT240 04/00 A3054 RMK CI2 SLP346

CYYZ;2009-04-29 10:00;CYYZ 291000Z 03005KT 15SM BKN250 04/M00 A3054 RMK CI3 SLP346

CYYZ;2009-04-29 11:00;CYYZ 291100Z 07006KT 15SM BKN240 07/M01 A3055 RMK CI6 SLP352

CYYZ;2009-04-29 12:00;CYYZ 291200Z 08008KT 15SM BKN260 08/M03 A3059 RMK CI6 SLP364

CYYZ;2009-04-29 13:00;CYYZ 291300Z 09009G16KT 15SM BKN270 09/M04 A3060 RMK CI2 SLP367

CYYZ;2009-04-29 14:00;CYYZ 291400Z 11013G19KT 15SM BKN280 10/M04 A3059 RMK CI2 CONTRAILS SLP364

CYYZ;2009-04-29 15:00;CYYZ 291500Z 10013G19KT 15SM SCT280 10/M04 A3059 RMK CI2 SLP365

CYYZ;2009-04-29 16:00;CYYZ 291600Z 09014KT 15SM FEW130 FEW280 10/M05 A3058 RMK AC1CI1 SLP360

CYYZ;2009-04-29 17:00;CYYZ 291700Z 13014G20KT 15SM FEW150 FEW280 09/M04 A3056 RMK AC1CI1 SLP354

CYYZ;2009-04-29 18:00;CYYZ 291800Z 13015KT 15SM FEW170 10/M04 A3054 RMK AC1 SLP347

CYYZ;2009-04-29 19:00;CYYZ 291900Z 12011G16KT 15SM FEW160 FEW260 10/M06 A3051 RMK AC1CI1 SLP337

CYYZ;2009-04-29 20:00;CYYZ 292000Z 11010KT 15SM FEW150 FEW260 12/M04 A3050 RMK AC1CI1 CONTRAILS SLP333

CYYZ;2009-04-29 21:00;CYYZ 292100Z 09010KT 15SM FEW150 FEW260 12/M05 A3047 RMK AC1CI0 SLP322

CYYZ;2009-04-29 22:00;CYYZ 292200Z 08008KT 15SM FEW150 FEW260 12/M07 A3045 RMK AC1CI0 CONTRAILS SLP317

CYYZ;2009-04-29 23:00;CYYZ 292300Z 08010KT 15SM FEW150 FEW260 12/M06 A3043 RMK AC1CI0 SLP309

CYYZ;2009-04-30 00:00;CYYZ 300000Z 09009KT 15SM FEW130 FEW260 11/M04 A3041 RMK AC1CI0 CONTRAILS SLP302

CYYZ;2009-04-30 01:00;CYYZ 300100Z 06006KT 15SM FEW120 FEW260 10/M05 A3039 RMK AC1CI1 SLP296

CYYZ;2009-04-30 02:00;CYYZ 300200Z 10004KT 15SM SCT120 10/M04 A3039 RMK AC3 SLP295

CYYZ;2009-04-30 03:00;CYYZ 300300Z 11004KT 15SM BKN120 09/M05 A3037 RMK AC6 SLP288

CYYZ;2009-04-30 04:00;CYYZ 300400Z 11004KT 15SM BKN120 09/M07 A3036 RMK AC6 SLP285

CYYZ;2009-04-30 05:00;CYYZ 300500Z 09005KT 15SM BKN120 08/M06 A3033 RMK AC5 SLP275

CYYZ;2009-04-30 06:00;CYYZ 300600Z 08005KT 15SM SCT120 BKN250 08/M04 A3030 RMK AC3CI2 SLP266

CYYZ;2009-04-30 07:00;CYYZ 300700Z 09007KT 15SM SCT120 BKN250 09/M04 A3029 RMK AC4CI2 SLP261

CYYZ;2009-04-30 08:00;CYYZ 300800Z 11004KT 15SM SCT120 BKN250 09/M03 A3027 RMK AC3CI3 SLP254

CYYZ;2009-04-30 09:00;CYYZ 300900Z 11002KT 15SM FEW120 BKN250 09/M02 A3025 RMK AC2CI5 SLP247

CYYZ;2009-04-30 10:00;CYYZ 301000Z 08003KT 15SM SCT120 BKN250 08/M02 A3024 RMK AC3CI4 SLP243

CYYZ;2009-04-30 11:00;CYYZ 301100Z 08005KT 15SM SCT110 OVC260 08/M02 A3024 RMK AC4CI4 SLP243

CYYZ;2009-04-30 12:00;CYYZ 301200Z 08004KT 15SM FEW080 FEW110 OVC260 09/M00 A3022 RMK AC1AC1CS7 SLP238

CYYZ;2009-04-30 13:00;CYYZ 301300Z 10003KT 15SM FEW080 FEW110 OVC260 10/01 A3020 RMK AC1AC1CS8 SLP232

CYYZ;2009-04-30 14:00;CYYZ 301400Z 15003KT 15SM BKN022 OVC200 12/03 A3017 RMK SC6CS1 SLP222

CYYZ;2009-04-30 15:00;CYYZ 301500Z 11002KT 15SM BKN026 13/05 A3015 RMK SC7 SLP213

CYYZ;2009-04-30 16:00;CYYZ 301600Z 16005KT 15SM FEW025 BKN270 15/07 A3012 RMK SC1CS2 SLP203

CYYZ;2009-04-30 17:00;CYYZ 301700Z 13005KT 15SM FEW028 OVC280 15/08 A3009 RMK SC1CS8 SLP194

CYYZ;2009-04-30 18:00;CYYZ 301800Z 13007KT 15SM FEW028 FEW200 OVC260 15/09 A3006 RMK SC1CI2CS6 SLP181

CYYZ;2009-04-30 19:00;CYYZ 301900Z 14007KT 15SM FEW040 OVC150 15/09 A3003 RMK SC1AS7 SLP172

CYYZ;2009-04-30 20:00;CYYZ 302000Z 16009KT 15SM OVC035 13/07 A3000 RMK SC8 SLP161

CYYZ;2009-04-30 20:07;CYYZ 302007Z 16009KT 12SM -RA OVC035 12/ RMK SC8

CYYZ;2009-04-30 21:00;CYYZ 302100Z 12010KT 5SM -RA FEW013 OVC036 11/08 A2996 RMK SF1SC7 SLP149

CYYZ;2009-04-30 21:22;CYYZ 302122Z 12011KT 5SM -RA BKN012 OVC040 11/ RMK SC6SC2

CYYZ;2009-04-30 21:54;CYYZ 302154Z 12008KT 4SM -RA SCT012 BKN024 OVC040 11/ RMK SF3SC3SC2

CYYZ;2009-04-30 22:00;CYYZ 302200Z 11008KT 4SM -RA FEW010 BKN018 OVC022 11/09 A2992 RMK SF2SC3SC2 SLP135

CYYZ;2009-04-30 22:24;CYYZ 302224Z 10008KT 3SM RA BR BKN008 OVC019 11/ RMK SF6SC2

CYYZ;2009-04-30 22:41;CYYZ 302241Z 11007KT 3SM -RA BR OVC005 11/ RERA RMK SF8

CYYZ;2009-04-30 23:00;CYYZ 302300Z 10006KT 3SM -RA BR FEW002 OVC004 11/10 A2987 RERA RMK SF2SF6 SLP119

CYYZ;2009-04-30 23:14;CYYZ 302314Z 11006KT 2 1/4SM -RA BR OVC002 11/ RMK FG2SF6

CYYZ;2009-04-30 23:50;CYYZ 302350Z 13010KT 1 1/4SM -RA BR OVC002 12/ RMK FG2SF6

CYYZ;2009-05-01 01:00;CYYZ 010100Z 14010G16KT 2 1/2SM -RA BR BKN002 OVC005 12/11 A2974 RERA RMK FG1SF5SC2 SLP073

CYYZ;2009-05-01 01:23;CYYZ 010123Z 16013G18KT 3SM -RA BR FEW002 BKN004 OVC012 13/ RMK SF2SF5SC2

CYYZ;2009-05-01 02:00;CYYZ 010200Z CCA 18017KT 3SM -RA BR SCT002 OVC004 13/12 A2971 RMK SF3SC5 SLP062

CYYZ;2009-05-01 02:49;CYYZ 010249Z 20014G19KT 3SM -RA BR BKN006 OVC011 15/ RMK SF5SC3

CYYZ;2009-05-01 03:00;CYYZ 010300Z CCA 19014G24KT 3SM RA BR BKN006 OVC012 15/14 A2968 RMK SF5SC3 SLP051

CYYZ;2009-05-01 03:15;CYYZ 010315Z 20014G20KT 4SM -RA BR SCT006 OVC012 16/ RERA RMK SF3SC5

CYYZ;2009-05-01 04:00;CYYZ 010400Z 22013KT 3SM RA BR FEW007 BKN013 OVC026 16/15 A2965 RMK SF2SC5SC2 SLP043

CYYZ;2009-05-01 04:27;CYYZ 010427Z 21014G20KT 5SM -RA BR SCT014 OVC038 16/ RERA RMK SC3SC5

CYYZ;2009-05-01 05:00;CYYZ 010500Z 22016G26KT 5SM -RA BR FEW014 OVC022 17/15 A2963 RERA RMK SC2SC6 /R14/ SLP035

CYYZ;2009-05-01 06:00;CYYZ 010600Z 22016G24KT 7SM -RA SCT018 OVC026 17/15 A2962 RMK SC3SC5 BR SLP032

CYYZ;2009-05-01 07:00;CYYZ 010700Z 23016G21KT 8SM -RA BKN022 OVC036 17/15 A2963 RMK SC6SC2 BR SLP033

CYYZ;2009-05-01 07:52;CYYZ 010752Z 27019G28KT 12SM FEW024 BKN032 17/ RMK SC2SC5

CYYZ;2009-05-01 08:00;CYYZ 010800Z 27017G23KT 12SM FEW023 BKN033 17/14 A2966 RMK SC2SC5 SLP044

CYYZ;2009-05-01 09:00;CYYZ 010900Z 27018G24KT 15SM BKN026 BKN240 16/13 A2971 RMK SC4CI1 SLP062

CYYZ;2009-05-01 10:00;CYYZ 011000Z CCA 26014KT 15SM BKN026 BKN170 OVC230 15/12 A2973 RMK SC6AC2CI0 SLP070

CYYZ;2009-05-01 11:00;CYYZ 011100Z 25008KT 12SM OVC017 15/13 A2974 RMK SC8 SLP073

CYYZ;2009-05-01 12:00;CYYZ 011200Z 24011KT 12SM BKN018 OVC025 16/13 A2974 RMK SC5SC3 SLP073

CYYZ;2009-05-01 12:39;CYYZ 011239Z 26015G22KT 12SM -SHRA BKN017 OVC025 16/ RMK SC5SC3

CYYZ;2009-05-01 13:00;CYYZ 011300Z 26016G21KT 15SM BKN021 OVC026 16/13 A2974 RMK SC5SC3 SLP074

CYYZ;2009-05-01 14:00;CYYZ 011400Z 27019G25KT 15SM FEW030 BKN035 OVC170 17/12 A2975 RMK CU2SC2AC3 SLP076

CYYZ;2009-05-01 15:00;CYYZ 011500Z 27017G26KT 15SM SCT036 BKN042 BKN230 17/10 A2976 RMK CU3SC2CI1 SLP078

CYYZ;2009-05-01 16:00;CYYZ 011600Z 27020G29KT 15SM FEW042 BKN240 19/10 A2977 RMK CU2CI1 SLP080

CYYZ;2009-05-01 17:00;CYYZ 011700Z 28017G26KT 15SM FEW042 SCT110 BKN240 19/10 A2975 RMK CU2AC2CI1 SLP075

CYYZ;2009-05-01 18:00;CYYZ 011800Z 28019G25KT 15SM FEW042 SCT048 BKN220 19/09 A2975 RMK CU2SC2CI1 SLP073

CYYZ;2009-05-01 19:00;CYYZ 011900Z 26022KT 15SM FEW041 BKN049 BKN230 18/09 A2978 RMK CU2SC2CI1 SLP083

CYYZ;2009-05-01 20:00;CYYZ 012000Z 29020G26KT 15SM FEW043 SCT048 BKN110 BKN220 17/08 A2978 RMK CU2SC2AC2CI1 SLP083

CYYZ;2009-05-01 21:00;CYYZ 012100Z 29021G28KT 15SM FEW042 FEW048 BKN120 16/07 A2979 RMK CU1SC2AC4 SLP087

CYYZ;2009-05-01 22:00;CYYZ 012200Z 28016G27KT 15SM FEW046 BKN110 15/05 A2980 RMK SC2AC4 SLP090

CYYZ;2009-05-01 22:08;CYYZ 012208Z 29022KT 15SM -SHRA FEW046 OVC110 15/ RMK SC2AC6

CYYZ;2009-05-01 23:00;CYYZ 012300Z 31025KT 10SM -SHRA SCT046 OVC055 12/06 A2980 RMK SC3SC5 SLP093

CYYZ;2009-05-01 23:45;CYYZ 012345Z 31021G27KT 10SM FEW045 BKN062 OVC082 12/ RMK SC2SC4AC2

CYYZ;2009-05-01 23:50;CYYZ 012350Z 31019G27KT 12SM -SHRA FEW045 BKN064 OVC082 11/ RMK SC2SC4AC2

CYYZ;2009-05-02 00:00;CYYZ 020000Z 31016KT 12SM -SHRA SCT049 OVC068 11/05 A2984 RMK SC4AC4 SLP106

CYYZ;2009-05-02 00:28;CYYZ 020028Z 32017KT 15SM FEW055 BKN088 10/ RMK SC2AC4

CYYZ;2009-05-02 01:00;CYYZ 020100Z 32014KT 15SM FEW052 SCT100 BKN120 09/03 A2986 RMK SC2AC2AC2 SLP113

CYYZ;2009-05-02 02:00;CYYZ 020200Z 32013KT 15SM BKN061 BKN110 09/01 A2990 RMK SC5AC2 SLP126

CYYZ;2009-05-02 03:00;CYYZ 020300Z 30010G15KT 15SM FEW062 BKN140 09/M00 A2992 RMK SC2AC5 SLP132

CYYZ;2009-05-02 04:00;CYYZ 020400Z 32014KT 15SM FEW060 BKN160 08/M01 A2992 RMK SC1AC6 SLP135

CYYZ;2009-05-02 05:00;CYYZ 020500Z 33007KT 15SM SCT150 07/M01 A2993 RMK AC2 SLP137

CYYZ;2009-05-02 06:00;CYYZ 020600Z 33006KT 15SM FEW150 06/M02 A2993 RMK AC1 SLP139

CYYZ;2009-05-02 07:00;CYYZ 020700Z 27005KT 15SM FEW130 05/M02 A2993 RMK AC1 SLP138

CYYZ;2009-05-02 08:00;CYYZ 020800Z 27006KT 15SM SKC 03/M02 A2995 RMK SLP143

CYYZ;2009-05-02 09:00;CYYZ 020900Z 28005KT 15SM FEW260 03/M02 A2994 RMK CI1 SLP141

CYYZ;2009-05-02 10:00;CYYZ 021000Z 28007KT 15SM FEW120 FEW230 03/M02 A2995 RMK AC1CI0 SLP146

CYYZ;2009-05-02 11:00;CYYZ 021100Z 27003KT 15SM FEW140 FEW220 04/M02 A2995 RMK AC1CI0 SLP146

CYYZ;2009-05-02 12:00;CYYZ 021200Z 24005KT 15SM FEW240 07/M00 A2997 RMK CI1 SLP152

CYYZ;2009-05-02 13:00;CYYZ 021300Z 23005KT 15SM FEW150 SCT240 09/M00 A2996 RMK AC1CI1 AC TR SLP150

CYYZ;2009-05-02 14:00;CYYZ 021400Z 23012G18KT 15SM FEW045 FEW150 SCT240 11/01 A2994 RMK CU1AC1CI1 CU AC TR SLP144

CYYZ;2009-05-02 15:00;CYYZ 021500Z CCA 26014G24KT 15SM FEW052 SCT240 12/01 A2993 RMK CU2CI1 SLP139

CYYZ;2009-05-02 16:00;CYYZ 021600Z 25017G25KT 15SM SCT054 BKN062 BKN240 13/02 A2992 RMK CU3CU2CI2 SLP134

CYYZ;2009-05-02 16:27;CYYZ 021627Z 25021KT 15SM -SHRA SCT056 BKN063 BKN240 13/ RMK CU3CU2CI1

CYYZ;2009-05-02 17:00;CYYZ 021700Z 25017G24KT 15SM SCT062 BKN088 13/03 A2988 RMK CU3AC4 SLP122

CYYZ;2009-05-02 17:09;CYYZ 021709Z CCA 23010G20KT 15SM -SHRA BKN058 BKN085 13/ RMK CU5AC2

CYYZ;2009-05-02 18:00;CYYZ 021800Z 22013G20KT 15SM -SHRA SCT056 BKN062 BKN081 14/03 A2986 RMK CU3SC2AC2 SLP114

CYYZ;2009-05-02 19:00;CYYZ 021900Z 28010G27KT 10SM -SHRA FEW055 BKN061 BKN086 12/07 A2986 RMK CU2SC2AC2 SLP116

CYYZ;2009-05-02 20:00;CYYZ 022000Z 26024G33KT 5SM -SHRA FEW019 BKN036 BKN085 10/05 A2988 RMK SC2SC4AC2 SLP122

CYYZ;2009-05-02 20:17;CYYZ 022017Z 25010KT 15SM FEW045 SCT058 BKN069 11/ RMK CU1SC2AC3

CYYZ;2009-05-02 21:00;CYYZ 022100Z 25014KT 15SM FEW052 SCT062 BKN092 14/07 A2985 RMK CU2SC2AC3 SLP111

CYYZ;2009-05-02 22:00;CYYZ 022200Z 23016G22KT 15SM FEW062 SCT076 13/05 A2985 RMK CU2AC2 SLP111

CYYZ;2009-05-02 23:00;CYYZ 022300Z 24014G19KT 15SM FEW065 BKN085 14/04 A2985 RMK CU2AC5 SLP113

CYYZ;2009-05-03 00:00;CYYZ 030000Z 24010KT 15SM FEW080 SCT095 13/04 A2985 RMK AC2AC1 SLP112

CYYZ;2009-05-03 01:00;CYYZ 030100Z 23007KT 15SM FEW075 12/04 A2986 RMK AC1 SLP115

CYYZ;2009-05-03 02:00;CYYZ 030200Z 22007KT 15SM FEW070 12/05 A2987 RMK AC1 SLP119

CYYZ;2009-05-03 03:00;CYYZ 030300Z 25008KT 15SM FEW060 09/04 A2989 RMK SC1 SLP123

CYYZ;2009-05-03 04:00;CYYZ 030400Z 36004KT 15SM SKC 07/M01 A2992 RMK SLP134

CYYZ;2009-05-03 05:00;CYYZ 030500Z 00000KT 15SM SKC 08/M01 A2991 RMK SLP131

CYYZ;2009-05-03 06:00;CYYZ 030600Z 27002KT 15SM SKC 07/M01 A2991 RMK SLP130

CYYZ;2009-05-03 07:00;CYYZ 030700Z 19002KT 15SM SKC 07/M01 A2991 RMK SLP132

CYYZ;2009-05-03 08:00;CYYZ 030800Z 22003KT 15SM FEW060 05/M00 A2992 RMK SC1 SLP135

CYYZ;2009-05-03 09:00;CYYZ 030900Z 00000KT 15SM FEW070 06/00 A2992 RMK AC1 SLP137

CYYZ;2009-05-03 10:00;CYYZ 031000Z 29003KT 15SM FEW085 05/00 A2992 RMK AC1 SLP137

CYYZ;2009-05-03 11:00;CYYZ 031100Z 25004KT 15SM FEW092 BKN230 06/00 A2992 RMK AC2CI1 SLP137

CYYZ;2009-05-03 12:00;CYYZ 031200Z 29003KT 15SM FEW100 FEW170 BKN230 09/02 A2994 RMK AC1AC2CI1 SLP142

CYYZ;2009-05-03 13:00;CYYZ 031300Z 00000KT 15SM FEW100 BKN230 11/02 A2996 RMK AC1CI2 SLP147

CYYZ;2009-05-03 14:00;CYYZ 031400Z 27007KT 15SM FEW120 SCT240 14/03 A2995 RMK AC1CI1 AC TR SLP146

CYYZ;2009-05-03 15:00;CYYZ 031500Z 25011G17KT 15SM FEW030 FEW130 FEW230 16/03 A2994 RMK CF1AC1CI1 SLP142

CYYZ;2009-05-03 16:00;CYYZ 031600Z 26010G16KT 15SM FEW050 FEW079 SCT150 17/03 A2993 RMK CU2AC1AC1 SLP137

CYYZ;2009-05-03 17:00;CYYZ 031700Z 27011G16KT 15SM FEW063 SCT082 SCT240 18/02 A2990 RMK CU2AC2CI1 SLP129

CYYZ;2009-05-03 18:00;CYYZ 031800Z 25013G20KT 15SM FEW065 BKN081 18/01 A2989 RMK CU2AC3 SLP124

CYYZ;2009-05-03 19:00;CYYZ 031900Z 25012G22KT 15SM FEW064 BKN092 18/01 A2989 RMK CU2AC4 SLP124

CYYZ;2009-05-03 20:00;CYYZ 032000Z 26017G25KT 15SM FEW063 SCT100 BKN260 18/02 A2987 RMK CU2AC2CI0 SLP117

CYYZ;2009-05-03 21:00;CYYZ 032100Z 27016G22KT 15SM FEW062 SCT100 BKN260 19/02 A2986 RMK CU2AC2CI0 SLP112

CYYZ;2009-05-03 22:00;CYYZ 032200Z 26012G17KT 15SM FEW060 SCT100 BKN260 18/01 A2987 RMK CU1AC3CI0 SLP117

CYYZ;2009-05-03 23:00;CYYZ 032300Z 29012G19KT 15SM FEW060 SCT100 BKN260 18/01 A2988 RMK CU1AC3CI0 SLP120

CYYZ;2009-05-04 00:00;CYYZ 040000Z 24017KT 15SM FEW060 BKN110 BKN260 17/01 A2989 RMK SC1AC4CI0 SLP124

CYYZ;2009-05-04 01:00;CYYZ 040100Z 25009KT 15SM FEW060 FEW090 SCT260 15/02 A2991 RMK SC2AC1CI0 SLP130

CYYZ;2009-05-04 02:00;CYYZ 040200Z 24008KT 15SM FEW060 13/02 A2993 RMK SC1 SLP136

CYYZ;2009-05-04 03:00;CYYZ 040300Z 27004KT 15SM FEW060 FEW260 12/02 A2993 RMK SC1CI0 SLP138

CYYZ;2009-05-04 04:00;CYYZ 040400Z 36009KT 15SM FEW250 12/01 A2995 RMK CI0 SLP144

CYYZ;2009-05-04 05:00;CYYZ 040500Z 35010KT 15SM SKC 10/01 A2997 RMK SLP151

CYYZ;2009-05-04 06:00;CYYZ 040600Z 34006KT 15SM FEW060 09/01 A2999 RMK SC1 SLP157

CYYZ;2009-05-04 07:00;CYYZ 040700Z 36008KT 15SM FEW060 09/00 A3000 RMK SC1 SLP161

CYYZ;2009-05-04 08:00;CYYZ 040800Z 36006KT 15SM SKC 08/M00 A3001 RMK SLP163

CYYZ;2009-05-04 09:00;CYYZ 040900Z 33004KT 15SM FEW060 07/M00 A3002 RMK SC1 SLP169

CYYZ;2009-05-04 10:00;CYYZ 041000Z 34004KT 15SM FEW100 FEW250 06/M01 A3004 RMK AC1CI0 SLP176

CYYZ;2009-05-04 11:00;CYYZ 041100Z 36009KT 15SM FEW160 BKN250 08/M01 A3006 RMK AC1CI2 SLP182

CYYZ;2009-05-04 12:00;CYYZ 041200Z 36008KT 15SM BKN250 09/M01 A3009 RMK CI2 SLP193

CYYZ;2009-05-04 13:00;CYYZ 041300Z 01007KT 15SM FEW170 BKN250 10/M00 A3011 RMK AC1CI2 SLP200

CYYZ;2009-05-04 14:00;CYYZ 041400Z 35006KT 15SM BKN250 12/M01 A3013 RMK CI3 SLP204

CYYZ;2009-05-04 15:00;CYYZ 041500Z 36007KT 15SM FEW180 BKN250 14/M01 A3013 RMK AS1CS3 SLP207

CYYZ;2009-05-04 16:00;CYYZ 041600Z 04007KT 15SM OVC250 14/M01 A3013 RMK CS6 SLP207

CYYZ;2009-05-04 17:00;CYYZ 041700Z 01008KT 15SM FEW180 OVC250 15/M02 A3013 RMK AS2CS6 SLP205

CYYZ;2009-05-04 18:00;CYYZ 041800Z 03006KT 15SM FEW140 BKN250 16/M01 A3013 RMK AC2CS5 SLP204

CYYZ;2009-05-04 19:00;CYYZ 041900Z 01010KT 15SM FEW160 BKN250 16/M02 A3012 RMK AC1CS6 SLP201

CYYZ;2009-05-04 20:00;CYYZ 042000Z 35007KT 15SM BKN250 17/M02 A3011 RMK CS5 SLP199

CYYZ;2009-05-04 21:00;CYYZ 042100Z 15009KT 15SM BKN250 16/01 A3010 RMK CI3 SLP197

CYYZ;2009-05-04 22:00;CYYZ 042200Z 16008KT 15SM BKN250 16/M00 A3011 RMK CI2 SLP198

CYYZ;2009-05-04 23:00;CYYZ 042300Z 16006KT 15SM BKN270 15/M01 A3012 RMK CI1 SLP202

CYYZ;2009-05-05 00:00;CYYZ 050000Z 15005KT 15SM BKN270 14/M02 A3013 RMK CI1 SLP206

CYYZ;2009-05-05 01:00;CYYZ 050100Z 17002KT 15SM BKN270 13/M03 A3014 RMK CI1 SLP209

CYYZ;2009-05-05 02:00;CYYZ 050200Z 07002KT 15SM FEW270 12/M02 A3015 RMK CI0 SLP213

CYYZ;2009-05-05 03:00;CYYZ 050300Z 00000KT 15SM FEW270 11/M03 A3015 RMK CI0 SLP213

CYYZ;2009-05-05 04:00;CYYZ 050400Z 36006KT 15SM FEW270 10/M02 A3015 RMK CI0 SLP213

CYYZ;2009-05-05 05:00;CYYZ 050500Z 33005KT 15SM BKN270 09/M02 A3016 RMK CI1 SLP216

CYYZ;2009-05-05 06:00;CYYZ 050600Z 34005KT 15SM FEW270 07/M02 A3016 RMK CI0 SLP217

CYYZ;2009-05-05 07:00;CYYZ 050700Z 34005KT 15SM BKN270 06/M02 A3015 RMK CI2 SLP214

CYYZ;2009-05-05 08:00;CYYZ 050800Z 34004KT 15SM BKN250 07/M02 A3015 RMK CS6 SLP213

CYYZ;2009-05-05 09:00;CYYZ 050900Z 36002KT 15SM BKN240 07/M02 A3015 RMK CS4 SLP212

CYYZ;2009-05-05 10:00;CYYZ 051000Z 34003KT 15SM BKN240 06/M02 A3014 RMK CI3 SLP210

CYYZ;2009-05-05 11:00;CYYZ 051100Z 04002KT 15SM BKN230 08/M00 A3016 RMK CI4 SLP215

CYYZ;2009-05-05 12:00;CYYZ 051200Z 02002KT 12SM FEW150 OVC220 09/02 A3016 RMK AC1CS5 SLP218

CYYZ;2009-05-05 13:00;CYYZ 051300Z 00000KT 12SM FEW160 BKN210 12/01 A3018 RMK AC1CS5 SLP222

CYYZ;2009-05-05 14:00;CYYZ 051400Z 10004KT 15SM FEW160 BKN220 14/02 A3017 RMK AC1CI5 SLP219

CYYZ;2009-05-05 15:00;CYYZ 051500Z 09006KT 15SM FEW160 BKN210 16/01 A3015 RMK AC1CI5 SLP212

CYYZ;2009-05-05 16:00;CYYZ 051600Z 15007KT 15SM FEW180 BKN220 17/02 A3014 RMK AC1CI2 SLP210

CYYZ;2009-05-05 17:00;CYYZ 051700Z 18007KT 15SM FEW180 BKN220 17/02 A3012 RMK AC1CI2 SLP201

CYYZ;2009-05-05 18:00;CYYZ 051800Z 13008KT 15SM FEW180 BKN230 17/04 A3009 RMK AC2CI2 SLP193

CYYZ;2009-05-05 19:00;CYYZ 051900Z 09011KT 15SM SCT180 BKN240 16/02 A3008 RMK AC2CI2 SLP188

CYYZ;2009-05-05 20:00;CYYZ 052000Z 09008KT 15SM FEW045 BKN098 BKN240 16/03 A3005 RMK CU1AC5CI1 CU TR SLP179

CYYZ;2009-05-05 21:00;CYYZ 052100Z 09009G15KT 15SM FEW045 BKN100 BKN240 17/03 A3004 RMK CU1AC6CI1 CU TR SLP175

CYYZ;2009-05-05 22:00;CYYZ 052200Z 10008KT 15SM BKN100 BKN240 16/02 A3004 RMK AC6CI1 SLP174

CYYZ;2009-05-05 23:00;CYYZ 052300Z 09012G17KT 15SM FEW085 BKN099 BKN170 15/05 A3002 RMK AC1AC7AS1 SLP168

CYYZ;2009-05-06 00:00;CYYZ 060000Z 09012KT 15SM BKN100 15/05 A3002 RMK AC7 SLP167

CYYZ;2009-05-06 01:00;CYYZ 060100Z 09007KT 15SM BKN100 14/04 A3001 RMK AC7 SLP165

CYYZ;2009-05-06 02:00;CYYZ 060200Z 08007KT 15SM BKN100 14/05 A3001 RMK AC7 SLP165

CYYZ;2009-05-06 03:00;CYYZ 060300Z 08010KT 15SM BKN100 13/06 A3000 RMK AC7 SLP160

CYYZ;2009-05-06 04:00;CYYZ 060400Z 07004KT 15SM BKN100 13/06 A2999 RMK AC7 SLP158

CYYZ;2009-05-06 05:00;CYYZ 060500Z 05005KT 15SM BKN100 12/06 A2999 RMK AC5 SLP157

CYYZ;2009-05-06 06:00;CYYZ 060600Z 06006KT 15SM FEW150 BKN270 11/06 A2997 RMK AC2CI3 SLP150

CYYZ;2009-05-06 07:00;CYYZ 060700Z 08004KT 15SM BKN150 11/06 A2996 RMK AC3 SLP147

CYYZ;2009-05-06 08:00;CYYZ 060800Z 04004KT 15SM FEW150 10/06 A2996 RMK AC0 SLP146

CYYZ;2009-05-06 09:00;CYYZ 060900Z 04004KT 12SM FEW150 08/06 A2996 RMK AC1 SLP149

CYYZ;2009-05-06 10:00;CYYZ 061000Z 04003KT 15SM FEW240 09/06 A2996 RMK CI1 SLP149

CYYZ;2009-05-06 11:00;CYYZ 061100Z 05004KT 12SM FEW160 FEW250 10/07 A2998 RMK AC1CI1 SLP153

CYYZ;2009-05-06 12:00;CYYZ 061200Z 07003KT 12SM FEW130 FEW240 11/07 A3000 RMK AC1CI0 SLP160

CYYZ;2009-05-06 13:00;CYYZ 061300Z 15002KT 12SM FEW130 SCT250 13/08 A3000 RMK AC1CI0 SLP162

CYYZ;2009-05-06 14:00;CYYZ 061400Z 31002KT 12SM FEW250 14/09 A2999 RMK CI0 SLP159

CYYZ;2009-05-06 15:00;CYYZ 061500Z 00000KT 12SM SCT250 16/10 A2999 RMK CI1 SLP157

CYYZ;2009-05-06 16:00;CYYZ 061600Z 16006KT 12SM BKN250 17/09 A2997 RMK CS2 SLP149

CYYZ;2009-05-06 17:00;CYYZ 061700Z 14007KT 12SM FEW046 FEW160 BKN250 16/09 A2995 RMK CU1AC2CS4 SLP144

CYYZ;2009-05-06 18:00;CYYZ 061800Z 15009KT 12SM FEW040 OVC250 16/09 A2994 RMK CU1CS6 HALO SLP140

CYYZ;2009-05-06 19:00;CYYZ 061900Z 14008KT 12SM FEW040 OVC230 16/09 A2993 RMK CU1CS7 SLP136

CYYZ;2009-05-06 20:00;CYYZ 062000Z 16008KT 12SM FEW040 FEW170 OVC220 16/09 A2992 RMK CU1AS2CS6 SLP135

CYYZ;2009-05-06 21:00;CYYZ 062100Z 14007KT 12SM FEW050 BKN190 OVC220 13/07 A2989 RMK CU1AS5CS3 SLP126

CYYZ;2009-05-06 22:00;CYYZ 062200Z 14003KT 12SM OVC160 14/08 A2987 RMK AS8 SLP119

CYYZ;2009-05-06 23:00;CYYZ 062300Z 12005KT 12SM FEW080 OVC130 15/08 A2987 RMK AC2AS6 SLP118

CYYZ;2009-05-07 00:00;CYYZ 070000Z 10008G15KT 12SM BKN064 BKN070 OVC110 14/08 A2985 RMK SC5AC2AC2 SLP111

CYYZ;2009-05-07 00:42;CYYZ 070042Z 10008KT 12SM -SHRA BKN057 OVC070 14/ RMK SC6AC2

CYYZ;2009-05-07 01:00;CYYZ 070100Z 13005KT 12SM -SHRA FEW035 BKN048 BKN053 OVC070 13/08 A2987 RMK SC2SC3SC2AC2 SLP116

CYYZ;2009-05-07 02:00;CYYZ 070200Z 09006KT 12SM -SHRA SCT045 OVC076 12/09 A2985 RMK SC4AC4 SLP109

CYYZ;2009-05-07 03:00;CYYZ 070300Z 06007KT 10SM -SHRA FEW012 BKN025 OVC070 12/10 A2983 RMK SF1SC4AC3 SLP102

CYYZ;2009-05-07 04:00;CYYZ 070400Z 36008KT 10SM -RA FEW012 BKN033 BKN045 OVC075 12/10 A2980 RMK SF1SC4SC2AC2 SLP094

CYYZ;2009-05-07 05:00;CYYZ 070500Z 02006KT 8SM -RA FEW010 SCT045 OVC075 12/10 A2978 RMK SF1SC3AC4 SLP087

CYYZ;2009-05-07 05:19;CYYZ 070519Z 05004KT 4SM -RA BR SCT007 BKN015 OVC066 12/ RMK SF3SC2AC3

CYYZ;2009-05-07 06:00;CYYZ 070600Z 06004KT 4SM -RA BR BKN007 OVC015 12/11 A2977 RMK SF6SC2 SLP083

CYYZ;2009-05-07 06:25;CYYZ 070625Z 04005KT 4SM -RA BR FEW007 OVC053 12/ RMK SF2SC6

CYYZ;2009-05-07 07:00;CYYZ 070700Z 36006KT 4SM -RA BR FEW005 SCT050 OVC070 12/11 A2974 RMK SF2SC2AC4 SLP074

CYYZ;2009-05-07 08:00;CYYZ 070800Z 35007KT 4SM -RA BR FEW005 BKN045 OVC070 12/11 A2974 RMK SF2SC4AC2 SLP073

CYYZ;2009-05-07 09:00;CYYZ 070900Z 34010KT 6SM -RA BR FEW009 SCT045 OVC080 12/10 A2974 RMK SF2SC2AC4 PCPN VRY LGT SLP072

CYYZ;2009-05-07 09:15;CYYZ 070915Z 33009KT 8SM BKN010 BKN044 OVC053 12/ RMK SF5SC2SC2 BR

CYYZ;2009-05-07 10:00;CYYZ 071000Z 34009KT 5SM BR FEW005 OVC010 12/11 A2975 RMK SF2SC6 SLP075

CYYZ;2009-05-07 10:27;CYYZ 071027Z 31009KT 5SM -RA BR BKN009 OVC018 12/ RMK SF5SC3

CYYZ;2009-05-07 10:44;CYYZ 071044Z 33009KT 5SM BR BKN007 OVC018 12/ RMK SF5SC3

CYYZ;2009-05-07 11:00;CYYZ 071100Z 32010KT 5SM -RA BR BKN007 OVC018 12/11 A2977 RMK SF5SC3 SLP082

CYYZ;2009-05-07 11:32;CYYZ 071132Z 32012KT 5SM -RA BR FEW009 BKN012 OVC032 12/ RMK SF2SC3SC2

CYYZ;2009-05-07 11:50;CYYZ 071150Z 33007KT 5SM BR SCT035 BKN058 OVC071 12/ RMK SC3SC2AC3

CYYZ;2009-05-07 12:00;CYYZ 071200Z 33007KT 10SM FEW045 BKN064 OVC074 12/10 A2977 RMK SC2SC3AC2 SLP084

CYYZ;2009-05-07 13:00;CYYZ 071300Z 34007KT 10SM BKN064 BKN070 13/10 A2979 RMK SC5AC2 SLP088

CYYZ;2009-05-07 14:00;CYYZ 071400Z 32005KT 15SM FEW035 BKN067 14/10 A2979 RMK CU1AC6 SLP088

CYYZ;2009-05-07 15:00;CYYZ 071500Z 27002KT 15SM FEW030 SCT068 16/11 A2977 RMK CU2AC2 SLP084

CYYZ;2009-05-07 16:00;CYYZ 071600Z 18004KT 15SM FEW038 SCT072 18/11 A2977 RMK CU2AC2 SLP082

CYYZ;2009-05-07 17:00;CYYZ 071700Z 15010KT 15SM FEW039 SCT180 BKN240 18/12 A2975 RMK CU2AC2CI1 SLP077

CYYZ;2009-05-07 18:00;CYYZ 071800Z 16009KT 12SM FEW045 SCT052 BKN220 19/11 A2975 RMK CU2SC2CI2 SLP076

CYYZ;2009-05-07 19:00;CYYZ 071900Z 16012KT 12SM FEW051 SCT061 BKN160 BKN230 18/11 A2975 RMK CU2SC2AC2CI1 SLP075

CYYZ;2009-05-07 20:00;CYYZ 072000Z 16010KT 10SM FEW042 BKN063 OVC140 18/12 A2974 RMK CU2SC3AC2 SLP072

CYYZ;2009-05-07 20:35;CYYZ 072035Z 23021KT 10SM -SHRA BKN042 OVC086 19/ RMK SC5AC3

CYYZ;2009-05-07 21:00;CYYZ 072100Z CCA 24018G27KT 12SM -SHRA FEW045 BKN063 OVC085 18/08 A2975 RMK SC2SC4AC2 SLP075

CYYZ;2009-05-07 21:22;CYYZ 072122Z 23018G26KT 12SM SCT052 OVC087 18/ RMK SC4AC4

CYYZ;2009-05-07 22:00;CYYZ 072200Z 22015KT 15SM BKN094 OVC240 17/09 A2973 RMK AC6CI2 SLP067

CYYZ;2009-05-07 23:00;CYYZ 072300Z 24013G21KT 15SM FEW070 BKN095 OVC240 17/09 A2974 RMK AC2AC3CI2 SLP073

CYYZ;2009-05-08 00:00;CYYZ 080000Z 23010G17KT 15SM SCT190 BKN210 17/09 A2974 RMK AC3CI2 CONTRAIL SLP074

CYYZ;2009-05-08 01:00;CYYZ 080100Z 22009KT 15SM FEW080 SCT090 BKN210 16/09 A2974 RMK AC2AC2CI1 SLP074

CYYZ;2009-05-08 02:00;CYYZ 080200Z 20005KT 15SM FEW080 BKN210 15/09 A2975 RMK AC2CI1 SLP076

CYYZ;2009-05-08 03:00;CYYZ 080300Z 20005KT 15SM FEW080 SCT210 14/10 A2975 RMK AC1CI1 SLP075

CYYZ;2009-05-08 04:00;CYYZ 080400Z 23005KT 15SM FEW080 SCT210 13/10 A2976 RMK AC2CI1 SLP078

CYYZ;2009-05-08 05:00;CYYZ 080500Z 21004KT 15SM BKN110 13/10 A2975 RMK AC5 SLP074

CYYZ;2009-05-08 06:00;CYYZ 080600Z 19003KT 15SM FEW090 BKN100 BKN230 13/10 A2975 RMK AC2AC3CI2 SLP075

CYYZ;2009-05-08 07:00;CYYZ 080700Z 15003KT 15SM FEW025 SCT110 BKN120 BKN220 12/10 A2974 RMK SC2AC2AC2CI2 SLP070

CYYZ;2009-05-08 08:00;CYYZ 080800Z 06003KT 15SM FEW017 SCT110 OVC120 12/10 A2974 RMK SC2AC2AC4 SLP070

CYYZ;2009-05-08 09:00;CYYZ 080900Z 21004KT 15SM FEW025 BKN035 BKN110 13/10 A2973 RMK SC2SC2AC2 SLP067

CYYZ;2009-05-08 10:00;CYYZ 081000Z CCB 18004KT 4SM BR FEW030 FEW035 BKN090 13/11 A2972 RMK CU1SC2AC3 SLP066

CYYZ;2009-05-08 11:00;CYYZ 081100Z 24006KT 4SM HZ FEW025 SCT150 SCT240 14/12 A2974 RMK CU2AC2CI1 SLP071

CYYZ;2009-05-08 12:00;CYYZ 081200Z 26008KT 5SM HZ FEW180 SCT260 16/13 A2973 RMK AC2CI2 SLP069

CYYZ;2009-05-08 13:00;CYYZ 081300Z 15008KT 6SM HZ FEW160 SCT260 16/12 A2972 RMK AC2CI1 SLP066

CYYZ;2009-05-08 14:00;CYYZ 081400Z 14007KT 6SM HZ FEW260 17/13 A2971 RMK CI1 SLP060

CYYZ;2009-05-08 15:00;CYYZ 081500Z 16007KT 7SM FEW260 18/13 A2970 RMK CI1 HZ SLP058

CYYZ;2009-05-08 16:00;CYYZ 081600Z 18008G15KT 9SM FEW045 SCT220 20/14 A2972 RMK CU2CI2 SLP064

CYYZ;2009-05-08 17:00;CYYZ 081700Z 16010G16KT 12SM FEW057 SCT110 BKN220 23/14 A2970 RMK CU2AC2CI0 SLP058

CYYZ;2009-05-08 18:00;CYYZ 081800Z 24015G21KT 15SM FEW058 SCT064TCU BKN220 24/11 A2970 RMK CU2TCU2CI2 SLP057

CYYZ;2009-05-08 19:00;CYYZ 081900Z 24017G22KT 15SM SCT064 BKN084 BKN230 24/11 A2968 RMK CU3AC2CI1 TCU ASOCTD SLP050

CYYZ;2009-05-08 20:00;CYYZ 082000Z 24011G20KT 15SM -SHRA SCT064TCU BKN085 BKN240 23/10 A2966 RMK TCU3AC2CI1 SLP044

CYYZ;2009-05-08 20:19;CYYZ 082019Z 22015G20KT 15SM SCT064TCU BKN100 BKN230 23/ RMK TCU3AC2CI1

CYYZ;2009-05-08 21:00;CYYZ 082100Z 23018G24KT 15SM FEW062 BKN110 BKN240 22/10 A2965 RMK CU2AC2CI2 TCU ASOCTD SLP040

CYYZ;2009-05-08 22:00;CYYZ 082200Z 24015G22KT 15SM FEW062 BKN092 BKN240 22/11 A2965 RMK CU2AC3CI1 TCU ASOCTD SLP041

CYYZ;2009-05-08 23:00;CYYZ 082300Z 23017KT 15SM FEW060TCU FEW110 BKN270 21/11 A2965 RMK TCU1AC2CI1 SLP042

CYYZ;2009-05-09 00:00;CYYZ 090000Z 22009KT 15SM FEW055TCU BKN075 BKN200 BKN270 21/12 A2967 RMK TCU1AC5CC1CI2 TCU N CB ASOCTD NE SLP047

CYYZ;2009-05-09 01:00;CYYZ 090100Z 23011KT 15SM FEW055 SCT080 BKN170 20/11 A2968 RMK SC2AC2AS3 TCU SHWRS W SLP051

CYYZ;2009-05-09 02:00;CYYZ 090200Z 22007KT 15SM FEW090 SCT130 OVC170 19/11 A2968 RMK AC1AC3AS5 SLP052

CYYZ;2009-05-09 03:00;CYYZ 090300Z 23013G18KT 15SM FEW090 SCT140 OVC170 19/11 A2967 RMK AC1AS3AS5 SLP049

CYYZ;2009-05-09 04:00;CYYZ 090400Z 25004KT 15SM FEW100 OVC160 17/11 A2965 RMK AC1AS6 SLP042

CYYZ;2009-05-09 05:00;CYYZ 090500Z 01003KT 15SM FEW080 BKN180 15/10 A2967 RMK AC2AC3 SLP047

CYYZ;2009-05-09 06:00;CYYZ 090600Z 10003KT 15SM FEW070 12/08 A2966 RMK AC1 SLP044

CYYZ;2009-05-09 07:00;CYYZ 090700Z 07002KT 15SM SCT160 12/09 A2964 RMK AC3 SLP037

CYYZ;2009-05-09 08:00;CYYZ 090800Z 17003KT 12SM BKN160 12/09 A2963 RMK AC6 SLP035

CYYZ;2009-05-09 09:00;CYYZ 090900Z 00000KT 15SM FEW140 BKN160 12/09 A2962 RMK AC1AC4 SLP030

CYYZ;2009-05-09 10:00;CYYZ 091000Z 00000KT 12SM FEW035 BKN170 12/09 A2961 RMK SC2AC4 SLP027

CYYZ;2009-05-09 11:00;CYYZ 091100Z 00000KT 7SM FEW012 BKN110 13/09 A2960 RMK SC2AC4 VIS SE 12 SLP024

CYYZ;2009-05-09 12:00;CYYZ 091200Z 12004KT 5SM HZ FEW012 SCT038 BKN120 13/10 A2956 RMK SC2SC2AC3 SLP011

CYYZ;2009-05-09 12:42;CYYZ 091242Z 11009KT 5SM TS HZ SCT012 BKN055CB OVC130 13/ RMK SC3CB2AC2 LTGCC W

CYYZ;2009-05-09 12:53;CYYZ 091253Z 31018G24KT 4SM -TSRA HZ SCT008 BKN026CB OVC120 13/ RMK SC3CB3AC2 TS OVRHD

CYYZ;2009-05-09 13:00;CYYZ 091300Z CCA 32020G42KT 4SM TSRAGR BKN006 OVC026CB 14/11 A2954 RMK SC5CB3 TS OVRHD MOVG E HAIL DIAM 4 MM SLP004

CYYZ;2009-05-09 13:19;CYYZ 091319Z 24011G17KT 12SM BKN012 OVC027 14/ RETSRA RMK SC6SC2

CYYZ;2009-05-09 14:00;CYYZ 091400Z 16005KT 7SM BKN011 OVC022 14/12 A2952 RETSRA RMK SC6SC2 BR SLP997

CYYZ;2009-05-09 14:49;CYYZ 091449Z 15003KT 5SM BR SCT012 OVC033 15/ RMK SC3SC5

CYYZ;2009-05-09 15:00;CYYZ 091500Z 13005KT 5SM BR FEW012 BKN033 OVC073 15/13 A2949 RMK SC2SC3AC3 SLP987

CYYZ;2009-05-09 15:31;CYYZ 091531Z 14005KT 4SM -TSRA BR BKN016 OVC022CB 14/ RMK SC5CB3 CB OVRHD MOVG E

CYYZ;2009-05-09 15:49;CYYZ 091549Z 10009KT 1 1/2SM +TSRA BR BKN016 OVC030 14/ RMK SC6SC2 CB EMBD

CYYZ;2009-05-09 16:00;CYYZ 091600Z 16009KT 2SM +SHRA BR BKN010 OVC036 14/12 A2946 RETS RMK SC5SC3 SLP977

CYYZ;2009-05-09 16:14;CYYZ 091614Z 15006KT 2 1/4SM -SHRA BR SCT003 OVC014 14/ RERA RMK SF3SC5

CYYZ;2009-05-09 16:28;CYYZ 091628Z 29009KT 3SM -SHRA BR BKN003 OVC012 14/ RERA RMK SF6SC2

CYYZ;2009-05-09 16:43;CYYZ 091643Z 15004KT 3SM -SHRA BR FEW004 OVC015 14/ RERA RMK SF2SC6

CYYZ;2009-05-09 17:00;CYYZ 091700Z 12003KT 4SM BR BKN028 BKN052 14/13 A2946 RERA RMK SC5SC2 SLP975

CYYZ;2009-05-09 17:04;CYYZ 091704Z 00000KT 3SM -TSRA BR BKN026 OVC042CB 14/ RMK SC6CB2 CB W

CYYZ;2009-05-09 17:08;CYYZ 091708Z CCA 00000KT 2 1/2SM TSRAGR BR BKN012 OVC030CB 14/ RMK SC5CB3 LTGIC W HAIL DIAM 2 MM

CYYZ;2009-05-09 17:26;CYYZ 091726Z 20002KT 3SM -TSRA BR SCT012 OVC028 14/ RERA RMK SC4SC4 CB EMBD E

CYYZ;2009-05-09 17:44;CYYZ 091744Z 18006KT 4SM -SHRA BR BKN023 OVC068 15/ RETSRA RMK SC6AC2

CYYZ;2009-05-09 18:00;CYYZ 091800Z CCA 22009KT 8SM -RA BKN026 BKN089 15/14 A2945 RETSRA RMK SC5AC2 /R11/ SLP975

CYYZ;2009-05-09 18:19;CYYZ 091819Z 23014G19KT 15SM FEW036 SCT052TCU SCT090 17/ RMK SC2TCU2AC1

CYYZ;2009-05-09 19:00;CYYZ 091900Z 26027G35KT 15SM SCT042 BKN063 BKN082 19/11 A2944 RMK CU3SC2AC1 SLP971

CYYZ;2009-05-09 20:00;CYYZ 092000Z 27024G30KT 15SM BKN038 BKN078 17/10 A2945 RMK CU5AC1 TCU ASOCTED N SLP974

CYYZ;2009-05-09 20:19;CYYZ 092019Z 27024G30KT 15SM -SHRA BKN042 BKN081 15/ RMK SC6AC2 CU ASOCTED

CYYZ;2009-05-09 20:44;CYYZ 092044Z 32023G31KT 15SM BKN016 BKN080 14/ RMK SC7AC1

CYYZ;2009-05-09 21:00;CYYZ 092100Z 32027G34KT 15SM SCT016 BKN033 BKN080 13/08 A2954 RMK SC3SC4AC1 PRESRR SLP005

CYYZ;2009-05-09 22:00;CYYZ 092200Z 32024G31KT 15SM SCT021 SCT062 BKN076 14/09 A2962 RMK SC3SC1AC2 PRESRR SLP033

CYYZ;2009-05-09 23:00;CYYZ 092300Z 30030G35KT 15SM BKN020 11/06 A2970 RMK SC7 PRESRR SLP058

CYYZ;2009-05-10 00:00;CYYZ 100000Z 31021G29KT 15SM FEW018 OVC026 09/04 A2976 RMK SC2SC6 SLP081

CYYZ;2009-05-10 01:00;CYYZ 100100Z 31019G25KT 15SM FEW030 BKN100 09/04 A2978 RMK SC1AC6 SLP088

CYYZ;2009-05-10 02:00;CYYZ 100200Z 30016G21KT 15SM FEW100 FEW170 FEW240 09/03 A2982 RMK AC1AC1CI1 SLP099

CYYZ;2009-05-10 03:00;CYYZ 100300Z 28011KT 15SM FEW050 BKN200 08/03 A2983 RMK SC2CI2 SLP105

CYYZ;2009-05-10 04:00;CYYZ 100400Z 27015KT 15SM FEW045 BKN180 08/03 A2985 RMK SC1AC5 SLP109

CYYZ;2009-05-10 05:00;CYYZ 100500Z 27011KT 15SM FEW047 FEW140 BKN170 08/03 A2986 RMK SC1AC1AC5 SLP113

CYYZ;2009-05-10 06:00;CYYZ 100600Z 29014KT 15SM BKN110 08/03 A2987 RMK AC6 SLP116

CYYZ;2009-05-10 07:00;CYYZ 100700Z 29011KT 15SM FEW048 BKN120 07/02 A2988 RMK SC2AC5 SLP120

CYYZ;2009-05-10 08:00;CYYZ 100800Z 30013KT 15SM FEW050 FEW160 06/02 A2989 RMK SC1AC2 SLP122

CYYZ;2009-05-10 09:00;CYYZ 100900Z 30011G18KT 15SM FEW040 FEW160 06/01 A2990 RMK SC1AC1 SLP128

CYYZ;2009-05-10 10:00;CYYZ 101000Z 30009KT 15SM BKN018 BKN075 06/02 A2991 RMK SC6AC1 SLP133

CYYZ;2009-05-10 11:00;CYYZ 101100Z 29015KT 15SM SCT020 BKN035 05/01 A2994 RMK SC4SC3 SLP141

CYYZ;2009-05-10 12:00;CYYZ 101200Z 29016KT 15SM SCT021 BKN037 06/01 A2995 RMK SC4SC3 SLP148

CYYZ;2009-05-10 13:00;CYYZ 101300Z 32017KT 15SM BKN020 06/02 A2998 RMK SC7 SLP156

CYYZ;2009-05-10 14:00;CYYZ 101400Z 31014KT 15SM FEW019 BKN059 07/02 A2998 RMK CF2SC5 SLP157

CYYZ;2009-05-10 15:00;CYYZ 101500Z 27015KT 15SM FEW020 BKN031 09/02 A2999 RMK CU2SC6 SLP159

CYYZ;2009-05-10 16:00;CYYZ 101600Z 29020KT 15SM FEW025 BKN035 10/02 A3000 RMK CU2SC5 SLP162

CYYZ;2009-05-10 17:00;CYYZ 101700Z 30015G20KT 15SM FEW029 BKN036 11/02 A3000 RMK CU2SC5 SLP164

CYYZ;2009-05-10 18:00;CYYZ 101800Z 31017G25KT 15SM SCT041 BKN066 BKN220 12/02 A3000 RMK CU3AC2CI1 SLP163

CYYZ;2009-05-10 19:00;CYYZ 101900Z 31015G22KT 15SM FEW045 SCT070 BKN240 12/01 A3000 RMK CU2AC2CI0 SLP162

CYYZ;2009-05-10 20:00;CYYZ 102000Z 28020KT 15SM FEW049 BKN077 BKN220 12/01 A3001 RMK CU2AC2CI0 SLP167

CYYZ;2009-05-10 21:00;CYYZ 102100Z 27018G24KT 15SM FEW045 SCT052 BKN080 BKN240 11/01 A3003 RMK CU2SC2AC2CI0 SLP172

CYYZ;2009-05-10 22:00;CYYZ 102200Z 28020G25KT 15SM SCT044 SCT080 10/01 A3005 RMK SC3AC1 SLP179

CYYZ;2009-05-10 23:00;CYYZ 102300Z 28015KT 15SM SCT045 SCT080 10/01 A3006 RMK SC3AC1 SLP184

CYYZ;2009-05-11 00:00;CYYZ 110000Z CCA 30016KT 15SM FEW050 SCT090 SCT250 09/M02 A3007 RMK SC2AC2CC1 SLP189

CYYZ;2009-05-11 01:00;CYYZ 110100Z 29012G17KT 15SM FEW050 FEW090 FEW240 08/M03 A3009 RMK SC1AC1CI0 SLP194

CYYZ;2009-05-11 02:00;CYYZ 110200Z 29009KT 15SM FEW070 07/M06 A3010 RMK AC1 SLP199

CYYZ;2009-05-11 03:00;CYYZ 110300Z 30009KT 15SM SKC 06/M05 A3011 RMK SLP202

CYYZ;2009-05-11 04:00;CYYZ 110400Z 31009KT 15SM SKC 05/M04 A3011 RMK SLP201

CYYZ;2009-05-11 05:00;CYYZ 110500Z 31006KT 15SM SKC 04/M04 A3011 RMK SLP202

CYYZ;2009-05-11 06:00;CYYZ 110600Z 31004KT 15SM SKC 04/M05 A3011 RMK SLP200

CYYZ;2009-05-11 07:00;CYYZ 110700Z 31005KT 15SM SKC 03/M05 A3011 RMK SLP200

CYYZ;2009-05-11 08:00;CYYZ 110800Z 31004KT 15SM SKC 03/M05 A3012 RMK SLP203

CYYZ;2009-05-11 09:00;CYYZ 110900Z 33003KT 15SM SKC 03/M05 A3012 RMK SLP204

CYYZ;2009-05-11 10:00;CYYZ 111000Z 31003KT 15SM SKC 04/M06 A3013 RMK SLP208

CYYZ;2009-05-11 11:00;CYYZ 111100Z 24003KT 15SM FEW110 03/M04 A3014 RMK AC1 SLP212

CYYZ;2009-05-11 12:00;CYYZ 111200Z 25002KT 15SM FEW110 05/M03 A3016 RMK AC1 SLP216

CYYZ;2009-05-11 13:00;CYYZ 111300Z 27002KT 15SM FEW110 08/M03 A3015 RMK AC1 SLP213

CYYZ;2009-05-11 14:00;CYYZ 111400Z 00000KT 15SM FEW110 FEW260 10/M04 A3013 RMK AC1CI0 SLP208

CYYZ;2009-05-11 15:00;CYYZ 111500Z 35004KT 15SM FEW045 FEW140 FEW260 11/M03 A3013 RMK CU1AC1CI0 CU TR SLP208

CYYZ;2009-05-11 16:00;CYYZ 111600Z 21002KT 15SM FEW045 FEW140 FEW240 13/M01 A3012 RMK CU1AC1CI0 SLP204

CYYZ;2009-05-11 17:00;CYYZ 111700Z 30002KT 15SM FEW045 FEW140 SCT240 13/M00 A3011 RMK CU2AC1CI0 SLP200

CYYZ;2009-05-11 18:00;CYYZ 111800Z 17010KT 15SM FEW062 BKN075 BKN240 13/M00 A3009 RMK CU1AC4CI1 CU TR SLP194

CYYZ;2009-05-11 19:00;CYYZ 111900Z 21010KT 15SM FEW062 BKN075 BKN240 13/M01 A3009 RMK CU2AC4CI1 SLP194

CYYZ;2009-05-11 20:00;CYYZ 112000Z 18006KT 15SM FEW062 BKN071 13/M00 A3009 RMK CU1AC6 SLP192

CYYZ;2009-05-11 21:00;CYYZ 112100Z 00000KT 15SM FEW060 BKN072 13/M00 A3008 RMK SC2AC6 SLP191

CYYZ;2009-05-11 22:00;CYYZ 112200Z 34015G20KT 15SM FEW073 BKN084 13/00 A3008 RMK AC2AC6 SLP191

CYYZ;2009-05-11 23:00;CYYZ 112300Z 32011G16KT 15SM FEW030 SCT070 BKN085 12/M00 A3009 RMK CU1AC2AC4 SLP195

CYYZ;2009-05-12 00:00;CYYZ 120000Z 34007KT 15SM FEW030 FEW068 BKN075 BKN090 BKN240 11/00 A3010 RMK CU1AC2AC2AC2CI0 SLP197

CYYZ;2009-05-12 01:00;CYYZ 120100Z 32004KT 15SM SCT070 BKN090 BKN240 11/01 A3011 RMK AC3AC2CI0 SLP200

CYYZ;2009-05-12 02:00;CYYZ 120200Z 35006KT 15SM FEW065 SCT075 10/00 A3012 RMK SC2AC2 SLP205

CYYZ;2009-05-12 03:00;CYYZ 120300Z 35010KT 15SM FEW055 FEW070 09/M02 A3013 RMK SC2AC1 SLP205

CYYZ;2009-05-12 04:00;CYYZ 120400Z 36009KT 15SM FEW055 08/M02 A3013 RMK SC2 SLP207

CYYZ;2009-05-12 05:00;CYYZ 120500Z 34010KT 15SM SKC 07/M03 A3014 RMK SLP210

CYYZ;2009-05-12 06:00;CYYZ 120600Z 33006KT 15SM SKC 06/M03 A3014 RMK SLP211

CYYZ;2009-05-12 07:00;CYYZ 120700Z 34009KT 15SM SKC 05/M02 A3015 RMK SLP213

CYYZ;2009-05-12 08:00;CYYZ 120800Z 34008KT 15SM SKC 05/M05 A3016 RMK SLP215

CYYZ;2009-05-12 09:00;CYYZ 120900Z 32007KT 15SM SKC 04/M05 A3016 RMK SLP218

CYYZ;2009-05-12 10:00;CYYZ 121000Z 31008KT 15SM SKC 04/M05 A3017 RMK SLP222

CYYZ;2009-05-12 11:00;CYYZ 121100Z 32010KT 15SM SKC 06/M05 A3020 RMK SLP232

CYYZ;2009-05-12 12:00;CYYZ 121200Z 35006KT 15SM SKC 07/M05 A3023 RMK SLP240

CYYZ;2009-05-12 13:00;CYYZ 121300Z 36007KT 15SM SKC 10/M01 A3024 RMK SLP244

CYYZ;2009-05-12 14:00;CYYZ 121400Z 02005KT 15SM SKC 12/00 A3025 RMK SLP247

CYYZ;2009-05-12 15:00;CYYZ 121500Z 31002KT 15SM SKC 14/M00 A3026 RMK SLP249

CYYZ;2009-05-12 16:00;CYYZ 121600Z 11002KT 15SM FEW040 15/M01 A3026 RMK CF1 SLP250

CYYZ;2009-05-12 17:00;CYYZ 121700Z 14012KT 15SM FEW040 15/01 A3025 RMK CF1 SLP247

CYYZ;2009-05-12 18:00;CYYZ 121800Z 16009KT 15SM FEW060 15/01 A3024 RMK CU1 SLP245

CYYZ;2009-05-12 19:00;CYYZ 121900Z 16010KT 15SM FEW060 FEW120 16/00 A3024 RMK CU1AC1 SLP244

CYYZ;2009-05-12 20:00;CYYZ 122000Z 17012KT 15SM FEW064 16/01 A3023 RMK CU1 SLP240

CYYZ;2009-05-12 21:00;CYYZ 122100Z 16009KT 15SM FEW062 16/M00 A3022 RMK CU1 SLP239

CYYZ;2009-05-12 22:00;CYYZ 122200Z 15009KT 15SM FEW060 FEW090 16/M02 A3022 RMK CU1AC1 SLP238

CYYZ;2009-05-12 23:00;CYYZ 122300Z 16009KT 15SM FEW060 FEW090 15/M03 A3021 RMK CU1AC1 SLP235

CYYZ;2009-05-13 00:00;CYYZ 130000Z 16006KT 15SM FEW230 14/M03 A3020 RMK CI0 SLP231

CYYZ;2009-05-13 01:00;CYYZ 130100Z 17005KT 15SM FEW230 12/M03 A3021 RMK CI0 SLP233

CYYZ;2009-05-13 02:00;CYYZ 130200Z 17003KT 15SM SKC 12/M02 A3022 RMK SLP237

CYYZ;2009-05-13 03:00;CYYZ 130300Z 23006KT 15SM SKC 11/M01 A3025 RMK SLP245

CYYZ;2009-05-13 04:00;CYYZ 130400Z 23006KT 15SM SKC 10/M02 A3026 RMK SLP250

CYYZ;2009-05-13 05:00;CYYZ 130500Z 28002KT 15SM SKC 10/M02 A3027 RMK SLP252

CYYZ;2009-05-13 06:00;CYYZ 130600Z 00000KT 15SM SKC 08/M02 A3026 RMK SLP250

CYYZ;2009-05-13 07:00;CYYZ 130700Z 08002KT 15SM SKC 08/M01 A3025 RMK SLP247

CYYZ;2009-05-13 08:00;CYYZ 130800Z 13002KT 15SM SKC 09/M01 A3024 RMK SLP244

CYYZ;2009-05-13 09:00;CYYZ 130900Z 15003KT 15SM FEW070 FEW230 07/01 A3025 RMK AC1CI1 SLP248

CYYZ;2009-05-13 10:00;CYYZ 131000Z 10003KT 15SM FEW120 FEW230 06/01 A3026 RMK AC1CI1 AC TR SLP250

CYYZ;2009-05-13 11:00;CYYZ 131100Z 09002KT 15SM BKN280 08/01 A3027 RMK CI2 SLP253

CYYZ;2009-05-13 12:00;CYYZ 131200Z 12004KT 15SM FEW140 BKN280 10/02 A3028 RMK AC1CI2 SLP256

CYYZ;2009-05-13 13:00;CYYZ 131300Z 13005KT 15SM FEW160 BKN260 12/01 A3026 RMK AC1CI3 SLP251

CYYZ;2009-05-13 14:00;CYYZ 131400Z 14006KT 15SM BKN250 13/02 A3024 RMK CI2 SLP244

CYYZ;2009-05-13 15:00;CYYZ 131500Z 15007KT 15SM FEW250 14/03 A3023 RMK CI1 SLP239

CYYZ;2009-05-13 16:00;CYYZ 131600Z 14010KT 15SM FEW260 16/05 A3021 RMK CI0 SLP232

CYYZ;2009-05-13 17:00;CYYZ 131700Z 13012KT 15SM FEW170 SCT260 18/04 A3018 RMK AC1CI0 CC ASOCTD SLP222

CYYZ;2009-05-13 18:00;CYYZ 131800Z 14011G16KT 15SM SCT150 BKN260 18/04 A3016 RMK AC2CI0 SLP214

CYYZ;2009-05-13 19:00;CYYZ 131900Z 14010G17KT 15SM SCT160 BKN260 19/04 A3013 RMK AC2CI0 CC ASOCTD SLP205

CYYZ;2009-05-13 20:00;CYYZ 132000Z 13008KT 15SM BKN160 BKN260 20/06 A3010 RMK AC3CI0 SLP195

CYYZ;2009-05-13 21:00;CYYZ 132100Z 14008KT 15SM BKN140 BKN260 20/05 A3007 RMK AC3CI0 SLP185

CYYZ;2009-05-13 22:00;CYYZ 132200Z 12008KT 15SM BKN120 19/05 A3005 RMK AC7 SLP177

CYYZ;2009-05-13 23:00;CYYZ 132300Z 15007KT 15SM SCT075 OVC095 18/05 A3003 RMK AC3AS5 SLP172

CYYZ;2009-05-13 23:16;CYYZ 132316Z 14005KT 15SM -RA FEW060 OVC075 17/ RMK SC2AS6

CYYZ;2009-05-14 00:00;CYYZ 140000Z 16004KT 15SM -RA BKN065 OVC078 15/07 A3003 RMK SC6AS2 SLP172

CYYZ;2009-05-14 01:00;CYYZ 140100Z 14004KT 15SM FEW070 OVC085 14/07 A3001 RMK AC2AS6 SLP164

CYYZ;2009-05-14 02:00;CYYZ 140200Z 15005KT 15SM OVC070 15/07 A2997 RMK AS8 SLP151

CYYZ;2009-05-14 03:00;CYYZ 140300Z 16009KT 15SM BKN072 OVC120 14/06 A2997 RMK AC6AC2 SLP151

CYYZ;2009-05-14 04:00;CYYZ 140400Z 17008KT 15SM FEW045 OVC062 15/07 A2995 RMK SC1SC7 SLP145

CYYZ;2009-05-14 05:00;CYYZ 140500Z 19015G21KT 15SM OVC042 17/09 A2994 RMK SC8 SLP140

CYYZ;2009-05-14 06:00;CYYZ 140600Z 17011G18KT 15SM OVC040 16/09 A2989 RMK SC8 SLP124

CYYZ;2009-05-14 07:00;CYYZ 140700Z 15010KT 15SM OVC042 15/08 A2986 RMK SC8 SLP113

CYYZ;2009-05-14 07:18;CYYZ 140718Z 16006KT 15SM -RA OVC040 13/ RMK SC8

CYYZ;2009-05-14 08:00;CYYZ 140800Z 15009KT 15SM -RA OVC038 13/09 A2984 RERA RMK SC8 SLP105

CYYZ;2009-05-14 08:37;CYYZ 140837Z 17008KT 15SM OVC039 13/ RMK SC8

CYYZ;2009-05-14 09:00;CYYZ 140900Z 16008KT 15SM SCT040 OVC096 13/10 A2978 RMK SC3AS5 PRESFR SLP084

CYYZ;2009-05-14 10:00;CYYZ 141000Z 17008KT 15SM FEW035 OVC043 14/09 A2977 RMK SC1SC7 SLP080

CYYZ;2009-05-14 10:47;CYYZ 141047Z 18011G19KT 8SM -SHRA OVC037 16/ RMK SC8 TCU EMBD

CYYZ;2009-05-14 11:00;CYYZ 141100Z 18013G21KT 8SM -SHRA OVC036 15/10 A2974 RMK SC8 TCU EMBD W-NNW SLP072

CYYZ;2009-05-14 11:45;CYYZ 141145Z 18014G22KT 15SM OVC036 15/ RMK SC8

CYYZ;2009-05-14 12:00;CYYZ 141200Z 19014KT 15SM OVC034 15/11 A2972 RMK SC8 SLP065

CYYZ;2009-05-14 12:10;CYYZ 141210Z 19014G24KT 12SM -SHRA OVC034 15/ RMK SC8 TCU EMBD

CYYZ;2009-05-14 13:00;CYYZ 141300Z 20023G35KT 10SM -SHRA BKN026 OVC120 16/12 A2967 RMK SC5AC3 SLP050

CYYZ;2009-05-14 13:26;CYYZ 141326Z 22028G37KT 15SM SCT018 OVC024 16/ RMK SC3SC5

CYYZ;2009-05-14 13:38;CYYZ 141338Z 21023G30KT 10SM -SHRA OVC022 16/ RMK SC8

CYYZ;2009-05-14 14:00;CYYZ 141400Z 21023G33KT 15SM OVC019 16/13 A2969 RMK SC8 SLP054

CYYZ;2009-05-14 14:12;CYYZ 141412Z 21019G24KT 12SM -SHRA OVC019 17/ RMK SC8

CYYZ;2009-05-14 15:00;CYYZ 141500Z 23023G30KT 10SM -SHRA SCT012 OVC021 16/13 A2970 RMK SC3SC5 SLP059

CYYZ;2009-05-14 15:34;CYYZ 141534Z 23021G33KT 15SM BKN016 BKN032TCU 19/ RMK SC5TCU2 TCU W-N

CYYZ;2009-05-14 16:00;CYYZ 141600Z 26035G44KT 15SM SCT032 SCT060 20/15 A2974 RMK SC3SC1 TCU ASOCTD SLP071

CYYZ;2009-05-14 17:00;CYYZ 141700Z 26029G39KT 15SM FEW030 FEW120 SCT250 21/07 A2979 RMK CU1AC1CI1 CU TR SLP088

CYYZ;2009-05-14 18:00;CYYZ 141800Z 27030G38KT 15SM FEW040 FEW120 BKN250 21/06 A2984 RMK CU1AC1CI1 CU TR SLP104

CYYZ;2009-05-14 19:00;CYYZ 141900Z 26028G37KT 15SM FEW046TCU BKN250 21/05 A2987 RMK TCU1CI2 SLP114

CYYZ;2009-05-14 20:00;CYYZ 142000Z 26028G38KT 15SM FEW045 FEW120 FEW250 21/05 A2989 RMK CU1AC1CI0 SLP123

CYYZ;2009-05-14 21:00;CYYZ 142100Z 26029G37KT 15SM FEW040 FEW250 21/05 A2992 RMK CU1CI1 SLP132

CYYZ;2009-05-14 22:00;CYYZ 142200Z 27024G33KT 15SM FEW040 FEW260 21/05 A2996 RMK CF1CI1 SLP146

CYYZ;2009-05-14 23:00;CYYZ 142300Z 27017G28KT 15SM FEW040 20/04 A2998 RMK CU1 SLP154

CYYZ;2009-05-15 00:00;CYYZ 150000Z 29016G21KT 15SM FEW040 19/05 A3003 RMK CF1 SLP170

CYYZ;2009-05-15 01:00;CYYZ 150100Z 33013KT 15SM SKC 17/07 A3007 RMK SLP185

CYYZ;2009-05-15 02:00;CYYZ 150200Z 31011KT 15SM SKC 15/06 A3012 RMK SLP199

CYYZ;2009-05-15 03:00;CYYZ 150300Z 35011KT 15SM SKC 14/06 A3013 RMK SLP206

CYYZ;2009-05-15 04:00;CYYZ 150400Z 36006KT 15SM FEW240 11/05 A3016 RMK CI1 SLP216

CYYZ;2009-05-15 05:00;CYYZ 150500Z 35010KT 15SM SKC 10/05 A3019 RMK SLP223

CYYZ;2009-05-15 06:00;CYYZ 150600Z 34007KT 15SM FEW030 09/05 A3020 RMK SF1 SLP229

CYYZ;2009-05-15 07:00;CYYZ 150700Z 34007KT 15SM SKC 08/04 A3020 RMK SLP229

CYYZ;2009-05-15 08:00;CYYZ 150800Z 17003KT 15SM SKC 08/04 A3022 RMK SLP237

CYYZ;2009-05-15 09:00;CYYZ 150900Z 17004KT 15SM BKN250 08/04 A3025 RMK CI0 SLP244

CYYZ;2009-05-15 10:00;CYYZ 151000Z 20002KT 15SM BKN260 08/05 A3027 RMK CI1 SLP252

CYYZ;2009-05-15 11:00;CYYZ 151100Z 00000KT 15SM FEW260 09/05 A3028 RMK CI1 SLP255

CYYZ;2009-05-15 12:00;CYYZ 151200Z 18002KT 15SM FEW260 11/06 A3028 RMK CI0 SLP257

CYYZ;2009-05-15 13:00;CYYZ 151300Z 00000KT 15SM FEW250 14/07 A3030 RMK CI0 SLP263

CYYZ;2009-05-15 14:00;CYYZ 151400Z 14007KT 15SM FEW230 15/07 A3031 RMK CI1 SLP265

CYYZ;2009-05-15 15:00;CYYZ 151500Z 15007KT 15SM FEW230 15/06 A3031 RMK CI1 SLP267

CYYZ;2009-05-15 16:00;CYYZ 151600Z 16007KT 15SM FEW030 BKN230 17/06 A3030 RMK CU1CI2 CU TR SLP264

CYYZ;2009-05-15 17:00;CYYZ 151700Z 14007KT 15SM BKN190 BKN220 16/05 A3029 RMK AS5CI2 SUN DIMLY VISBL SLP260

CYYZ;2009-05-15 18:00;CYYZ 151800Z CCA 15011KT 15SM SCT150 BKN170 16/05 A3029 RMK AC3AS2 SUN DIMLY VISBL SLP261

CYYZ;2009-05-15 19:00;CYYZ 151900Z 12008KT 15SM SCT150 OVC190 15/04 A3027 RMK AC3AS4 SLP254

CYYZ;2009-05-15 20:00;CYYZ 152000Z 12010KT 15SM BKN140 OVC190 15/03 A3025 RMK AC5AS3 SLP245

CYYZ;2009-05-15 21:00;CYYZ 152100Z 15008KT 15SM BKN150 OVC160 15/04 A3023 RMK AC5AS3 SLP240

CYYZ;2009-05-15 22:00;CYYZ 152200Z 08009KT 15SM SCT140 OVC150 16/02 A3022 RMK AC3AS4 SUN DIMLY VISBL SLP235

CYYZ;2009-05-15 23:00;CYYZ 152300Z 08008KT 15SM BKN140 OVC210 16/02 A3019 RMK AC5CI3 SLP227

CYYZ;2009-05-16 00:00;CYYZ 160000Z 08009KT 15SM SCT130 BKN180 OVC220 15/03 A3016 RMK AC4AC2CI2 SLP215

CYYZ;2009-05-16 01:00;CYYZ 160100Z 12004KT 15SM SCT130 BKN170 OVC220 14/02 A3015 RMK AC3AC3CI2 SLP213

CYYZ;2009-05-16 02:00;CYYZ 160200Z 10010G16KT 15SM BKN120 OVC150 13/01 A3014 RMK AC6AC2 SLP210

CYYZ;2009-05-16 03:00;CYYZ 160300Z 11007KT 15SM OVC110 13/01 A3013 RMK AC8 SLP205

CYYZ;2009-05-16 04:00;CYYZ 160400Z 10011KT 15SM OVC110 13/01 A3009 RMK AC8 SLP190

CYYZ;2009-05-16 05:00;CYYZ 160500Z 09010KT 15SM OVC098 14/01 A3005 RMK AC8 SLP179

CYYZ;2009-05-16 06:00;CYYZ 160600Z 08009G17KT 15SM -SHRA OVC095 14/00 A3001 RMK AC8 SLP163

CYYZ;2009-05-16 06:36;CYYZ 160636Z 09008G17KT 15SM OVC100 14/ RMK AC8

CYYZ;2009-05-16 06:54;CYYZ 160654Z 09007KT 15SM -SHRA OVC100 13/ RMK AC8

CYYZ;2009-05-16 07:00;CYYZ 160700Z 09009KT 15SM -SHRA OVC100 13/02 A2998 RMK AC8 SLP153

CYYZ;2009-05-16 07:23;CYYZ 160723Z 09011KT 15SM SCT098 OVC120 13/ RMK AC3AC5

CYYZ;2009-05-16 08:00;CYYZ 160800Z 08007KT 15SM OVC096 13/04 A2996 RMK AC8 SLP147

CYYZ;2009-05-16 08:11;CYYZ 160811Z 08006KT 15SM -SHRA SCT078 OVC094 13/ RMK AC3AC5

CYYZ;2009-05-16 09:00;CYYZ 160900Z 06009KT 15SM -SHRA FEW062 OVC067 12/05 A2991 RMK SC2AC6 SLP131

CYYZ;2009-05-16 09:33;CYYZ 160933Z 12004KT 15SM -TSRA FEW060CB BKN064 OVC070 11/ RMK CB2SC5AC2 OCLN LTGIC W SW

CYYZ;2009-05-16 10:00;CYYZ 161000Z 10009KT 15SM -TSRA SCT045 OVC061 10/07 A2988 RERA RMK SC4SC4 CB EMBD SLP120

CYYZ;2009-05-16 10:10;CYYZ 161010Z 08007KT 15SM OVC053 10/ RETS RMK SC8

CYYZ;2009-05-16 11:00;CYYZ 161100Z 10003KT 15SM BKN050 OVC095 11/08 A2983 RETS RMK SC7AC1 SLP105

CYYZ;2009-05-16 12:00;CYYZ 161200Z 19004KT 15SM OVC038 11/09 A2982 RMK SC8 SHWRS DIST N-NE-E SLP100

CYYZ;2009-05-16 13:00;CYYZ 161300Z 13008KT 15SM FEW030 BKN080 BKN110 12/10 A2979 RMK SC1AC6AC1 SLP089

CYYZ;2009-05-16 14:00;CYYZ 161400Z 16005KT 15SM FEW030 SCT090 BKN110 BKN270 10/08 A2979 RMK CF1AC3AC4CI1 SLP089

CYYZ;2009-05-16 15:00;CYYZ 161500Z 00000KT 15SM BKN045 BKN120 12/09 A2978 RMK SC5AC2 SLP086

CYYZ;2009-05-16 16:00;CYYZ 161600Z 21007KT 15SM FEW035 OVC047 18/14 A2977 RMK SC2SC6 SLP083

CYYZ;2009-05-16 17:00;CYYZ 161700Z 22015KT 15SM VCSH FEW030 BKN055 OVC095 20/16 A2975 RMK SC2SC5AC1 SHWRS W SLP078

CYYZ;2009-05-16 17:04;CYYZ 161704Z 22017KT 15SM -SHRA SCT030 BKN055 OVC095 20/ RMK SC3SC4AC1

CYYZ;2009-05-16 18:00;CYYZ 161800Z 26013G20KT 8SM -SHRA FEW015 OVC030 18/16 A2977 RERA RMK SC2SC6 CB EMBDD VIS 4 E SLP082

CYYZ;2009-05-16 19:00;CYYZ 161900Z 25014G21KT 15SM FEW035 BKN095 19/15 A2977 RMK SC2AC5 SLP080

CYYZ;2009-05-16 20:00;CYYZ 162000Z 27018G26KT 15SM BKN025 OVC045 19/14 A2977 RMK SF6SC2 SLP081

CYYZ;2009-05-16 21:00;CYYZ 162100Z 28021G29KT 15SM BKN022 OVC033 17/13 A2979 RMK SF6SC2 SLP090

CYYZ;2009-05-16 22:00;CYYZ 162200Z 31021G32KT 15SM FEW025 BKN120 15/09 A2983 RMK CU2AC3 SLP104

CYYZ;2009-05-16 23:00;CYYZ 162300Z 31018G26KT 15SM FEW025 SCT120 13/07 A2987 RMK CU2AC2 SLP115

CYYZ;2009-05-17 00:00;CYYZ 170000Z 31021G26KT 15SM FEW028 SCT140 SCT260 12/06 A2990 RMK SC2AC2CI1 SLP128

CYYZ;2009-05-17 01:00;CYYZ 170100Z 31015KT 15SM FEW028 FEW140 SCT260 09/04 A2994 RMK SC2AC1CI1 AC TR SLP141

CYYZ;2009-05-17 02:00;CYYZ 170200Z 32021G28KT 15SM FEW030 FEW260 08/01 A2998 RMK SC1CI1 SLP153

CYYZ;2009-05-17 03:00;CYYZ 170300Z 32020G28KT 15SM FEW260 07/M01 A2999 RMK CI1 SLP160

CYYZ;2009-05-17 04:00;CYYZ 170400Z 32016G22KT 15SM FEW260 06/M01 A3001 RMK CI1 SLP167

CYYZ;2009-05-17 05:00;CYYZ 170500Z 31013KT 15SM FEW260 05/M02 A3004 RMK CI1 SLP175

CYYZ;2009-05-17 06:00;CYYZ 170600Z 30011KT 15SM FEW260 04/M02 A3006 RMK CI1 SLP182

CYYZ;2009-05-17 07:00;CYYZ 170700Z 28009KT 15SM FEW150 FEW260 03/M02 A3009 RMK AC2CI0 SLP191

CYYZ;2009-05-17 08:00;CYYZ 170800Z 25010KT 15SM FEW045 FEW260 03/M02 A3011 RMK SC1CI0 SLP199

CYYZ;2009-05-17 08:43;CYYZ 170843Z 23009KT 15SM FEW045 FEW260 02/ RMK SC1CI0

CYYZ;2009-05-17 09:00;CYYZ 170900Z 24009KT 15SM FEW260 02/M02 A3012 RMK CI1 SLP202

CYYZ;2009-05-17 10:00;CYYZ 171000Z 25008KT 15SM FEW035 FEW150 SCT260 02/M02 A3013 RMK CF1AC1CI1 SLP207

CYYZ;2009-05-17 11:00;CYYZ 171100Z 26009KT 15SM FEW035 SCT260 03/M02 A3016 RMK CF1CI1 SLP217

CYYZ;2009-05-17 12:00;CYYZ 171200Z 29017KT 15SM FEW035 FEW260 05/M02 A3017 RMK CF1CI1 SLP220

CYYZ;2009-05-17 13:00;CYYZ 171300Z 28019G27KT 15SM FEW035 FEW260 07/M04 A3017 RMK CF1CI0 SLP221

CYYZ;2009-05-17 14:00;CYYZ 171400Z 28025KT 15SM FEW040 FEW270 08/M03 A3017 RMK CF1CI1 SLP220

CYYZ;2009-05-17 15:00;CYYZ 171500Z 29024G31KT 15SM FEW040 FEW270 10/M04 A3017 RMK CF1CI1 SLP221

CYYZ;2009-05-17 16:00;CYYZ 171600Z 29021G31KT 15SM FEW045 FEW270 11/M05 A3017 RMK CF1CI1 SLP221

CYYZ;2009-05-17 17:00;CYYZ 171700Z 30022G27KT 15SM FEW050 FEW280 11/M05 A3016 RMK CF1CI1 SLP219

CYYZ;2009-05-17 18:00;CYYZ 171800Z 29023G34KT 15SM FEW050 FEW270 11/M05 A3016 RMK CF1CI1 SLP219

CYYZ;2009-05-17 19:00;CYYZ 171900Z 27022G30KT 15SM FEW050 FEW270 12/M04 A3016 RMK CF1CI1 SLP219

CYYZ;2009-05-17 20:00;CYYZ 172000Z 28025G31KT 15SM FEW050 FEW270 12/M04 A3016 RMK CF1CI1 SLP216

CYYZ;2009-05-17 21:00;CYYZ 172100Z 32024G34KT 15SM FEW050 FEW270 12/M05 A3016 RMK CF1CI1 SLP219

CYYZ;2009-05-17 22:00;CYYZ 172200Z 31023G31KT 15SM FEW045 BKN270 12/M06 A3019 RMK CF1CI1 SLP227

CYYZ;2009-05-17 23:00;CYYZ 172300Z 31021G28KT 15SM FEW040 FEW260 11/M08 A3019 RMK CF1CI0 SLP228

CYYZ;2009-05-18 00:00;CYYZ 180000Z 30027G32KT 15SM FEW040 FEW160 FEW270 10/M08 A3019 RMK SC1AC1CI1 SLP230

CYYZ;2009-05-18 01:00;CYYZ 180100Z 30018G26KT 15SM FEW046 FEW160 FEW270 08/M11 A3022 RMK SC1AC1CI1 SLP238

CYYZ;2009-05-18 02:00;CYYZ 180200Z CCA 31010KT 15SM FEW050 07/M09 A3024 RMK SC1 SLP244

CYYZ;2009-05-18 03:00;CYYZ 180300Z 28007KT 15SM FEW050 05/M07 A3026 RMK SC1 SLP252

CYYZ;2009-05-18 04:00;CYYZ 180400Z 29004KT 15SM FEW050 04/M07 A3027 RMK SC1 SLP255

CYYZ;2009-05-18 05:00;CYYZ 180500Z 28005KT 15SM FEW050 04/M07 A3028 RMK SC1 SLP257

CYYZ;2009-05-18 06:00;CYYZ 180600Z 28003KT 15SM FEW050 FEW250 04/M07 A3028 RMK SC1CI1 SLP258

CYYZ;2009-05-18 07:00;CYYZ 180700Z 31005KT 15SM SKC 03/M07 A3029 RMK SLP262

CYYZ;2009-05-18 07:06;CYYZ 180706Z 26002KT 15SM SKC 02/

CYYZ;2009-05-18 08:00;CYYZ 180800Z 28004KT 15SM FEW260 02/M07 A3029 RMK CI1 SLP262

CYYZ;2009-05-18 09:00;CYYZ 180900Z 29004KT 15SM SKC 02/M07 A3030 RMK SLP266

CYYZ;2009-05-18 10:00;CYYZ 181000Z 31007KT 15SM FEW260 01/M06 A3031 RMK CI1 SLP271

CYYZ;2009-05-18 11:00;CYYZ 181100Z 31007KT 15SM SKC 03/M05 A3034 RMK SLP280

CYYZ;2009-05-18 12:00;CYYZ 181200Z 34007KT 15SM SKC 06/M04 A3036 RMK SLP286

CYYZ;2009-05-18 13:00;CYYZ 181300Z 34007KT 15SM SKC 08/M02 A3037 RMK SLP288

CYYZ;2009-05-18 14:00;CYYZ 181400Z 35006KT 15SM SKC 10/M01 A3037 RMK SLP290

CYYZ;2009-05-18 15:00;CYYZ 181500Z 01004KT 15SM SKC 11/M05 A3037 RMK SLP290

CYYZ;2009-05-18 16:00;CYYZ 181600Z 36008KT 15SM SKC 13/M06 A3037 RMK SLP288

CYYZ;2009-05-18 17:00;CYYZ 181700Z 29007KT 15SM SKC 13/M04 A3036 RMK SLP285

CYYZ;2009-05-18 18:00;CYYZ 181800Z 05006KT 15SM SKC 14/M06 A3034 RMK SLP278

CYYZ;2009-05-18 19:00;CYYZ 181900Z 14011KT 15SM SKC 13/M03 A3033 RMK SLP274

CYYZ;2009-05-18 20:00;CYYZ 182000Z 17008KT 15SM SKC 14/M03 A3031 RMK SLP268

CYYZ;2009-05-18 21:00;CYYZ 182100Z 16010G15KT 15SM SKC 14/M03 A3030 RMK SLP264

CYYZ;2009-05-18 22:00;CYYZ 182200Z 15008KT 15SM SKC 14/M02 A3029 RMK SLP263

CYYZ;2009-05-18 23:00;CYYZ 182300Z 17009KT 15SM SKC 13/M03 A3029 RMK SLP262

CYYZ;2009-05-19 00:00;CYYZ 190000Z 18013KT 15SM FEW270 13/M01 A3029 RMK CI1 SLP261

CYYZ;2009-05-19 01:00;CYYZ 190100Z 18009KT 15SM FEW250 11/M02 A3030 RMK CI1 SLP263

CYYZ;2009-05-19 02:00;CYYZ 190200Z 21006KT 15SM FEW250 10/M02 A3032 RMK CI1 SLP270

CYYZ;2009-05-19 03:00;CYYZ 190300Z 24011KT 15SM FEW250 10/M02 A3033 RMK CI1 SLP275

CYYZ;2009-05-19 04:00;CYYZ 190400Z 25010KT 15SM SKC 09/M03 A3033 RMK SLP275

CYYZ;2009-05-19 05:00;CYYZ 190500Z 23007KT 15SM SKC 07/M03 A3032 RMK SLP271

CYYZ;2009-05-19 06:00;CYYZ 190600Z 21007KT 15SM SKC 07/M03 A3031 RMK SLP266

CYYZ;2009-05-19 07:00;CYYZ 190700Z 22007KT 15SM SKC 07/M03 A3030 RMK SLP264

CYYZ;2009-05-19 08:00;CYYZ 190800Z 24008KT 15SM BKN230 07/M04 A3031 RMK CI2 SLP266

CYYZ;2009-05-19 09:00;CYYZ 190900Z 22009KT 15SM BKN120 BKN230 08/M03 A3031 RMK AC5CI1 SLP268

CYYZ;2009-05-19 10:00;CYYZ 191000Z 22011KT 15SM BKN098 BKN120 08/M02 A3031 RMK AC5AC2 SLP269

CYYZ;2009-05-19 11:00;CYYZ 191100Z 20005KT 15SM BKN088 BKN120 09/M01 A3032 RMK AC5AC2 SLP272

CYYZ;2009-05-19 12:00;CYYZ 191200Z 23006KT 15SM SCT085 BKN230 09/M00 A3033 RMK AC3CI2 CONTRAIL SLP275

CYYZ;2009-05-19 13:00;CYYZ 191300Z 21009KT 15SM FEW085 BKN230 12/01 A3033 RMK AC2CI2 CONTRAIL SLP275

CYYZ;2009-05-19 14:00;CYYZ 191400Z 22014KT 15SM FEW090 BKN230 16/03 A3031 RMK AC2CI2 SLP269

CYYZ;2009-05-19 15:00;CYYZ 191500Z 25015G21KT 15SM FEW090 BKN240 18/03 A3031 RMK AC2CI2 SLP267

CYYZ;2009-05-19 16:00;CYYZ 191600Z 25020G25KT 15SM FEW120 BKN240 19/04 A3031 RMK AC2CI2 SLP265

CYYZ;2009-05-19 17:00;CYYZ 191700Z 26014G26KT 15SM FEW120 BKN240 20/05 A3028 RMK AC2CI2 SLP258

CYYZ;2009-05-19 18:00;CYYZ 191800Z 26017KT 15SM FEW100 BKN220 20/05 A3028 RMK AC1CI2 SLP255

CYYZ;2009-05-19 19:00;CYYZ 191900Z 24014G21KT 15SM FEW100 BKN230 22/07 A3026 RMK AC1CI2 SLP250

CYYZ;2009-05-19 20:00;CYYZ 192000Z 24011G25KT 15SM FEW080 SCT230 22/07 A3024 RMK AC1CI1 SLP244

CYYZ;2009-05-19 21:00;CYYZ 192100Z 22013G22KT 15SM BKN240 22/07 A3023 RMK CI2 CONTRAIL SLP239

CYYZ;2009-05-19 22:00;CYYZ 192200Z 22018G26KT 15SM BKN240 21/06 A3023 RMK CI2 CONTRAIL SLP238

CYYZ;2009-05-19 23:00;CYYZ 192300Z 23018G24KT 15SM FEW160 BKN250 20/05 A3023 RMK AC2CI1 CONTRAILS SLP240

CYYZ;2009-05-20 00:00;CYYZ 200000Z 24010G16KT 15SM FEW160 BKN250 19/04 A3025 RMK AC1CI1 SLP246

CYYZ;2009-05-20 01:00;CYYZ 200100Z 21010KT 15SM FEW160 BKN250 18/04 A3025 RMK AC2CI2 SLP246

CYYZ;2009-05-20 02:00;CYYZ 200200Z 23007KT 15SM FEW240 17/04 A3027 RMK CI0 SLP252

CYYZ;2009-05-20 03:00;CYYZ 200300Z 24009KT 15SM FEW240 16/04 A3028 RMK CI1 SLP253

CYYZ;2009-05-20 04:00;CYYZ 200400Z 23008KT 15SM FEW180 FEW240 15/03 A3026 RMK AC1CI1 SLP249

CYYZ;2009-05-20 05:00;CYYZ 200500Z 19004KT 15SM FEW250 15/03 A3026 RMK CI1 SLP247

CYYZ;2009-05-20 06:00;CYYZ 200600Z 24006KT 15SM FEW250 15/03 A3026 RMK CI1 SLP247

CYYZ;2009-05-20 07:00;CYYZ 200700Z 24004KT 15SM FEW160 FEW250 14/03 A3026 RMK AC2CI1 SLP247

CYYZ;2009-05-20 08:00;CYYZ 200800Z 23004KT 15SM SCT150 14/03 A3026 RMK AC2 SLP249

CYYZ;2009-05-20 09:00;CYYZ 200900Z 23007KT 15SM SCT150 15/03 A3025 RMK AC3 SLP246

CYYZ;2009-05-20 10:00;CYYZ 201000Z 23003KT 15SM SCT150 SCT260 14/03 A3027 RMK AC2CI0 SLP252

CYYZ;2009-05-20 11:00;CYYZ 201100Z 21002KT 15SM FEW150 SCT260 16/04 A3030 RMK AC2CI1 SLP261

CYYZ;2009-05-20 12:00;CYYZ 201200Z 19004KT 15SM FEW150 SCT260 17/06 A3030 RMK AC1CI1 SLP262

CYYZ;2009-05-20 13:00;CYYZ 201300Z 25004KT 15SM SCT240 19/06 A3031 RMK CI2 SLP266

CYYZ;2009-05-20 14:00;CYYZ 201400Z 15005KT 15SM BKN240 20/08 A3030 RMK CI2 SLP261

CYYZ;2009-05-20 15:00;CYYZ 201500Z CCA 23019KT 15SM BKN240 24/07 A3028 RMK CI2 WIND SHIFT SLP254

CYYZ;2009-05-20 16:00;CYYZ 201600Z 24014G19KT 15SM SCT240 25/08 A3027 RMK CI2 SLP251

CYYZ;2009-05-20 17:00;CYYZ 201700Z 24013G19KT 15SM FEW240 26/08 A3025 RMK CI2 SLP243

CYYZ;2009-05-20 18:00;CYYZ 201800Z 22014G19KT 15SM FEW240 27/09 A3022 RMK CI1 SLP234

CYYZ;2009-05-20 19:00;CYYZ 201900Z 21014G20KT 15SM FEW250 27/08 A3021 RMK CI0 SLP229

CYYZ;2009-05-20 20:00;CYYZ 202000Z 20014G20KT 15SM FEW250 28/08 A3019 RMK CI1 SLP222

CYYZ;2009-05-20 21:00;CYYZ 202100Z 22015G24KT 15SM FEW250 27/06 A3017 RMK CI1 SLP217

CYYZ;2009-05-20 22:00;CYYZ 202200Z 22022G28KT 15SM SKC 26/04 A3016 RMK SLP212

CYYZ;2009-05-20 23:00;CYYZ 202300Z 23016G25KT 15SM FEW260 26/03 A3015 RMK CI1 SLP209

CYYZ;2009-05-21 00:00;CYYZ 210000Z 21010KT 15SM FEW260 25/04 A3015 RMK CI1 SLP208

CYYZ;2009-05-21 01:00;CYYZ 210100Z 22008KT 15SM FEW260 23/04 A3015 RMK CI1 SLP209

CYYZ;2009-05-21 02:00;CYYZ 210200Z 21006KT 15SM FEW260 22/04 A3015 RMK CI1 SLP208

CYYZ;2009-05-21 03:00;CYYZ 210300Z 22008KT 15SM FEW260 21/04 A3014 RMK CI1 SLP204

CYYZ;2009-05-21 04:00;CYYZ 210400Z 20005KT 15SM SKC 20/04 A3014 RMK SLP204

CYYZ;2009-05-21 05:00;CYYZ 210500Z 20004KT 15SM SKC 19/05 A3013 RMK SLP203

CYYZ;2009-05-21 06:00;CYYZ 210600Z 19004KT 15SM SKC 17/05 A3013 RMK SLP202

CYYZ;2009-05-21 07:00;CYYZ 210700Z 21004KT 15SM SKC 16/04 A3013 RMK SLP202

CYYZ;2009-05-21 08:00;CYYZ 210800Z 20005KT 15SM SKC 16/04 A3013 RMK SLP202

CYYZ;2009-05-21 09:00;CYYZ 210900Z 24009KT 15SM FEW260 16/05 A3013 RMK CI1 SLP202

CYYZ;2009-05-21 10:00;CYYZ 211000Z 22005KT 15SM FEW260 15/05 A3014 RMK CI1 SLP207

CYYZ;2009-05-21 11:00;CYYZ 211100Z 27003KT 15SM FEW260 17/06 A3016 RMK CI1 SLP211

CYYZ;2009-05-21 12:00;CYYZ 211200Z 22005KT 15SM FEW250 20/07 A3016 RMK CI1 SLP211

CYYZ;2009-05-21 13:00;CYYZ 211300Z 23011KT 15SM FEW250 22/08 A3016 RMK CI1 SLP211

CYYZ;2009-05-21 14:00;CYYZ 211400Z 21010G16KT 15SM FEW250 24/09 A3015 RMK CI1 SLP208

CYYZ;2009-05-21 15:00;CYYZ 211500Z 23010G18KT 15SM FEW250 25/10 A3012 RMK CI1 SLP197

CYYZ;2009-05-21 16:00;CYYZ 211600Z 25021G27KT 15SM FEW250 27/10 A3012 RMK CI1 SLP199

CYYZ;2009-05-21 17:00;CYYZ 211700Z 24020G25KT 15SM FEW250 27/10 A3010 RMK CI1 CONTRAIL SLP190

CYYZ;2009-05-21 18:00;CYYZ 211800Z 23012G20KT 15SM FEW250 28/11 A3008 RMK CI0 SLP185

CYYZ;2009-05-21 19:00;CYYZ 211900Z 23018KT 15SM FEW250 29/10 A3007 RMK CI1 SLP182

CYYZ;2009-05-21 20:00;CYYZ 212000Z 22016G26KT 15SM FEW250 28/10 A3006 RMK CI1 SLP177

CYYZ;2009-05-21 21:00;CYYZ 212100Z 22018G25KT 15SM FEW250 28/10 A3005 RMK CI1 SLP176

CYYZ;2009-05-21 22:00;CYYZ 212200Z 23019G25KT 15SM FEW250 27/09 A3006 RMK CI1 SLP177

CYYZ;2009-05-21 23:00;CYYZ 212300Z 23017G22KT 15SM FEW240 26/08 A3005 RMK CI1 SLP174

CYYZ;2009-05-22 00:00;CYYZ 220000Z 23012G19KT 15SM SCT240 25/09 A3004 RMK CI2 SLP173

CYYZ;2009-05-22 01:00;CYYZ 220100Z 23011KT 15SM SCT250 24/10 A3004 RMK CI2 SLP173

CYYZ;2009-05-22 02:00;CYYZ 220200Z 23009KT 15SM SCT250 23/10 A3006 RMK CI1 SLP177

CYYZ;2009-05-22 03:00;CYYZ 220300Z 24009KT 15SM SCT250 21/11 A3006 RMK CI1 SLP179

CYYZ;2009-05-22 04:00;CYYZ 220400Z 27006KT 15SM FEW250 19/10 A3006 RMK CI1 SLP179

CYYZ;2009-05-22 05:00;CYYZ 220500Z 31010KT 15SM FEW250 19/10 A3007 RMK CI1 SLP182

CYYZ;2009-05-22 06:00;CYYZ 220600Z 32012KT 15SM FEW250 19/10 A3008 RMK CI1 SLP185

CYYZ;2009-05-22 07:00;CYYZ 220700Z 32009KT 15SM FEW250 17/10 A3008 RMK CI1 SLP185

CYYZ;2009-05-22 08:00;CYYZ 220800Z 32010KT 15SM FEW250 16/10 A3009 RMK CI1 SLP189

CYYZ;2009-05-22 09:00;CYYZ 220900Z 35009G15KT 15SM SCT250 16/09 A3010 RMK CI1 SLP192

CYYZ;2009-05-22 10:00;CYYZ 221000Z 34013KT 15SM BKN078 BKN250 15/08 A3012 RMK AC6CI1 SLP198

CYYZ;2009-05-22 11:00;CYYZ 221100Z 34013KT 15SM BKN080 16/08 A3014 RMK AC7 SLP206

CYYZ;2009-05-22 12:00;CYYZ 221200Z 36014G19KT 15SM OVC074 15/07 A3017 RMK AC8 SLP217

CYYZ;2009-05-22 13:00;CYYZ 221300Z 35013KT 15SM OVC049 15/07 A3019 RMK SC8 SLP223

CYYZ;2009-05-22 14:00;CYYZ 221400Z 35008KT 15SM FEW050 OVC078 15/08 A3020 RMK SC1AC7 SLP225

CYYZ;2009-05-22 15:00;CYYZ 221500Z 34008KT 15SM FEW050 BKN080 16/08 A3020 RMK SC1AC6 SLP226

CYYZ;2009-05-22 16:00;CYYZ 221600Z 35010KT 15SM BKN051 OVC068 17/08 A3021 RMK SC6AC2 SLP229

CYYZ;2009-05-22 17:00;CYYZ 221700Z 34009KT 15SM FEW054 FEW072 BKN094 19/05 A3020 RMK SC1AC1AC5 SLP226

CYYZ;2009-05-22 18:00;CYYZ 221800Z 33007KT 15SM FEW056 SCT095 BKN270 20/06 A3020 RMK SC1AC4CI1 SLP228

CYYZ;2009-05-22 19:00;CYYZ 221900Z 01009KT 15SM FEW050 SCT100 BKN120 BKN270 20/07 A3019 RMK SC1AC3AC3CI1 SLP225

CYYZ;2009-05-22 20:00;CYYZ 222000Z 34013KT 15SM FEW045 FEW100 SCT120 SCT270 20/07 A3019 RMK SC1AC2AC1CI0 SLP225

CYYZ;2009-05-22 21:00;CYYZ 222100Z 36011G18KT 15SM FEW045 FEW110 BKN130 BKN270 20/08 A3019 RMK SC1AC2AC2CI1 SLP225

CYYZ;2009-05-22 22:00;CYYZ 222200Z 36013KT 15SM FEW040 BKN100 BKN270 19/10 A3019 RMK SC1AC7CI1 SLP223

CYYZ;2009-05-22 23:00;CYYZ 222300Z 01014KT 15SM FEW040 BKN110 BKN270 18/09 A3019 RMK SC1AC6CI1 SLP226

CYYZ;2009-05-23 00:00;CYYZ 230000Z 02009KT 15SM FEW050 SCT100 SCT260 18/09 A3019 RMK SC1AC3CI1 SLP225

CYYZ;2009-05-23 01:00;CYYZ 230100Z 36012KT 15SM FEW100 SCT160 SCT260 16/06 A3020 RMK AC2AC1CI1 CI TR SLP229

CYYZ;2009-05-23 02:00;CYYZ 230200Z CCA 02010KT 15SM FEW120 SCT260 15/03 A3021 RMK AC2CI0 SLP231

CYYZ;2009-05-23 03:00;CYYZ 230300Z 01007KT 15SM FEW120 SCT230 13/03 A3022 RMK AC2CI0 SLP234

CYYZ;2009-05-23 04:00;CYYZ 230400Z 36005KT 15SM BKN110 BKN260 13/01 A3021 RMK AC4CI0 SLP232

CYYZ;2009-05-23 05:00;CYYZ 230500Z 36008KT 15SM BKN120 12/02 A3020 RMK AC5 SLP230

CYYZ;2009-05-23 06:00;CYYZ 230600Z 35006KT 15SM BKN100 BKN130 12/02 A3019 RMK AC5AC2 SLP226

CYYZ;2009-05-23 07:00;CYYZ 230700Z 01005KT 15SM FEW100 BKN130 12/02 A3019 RMK AC2AC3 SLP223

CYYZ;2009-05-23 08:00;CYYZ 230800Z 34008KT 15SM SCT110 SCT230 11/02 A3018 RMK AC3CI1 SLP222

CYYZ;2009-05-23 09:00;CYYZ 230900Z 34004KT 15SM BKN120 10/02 A3017 RMK AC3 SLP218

CYYZ;2009-05-23 10:00;CYYZ 231000Z 36005KT 15SM SCT120 BKN190 BKN230 11/02 A3017 RMK AC3AC2CI0 SLP217

CYYZ;2009-05-23 11:00;CYYZ 231100Z 36005KT 15SM FEW100 BKN170 BKN220 11/02 A3018 RMK AC2AC2CI1 CONTRAIL SLP221

CYYZ;2009-05-23 12:00;CYYZ 231200Z 03003KT 15SM FEW090 BKN160 BKN220 13/04 A3017 RMK AC2AC3CI1 CONTRAIL SLP219

CYYZ;2009-05-23 13:00;CYYZ 231300Z 10003KT 15SM FEW090 SCT160 BKN220 15/06 A3017 RMK AC2AC2CI1 CONTRAIL SLP218

CYYZ;2009-05-23 14:00;CYYZ 231400Z 14004KT 15SM FEW090 SCT150 BKN220 17/08 A3016 RMK AC2AC2CI1 CONTRAIL SLP214

CYYZ;2009-05-23 15:00;CYYZ 231500Z 16004KT 15SM FEW090 BKN160 BKN210 18/08 A3014 RMK AC2AC2CI1 SLP209

CYYZ;2009-05-23 16:00;CYYZ 231600Z 19003KT 15SM FEW110 BKN160 BKN220 19/07 A3014 RMK AC2AC3CI1 SLP209

CYYZ;2009-05-23 17:00;CYYZ 231700Z 17003KT 15SM FEW120 BKN170 BKN220 19/07 A3012 RMK AC2AC3CI1 SLP202

CYYZ;2009-05-23 18:00;CYYZ 231800Z 15006KT 15SM BKN100 BKN130 BKN220 19/07 A3010 RMK AC5AC2CI1 SLP194

CYYZ;2009-05-23 19:00;CYYZ 231900Z 14007KT 15SM SCT100 BKN120 BKN220 19/07 A3009 RMK AC3AC2CI1 SLP191

CYYZ;2009-05-23 20:00;CYYZ 232000Z 15008KT 15SM SCT100 BKN120 BKN220 19/08 A3006 RMK AC3AC2CI1 CONTRAIL SLP182

CYYZ;2009-05-23 21:00;CYYZ 232100Z 16005KT 15SM FEW120 BKN160 BKN220 19/08 A3004 RMK AC2AC3CI1 SLP176

CYYZ;2009-05-23 22:00;CYYZ 232200Z 18003KT 15SM FEW068 BKN120 BKN220 19/08 A3004 RMK AC2AC4CI1 SLP174

CYYZ;2009-05-23 23:00;CYYZ 232300Z 17006KT 15SM BKN069 BKN110 BKN240 17/07 A3004 RMK AC5AC2CI1 SLP174

CYYZ;2009-05-24 00:00;CYYZ 240000Z 16005KT 15SM FEW061 SCT075 BKN220 15/07 A3003 RMK SC2AC2CI2 SLP171

CYYZ;2009-05-24 01:00;CYYZ 240100Z 16003KT 15SM SCT160 BKN220 15/06 A3003 RMK AC3CI2 SLP170

CYYZ;2009-05-24 02:00;CYYZ 240200Z 16004KT 15SM BKN078 BKN220 14/04 A3003 RMK AC5CI1 SLP172

CYYZ;2009-05-24 03:00;CYYZ 240300Z 17003KT 15SM FEW081 BKN250 14/04 A3004 RMK AC2CI2 SLP173

CYYZ;2009-05-24 04:00;CYYZ 240400Z 00000KT 15SM FEW160 BKN240 14/05 A3002 RMK AC2CI2 SLP168

CYYZ;2009-05-24 05:00;CYYZ 240500Z 01003KT 15SM BKN150 BKN240 15/06 A3002 RMK AC5CI1 SLP166

CYYZ;2009-05-24 06:00;CYYZ 240600Z 36003KT 15SM SCT059 BKN150 BKN220 15/05 A3001 RMK SC3AC2CI2 SLP161

CYYZ;2009-05-24 07:00;CYYZ 240700Z 32003KT 15SM BKN100 OVC220 15/06 A3001 RMK AC6CI2 SLP161

CYYZ;2009-05-24 08:00;CYYZ 240800Z 36009KT 15SM SCT091 BKN120 15/08 A3001 RMK AC4AC3 SLP164

CYYZ;2009-05-24 08:23;CYYZ 240823Z 35011KT 15SM -SHRA SCT097 OVC120 15/ RMK AC4AC4

CYYZ;2009-05-24 09:00;CYYZ 240900Z 36007KT 12SM -SHRA FEW061 BKN080 OVC091 14/10 A3002 RMK SC2AC3AC3 SLP167

CYYZ;2009-05-24 10:00;CYYZ 241000Z 36010KT 12SM -SHRA SCT062 BKN082 OVC120 14/10 A3003 RMK SC3AC3AC2 SLP169

CYYZ;2009-05-24 10:48;CYYZ 241048Z 34011KT 12SM SCT050 BKN082 OVC120 14/ RMK SC3AC3AC2

CYYZ;2009-05-24 11:00;CYYZ 241100Z 36008KT 15SM FEW050 BKN090 BKN110 14/10 A3004 RMK SC2AC3AC2 SLP175

CYYZ;2009-05-24 12:00;CYYZ 241200Z 31007KT 12SM FEW050 BKN075 BKN090 14/10 A3005 RMK SC2AC3AC2 SLP179

CYYZ;2009-05-24 13:00;CYYZ 241300Z 35008KT 12SM FEW050 BKN075 BKN100 16/08 A3006 RMK SC2AC3AC2 SLP180

CYYZ;2009-05-24 14:00;CYYZ 241400Z 33008KT 15SM FEW050 SCT077 BKN095 18/06 A3006 RMK SC2AC2AC2 SLP182

CYYZ;2009-05-24 15:00;CYYZ 241500Z 36012G18KT 15SM FEW055 SCT070 BKN085 19/05 A3007 RMK SC2AC2AC2 SLP183

CYYZ;2009-05-24 16:00;CYYZ 241600Z 02012KT 15SM SCT070 20/06 A3007 RMK AC4 SLP184

CYYZ;2009-05-24 17:00;CYYZ 241700Z 36011G17KT 15SM FEW070 21/07 A3006 RMK AC1 SLP181

CYYZ;2009-05-24 18:00;CYYZ 241800Z 01012G17KT 15SM FEW080 21/07 A3006 RMK AC1 SLP178

CYYZ;2009-05-24 19:00;CYYZ 241900Z 35012KT 15SM FEW080 22/07 A3005 RMK AC1 CONTRAIL SLP175

CYYZ;2009-05-24 20:00;CYYZ 242000Z 35012G18KT 15SM FEW080 FEW250 22/06 A3004 RMK AC1CI1 CI TR SLP171

CYYZ;2009-05-24 21:00;CYYZ 242100Z 35013G18KT 15SM FEW070 FEW250 21/06 A3003 RMK AC1CI1 CI TR SLP168

CYYZ;2009-05-24 22:00;CYYZ 242200Z 35013G20KT 15SM FEW080 FEW260 20/05 A3002 RMK AC1CI1 SLP166

CYYZ;2009-05-24 23:00;CYYZ 242300Z 01012KT 15SM FEW070 FEW260 19/04 A3002 RMK AC1CI1 SLP167

CYYZ;2009-05-25 00:00;CYYZ 250000Z 35013G19KT 15SM FEW100 FEW260 18/02 A3003 RMK AC1CI1 SLP171

CYYZ;2009-05-25 01:00;CYYZ 250100Z 36012KT 15SM FEW120 FEW260 16/01 A3004 RMK AC1CI1 SLP175

CYYZ;2009-05-25 02:00;CYYZ 250200Z 36011G17KT 15SM FEW120 FEW260 14/00 A3006 RMK AC1CI0 SLP181

CYYZ;2009-05-25 03:00;CYYZ 250300Z 35012KT 15SM FEW260 13/M00 A3008 RMK CI0 SLP187

CYYZ;2009-05-25 04:00;CYYZ 250400Z 36012G19KT 15SM FEW260 12/00 A3008 RMK CI1 SLP186

CYYZ;2009-05-25 05:00;CYYZ 250500Z 36013KT 15SM FEW260 11/01 A3010 RMK CI1 SLP193

CYYZ;2009-05-25 06:00;CYYZ 250600Z 34009KT 15SM FEW250 10/01 A3010 RMK CI1 SLP195

CYYZ;2009-05-25 07:00;CYYZ 250700Z 33007KT 15SM SKC 09/01 A3010 RMK SLP195

CYYZ;2009-05-25 08:00;CYYZ 250800Z 35010KT 15SM SKC 08/01 A3010 RMK SLP195

CYYZ;2009-05-25 09:00;CYYZ 250900Z 35010KT 15SM FEW120 FEW260 09/01 A3010 RMK AC1CI1 SLP196

CYYZ;2009-05-25 10:00;CYYZ 251000Z 36012KT 15SM FEW120 SCT250 09/01 A3011 RMK AC1CI1 AC TR SLP198

CYYZ;2009-05-25 11:00;CYYZ 251100Z 36014KT 15SM FEW120 SCT250 11/02 A3013 RMK AC1CI1 AC TR SLP206

CYYZ;2009-05-25 12:00;CYYZ 251200Z 36014KT 15SM SCT250 13/03 A3014 RMK CI1 CONTRAIL SLP209

CYYZ;2009-05-25 13:00;CYYZ 251300Z 01012KT 15SM FEW250 15/05 A3016 RMK CI1 SLP213

CYYZ;2009-05-25 14:00;CYYZ 251400Z 36011G17KT 15SM FEW250 16/06 A3017 RMK CI1 SLP217

CYYZ;2009-05-25 15:00;CYYZ 251500Z 36014KT 15SM FEW250 17/06 A3018 RMK CI1 SLP222

CYYZ;2009-05-25 16:00;CYYZ 251600Z 02007KT 15SM FEW030 FEW250 17/06 A3018 RMK CU1CI1 CU TR SLP223

CYYZ;2009-05-25 17:00;CYYZ 251700Z 16007KT 15SM FEW055 FEW250 18/08 A3018 RMK CU1CI1 CU TR SLP221

CYYZ;2009-05-25 18:00;CYYZ 251800Z 14010KT 15SM FEW055 SCT250 17/06 A3017 RMK CU1CI1 SLP220

CYYZ;2009-05-25 19:00;CYYZ 251900Z 15011G17KT 15SM FEW055 SCT250 17/06 A3017 RMK CU1CI1 SLP219

CYYZ;2009-05-25 20:00;CYYZ 252000Z 13009KT 15SM SCT250 16/05 A3016 RMK CI1 CONTRAIL SLP216

CYYZ;2009-05-25 21:00;CYYZ 252100Z 14009KT 15SM SCT250 16/05 A3015 RMK CI1 CONTRAIL SLP213

CYYZ;2009-05-25 22:00;CYYZ 252200Z 14008KT 15SM SCT250 16/05 A3016 RMK CI1 SLP214

CYYZ;2009-05-25 23:00;CYYZ 252300Z 14008KT 15SM BKN240 16/04 A3014 RMK CI2 SLP210

CYYZ;2009-05-26 00:00;CYYZ 260000Z 15005KT 15SM BKN250 15/03 A3015 RMK CI2 SLP212

CYYZ;2009-05-26 01:00;CYYZ 260100Z 07003KT 15SM BKN250 14/03 A3016 RMK CI2 SLP217

CYYZ;2009-05-26 02:00;CYYZ 260200Z 07007KT 15SM SCT250 14/02 A3019 RMK CI2 SLP225

CYYZ;2009-05-26 03:00;CYYZ 260300Z 09011KT 15SM SCT250 13/01 A3018 RMK CI2 SLP222

CYYZ;2009-05-26 04:00;CYYZ 260400Z 09008KT 15SM SCT250 12/01 A3019 RMK CI2 SLP225

CYYZ;2009-05-26 05:00;CYYZ 260500Z 10008KT 15SM SCT250 12/M01 A3019 RMK CI2 SLP226

CYYZ;2009-05-26 06:00;CYYZ 260600Z 10008G18KT 15SM FEW250 12/M01 A3020 RMK CI1 SLP228

CYYZ;2009-05-26 07:00;CYYZ 260700Z 10010KT 15SM FEW250 11/M01 A3020 RMK CI1 SLP230

CYYZ;2009-05-26 08:00;CYYZ 260800Z 09009G16KT 15SM SCT250 11/00 A3020 RMK CI2 SLP228

CYYZ;2009-05-26 09:00;CYYZ 260900Z 09011G16KT 15SM BKN250 10/M00 A3020 RMK CI2 SLP228

CYYZ;2009-05-26 10:00;CYYZ 261000Z 08013G20KT 15SM FEW150 BKN250 10/M00 A3020 RMK AC2CI2 SLP228

CYYZ;2009-05-26 11:00;CYYZ 261100Z 09010G16KT 15SM FEW120 OVC270 10/00 A3020 RMK AC1CI5 SLP228

CYYZ;2009-05-26 12:00;CYYZ 261200Z 09009G19KT 15SM FEW120 OVC270 10/M01 A3020 RMK AC1CI6 SLP228

CYYZ;2009-05-26 13:00;CYYZ 261300Z 10011G18KT 15SM FEW120 FEW160 OVC270 11/M01 A3019 RMK AC1AC2CS5 SLP226

CYYZ;2009-05-26 14:00;CYYZ 261400Z 09015G20KT 15SM FEW130 OVC270 12/M01 A3018 RMK AC1CS6 SLP223

CYYZ;2009-05-26 15:00;CYYZ 261500Z 09013G26KT 15SM FEW063 OVC270 13/M01 A3016 RMK SC2CS6 SLP217

CYYZ;2009-05-26 16:00;CYYZ 261600Z 09014G21KT 15SM FEW065 OVC280 13/M00 A3014 RMK SC1CS6 SLP209

CYYZ;2009-05-26 17:00;CYYZ 261700Z 10013G19KT 15SM SCT055 OVC280 13/00 A3013 RMK SC3CS5 SLP204

CYYZ;2009-05-26 18:00;CYYZ 261800Z 10015KT 15SM BKN034 OVC280 13/01 A3011 RMK SC7CS1 SLP198

CYYZ;2009-05-26 19:00;CYYZ 261900Z 09017KT 15SM OVC034 13/01 A3009 RMK SC8 SLP191

CYYZ;2009-05-26 20:00;CYYZ 262000Z 09015G20KT 15SM OVC036 14/02 A3006 RMK SC8 SLP183

CYYZ;2009-05-26 21:00;CYYZ 262100Z 11016G22KT 15SM OVC038 14/02 A3005 RMK SC8 SLP179

CYYZ;2009-05-26 22:00;CYYZ 262200Z 10013G20KT 15SM OVC037 13/02 A3002 RMK SC8 SLP170

CYYZ;2009-05-26 22:12;CYYZ 262212Z 10016KT 15SM -SHRA SCT024 OVC032 13/ RMK SC3SC5

CYYZ;2009-05-26 23:00;CYYZ 262300Z 10009G16KT 12SM -SHRA OVC018 12/04 A3001 RMK SC8 SLP167

CYYZ;2009-05-26 23:43;CYYZ 262343Z 11007KT 15SM OVC020 12/ RMK SC8

CYYZ;2009-05-27 00:00;CYYZ 270000Z 10008KT 15SM OVC017 12/06 A3001 RMK SC8 SLP164

CYYZ;2009-05-27 01:00;CYYZ 270100Z 10005KT 15SM FEW014 OVC019 12/07 A2999 RMK SC2SC6 SLP159

CYYZ;2009-05-27 01:31;CYYZ 270131Z 08006KT 15SM -SHRA OVC020 12/ RMK SC8

CYYZ;2009-05-27 02:00;CYYZ 270200Z 10006KT 15SM OVC021 12/08 A2999 RMK SC8 SLP159

CYYZ;2009-05-27 03:00;CYYZ 270300Z 10007KT 15SM BKN019 OVC025 12/09 A2998 RMK SC6SC2 SLP153

CYYZ;2009-05-27 03:15;CYYZ 270315Z 11008KT 12SM -SHRA BKN018 OVC024 12/ RMK SC6SC2

CYYZ;2009-05-27 04:00;CYYZ 270400Z 10009KT 12SM -SHRA SCT015 OVC021 12/09 A2996 RMK SC4SC4 SLP147

CYYZ;2009-05-27 04:22;CYYZ 270422Z 11008KT 10SM -RA FEW008 BKN012 OVC019 11/ RMK SF2SC4SC2

CYYZ;2009-05-27 05:00;CYYZ 270500Z 10006KT 8SM -RA BKN007 OVC012 11/09 A2995 RMK SF5SC3 SLP144

CYYZ;2009-05-27 05:18;CYYZ 270518Z 10005KT 2 1/2SM -DZ BR BKN005 OVC009 11/ RMK SF5ST3

CYYZ;2009-05-27 06:00;CYYZ 270600Z 10006KT 2 1/2SM -DZ BR BKN004 OVC007 11/09 A2993 RMK SF5ST3 SLP138

CYYZ;2009-05-27 07:00;CYYZ 270700Z 09004KT 2SM -DZ BR OVC003 11/09 A2991 RMK ST8 SLP132

CYYZ;2009-05-27 07:41;CYYZ 270741Z 09004KT 5SM BR OVC003 11/ RMK ST8

CYYZ;2009-05-27 08:00;CYYZ 270800Z 09005KT 5SM BR BKN004 OVC019 11/10 A2989 RMK ST5SC3 SLP126

CYYZ;2009-05-27 08:12;CYYZ 270812Z 11005KT 4SM -SHRA BR BKN004 OVC021 11/ RMK ST5SC3

CYYZ;2009-05-27 09:00;CYYZ 270900Z 10004KT 5SM -SHRA BR BKN004 OVC023 11/10 A2988 RERA RMK SF5SC3 SLP120

CYYZ;2009-05-27 09:16;CYYZ 270916Z 11005KT 5SM BR BKN004 OVC022 11/ RMK SF5SC3

CYYZ;2009-05-27 10:00;CYYZ 271000Z 11004KT 4SM BR SCT004 OVC023 11/10 A2987 RMK SF4SC4 SLP117

CYYZ;2009-05-27 10:13;CYYZ 271013Z 10004KT 4SM BR BKN004 OVC022 11/ RMK SF7SC1

CYYZ;2009-05-27 11:00;CYYZ 271100Z 11002KT 5SM BR BKN004 OVC020 12/10 A2988 RMK SF7SC1 SLP119

CYYZ;2009-05-27 11:31;CYYZ 271131Z 14002KT 5SM BR FEW005 OVC017 12/ RMK SF2SC6

CYYZ;2009-05-27 11:43;CYYZ 271143Z 11004KT 5SM -RA BR SCT005 OVC016 12/ RMK SF3SC5

CYYZ;2009-05-27 12:00;CYYZ 271200Z 10004KT 6SM BR FEW005 OVC017 12/10 A2987 RMK SF2SC6 SLP117

CYYZ;2009-05-27 13:00;CYYZ 271300Z 09003KT 6SM BR SCT005 OVC018 12/11 A2986 RMK SF3SC5 SLP115

CYYZ;2009-05-27 13:22;CYYZ 271322Z 09004KT 7SM BKN006 OVC018 13/ RMK SF6SC2

CYYZ;2009-05-27 14:00;CYYZ 271400Z 00000KT 2SM -DZ BR BKN005 OVC013 13/11 A2986 RMK SF7ST1 SLP114

CYYZ;2009-05-27 14:07;CYYZ 271407Z 02002KT 2SM -RA BR BKN005 OVC013 13/ RMK SF7ST1

CYYZ;2009-05-27 14:35;CYYZ 271435Z 08004KT 4SM -RA BR BKN003 OVC016 13/ RMK SF7SC1

CYYZ;2009-05-27 15:00;CYYZ 271500Z 09003KT 3SM +RA BR BKN003 OVC016 13/11 A2985 RMK SF7SC1 SLP111

CYYZ;2009-05-27 15:11;CYYZ 271511Z 10003KT 3SM RA BR BKN004 OVC017 13/ RERA RMK SF7SC1

CYYZ;2009-05-27 15:24;CYYZ 271524Z 10002KT 2SM +SHRA BR FEW004 OVC016 13/ RMK SF2SC6 TCU EMBD

CYYZ;2009-05-27 15:54;CYYZ 271554Z 09003KT 4SM BR BKN003 OVC016 13/ RERA RMK SF5SC3

CYYZ;2009-05-27 16:00;CYYZ 271600Z 08002KT 4SM BR BKN003 OVC017 13/12 A2984 RERA RMK SF6SC2 SLP107

CYYZ;2009-05-27 17:00;CYYZ 271700Z 00000KT 5SM BR BKN003 OVC016 14/13 A2983 RMK SF6SC2 SLP104

CYYZ;2009-05-27 17:20;CYYZ 271720Z 10002KT 5SM BR BKN005 OVC016 15/ RMK SF6SC2

CYYZ;2009-05-27 18:00;CYYZ 271800Z 09005KT 5SM BR BKN006 OVC015 15/13 A2981 RMK SF6SC2 SLP096

CYYZ;2009-05-27 19:00;CYYZ 271900Z 12002KT 6SM HZ BKN008 OVC018 16/13 A2980 RMK SF6SC2 SLP093

CYYZ;2009-05-27 19:53;CYYZ 271953Z 17004KT 7SM OVC010 15/ RMK SC8

CYYZ;2009-05-27 20:00;CYYZ 272000Z 17005KT 7SM OVC010 15/13 A2980 RMK SC8 SLP093

CYYZ;2009-05-27 21:00;CYYZ 272100Z 07006KT 6SM HZ BKN008 OVC015 15/13 A2979 RMK SF6SC2 SLP090

CYYZ;2009-05-27 21:29;CYYZ 272129Z 11007KT 4SM -RA HZ BKN007 OVC010 15/ RMK SF7SF1

CYYZ;2009-05-27 22:00;CYYZ 272200Z 09008KT 5SM -RA BR BKN006 OVC011 14/12 A2979 RERA RMK SF7SC1 SLP090

CYYZ;2009-05-27 22:38;CYYZ 272238Z 09006KT 6SM BR BKN006 OVC018 14/ RMK SC7SC1

CYYZ;2009-05-27 23:00;CYYZ 272300Z 09004KT 5SM BR BKN004 OVC015 14/13 A2979 RMK SF5SC3 SLP088

CYYZ;2009-05-27 23:15;CYYZ 272315Z 10004KT 4SM -SHRA BR SCT004 OVC015 14/ RMK SF3SC5

CYYZ;2009-05-27 23:30;CYYZ 272330Z 33005KT 4SM -SHRA BR BKN005 OVC016 14/ RMK SC6SC2

CYYZ;2009-05-28 00:00;CYYZ 280000Z 11003KT 5SM -SHRA BR BKN005 OVC015 14/13 A2979 RERA RMK SC6SC2 SLP088

CYYZ;2009-05-28 00:32;CYYZ 280032Z 04003KT 6SM -SHRA BR BKN004 OVC007 14/ RMK SF6SC2

CYYZ;2009-05-28 00:49;CYYZ 280049Z 06004KT 6SM BR FEW004 OVC007 14/ RMK SF2SC6

CYYZ;2009-05-28 01:00;CYYZ 280100Z 05003KT 5SM BR FEW004 OVC007 15/13 A2978 RMK SF2SC6 SLP087

CYYZ;2009-05-28 02:00;CYYZ 280200Z 10002KT 9SM OVC007 15/13 A2979 RMK SC8 BR SLP090

CYYZ;2009-05-28 02:28;CYYZ 280228Z CCA 16002KT 4SM SHRA BR FEW004 OVC007 15/ RMK SF2SC6

CYYZ;2009-05-28 03:00;CYYZ 280300Z 13002KT 8SM -SHRA BKN006 OVC015 15/13 A2980 RERA RMK SC5SC3 SLP091

CYYZ;2009-05-28 04:00;CYYZ 280400Z 09004KT 10SM -SHRA OVC006 15/14 A2978 RMK SC8 PCPN VRY LGT SLP087

CYYZ;2009-05-28 04:23;CYYZ 280423Z 09006KT 12SM OVC005 15/ RMK SC8

CYYZ;2009-05-28 05:00;CYYZ 280500Z 08010G16KT 15SM OVC005 15/14 A2977 RMK SC8 SLP084

CYYZ;2009-05-28 06:00;CYYZ 280600Z 08010KT 15SM OVC005 15/13 A2977 RMK SC8 SLP084

CYYZ;2009-05-28 07:00;CYYZ 280700Z 09007KT 12SM SCT003 OVC005 14/13 A2977 RMK SF3SC5 SLP081

CYYZ;2009-05-28 08:00;CYYZ 280800Z 09006KT 12SM OVC004 14/13 A2976 RMK SF8 SLP079

CYYZ;2009-05-28 08:18;CYYZ 280818Z 08008KT 10SM OVC003 14/ RMK ST8

CYYZ;2009-05-28 08:49;CYYZ 280849Z 11008KT 2 1/2SM BR OVC002 14/ RMK FG2ST6

CYYZ;2009-05-28 09:00;CYYZ 280900Z 11010KT 1 1/4SM -DZ BR OVC002 14/13 A2974 RMK FG3ST5 SLP074

CYYZ;2009-05-28 09:19;CYYZ 280919Z 09006KT 3/4SM R05/5000FT/D R06L/5500FT/D -SHRA BR OVC002 14/ RMK FG4SF4 RWY 06R 5500FT U 15L P6000FT U

CYYZ;2009-05-28 09:27;CYYZ 280927Z 10007KT 3SM SHRA BR OVC002 14/ RMK SF8 TCU EMBD

CYYZ;2009-05-28 09:37;CYYZ 280937Z 11005KT 8SM -SHRA FEW002 OVC004 14/ RERA RMK SF2SC6

CYYZ;2009-05-28 10:00;CYYZ 281000Z 11007KT 7SM -SHRA FEW002 OVC005 14/13 A2975 RERA RMK SF2SC6 BR SLP076

CYYZ;2009-05-28 10:06;CYYZ 281006Z 10008KT 1 1/2SM +SHRA BR OVC004 14/ RMK FG1NS7

CYYZ;2009-05-28 10:13;CYYZ 281013Z 09007KT 3SM SHRA BR BKN003 OVC007 14/ RERA RMK SF5SF3 TCU EMBD

CYYZ;2009-05-28 10:50;CYYZ 281050Z 10007KT 10SM -SHRA OVC004 14/ RERA RMK SC8 VIS 5 E PCPN VRY LGT

CYYZ;2009-05-28 11:00;CYYZ 281100Z 09009KT 10SM -SHRA OVC004 14/12 A2975 RERA RMK SC8 SLP075

CYYZ;2009-05-28 11:49;CYYZ 281149Z 09007KT 5SM BR OVC003 14/ RMK SC8

CYYZ;2009-05-28 12:00;CYYZ 281200Z 11005KT 5SM BR OVC003 14/12 A2975 RMK SC8 SLP075

CYYZ;2009-05-28 12:13;CYYZ 281213Z 11009KT 5SM BR OVC002 14/ RMK ST8

CYYZ;2009-05-28 12:23;CYYZ 281223Z 10006KT 2SM -DZ BR OVC002 14/ RMK ST8

CYYZ;2009-05-28 12:45;CYYZ 281245Z 10006KT 3/4SM R05/P6000FT/D R06R/P6000FT/D -DZ BR OVC002 14/ RMK ST8 BLN CIG 230 FT

CYYZ;2009-05-28 13:00;CYYZ 281300Z 09009KT 3/4SM R05/4500VP6000FT/D R06R/4500VP6000FT/N -DZ BR OVC002 14/13 A2974 RMK ST8 SLP072

CYYZ;2009-05-28 13:11;CYYZ 281311Z 11008KT 1/2SM R05/5000FT/N R06R/5500FT/D -DZ FG OVC002 14/ RMK ST8 BLN CIG 190 FT

CYYZ;2009-05-28 13:21;CYYZ 281321Z 13007KT 1/2SM R05/5000FT/N R06L/3000V6000FT/N -DZ FG OVC001 14/ RMK ST8 RVR RWY 06R/5000FT/D

CYYZ;2009-05-28 13:54;CYYZ 281354Z 12008KT 3/4SM R05/3500V6000FT/D R06L/6000FT/U -DZ BR OVC001 14/ RMK ST8

CYYZ;2009-05-28 14:00;CYYZ 281400Z 10007KT 3/4SM R05/3500V6000FT/U R06L/P6000FT/U -DZ BR OVC002 13/13 A2974 RMK ST8 BLN CIG 200 FT SLP071

CYYZ;2009-05-28 14:05;CYYZ 281405Z 10008KT 1 1/2SM -DZ BR OVC002 14/ RMK ST8 BLN CIG 200 FT

CYYZ;2009-05-28 15:00;CYYZ 281500Z 11006KT 2SM -DZ BR OVC002 13/12 A2972 RMK ST8 BLN CIG 161 FT SLP065

CYYZ;2009-05-28 15:18;CYYZ 281518Z 12006KT 1SM R05/P6000FT/D R06L/P6000FT/N -DZRA BR OVC002 13/ RMK ST8

CYYZ;2009-05-28 15:51;CYYZ 281551Z 13005KT 3/4SM R15L/P6000FT/U R15R/P6000FT/U -DZ BR OVC002 14/ RMK ST8 RVR RWY 05/P6000FT/D RWY 06L/P6000FT/D

CYYZ;2009-05-28 16:00;CYYZ 281600Z 13003KT 3/4SM R15L/5500FT/N R15R/P6000FT/D -DZ BR OVC002 13/12 A2972 RMK ST8 RVR RWY 05/P6000FT/D RWY 06L/P6000FT/N SLP067

CYYZ;2009-05-28 16:11;CYYZ 281611Z 13002KT 1/2SM R15L/5500FT/D R15R/P6000FT/U -DZ FG OVC002 13/ RMK ST8 RVR RWY 05/P6000FT/D RWY 06L/P6000FT/D

CYYZ;2009-05-28 16:42;CYYZ 281642Z 00000KT 2SM R15R/P6000FT/U R24L/4000VP6000FT/U -DZ BR OVC003 13/ RMK ST8 RVR RWY 05/P6000FT/U RWY 06L/3500VP6000FT/U RWY 15L/P6000FT/U

CYYZ;2009-05-28 17:00;CYYZ 281700Z 16003KT 4SM -DZ BR OVC003 14/13 A2970 RMK ST8 SLP060

CYYZ;2009-05-28 17:41;CYYZ 281741Z 12005KT 3SM BR OVC002 14/ RMK ST8 PRESFR

CYYZ;2009-05-28 18:00;CYYZ 281800Z 11008KT 4SM BR OVC002 14/13 A2967 RMK ST8 SLP048

CYYZ;2009-05-28 19:00;CYYZ 281900Z 24003KT 5SM BR OVC004 15/13 A2968 RMK SC8 SLP051

CYYZ;2009-05-28 19:21;CYYZ 281921Z 14002KT 5SM BR OVC006 15/ RMK SC8

CYYZ;2009-05-28 19:39;CYYZ 281939Z 00000KT 4SM -SHRA BR OVC006 15/ RMK SC8

CYYZ;2009-05-28 20:00;CYYZ 282000Z 00000KT 4SM -SHRA BR BKN005 OVC040 16/14 A2966 RMK SC7SC1 SLP044

CYYZ;2009-05-28 20:21;CYYZ 282021Z 30003KT 4SM -SHRA BR FEW006 BKN011 BKN090 16/ RMK SF2SF5AC1

CYYZ;2009-05-28 20:40;CYYZ 282040Z 08003KT 4SM BR FEW011 SCT080 OVC140 17/ RMK SC1AC3AS4

CYYZ;2009-05-28 21:00;CYYZ 282100Z 09002KT 5SM BR FEW015 FEW075 OVC140 17/15 A2963 RMK SC1AC2AC6 SLP034

CYYZ;2009-05-28 21:33;CYYZ 282133Z 13004KT 4SM BR SCT005 OVC160 17/ RMK SF4AC4

CYYZ;2009-05-28 21:49;CYYZ 282149Z 15005KT 4SM BR BKN002 OVC005 15/ RMK ST6ST2

CYYZ;2009-05-28 22:00;CYYZ 282200Z 15004KT 3SM BR OVC003 15/13 A2963 RMK ST8 SLP033

CYYZ;2009-05-28 22:35;CYYZ 282235Z 20004KT 2 1/4SM -SHRA BR OVC003 14/ RMK FG2SF6

CYYZ;2009-05-28 23:00;CYYZ 282300Z 16003KT 2 1/4SM -SHRA BR BKN003 OVC023 14/13 A2962 RMK FG2SF6SC1 SLP030

CYYZ;2009-05-28 23:38;CYYZ 282338Z 17005KT 3SM -SHRA BR OVC003 14/ RMK SF8

CYYZ;2009-05-29 00:00;CYYZ 290000Z 16003KT 2 1/2SM -SHRA BR BKN002 OVC007 13/12 A2962 RMK SF6SF2 SLP033

CYYZ;2009-05-29 01:00;CYYZ 290100Z 15005KT 4SM -SHRA BR FEW003 OVC008 13/11 A2962 RERA RMK SF2SC6 SLP031

CYYZ;2009-05-29 01:33;CYYZ 290133Z 00000KT 5SM BR FEW003 OVC006 13/ RMK SF2SC6

CYYZ;2009-05-29 01:41;CYYZ 290141Z 00000KT 4SM -SHRA BR SCT002 OVC006 13/ RMK SF3SC5

CYYZ;2009-05-29 02:00;CYYZ 290200Z 00000KT 7SM FEW002 OVC006 13/12 A2962 RMK SF2SC6 BR SLP033

CYYZ;2009-05-29 02:26;CYYZ 290226Z 00000KT 7SM OVC004 14/ RMK SF8

CYYZ;2009-05-29 02:39;CYYZ 290239Z 00000KT 7SM OVC003 14/ RMK SF8 BR

CYYZ;2009-05-29 03:00;CYYZ 290300Z 00000KT 3SM BR OVC003 14/13 A2961 RMK SF8 SLP029

CYYZ;2009-05-29 03:10;CYYZ 290310Z 28005KT 2SM -SHRA BR OVC003 14/ RMK SF8

CYYZ;2009-05-29 04:00;CYYZ 290400Z 28005KT 4SM BR SCT003 OVC012 15/14 A2961 RMK SF3SC5 SLP028

CYYZ;2009-05-29 04:15;CYYZ 290415Z 29006KT 8SM OVC006 15/ RMK SC8 BR

CYYZ;2009-05-29 04:39;CYYZ 290439Z 34008KT 10SM SCT007 BKN022 OVC068 16/ RMK SC3SC4AC1

CYYZ;2009-05-29 05:00;CYYZ 290500Z 32007KT 15SM SCT016 OVC033 16/15 A2961 RMK SC3SC5 SLP027

CYYZ;2009-05-29 06:00;CYYZ 290600Z 31008KT 15SM FEW023 BKN061 15/14 A2960 RMK SC1SC5 SLP026

CYYZ;2009-05-29 07:00;CYYZ 290700Z 27005KT 15SM SCT013 OVC031 14/13 A2961 RMK SC3SC5 SLP030

CYYZ;2009-05-29 08:00;CYYZ 290800Z 27008KT 15SM FEW016 OVC042 14/12 A2963 RMK SC2SC6 SLP034

CYYZ;2009-05-29 09:00;CYYZ 290900Z 26008KT 15SM FEW022 OVC051 14/12 A2964 RMK SC2SC6 SLP036

CYYZ;2009-05-29 10:00;CYYZ 291000Z 27010KT 15SM FEW014 OVC063 14/11 A2965 RMK SC1SC7 SLP040

CYYZ;2009-05-29 11:00;CYYZ 291100Z 26013KT 15SM FEW018 OVC060 13/10 A2966 RMK SC2SC6 SLP043

CYYZ;2009-05-29 11:45;CYYZ 291145Z 27011G16KT 15SM -SHRA SCT019 OVC062 13/ RMK SC4SC4

CYYZ;2009-05-29 12:00;CYYZ 291200Z 26012KT 15SM -SHRA BKN018 OVC042 13/11 A2968 RMK SC5SC3 PCPN VRY LGT SLP052

CYYZ;2009-05-29 13:00;CYYZ 291300Z 28015KT 15SM BKN019 OVC043 14/11 A2968 RMK SC6SC2 SLP054

CYYZ;2009-05-29 14:00;CYYZ 291400Z 31013KT 15SM BKN020 BKN110 14/10 A2970 RMK SC5AC2 SLP059

CYYZ;2009-05-29 15:00;CYYZ 291500Z 30016KT 15SM FEW018 BKN022 BKN110 16/11 A2970 RMK CU2SC3AC1 SLP057

CYYZ;2009-05-29 16:00;CYYZ 291600Z 31011G18KT 15SM FEW026 SCT120 18/11 A2971 RMK CU2AC1 SLP060

CYYZ;2009-05-29 17:00;CYYZ 291700Z 29014KT 15SM FEW026 FEW120 20/12 A2970 RMK CU2AC1 SLP059

CYYZ;2009-05-29 18:00;CYYZ 291800Z 30015KT 15SM FEW030 FEW240 21/12 A2970 RMK CU1CI1 CI TR SLP058

CYYZ;2009-05-29 19:00;CYYZ 291900Z 29008G17KT 15SM FEW040 22/12 A2970 RMK CU1 SLP058

CYYZ;2009-05-29 20:00;CYYZ 292000Z 27010G17KT 15SM FEW040 23/13 A2969 RMK CU2 SLP055

CYYZ;2009-05-29 21:00;CYYZ 292100Z 28015KT 15SM FEW051 FEW260 23/13 A2970 RMK CU2CI1 CI TR SLP056

CYYZ;2009-05-29 22:00;CYYZ 292200Z 31014KT 15SM FEW055 SCT260 22/11 A2970 RMK CU2CI1 SLP056

CYYZ;2009-05-29 23:00;CYYZ 292300Z 32016KT 15SM FEW040 BKN110 BKN260 21/11 A2971 RMK CU2AC3CI1 TCU ASOCTD NE SLP060

CYYZ;2009-05-29 23:47;CYYZ 292347Z 35016KT 8SM -SHRA SCT055 BKN085 19/ RMK CU3AC4 TCU ASOCTD

CYYZ;2009-05-30 00:00;CYYZ 300000Z 34023G28KT 4SM -SHRA FEW045 BKN050 BKN070 17/12 A2974 RMK CU2SC3AC2 TCU EMBD SLP070

CYYZ;2009-05-30 00:16;CYYZ 300016Z 31017G25KT 4SM -TSRA FEW045 BKN050 BKN070 16/ RMK CU2SC3AC2 CB EMBD LTGIC

CYYZ;2009-05-30 00:45;CYYZ 300045Z 11003KT 12SM -SHRA FEW030 BKN040 BKN070 15/ RMK CU2SC4AC2 CB EMBD

CYYZ;2009-05-30 01:00;CYYZ 300100Z 29007KT 8SM -SHRA FEW030 BKN055 BKN070 15/12 A2975 RMK CU2SC4AC2 CB EMBD SLP075

CYYZ;2009-05-30 01:52;CYYZ 300152Z 31006KT 12SM FEW040 BKN120 BKN160 15/ RMK SC2AC3AC2

CYYZ;2009-05-30 02:00;CYYZ 300200Z 31008KT 12SM FEW040 BKN120 BKN170 15/12 A2975 RMK SC2AC3AC2 SLP074

CYYZ;2009-05-30 03:00;CYYZ 300300Z 32008KT 15SM BKN033 OVC038 15/12 A2977 RMK SC5SC3 SLP081

CYYZ;2009-05-30 04:00;CYYZ 300400Z 31010G15KT 15SM FEW018 BKN040 14/11 A2977 RMK SC2SC4 SLP083

CYYZ;2009-05-30 05:00;CYYZ 300500Z 29007KT 15SM FEW030 12/09 A2977 RMK SC2 SLP083

CYYZ;2009-05-30 06:00;CYYZ 300600Z 29008KT 15SM SKC 11/06 A2977 RMK SLP080

CYYZ;2009-05-30 07:00;CYYZ 300700Z 27006KT 15SM SKC 08/05 A2977 RMK SLP080

CYYZ;2009-05-30 08:00;CYYZ 300800Z 29007KT 15SM SKC 08/05 A2977 RMK SLP080

CYYZ;2009-05-30 09:00;CYYZ 300900Z 31011KT 15SM FEW040 08/05 A2977 RMK SC2 SLP080

CYYZ;2009-05-30 10:00;CYYZ 301000Z 31005KT 15SM FEW030 08/05 A2977 RMK SC1 SLP083

CYYZ;2009-05-30 11:00;CYYZ 301100Z 30012KT 15SM FEW012 SCT022 09/06 A2980 RMK SC1SC2 SLP090

CYYZ;2009-05-30 11:49;CYYZ 301149Z 31009KT 15SM BKN012 BKN026 10/ RMK SC5SC1 HIER SC TR

CYYZ;2009-05-30 12:00;CYYZ 301200Z 31010KT 15SM BKN012 BKN026 10/07 A2980 RMK SC6SC1 HIER SC TR SLP092

CYYZ;2009-05-30 12:43;CYYZ 301243Z 32009KT 15SM FEW012 BKN016 BKN030 11/ RMK SC2SC4SC1

CYYZ;2009-05-30 13:00;CYYZ 301300Z 01006KT 15SM SCT016 SCT030 SCT230 12/08 A2980 RMK SC3SC1CI1 SLP092

CYYZ;2009-05-30 14:00;CYYZ 301400Z 28006KT 15SM FEW022 SCT240 13/08 A2981 RMK SC2CI0 SLP096

CYYZ;2009-05-30 15:00;CYYZ 301500Z 26003KT 15SM FEW024 FEW230 14/07 A2980 RMK SC1CI0 SLP093

CYYZ;2009-05-30 16:00;CYYZ 301600Z 23004KT 15SM FEW026 FEW120 FEW240 16/07 A2978 RMK CF1AC1CI1 SLP087

CYYZ;2009-05-30 17:00;CYYZ 301700Z 24009G18KT 15SM FEW053 FEW120 18/08 A2977 RMK CU2AC1 SLP081

CYYZ;2009-05-30 18:00;CYYZ 301800Z 28011G16KT 15SM SCT058 SCT082 SCT230 19/08 A2974 RMK CU3AC1CI1 SLP073

CYYZ;2009-05-30 19:00;CYYZ 301900Z 24019KT 15SM BKN056 BKN083 BKN110 19/08 A2973 RMK CU5AC1AC1 TCU ASOCTD N SLP067

CYYZ;2009-05-30 20:00;CYYZ 302000Z 22016KT 15SM BKN062 BKN073 20/09 A2970 RMK CU5AC1 TCU ASOCTD SE SLP057

CYYZ;2009-05-30 21:00;CYYZ 302100Z 22015G22KT 15SM FEW054 FEW072 19/10 A2967 RMK CU2AC1 SLP049

CYYZ;2009-05-30 22:00;CYYZ 302200Z 22015G22KT 15SM -SHRA SCT052TCU BKN130 BKN250 19/10 A2966 RMK TCU4AC2CI0 PCPN VRY LGT SLP044

CYYZ;2009-05-30 23:00;CYYZ 302300Z 22011G17KT 15SM -SHRA FEW055 SCT110 OVC170 19/09 A2964 RMK SC2AC2AC3 CB EMBD LTGIC NW PCPN VRY LGT SLP040

CYYZ;2009-05-30 23:15;CYYZ 302315Z 22013G20KT 15SM -TSRA FEW055 SCT072 BKN082 OVC150 18/ RMK SC2AC2AC2AC2 CB EMBD LTGCG NW

CYYZ;2009-05-30 23:26;CYYZ 302326Z 28035G43KT 3SM TSRA FEW040CB BKN050 OVC070 13/ RMK CB2SC3AC3 LTGCG NW - NE

CYYZ;2009-05-30 23:40;CYYZ 302340Z CCA 27016G28KT 12SM TSRA FEW040CB BKN063 OVC070 12/ RERA RMK CB2SC3AC2 LTGIG E DARK TWD E PRESRR

CYYZ;2009-05-30 23:56;CYYZ 302356Z 24011KT 15SM -SHRA FEW045 SCT060 BKN140 BKN250 13/ RERA RMK CU2SC2AC2CI0

CYYZ;2009-05-31 00:00;CYYZ 310000Z 24011KT 15SM -SHRA FEW045 SCT060 BKN140 BKN170 13/10 A2969 RERA RMK CU2SC2AC2AC2 PCPN VRY LGT SLP056

CYYZ;2009-05-31 00:20;CYYZ 310020Z 23009G15KT 15SM FEW050 FEW055 BKN070 BKN220 13/ RMK CU1SC2AC2CI2

CYYZ;2009-05-31 01:00;CYYZ 310100Z 24011KT 15SM FEW040 FEW057 BKN083 BKN110 BKN200 13/10 A2971 RMK SC1SC2AC2AC2CI1 SLP062

CYYZ;2009-05-31 02:00;CYYZ 310200Z 25007KT 15SM FEW040 FEW055 BKN080 BKN110 BKN200 13/10 A2972 RMK SC1SC2AC2AC2CI1 SLP067

CYYZ;2009-05-31 03:00;CYYZ 310300Z 26010G15KT 12SM FEW012 SCT056 BKN070 13/10 A2973 RMK SF1SC3AC4 SF TR SLP070

CYYZ;2009-05-31 03:25;CYYZ 310325Z CCA 28008KT 12SM -SHRA FEW012 FEW050 BKN067 13/ RMK SF1SC2AC5 PCPN VRY LGT SF TR

CYYZ;2009-05-31 04:00;CYYZ 310400Z 30017G27KT 8SM -SHRA FEW014 FEW045 BKN055 BKN070 12/09 A2974 RMK SF1SC2SC2AC2 SF TR SLP073

CYYZ;2009-05-31 04:40;CYYZ 310440Z 32014KT 15SM FEW050 BKN085 BKN093 10/ RMK SC2AC3AC2

CYYZ;2009-05-31 05:00;CYYZ 310500Z 31012KT 15SM FEW040 FEW085 BKN110 09/01 A2974 RMK SC1AC2AC2 SLP074

CYYZ;2009-05-31 06:00;CYYZ 310600Z 28011KT 15SM FEW060 SCT067 BKN085 09/01 A2976 RMK SC2AC2AC2 SLP078

CYYZ;2009-05-31 07:00;CYYZ 310700Z 28015G20KT 15SM FEW060 SCT100 07/M04 A2975 RMK SC2AC2 SLP076

CYYZ;2009-05-31 08:00;CYYZ 310800Z 29013KT 15SM FEW060 06/M04 A2975 RMK SC1 SLP075

CYYZ;2009-05-31 09:00;CYYZ 310900Z 31013KT 15SM FEW250 05/M04 A2977 RMK CI1 SLP083

CYYZ;2009-05-31 10:00;CYYZ 311000Z 29012KT 15SM FEW030 FEW080 05/M04 A2978 RMK CU1AC1 AC TR SLP086

CYYZ;2009-05-31 11:00;CYYZ 311100Z 29012KT 15SM FEW035 FEW100 05/M03 A2980 RMK CU1AC1 SLP094

CYYZ;2009-05-31 12:00;CYYZ 311200Z 29015KT 15SM FEW040 FEW100 06/M02 A2982 RMK CU1AC1 SLP101

CYYZ;2009-05-31 13:00;CYYZ 311300Z 27017KT 15SM FEW040 FEW100 08/M02 A2984 RMK CU1AC1 SLP107

CYYZ;2009-05-31 14:00;CYYZ 311400Z 31019G24KT 15SM FEW030 10/M02 A2985 RMK CF1 SLP111

CYYZ;2009-05-31 15:00;CYYZ 311500Z 31027G33KT 15SM FEW046 11/M02 A2986 RMK CU2 SLP113

CYYZ;2009-05-31 16:00;CYYZ 311600Z 29025G35KT 15SM FEW058 12/M02 A2987 RMK CU2 SLP116

CYYZ;2009-05-31 17:00;CYYZ 311700Z 29023G37KT 15SM SCT060 12/M02 A2989 RMK CU3 SLP122

CYYZ;2009-05-31 18:00;CYYZ 311800Z 31022G32KT 15SM SCT062 13/M01 A2991 RMK CU3 SLP131

CYYZ;2009-05-31 19:00;CYYZ 311900Z 31019G28KT 15SM FEW058 12/M02 A2995 RMK CU2 SLP143

CYYZ;2009-05-31 20:00;CYYZ 312000Z 28019G29KT 15SM FEW056 FEW100 FEW250 11/M02 A2996 RMK CU1AC1CI0 AC TR SLP147

CYYZ;2009-05-31 21:00;CYYZ 312100Z 29018G27KT 15SM FEW055 FEW100 FEW250 12/M02 A2996 RMK CU1AC1CI1 SLP150

CYYZ;2009-05-31 22:00;CYYZ 312200Z 29017G25KT 15SM FEW052 FEW250 12/M02 A2997 RMK CF1CI0 SLP152

CYYZ;2009-05-31 23:00;CYYZ 312300Z 28017G27KT 15SM FEW250 12/M01 A2998 RMK CI1 SLP158

CYYZ;2009-06-01 01:00;CYYZ 010100Z 29010KT 15SM FEW180 FEW260 10/M01 A3001 RMK AC1CI1 SLP167

CYYZ;2009-06-01 02:00;CYYZ 010200Z 28005KT 15SM FEW270 08/M01 A3002 RMK CI1 SLP171

CYYZ;2009-06-01 03:00;CYYZ 010300Z 27007KT 15SM BKN240 08/M01 A3004 RMK CS5 SLP176

CYYZ;2009-06-01 04:00;CYYZ 010400Z 28005KT 15SM OVC160 09/M00 A3004 RMK AS8 SLP177

CYYZ;2009-06-01 05:00;CYYZ 010500Z 28004KT 15SM OVC140 09/01 A3004 RMK AS8 SLP175

CYYZ;2009-06-01 06:00;CYYZ 010600Z 27003KT 15SM FEW120 OVC150 09/01 A3003 RMK AC1AC7 SLP171

CYYZ;2009-06-01 07:00;CYYZ 010700Z 00000KT 15SM FEW075 BKN092 09/M00 A3002 RMK AC1AC5 SLP170

CYYZ;2009-06-01 08:00;CYYZ 010800Z 22002KT 15SM FEW080 BKN100 09/02 A3003 RMK AC1AC7 SLP172

CYYZ;2009-06-01 09:00;CYYZ 010900Z 13003KT 15SM BKN098 09/02 A3002 RMK AC7 SLP168

CYYZ;2009-06-01 10:00;CYYZ 011000Z 14003KT 15SM BKN090 09/02 A3003 RMK AC7 SLP171

CYYZ;2009-06-01 11:00;CYYZ 011100Z 13004KT 15SM BKN097 BKN120 09/03 A3004 RMK AC6AC2 SLP174

CYYZ;2009-06-01 12:00;CYYZ 011200Z 15005KT 15SM BKN076 OVC120 10/03 A3004 RMK AC6AC2 SLP177

CYYZ;2009-06-01 13:00;CYYZ 011300Z 14004KT 15SM BKN090 10/04 A3003 RMK AC7 SLP172

CYYZ;2009-06-01 14:00;CYYZ 011400Z 14006KT 15SM OVC089 11/04 A3002 RMK AC8 SLP169

CYYZ;2009-06-01 15:00;CYYZ 011500Z 15006KT 15SM -SHRA BKN076 OVC091 11/06 A3002 RMK AC6AC2 SLP169

CYYZ;2009-06-01 16:00;CYYZ 011600Z 15006KT 15SM -SHRA BKN064 OVC079 11/07 A3001 RMK SC6AC2 SLP168

CYYZ;2009-06-01 16:29;CYYZ 011629Z 14008KT 15SM FEW065 BKN084 OVC100 11/ RMK SC2AC4AC2

CYYZ;2009-06-01 17:00;CYYZ 011700Z 13009KT 15SM FEW062 SCT076 OVC091 10/07 A2997 RMK SC2AC2AC4 SLP153

CYYZ;2009-06-01 17:49;CYYZ 011749Z 13006KT 15SM -SHRA FEW060 OVC084 11/ RMK SC2AC6

CYYZ;2009-06-01 18:00;CYYZ 011800Z 14005KT 15SM -SHRA FEW060 OVC084 11/06 A2996 RMK SC2AC6 SLP150

CYYZ;2009-06-01 18:53;CYYZ 011853Z 12006KT 15SM FEW065 OVC085 12/ RMK SC1AC7

CYYZ;2009-06-01 19:00;CYYZ 011900Z 14007KT 15SM FEW065 OVC086 12/07 A2992 RMK SC1AC7 SLP136

CYYZ;2009-06-01 20:00;CYYZ 012000Z 14007KT 15SM BKN056 BKN079 14/07 A2989 RMK SC5AC2 SLP126

CYYZ;2009-06-01 21:00;CYYZ 012100Z 16007KT 15SM BKN034 BKN086 15/08 A2986 RMK SC5AC1 SLP112

CYYZ;2009-06-01 22:00;CYYZ 012200Z 19006KT 15SM FEW033 BKN049 BKN090 16/09 A2986 RMK SC2SC2AC2 SLP112

CYYZ;2009-06-01 23:00;CYYZ 012300Z 16004KT 15SM OVC028 16/10 A2985 RMK SC8 SLP111

CYYZ;2009-06-02 00:00;CYYZ 020000Z 26012G18KT 15SM FEW026 OVC040 17/12 A2987 RMK SF2SC6 SLP117

CYYZ;2009-06-02 01:00;CYYZ 020100Z 27014KT 15SM BKN018 OVC025 17/14 A2988 RMK SF6SC2 SLP119

CYYZ;2009-06-02 02:00;CYYZ 020200Z CCA 31010G15KT 15SM SCT022 OVC026 16/12 A2992 RMK SF3SF5 PRESRR SLP134

CYYZ;2009-06-02 03:00;CYYZ 020300Z 31011KT 15SM FEW022 BKN028 15/11 A2995 RMK SF1SF6 SLP144

CYYZ;2009-06-02 04:00;CYYZ 020400Z 33014KT 15SM FEW022 BKN270 13/09 A2993 RMK SF1CS1 SLP137

CYYZ;2009-06-02 05:00;CYYZ 020500Z 34012G19KT 15SM FEW016 SCT270 11/08 A2995 RMK SF2CS0 SLP146

CYYZ;2009-06-02 06:00;CYYZ 020600Z 34015G20KT 15SM FEW015 10/07 A2997 RMK SF2 SLP151

CYYZ;2009-06-02 07:00;CYYZ 020700Z 35016KT 15SM OVC015 11/07 A2999 RMK SC8 SLP160

CYYZ;2009-06-02 08:00;CYYZ 020800Z 35018KT 15SM BKN017 10/05 A3000 RMK SC7 SLP161

CYYZ;2009-06-02 09:00;CYYZ 020900Z 34015KT 15SM OVC015 09/05 A3002 RMK SC7 SLP167

CYYZ;2009-06-02 10:00;CYYZ 021000Z 33009KT 15SM OVC017 10/06 A3004 RMK SC8 SLP174

CYYZ;2009-06-02 11:00;CYYZ 021100Z 36008KT 15SM OVC019 10/06 A3006 RMK SC8 SLP182

CYYZ;2009-06-02 12:00;CYYZ 021200Z 02006KT 15SM BKN021 BKN140 10/06 A3008 RMK SC6AC1 SLP189

CYYZ;2009-06-02 13:00;CYYZ 021300Z 03004KT 15SM FEW020 BKN025 BKN150 11/06 A3010 RMK CU2SC3AC2 SLP195

CYYZ;2009-06-02 14:00;CYYZ 021400Z 35008KT 15SM SCT025 BKN150 BKN260 13/07 A3010 RMK CU3AC2CI1 SLP193

CYYZ;2009-06-02 15:00;CYYZ 021500Z 01009KT 15SM FEW028 BKN150 BKN240 14/07 A3010 RMK CU2AC2CI1 SLP194

CYYZ;2009-06-02 16:00;CYYZ 021600Z 35003KT 15SM FEW030 SCT160 BKN240 14/07 A3009 RMK CU2AC2CI2 SLP192

CYYZ;2009-06-02 17:00;CYYZ 021700Z 02003KT 15SM FEW035 FEW160 BKN260 16/07 A3007 RMK CU1AC2CI2 SLP186

CYYZ;2009-06-02 18:00;CYYZ 021800Z 13008KT 15SM FEW035 FEW160 BKN240 16/09 A3007 RMK CU1AC2CI2 SLP183

CYYZ;2009-06-02 19:00;CYYZ 021900Z 17008KT 15SM FEW035 SCT150 BKN240 16/08 A3007 RMK CU1AC3CI2 SLP183

CYYZ;2009-06-02 20:00;CYYZ 022000Z 14008KT 15SM FEW045 SCT180 BKN240 15/07 A3007 RMK CU1AC2CI2 SLP185

CYYZ;2009-06-02 21:00;CYYZ 022100Z 17007KT 15SM FEW045 OVC140 14/07 A3007 RMK SC1AC6 SLP186

CYYZ;2009-06-02 22:00;CYYZ 022200Z 15005KT 15SM FEW045 SCT120 BKN160 14/07 A3006 RMK SC1AC2AC3 SLP181

CYYZ;2009-06-02 23:00;CYYZ 022300Z 17003KT 15SM FEW045 BKN160 BKN180 14/06 A3004 RMK SC1AC6AC1 SLP176

CYYZ;2009-06-03 00:00;CYYZ 030000Z 00000KT 15SM FEW045 FEW150 BKN180 15/06 A3005 RMK SC1AC2AC5 SLP178

CYYZ;2009-06-03 01:00;CYYZ 030100Z 35008KT 15SM FEW190 BKN270 13/06 A3006 RMK AC2CI1 SLP181

CYYZ;2009-06-03 02:00;CYYZ 030200Z 35009KT 15SM BKN250 12/04 A3008 RMK CI3 SLP189

CYYZ;2009-06-03 03:00;CYYZ 030300Z 35009KT 15SM FEW220 11/03 A3009 RMK CI1 SLP192

CYYZ;2009-06-03 04:00;CYYZ 030400Z 35007KT 15SM FEW180 FEW240 10/03 A3009 RMK AC1CI0 SLP191

CYYZ;2009-06-03 05:00;CYYZ 030500Z 35007KT 15SM FEW260 09/03 A3008 RMK CI1 SLP189

CYYZ;2009-06-03 06:00;CYYZ 030600Z 35002KT 15SM FEW260 09/03 A3008 RMK CI1 SLP188

CYYZ;2009-06-03 07:00;CYYZ 030700Z 33002KT 15SM BKN130 08/03 A3007 RMK AC6 SLP187

CYYZ;2009-06-03 08:00;CYYZ 030800Z 36006KT 15SM BKN130 08/03 A3007 RMK AC4 SLP185

CYYZ;2009-06-03 09:00;CYYZ 030900Z 02004KT 15SM SCT130 BKN270 08/04 A3007 RMK AC3CI0 SLP186

CYYZ;2009-06-03 10:00;CYYZ 031000Z 36002KT 15SM SCT120 BKN270 08/04 A3009 RMK AC2CI2 SLP191

CYYZ;2009-06-03 11:00;CYYZ 031100Z 32005KT 15SM SCT120 BKN260 09/04 A3010 RMK AC2CI2 SLP194

CYYZ;2009-06-03 12:00;CYYZ 031200Z 01004KT 15SM FEW120 BKN260 11/05 A3010 RMK AC2CI2 SLP197

CYYZ;2009-06-03 13:00;CYYZ 031300Z 00000KT 15SM FEW140 BKN240 12/05 A3011 RMK AC2CI2 SLP199

CYYZ;2009-06-03 14:00;CYYZ 031400Z 00000KT 15SM FEW160 BKN240 14/05 A3010 RMK AC1CI3 SLP197

CYYZ;2009-06-03 15:00;CYYZ 031500Z 22002KT 15SM FEW040 FEW160 BKN240 16/06 A3010 RMK CU1AC1CI3 AC TR SLP194

CYYZ;2009-06-03 16:00;CYYZ 031600Z 24005KT 15SM FEW040 FEW160 BKN240 17/08 A3008 RMK CU2AC1CI3 AC TR SLP189

CYYZ;2009-06-03 17:00;CYYZ 031700Z 19005KT 15SM SCT052 BKN240 17/08 A3006 RMK CU3CI2 SLP182

CYYZ;2009-06-03 18:00;CYYZ 031800Z 14008KT 15SM BKN052 OVC250 16/07 A3005 RMK CU5CI2 SLP178

CYYZ;2009-06-03 19:00;CYYZ 031900Z 14008KT 15SM SCT053 BKN078 OVC250 16/07 A3003 RMK CU3AC2CI2 SLP172

CYYZ;2009-06-03 20:00;CYYZ 032000Z 31012G17KT 15SM SCT056 BKN074 BKN240 18/07 A3003 RMK CU3AC2CI1 SLP171

CYYZ;2009-06-03 21:00;CYYZ 032100Z 30014G19KT 15SM SCT056 BKN230 18/06 A3003 RMK CU3CI2 SLP170

CYYZ;2009-06-03 22:00;CYYZ 032200Z 29013KT 15SM FEW060 BKN240 18/05 A3002 RMK CU2CI2 SLP168

CYYZ;2009-06-03 23:00;CYYZ 032300Z 01012KT 15SM FEW050 BKN230 17/07 A3002 RMK CU1CI2 CONTRAIL SLP169

CYYZ;2009-06-04 00:00;CYYZ 040000Z 01012G19KT 15SM FEW050 BKN230 15/06 A3003 RMK CU1CI2 CONTRAIL SLP171

CYYZ;2009-06-04 01:00;CYYZ 040100Z 36014KT 15SM BKN230 14/04 A3004 RMK CI2 CONTRAIL SLP175

CYYZ;2009-06-04 02:00;CYYZ 040200Z 35010KT 15SM FEW030 SCT230 12/03 A3006 RMK SC1CI1 SC TR SLP182

CYYZ;2009-06-04 03:00;CYYZ 040300Z 36009G15KT 15SM FEW230 12/03 A3007 RMK CI1 SLP183

CYYZ;2009-06-04 04:00;CYYZ 040400Z 34008KT 15SM FEW230 10/03 A3007 RMK CI1 SLP183

CYYZ;2009-06-04 05:00;CYYZ 040500Z 34009KT 15SM SKC 09/04 A3008 RMK SLP187

CYYZ;2009-06-04 06:00;CYYZ 040600Z 34010KT 15SM SKC 08/03 A3008 RMK SLP189

CYYZ;2009-06-04 07:00;CYYZ 040700Z 35010KT 15SM SKC 07/02 A3008 RMK SLP189

CYYZ;2009-06-04 08:00;CYYZ 040800Z 34008KT 15SM SKC 07/03 A3007 RMK SLP185

CYYZ;2009-06-04 09:00;CYYZ 040900Z 34005KT 15SM FEW230 07/03 A3007 RMK CI1 SLP187

CYYZ;2009-06-04 10:00;CYYZ 041000Z 36008KT 15SM FEW120 SCT240 07/03 A3007 RMK AC1CI2 SLP186

CYYZ;2009-06-04 11:00;CYYZ 041100Z 01006KT 15SM FEW140 SCT240 09/03 A3008 RMK AC1CI2 SLP189

CYYZ;2009-06-04 12:00;CYYZ 041200Z 36005KT 15SM BKN240 11/05 A3008 RMK CI2 SLP190

CYYZ;2009-06-04 13:00;CYYZ 041300Z 01003KT 15SM SCT240 13/06 A3009 RMK CI2 SLP191

CYYZ;2009-06-04 14:00;CYYZ 041400Z CCA 15005KT 15SM FEW040 FEW250 16/06 A3009 RMK CU1CI1 SLP192

CYYZ;2009-06-04 15:00;CYYZ 041500Z 13005KT 15SM FEW040 SCT250 16/06 A3008 RMK CU2CI1 SLP189

CYYZ;2009-06-04 16:00;CYYZ 041600Z 14009KT 15SM FEW045 SCT250 16/06 A3008 RMK CU2CI1 SLP187

CYYZ;2009-06-04 17:00;CYYZ 041700Z 13007KT 15SM SCT045 BKN250 17/07 A3007 RMK CU3CI1 SLP184

CYYZ;2009-06-04 18:00;CYYZ 041800Z 14007KT 15SM SCT050 BKN250 17/07 A3006 RMK CU3CI1 SLP180

CYYZ;2009-06-04 19:00;CYYZ 041900Z 13005KT 15SM SCT050 BKN250 17/06 A3004 RMK CU3CI0 SLP176

CYYZ;2009-06-04 20:00;CYYZ 042000Z 14008KT 15SM FEW050 BKN250 17/06 A3003 RMK CU2CI2 SLP172

CYYZ;2009-06-04 21:00;CYYZ 042100Z 17007KT 15SM FEW050 BKN260 18/06 A3002 RMK CU2CI2 SLP167

CYYZ;2009-06-04 22:00;CYYZ 042200Z 14005KT 15SM FEW050 BKN260 18/06 A3000 RMK CU2CI2 SLP162

CYYZ;2009-06-04 23:00;CYYZ 042300Z 13007KT 15SM FEW050 BKN260 17/04 A3000 RMK CU1CI2 SLP160

CYYZ;2009-06-05 00:00;CYYZ 050000Z 14004KT 15SM FEW045 BKN250 17/04 A3000 RMK CU1CI2 CONTRAIL SLP162

CYYZ;2009-06-05 01:00;CYYZ 050100Z 15006KT 15SM FEW120 BKN250 14/05 A3001 RMK AC1CI1 SLP163

CYYZ;2009-06-05 02:00;CYYZ 050200Z 11002KT 15SM FEW090 BKN250 13/06 A3001 RMK AC1CI1 AC TR SLP165

CYYZ;2009-06-05 03:00;CYYZ 050300Z 00000KT 15SM FEW090 BKN250 12/05 A3002 RMK AC1CI1 AC TR SLP168

CYYZ;2009-06-05 04:00;CYYZ 050400Z 02004KT 15SM BKN250 12/05 A3001 RMK CI1 SLP166

CYYZ;2009-06-05 05:00;CYYZ 050500Z 03003KT 15SM BKN250 12/04 A3000 RMK CI1 SLP161

CYYZ;2009-06-05 06:00;CYYZ 050600Z 03003KT 15SM BKN250 12/04 A3000 RMK CI1 SLP159

CYYZ;2009-06-05 07:00;CYYZ 050700Z 00000KT 15SM SCT250 11/04 A2998 RMK CI1 SLP154

CYYZ;2009-06-05 08:00;CYYZ 050800Z 01003KT 15SM SKC 09/03 A2997 RMK SLP151

CYYZ;2009-06-05 09:00;CYYZ 050900Z 34003KT 15SM FEW230 07/02 A2997 RMK CI1 SLP151

CYYZ;2009-06-05 10:00;CYYZ 051000Z 00000KT 15SM FEW120 FEW230 08/02 A2997 RMK AC1CI1 SLP151

CYYZ;2009-06-05 11:00;CYYZ 051100Z 05003KT 15SM FEW140 FEW250 10/04 A2997 RMK AC1CI1 SLP152

CYYZ;2009-06-05 12:00;CYYZ 051200Z 03002KT 15SM FEW140 FEW250 12/05 A2997 RMK AC1CI1 SLP149

CYYZ;2009-06-05 13:00;CYYZ 051300Z 13004KT 15SM FEW250 15/05 A2997 RMK CI1 SLP149

CYYZ;2009-06-05 14:00;CYYZ 051400Z 14004KT 15SM FEW250 17/06 A2996 RMK CI1 SLP148

CYYZ;2009-06-05 15:00;CYYZ 051500Z 11006KT 15SM FEW250 18/05 A2995 RMK CI1 SLP145

CYYZ;2009-06-05 16:00;CYYZ 051600Z 11008KT 15SM FEW250 18/04 A2995 RMK CI1 SLP143

CYYZ;2009-06-05 17:00;CYYZ 051700Z 12006KT 15SM FEW045 FEW250 19/03 A2993 RMK CU1CI1 SLP138

CYYZ;2009-06-05 18:00;CYYZ 051800Z 14006KT 15SM FEW050 FEW140 FEW250 19/03 A2992 RMK CU1AC1CI1 SLP131

CYYZ;2009-06-05 19:00;CYYZ 051900Z 13008KT 15SM FEW050 FEW240 20/05 A2989 RMK CU1CI1 SLP124

CYYZ;2009-06-05 20:00;CYYZ 052000Z 12006KT 15SM FEW050 FEW240 20/07 A2987 RMK CU1CI1 SLP116

CYYZ;2009-06-05 21:00;CYYZ 052100Z 19007KT 15SM FEW050 FEW240 21/08 A2986 RMK CU1CI1 SLP114

CYYZ;2009-06-05 22:00;CYYZ 052200Z 15009KT 15SM FEW050 FEW240 18/06 A2985 RMK SC1CI1 SLP111

CYYZ;2009-06-05 23:00;CYYZ 052300Z 15010KT 15SM FEW045 17/05 A2985 RMK CF1 SLP110

CYYZ;2009-06-06 00:00;CYYZ 060000Z 16005KT 15SM SKC 15/05 A2984 RMK SLP108

CYYZ;2009-06-06 01:00;CYYZ 060100Z 17004KT 15SM FEW040 FEW240 14/05 A2984 RMK CF1CI1 SLP107

CYYZ;2009-06-06 02:00;CYYZ 060200Z 22002KT 15SM FEW040 FEW240 14/05 A2985 RMK CF1CI1 SLP110

CYYZ;2009-06-06 03:00;CYYZ 060300Z 30005KT 15SM FEW040 14/05 A2987 RMK CF1 SLP115

CYYZ;2009-06-06 04:00;CYYZ 060400Z 00000KT 15SM SKC 14/05 A2986 RMK SLP113

CYYZ;2009-06-06 05:00;CYYZ 060500Z 16002KT 15SM SKC 14/05 A2986 RMK SLP111

CYYZ;2009-06-06 06:00;CYYZ 060600Z 19002KT 15SM SKC 13/05 A2986 RMK SLP111

CYYZ;2009-06-06 07:00;CYYZ 060700Z 22004KT 15SM SKC 12/06 A2984 RMK SLP107

CYYZ;2009-06-06 08:00;CYYZ 060800Z 31004KT 15SM SKC 12/06 A2986 RMK SLP114

CYYZ;2009-06-06 09:00;CYYZ 060900Z 31005KT 15SM FEW060 12/05 A2987 RMK SC1 SLP117

CYYZ;2009-06-06 10:00;CYYZ 061000Z 34006KT 15SM SCT110 12/05 A2989 RMK AC4 SLP121

CYYZ;2009-06-06 11:00;CYYZ 061100Z 35009KT 15SM FEW120 13/06 A2990 RMK AC2 SLP125

CYYZ;2009-06-06 12:00;CYYZ 061200Z 36005KT 15SM SCT100 14/07 A2991 RMK AC4 SLP131

CYYZ;2009-06-06 13:00;CYYZ 061300Z CCA 32006KT 15SM FEW080 BKN110 15/07 A2994 RMK AC2AC4 SLP140

CYYZ;2009-06-06 14:00;CYYZ 061400Z 33004KT 15SM FEW073 BKN098 16/07 A2995 RMK ACC2AC3 SLP144

CYYZ;2009-06-06 15:00;CYYZ 061500Z 33004KT 15SM FEW120 FEW260 18/09 A2996 RMK AC2CI0 SLP146

CYYZ;2009-06-06 16:00;CYYZ 061600Z 36003KT 15SM FEW045 FEW140 FEW260 19/09 A2996 RMK CU1AC1CI0 CU TR SLP146

CYYZ;2009-06-06 17:00;CYYZ 061700Z 30003KT 15SM FEW075 BKN240 20/08 A2995 RMK AC1CI2 SLP144

CYYZ;2009-06-06 18:00;CYYZ 061800Z 19003KT 15SM FEW070 BKN240 21/10 A2995 RMK AC1CI2 SLP142

CYYZ;2009-06-06 19:00;CYYZ 061900Z 27012KT 15SM FEW060 BKN240 22/07 A2995 RMK CU1CI2 SLP143

CYYZ;2009-06-06 20:00;CYYZ 062000Z 30018KT 15SM FEW060 BKN240 23/06 A2996 RMK CU1CI2 SLP145

CYYZ;2009-06-06 21:00;CYYZ 062100Z 31009G21KT 15SM FEW060 FEW160 BKN240 22/06 A2996 RMK CU1AC1CI2 AC TR SLP145

CYYZ;2009-06-06 22:00;CYYZ 062200Z 31013G18KT 15SM FEW160 BKN250 22/05 A2996 RMK AC2CI2 SLP146

CYYZ;2009-06-06 23:00;CYYZ 062300Z 31012G17KT 15SM BKN120 BKN270 20/04 A2998 RMK AC6CI2 SLP151

CYYZ;2009-06-07 00:00;CYYZ 070000Z 35010KT 15SM BKN110 18/08 A2998 RMK AC7 SLP154

CYYZ;2009-06-07 01:00;CYYZ 070100Z 36009KT 15SM BKN130 BKN160 16/06 A2998 RMK AC6AC1 SLP154

CYYZ;2009-06-07 02:00;CYYZ 070200Z 33012KT 15SM OVC150 15/05 A3001 RMK AS8 SLP164

CYYZ;2009-06-07 03:00;CYYZ 070300Z 01011KT 15SM BKN110 OVC140 14/04 A3001 RMK AS7AS1 SLP163

CYYZ;2009-06-07 04:00;CYYZ 070400Z 35007KT 15SM BKN088 OVC130 14/05 A3002 RMK AS6AS2 SLP166

CYYZ;2009-06-07 05:00;CYYZ 070500Z 35008KT 15SM OVC088 14/05 A3004 RMK AS8 SLP172

CYYZ;2009-06-07 06:00;CYYZ 070600Z 32004KT 15SM OVC082 14/05 A3004 RMK AS8 SLP172

CYYZ;2009-06-07 06:46;CYYZ 070646Z 33007KT 15SM -SHRA OVC072 14/ RMK AS8

CYYZ;2009-06-07 07:00;CYYZ 070700Z 33005KT 15SM -SHRA BKN066 OVC075 14/04 A3004 RMK AC6AS2 SLP175

CYYZ;2009-06-07 07:34;CYYZ 070734Z 01005KT 15SM BKN075 OVC085 13/ RMK AC7AS1

CYYZ;2009-06-07 08:00;CYYZ 070800Z 33006KT 15SM OVC068 13/04 A3005 RMK AS8 SLP176

CYYZ;2009-06-07 09:00;CYYZ 070900Z 02011KT 15SM BKN080 OVC090 12/04 A3003 RMK AS5AS3 SLP169

CYYZ;2009-06-07 10:00;CYYZ 071000Z 36009KT 15SM OVC064 12/05 A3005 RMK SC8 SLP176

CYYZ;2009-06-07 10:10;CYYZ 071010Z 35010KT 15SM -SHRA OVC064 11/ RMK SC8

CYYZ;2009-06-07 10:41;CYYZ 071041Z 02011KT 15SM FEW064 OVC090 11/ RMK SC2AC6

CYYZ;2009-06-07 11:00;CYYZ 071100Z 02010G17KT 15SM FEW063 BKN072 OVC088 11/05 A3003 RMK SC2AC3AC3 SLP171

CYYZ;2009-06-07 12:00;CYYZ 071200Z 05005KT 15SM -SHRA FEW062 BKN082 OVC092 10/05 A3004 RMK SC2AC3AC3 SLP175

CYYZ;2009-06-07 12:26;CYYZ 071226Z 05005KT 15SM FEW064 OVC110 11/ RMK SC2AC6

CYYZ;2009-06-07 13:00;CYYZ 071300Z 09003KT 15SM FEW075 OVC110 11/05 A3004 RMK AC2AC6 SLP176

CYYZ;2009-06-07 14:00;CYYZ 071400Z 05006KT 15SM FEW092 OVC120 12/06 A3004 RMK AC2AC6 SLP175

CYYZ;2009-06-07 15:00;CYYZ 071500Z 11004KT 15SM FEW040 SCT082 BKN130 13/07 A3003 RMK CU2AC2AC3 SLP172

CYYZ;2009-06-07 16:00;CYYZ 071600Z 03002KT 15SM FEW040 SCT100 BKN120 14/07 A3003 RMK CU2AC2AC3 SLP171

CYYZ;2009-06-07 17:00;CYYZ 071700Z 03005KT 15SM FEW040 BKN094 BKN140 16/07 A3001 RMK CU2AC3AC2 SLP165

CYYZ;2009-06-07 18:00;CYYZ 071800Z 09004KT 15SM FEW040 BKN095 BKN240 17/08 A3002 RMK CU1AC5CI2 SLP167

CYYZ;2009-06-07 19:00;CYYZ 071900Z 03006KT 15SM FEW040 BKN090 BKN240 18/08 A3000 RMK CU2AC4CI2 SLP161

CYYZ;2009-06-07 20:00;CYYZ 072000Z 15005KT 15SM FEW040 BKN082 OVC130 18/06 A3000 RMK CU2AC5AC2 SLP161

CYYZ;2009-06-07 21:00;CYYZ 072100Z 16006KT 15SM FEW040 BKN084 BKN120 17/09 A3000 RMK CU1AC6AC2 CU TR SLP161

CYYZ;2009-06-07 22:00;CYYZ 072200Z 13009KT 15SM FEW040 BKN085 BKN170 16/09 A3001 RMK CU1AC4AC2 SLP162

CYYZ;2009-06-07 23:00;CYYZ 072300Z 12007KT 15SM FEW040 BKN075 OVC090 15/08 A3001 RMK SC1AC4AC3 SLP163

CYYZ;2009-06-08 00:00;CYYZ 080000Z 16009KT 15SM BKN076 OVC090 14/08 A3001 RMK AC6AC2 SLP165

CYYZ;2009-06-08 01:00;CYYZ 080100Z 09008KT 15SM FEW075 BKN086 BKN150 13/08 A3002 RMK AC2AC3AC2 SLP168

CYYZ;2009-06-08 02:00;CYYZ 080200Z 09006KT 15SM SCT082 BKN092 BKN150 14/08 A3004 RMK AC3AC2AC2 SLP176

CYYZ;2009-06-08 03:00;CYYZ 080300Z 11004KT 15SM BKN080 BKN150 14/07 A3005 RMK AC6AC2 SLP179

CYYZ;2009-06-08 04:00;CYYZ 080400Z 11005KT 15SM OVC080 14/07 A3006 RMK AC8 SLP180

CYYZ;2009-06-08 05:00;CYYZ 080500Z 09006KT 15SM SCT070 BKN160 13/08 A3005 RMK AC3AC4 SLP178

CYYZ;2009-06-08 06:00;CYYZ 080600Z 07007KT 15SM BKN067 BKN150 13/08 A3007 RMK AC6AC2 SLP183

CYYZ;2009-06-08 07:00;CYYZ 080700Z 06008KT 15SM FEW045 BKN072 13/08 A3006 RMK SC2AC5 SLP181

CYYZ;2009-06-08 08:00;CYYZ 080800Z 08004KT 15SM BKN073 13/07 A3006 RMK AC6 SLP180

CYYZ;2009-06-08 09:00;CYYZ 080900Z 09006KT 15SM BKN080 12/07 A3004 RMK AC6 SLP175

CYYZ;2009-06-08 10:00;CYYZ 081000Z 09005KT 15SM FEW080 SCT120 BKN240 12/07 A3004 RMK AC2AC2CI1 SLP173

CYYZ;2009-06-08 11:00;CYYZ 081100Z 09006KT 15SM BKN075 BKN260 13/07 A3003 RMK AC5CI1 SLP172

CYYZ;2009-06-08 12:00;CYYZ 081200Z 10010KT 15SM SCT041 BKN120 BKN260 14/07 A3005 RMK SC3AC2CI1 SLP178

CYYZ;2009-06-08 13:00;CYYZ 081300Z 10010KT 15SM SCT042 BKN120 BKN260 15/06 A3005 RMK SC3AC2CI1 SLP179

CYYZ;2009-06-08 14:00;CYYZ 081400Z 11012G19KT 15SM SCT043 BKN140 BKN250 15/06 A3004 RMK SC3AC2CI1 SLP173

CYYZ;2009-06-08 15:00;CYYZ 081500Z 10012KT 15SM FEW044 OVC076 15/06 A3005 RMK SC2AC6 SLP179

CYYZ;2009-06-08 16:00;CYYZ 081600Z 09010G16KT 15SM FEW042 SCT078 OVC140 15/06 A3004 RMK SC2AC2AC4 SLP175

CYYZ;2009-06-08 17:00;CYYZ 081700Z 08014G19KT 15SM FEW062 SCT097 OVC160 15/05 A3003 RMK SC2AC2AC4 SLP172

CYYZ;2009-06-08 17:42;CYYZ 081742Z 10010KT 12SM -SHRA FEW045 BKN071 OVC140 15/ RMK SC2AC3AC3

CYYZ;2009-06-08 18:00;CYYZ 081800Z 10009KT 10SM -SHRA BKN058 OVC095 15/06 A3003 RMK SC6AC2 SLP170

CYYZ;2009-06-08 19:00;CYYZ 081900Z 11007KT 10SM -SHRA SCT046 BKN063 OVC071 14/08 A2999 RMK SC3SC2AC2 SLP158

CYYZ;2009-06-08 19:29;CYYZ 081929Z 09010G16KT 15SM FEW063 OVC086 14/ RMK SC2AC6

CYYZ;2009-06-08 20:00;CYYZ 082000Z 11008KT 15SM FEW058 BKN068 BKN130 15/08 A2996 RMK SC2AC3AC2 SLP149

CYYZ;2009-06-08 21:00;CYYZ 082100Z 12008KT 15SM FEW035 BKN051 OVC120 16/07 A2994 RMK SC2SC3AC2 SLP139

CYYZ;2009-06-08 22:00;CYYZ 082200Z 11007KT 15SM BKN035 OVC048 15/05 A2994 RMK SC6SC2 SLP139

CYYZ;2009-06-08 23:00;CYYZ 082300Z 10010G18KT 15SM OVC030 15/05 A2992 RMK SC8 SLP134

CYYZ;2009-06-09 00:00;CYYZ 090000Z 10011G20KT 15SM OVC029 15/05 A2990 RMK SC8 SLP127

CYYZ;2009-06-09 01:00;CYYZ 090100Z 10013KT 15SM SCT025 OVC032 15/06 A2989 RMK SC3SC5 SLP125

CYYZ;2009-06-09 02:00;CYYZ 090200Z 11011G16KT 15SM BKN023 BKN032 OVC110 15/07 A2988 RMK SC5SC2AC2 SLP119

CYYZ;2009-06-09 02:48;CYYZ 090248Z CCA 09011G16KT 12SM -TSRA BKN020 OVC052CB 14/ RMK SC6CB2 LTCCCCG S

CYYZ;2009-06-09 03:00;CYYZ 090300Z 09015KT 10SM -TSRA BKN019 OVC050CB 13/08 A2985 RMK SC6CB2 LTGCCCG S SLP109

CYYZ;2009-06-09 04:00;CYYZ 090400Z CCA 08013KT 10SM +TSRA BKN023 BKN037CB OVC070 13/09 A2983 RMK SC5CB2AC1 LTGIC W SLP101

CYYZ;2009-06-09 05:00;CYYZ 090500Z 11004KT 4SM -TSRA BKN022 OVC030CB 12/10 A2985 RERA RMK SC5CB3 OVRHD MOVG E OCNL LTGICCCCG OVRHD SLP109

CYYZ;2009-06-09 06:00;CYYZ 090600Z 07007KT 4SM -TSRA BKN006 BKN025CB OVC150 12/10 A2979 RERA RMK SF5CB2AC2 OCNL LTGICCC E PRESFR SLP088

CYYZ;2009-06-09 06:18;CYYZ 090618Z 08009KT 4SM -SHRA BR BKN005 OVC150 12/ RETS RMK SF6AC2 PCPN VRY LGT

CYYZ;2009-06-09 06:35;CYYZ 090635Z CCA 09007KT 4SM BR BKN005 BKN075 OVC240 12/ RETS RMK SF6AC2CI1

CYYZ;2009-06-09 07:00;CYYZ 090700Z 10006KT 6SM BR BKN004 OVC015 12/10 A2978 RETS RMK SF6SC2 SLP085

CYYZ;2009-06-09 08:00;CYYZ 090800Z 09005KT 6SM BR BKN004 OVC015 12/11 A2976 RMK SF6SC2 SLP079

CYYZ;2009-06-09 09:00;CYYZ 090900Z 08004KT 4SM BR BKN006 12/11 A2976 RMK SF6 SLP079

CYYZ;2009-06-09 09:25;CYYZ 090925Z 09002KT 4SM BR BKN003 12/ RMK SF7

CYYZ;2009-06-09 09:43;CYYZ 090943Z 10002KT 4SM BR BKN006 OVC014 12/ RMK SF6SC2

CYYZ;2009-06-09 10:00;CYYZ 091000Z 12002KT 4SM BR BKN006 OVC014 12/11 A2977 RMK SF6SC2 SLP082

CYYZ;2009-06-09 11:00;CYYZ 091100Z 12002KT 4SM BR OVC005 12/11 A2976 RMK ST8 SLP080

CYYZ;2009-06-09 11:12;CYYZ 091112Z 15003KT 3SM BR OVC004 13/ RMK ST8

CYYZ;2009-06-09 11:20;CYYZ 091120Z 19003KT 3SM BR OVC003 12/ RMK ST8

CYYZ;2009-06-09 11:41;CYYZ 091141Z 17005KT 2 1/4SM BR OVC003 13/ RMK ST8

CYYZ;2009-06-09 12:00;CYYZ 091200Z 18002KT 3SM BR SCT003 OVC005 13/12 A2977 RMK ST3ST5 SLP084

CYYZ;2009-06-09 12:18;CYYZ 091218Z 19005KT 4SM BR SCT005 OVC024 13/ RMK ST3SC5

CYYZ;2009-06-09 13:00;CYYZ 091300Z 20005KT 5SM BR BKN026 15/13 A2978 RMK SC7 SLP087

CYYZ;2009-06-09 14:00;CYYZ 091400Z 27014KT 12SM FEW019 BKN026 18/15 A2979 RMK SC2SC5 SLP090

CYYZ;2009-06-09 15:00;CYYZ 091500Z 29018KT 15SM BKN020 17/12 A2982 RMK SC7 SLP100

CYYZ;2009-06-09 16:00;CYYZ 091600Z 28012KT 15SM OVC018 15/11 A2985 RMK SC8 SLP110

CYYZ;2009-06-09 17:00;CYYZ 091700Z 28011G16KT 15SM OVC020 16/11 A2986 RMK SC8 SLP114

CYYZ;2009-06-09 18:00;CYYZ 091800Z 28012KT 15SM OVC022 16/11 A2986 RMK SC8 SLP115

CYYZ;2009-06-09 19:00;CYYZ 091900Z 29014G20KT 15SM OVC025 16/11 A2988 RMK SC8 SLP119

CYYZ;2009-06-09 20:00;CYYZ 092000Z 27013G18KT 15SM BKN026 16/11 A2989 RMK SC6 SLP122

CYYZ;2009-06-09 21:00;CYYZ 092100Z 28011KT 15SM BKN025 17/10 A2989 RMK SC6 SLP124

CYYZ;2009-06-09 22:00;CYYZ 092200Z 31014KT 15SM BKN026 16/10 A2989 RMK SC6 SLP125

CYYZ;2009-06-09 23:00;CYYZ 092300Z 30013KT 15SM BKN027 16/10 A2992 RMK SC7 SLP132

CYYZ;2009-06-10 00:00;CYYZ 100000Z 31013KT 15SM BKN025 15/09 A2993 RMK SC7 SLP137

CYYZ;2009-06-10 01:00;CYYZ 100100Z 32015KT 15SM BKN023 BKN220 14/09 A2994 RMK SC6CI1 SLP140

CYYZ;2009-06-10 02:00;CYYZ 100200Z 31013KT 15SM SCT025 BKN220 13/08 A2995 RMK SC4CI1 SLP144

CYYZ;2009-06-10 03:00;CYYZ 100300Z 35007KT 15SM FEW025 SCT220 12/08 A2999 RMK SC2CI1 SLP157

CYYZ;2009-06-10 04:00;CYYZ 100400Z 02007KT 15SM FEW025 FEW220 11/08 A2998 RMK SC1CI1 SLP155

CYYZ;2009-06-10 05:00;CYYZ 100500Z 00000KT 15SM FEW025 FEW220 11/07 A2998 RMK SC1CI0 SLP154

CYYZ;2009-06-10 06:00;CYYZ 100600Z 00000KT 15SM SCT030 BKN250 11/08 A2997 RMK SC3CI1 SLP152

CYYZ;2009-06-10 07:00;CYYZ 100700Z 29005KT 15SM FEW030 SCT070 BKN250 10/07 A2997 RMK SC2AC1CI1 SLP150

CYYZ;2009-06-10 08:00;CYYZ 100800Z 22003KT 15SM FEW030 BKN230 10/07 A2995 RMK SC1CI1 SLP144

CYYZ;2009-06-10 09:00;CYYZ 100900Z 27005KT 15SM FEW030 BKN220 09/07 A2996 RMK SC1CI2 SLP149

CYYZ;2009-06-10 10:00;CYYZ 101000Z 29005KT 15SM BKN180 BKN210 10/07 A2998 RMK AC5CI2 SLP153

CYYZ;2009-06-10 11:00;CYYZ 101100Z 00000KT 15SM BKN170 BKN210 10/08 A2997 RMK AC6CI1 SLP150

CYYZ;2009-06-10 12:00;CYYZ 101200Z 30002KT 15SM BKN170 BKN220 12/09 A2998 RMK AC5CI1 SLP153

CYYZ;2009-06-10 13:00;CYYZ 101300Z 00000KT 15SM SCT170 BKN240 13/09 A2997 RMK AC3CI0 SLP151

CYYZ;2009-06-10 14:00;CYYZ 101400Z 28002KT 15SM FEW025 BKN160 BKN240 15/09 A2997 RMK CF1AC4CI0 SLP152

CYYZ;2009-06-10 15:00;CYYZ 101500Z 28002KT 15SM FEW025 BKN150 16/10 A2998 RMK CF1AC6 SLP152

CYYZ;2009-06-10 16:00;CYYZ 101600Z 26003KT 15SM FEW030 BKN160 17/10 A2996 RMK CU1AC5 SLP148

CYYZ;2009-06-10 17:00;CYYZ 101700Z 04002KT 15SM FEW030 BKN150 BKN220 18/11 A2995 RMK CU1AC3CI1 SLP142

CYYZ;2009-06-10 18:00;CYYZ 101800Z 13007KT 15SM FEW030 BKN150 BKN210 18/11 A2993 RMK CU1AC2CI1 SLP138

CYYZ;2009-06-10 19:00;CYYZ 101900Z 13008KT 15SM FEW035 FEW160 BKN220 18/11 A2993 RMK CU1AC1CI2 SLP138

CYYZ;2009-06-10 20:00;CYYZ 102000Z 14005KT 15SM FEW035 FEW160 BKN250 19/11 A2993 RMK SC1AC1CI2 SLP137

CYYZ;2009-06-10 21:00;CYYZ 102100Z 15006KT 15SM FEW035 FEW160 BKN240 18/11 A2992 RMK SC1AC1CI2 SLP135

CYYZ;2009-06-10 22:00;CYYZ 102200Z 15007KT 15SM FEW150 BKN250 17/10 A2991 RMK AC2CI2 SLP130

CYYZ;2009-06-10 23:00;CYYZ 102300Z 13006KT 15SM FEW100 FEW150 BKN280 17/10 A2991 RMK AC1AC1CI5 SLP129

CYYZ;2009-06-11 00:00;CYYZ 110000Z 15003KT 15SM BKN130 BKN280 16/10 A2992 RMK AC6CI1 SLP133

CYYZ;2009-06-11 01:00;CYYZ 110100Z 05002KT 15SM FEW080 BKN130 BKN280 16/09 A2992 RMK AC1AC7CI1 SLP135

CYYZ;2009-06-11 02:00;CYYZ 110200Z 08003KT 15SM FEW080 BKN130 BKN280 17/10 A2992 RMK AC1AC7CI1 SLP133

CYYZ;2009-06-11 03:00;CYYZ 110300Z 05003KT 15SM FEW120 SCT280 16/10 A2992 RMK AC2CI0 SLP134

CYYZ;2009-06-11 04:00;CYYZ 110400Z 35004KT 15SM FEW120 FEW270 14/10 A2992 RMK AC1CI0 SLP132

CYYZ;2009-06-11 05:00;CYYZ 110500Z 36005KT 15SM SKC 13/10 A2993 RMK SLP135

CYYZ;2009-06-11 06:00;CYYZ 110600Z 36005KT 15SM SKC 12/09 A2991 RMK SLP129

CYYZ;2009-06-11 07:00;CYYZ 110700Z 32006KT 15SM FEW010 12/09 A2991 RMK ST1 SLP130

CYYZ;2009-06-11 08:00;CYYZ 110800Z 33003KT 15SM SKC 12/09 A2991 RMK SLP128

CYYZ;2009-06-11 09:00;CYYZ 110900Z 02004KT 15SM FEW090 FEW220 11/08 A2988 RMK AC1CI1 SLP119

CYYZ;2009-06-11 10:00;CYYZ 111000Z 00000KT 15SM FEW090 OVC270 12/09 A2988 RMK AC1CS2 SLP120

CYYZ;2009-06-11 11:00;CYYZ 111100Z 03003KT 15SM FEW120 BKN260 13/10 A2987 RMK AC1CI2 SLP117

CYYZ;2009-06-11 12:00;CYYZ 111200Z 01004KT 15SM FEW170 OVC260 14/11 A2987 RMK AS2CS4 SLP116

CYYZ;2009-06-11 13:00;CYYZ 111300Z 01004KT 15SM FEW170 OVC250 16/11 A2987 RMK AS2CS5 SLP117

CYYZ;2009-06-11 14:00;CYYZ 111400Z 03004KT 15SM FEW150 BKN250 17/12 A2987 RMK AC2CI3 SLP117

CYYZ;2009-06-11 15:00;CYYZ 111500Z 36004KT 15SM FEW092 BKN160 BKN250 18/12 A2987 RMK AC2AC3CI2 SLP114

CYYZ;2009-06-11 16:00;CYYZ 111600Z 03005KT 15SM FEW090 OVC160 20/14 A2985 RMK AC2AC6 SLP108

CYYZ;2009-06-11 17:00;CYYZ 111700Z 15005KT 15SM FEW100 BKN160 OVC250 19/12 A2983 RMK AC2AC3CI2 SLP103

CYYZ;2009-06-11 18:00;CYYZ 111800Z 17007KT 15SM FEW026 BKN094 OVC130 20/12 A2982 RMK CF1AC6AC2 SLP099

CYYZ;2009-06-11 19:00;CYYZ 111900Z 14005KT 15SM BKN058 OVC096 18/11 A2980 RMK SC6AC2 SLP094

CYYZ;2009-06-11 20:00;CYYZ 112000Z 00000KT 15SM -SHRA FEW038 BKN056 OVC071 18/12 A2981 RMK SC2SC4AC2 SLP095

CYYZ;2009-06-11 20:21;CYYZ 112021Z 31009KT 15SM BKN063 OVC100 18/ RMK SC5AC3

CYYZ;2009-06-11 21:00;CYYZ 112100Z 36008KT 15SM FEW060 OVC076 18/14 A2980 RMK SC2AC6 SLP093

CYYZ;2009-06-11 21:51;CYYZ 112151Z 01010KT 12SM -SHRA BKN046 OVC076 18/ RMK SC6AC2

CYYZ;2009-06-11 22:00;CYYZ 112200Z 02009KT 10SM -SHRA FEW042 BKN063 OVC083 18/15 A2980 RMK SC2SC3AC2 VIS W-N 5 SLP091

CYYZ;2009-06-11 23:00;CYYZ 112300Z 36007KT 12SM -SHRA SCT046 OVC085 17/15 A2980 RERA RMK SC4AC4 SLP093

CYYZ;2009-06-12 00:00;CYYZ 120000Z 02010G15KT 10SM -SHRA BKN055 OVC070 16/13 A2980 RMK SC6AC2 SLP094

CYYZ;2009-06-12 01:00;CYYZ 120100Z 35007KT 10SM -SHRA FEW036 OVC055 16/14 A2980 RMK SF1SC7 SLP094

CYYZ;2009-06-12 02:00;CYYZ 120200Z 34011KT 12SM -SHRA BKN058 OVC080 16/14 A2981 RMK SC6AC2 SLP096

CYYZ;2009-06-12 02:49;CYYZ 120249Z 35011G17KT 15SM BKN055 OVC110 15/ RMK SC6AC2

CYYZ;2009-06-12 03:00;CYYZ 120300Z 36009KT 15SM FEW062 OVC085 14/11 A2980 RMK SC2AC6 SLP092

CYYZ;2009-06-12 04:00;CYYZ 120400Z 35009KT 15SM SCT190 BKN240 14/11 A2979 RMK AC4CI2 SLP089

CYYZ;2009-06-12 05:00;CYYZ 120500Z 36010KT 15SM FEW110 BKN220 14/10 A2979 RMK AC1CI6 SLP088

CYYZ;2009-06-12 06:00;CYYZ 120600Z 35010KT 15SM FEW045 FEW110 BKN200 13/10 A2979 RMK SC1AC1CI5 SLP088

CYYZ;2009-06-12 07:00;CYYZ 120700Z 34014KT 15SM FEW120 BKN230 13/09 A2979 RMK AC1CC2 SLP089

CYYZ;2009-06-12 08:00;CYYZ 120800Z 35014G19KT 15SM FEW220 SCT250 12/08 A2979 RMK CC2CC1 SLP089

CYYZ;2009-06-12 09:00;CYYZ 120900Z 34016KT 15SM FEW072 FEW160 12/08 A2980 RMK AC1AC1 SLP093

CYYZ;2009-06-12 10:00;CYYZ 121000Z 35013KT 15SM FEW090 FEW160 12/08 A2983 RMK AC1AC1 SLP102

CYYZ;2009-06-12 11:00;CYYZ 121100Z 34011G16KT 15SM FEW090 FEW160 FEW250 13/09 A2985 RMK AC1AC2CI1 CI TR SLP108

CYYZ;2009-06-12 12:00;CYYZ 121200Z 36011G17KT 15SM FEW080 FEW180 FEW250 15/10 A2985 RMK AC1AC2CI1 CI TR SLP110

CYYZ;2009-06-12 13:00;CYYZ 121300Z 01012KT 15SM FEW080 FEW180 FEW250 17/11 A2986 RMK AC1AC1CI1 CI TR SLP111

CYYZ;2009-06-12 14:00;CYYZ 121400Z 01010KT 15SM FEW250 19/13 A2986 RMK CI1 SLP112

CYYZ;2009-06-12 15:00;CYYZ 121500Z 36008KT 15SM FEW025 FEW250 21/12 A2987 RMK CU2CI1 SLP114

CYYZ;2009-06-12 16:00;CYYZ 121600Z 34007KT 15SM SCT045 SCT250 22/12 A2986 RMK CU3CI1 SLP113

CYYZ;2009-06-12 17:00;CYYZ 121700Z 34003KT 15SM BKN050 BKN250 22/12 A2986 RMK CU5CI1 CONTRAIL SLP111

CYYZ;2009-06-12 18:00;CYYZ 121800Z 34006KT 15SM BKN056 BKN250 23/12 A2986 RMK CU5CI1 CONTRAIL SLP111

CYYZ;2009-06-12 19:00;CYYZ 121900Z 19007KT 15SM FEW050 SCT065 BKN076 BKN250 23/13 A2986 RMK CU2CU2AC2CI1 SLP112

CYYZ;2009-06-12 20:00;CYYZ 122000Z 16007KT 15SM SCT055 BKN080 BKN250 21/12 A2988 RMK CU4AC2CI1 SLP118

CYYZ;2009-06-12 21:00;CYYZ 122100Z 17008KT 15SM SCT055 BKN080 BKN250 22/12 A2988 RMK CU4AC2CI1 SLP119

CYYZ;2009-06-12 22:00;CYYZ 122200Z 14004KT 15SM FEW050 BKN075 BKN250 22/13 A2988 RMK CU2AC3CI1 SLP120

CYYZ;2009-06-12 23:00;CYYZ 122300Z 14004KT 15SM FEW054 BKN062 BKN085 22/12 A2988 RMK CU2SC2AC2 SLP120

CYYZ;2009-06-13 00:00;CYYZ 130000Z 11002KT 15SM FEW055 SCT061 BKN082 22/12 A2989 RMK CU2SC2AC2 SLP122

CYYZ;2009-06-13 01:00;CYYZ 130100Z 36010KT 15SM FEW063 BKN085 20/09 A2991 RMK SC2AC3 SLP129

CYYZ;2009-06-13 02:00;CYYZ 130200Z 01010G16KT 15SM SCT063 BKN070 19/08 A2992 RMK SC3AC2 SLP132

CYYZ;2009-06-13 03:00;CYYZ 130300Z 36008KT 15SM BKN060 18/07 A2992 RMK SC6 SLP133

CYYZ;2009-06-13 04:00;CYYZ 130400Z 35010KT 15SM FEW062 BKN072 16/08 A2993 RMK SC2AC2 SLP134

CYYZ;2009-06-13 05:00;CYYZ 130500Z 35010KT 15SM FEW062 BKN085 16/08 A2993 RMK SC2AC3 SLP135

CYYZ;2009-06-13 06:00;CYYZ 130600Z 34011KT 15SM SCT063 BKN073 16/08 A2995 RMK SC3AC2 SLP140

CYYZ;2009-06-13 07:00;CYYZ 130700Z 32008KT 15SM FEW061 BKN078 BKN250 15/08 A2995 RMK SC2AC3CI1 SLP141

CYYZ;2009-06-13 08:00;CYYZ 130800Z 32009KT 15SM FEW062 BKN083 BKN250 15/08 A2995 RMK SC2AC3CI2 SLP140

CYYZ;2009-06-13 09:00;CYYZ 130900Z 31009KT 15SM FEW075 BKN240 14/07 A2994 RMK AC2CI2 SLP140

CYYZ;2009-06-13 10:00;CYYZ 131000Z 31007KT 15SM FEW100 BKN220 13/05 A2995 RMK AC1CI3 SLP142

CYYZ;2009-06-13 11:00;CYYZ 131100Z 34007KT 15SM FEW090 BKN160 14/06 A2996 RMK AC1AS6 SLP147

CYYZ;2009-06-13 12:00;CYYZ 131200Z 32008KT 15SM FEW090 BKN160 16/06 A2997 RMK AC1AS3 SLP149

CYYZ;2009-06-13 13:00;CYYZ 131300Z 31010KT 15SM FEW090 FEW170 SCT200 18/09 A2997 RMK AC1AS1CI2 SLP150

CYYZ;2009-06-13 14:00;CYYZ 131400Z 33012KT 15SM BKN160 18/08 A2998 RMK AS7 SLP153

CYYZ;2009-06-13 15:00;CYYZ 131500Z 34011KT 15SM FEW040 BKN140 OVC170 19/10 A2997 RMK SC1AC5AS3 SLP150

CYYZ;2009-06-13 16:00;CYYZ 131600Z 36010KT 15SM FEW040 OVC150 19/10 A2997 RMK CF1AS8 SLP149

CYYZ;2009-06-13 17:00;CYYZ 131700Z 32007KT 15SM FEW040 OVC140 19/10 A2998 RMK CF1AS8 SLP151

CYYZ;2009-06-13 18:00;CYYZ 131800Z 34007KT 15SM FEW040 SCT130 BKN200 OVC260 20/09 A2997 RMK CF1AC3CI2CI3 SLP148

CYYZ;2009-06-13 19:00;CYYZ 131900Z 31008KT 15SM FEW045 BKN140 21/10 A2997 RMK CF1AC6 SLP148

CYYZ;2009-06-13 20:00;CYYZ 132000Z 31008KT 15SM FEW045 FEW055 FEW150 22/10 A2996 RMK CF1SC1AC2 SLP145

CYYZ;2009-06-13 21:00;CYYZ 132100Z 36009G16KT 15SM FEW055 FEW130 BKN280 22/09 A2995 RMK CU1AC1CS5 SLP142

CYYZ;2009-06-13 22:00;CYYZ 132200Z 33009KT 15SM FEW055 FEW130 BKN280 22/09 A2994 RMK CU1AC1CS6 SLP139

CYYZ;2009-06-13 23:00;CYYZ 132300Z 34009G15KT 15SM FEW055 FEW110 BKN260 22/09 A2995 RMK CU2AC1CI3 SLP142

CYYZ;2009-06-14 00:00;CYYZ 140000Z 36008KT 15SM FEW060 FEW110 BKN260 21/09 A2995 RMK CU2ACC1CI2 SLP144

CYYZ;2009-06-14 01:00;CYYZ 140100Z 01008KT 15SM FEW060 SCT120 SCT260 19/08 A2996 RMK CU2AC2CI1 SLP145

CYYZ;2009-06-14 02:00;CYYZ 140200Z 01007KT 15SM FEW120 FEW260 17/08 A2997 RMK AC1CI1 SLP148

CYYZ;2009-06-14 03:00;CYYZ 140300Z 01008KT 15SM FEW120 17/08 A2998 RMK AC1 SLP151

CYYZ;2009-06-14 04:00;CYYZ 140400Z 35009KT 15SM SKC 16/07 A2998 RMK SLP154

CYYZ;2009-06-14 05:00;CYYZ 140500Z 01008KT 15SM SKC 14/07 A2999 RMK SLP156

CYYZ;2009-06-14 06:00;CYYZ 140600Z 36004KT 15SM SKC 14/07 A2999 RMK SLP155

CYYZ;2009-06-14 07:00;CYYZ 140700Z 32007KT 15SM SKC 12/07 A2998 RMK SLP153

CYYZ;2009-06-14 08:00;CYYZ 140800Z 33002KT 15SM SKC 13/07 A2998 RMK SLP153

CYYZ;2009-06-14 09:00;CYYZ 140900Z 32002KT 15SM FEW260 12/06 A2999 RMK CI1 SLP157

CYYZ;2009-06-14 10:00;CYYZ 141000Z 31005KT 15SM SCT260 12/07 A3001 RMK CI2 SLP161

CYYZ;2009-06-14 11:00;CYYZ 141100Z 31005KT 15SM BKN270 13/08 A3002 RMK CI2 SLP167

CYYZ;2009-06-14 12:00;CYYZ 141200Z 27002KT 15SM FEW220 BKN280 16/08 A3004 RMK CI1CI2 SLP173

CYYZ;2009-06-14 13:00;CYYZ 141300Z 32003KT 15SM BKN280 18/08 A3003 RMK CI2 SLP170

CYYZ;2009-06-14 14:00;CYYZ 141400Z 07002KT 15SM SCT280 20/06 A3003 RMK CI1 SLP168

CYYZ;2009-06-14 15:00;CYYZ 141500Z 25002KT 15SM SCT280 21/07 A3002 RMK CI1 SLP166

CYYZ;2009-06-14 16:00;CYYZ 141600Z 15008KT 15SM FEW050 FEW070 SCT280 22/08 A3002 RMK CU1AC1CI2 SLP165

CYYZ;2009-06-14 17:00;CYYZ 141700Z 15008KT 15SM FEW055 FEW280 21/08 A3001 RMK CU1CI2 SLP164

CYYZ;2009-06-14 18:00;CYYZ 141800Z 14006KT 15SM FEW060 FEW280 23/09 A2999 RMK CU1CI1 SLP156

CYYZ;2009-06-14 19:00;CYYZ 141900Z 16008KT 15SM FEW060 FEW080 FEW280 23/09 A2997 RMK CU2AC1CI1 CB ASOCTD SLP150

CYYZ;2009-06-14 20:00;CYYZ 142000Z CCA 14009KT 15SM FEW060 FEW110 23/09 A2996 RMK CU2AC1 TCU S CB SHWRS N SLP146

CYYZ;2009-06-14 21:00;CYYZ 142100Z 16009KT 15SM FEW080 BKN100 23/08 A2995 RMK CU1AC6 CB SHWRS NW-N SLP144

CYYZ;2009-06-14 21:51;CYYZ 142151Z 17006KT 15SM -SHRA FEW082 BKN098 22/ RMK AC2AC5 CB ASOCTD

CYYZ;2009-06-14 22:00;CYYZ 142200Z 16008KT 15SM -SHRA BKN078 BKN095 22/08 A2996 RMK AC6AC2 CB ASOCTD SLP145

CYYZ;2009-06-14 22:26;CYYZ 142226Z 06005KT 15SM FEW052 FEW064TCU BKN093 21/ RMK SC1TCU1AC6 TCU N SH ESE

CYYZ;2009-06-14 23:00;CYYZ 142300Z 09003KT 15SM FEW050 FEW065TCU BKN081 BKN120 22/08 A2996 RMK SC1TCU1AC5AC1 TCU N SLP146

CYYZ;2009-06-15 00:00;CYYZ 150000Z 05008KT 15SM FEW043 FEW056TCU BKN094 BKN110 21/10 A2997 RMK SC1TCU1AC4AC2 TCU SE SLP148

CYYZ;2009-06-15 01:00;CYYZ 150100Z 12005KT 15SM FEW062 BKN094 BKN130 20/10 A2997 RMK SC2AC3AC2 TCU ASOCTD S SH SE SLP148

CYYZ;2009-06-15 02:00;CYYZ 150200Z 25002KT 15SM FEW050TCU SCT088 19/10 A2998 RMK TCU1AC2 TCU TR SE SLP153

CYYZ;2009-06-15 03:00;CYYZ 150300Z 31005KT 15SM FEW050 SCT170 18/11 A2999 RMK SC1AC2 SLP155

CYYZ;2009-06-15 04:00;CYYZ 150400Z 34009KT 15SM SCT086 BKN120 18/11 A2999 RMK AC3AC3 SLP155

CYYZ;2009-06-15 05:00;CYYZ 150500Z 32010KT 15SM FEW072 BKN100 17/11 A3000 RMK AC1AC6 SLP158

CYYZ;2009-06-15 06:00;CYYZ 150600Z 34009KT 15SM BKN086 16/10 A2999 RMK AC6 SLP156

CYYZ;2009-06-15 07:00;CYYZ 150700Z 36005KT 15SM FEW090 15/10 A2999 RMK AC2 SLP155

CYYZ;2009-06-15 08:00;CYYZ 150800Z 35006KT 15SM FEW082 14/10 A3000 RMK AC1 SLP158

CYYZ;2009-06-15 09:00;CYYZ 150900Z 36008KT 15SM FEW070 13/09 A3001 RMK AC1 SLP162

CYYZ;2009-06-15 10:00;CYYZ 151000Z 35008KT 15SM FEW050 FEW100 13/09 A3003 RMK SC1AC1 SLP168

CYYZ;2009-06-15 11:00;CYYZ 151100Z 36007KT 15SM FEW220 15/09 A3004 RMK CI1 SLP174

CYYZ;2009-06-15 12:00;CYYZ 151200Z 36007KT 15SM SKC 16/10 A3005 RMK SLP176

CYYZ;2009-06-15 13:00;CYYZ 151300Z 04003KT 15SM FEW060 18/11 A3006 RMK SC1 SLP178

CYYZ;2009-06-15 14:00;CYYZ 151400Z 01002KT 15SM FEW060 19/11 A3006 RMK SC1 SLP178

CYYZ;2009-06-15 15:00;CYYZ 151500Z 20003KT 15SM FEW045 FEW060 21/11 A3005 RMK CF1SC1 CU ASOCTD SLP177

CYYZ;2009-06-15 16:00;CYYZ 151600Z 14010KT 15SM FEW050 22/12 A3006 RMK CU2 SLP178

CYYZ;2009-06-15 17:00;CYYZ 151700Z 17009KT 15SM FEW050 21/11 A3005 RMK CU2 SLP176

CYYZ;2009-06-15 18:00;CYYZ 151800Z 16009G15KT 15SM SCT065 22/10 A3004 RMK CU4 SLP174

CYYZ;2009-06-15 19:00;CYYZ 151900Z 13007KT 15SM FEW070 23/11 A3003 RMK CU2 SLP168

CYYZ;2009-06-15 20:00;CYYZ 152000Z 15008KT 15SM FEW070 FEW085 23/11 A3003 RMK CU2AC1 SLP169

CYYZ;2009-06-15 21:00;CYYZ 152100Z 13008KT 15SM BKN070 23/11 A3003 RMK CU6 SLP169

CYYZ;2009-06-15 22:00;CYYZ 152200Z 16009KT 15SM FEW065 23/10 A3003 RMK CU1 TCU ASOCTD SLP168

CYYZ;2009-06-15 23:00;CYYZ 152300Z 16005KT 15SM FEW065 FEW078 23/10 A3003 RMK CU1AC1 SLP168

CYYZ;2009-06-16 00:00;CYYZ 160000Z 14006KT 15SM FEW062 FEW076 22/09 A3003 RMK CU1AC1 SLP169

CYYZ;2009-06-16 01:00;CYYZ 160100Z 11004KT 15SM SCT065 SCT085 21/09 A3004 RMK SC3AC1 SLP174

CYYZ;2009-06-16 02:00;CYYZ 160200Z 00000KT 15SM FEW050 FEW092 20/08 A3006 RMK SC1AC1 SLP178

CYYZ;2009-06-16 03:00;CYYZ 160300Z 01007KT 15SM FEW050 FEW080 18/09 A3007 RMK SC1AC1 SLP182

CYYZ;2009-06-16 04:00;CYYZ 160400Z 36007KT 15SM FEW070 17/10 A3008 RMK AC1 SLP187

CYYZ;2009-06-16 05:00;CYYZ 160500Z 32007KT 15SM FEW070 15/10 A3009 RMK AC1 SLP189

CYYZ;2009-06-16 06:00;CYYZ 160600Z 35006KT 15SM FEW100 15/09 A3009 RMK AC1 SLP189

CYYZ;2009-06-16 07:00;CYYZ 160700Z 36005KT 15SM SKC 14/09 A3008 RMK SLP186

CYYZ;2009-06-16 08:00;CYYZ 160800Z 36006KT 15SM SKC 13/09 A3009 RMK SLP188

CYYZ;2009-06-16 09:00;CYYZ 160900Z 34005KT 15SM FEW040 FEW100 13/09 A3010 RMK SC1AC1 SLP195

CYYZ;2009-06-16 10:00;CYYZ 161000Z 36004KT 15SM FEW070 FEW250 13/09 A3012 RMK AC1CI1 SLP199

CYYZ;2009-06-16 11:00;CYYZ 161100Z 33003KT 15SM FEW250 15/10 A3013 RMK CI1 SLP202

CYYZ;2009-06-16 12:00;CYYZ 161200Z 02002KT 15SM FEW250 17/11 A3014 RMK CI1 SLP207

CYYZ;2009-06-16 13:00;CYYZ 161300Z 12002KT 15SM FEW250 20/12 A3015 RMK CI0 SLP211

CYYZ;2009-06-16 14:00;CYYZ 161400Z 13007KT 15SM FEW250 21/12 A3015 RMK CI0 SLP209

CYYZ;2009-06-16 15:00;CYYZ 161500Z 13008KT 15SM FEW040 FEW250 22/10 A3014 RMK CU1CI1 CU TR SLP206

CYYZ;2009-06-16 16:00;CYYZ 161600Z 13008G16KT 15SM FEW045 SCT250 23/11 A3015 RMK CU2CI1 SLP209

CYYZ;2009-06-16 17:00;CYYZ 161700Z 11009KT 15SM FEW045 SCT250 23/11 A3014 RMK CU2CI1 SLP205

CYYZ;2009-06-16 18:00;CYYZ 161800Z 14011KT 15SM FEW050 SCT250 23/12 A3012 RMK CU2CI1 CONTRAIL SLP199

CYYZ;2009-06-16 19:00;CYYZ 161900Z 13010G15KT 15SM FEW050 SCT250 23/11 A3012 RMK CU2CI1 CONTRAIL SLP199

CYYZ;2009-06-16 20:00;CYYZ 162000Z 10010KT 15SM FEW050 BKN240 23/10 A3011 RMK CU2CI1 CONTRAIL SLP197

CYYZ;2009-06-16 21:00;CYYZ 162100Z 07014KT 15SM FEW050 BKN240 23/09 A3010 RMK CU1CI1 SLP194

CYYZ;2009-06-16 22:00;CYYZ 162200Z 09009G16KT 15SM FEW040 BKN240 23/08 A3010 RMK CU1CI1 CU TR SLP193

CYYZ;2009-06-16 23:00;CYYZ 162300Z 08013KT 15SM FEW040 BKN250 22/08 A3010 RMK CU1CI2 SLP193

CYYZ;2009-06-17 00:00;CYYZ 170000Z 09009KT 15SM FEW050 BKN250 21/08 A3008 RMK CU1CI2 SLP187

CYYZ;2009-06-17 01:00;CYYZ 170100Z 09007KT 15SM BKN250 20/07 A3007 RMK CI5 SLP183

CYYZ;2009-06-17 02:00;CYYZ 170200Z 09008KT 15SM BKN250 19/07 A3008 RMK CI5 SLP186

CYYZ;2009-06-17 03:00;CYYZ 170300Z 09007KT 15SM BKN250 19/10 A3007 RMK CI5 SLP184

CYYZ;2009-06-17 04:00;CYYZ 170400Z 09010G18KT 15SM BKN250 19/11 A3006 RMK CI4 SLP179

CYYZ;2009-06-17 05:00;CYYZ 170500Z 09008KT 15SM BKN250 19/12 A3006 RMK CI3 SLP178

CYYZ;2009-06-17 06:00;CYYZ 170600Z 10006KT 15SM OVC250 18/13 A3005 RMK CI6 SLP176

CYYZ;2009-06-17 07:00;CYYZ 170700Z 10004KT 15SM BKN250 18/13 A3004 RMK CI5 SLP172

CYYZ;2009-06-17 08:00;CYYZ 170800Z 09004KT 15SM OVC240 18/13 A3004 RMK CI6 SLP170

CYYZ;2009-06-17 09:00;CYYZ 170900Z 08006KT 15SM FEW043 FEW180 BKN220 17/13 A3003 RMK SC1AC2CI2 SLP168

CYYZ;2009-06-17 10:00;CYYZ 171000Z 09007KT 15SM FEW050 SCT078 BKN220 17/13 A3003 RMK SC2AC2CI1 SLP168

CYYZ;2009-06-17 11:00;CYYZ 171100Z 09006KT 10SM BKN053 BKN075 BKN220 18/14 A3003 RMK SC5AC2CI1 SLP169

CYYZ;2009-06-17 12:00;CYYZ 171200Z 09010KT 12SM FEW050 SCT180 BKN220 19/14 A3003 RMK SC2AC2CI2 SLP169

CYYZ;2009-06-17 13:00;CYYZ 171300Z 10012KT 12SM FEW050 SCT075 BKN180 19/14 A3003 RMK SC2AC2AS3 SLP168

CYYZ;2009-06-17 14:00;CYYZ 171400Z 11012KT 12SM FEW035 SCT060 OVC072 20/14 A3003 RMK SC2SC2AC4 SLP168

CYYZ;2009-06-17 15:00;CYYZ 171500Z 10012G17KT 12SM FEW033 BKN075 BKN110 20/14 A3002 RMK SC2AC3AC2 SLP165

CYYZ;2009-06-17 16:00;CYYZ 171600Z 11012KT 12SM SCT030 BKN049 OVC075 19/14 A3001 RMK SC3SC3AC2 SLP162

CYYZ;2009-06-17 17:00;CYYZ 171700Z 09011KT 12SM BKN032 OVC050 19/14 A2999 RMK SC6SC2 SLP155

CYYZ;2009-06-17 17:05;CYYZ 171705Z 09009G15KT 12SM -SHRA OVC033 19/ RMK SC8 PCPN VRY LGT

CYYZ;2009-06-17 18:00;CYYZ 171800Z 09009KT 8SM -SHRA FEW025 OVC033 18/15 A2997 RMK SC2SC6 SLP150

CYYZ;2009-06-17 19:00;CYYZ 171900Z 09006KT 8SM -SHRA OVC033 18/15 A2996 RMK SC8 SLP145

CYYZ;2009-06-17 20:00;CYYZ 172000Z 09007KT 4SM -SHRA BR SCT025 OVC035 17/15 A2995 RMK SC3SC5 SLP141

CYYZ;2009-06-17 21:00;CYYZ 172100Z 10008KT 4SM -RA BR FEW005 BKN015 OVC020 17/15 A2994 RMK SF2SC4SC2 SLP138

CYYZ;2009-06-17 21:24;CYYZ 172124Z 11007KT 3SM -RA BR FEW004 BKN012 OVC020 17/ RMK SF2SF4SC2

CYYZ;2009-06-17 21:39;CYYZ 172139Z 12008KT 4SM -RA BR FEW009 OVC030 16/ RMK SF2SC6

CYYZ;2009-06-17 22:00;CYYZ 172200Z 09006KT 4SM -RA BR FEW010 OVC025 16/15 A2992 RMK SF2SC6 SLP134

CYYZ;2009-06-17 22:10;CYYZ 172210Z 10010KT 4SM -RA BR FEW007 BKN009 OVC021 16/ RMK SF2SF4SC2

CYYZ;2009-06-17 23:00;CYYZ 172300Z 09013KT 2SM -RA BR SCT007 BKN009 OVC018 16/14 A2990 RMK SF3SF2SC2 SLP125

CYYZ;2009-06-17 23:21;CYYZ 172321Z 10010KT 1 1/2SM -RA BR BKN005 OVC008 16/ RMK SF6SF2

CYYZ;2009-06-18 00:00;CYYZ 180000Z 11015G22KT 1 1/2SM -RA BR BKN005 OVC008 15/14 A2989 RMK SF6SF2 SLP121

CYYZ;2009-06-18 01:00;CYYZ 180100Z 09014G20KT 1 1/2SM -RA BR BKN005 OVC009 15/14 A2986 RMK SF6SF2 SLP113

CYYZ;2009-06-18 02:00;CYYZ 180200Z 09014G19KT 1 1/2SM -RA BR BKN005 OVC008 15/14 A2986 RMK SF6SF2 SLP111

CYYZ;2009-06-18 03:00;CYYZ 180300Z 09014KT 2SM -RA BR BKN005 OVC008 15/13 A2985 RMK SF6SC2 SLP108

CYYZ;2009-06-18 03:27;CYYZ 180327Z 08013KT 4SM -RA BR BKN005 OVC009 15/ RMK SF6SC2

CYYZ;2009-06-18 04:00;CYYZ 180400Z 08011KT 5SM -DZ BR BKN004 OVC006 14/13 A2983 RMK SF5ST3 SLP103

CYYZ;2009-06-18 04:21;CYYZ 180421Z 09010KT 5SM -DZ BR BKN003 OVC006 14/ RMK SF5ST3

CYYZ;2009-06-18 05:00;CYYZ 180500Z 08009KT 3SM -DZ BR BKN003 OVC005 14/13 A2981 RMK SF5ST3 SLP094

CYYZ;2009-06-18 06:00;CYYZ 180600Z 08010KT 3SM -RA BR BKN003 OVC005 14/13 A2980 RMK SF5ST3 SLP091

CYYZ;2009-06-18 07:00;CYYZ 180700Z 07011KT 4SM -RA BR BKN003 OVC005 14/13 A2979 RMK SF5ST3 SLP087

CYYZ;2009-06-18 08:00;CYYZ 180800Z 09009KT 5SM -RA BR OVC003 14/13 A2979 RMK SF8 SLP087

CYYZ;2009-06-18 09:00;CYYZ 180900Z 07008KT 4SM -RA BR BKN003 OVC005 14/13 A2978 RMK SF5ST3 SLP087

CYYZ;2009-06-18 09:42;CYYZ 180942Z 05009KT 2SM -RA BR BKN003 OVC005 14/ RMK SF5ST3

CYYZ;2009-06-18 10:00;CYYZ 181000Z 05007KT 1 1/2SM -RA BR BKN003 OVC006 14/12 A2980 RMK SF5ST3 SLP092

CYYZ;2009-06-18 10:37;CYYZ 181037Z 05011KT 1 1/2SM -DZ BR BKN004 OVC007 13/ RMK SF5ST3

CYYZ;2009-06-18 11:00;CYYZ 181100Z 05012G17KT 1 1/2SM -DZ BR SCT003 OVC008 13/12 A2980 RMK SF3ST5 SLP091

CYYZ;2009-06-18 11:30;CYYZ 181130Z 06009KT 3SM -DZ BR SCT002 OVC006 14/ RMK SF3ST5

CYYZ;2009-06-18 12:00;CYYZ 181200Z CCA 05008KT 10SM -DZ BKN006 OVC012 14/12 A2980 RMK SF5ST3 PCPN VRY LGT SLP093

CYYZ;2009-06-18 13:00;CYYZ 181300Z 05011KT 15SM BKN007 OVC012 14/12 A2981 RMK SF5SC3 PCPN VRY LGT SLP096

CYYZ;2009-06-18 13:40;CYYZ 181340Z 03013KT 12SM BKN007 OVC012 14/ RMK SF5SC3

CYYZ;2009-06-18 14:00;CYYZ 181400Z 03012KT 10SM BKN007 OVC010 14/12 A2983 RMK SF5SC3 SLP104

CYYZ;2009-06-18 14:17;CYYZ 181417Z 04009KT 10SM BKN007 OVC018 14/ RMK SF5SC3

CYYZ;2009-06-18 15:00;CYYZ 181500Z 04010KT 12SM BKN011 OVC023 15/13 A2984 RMK SF5SC3 SLP107

CYYZ;2009-06-18 16:00;CYYZ 181600Z 03009KT 12SM SCT011 OVC020 15/13 A2985 RMK SF4SC4 SLP109

CYYZ;2009-06-18 16:03;CYYZ 181603Z 02009KT 4SM -DZ BR SCT010 OVC020 15/ RMK SF4SC4 PCPN VRY LGT

CYYZ;2009-06-18 17:00;CYYZ 181700Z 01010KT 4SM -DZ BR SCT010 OVC017 15/13 A2986 RMK SF3SC5 PCPN VRY LGT SLP113

CYYZ;2009-06-18 18:00;CYYZ 181800Z 01009KT 6SM -DZ BR SCT010 OVC016 16/13 A2986 RMK SF4SC4 PCPN VRY LGT SLP113

CYYZ;2009-06-18 18:07;CYYZ 181807Z 36008KT 12SM -DZ SCT010 OVC016 16/ RMK SF4SC4 PCPN VRY LGT

CYYZ;2009-06-18 19:00;CYYZ 181900Z 02006KT 15SM -DZ FEW007 OVC014 16/13 A2986 RMK SF2SC6 PCPN VRY LGT SLP114

CYYZ;2009-06-18 19:52;CYYZ 181952Z 06003KT 15SM SCT025 OVC045 17/ RMK SC3SC5

CYYZ;2009-06-18 20:00;CYYZ 182000Z 05003KT 15SM FEW018 BKN023 OVC045 17/13 A2985 RMK SC2SC4SC2 SLP109

CYYZ;2009-06-18 21:00;CYYZ 182100Z 01004KT 15SM OVC025 17/13 A2986 RMK SC8 SLP113

CYYZ;2009-06-18 22:00;CYYZ 182200Z 06002KT 15SM OVC022 18/13 A2987 RMK SC8 SLP115

CYYZ;2009-06-18 23:00;CYYZ 182300Z 33004KT 15SM SCT021 OVC031 18/13 A2987 RMK SC3SC5 SLP117

CYYZ;2009-06-19 00:00;CYYZ 190000Z 36004KT 15SM FEW018 BKN032 BKN240 18/13 A2986 RMK CF1SC6CI1 CI TR SLP113

CYYZ;2009-06-19 01:00;CYYZ 190100Z 02002KT 15SM FEW025 BKN037 BKN240 18/14 A2986 RMK CF1SC6CI2 CF TR SLP113

CYYZ;2009-06-19 02:00;CYYZ 190200Z 00000KT 15SM BKN039 BKN240 18/13 A2988 RMK SC5CI1 SLP120

CYYZ;2009-06-19 03:00;CYYZ 190300Z 31004KT 15SM SCT040 BKN260 16/13 A2989 RMK SC3CI1 SLP123

CYYZ;2009-06-19 04:00;CYYZ 190400Z 29003KT 15SM FEW040 BKN260 14/13 A2989 RMK SC2CI1 SLP123

CYYZ;2009-06-19 05:00;CYYZ 190500Z 30004KT 15SM FEW039 SCT260 14/12 A2989 RMK SC2CI1 SLP124

CYYZ;2009-06-19 06:00;CYYZ 190600Z 00000KT 15SM FEW020 FEW260 14/12 A2988 RMK SC2CI0 SLP119

CYYZ;2009-06-19 07:00;CYYZ 190700Z 32002KT 15SM FEW020 FEW260 13/11 A2986 RMK SC2CI0 SLP111

CYYZ;2009-06-19 08:00;CYYZ 190800Z 34003KT 15SM FEW020 FEW260 13/11 A2986 RMK SC2CI0 SLP112

CYYZ;2009-06-19 09:00;CYYZ 190900Z 34003KT 15SM FEW120 SCT260 12/11 A2986 RMK AC2CI1 SLP113

CYYZ;2009-06-19 10:00;CYYZ 191000Z 32004KT 15SM BKN170 BKN260 13/11 A2988 RMK AC5CI1 SLP120

CYYZ;2009-06-19 11:00;CYYZ 191100Z 00000KT 15SM FEW180 BKN270 14/12 A2987 RMK AC1CS6 SLP115

CYYZ;2009-06-19 12:00;CYYZ 191200Z 25002KT 15SM SCT140 BKN270 15/13 A2988 RMK AC4CS3 SLP119

CYYZ;2009-06-19 13:00;CYYZ 191300Z 20004KT 15SM BKN140 OVC270 17/14 A2991 RMK AC6CS1 SLP129

CYYZ;2009-06-19 14:00;CYYZ 191400Z 22003KT 15SM BKN140 BKN270 18/14 A2991 RMK AC6CS1 SLP130

CYYZ;2009-06-19 15:00;CYYZ 191500Z 20005KT 15SM FEW030 FEW150 BKN280 20/14 A2988 RMK CF1AC1CI2 SLP119

CYYZ;2009-06-19 16:00;CYYZ 191600Z 18003KT 15SM FEW030 BKN280 20/14 A2986 RMK CF1CS7 SLP112

CYYZ;2009-06-19 17:00;CYYZ 191700Z 15007KT 15SM FEW030 BKN290 21/14 A2984 RMK CF1CS6 SLP105

CYYZ;2009-06-19 18:00;CYYZ 191800Z 16004KT 15SM FEW035 FEW180 BKN290 21/14 A2985 RMK CF1AC1CI6 CU ASOCTD SLP107

CYYZ;2009-06-19 19:00;CYYZ 191900Z 14007KT 15SM FEW035 BKN290 22/14 A2982 RMK SC1CI6 SLP099

CYYZ;2009-06-19 20:00;CYYZ 192000Z 16006KT 15SM FEW035 FEW150 BKN290 23/14 A2982 RMK SC1AC2CI4 SLP099

CYYZ;2009-06-19 21:00;CYYZ 192100Z 14008KT 15SM SCT150 BKN290 22/14 A2983 RMK AC4CS3 SLP101

CYYZ;2009-06-19 22:00;CYYZ 192200Z 14008KT 15SM FEW130 BKN290 22/14 A2981 RMK AC1CS6 SLP095

CYYZ;2009-06-19 23:00;CYYZ 192300Z 12007KT 15SM FEW130 BKN270 22/13 A2979 RMK AC2CS2 SLP087

CYYZ;2009-06-20 00:00;CYYZ 200000Z 13007KT 15SM FEW140 BKN270 21/13 A2978 RMK AC2CS2 SLP084

CYYZ;2009-06-20 01:00;CYYZ 200100Z 15008KT 15SM SCT140 BKN270 20/13 A2977 RMK AC3CI2 SLP081

CYYZ;2009-06-20 02:00;CYYZ 200200Z 16005KT 15SM SCT140 BKN240 19/13 A2977 RMK AC3CI2 SLP079

CYYZ;2009-06-20 03:00;CYYZ 200300Z 11006KT 15SM SCT140 BKN240 18/13 A2977 RMK AC3CI2 SLP079

CYYZ;2009-06-20 04:00;CYYZ 200400Z 09004KT 15SM BKN180 BKN240 18/14 A2976 RMK AC5CI2 SLP078

CYYZ;2009-06-20 05:00;CYYZ 200500Z 10005KT 15SM BKN180 BKN220 18/13 A2973 RMK AC5CI2 SLP066

CYYZ;2009-06-20 06:00;CYYZ 200600Z 08006KT 15SM BKN140 BKN180 BKN240 17/13 A2971 RMK AC5AC2CI0 SLP060

CYYZ;2009-06-20 07:00;CYYZ 200700Z 09004KT 15SM -SHRA BKN062 OVC120 17/13 A2968 RMK SC6AC2 TCU EMBD SLP052

CYYZ;2009-06-20 07:06;CYYZ 200706Z 11003KT 12SM -TSRA BKN032 BKN062CB OVC120 17/ RMK SC5CB2AC2 LTGIC SW

CYYZ;2009-06-20 07:20;CYYZ 200720Z 07007KT 7SM +TSRA BKN008 OVC027CB 16/ RMK SC6CB2 LTGCC SSE

CYYZ;2009-06-20 07:37;CYYZ 200737Z 08006KT 12SM -SHRA BKN023 OVC062 16/ RETSRA RMK SC5SC3

CYYZ;2009-06-20 08:00;CYYZ 200800Z 08007KT 10SM -SHRA OVC036 16/14 A2964 RETSRA RMK SC8 SLP038

CYYZ;2009-06-20 09:00;CYYZ 200900Z 07006KT 10SM -SHRA OVC029 16/15 A2963 RMK SC8 SLP032

CYYZ;2009-06-20 09:40;CYYZ 200940Z 07004KT 7SM -SHRA FEW005 OVC027 16/ RMK SF1SC8

CYYZ;2009-06-20 10:00;CYYZ 201000Z 09006KT 7SM -SHRA FEW006 OVC028 16/14 A2962 RMK SF2SC6 BR SLP031

CYYZ;2009-06-20 11:00;CYYZ 201100Z 06006KT 12SM -SHRA FEW006 OVC025 15/14 A2961 RMK SF2SC6 SLP026

CYYZ;2009-06-20 12:00;CYYZ 201200Z 06007KT 12SM -RA SCT007 BKN020 OVC025 15/14 A2961 RMK SF4SC2SC2 SLP028

CYYZ;2009-06-20 12:20;CYYZ 201220Z 08009KT 3SM -RA BR BKN007 OVC020 15/ RMK SF5SC3

CYYZ;2009-06-20 12:26;CYYZ 201226Z 07011KT 1 1/2SM -RA BR BKN007 OVC020 15/ RMK SF6SC2

CYYZ;2009-06-20 12:32;CYYZ 201232Z 07009KT 8SM -RA BKN004 OVC008 15/ RMK SF6SC2 BR

CYYZ;2009-06-20 12:48;CYYZ 201248Z 08009KT 10SM -RA OVC007 16/ RMK SF8

CYYZ;2009-06-20 13:00;CYYZ 201300Z 08008KT 10SM -RA OVC005 16/14 A2959 RMK SF8 PCPN VRY LGT SLP020

CYYZ;2009-06-20 14:00;CYYZ 201400Z 08007KT 12SM -RA OVC007 16/14 A2960 RMK SF8 PCPN VRY LGT SLP022

CYYZ;2009-06-20 15:00;CYYZ 201500Z 06006KT 15SM -DZ FEW004 OVC008 16/14 A2960 RMK SF2SC6 PCPN VRY LGT SLP025

CYYZ;2009-06-20 16:00;CYYZ 201600Z 10006KT 4SM -SHRA BR FEW008 OVC010 17/15 A2961 RMK SF2SC6 SLP026

CYYZ;2009-06-20 17:00;CYYZ 201700Z CCA 10006KT 8SM -SHRA FEW008 OVC012 17/15 A2961 RMK SF2SC6 BR PCPN VRY LGT SLP027

CYYZ;2009-06-20 18:00;CYYZ 201800Z 09005KT 1 3/4SM +SHRA BR SCT009 OVC018 16/15 A2961 RMK SF3SC5 SLP028

CYYZ;2009-06-20 18:10;CYYZ 201810Z 08002KT 3SM -SHRA BR SCT007 OVC013 16/ RERA RMK SF3SC5

CYYZ;2009-06-20 18:35;CYYZ 201835Z CCA 11004KT 10SM -SHRA SCT013 OVC018 16/ RERA RMK SF3SC5

CYYZ;2009-06-20 19:00;CYYZ 201900Z 12004KT 10SM -SHRA SCT010 OVC014 16/15 A2963 RERA RMK SF3SC5 PCPN VRY LGT SLP035

CYYZ;2009-06-20 19:30;CYYZ 201930Z 10005KT 12SM -DZ FEW010 SCT018 OVC028 16/ RMK SF2SC2SC4 PCPN VRY LGT

CYYZ;2009-06-20 19:50;CYYZ 201950Z 13005KT 12SM FEW007 OVC013 17/ RMK SF2SC6

CYYZ;2009-06-20 20:00;CYYZ 202000Z 14006KT 12SM BKN006 OVC013 17/15 A2963 RMK SF5SC3 SLP035

CYYZ;2009-06-20 20:18;CYYZ 202018Z 14005KT 12SM FEW010 BKN017 OVC022 17/ RMK SF2SC3SC2

CYYZ;2009-06-20 21:00;CYYZ 202100Z 17006KT 15SM FEW010 BKN017 BKN120 17/14 A2963 RMK SF2SC5AC1 SLP034

CYYZ;2009-06-20 22:00;CYYZ 202200Z 11007KT 15SM FEW013 OVC019 17/14 A2964 RMK SF2SC6 SLP036

CYYZ;2009-06-20 23:00;CYYZ 202300Z 13006KT 15SM BKN011 OVC016 16/13 A2965 RMK SC5SC3 SLP040

CYYZ;2009-06-20 23:38;CYYZ 202338Z 12004KT 12SM -RA OVC012 16/ RMK SC8

CYYZ;2009-06-21 00:00;CYYZ 210000Z 09004KT 4SM -RA BR OVC013 15/13 A2967 RMK SC8 SLP047

CYYZ;2009-06-21 00:18;CYYZ 210018Z 09002KT 2 1/2SM -RA BR FEW005 OVC014 15/ RMK SF2SC6

CYYZ;2009-06-21 00:25;CYYZ 210025Z 09002KT 1 3/4SM -RA BR BKN005 OVC012 15/ RMK FG2SF5SC2

CYYZ;2009-06-21 00:33;CYYZ 210033Z 09003KT 2SM -RA BR BKN003 OVC007 15/ RMK FG2SF4SC2

CYYZ;2009-06-21 00:43;CYYZ 210043Z 07004KT 3SM -RA BR FEW003 OVC015 15/ RMK SF2SC6

CYYZ;2009-06-21 01:00;CYYZ 210100Z 07005KT 3SM -RA BR SCT004 OVC016 15/14 A2969 RMK SF3SC5 SLP054

CYYZ;2009-06-21 01:31;CYYZ 210131Z 04004KT 3SM -RA BR BKN005 OVC013 15/ RMK SC5SC3

CYYZ;2009-06-21 02:00;CYYZ 210200Z 01004KT 6SM -RA BR FEW005 BKN015 OVC023 15/14 A2971 RMK SF2SC4SC2 PCPN VRY LGT SLP062

CYYZ;2009-06-21 03:00;CYYZ 210300Z 32005KT 8SM FEW005 BKN036 15/14 A2972 RMK SF2SC5 BR SLP066

CYYZ;2009-06-21 03:31;CYYZ 210331Z 35010KT 12SM FEW006 BKN013 16/ RMK SF2SC5

CYYZ;2009-06-21 04:00;CYYZ 210400Z 35009KT 15SM FEW007 BKN032 16/14 A2974 RMK SF2SC4 SLP072

CYYZ;2009-06-21 05:00;CYYZ 210500Z 35009KT 15SM FEW007 BKN074 15/14 A2974 RMK SF1AC5 SLP072

CYYZ;2009-06-21 06:00;CYYZ 210600Z 34009KT 15SM FEW007 SCT150 15/13 A2974 RMK SF1AC2 SLP072

CYYZ;2009-06-21 07:00;CYYZ 210700Z 34008KT 15SM FEW056 FEW160 15/13 A2973 RMK SC1AC2 SLP069

CYYZ;2009-06-21 08:00;CYYZ 210800Z 34011G16KT 15SM FEW052 FEW120 15/13 A2974 RMK SC1AC1 SLP070

CYYZ;2009-06-21 09:00;CYYZ 210900Z 34011G18KT 15SM BKN043 BKN120 15/13 A2976 RMK SC5AC1 SLP079

CYYZ;2009-06-21 10:00;CYYZ 211000Z 35012KT 15SM FEW042 FEW120 FEW220 15/13 A2976 RMK SC1AC1CI1 SLP079

CYYZ;2009-06-21 11:00;CYYZ 211100Z 33012KT 15SM FEW045 FEW120 FEW220 16/13 A2979 RMK SC1AC1CI1 SLP088

CYYZ;2009-06-21 12:00;CYYZ 211200Z 34013G18KT 15SM FEW040 FEW100 17/14 A2979 RMK CU1AC2 SLP088

CYYZ;2009-06-21 13:00;CYYZ 211300Z 35011KT 15SM FEW040 FEW100 19/15 A2980 RMK CU1AC2 SLP091

CYYZ;2009-06-21 14:00;CYYZ 211400Z 36011G16KT 15SM FEW040 SCT100 SCT240 21/16 A2980 RMK CU1AC2CI1 CI TR SLP093

CYYZ;2009-06-21 15:00;CYYZ 211500Z 34013KT 15SM FEW045 FEW080 SCT120 22/16 A2981 RMK CU1AC2AC2 SLP094

CYYZ;2009-06-21 16:00;CYYZ 211600Z 35016G21KT 15SM FEW045 SCT080 SCT240 23/17 A2981 RMK CU2AC2CI1 CI TR SLP095

CYYZ;2009-06-21 17:00;CYYZ 211700Z 35015KT 15SM FEW045 SCT080 25/18 A2980 RMK CU2AC2 SLP092

CYYZ;2009-06-21 18:00;CYYZ 211800Z CCA 35014G19KT 15SM FEW035 BKN085 24/17 A2980 RMK CU2AC2 SLP092

CYYZ;2009-06-21 19:00;CYYZ 211900Z 36013KT 15SM FEW035 SCT090 26/17 A2980 RMK CU2AC2 TCU ASOCTD SLP090

CYYZ;2009-06-21 20:00;CYYZ 212000Z 34013KT 15SM FEW035 SCT080 26/17 A2980 RMK CU2AC2 TCU ASOCTD SLP089

CYYZ;2009-06-21 21:00;CYYZ 212100Z 36011G16KT 15SM SCT040 SCT080 26/17 A2979 RMK CU3AC1 TCU ASOCTD NE SLP088

CYYZ;2009-06-21 22:00;CYYZ 212200Z 01014KT 15SM FEW040 SCT120 SCT240 26/17 A2979 RMK CU2AC1CI1 TCU ASOCTD NE CI TR SLP086

CYYZ;2009-06-21 23:00;CYYZ 212300Z 36013KT 15SM FEW045 SCT120 SCT240 25/16 A2979 RMK CU2AC2CI1 CI TR SLP088

CYYZ;2009-06-22 00:00;CYYZ 220000Z 36014KT 15SM FEW055 SCT062 BKN075 24/16 A2980 RMK CU2SC2AC3 SLP091

CYYZ;2009-06-22 01:00;CYYZ 220100Z 01012KT 15SM FEW052 SCT061 BKN071 23/15 A2981 RMK CU2SC2AC2 SLP093

CYYZ;2009-06-22 02:00;CYYZ 220200Z 36014KT 15SM FEW062 SCT075 22/15 A2983 RMK SC2AC2 SLP099

CYYZ;2009-06-22 03:00;CYYZ 220300Z 36013KT 15SM FEW055 FEW075 21/14 A2983 RMK SC1AC2 SLP100

CYYZ;2009-06-22 04:00;CYYZ 220400Z 36010KT 15SM FEW075 21/14 A2983 RMK AC1 SLP099

CYYZ;2009-06-22 05:00;CYYZ 220500Z 36010KT 15SM FEW075 20/14 A2983 RMK AC1 SLP100

CYYZ;2009-06-22 06:00;CYYZ 220600Z 36011KT 15SM FEW075 19/15 A2983 RMK AC2 SLP100

CYYZ;2009-06-22 07:00;CYYZ 220700Z 36012KT 15SM FEW075 19/15 A2983 RMK AC1 SLP101

CYYZ;2009-06-22 08:00;CYYZ 220800Z 36007KT 15SM FEW075 18/15 A2984 RMK AC1 SLP104

CYYZ;2009-06-22 09:00;CYYZ 220900Z 01007KT 15SM FEW075 17/14 A2984 RMK AC1 SLP105

CYYZ;2009-06-22 10:00;CYYZ 221000Z 36005KT 15SM FEW080 17/14 A2986 RMK AC1 SLP109

CYYZ;2009-06-22 11:00;CYYZ 221100Z 36006KT 15SM FEW080 18/15 A2986 RMK AC1 SLP110

CYYZ;2009-06-22 12:00;CYYZ 221200Z 35004KT 15SM FEW080 20/15 A2986 RMK AC1 SLP112

CYYZ;2009-06-22 13:00;CYYZ 221300Z 00000KT 15SM FEW035 FEW080 22/17 A2988 RMK SC1AC1 SLP116

CYYZ;2009-06-22 14:00;CYYZ 221400Z CCA 14002KT 15SM SCT025 SCT070 24/18 A2988 RMK SC3AC1 CU ASOCTD SLP116

CYYZ;2009-06-22 15:00;CYYZ 221500Z 16007KT 15SM FEW025 BKN035 BKN080 22/17 A2988 RMK CU2SC3AC1 SLP118

CYYZ;2009-06-22 16:00;CYYZ 221600Z 17008KT 15SM FEW025 FEW035 23/17 A2988 RMK CU1SC2 SLP116

CYYZ;2009-06-22 17:00;CYYZ 221700Z 16007KT 15SM FEW030 SCT035 23/17 A2987 RMK CU2SC2 SLP113

CYYZ;2009-06-22 18:00;CYYZ 221800Z 16007KT 15SM FEW030 FEW035 SCT150 SCT240 23/17 A2986 RMK CU1SC2AC1CI0 CI TR SLP112

CYYZ;2009-06-22 19:00;CYYZ 221900Z 15008KT 15SM FEW030 SCT035 SCT240 25/17 A2986 RMK CU2SC2CI1 SLP109

CYYZ;2009-06-22 20:00;CYYZ 222000Z 16008KT 15SM FEW040 BKN250 25/18 A2984 RMK CU2CI1 TCU ASOCTD NNE SLP105

CYYZ;2009-06-22 21:00;CYYZ 222100Z 14007KT 15SM FEW035 BKN250 25/17 A2984 RMK CU2CI1 SLP103

CYYZ;2009-06-22 22:00;CYYZ 222200Z 14005KT 15SM FEW035 BKN250 25/18 A2983 RMK CU2CI1 SLP101

CYYZ;2009-06-22 23:00;CYYZ 222300Z 15007KT 15SM FEW051 BKN240 25/18 A2983 RMK CU2CI2 SLP101

CYYZ;2009-06-23 00:00;CYYZ 230000Z 16005KT 15SM FEW051 FEW120 BKN240 24/17 A2984 RMK CU2AC1CI2 SLP103

CYYZ;2009-06-23 01:00;CYYZ 230100Z 15004KT 15SM FEW050 FEW120 BKN240 23/17 A2984 RMK CU1AC2CI2 SLP105

CYYZ;2009-06-23 02:00;CYYZ 230200Z 15003KT 15SM FEW060 FEW120 BKN240 23/16 A2986 RMK SC1AC2CI1 SC TR SLP110

CYYZ;2009-06-23 03:00;CYYZ 230300Z 27003KT 15SM SCT061 BKN240 22/16 A2987 RMK SC3CI1 SLP114

CYYZ;2009-06-23 04:00;CYYZ 230400Z 31003KT 15SM FEW250 22/17 A2987 RMK CI1 SLP115

CYYZ;2009-06-23 05:00;CYYZ 230500Z 15003KT 15SM FEW045 FEW250 21/16 A2988 RMK SC1CI0 SLP118

CYYZ;2009-06-23 06:00;CYYZ 230600Z 18002KT 15SM FEW045 FEW250 20/16 A2988 RMK SC1CI0 SLP117

CYYZ;2009-06-23 07:00;CYYZ 230700Z 27002KT 15SM FEW250 20/16 A2988 RMK CI1 SLP118

CYYZ;2009-06-23 08:00;CYYZ 230800Z 08002KT 15SM FEW250 19/16 A2989 RMK CI1 SLP119

CYYZ;2009-06-23 09:00;CYYZ 230900Z 02003KT 15SM FEW250 18/16 A2989 RMK CI1 SLP122

CYYZ;2009-06-23 10:00;CYYZ 231000Z 33002KT 15SM FEW250 17/15 A2990 RMK CI2 SLP124

CYYZ;2009-06-23 11:00;CYYZ 231100Z 00000KT 15SM SCT270 20/17 A2992 RMK CI1 SLP130

CYYZ;2009-06-23 12:00;CYYZ 231200Z 12003KT 15SM BKN270 22/16 A2993 RMK CI2 SLP133

CYYZ;2009-06-23 13:00;CYYZ 231300Z 11002KT 15SM FEW280 23/15 A2994 RMK CI0 SLP136

CYYZ;2009-06-23 14:00;CYYZ 231400Z 14006KT 15SM FEW035 FEW280 23/15 A2994 RMK CF1CI1 SLP138

CYYZ;2009-06-23 15:00;CYYZ 231500Z 12007KT 15SM FEW035 FEW280 23/15 A2994 RMK CU1CI1 SLP137

CYYZ;2009-06-23 16:00;CYYZ 231600Z 15007KT 15SM FEW040 FEW280 24/15 A2993 RMK SC1CI1 CU ASOCTD SLP135

CYYZ;2009-06-23 17:00;CYYZ 231700Z 14005KT 15SM FEW040 FEW280 25/16 A2993 RMK SC1CI1 CU ASOCTD SLP135

CYYZ;2009-06-23 18:00;CYYZ 231800Z 15007KT 15SM FEW040 FEW280 25/16 A2992 RMK CU1CI1 SLP131

CYYZ;2009-06-23 19:00;CYYZ 231900Z 16009KT 15SM FEW040 FEW280 25/16 A2991 RMK CU1CI1 CI TRACE SLP126

CYYZ;2009-06-23 20:00;CYYZ 232000Z 14006KT 15SM FEW040 FEW280 26/16 A2990 RMK CU1CI1 SLP123

CYYZ;2009-06-23 21:00;CYYZ 232100Z 15008KT 15SM FEW040 FEW280 27/16 A2988 RMK CU1CI1 SLP118

CYYZ;2009-06-23 22:00;CYYZ 232200Z 15007KT 15SM FEW040 FEW280 27/15 A2987 RMK CU1CI1 SLP115

CYYZ;2009-06-23 23:00;CYYZ 232300Z 17007KT 15SM SKC 26/14 A2987 RMK SLP114

CYYZ;2009-06-24 00:00;CYYZ 240000Z 19007KT 15SM FEW040 25/14 A2987 RMK SC1 SLP114

CYYZ;2009-06-24 01:00;CYYZ 240100Z 20005KT 15SM FEW040 FEW260 25/13 A2988 RMK SC1CI1 SLP115

CYYZ;2009-06-24 02:00;CYYZ 240200Z 25005KT 15SM FEW040 24/12 A2989 RMK SC1 SLP118

CYYZ;2009-06-24 03:00;CYYZ 240300Z 29004KT 15SM FEW040 22/12 A2989 RMK SC1 SLP120

CYYZ;2009-06-24 04:00;CYYZ 240400Z 35007KT 15SM FEW090 23/12 A2989 RMK AC1 SLP122

CYYZ;2009-06-24 05:00;CYYZ 240500Z 34008KT 15SM FEW090 23/13 A2990 RMK AC1 SLP125

CYYZ;2009-06-24 06:00;CYYZ 240600Z 32006KT 15SM FEW100 21/13 A2989 RMK AC1 SLP121

CYYZ;2009-06-24 07:00;CYYZ 240700Z 32005KT 15SM FEW100 20/14 A2989 RMK AC1 SLP121

CYYZ;2009-06-24 08:00;CYYZ 240800Z 33003KT 15SM FEW120 20/13 A2989 RMK AC1 SLP120

CYYZ;2009-06-24 09:00;CYYZ 240900Z 32005KT 15SM FEW120 FEW250 19/13 A2989 RMK AC1CI1 SLP122

CYYZ;2009-06-24 10:00;CYYZ 241000Z 32005KT 15SM FEW120 FEW250 19/13 A2990 RMK AC1CI0 SLP123

CYYZ;2009-06-24 11:00;CYYZ 241100Z 31003KT 15SM FEW260 21/15 A2990 RMK CI1 SLP124

CYYZ;2009-06-24 12:00;CYYZ 241200Z 33004KT 15SM BKN270 24/16 A2990 RMK CI2 SLP124

CYYZ;2009-06-24 13:00;CYYZ 241300Z 34006KT 15SM SCT280 26/16 A2990 RMK CI2 SLP123

CYYZ;2009-06-24 14:00;CYYZ 241400Z 36008KT 15SM FEW280 27/16 A2990 RMK CI1 SLP124

CYYZ;2009-06-24 15:00;CYYZ 241500Z 35006KT 15SM FEW280 28/16 A2991 RMK CI1 SLP125

CYYZ;2009-06-24 16:00;CYYZ 241600Z 34006KT 15SM FEW050 FEW280 29/16 A2989 RMK CU1CI1 SLP119

CYYZ;2009-06-24 17:00;CYYZ 241700Z 01009KT 15SM FEW055 30/17 A2989 RMK CU1 SLP119

CYYZ;2009-06-24 18:00;CYYZ 241800Z 31007KT 15SM FEW068 30/17 A2987 RMK CU1 SLP113

CYYZ;2009-06-24 19:00;CYYZ 241900Z 35006KT 15SM SCT072 31/17 A2986 RMK CU4 SLP110

CYYZ;2009-06-24 20:00;CYYZ 242000Z 15006KT 15SM FEW073 30/16 A2986 RMK CU2 SLP107

CYYZ;2009-06-24 21:00;CYYZ 242100Z 13009KT 15SM FEW070 30/16 A2985 RMK CU1 SLP106

CYYZ;2009-06-24 22:00;CYYZ 242200Z 15008KT 15SM FEW065 30/15 A2983 RMK CF1 SLP101

CYYZ;2009-06-24 23:00;CYYZ 242300Z 18007KT 15SM FEW064 SCT240 29/17 A2983 RMK CU1CI1 SLP100

CYYZ;2009-06-25 00:00;CYYZ 250000Z CCA 16005KT 15SM SCT240 28/17 A2983 RMK CI2 SLP097

CYYZ;2009-06-25 01:00;CYYZ 250100Z 17004KT 15SM SCT240 27/16 A2983 RMK CI2 SLP097

CYYZ;2009-06-25 02:00;CYYZ 250200Z 16002KT 15SM SCT240 27/16 A2983 RMK CI2 SLP098

CYYZ;2009-06-25 03:00;CYYZ 250300Z 24006KT 15SM FEW240 25/17 A2983 RMK CI1 SLP097

CYYZ;2009-06-25 04:00;CYYZ 250400Z 25007KT 15SM FEW240 24/19 A2983 RMK CI1 SLP097

CYYZ;2009-06-25 05:00;CYYZ 250500Z 27006KT 15SM FEW240 23/20 A2981 RMK CI1 SLP093

CYYZ;2009-06-25 06:00;CYYZ 250600Z 28006KT 15SM FEW240 22/19 A2981 RMK CI1 SLP091

CYYZ;2009-06-25 07:00;CYYZ 250700Z 29008KT 15SM FEW250 23/19 A2981 RMK CI1 SLP092

CYYZ;2009-06-25 08:00;CYYZ 250800Z 27003KT 15SM SCT250 22/19 A2980 RMK CI2 SLP089

CYYZ;2009-06-25 09:00;CYYZ 250900Z 29003KT 15SM BKN250 23/19 A2980 RMK CI3 SLP089

CYYZ;2009-06-25 10:00;CYYZ 251000Z 00000KT 10SM FEW150 BKN240 22/19 A2980 RMK AC2CI2 SLP090

CYYZ;2009-06-25 11:00;CYYZ 251100Z 00000KT 15SM SCT075 SCT110 BKN260 23/20 A2981 RMK AC3AC1CI2 SLP091

CYYZ;2009-06-25 12:00;CYYZ 251200Z 25002KT 8SM FEW075 FEW110 FEW270 25/21 A2981 RMK AC1AC1CI1 SLP091

CYYZ;2009-06-25 13:00;CYYZ 251300Z 15003KT 8SM FEW120 SCT220 BKN270 27/22 A2980 RMK AC1CC3CI0 SLP088

CYYZ;2009-06-25 14:00;CYYZ 251400Z 16003KT 9SM FEW030TCU SCT070 BKN210 28/22 A2979 RMK TCU1AC3CC4 TCU S SLP085

CYYZ;2009-06-25 15:00;CYYZ 251500Z 20004KT 9SM SCT045TCU BKN070 BKN270 28/22 A2978 RMK TCU3AC3CI0 SLP082

CYYZ;2009-06-25 15:28;CYYZ 251528Z 07003KT 12SM TS BKN052TCU BKN220 28/ RMK TCU6CI1 CB ASOCTD SKY DRK NW

CYYZ;2009-06-25 15:53;CYYZ 251553Z 32011G17KT 7SM -TSRA BKN035CB OVC070 27/ RMK CB6AC2 LTGIC S

CYYZ;2009-06-25 16:00;CYYZ 251600Z 36023G33KT 10SM -TSRA FEW025 BKN035 OVC060 23/19 A2979 RERA RMK CF1SC6SC1 CB SKY DRK N-E SLP085

CYYZ;2009-06-25 16:30;CYYZ 251630Z 01020G28KT 12SM -SHRA FEW040CB SCT055 OVC110 24/ RETSRA RMK CB1SC3AC5

CYYZ;2009-06-25 17:00;CYYZ 251700Z 35012G21KT 12SM -SHRA FEW040CB SCT055 BKN120 26/15 A2977 RETSRA RMK CB1SC2AC4 LTGCG SE PRESRR SLP079

CYYZ;2009-06-25 17:29;CYYZ 251729Z 18009KT 15SM FEW040CB FEW060 BKN120 BKN170 23/ RMK CB2SC1AC2AC2 PRESRR

CYYZ;2009-06-25 18:00;CYYZ 251800Z 16005KT 15SM FEW050 BKN180 BKN270 21/18 A2978 RMK SC2AC4CI2 CB S SLP082

CYYZ;2009-06-25 19:00;CYYZ 251900Z 15007KT 15SM FEW050CB SCT140 BKN270 23/19 A2980 RMK CB1AC4CI3 SLP088

CYYZ;2009-06-25 20:00;CYYZ 252000Z 17005KT 15SM FEW045CB BKN130 BKN270 21/19 A2977 RMK CB1AC6CI2 SHWRS LTGIC W SLP080

CYYZ;2009-06-25 21:00;CYYZ 252100Z 22008KT 15SM FEW045TCU BKN120 BKN160 23/19 A2977 RMK TCU1AC5AC2 SLP078

CYYZ;2009-06-25 22:00;CYYZ 252200Z 25004KT 15SM FEW045CB BKN130 23/18 A2975 RMK CB1AC6 CB SHWRS N SLP073

CYYZ;2009-06-25 23:00;CYYZ 252300Z 23002KT 15SM FEW042CB SCT140 25/18 A2971 RMK CB1AC2 CB SE SLP061

CYYZ;2009-06-26 00:00;CYYZ 260000Z 26007KT 15SM FEW040 SCT110 BKN260 25/19 A2972 RMK SC1AC2CI0 TCU ASOCTD SW SLP061

CYYZ;2009-06-26 01:00;CYYZ 260100Z 23009KT 15SM FEW050 FEW120 SCT260 24/19 A2971 RMK SC1AC2CI0 TCU ASOCTD SSE SLP060

CYYZ;2009-06-26 02:00;CYYZ 260200Z 25008KT 12SM FEW120 SCT260 22/20 A2973 RMK AC2CI0 SLP064

CYYZ;2009-06-26 03:00;CYYZ 260300Z 27006KT 12SM FEW036 FEW120 21/20 A2973 RMK SC1AC1 SC TR SLP064

CYYZ;2009-06-26 04:00;CYYZ 260400Z 29006KT 15SM FEW120 FEW220 21/19 A2973 RMK AC1CI0 SLP064

CYYZ;2009-06-26 05:00;CYYZ 260500Z 31007KT 15SM FEW120 FEW220 22/19 A2973 RMK AC1CI0 SLP065

CYYZ;2009-06-26 06:00;CYYZ 260600Z 31008KT 15SM FEW100 SCT140 SCT230 21/19 A2972 RMK AC1AC2CI1 CI TR SLP063

CYYZ;2009-06-26 07:00;CYYZ 260700Z 27007KT 15SM FEW050CB FEW120 20/19 A2970 RMK CB1AC1 CB TR OCNL LTNG SSE SLP055

CYYZ;2009-06-26 08:00;CYYZ 260800Z 26007KT 12SM FEW050CB FEW120 19/18 A2970 RMK CB1AC1 CB TR OCNL LTNG ESE SLP055

CYYZ;2009-06-26 09:00;CYYZ 260900Z 27008KT 12SM FEW050 BKN130 20/18 A2969 RMK SC1AC3 SLP052

CYYZ;2009-06-26 10:00;CYYZ 261000Z 26006KT 15SM SCT120 19/18 A2970 RMK AC2 SLP056

CYYZ;2009-06-26 11:00;CYYZ 261100Z 25007KT 12SM FEW065 BKN085 20/19 A2971 RMK CU2AC4 SLP060

CYYZ;2009-06-26 12:00;CYYZ 261200Z CCA 27007KT 12SM FEW065 SCT092 BKN120 21/19 A2971 RMK CU2ACC2AC2 SLP059

CYYZ;2009-06-26 13:00;CYYZ 261300Z 27005KT 15SM FEW080 BKN100 22/18 A2971 RMK ACC2AC3 SLP059

CYYZ;2009-06-26 14:00;CYYZ 261400Z 32008KT 15SM FEW078 BKN088 23/16 A2972 RMK ACC2AC3 SLP062

CYYZ;2009-06-26 15:00;CYYZ 261500Z 33006KT 15SM FEW045 SCT097 25/16 A2972 RMK CU2AC2 SLP062

CYYZ;2009-06-26 16:00;CYYZ 261600Z 01010G15KT 15SM FEW045 SCT120 26/17 A2972 RMK CU2AC2 SLP063

CYYZ;2009-06-26 17:00;CYYZ 261700Z 36014G20KT 15SM FEW058 SCT120 26/16 A2973 RMK CU2AC1 SLP065

CYYZ;2009-06-26 18:00;CYYZ 261800Z 35015G24KT 15SM SCT059 SCT085 26/15 A2973 RMK CU3AC1 TCU ASOCTD SLP065

CYYZ;2009-06-26 19:00;CYYZ 261900Z 35018KT 15SM SCT062 SCT085 27/13 A2972 RMK CU3AC1 TCU ASOCTD SLP063

CYYZ;2009-06-26 20:00;CYYZ 262000Z 35019G25KT 15SM FEW059 SCT250 26/13 A2974 RMK CU2CI1 TCU ASOCTD SLP068

CYYZ;2009-06-26 21:00;CYYZ 262100Z 35018G24KT 15SM FEW062 SCT250 25/14 A2975 RMK CU2CI1 TCU ASOCTD SLP073

CYYZ;2009-06-26 22:00;CYYZ 262200Z 35019G24KT 15SM FEW062 SCT250 24/13 A2976 RMK CU2CI1 TCU ASOCTD SLP075

CYYZ;2009-06-26 23:00;CYYZ 262300Z 35018KT 15SM FEW045 23/13 A2977 RMK CU2 TCU ASOCTD SLP078

CYYZ;2009-06-27 00:00;CYYZ 270000Z 32016G22KT 15SM FEW045 23/12 A2977 RMK CU1 SLP080

CYYZ;2009-06-27 01:00;CYYZ 270100Z 33017KT 15SM FEW030 FEW090 FEW220 22/13 A2979 RMK CU1AC1CI1 CI TR SLP087

CYYZ;2009-06-27 02:00;CYYZ 270200Z 35012KT 15SM FEW080 FEW220 21/14 A2982 RMK AC2CI1 CI TR SLP096

CYYZ;2009-06-27 03:00;CYYZ 270300Z 35017KT 15SM SCT098 21/14 A2980 RMK AC4 SLP091

CYYZ;2009-06-27 04:00;CYYZ 270400Z 34009KT 15SM FEW095 20/14 A2981 RMK AC2 SLP094

CYYZ;2009-06-27 05:00;CYYZ 270500Z 34012G18KT 15SM FEW090 19/14 A2982 RMK AC2 SLP095

CYYZ;2009-06-27 06:00;CYYZ 270600Z 35011KT 15SM FEW090 18/13 A2982 RMK AC2 SLP096

CYYZ;2009-06-27 07:00;CYYZ 270700Z 35013KT 15SM FEW080 18/13 A2983 RMK AC1 SLP098

CYYZ;2009-06-27 08:00;CYYZ 270800Z 36009KT 15SM FEW080 17/13 A2984 RMK AC1 SLP103

CYYZ;2009-06-27 09:00;CYYZ 270900Z 34009KT 15SM FEW080 FEW230 17/13 A2986 RMK AC1CI1 CI TR SLP109

CYYZ;2009-06-27 10:00;CYYZ 271000Z 35014G20KT 15SM FEW100 SCT230 17/13 A2987 RMK AC1CI1 SLP115

CYYZ;2009-06-27 11:00;CYYZ 271100Z 35013KT 15SM FEW240 17/13 A2989 RMK CI1 SLP121

CYYZ;2009-06-27 12:00;CYYZ 271200Z 34014KT 15SM SKC 18/13 A2989 RMK SLP121

CYYZ;2009-06-27 13:00;CYYZ 271300Z 35011G18KT 15SM FEW250 20/13 A2990 RMK CI1 SLP125

CYYZ;2009-06-27 14:00;CYYZ 271400Z 33010KT 15SM FEW250 21/13 A2990 RMK CI1 SLP123

CYYZ;2009-06-27 15:00;CYYZ 271500Z 01015KT 15SM FEW250 23/11 A2989 RMK CI1 SLP119

CYYZ;2009-06-27 16:00;CYYZ 271600Z 35009G15KT 15SM FEW250 25/13 A2988 RMK CI1 SLP118

CYYZ;2009-06-27 17:00;CYYZ 271700Z 02010KT 15SM FEW045 FEW120 25/11 A2987 RMK CF1AC1 SLP115

CYYZ;2009-06-27 18:00;CYYZ 271800Z 35011G16KT 15SM FEW055 FEW120 26/11 A2987 RMK CF1AC1 SLP113

CYYZ;2009-06-27 19:00;CYYZ 271900Z 32012G18KT 15SM FEW055 FEW140 FEW250 27/13 A2987 RMK CF1AC1CI0 AC TR SLP113

CYYZ;2009-06-27 20:00;CYYZ 272000Z 33008KT 15SM FEW050 FEW250 27/11 A2986 RMK CF1CI1 SLP111

CYYZ;2009-06-27 21:00;CYYZ 272100Z 32009KT 15SM FEW050 SCT250 27/12 A2985 RMK CU2CI1 SLP106

CYYZ;2009-06-27 22:00;CYYZ 272200Z 36012KT 15SM FEW050 SCT250 26/12 A2984 RMK CU2CI2 SLP103

CYYZ;2009-06-27 23:00;CYYZ 272300Z 01013G18KT 15SM FEW055 BKN240 25/12 A2984 RMK SC1CI2 SLP103

CYYZ;2009-06-28 00:00;CYYZ 280000Z 01011KT 15SM FEW055 BKN240 23/10 A2983 RMK SC1CI3 SLP102

CYYZ;2009-06-28 01:00;CYYZ 280100Z 01008KT 15SM FEW055 BKN240 22/11 A2983 RMK SC1CI3 SLP100

CYYZ;2009-06-28 02:00;CYYZ 280200Z 36006KT 15SM BKN240 21/12 A2983 RMK CI4 SLP099

CYYZ;2009-06-28 03:00;CYYZ 280300Z 34008KT 15SM BKN240 21/13 A2981 RMK CI4 SLP093

CYYZ;2009-06-28 04:00;CYYZ 280400Z 00000KT 15SM SCT140 BKN240 21/13 A2980 RMK AC3CI3 SLP091

CYYZ;2009-06-28 05:00;CYYZ 280500Z 26002KT 15SM FEW140 BKN240 20/13 A2981 RMK AC2CI4 SLP092

CYYZ;2009-06-28 06:00;CYYZ 280600Z 29004KT 15SM FEW120 BKN230 18/13 A2979 RMK AC2CI2 SLP086

CYYZ;2009-06-28 07:00;CYYZ 280700Z 34003KT 15SM FEW120 BKN230 18/13 A2977 RMK AC2CI2 SLP079

CYYZ;2009-06-28 08:00;CYYZ 280800Z 31005KT 15SM FEW120 SCT160 BKN220 18/13 A2976 RMK AC2AC2CI2 SLP076

CYYZ;2009-06-28 09:00;CYYZ 280900Z 31004KT 15SM FEW130 BKN160 BKN230 18/14 A2976 RMK AC2AC2CI1 SLP075

CYYZ;2009-06-28 10:00;CYYZ 281000Z 00000KT 15SM SCT110 BKN140 BKN160 BKN230 19/14 A2975 RMK AC3AC2AC2CI1 SLP072

CYYZ;2009-06-28 11:00;CYYZ 281100Z 15002KT 15SM BKN082 BKN110 20/14 A2974 RMK AC5AC2 SLP068

CYYZ;2009-06-28 12:00;CYYZ 281200Z 14003KT 15SM BKN079 BKN110 19/15 A2974 RMK AC6AC2 SLP068

CYYZ;2009-06-28 13:00;CYYZ 281300Z 16006KT 15SM SCT064 BKN073 OVC120 20/15 A2971 RMK SC3AC3AC2 SLP058

CYYZ;2009-06-28 13:45;CYYZ 281345Z 18008KT 12SM -SHRA FEW035 SCT048 OVC086 20/ RMK SC2SC2AC4

CYYZ;2009-06-28 14:00;CYYZ 281400Z 19007KT 8SM -SHRA BKN052 BKN073 OVC090 19/15 A2968 RMK SC5AC2AC1 SLP051

CYYZ;2009-06-28 15:00;CYYZ 281500Z 16004KT 12SM -SHRA BKN062 OVC083 18/16 A2966 RMK SC6AC2 SLP043

CYYZ;2009-06-28 16:00;CYYZ 281600Z 19007KT 10SM -SHRA FEW023 OVC056 18/16 A2965 RMK SC2SC6 SLP040

CYYZ;2009-06-28 17:00;CYYZ 281700Z 15006KT 6SM -SHRA BR OVC044 17/16 A2964 RMK SC8 SLP038

CYYZ;2009-06-28 17:50;CYYZ 281750Z 12007KT 15SM FEW023 BKN058 18/ RMK SC2SC5

CYYZ;2009-06-28 18:00;CYYZ 281800Z 14007KT 15SM FEW022 BKN058 18/17 A2960 RMK SC2SC6 SLP023

CYYZ;2009-06-28 19:00;CYYZ 281900Z 14013KT 12SM SCT022 OVC041 20/18 A2959 RMK SC3SC5 SLP019

CYYZ;2009-06-28 20:00;CYYZ 282000Z 15008KT 15SM FEW012 OVC021 19/17 A2958 RMK SC2SC6 SLP015

CYYZ;2009-06-28 21:00;CYYZ 282100Z 13007KT 15SM SCT018 BKN024 20/18 A2957 RMK SC3SC4 SLP012

CYYZ;2009-06-28 22:00;CYYZ 282200Z 13006KT 15SM FEW023 21/18 A2955 RMK CU1 SLP006

CYYZ;2009-06-28 23:00;CYYZ 282300Z 07003KT 15SM FEW035CB FEW130 21/18 A2953 RMK CB1AC1 CB S-SW SLP999

CYYZ;2009-06-29 00:00;CYYZ 290000Z 07003KT 15SM FEW040 BKN160 20/18 A2954 RMK SC2AC6 SLP002

CYYZ;2009-06-29 00:24;CYYZ 290024Z 12005KT 15SM -TSRA FEW040CB BKN050 BKN130 20/ RMK CB2SC2AC2 LTGCG NW

CYYZ;2009-06-29 00:38;CYYZ 290038Z 31014KT 1 1/2SM +TSRA FEW015 BKN023CB OVC050 19/ RMK CF1CB6SC1 PRESRR

CYYZ;2009-06-29 00:47;CYYZ 290047Z 14005G18KT 15SM -TSRA FEW015 BKN030CB BKN100 18/ RERA RMK CF1CB5AC2 VIS 4 E RAINBOW

CYYZ;2009-06-29 00:53;CYYZ 290053Z 06003KT 15SM SCT030CB BKN100 BKN160 18/ RETSRA RMK CB4AC2AC2 VIS 4 E

CYYZ;2009-06-29 01:00;CYYZ 290100Z 00000KT 15SM FEW030CB SCT100 BKN170 18/16 A2955 RETSRA RMK CB2AC1AC4 VIS LWR E LTGIC N E SLP006

CYYZ;2009-06-29 01:49;CYYZ 290149Z 05007KT 15SM FEW006 SCT058 BKN150 18/ RMK SF2SC2AC3

CYYZ;2009-06-29 02:00;CYYZ 290200Z 09003KT 15SM FEW006 FEW050 BKN150 18/17 A2957 RMK CF1SC1AC6 SLP012

CYYZ;2009-06-29 03:00;CYYZ 290300Z 00000KT 12SM FEW010 FEW160 18/17 A2957 RMK SF1AC1 SLP012

CYYZ;2009-06-29 04:00;CYYZ 290400Z 25005KT 8SM FEW010 FEW100 17/17 A2955 RMK ST1AC1 SLP008

CYYZ;2009-06-29 05:00;CYYZ 290500Z 29004KT 15SM FEW085 16/16 A2955 RMK AC1 SLP005

CYYZ;2009-06-29 06:00;CYYZ 290600Z 00000KT 15SM SKC 15/14 A2954 RMK SLP002

CYYZ;2009-06-29 07:00;CYYZ 290700Z 27005KT 15SM FEW070 FEW140 15/14 A2953 RMK AC1AC1 SLP001

CYYZ;2009-06-29 08:00;CYYZ 290800Z 00000KT 15SM FEW070 FEW140 16/15 A2952 RMK AC1AC1 SLP998

CYYZ;2009-06-29 09:00;CYYZ 290900Z 00000KT 15SM FEW093 BKN130 15/14 A2951 RMK AC1AC4 SLP994

CYYZ;2009-06-29 10:00;CYYZ 291000Z 27007KT 15SM FEW030 FEW070 BKN098 16/15 A2952 RMK SC1AC1AC6 SLP995

CYYZ;2009-06-29 11:00;CYYZ 291100Z 29005KT 15SM FEW062 BKN093 17/15 A2952 RMK SC1AC4 SLP997

CYYZ;2009-06-29 12:00;CYYZ 291200Z 27007KT 15SM FEW058 BKN100 17/15 A2951 RMK SC1AC3 SLP992

CYYZ;2009-06-29 13:00;CYYZ 291300Z 29006KT 15SM -SHRA FEW029 FEW042 BKN084 19/15 A2951 RMK SC1SC2AC3 SLP991

CYYZ;2009-06-29 13:23;CYYZ 291323Z 29006KT 15SM FEW025 BKN110 20/ RMK SC2AC2

CYYZ;2009-06-29 14:00;CYYZ 291400Z 30008KT 15SM FEW070 SCT110 21/15 A2950 RMK AC1AC2 SLP988

CYYZ;2009-06-29 15:00;CYYZ 291500Z 33002KT 15SM FEW030 FEW092 SCT120 22/15 A2948 RMK CU1AC1AC2 CU TR SLP982

CYYZ;2009-06-29 16:00;CYYZ 291600Z 13009KT 15SM SCT042 SCT110 23/16 A2947 RMK CU4AC1 SLP979

CYYZ;2009-06-29 16:42;CYYZ 291642Z 16009KT 15SM -SHRA FEW042 BKN053TCU BKN110 22/ RMK SC2TCU4AC1

CYYZ;2009-06-29 17:00;CYYZ 291700Z 13007KT 15SM -SHRA FEW023 BKN053TCU BKN110 20/16 A2946 RERA RMK SC2TCU4AC1 SLP974

CYYZ;2009-06-29 17:29;CYYZ 291729Z 14008KT 15SM SCT046 BKN057TCU BKN110 20/ RMK SC3TCU3AC1 SH SE-S

CYYZ;2009-06-29 18:00;CYYZ 291800Z 14007KT 15SM SCT042 BKN062CB BKN110 20/16 A2944 RMK SC4CB2AC2 CB SE SLP970

CYYZ;2009-06-29 18:33;CYYZ 291833Z 21007KT 15SM -TSRA SCT042 BKN052CB OVC078 20/ RMK SC4CB2AC2 CB SE

CYYZ;2009-06-29 19:00;CYYZ 291900Z 21008KT 15SM -TSRA FEW036 BKN056 OVC094 19/14 A2945 RMK CU1SC4AC3 CB EMBD SE SLP972

CYYZ;2009-06-29 19:18;CYYZ 291918Z 20007KT 15SM -SHRA FEW037 SCT048 BKN087 19/ RETS RMK CU1SC3AC3 TCU ASOCTD

CYYZ;2009-06-29 19:38;CYYZ 291938Z 21008KT 15SM FEW038 BKN056 BKN140 20/ RETS RMK SC2SC4AC2 TCU ASOCTD

CYYZ;2009-06-29 20:00;CYYZ 292000Z CCA 23012KT 15SM -SHRA SCT043 OVC082 20/15 A2947 RETS RMK SC3AC5 TCU EMBD SLP978

CYYZ;2009-06-29 21:00;CYYZ 292100Z 24006KT 12SM -SHRA FEW048 BKN062 OVC083 18/15 A2945 RMK CU2SC3AC3 SLP974

CYYZ;2009-06-29 22:00;CYYZ 292200Z 19008KT 12SM -SHRA FEW045 BKN062 OVC076 18/15 A2946 RMK CU1SC6AC2 TCU EMBD VIS W 6 SLP978

CYYZ;2009-06-29 23:00;CYYZ 292300Z 18004KT 15SM -SHRA BKN088 BKN160 18/15 A2945 RMK AC6AC1 SLP972

CYYZ;2009-06-29 23:47;CYYZ 292347Z 22004KT 15SM FEW040CB BKN065 BKN088 17/ RMK CB1SC4AC2 SHWRS SW

CYYZ;2009-06-30 00:00;CYYZ 300000Z 24005KT 15SM FEW040CB BKN060 OVC082 17/15 A2946 RMK CB1SC6AC1 SHWRS S-SW SLP977

CYYZ;2009-06-30 00:18;CYYZ 300018Z 20003KT 15SM -SHRA BKN045CB OVC075 17/ RMK CB5AC3

CYYZ;2009-06-30 01:00;CYYZ 300100Z 20007KT 15SM -SHRA FEW045CB SCT085 OVC100 17/15 A2945 RMK CB2AC2AS4 SLP973

CYYZ;2009-06-30 02:00;CYYZ 300200Z 00000KT 15SM FEW010 FEW100 BKN150 17/16 A2943 RMK SF1AC2AS6 SLP967

CYYZ;2009-06-30 03:00;CYYZ 300300Z 18003KT 15SM FEW010 FEW090 BKN170 16/16 A2943 RMK SF1AC1AC6 SLP965

CYYZ;2009-06-30 04:00;CYYZ 300400Z 22004KT 15SM FEW010 BKN110 BKN160 16/15 A2943 RMK SF1AC6AC1 SLP964

CYYZ;2009-06-30 05:00;CYYZ 300500Z 25002KT 15SM FEW098 BKN170 15/15 A2942 RMK AC1AC6 SLP962

CYYZ;2009-06-30 06:00;CYYZ 300600Z 22004KT 15SM FEW022 BKN078 OVC092 16/15 A2942 RMK SF1AC6AC2 SLP962

CYYZ;2009-06-30 07:00;CYYZ 300700Z 23007KT 15SM FEW020 BKN070 OVC130 16/15 A2942 RMK SF1AC7AC1 SLP961

CYYZ;2009-06-30 07:18;CYYZ 300718Z 21006KT 15SM -SHRA FEW020 BKN070 OVC095 16/ RMK SF1AC5AC3

CYYZ;2009-06-30 08:00;CYYZ 300800Z 19003KT 12SM -SHRA FEW020 OVC045 16/15 A2941 RMK SF1SC8 SLP958

CYYZ;2009-06-30 08:43;CYYZ 300843Z 17003KT 15SM FEW015 BKN038 BKN065 16/ RMK SF1SC6SC1

CYYZ;2009-06-30 09:00;CYYZ 300900Z 18002KT 15SM BKN040 BKN060 16/15 A2941 RMK SC6SC1 SLP958

CYYZ;2009-06-30 10:00;CYYZ 301000Z 22003KT 15SM FEW017 BKN040 OVC050 16/15 A2942 RMK SC1SC6SC1 SLP962

CYYZ;2009-06-30 11:00;CYYZ 301100Z 21003KT 15SM FEW040 BKN052 BKN092 17/15 A2942 RMK CU1SC5AC2 SLP963

CYYZ;2009-06-30 12:00;CYYZ 301200Z 22003KT 15SM FEW021 FEW040 BKN053 BKN098 17/15 A2942 RMK CF1CU2SC3AC2 CF TR SLP963

CYYZ;2009-06-30 13:00;CYYZ 301300Z 25004KT 15SM FEW014 SCT040TCU BKN048 BKN070 17/15 A2943 RMK CF2TCU2SC2AC2 SLP967

CYYZ;2009-06-30 14:00;CYYZ 301400Z 17004KT 15SM FEW019 BKN032 BKN095 BKN250 19/15 A2943 RMK CF2CU3AC2CI1 TCU ASOCTD SLP966

CYYZ;2009-06-30 15:00;CYYZ 301500Z 15005KT 15SM SCT022 BKN045 BKN098 19/16 A2944 RMK CU4SC2AC2 TCU ASOCTD SLP968

CYYZ;2009-06-30 16:00;CYYZ 301600Z 15010KT 12SM -SHRA SCT027 BKN048 BKN100 19/15 A2944 RMK CU3SC2AC2 TCU ASOCTD SLP969

CYYZ;2009-06-30 16:10;CYYZ 301610Z 22008KT 2SM SHRA SCT027 BKN048 BKN100 19/ RMK CU3SC2AC2 TCU ASOCTD

CYYZ;2009-06-30 16:12;CYYZ 301612Z 26012KT 1 1/4SM +SHRA FEW006 BKN018 BKN100 17/ RMK SF2CU3AC2 TCU ASOCTD

CYYZ;2009-06-30 16:24;CYYZ 301624Z 23008KT 5SM -SHRA BR FEW014 BKN026 BKN085 17/ RERA RMK SF2CU4AC2

CYYZ;2009-06-30 17:00;CYYZ 301700Z 23006KT 10SM -SHRA FEW018 BKN038TCU BKN120 20/18 A2945 RERA RMK CF2TCU3AC2 SLP972

CYYZ;2009-06-30 17:42;CYYZ 301742Z 25005KT 10SM -TSRA FEW019 BKN045TCU BKN120 19/ RMK CF2TCU3AC2 CB EMBD

CYYZ;2009-06-30 18:00;CYYZ 301800Z 24004KT 10SM -TSRA FEW028CB BKN042TCU BKN120 20/15 A2946 RMK CB2TCU4AC2 CB E SLP975

CYYZ;2009-06-30 19:00;CYYZ 301900Z 00000KT 8SM -TSRA SCT042CB BKN061 BKN120 17/15 A2947 RERA RMK CB3SC2AC2 CB NNE SLP980

CYYZ;2009-06-30 19:19;CYYZ 301919Z 11003KT 15SM -SHRA SCT039 BKN055 BKN098 18/ RETS RMK CU3SC2AC2

CYYZ;2009-06-30 19:37;CYYZ 301937Z 00000KT 15SM SCT035 BKN057 BKN098 20/ RETS RMK CU3SC2AC2

CYYZ;2009-06-30 20:00;CYYZ 302000Z 19005KT 15SM SCT035TCU BKN098 BKN250 20/16 A2947 RETS RMK TCU4AC2CI1 SLP980

CYYZ;2009-06-30 20:26;CYYZ 302026Z 22008KT 12SM -SHRA SCT033TCU BKN140 BKN250 20/ RMK TCU4AC2CI2

CYYZ;2009-06-30 21:00;CYYZ 302100Z 16004KT 15SM SCT038TCU BKN078 BKN250 20/16 A2948 RMK TCU3AC2CI2 SLP984

CYYZ;2009-06-30 22:00;CYYZ 302200Z 17008KT 15SM -SHRA SCT034TCU BKN110 BKN230 19/16 A2949 RMK TCU3AC2CI2 CB ASOCTD ENE SLP988

CYYZ;2009-06-30 23:00;CYYZ 302300Z 21007KT 15SM -SHRA SCT040CB BKN060 BKN140 18/15 A2952 RMK CB4SC2AC1 SLP996

CYYZ;2009-07-01 01:00;CYYZ 010100Z 21003KT 15SM -SHRA FEW030 FEW040CB BKN095 17/16 A2955 RMK SF1CB2AC5 SLP006

CYYZ;2009-07-01 02:00;CYYZ 010200Z 23004KT 15SM -SHRA FEW030 BKN100 17/16 A2957 RMK SF1AC6 SLP012

CYYZ;2009-07-01 02:54;CYYZ 010254Z 26004KT 15SM FEW025 BKN095 17/ RMK SF1AC4

CYYZ;2009-07-01 03:00;CYYZ 010300Z 26003KT 15SM SCT095 BKN170 17/16 A2956 RMK AC2AC1 SLP010

CYYZ;2009-07-01 04:00;CYYZ 010400Z 27004KT 15SM FEW110 16/15 A2956 RMK AC1 SLP011

CYYZ;2009-07-01 05:00;CYYZ 010500Z 31006KT 15SM SCT012 BKN016 BKN065 16/15 A2958 RMK SC3SC2SC1 SLP015

CYYZ;2009-07-01 06:00;CYYZ 010600Z 33006KT 15SM FEW020 BKN100 16/15 A2958 RMK SF1AC6 SLP018

CYYZ;2009-07-01 07:00;CYYZ 010700Z 00000KT 15SM FEW015 BKN068 BKN100 16/15 A2959 RMK SF1AC6AC1 SLP019

CYYZ;2009-07-01 08:00;CYYZ 010800Z 27005KT 15SM BKN020 BKN026 16/15 A2959 RMK SC6SC2 SLP021

CYYZ;2009-07-01 09:00;CYYZ 010900Z 27004KT 15SM BKN018 BKN042 15/15 A2961 RMK SC6SC2 SLP025

CYYZ;2009-07-01 10:00;CYYZ 011000Z 28005KT 15SM FEW018 FEW130 BKN270 15/14 A2961 RMK SC1AC1CI2 SLP028

CYYZ;2009-07-01 11:00;CYYZ 011100Z 31007KT 15SM FEW018 BKN100 BKN260 16/15 A2963 RMK CF1AC5CI1 CF TR SLP033

CYYZ;2009-07-01 12:00;CYYZ 011200Z 30005KT 15SM SCT022 BKN100 BKN260 16/14 A2965 RMK SC3AC3CI1 SLP042

CYYZ;2009-07-01 13:00;CYYZ 011300Z 29002KT 15SM FEW018 FEW025 BKN110 BKN260 17/15 A2966 RMK CF1SC2AC3CI1 CI TR SLP044

CYYZ;2009-07-01 14:00;CYYZ 011400Z 19004KT 15SM FEW016 BKN019 BKN110 19/16 A2967 RMK CF2SC4AC1 SLP048

CYYZ;2009-07-01 15:00;CYYZ 011500Z 21008KT 15SM FEW020 BKN024 BKN120 19/15 A2968 RMK CU2SC3AC2 SLP051

CYYZ;2009-07-01 16:00;CYYZ 011600Z 22005KT 15SM SCT030 BKN045 BKN120 21/16 A2968 RMK CU3SC2AC2 SLP052

CYYZ;2009-07-01 17:00;CYYZ 011700Z 23005KT 15SM SCT034 BKN058 BKN120 21/15 A2968 RMK CU3SC2AC2 SLP051

CYYZ;2009-07-01 18:00;CYYZ 011800Z 26003KT 15SM SCT038 BKN062 BKN080 BKN120 21/14 A2967 RMK CU3SC2AC2AC1 SLP048

CYYZ;2009-07-01 19:00;CYYZ 011900Z 27002KT 15SM SCT037 BKN063 BKN120 23/16 A2967 RMK CU4SC2AC1 TCU ASOCTD SLP048

CYYZ;2009-07-01 20:00;CYYZ 012000Z 14004KT 15SM SCT042 BKN063 BKN120 22/16 A2967 RMK CU4SC2AC1 TCU ASOCTD SLP048

CYYZ;2009-07-01 21:00;CYYZ 012100Z 17010KT 15SM SCT038TCU BKN061 BKN098 BKN220 21/15 A2967 RMK TCU3SC2AC2CI1 SLP049

CYYZ;2009-07-01 21:09;CYYZ 012109Z 16010KT 15SM -SHRA SCT042TCU BKN063 BKN100 BKN220 21/ RMK TCU3SC2AC2CI1

CYYZ;2009-07-01 21:40;CYYZ 012140Z 19007KT 15SM SCT042TCU BKN063 BKN120 BKN220 21/ RMK TCU3SC2AC2CI1

CYYZ;2009-07-01 22:00;CYYZ 012200Z 19007KT 15SM FEW042 SCT064 BKN100 BKN240 22/15 A2968 RMK CU2SC2AC2CI2 TCU ASOCTD SLP052

CYYZ;2009-07-01 23:00;CYYZ 012300Z 18004KT 15SM FEW040 SCT064 BKN110 BKN240 21/15 A2970 RMK CU2SC2AC2CI2 TCU ASOCTD SLP056

CYYZ;2009-07-02 00:00;CYYZ 020000Z 23005KT 15SM FEW035 FEW040 SCT100 BKN110 21/15 A2971 RMK CU1SC2AC2AC3 SLP059

CYYZ;2009-07-02 00:26;CYYZ 020026Z 22005KT 12SM -SHRA FEW045 FEW065 SCT090 BKN100 21/ RMK CU1SC2AC2AC3 PCPN VRY LGT

CYYZ;2009-07-02 00:42;CYYZ 020042Z 26005KT 15SM FEW040 FEW060 SCT090 BKN110 20/ RMK CU1SC2AC2AC3

CYYZ;2009-07-02 01:00;CYYZ 020100Z 27002KT 15SM FEW030 BKN100 BKN130 19/17 A2972 RMK SC2AC3AC2 SLP064

CYYZ;2009-07-02 02:00;CYYZ 020200Z 17006KT 15SM FEW030 SCT040 BKN110 19/16 A2974 RMK SC2SC2AC4 SLP070

CYYZ;2009-07-02 03:00;CYYZ 020300Z 19002KT 15SM FEW030 BKN110 19/17 A2974 RMK SC2AC4 SLP071

CYYZ;2009-07-02 04:00;CYYZ 020400Z 28004KT 15SM FEW030 SCT100 BKN160 18/17 A2974 RMK SC2AC2AC3 SLP069

CYYZ;2009-07-02 05:00;CYYZ 020500Z 09003KT 15SM FEW054 SCT061 BKN100 18/16 A2974 RMK SC2SC2AC4 SLP069

CYYZ;2009-07-02 06:00;CYYZ 020600Z 04002KT 12SM SCT016 BKN060 BKN090 18/16 A2973 RMK SC3SC2AC2 SLP068

CYYZ;2009-07-02 07:00;CYYZ 020700Z 01004KT 12SM OVC008 18/17 A2973 RMK SC8 SLP067

CYYZ;2009-07-02 08:00;CYYZ 020800Z 35004KT 10SM FEW007 OVC017 17/16 A2973 RMK SF2SC6 SLP068

CYYZ;2009-07-02 09:00;CYYZ 020900Z 31006KT 10SM BKN018 BKN030 OVC160 17/16 A2974 RMK SC5SC2AC2 SLP069

CYYZ;2009-07-02 09:20;CYYZ 020920Z 34008KT 10SM SCT007 BKN014 OVC030 17/ RMK SF3SC3SC2

CYYZ;2009-07-02 10:00;CYYZ 021000Z CCA 32009KT 12SM -SHRA FEW009 BKN014 OVC030 16/15 A2975 RMK SF2SC4SC2 SLP073

CYYZ;2009-07-02 11:00;CYYZ 021100Z 35010G15KT 12SM -SHRA FEW007 BKN013 OVC023 16/15 A2977 RMK SF1SC6SC2 SLP079

CYYZ;2009-07-02 11:23;CYYZ 021123Z 35012G18KT 15SM FEW009 SCT014 OVC069 16/ RMK SF1SC3AC5

CYYZ;2009-07-02 12:00;CYYZ 021200Z 35013KT 15SM SCT012 BKN058 OVC073 16/14 A2977 RMK SC3SC2AC2 SLP082

CYYZ;2009-07-02 13:00;CYYZ 021300Z 35014KT 15SM FEW012 SCT064 BKN082 17/14 A2978 RMK SC2SC2AC3 SLP084

CYYZ;2009-07-02 14:00;CYYZ 021400Z 35011KT 15SM FEW015 SCT062 BKN089 17/15 A2979 RMK SC2SC2AC4 SLP086

CYYZ;2009-07-02 15:00;CYYZ 021500Z 35010KT 15SM FEW022 BKN091 18/15 A2978 RMK SC2AC5 SLP085

CYYZ;2009-07-02 16:00;CYYZ 021600Z 35010KT 15SM SCT018 BKN110 19/16 A2979 RMK SC3AC3 SLP087

CYYZ;2009-07-02 16:38;CYYZ 021638Z 35009KT 15SM -SHRA SCT020 BKN032 BKN120 20/ RMK SC3SC2AC2

CYYZ;2009-07-02 17:00;CYYZ 021700Z 35007KT 15SM -SHRA FEW020 BKN024 BKN120 19/16 A2979 RMK CU2SC3AC2 TCU ASOCTD W SLP087

CYYZ;2009-07-02 17:27;CYYZ 021727Z 35008KT 15SM FEW024 BKN030 BKN120 19/ RMK CU2SC2AC1 TCU ASOCTED W SE

CYYZ;2009-07-02 18:00;CYYZ 021800Z 36006KT 15SM FEW026 SCT032 BKN150 19/16 A2979 RMK CU2SC2AC2 TCU ASOCTD SE W SLP087

CYYZ;2009-07-02 19:00;CYYZ 021900Z 35010KT 15SM FEW028 BKN036 BKN092 21/15 A2979 RMK CU2SC4AC2 SLP088

CYYZ;2009-07-02 19:26;CYYZ 021926Z 30008KT 15SM -SHRA BKN026 BKN096 21/ RMK SC5AC2 CU ASOCTD

CYYZ;2009-07-02 20:00;CYYZ 022000Z 32006KT 15SM SCT026 BKN140 21/18 A2979 RMK SC3AC2 CU ASUCTD SLP086

CYYZ;2009-07-02 21:00;CYYZ 022100Z CCA 02009KT 15SM FEW028 SCT036 BKN096 BKN230 21/16 A2978 RMK SC1CU2AC2CI1 CI TR TCU ASOCTD SLP084

CYYZ;2009-07-02 22:00;CYYZ 022200Z 36007KT 15SM SCT038 BKN100 BKN240 21/15 A2978 RMK CU3AC2CI1 TCU ASOCTD SLP083

CYYZ;2009-07-02 22:49;CYYZ 022249Z CCA 36011G16KT 12SM -SHRA SCT042 BKN060 BKN090 BKN240 21/ RMK CU3SC2AC2CI0 TCU ASOCTD

CYYZ;2009-07-02 23:00;CYYZ 022300Z 32010KT 12SM -SHRA FEW042 BKN061 BKN110 BKN240 20/15 A2980 RMK CU2SC2AC2CI1 TCU ASOCTD SLP091

CYYZ;2009-07-02 23:36;CYYZ 022336Z 29003KT 15SM FEW034 BKN055 BKN110 BKN240 19/ RMK CU2SC2AC2CI1

CYYZ;2009-07-03 00:00;CYYZ 030000Z 35007KT 15SM FEW038 BKN062 BKN120 20/15 A2981 RMK CU2SC3AC2 SLP095

CYYZ;2009-07-03 00:44;CYYZ 030044Z 31008KT 12SM -SHRA FEW037 BKN062 BKN110 19/ RMK CU2SC3AC2

CYYZ;2009-07-03 01:00;CYYZ 030100Z 29007KT 12SM -SHRA FEW034 BKN040 BKN110 19/15 A2983 RMK CU2SC3AC2 SLP100

CYYZ;2009-07-03 01:46;CYYZ 030146Z 28007KT 12SM FEW034 BKN047 BKN077 BKN110 18/ RMK CU2SC3AC2AC1

CYYZ;2009-07-03 02:00;CYYZ 030200Z 28008KT 15SM FEW034 BKN041 BKN078 BKN120 18/16 A2984 RMK CU2SC3AC2AC1 SLP104

CYYZ;2009-07-03 03:00;CYYZ 030300Z 34009KT 15SM BKN019 18/15 A2984 RMK SC6 SLP106

CYYZ;2009-07-03 04:00;CYYZ 030400Z 29007KT 15SM BKN029 17/13 A2985 RMK SC5 SLP108

CYYZ;2009-07-03 05:00;CYYZ 030500Z 31008KT 15SM FEW031 BKN140 16/14 A2985 RMK SC2AC2 SLP107

CYYZ;2009-07-03 06:00;CYYZ 030600Z 31006KT 15SM FEW028 BKN140 15/14 A2984 RMK SC2AC2 SLP106

CYYZ;2009-07-03 07:00;CYYZ 030700Z 31008KT 15SM BKN150 16/14 A2985 RMK AC5 SLP108

CYYZ;2009-07-03 08:00;CYYZ 030800Z 29011KT 15SM BKN018 BKN150 16/14 A2985 RMK SC6AC1 SLP109

CYYZ;2009-07-03 09:00;CYYZ 030900Z 34006KT 15SM BKN019 BKN150 16/13 A2986 RMK SC6AC2 SLP110

CYYZ;2009-07-03 10:00;CYYZ 031000Z 31004KT 15SM BKN020 OVC068 16/14 A2987 RMK SC6AC2 SLP116

CYYZ;2009-07-03 11:00;CYYZ 031100Z 31007KT 15SM BKN018 OVC070 17/14 A2988 RMK SC7AC1 SLP118

CYYZ;2009-07-03 12:00;CYYZ 031200Z 32006KT 15SM SCT020 BKN062 BKN140 17/14 A2989 RMK SC3SC2AC1 SLP120

CYYZ;2009-07-03 13:00;CYYZ 031300Z 31013KT 15SM OVC022 18/14 A2989 RMK SC8 SLP120

CYYZ;2009-07-03 14:00;CYYZ 031400Z 31006KT 15SM SCT023 19/15 A2987 RMK SC3 SLP116

CYYZ;2009-07-03 15:00;CYYZ 031500Z 31004KT 15SM BKN026 BKN070 21/15 A2988 RMK SC5AC1 SLP118

CYYZ;2009-07-03 16:00;CYYZ 031600Z 27006KT 15SM SCT032 BKN041 22/15 A2989 RMK CU3SC3 SLP120

CYYZ;2009-07-03 17:00;CYYZ 031700Z 29014KT 15SM FEW034 BKN045 22/15 A2989 RMK CU2SC4 TCU ASOCTD SLP121

CYYZ;2009-07-03 18:00;CYYZ 031800Z 30016G22KT 15SM SCT036 BKN062 BKN072 22/15 A2989 RMK CU3SC2AC1 TCU ASOCTD E SLP121

CYYZ;2009-07-03 19:00;CYYZ 031900Z 31020KT 15SM SCT036 BKN086 22/16 A2989 RMK CU3AC2 SLP120

CYYZ;2009-07-03 20:00;CYYZ 032000Z 30015G21KT 15SM SCT032 BKN041 BKN090 22/15 A2989 RMK CU3SC2AC1 SLP121

CYYZ;2009-07-03 21:00;CYYZ 032100Z 30020G26KT 15SM BKN031 21/14 A2989 RMK SC6 SLP123

CYYZ;2009-07-03 22:00;CYYZ 032200Z 30021G27KT 15SM BKN033 21/14 A2989 RMK CU5 SLP123

CYYZ;2009-07-03 23:00;CYYZ 032300Z 31020KT 15SM BKN025 BKN055 19/14 A2992 RMK SC6SC1 SLP131

CYYZ;2009-07-04 00:00;CYYZ 040000Z 31018KT 15SM BKN025 BKN055 18/13 A2994 RMK SC6SC1 SLP138

CYYZ;2009-07-04 01:00;CYYZ 040100Z 31013KT 15SM FEW024 BKN060 17/13 A2994 RMK CF2SC4 SLP140

CYYZ;2009-07-04 02:00;CYYZ 040200Z 30014KT 15SM BKN063 17/12 A2995 RMK SC7 SLP142

CYYZ;2009-07-04 03:00;CYYZ 040300Z 30009KT 15SM FEW020 BKN060 17/12 A2995 RMK SF1SC7 SLP140

CYYZ;2009-07-04 04:00;CYYZ 040400Z 31020G27KT 15SM FEW025 BKN062 16/12 A2995 RMK CF1SC6 SLP140

CYYZ;2009-07-04 05:00;CYYZ 040500Z 30015G21KT 15SM FEW020 FEW060 15/11 A2994 RMK SF1SC1 SLP138

CYYZ;2009-07-04 06:00;CYYZ 040600Z 30013G19KT 15SM SKC 14/10 A2993 RMK SLP137

CYYZ;2009-07-04 07:00;CYYZ 040700Z 31014KT 15SM FEW060 14/10 A2993 RMK SC2 SLP136

CYYZ;2009-07-04 08:00;CYYZ 040800Z 29008KT 15SM BKN018 14/11 A2993 RMK SC6 SLP137

CYYZ;2009-07-04 09:00;CYYZ 040900Z 31009KT 15SM FEW020 FEW080 13/11 A2993 RMK SC1AC0 SLP136

CYYZ;2009-07-04 10:00;CYYZ 041000Z 31012KT 15SM FEW020 FEW060 FEW230 13/11 A2993 RMK SC1SC1CI1 SLP136

CYYZ;2009-07-04 11:00;CYYZ 041100Z 30011G16KT 15SM FEW020 FEW030 FEW230 14/12 A2995 RMK CF1SC1CI1 SLP142

CYYZ;2009-07-04 12:00;CYYZ 041200Z 30016KT 15SM FEW025 FEW035 FEW230 16/11 A2995 RMK CU1SC1CI1 SLP143

CYYZ;2009-07-04 13:00;CYYZ 041300Z 31019KT 15SM FEW025 FEW035 FEW220 16/10 A2996 RMK CU1SC1CI1 SLP147

CYYZ;2009-07-04 14:00;CYYZ 041400Z 31015G24KT 15SM FEW035 FEW230 18/10 A2996 RMK CU2CI1 SLP146

CYYZ;2009-07-04 15:00;CYYZ 041500Z 31015G28KT 15SM FEW035 FEW250 19/10 A2996 RMK CU2CI1 CI TR SLP147

CYYZ;2009-07-04 16:00;CYYZ 041600Z 32015G22KT 15SM SCT045 20/10 A2997 RMK CU3 SLP149

CYYZ;2009-07-04 17:00;CYYZ 041700Z 29015G22KT 15SM BKN045 BKN100 20/10 A2997 RMK CU5AC1 AC TR SLP148

CYYZ;2009-07-04 18:00;CYYZ 041800Z 31014G25KT 15SM BKN050 BKN100 21/10 A2996 RMK CU5AC1 SLP147

CYYZ;2009-07-04 19:00;CYYZ 041900Z 34014G20KT 15SM BKN050 BKN220 21/09 A2996 RMK CU6CI1 CI TR SLP145

CYYZ;2009-07-04 20:00;CYYZ 042000Z 30014KT 15SM SCT058 SCT250 22/10 A2995 RMK CU3CI1 SLP144

CYYZ;2009-07-04 21:00;CYYZ 042100Z 30009G18KT 15SM FEW055 SCT250 22/09 A2994 RMK CU2CI1 SLP139

CYYZ;2009-07-04 22:00;CYYZ 042200Z 30014KT 15SM FEW060 FEW230 22/08 A2993 RMK CU1CI1 SLP137

CYYZ;2009-07-04 23:00;CYYZ 042300Z 30012KT 15SM FEW050 FEW250 21/07 A2993 RMK CF1CI1 SLP137

CYYZ;2009-07-05 00:00;CYYZ 050000Z 31014KT 15SM FEW045 FEW250 20/06 A2994 RMK SF1CI1 SLP138

CYYZ;2009-07-05 01:00;CYYZ 050100Z 30013KT 15SM FEW250 19/07 A2994 RMK CI1 SLP139

CYYZ;2009-07-05 02:00;CYYZ 050200Z 29007KT 15SM SKC 16/07 A2995 RMK SLP142

CYYZ;2009-07-05 03:00;CYYZ 050300Z 29005KT 15SM SKC 16/07 A2995 RMK SLP142

CYYZ;2009-07-05 04:00;CYYZ 050400Z 29005KT 15SM SKC 15/07 A2994 RMK SLP140

CYYZ;2009-07-05 05:00;CYYZ 050500Z 28005KT 15SM SKC 13/08 A2994 RMK SLP139

CYYZ;2009-07-05 06:00;CYYZ 050600Z 28005KT 15SM SKC 13/08 A2993 RMK SLP136

CYYZ;2009-07-05 07:00;CYYZ 050700Z 29005KT 15SM SKC 13/07 A2993 RMK SLP135

CYYZ;2009-07-05 08:00;CYYZ 050800Z 27004KT 15SM SKC 13/07 A2992 RMK SLP134

CYYZ;2009-07-05 09:00;CYYZ 050900Z 24004KT 15SM FEW035 12/07 A2992 RMK SF1 SLP133

CYYZ;2009-07-05 10:00;CYYZ 051000Z 30004KT 15SM FEW070 FEW100 12/07 A2993 RMK AC1AC1 SLP137

CYYZ;2009-07-05 11:00;CYYZ 051100Z 33005KT 15SM FEW120 14/08 A2993 RMK AC1 SLP137

CYYZ;2009-07-05 12:00;CYYZ 051200Z 32003KT 15SM FEW100 16/08 A2993 RMK AC2 SLP136

CYYZ;2009-07-05 13:00;CYYZ 051300Z 27006KT 15SM FEW052 FEW100 19/10 A2994 RMK SC1AC1 SLP138

CYYZ;2009-07-05 14:00;CYYZ 051400Z 32003KT 15SM FEW045 BKN051 21/09 A2992 RMK CU1SC5 SLP133

CYYZ;2009-07-05 15:00;CYYZ 051500Z 23004KT 15SM FEW042 BKN051 22/10 A2992 RMK CU1SC4 SLP130

CYYZ;2009-07-05 16:00;CYYZ 051600Z 16005KT 15SM SCT049 BKN055 22/12 A2989 RMK CU3SC2 SLP121

CYYZ;2009-07-05 17:00;CYYZ 051700Z 15010KT 15SM SCT052 BKN059 22/12 A2987 RMK CU3SC2 SLP116

CYYZ;2009-07-05 18:00;CYYZ 051800Z 17009KT 15SM SCT049 BKN064 23/13 A2986 RMK CU3SC2 SLP112

CYYZ;2009-07-05 19:00;CYYZ 051900Z 15009KT 15SM FEW052 SCT062 23/12 A2984 RMK CU2SC1 SLP106

CYYZ;2009-07-05 20:00;CYYZ 052000Z 16008G15KT 15SM FEW054 SCT061 SCT250 23/13 A2983 RMK CU2SC1CI1 CI TR SLP101

CYYZ;2009-07-05 21:00;CYYZ 052100Z 16007KT 15SM FEW052 SCT250 22/15 A2981 RMK CU2CI1 SLP095

CYYZ;2009-07-05 22:00;CYYZ 052200Z 16007KT 15SM FEW052 SCT070 SCT250 23/16 A2980 RMK CU2AC1CI1 AC TR SLP091

CYYZ;2009-07-05 23:00;CYYZ 052300Z 14007KT 15SM FEW050 SCT070 SCT230 22/16 A2979 RMK CU2AC2CI1 SLP089

CYYZ;2009-07-06 00:00;CYYZ 060000Z 11003KT 15SM FEW030 SCT070 BKN080 BKN230 22/15 A2979 RMK CU1AC2AC2CI1 SLP087

CYYZ;2009-07-06 01:00;CYYZ 060100Z CCA 32015KT 15SM FEW030 SCT085 BKN095 BKN230 23/11 A2979 RMK SC1AC2AC2CI1 WSHFT 0058 SLP087

CYYZ;2009-07-06 02:00;CYYZ 060200Z 36006KT 15SM FEW030 FEW080 BKN120 BKN180 BKN230 21/11 A2980 RMK SC1AC1AC3AC2CI1 SLP090

CYYZ;2009-07-06 03:00;CYYZ 060300Z 31005KT 15SM FEW030 FEW170 BKN210 20/11 A2980 RMK SC1AC2CI2 SLP091

CYYZ;2009-07-06 04:00;CYYZ 060400Z 27008G16KT 15SM FEW025 FEW070 BKN090 BKN180 19/12 A2983 RMK SC1AC2AC2AC2 SLP100

CYYZ;2009-07-06 05:00;CYYZ 060500Z 28004KT 15SM FEW025 FEW110 BKN210 18/12 A2981 RMK SC1AC2CI1 SLP095

CYYZ;2009-07-06 06:00;CYYZ 060600Z 24007KT 15SM FEW025 SCT085 BKN210 16/12 A2981 RMK SC1AC2CI1 SLP094

CYYZ;2009-07-06 07:00;CYYZ 060700Z 25005KT 15SM FEW025 FEW080 SCT100 BKN210 15/12 A2980 RMK SC1AC1AC2CI1 SLP089

CYYZ;2009-07-06 08:00;CYYZ 060800Z 30005KT 15SM FEW068 FEW100 SCT210 17/12 A2980 RMK AC1AC1CI1 SLP089

CYYZ;2009-07-06 09:00;CYYZ 060900Z 27004KT 15SM FEW070 FEW100 SCT240 15/11 A2978 RMK AC1AC1CI1 SLP085

CYYZ;2009-07-06 10:00;CYYZ 061000Z 26003KT 15SM FEW035 FEW070 FEW090 SCT240 14/12 A2978 RMK SC1AC1AC1CI0 SLP085

CYYZ;2009-07-06 11:00;CYYZ 061100Z 22003KT 15SM FEW040 FEW064 SCT068 15/12 A2979 RMK CU1SC2AC2 SLP088

CYYZ;2009-07-06 12:00;CYYZ 061200Z 20003KT 15SM FEW040 FEW087 17/12 A2980 RMK CU1AC2 SLP090

CYYZ;2009-07-06 13:00;CYYZ 061300Z 27004KT 15SM FEW050 BKN084 19/13 A2980 RMK CU1AC5 ACC ASOCTD SLP091

CYYZ;2009-07-06 14:00;CYYZ 061400Z 28003KT 15SM FEW058 BKN093 20/11 A2980 RMK SC2AC2 ACC ASOCTD SLP089

CYYZ;2009-07-06 15:00;CYYZ 061500Z 33004KT 15SM FEW056 BKN078 21/11 A2979 RMK SC2AC3 CU ASOCTD SLP087

CYYZ;2009-07-06 16:00;CYYZ 061600Z 28009KT 15SM BKN056 BKN092 23/11 A2978 RMK SC5AC1 CU ASOCTD SLP085

CYYZ;2009-07-06 17:00;CYYZ 061700Z 28010G15KT 15SM BKN062 BKN078 23/11 A2977 RMK SC5AC1 CU ASOCTD SLP082

CYYZ;2009-07-06 18:00;CYYZ 061800Z 27013G21KT 15SM SCT060 SCT085 BKN160 24/10 A2975 RMK CU3AC1AC1 TCU ASOCTD SSE SLP075

CYYZ;2009-07-06 19:00;CYYZ 061900Z 28012G19KT 15SM FEW064 SCT071 BKN170 24/09 A2974 RMK CU2AC1AC0 SLP069

CYYZ;2009-07-06 20:00;CYYZ 062000Z 28017KT 15SM SCT065 BKN092 BKN140 24/09 A2974 RMK SC3AC2AC1 TCU ASOCTD SLP071

CYYZ;2009-07-06 21:00;CYYZ 062100Z 28013G20KT 15SM FEW055 BKN087 23/09 A2975 RMK SC2AC5 CU ASOCTED SLP075

CYYZ;2009-07-06 22:00;CYYZ 062200Z 31010KT 15SM FEW052 BKN089 22/10 A2975 RMK CU1AC7 SLP075

CYYZ;2009-07-06 23:00;CYYZ 062300Z 29008KT 15SM FEW035TCU BKN080 22/09 A2976 RMK TCU1AC6 TCU TWD ESE SLP076

CYYZ;2009-07-06 23:15;CYYZ 062315Z 31009G17KT 15SM -SHRA FEW035TCU SCT067 BKN075 21/ RMK TCU1AC3AC3 TCU TWD ESE PCPN VRY LGT

CYYZ;2009-07-06 23:30;CYYZ 062330Z 31012KT 15SM -SHRA FEW035TCU SCT067 BKN085 21/ RMK TCU1AC3AC3 TCU TWD ESE

CYYZ;2009-07-06 23:33;CYYZ 062333Z 31012KT 15SM -SHRA FEW035TCU SCT067 BKN085 20/ RMK TCU1AC3AC3 TCU TWD ESE PCPN VRY LGT

CYYZ;2009-07-06 23:48;CYYZ 062348Z 31009KT 15SM FEW035 SCT070 BKN087 20/ RMK CU1AC3AC3

CYYZ;2009-07-07 00:00;CYYZ 070000Z 32007KT 15SM FEW035 SCT080 BKN090 20/09 A2976 RMK CU1AC3AC3 SLP076

CYYZ;2009-07-07 01:00;CYYZ 070100Z 26003KT 15SM SCT090 BKN100 19/09 A2975 RMK AC3AC4 SLP075

CYYZ;2009-07-07 02:00;CYYZ 070200Z 17002KT 15SM BKN093 18/12 A2977 RMK AC7 SLP080

CYYZ;2009-07-07 03:00;CYYZ 070300Z CCA 36011KT 15SM FEW025 BKN073 BKN120 17/11 A2978 RMK SC1AC5AC2 WSHFT 0255 SLP083

CYYZ;2009-07-07 04:00;CYYZ 070400Z 36007KT 15SM FEW025 SCT070 BKN110 16/10 A2978 RMK SC1AC3AC3 SLP084

CYYZ;2009-07-07 05:00;CYYZ 070500Z 04002KT 15SM SCT070 BKN080 16/11 A2976 RMK AC3AC4 SLP078

CYYZ;2009-07-07 05:12;CYYZ 070512Z CCA 04002KT 15SM -SHRA SCT070 BKN080 16/ RMK AC3AC4 PCPN VRY LGT

CYYZ;2009-07-07 06:00;CYYZ 070600Z 36004KT 15SM -SHRA SCT075 BKN095 BKN110 16/11 A2974 RMK AC3AC2AC2 PCPN VRY LGT SLP071

CYYZ;2009-07-07 06:15;CYYZ 070615Z 34007KT 15SM SCT070 BKN094 16/ RMK AC3AC4

CYYZ;2009-07-07 07:00;CYYZ 070700Z 34004KT 15SM FEW060 BKN068 BKN080 16/11 A2974 RMK SC2AC4AC2 SLP070

CYYZ;2009-07-07 07:15;CYYZ 070715Z 01005KT 15SM -SHRA FEW055 BKN074 15/ RMK SC2AC6

CYYZ;2009-07-07 08:00;CYYZ 070800Z 01006KT 15SM -SHRA FEW055 SCT075 BKN100 BKN120 15/12 A2973 RMK SC2AC2AC2AC2 SLP066

CYYZ;2009-07-07 09:00;CYYZ 070900Z 32005KT 15SM FEW080 BKN095 15/12 A2972 RMK AC2AC6 SLP065

CYYZ;2009-07-07 10:00;CYYZ 071000Z 30010KT 15SM SCT088 BKN100 14/11 A2974 RMK AC3AC4 SLP072

CYYZ;2009-07-07 11:00;CYYZ 071100Z 30008KT 15SM SCT043 BKN076 BKN100 14/11 A2975 RMK SC4AC2AC2 SLP075

CYYZ;2009-07-07 12:00;CYYZ 071200Z 28010KT 15SM SCT029 BKN038 BKN110 14/11 A2975 RMK SC3SC2AC2 SLP076

CYYZ;2009-07-07 13:00;CYYZ 071300Z 31008KT 15SM BKN023 BKN038 BKN100 15/10 A2976 RMK SC5SC2AC1 SLP078

CYYZ;2009-07-07 13:36;CYYZ 071336Z 31011KT 15SM -SHRA SCT024 BKN068 BKN100 15/ RMK SC3AC2AC2

CYYZ;2009-07-07 14:00;CYYZ 071400Z 27013KT 15SM -SHRA FEW021 BKN043 BKN072 16/10 A2975 RMK CF2SC2AC2 SLP075

CYYZ;2009-07-07 14:22;CYYZ 071422Z 29013G18KT 15SM FEW023 BKN042 BKN070 15/ RMK CF2SC3AC2

CYYZ;2009-07-07 15:00;CYYZ 071500Z 29013KT 15SM FEW028 BKN065 BKN110 16/10 A2976 RMK CF2SC4AC2 SLP078

CYYZ;2009-07-07 16:00;CYYZ 071600Z 27010KT 15SM BKN031 BKN072 16/10 A2976 RMK SC6AC2 SLP078

CYYZ;2009-07-07 17:00;CYYZ 071700Z 27014KT 15SM BKN027 BKN036 17/11 A2976 RMK SC5SC2 SLP079

CYYZ;2009-07-07 18:00;CYYZ 071800Z 32014KT 15SM SCT026 BKN038 BKN088 19/11 A2976 RMK CU3SC2AC2 SLP078

CYYZ;2009-07-07 19:00;CYYZ 071900Z 30013G20KT 15SM SCT032 BKN045 BKN087 19/11 A2976 RMK CU3SC2AC2 SLP078

CYYZ;2009-07-07 20:00;CYYZ 072000Z 31016G21KT 15SM SCT031 BKN044 20/11 A2977 RMK CU3SC3 SLP081

CYYZ;2009-07-07 21:00;CYYZ 072100Z 30017G24KT 15SM SCT037 BKN046 18/11 A2978 RMK CU3SC3 SLP084

CYYZ;2009-07-07 22:00;CYYZ 072200Z 29017KT 15SM FEW039 BKN045 18/10 A2979 RMK CU2SC4 SLP088

CYYZ;2009-07-07 23:00;CYYZ 072300Z 29015G26KT 15SM FEW030 BKN037 17/10 A2980 RMK CU2SC5 SLP093

CYYZ;2009-07-08 00:00;CYYZ 080000Z 29017KT 15SM FEW030 BKN040 BKN100 17/11 A2981 RMK CU2SC4AC1 SLP097

CYYZ;2009-07-08 01:00;CYYZ 080100Z 29015KT 15SM FEW030 BKN035 BKN100 16/11 A2982 RMK CU2SC3AC1 SLP099

CYYZ;2009-07-08 02:00;CYYZ 080200Z 29012KT 15SM FEW040 BKN060 15/11 A2983 RMK SC2SC4 SLP103

CYYZ;2009-07-08 03:00;CYYZ 080300Z 30012KT 15SM FEW030 SCT080 15/11 A2983 RMK SC2AC2 SLP102

CYYZ;2009-07-08 04:00;CYYZ 080400Z 31010KT 15SM FEW021 SCT040 BKN075 15/12 A2984 RMK SC1SC2AC2 SLP107

CYYZ;2009-07-08 05:00;CYYZ 080500Z 31010KT 15SM SCT022 BKN060 15/12 A2984 RMK SC3SC2 SLP107

CYYZ;2009-07-08 06:00;CYYZ 080600Z 29008KT 15SM FEW025 SCT080 15/11 A2984 RMK SC1AC2 SLP105

CYYZ;2009-07-08 07:00;CYYZ 080700Z 28009KT 15SM FEW030 FEW090 14/11 A2985 RMK SC1AC2 SLP108

CYYZ;2009-07-08 08:00;CYYZ 080800Z 31010KT 15SM FEW022 FEW090 14/11 A2985 RMK SC1AC2 SLP109

CYYZ;2009-07-08 09:00;CYYZ 080900Z 28006KT 15SM FEW030 13/11 A2986 RMK SC1 SLP112

CYYZ;2009-07-08 10:00;CYYZ 081000Z 31010KT 15SM FEW030 FEW035 FEW120 FEW240 13/11 A2987 RMK CU1SC2AC1CI0 CU TR AC TR SLP116

CYYZ;2009-07-08 11:00;CYYZ 081100Z 28008KT 15SM FEW035 FEW240 14/12 A2989 RMK SC1CI1 SLP123

CYYZ;2009-07-08 12:00;CYYZ 081200Z 31009KT 15SM FEW035 FEW100 FEW250 15/12 A2990 RMK SC1AC1CI1 SLP127

CYYZ;2009-07-08 13:00;CYYZ 081300Z 31008KT 15SM FEW030 FEW100 17/12 A2992 RMK SC1AC1 SLP132

CYYZ;2009-07-08 14:00;CYYZ 081400Z 34009G15KT 15SM FEW034 FEW220 18/12 A2993 RMK CU2CI1 SLP136

CYYZ;2009-07-08 15:00;CYYZ 081500Z 30006KT 15SM SCT032 20/13 A2994 RMK CU3 SLP140

CYYZ;2009-07-08 16:00;CYYZ 081600Z 36008KT 15SM BKN037 BKN072 19/12 A2995 RMK CU5AC1 SLP144

CYYZ;2009-07-08 17:00;CYYZ 081700Z 02005KT 15SM BKN052 BKN100 21/13 A2995 RMK CU6AC1 TCU ASOCTD SLP143

CYYZ;2009-07-08 18:00;CYYZ 081800Z 30004KT 15SM SCT034 BKN041 BKN078 21/13 A2996 RMK CU3SC2AC2 SLP145

CYYZ;2009-07-08 19:00;CYYZ 081900Z 26004KT 15SM BKN051 BKN083 22/12 A2996 RMK CU5AC2 SLP145

CYYZ;2009-07-08 20:00;CYYZ 082000Z 31007KT 15SM SCT043 BKN062 BKN079 22/12 A2996 RMK CU3SC2AC2 SLP145

CYYZ;2009-07-08 21:00;CYYZ 082100Z 34006KT 15SM SCT042 BKN096 24/13 A2996 RMK CU3AC2 SLP147

CYYZ;2009-07-08 22:00;CYYZ 082200Z 35008KT 15SM SCT043 BKN100 22/13 A2997 RMK CU3AC2 TCU ASOCTD S SLP148

CYYZ;2009-07-08 23:00;CYYZ 082300Z 10011G17KT 15SM BKN050 BKN065 BKN095 21/13 A2999 RMK SC6SC2AC1 TCU ASOCTD S SLP156

CYYZ;2009-07-09 00:00;CYYZ 090000Z 13005KT 15SM FEW055TCU SCT085 SCT100 20/13 A3001 RMK TCU1AC3AC0 SLP162

CYYZ;2009-07-09 01:00;CYYZ 090100Z 14003KT 15SM FEW050 FEW085 20/12 A3003 RMK SC1AC1 SLP168

CYYZ;2009-07-09 02:00;CYYZ 090200Z 00000KT 15SM FEW040 BKN085 19/12 A3005 RMK SC1AC6 SLP176

CYYZ;2009-07-09 03:00;CYYZ 090300Z 02005KT 15SM FEW100 18/12 A3006 RMK AC1 SLP180

CYYZ;2009-07-09 04:00;CYYZ 090400Z 36008KT 15SM SKC 18/14 A3007 RMK SLP184

CYYZ;2009-07-09 05:00;CYYZ 090500Z 35003KT 15SM SKC 16/13 A3009 RMK SLP189

CYYZ;2009-07-09 06:00;CYYZ 090600Z 32006KT 15SM SKC 15/13 A3010 RMK SLP193

CYYZ;2009-07-09 07:00;CYYZ 090700Z 32007KT 15SM SKC 15/13 A3011 RMK SLP196

CYYZ;2009-07-09 08:00;CYYZ 090800Z 32005KT 15SM FEW010 14/13 A3012 RMK ST1 SLP200

CYYZ;2009-07-09 09:00;CYYZ 090900Z 35006KT 15SM SKC 14/13 A3013 RMK SLP203

CYYZ;2009-07-09 10:00;CYYZ 091000Z 01005KT 15SM SKC 14/13 A3014 RMK SLP207

CYYZ;2009-07-09 11:00;CYYZ 091100Z 03004KT 15SM FEW260 15/14 A3016 RMK CI1 SLP212

CYYZ;2009-07-09 12:00;CYYZ 091200Z 03002KT 15SM FEW280 17/14 A3017 RMK CI1 SLP216

CYYZ;2009-07-09 13:00;CYYZ 091300Z 10004KT 15SM SKC 19/15 A3018 RMK SLP220

CYYZ;2009-07-09 14:00;CYYZ 091400Z 20004KT 15SM FEW023 21/15 A3019 RMK CU2 SLP223

CYYZ;2009-07-09 15:00;CYYZ 091500Z 14006KT 15SM FEW028 22/15 A3019 RMK CU2 SLP224

CYYZ;2009-07-09 16:00;CYYZ 091600Z 14007KT 15SM FEW032 22/13 A3020 RMK CU2 SLP228

CYYZ;2009-07-09 17:00;CYYZ 091700Z 13010G15KT 15SM FEW030 23/13 A3021 RMK CU2 SLP229

CYYZ;2009-07-09 18:00;CYYZ 091800Z 13009G16KT 15SM FEW032 22/12 A3020 RMK CU1 TCU ASOCTD S SLP228

CYYZ;2009-07-09 19:00;CYYZ 091900Z 13009KT 15SM FEW036 23/12 A3022 RMK CU1 TCU ASOCTD NE SLP232

CYYZ;2009-07-09 20:00;CYYZ 092000Z 11008KT 15SM FEW034 23/12 A3021 RMK CU1 TCU ASOCTD N SLP231

CYYZ;2009-07-09 21:00;CYYZ 092100Z 13008KT 15SM FEW040 23/12 A3020 RMK CU1 SLP226

CYYZ;2009-07-09 22:00;CYYZ 092200Z 14009KT 15SM FEW040 23/12 A3020 RMK CU1 SLP226

CYYZ;2009-07-09 23:00;CYYZ 092300Z 12010KT 15SM FEW040 22/11 A3019 RMK SC1 SLP224

CYYZ;2009-07-10 00:00;CYYZ 100000Z 13005KT 15SM SKC 21/11 A3019 RMK SLP223

CYYZ;2009-07-10 01:00;CYYZ 100100Z 11005KT 15SM FEW260 20/11 A3019 RMK CI1 SLP223

CYYZ;2009-07-10 02:00;CYYZ 100200Z 09004KT 15SM FEW260 19/11 A3020 RMK CI1 SLP228

CYYZ;2009-07-10 03:00;CYYZ 100300Z 05002KT 15SM FEW260 18/11 A3021 RMK CI1 SLP231

CYYZ;2009-07-10 04:00;CYYZ 100400Z 07003KT 15SM SKC 18/11 A3022 RMK SLP232

CYYZ;2009-07-10 05:00;CYYZ 100500Z 06003KT 15SM FEW270 17/11 A3021 RMK CI0 SLP230

CYYZ;2009-07-10 06:00;CYYZ 100600Z 05003KT 15SM FEW270 17/11 A3022 RMK CI0 SLP232

CYYZ;2009-07-10 07:00;CYYZ 100700Z 05004KT 15SM FEW270 17/12 A3022 RMK CI1 SLP232

CYYZ;2009-07-10 08:00;CYYZ 100800Z 04004KT 15SM SCT270 16/12 A3021 RMK CI0 SLP231

CYYZ;2009-07-10 09:00;CYYZ 100900Z 02003KT 15SM SCT270 15/12 A3022 RMK CI1 SLP232

CYYZ;2009-07-10 10:00;CYYZ 101000Z 02002KT 15SM FEW040 FEW220 BKN270 16/13 A3022 RMK SC1CI1CI1 SLP233

CYYZ;2009-07-10 11:00;CYYZ 101100Z 03004KT 15SM FEW140 BKN260 17/14 A3022 RMK AC1CI2 SLP233

CYYZ;2009-07-10 12:00;CYYZ 101200Z 09004KT 15SM FEW140 BKN270 18/15 A3022 RMK AC1CI1 SLP232

CYYZ;2009-07-10 13:00;CYYZ 101300Z 14003KT 15SM FEW140 BKN260 20/16 A3022 RMK AC1CI2 SLP232

CYYZ;2009-07-10 14:00;CYYZ 101400Z 16004KT 15SM FEW180 BKN260 22/16 A3021 RMK AC2CI0 SLP229

CYYZ;2009-07-10 15:00;CYYZ 101500Z 12004KT 15SM FEW160 BKN250 23/16 A3021 RMK AC2CI1 SLP230

CYYZ;2009-07-10 16:00;CYYZ 101600Z 14007KT 15SM FEW034 FEW170 BKN220 BKN260 24/16 A3019 RMK CU1AC1CI2CI0 CU TR SLP223

CYYZ;2009-07-10 17:00;CYYZ 101700Z 14006KT 15SM FEW036 FEW180 BKN250 24/16 A3017 RMK CU1AC2CS3 HALO SLP218

CYYZ;2009-07-10 18:00;CYYZ 101800Z 16011KT 15SM FEW040 FEW160 OVC250 25/18 A3016 RMK CU1AC2CS5 HALO SLP212

CYYZ;2009-07-10 19:00;CYYZ 101900Z 18008KT 15SM FEW040 FEW150 SCT230 BKN260 25/18 A3016 RMK CU1AC2CS2CI1 CU TR SLP213

CYYZ;2009-07-10 20:00;CYYZ 102000Z 16011KT 15SM FEW040 FEW180 BKN250 26/18 A3014 RMK CU1AC2CI2 SLP207

CYYZ;2009-07-10 21:00;CYYZ 102100Z 15010KT 15SM FEW040 FEW170 BKN250 25/18 A3014 RMK CU1AC2CI2 SLP205

CYYZ;2009-07-10 22:00;CYYZ 102200Z 16009KT 15SM FEW040 FEW170 BKN260 25/17 A3013 RMK CU1AC2CI2 SLP202

CYYZ;2009-07-10 23:00;CYYZ 102300Z 16006KT 12SM FEW045 FEW160 BKN260 24/17 A3010 RMK CU1AC2CI2 SLP194

CYYZ;2009-07-11 00:00;CYYZ 110000Z 15008KT 12SM FEW160 BKN240 23/17 A3010 RMK AC2CI2 SLP194

CYYZ;2009-07-11 01:00;CYYZ 110100Z 14005KT 12SM FEW150 SCT260 22/17 A3010 RMK AC2CI1 SLP191

CYYZ;2009-07-11 02:00;CYYZ 110200Z 14004KT 12SM FEW160 SCT210 21/17 A3009 RMK AC2CI1 SLP190

CYYZ;2009-07-11 03:00;CYYZ 110300Z 16004KT 15SM FEW160 SCT240 20/17 A3008 RMK AC2CI1 SLP184

CYYZ;2009-07-11 04:00;CYYZ 110400Z 16003KT 15SM SCT170 20/17 A3007 RMK AC3 SLP182

CYYZ;2009-07-11 05:00;CYYZ 110500Z 18005KT 15SM BKN120 21/17 A3005 RMK AC5 SLP176

CYYZ;2009-07-11 06:00;CYYZ 110600Z 18005KT 15SM BKN130 22/16 A3003 RMK AC6 SLP167

CYYZ;2009-07-11 07:00;CYYZ 110700Z 17004KT 15SM BKN130 21/16 A3001 RMK AC6 SLP159

CYYZ;2009-07-11 08:00;CYYZ 110800Z 16005KT 15SM OVC140 20/17 A2999 RMK AC7 SLP153

CYYZ;2009-07-11 09:00;CYYZ 110900Z 16004KT 15SM SCT053 BKN120 20/17 A2997 RMK SC3AC3 SLP148

CYYZ;2009-07-11 10:00;CYYZ 111000Z 14004KT 10SM FEW052 BKN140 21/18 A2996 RMK SC2AC5 SLP145

CYYZ;2009-07-11 11:00;CYYZ 111100Z 20005KT 12SM BKN130 BKN230 22/19 A2994 RMK AC5CI2 SLP138

CYYZ;2009-07-11 12:00;CYYZ 111200Z 22007KT 10SM FEW130 SCT200 BKN270 23/19 A2993 RMK AC2CI2CI4 SLP133

CYYZ;2009-07-11 13:00;CYYZ 111300Z 26008KT 9SM SCT080 OVC170 22/19 A2994 RMK AC3AS5 SLP136

CYYZ;2009-07-11 13:13;CYYZ 111313Z 24012KT 7SM -SHRA BKN056 OVC150 22/ RMK SC6AS2

CYYZ;2009-07-11 13:19;CYYZ 111319Z 25012KT 6SM -TSRA BKN052 OVC085 22/ RMK SC7AS1 CB EMBD

CYYZ;2009-07-11 13:41;CYYZ 111341Z 26015KT 2SM +TSRA OVC015CB 21/ RMK RA2CB6

CYYZ;2009-07-11 13:45;CYYZ 111345Z 27025G32KT 1SM +TSRA OVC013CB 21/ RMK RA2CB6 PRESRR

CYYZ;2009-07-11 13:51;CYYZ 111351Z 27020G38KT 3SM +TSRA FEW008 OVC020CB 19/ RMK SF1CB7

CYYZ;2009-07-11 14:00;CYYZ 111400Z 32012G24KT 8SM -TSRA SCT020CB OVC038 20/18 A2994 RERA RMK CB3SC5 LTGIC S SLP138

CYYZ;2009-07-11 14:45;CYYZ 111445Z 18004KT 15SM FEW006 FEW025CB BKN130 OVC170 19/ RETSRA RMK SF1CB1AC6AS1 VIRGA SKY DRK NE-SE

CYYZ;2009-07-11 15:00;CYYZ 111500Z 19005KT 15SM VCSH FEW006 FEW030 BKN100 20/18 A2991 RETSRA RMK SF1SC1AC7 SHWRS S SLP127

CYYZ;2009-07-11 16:00;CYYZ 111600Z 22009KT 15SM FEW015 BKN180 22/20 A2989 RMK SF1AC7 SLP122

CYYZ;2009-07-11 17:00;CYYZ 111700Z 24013KT 15SM FEW035 SCT140 BKN230 23/19 A2990 RMK SC1AC2CI3 SLP124

CYYZ;2009-07-11 18:00;CYYZ 111800Z 24013G18KT 15SM FEW030 BKN045 BKN140 25/19 A2989 RMK CU2CU4AC1 SLP120

CYYZ;2009-07-11 19:00;CYYZ 111900Z 23015G22KT 15SM BKN040 27/18 A2987 RMK CU7 SLP113

CYYZ;2009-07-11 20:00;CYYZ 112000Z 27016G22KT 15SM BKN045 28/18 A2986 RMK CU6 TCU ASOCTD SLP108

CYYZ;2009-07-11 21:00;CYYZ 112100Z 27018G25KT 15SM SCT050 27/17 A2984 RMK CU3 CB ASOCTD SSW SLP104

CYYZ;2009-07-11 22:00;CYYZ 112200Z 29020G28KT 15SM FEW050 27/15 A2984 RMK CU2 CB ASOCTD N E S SLP103

CYYZ;2009-07-11 23:00;CYYZ 112300Z CCA 30022G28KT 15SM FEW056 26/14 A2984 RMK CU2 CB ASOCTD NE SE SLP102

CYYZ;2009-07-12 00:00;CYYZ 120000Z 34019G26KT 15SM FEW053TCU FEW064 SCT079 SCT230 21/15 A2989 RMK TCU1SC2AC1CI1 CI TR TCU NE-SE S PRESRR SLP122

CYYZ;2009-07-12 01:00;CYYZ 120100Z 34019G24KT 15SM FEW045TCU FEW055 FEW230 19/13 A2993 RMK TCU1SC1CI0 SLP133

CYYZ;2009-07-12 02:00;CYYZ 120200Z 33016G21KT 15SM FEW040 FEW230 19/10 A2994 RMK SC1CI1 SLP138

CYYZ;2009-07-12 03:00;CYYZ 120300Z 32014KT 15SM FEW040 17/07 A2996 RMK SC1 SLP146

CYYZ;2009-07-12 04:00;CYYZ 120400Z 33015G20KT 15SM FEW040 17/06 A2997 RMK SC1 SLP150

CYYZ;2009-07-12 05:00;CYYZ 120500Z 34013KT 15SM FEW040 16/05 A2998 RMK SC1 SLP153

CYYZ;2009-07-12 06:00;CYYZ 120600Z 33010KT 15SM FEW040 15/04 A2999 RMK SC1 SLP155

CYYZ;2009-07-12 07:00;CYYZ 120700Z 34010KT 15SM SKC 13/03 A3000 RMK SLP158

CYYZ;2009-07-12 08:00;CYYZ 120800Z 31011KT 15SM FEW100 13/03 A3000 RMK AC1 SLP159

CYYZ;2009-07-12 09:00;CYYZ 120900Z 31009KT 15SM FEW100 FEW240 12/04 A2999 RMK AC1CI1 SLP155

CYYZ;2009-07-12 10:00;CYYZ 121000Z 27006KT 15SM FEW050 FEW240 10/05 A3000 RMK SC1CI1 SLP159

CYYZ;2009-07-12 11:00;CYYZ 121100Z 25005KT 15SM SCT280 12/06 A3002 RMK CI0 SLP165

CYYZ;2009-07-12 12:00;CYYZ 121200Z 26007KT 15SM FEW240 14/06 A3003 RMK CI1 SLP168

CYYZ;2009-07-12 13:00;CYYZ 121300Z 24005KT 15SM FEW240 16/07 A3003 RMK CI1 SLP168

CYYZ;2009-07-12 14:00;CYYZ 121400Z 28008KT 15SM FEW240 FEW280 19/06 A3002 RMK CI1CI1 SLP165

CYYZ;2009-07-12 15:00;CYYZ 121500Z 31011G17KT 15SM FEW060 FEW230 FEW280 21/07 A3001 RMK CF1CI1CI1 SLP162

CYYZ;2009-07-12 16:00;CYYZ 121600Z 28010G18KT 15SM BKN065 BKN280 20/07 A3000 RMK CU5CI0 SLP158

CYYZ;2009-07-12 17:00;CYYZ 121700Z 31008G19KT 15SM BKN067 BKN280 21/06 A2998 RMK CU6CI1 SLP153

CYYZ;2009-07-12 18:00;CYYZ 121800Z 28011G19KT 15SM SCT068 BKN180 22/07 A2998 RMK CU4AC3 SLP151

CYYZ;2009-07-12 19:00;CYYZ 121900Z 27013KT 15SM BKN070 BKN160 23/09 A2997 RMK CU6AC1 SLP149

CYYZ;2009-07-12 20:00;CYYZ 122000Z 28013G24KT 15SM BKN075 BKN120 22/07 A2997 RMK CU5AC2 SLP148

CYYZ;2009-07-12 21:00;CYYZ 122100Z 29016G22KT 15SM FEW065 BKN120 23/08 A2996 RMK CU2AC5 SLP147

CYYZ;2009-07-12 22:00;CYYZ 122200Z 28011G21KT 15SM FEW065 SCT120 BKN280 23/08 A2995 RMK CU2AC1CI3 SLP143

CYYZ;2009-07-12 23:00;CYYZ 122300Z 31010G24KT 15SM FEW065 BKN077 BKN260 22/06 A2994 RMK CU2AC3CI1 SLP140

CYYZ;2009-07-13 00:00;CYYZ 130000Z 30009KT 15SM FEW065 BKN100 21/06 A2994 RMK CU2AC3 SLP140

CYYZ;2009-07-13 01:00;CYYZ 130100Z 28007KT 15SM FEW065 SCT120 20/07 A2993 RMK CU1AC3 SLP137

CYYZ;2009-07-13 02:00;CYYZ 130200Z 29004KT 15SM FEW120 18/08 A2994 RMK AC2 SLP139

CYYZ;2009-07-13 03:00;CYYZ 130300Z 36009KT 15SM SCT088 18/08 A2995 RMK AC4 SLP140

CYYZ;2009-07-13 04:00;CYYZ 130400Z 32008KT 15SM SCT089 17/09 A2995 RMK AC3 SLP143

CYYZ;2009-07-13 05:00;CYYZ 130500Z 31009KT 15SM FEW090 16/07 A2996 RMK AC1 SLP144

CYYZ;2009-07-13 06:00;CYYZ 130600Z 31008KT 15SM SKC 14/07 A2996 RMK SLP145

CYYZ;2009-07-13 07:00;CYYZ 130700Z 28008KT 15SM SKC 13/06 A2996 RMK SLP145

CYYZ;2009-07-13 08:00;CYYZ 130800Z 29009KT 15SM SKC 13/05 A2996 RMK SLP145

CYYZ;2009-07-13 09:00;CYYZ 130900Z 29005KT 15SM FEW100 12/05 A2996 RMK AC1 SLP145

CYYZ;2009-07-13 10:00;CYYZ 131000Z 28008KT 15SM FEW100 11/05 A2996 RMK AC1 SLP146

CYYZ;2009-07-13 11:00;CYYZ 131100Z 28007KT 15SM FEW120 13/06 A2996 RMK AC1 SLP146

CYYZ;2009-07-13 12:00;CYYZ 131200Z 28006KT 15SM FEW100 15/06 A2996 RMK AC1 SLP147

CYYZ;2009-07-13 13:00;CYYZ 131300Z 28009G17KT 15SM FEW100 19/07 A2995 RMK AC1 SLP144

CYYZ;2009-07-13 14:00;CYYZ 131400Z 30019KT 15SM SCT090 20/06 A2995 RMK AC4 SLP141

CYYZ;2009-07-13 15:00;CYYZ 131500Z 30021KT 15SM FEW050 BKN095 21/07 A2994 RMK CU1AC5 SLP137

CYYZ;2009-07-13 16:00;CYYZ 131600Z CCA 30018G25KT 15SM FEW060 FEW090 22/05 A2993 RMK SC2AC1 CU ASOCTD VIA YYU SLP137

CYYZ;2009-07-13 17:00;CYYZ 131700Z 30020G30KT 15SM BKN068 22/06 A2992 RMK CU6 SLP133

CYYZ;2009-07-13 18:00;CYYZ 131800Z 31023KT 15SM BKN066 23/07 A2991 RMK CU5 SLP129

CYYZ;2009-07-13 19:00;CYYZ 131900Z CCA 32023G28KT 15SM BKN070 21/06 A2992 RMK CU6 TCU ASOCTD S SLP131

CYYZ;2009-07-13 20:00;CYYZ 132000Z 31022G29KT 15SM BKN070 21/05 A2992 RMK CU6 SLP132

CYYZ;2009-07-13 21:00;CYYZ 132100Z 30024G31KT 15SM SCT075 22/05 A2992 RMK CF3 SLP134

CYYZ;2009-07-13 22:00;CYYZ 132200Z 33023G28KT 15SM FEW070 FEW090 21/04 A2993 RMK CF1AC1 SLP135

CYYZ;2009-07-13 23:00;CYYZ 132300Z 32020KT 15SM FEW060 FEW100 21/05 A2992 RMK CF1AC1 SLP134

CYYZ;2009-07-14 00:00;CYYZ 140000Z 30014G20KT 15SM FEW060 FEW076 20/05 A2994 RMK CU1AC1 SLP139

CYYZ;2009-07-14 01:00;CYYZ 140100Z 31010KT 15SM FEW050 FEW070 19/06 A2996 RMK CU1AC1 SLP146

CYYZ;2009-07-14 02:00;CYYZ 140200Z 29006KT 15SM FEW050 FEW070 18/06 A2998 RMK CU1AC1 SLP154

CYYZ;2009-07-14 03:00;CYYZ 140300Z 28006KT 15SM FEW050 FEW070 16/06 A2999 RMK CU1AC1 SLP157

CYYZ;2009-07-14 04:00;CYYZ 140400Z 29013KT 15SM FEW050 FEW100 16/06 A3001 RMK CU1AC1 SLP162

CYYZ;2009-07-14 05:00;CYYZ 140500Z 29008KT 15SM FEW120 15/05 A3001 RMK AC1 SLP163

CYYZ;2009-07-14 06:00;CYYZ 140600Z 28008KT 15SM FEW250 14/05 A3001 RMK CI1 SLP161

CYYZ;2009-07-14 07:00;CYYZ 140700Z 30011KT 15SM FEW250 14/04 A3000 RMK CI1 SLP160

CYYZ;2009-07-14 08:00;CYYZ 140800Z 32008KT 15SM SKC 13/05 A3000 RMK SLP159

CYYZ;2009-07-14 09:00;CYYZ 140900Z 31009KT 15SM FEW100 FEW250 12/06 A3001 RMK AC1CI1 SLP164

CYYZ;2009-07-14 10:00;CYYZ 141000Z 31008KT 15SM FEW090 FEW260 12/07 A3004 RMK AC1CI1 SLP174

CYYZ;2009-07-14 11:00;CYYZ 141100Z 29007KT 15SM FEW080 FEW260 14/08 A3007 RMK AC1CI1 SLP182

CYYZ;2009-07-14 12:00;CYYZ 141200Z 32013KT 15SM FEW270 16/09 A3008 RMK CI0 SLP187

CYYZ;2009-07-14 13:00;CYYZ 141300Z 33015KT 15SM FEW080 FEW270 17/09 A3010 RMK AC1CI0 SLP193

CYYZ;2009-07-14 14:00;CYYZ 141400Z 35012G18KT 15SM FEW100 FEW270 19/09 A3010 RMK AC1CI1 SLP194

CYYZ;2009-07-14 15:00;CYYZ 141500Z 33009G17KT 15SM FEW045 FEW270 20/09 A3011 RMK CF1CI1 SLP197

CYYZ;2009-07-14 16:00;CYYZ 141600Z 34014G19KT 15SM FEW050 FEW280 21/08 A3012 RMK CF1CI1 SLP199

CYYZ;2009-07-14 17:00;CYYZ 141700Z 35011G17KT 15SM FEW055 FEW090 23/09 A3011 RMK CF1AC1 SLP198

CYYZ;2009-07-14 18:00;CYYZ 141800Z 36008KT 15SM FEW055 FEW280 22/09 A3010 RMK CU1CI1 SLP193

CYYZ;2009-07-14 19:00;CYYZ 141900Z 30009KT 15SM FEW063 FEW090 24/09 A3009 RMK CU2AC1 SLP189

CYYZ;2009-07-14 20:00;CYYZ 142000Z 30012G17KT 15SM BKN066 25/09 A3009 RMK CU6 SLP190

CYYZ;2009-07-14 21:00;CYYZ 142100Z 32015KT 15SM BKN068 BKN280 24/09 A3009 RMK CU5CI1 SLP189

CYYZ;2009-07-14 22:00;CYYZ 142200Z 28012KT 15SM FEW070 FEW280 24/08 A3009 RMK CU2CI1 SLP189

CYYZ;2009-07-14 23:00;CYYZ 142300Z 31012G18KT 15SM FEW065 FEW270 24/08 A3009 RMK CU1CI0 SLP189

CYYZ;2009-07-15 00:00;CYYZ 150000Z 31012KT 15SM FEW062 SCT270 23/08 A3010 RMK CU1CI0 SLP193

CYYZ;2009-07-15 01:00;CYYZ 150100Z 31009KT 15SM FEW060 FEW130 FEW260 21/08 A3011 RMK SC1AC1CI0 SLP195

CYYZ;2009-07-15 02:00;CYYZ 150200Z 31008KT 15SM FEW076 FEW260 20/07 A3012 RMK AC1CI0 SLP198

CYYZ;2009-07-15 03:00;CYYZ 150300Z 29004KT 15SM FEW070 FEW260 19/08 A3012 RMK AC1CI1 SLP199

CYYZ;2009-07-15 04:00;CYYZ 150400Z 31005KT 15SM FEW090 BKN260 17/08 A3012 RMK AC1CI1 AC TR SLP200

CYYZ;2009-07-15 05:00;CYYZ 150500Z 00000KT 15SM SCT260 15/08 A3012 RMK CI0 SLP200

CYYZ;2009-07-15 06:00;CYYZ 150600Z 25004KT 15SM FEW260 15/09 A3012 RMK CI0 SLP199

CYYZ;2009-07-15 07:00;CYYZ 150700Z 00000KT 15SM FEW260 14/09 A3011 RMK CI0 SLP197

CYYZ;2009-07-15 08:00;CYYZ 150800Z 27004KT 15SM FEW260 14/09 A3012 RMK CI1 SLP199

CYYZ;2009-07-15 09:00;CYYZ 150900Z 36002KT 15SM FEW120 FEW260 14/08 A3012 RMK AC1CI0 SLP201

CYYZ;2009-07-15 10:00;CYYZ 151000Z 03004KT 15SM FEW160 SCT260 12/08 A3012 RMK AC2CI0 SLP199

CYYZ;2009-07-15 11:00;CYYZ 151100Z 00000KT 15SM FEW180 SCT260 16/11 A3011 RMK AC2CI0 SLP198

CYYZ;2009-07-15 12:00;CYYZ 151200Z 00000KT 15SM SCT180 SCT250 16/10 A3012 RMK AC3CI1 SLP199

CYYZ;2009-07-15 13:00;CYYZ 151300Z 16003KT 15SM SCT180 BKN250 17/11 A3013 RMK AC3CI1 SLP201

CYYZ;2009-07-15 14:00;CYYZ 151400Z 14005KT 15SM FEW180 BKN250 20/11 A3008 RMK AC2CI2 SLP187

CYYZ;2009-07-15 15:00;CYYZ 151500Z 20007KT 15SM FEW180 BKN250 22/13 A3009 RMK AC1CI2 SLP188

CYYZ;2009-07-15 16:00;CYYZ 151600Z CCA 18009KT 15SM FEW030 FEW160 BKN250 22/14 A3006 RMK CU1AC1CI2 SLP180

CYYZ;2009-07-15 17:00;CYYZ 151700Z 15011KT 15SM FEW025 FEW160 BKN250 23/14 A3004 RMK CU1AC1CI4 CU TR SLP174

CYYZ;2009-07-15 18:00;CYYZ 151800Z 15007KT 15SM FEW025 FEW130 BKN250 22/12 A3003 RMK CU1AC2CS4 CU TR SUN DIMLY VISBL SLP169

CYYZ;2009-07-15 19:00;CYYZ 151900Z 16009KT 15SM FEW130 BKN230 23/12 A2998 RMK AC2CS5 SLP154

CYYZ;2009-07-15 20:00;CYYZ 152000Z 15007KT 15SM SCT140 BKN230 23/12 A2997 RMK AC4CI2 SLP150

CYYZ;2009-07-15 21:00;CYYZ 152100Z 14008KT 15SM SCT110 BKN130 BKN230 21/13 A2995 RMK AC4AC2CI1 SLP141

CYYZ;2009-07-15 22:00;CYYZ 152200Z 13007KT 15SM BKN100 BKN120 OVC230 20/13 A2993 RMK AC5AC2CI1 SLP136

CYYZ;2009-07-15 22:19;CYYZ 152219Z 14006KT 12SM -SHRA FEW062 OVC110 20/ RMK SC2AC6

CYYZ;2009-07-15 22:39;CYYZ 152239Z 12005KT 12SM FEW062 BKN120 BKN240 20/ RMK SC2AC5CI1

CYYZ;2009-07-15 23:00;CYYZ 152300Z 13007KT 15SM FEW064 BKN096 BKN140 BKN240 20/14 A2992 RMK SC2AC3AC2CI1 SLP131

CYYZ;2009-07-16 00:00;CYYZ 160000Z 11007KT 15SM BKN092 OVC120 20/13 A2989 RMK AC6AC2 SLP123

CYYZ;2009-07-16 00:15;CYYZ 160015Z 09005KT 15SM -SHRA BKN081 OVC120 20/ RMK AC6AC2

CYYZ;2009-07-16 00:37;CYYZ 160037Z 11006KT 15SM BKN068 OVC100 20/ RMK AC6AC2

CYYZ;2009-07-16 01:00;CYYZ 160100Z 11005KT 15SM BKN068 OVC100 20/13 A2988 RMK AC6AC2 SLP117

CYYZ;2009-07-16 01:55;CYYZ 160155Z 11005KT 15SM -SHRA BKN065 OVC080 20/ RMK SC6AC2

CYYZ;2009-07-16 02:00;CYYZ 160200Z 11007KT 15SM -SHRA BKN065 OVC080 19/14 A2986 RMK SC5AC3 SLP111

CYYZ;2009-07-16 02:19;CYYZ 160219Z 10005KT 15SM BKN065 BKN094 19/ RMK SC5AC2

CYYZ;2009-07-16 02:40;CYYZ 160240Z 17002KT 15SM -SHRA BKN063 BKN096 19/ RMK SC5AC2

CYYZ;2009-07-16 03:00;CYYZ 160300Z 12004KT 15SM -SHRA BKN064 OVC095 18/15 A2984 RMK SC5AC3 SLP105

CYYZ;2009-07-16 03:22;CYYZ 160322Z 10004KT 15SM BKN065 OVC080 19/ RMK SC5AC3

CYYZ;2009-07-16 04:00;CYYZ 160400Z 11003KT 15SM BKN064 BKN082 18/15 A2981 RMK SC5AC2 SLP094

CYYZ;2009-07-16 05:00;CYYZ 160500Z 19003KT 15SM BKN061 BKN075 18/15 A2979 RMK SC5AC2 SLP087

CYYZ;2009-07-16 06:00;CYYZ 160600Z 00000KT 15SM SCT051 BKN075 18/16 A2978 RMK SC3AC2 SLP083

CYYZ;2009-07-16 07:00;CYYZ 160700Z 35004KT 15SM FEW055 16/15 A2977 RMK SC1 SLP079

CYYZ;2009-07-16 08:00;CYYZ 160800Z 04002KT 15SM SKC 17/14 A2974 RMK SLP072

CYYZ;2009-07-16 09:00;CYYZ 160900Z 13002KT 15SM FEW250 17/14 A2974 RMK CI1 SLP071

CYYZ;2009-07-16 10:00;CYYZ 161000Z 18002KT 12SM FEW025 FEW120 17/15 A2976 RMK SC1AC1 SC TR SLP077

CYYZ;2009-07-16 11:00;CYYZ 161100Z 23004KT 12SM SKC 18/16 A2975 RMK SLP074

CYYZ;2009-07-16 12:00;CYYZ 161200Z 24006KT 15SM FEW030 20/18 A2976 RMK CU1 CU TR SLP077

CYYZ;2009-07-16 13:00;CYYZ 161300Z 30013KT 15SM FEW025 22/17 A2977 RMK CF1 SLP079

CYYZ;2009-07-16 14:00;CYYZ 161400Z 30012KT 15SM FEW025 24/16 A2977 RMK CF1 SLP080

CYYZ;2009-07-16 15:00;CYYZ 161500Z CCA 31012G19KT 15SM FEW030 FEW090 25/13 A2978 RMK CU1AC1 AC TR SLP082

CYYZ;2009-07-16 16:00;CYYZ 161600Z 31005G15KT 15SM SCT030 SCT120 25/13 A2978 RMK CU3AC1 AC TR SLP082

CYYZ;2009-07-16 17:00;CYYZ 161700Z 29010G18KT 15SM FEW050 BKN055 BKN068 27/13 A2977 RMK CU2SC2AC1 SLP081

CYYZ;2009-07-16 18:00;CYYZ 161800Z 27012G18KT 15SM SCT050 BKN056 BKN075 27/13 A2978 RMK CU3SC2AC2 SLP082

CYYZ;2009-07-16 19:00;CYYZ 161900Z 28015KT 15SM FEW055 SCT065 BKN075 27/13 A2978 RMK CU2SC2AC2 TCU ASOCTD SLP082

CYYZ;2009-07-16 20:00;CYYZ 162000Z 29016G21KT 15SM FEW055 SCT063 BKN080 26/12 A2977 RMK CU2SC2AC2 TCU TWD E SLP081

CYYZ;2009-07-16 21:00;CYYZ 162100Z 27015G21KT 15SM FEW055 SCT077 BKN250 27/12 A2978 RMK CU2AC2CI0 TCU TWD E CONTRAIL SLP083

CYYZ;2009-07-16 22:00;CYYZ 162200Z 29014KT 15SM FEW050 SCT070 BKN240 27/12 A2976 RMK CU2AC2CI1 SLP076

CYYZ;2009-07-16 23:00;CYYZ 162300Z 27011G19KT 15SM SCT061 BKN240 26/13 A2975 RMK CU3CI2 SLP074

CYYZ;2009-07-17 00:00;CYYZ 170000Z 27014KT 15SM FEW062 SCT095 BKN250 25/13 A2975 RMK CU2AC2CI1 SLP074

CYYZ;2009-07-17 01:00;CYYZ 170100Z 29008KT 15SM FEW064 SCT120 BKN250 24/12 A2975 RMK CU2AC2CI1 SLP072

CYYZ;2009-07-17 02:00;CYYZ 170200Z 29005KT 15SM FEW062 SCT120 BKN250 22/12 A2975 RMK SC2AC2CI1 SLP074

CYYZ;2009-07-17 03:00;CYYZ 170300Z 31009KT 15SM SCT240 21/12 A2975 RMK CI2 SLP074

CYYZ;2009-07-17 04:00;CYYZ 170400Z 28006KT 15SM FEW210 SCT250 20/12 A2976 RMK CI1CI2 SLP076

CYYZ;2009-07-17 05:00;CYYZ 170500Z 27007KT 15SM SCT240 18/12 A2977 RMK CI2 SLP078

CYYZ;2009-07-17 06:00;CYYZ 170600Z 27009KT 15SM SCT240 18/12 A2977 RMK CI2 SLP080

CYYZ;2009-07-17 07:00;CYYZ 170700Z 29007KT 15SM BKN210 17/12 A2977 RMK CI3 SLP080

CYYZ;2009-07-17 08:00;CYYZ 170800Z 28005KT 15SM SCT210 16/12 A2975 RMK CI2 SLP074

CYYZ;2009-07-17 09:00;CYYZ 170900Z 27003KT 15SM SCT120 15/12 A2976 RMK AC4 SLP075

CYYZ;2009-07-17 10:00;CYYZ 171000Z 26002KT 15SM BKN095 16/13 A2977 RMK AC5 SLP081

CYYZ;2009-07-17 11:00;CYYZ 171100Z 24004KT 15SM FEW100 SCT250 16/13 A2978 RMK AC2CI1 SLP083

CYYZ;2009-07-17 12:00;CYYZ 171200Z 26005KT 15SM FEW070 SCT100 BKN250 18/13 A2978 RMK AC2AC2CI1 SLP083

CYYZ;2009-07-17 13:00;CYYZ 171300Z 23005KT 15SM FEW075 SCT090 SCT250 20/12 A2977 RMK AC2AC2CI1 SLP081

CYYZ;2009-07-17 14:00;CYYZ 171400Z 21009KT 15SM FEW070 BKN085 BKN250 21/13 A2977 RMK AC2AC3CI1 SLP078

CYYZ;2009-07-17 15:00;CYYZ 171500Z CCA 15006KT 15SM FEW025 SCT083 BKN092 BKN240 19/13 A2974 RMK CU1AC3AC3CI1 CU TR SLP068

CYYZ;2009-07-17 15:47;CYYZ 171547Z 17006KT 15SM -SHRA FEW030 SCT070 BKN080 19/ RMK CU2AC2AC3 PCPN VRY LGT

CYYZ;2009-07-17 16:00;CYYZ 171600Z 19006KT 15SM -SHRA FEW030 SCT070 BKN080 19/14 A2974 RMK CU2AC2AC4 PCPN VRY LGT TCU TWD NW SLP071

CYYZ;2009-07-17 16:48;CYYZ 171648Z 13004KT 15SM FEW030 SCT070 BKN095 20/ RMK CU2AC2AC4 TCU TWD NNW

CYYZ;2009-07-17 17:00;CYYZ 171700Z 14005KT 15SM FEW030 SCT075 BKN095 20/14 A2974 RMK CU2AC2AC4 TCU TWD NNW SLP069

CYYZ;2009-07-17 18:00;CYYZ 171800Z 16006KT 15SM FEW025 BKN032 OVC130 21/14 A2973 RMK CU2SC3AC3 TUC TWD NNE SLP067

CYYZ;2009-07-17 19:00;CYYZ 171900Z 15011KT 15SM FEW027 SCT035 BKN140 21/15 A2971 RMK CU2SC2AC3 SLP061

CYYZ;2009-07-17 20:00;CYYZ 172000Z 15009KT 15SM FEW027 SCT035 BKN150 BKN190 20/16 A2971 RMK CU2SC2AC2AC2 SLP062

CYYZ;2009-07-17 21:00;CYYZ 172100Z 15009KT 15SM FEW015 BKN022 OVC120 19/16 A2971 RMK CF2SC4AC2 SLP062

CYYZ;2009-07-17 22:00;CYYZ 172200Z 17009G15KT 15SM FEW020 SCT030 BKN130 20/17 A2970 RMK CU2SC2AC3 SLP057

CYYZ;2009-07-17 22:54;CYYZ 172254Z 21008KT 15SM -SHRA BKN019 BKN076 20/ RMK SC6AC2

CYYZ;2009-07-17 23:00;CYYZ 172300Z 22009KT 15SM -SHRA BKN020 BKN082 20/16 A2970 RMK SC6AC2 SLP057

CYYZ;2009-07-17 23:49;CYYZ 172349Z 21007KT 15SM FEW015 SCT022 BKN096 19/ RMK SC1SC2AC4

CYYZ;2009-07-18 00:00;CYYZ 180000Z 22007KT 15SM FEW016 SCT024 BKN095 19/16 A2971 RMK SC1SC2AC4 SLP059

CYYZ;2009-07-18 01:00;CYYZ 180100Z 15003KT 15SM SCT017 BKN042 BKN100 18/17 A2971 RMK SC3SC2AC2 SLP062

CYYZ;2009-07-18 02:00;CYYZ 180200Z 33010KT 15SM BKN020 BKN083 17/15 A2973 RMK SC5AC1 SLP066

CYYZ;2009-07-18 03:00;CYYZ 180300Z 36011KT 15SM FEW022 FEW070 16/14 A2973 RMK SC1AC1 SLP066

CYYZ;2009-07-18 04:00;CYYZ 180400Z 35008KT 15SM FEW030 FEW100 15/12 A2973 RMK SC1AC1 SLP066

CYYZ;2009-07-18 05:00;CYYZ 180500Z 32010KT 15SM FEW030 FEW100 15/12 A2974 RMK SC1AC1 SLP069

CYYZ;2009-07-18 06:00;CYYZ 180600Z 31011KT 15SM FEW030 SCT100 15/11 A2974 RMK SC1AC2 SLP070

CYYZ;2009-07-18 07:00;CYYZ 180700Z 32012KT 15SM FEW030 BKN100 15/11 A2974 RMK SC1AC5 SLP069

CYYZ;2009-07-18 08:00;CYYZ 180800Z 32010KT 15SM BKN100 15/10 A2974 RMK AC5 SLP069

CYYZ;2009-07-18 09:00;CYYZ 180900Z 30007KT 15SM BKN053 BKN100 15/11 A2976 RMK SC5AC2 SLP077

CYYZ;2009-07-18 10:00;CYYZ 181000Z 29007KT 15SM SCT052 BKN081 15/11 A2978 RMK SC3AC4 SLP085

CYYZ;2009-07-18 11:00;CYYZ 181100Z 28006KT 15SM FEW040 BKN080 BKN120 15/10 A2979 RMK SC2AC3AC2 SLP087

CYYZ;2009-07-18 12:00;CYYZ 181200Z 29008KT 15SM FEW040 BKN070 BKN120 16/11 A2979 RMK SC2AC3AC2 SLP089

CYYZ;2009-07-18 13:00;CYYZ 181300Z 29009KT 15SM FEW040 SCT070 BKN110 17/11 A2980 RMK SC2AC2AC2 SLP091

CYYZ;2009-07-18 14:00;CYYZ 181400Z 29008KT 15SM FEW030 SCT035 BKN090 19/11 A2980 RMK CU2SC2AC2 SLP092

CYYZ;2009-07-18 15:00;CYYZ 181500Z 28008G16KT 15SM SCT030 BKN035 BKN090 19/11 A2981 RMK CU3SC2AC1 SLP095

CYYZ;2009-07-18 16:00;CYYZ 181600Z 31009G15KT 15SM SCT035 BKN040 BKN080 21/10 A2981 RMK CU3SC2AC1 SLP095

CYYZ;2009-07-18 17:00;CYYZ 181700Z 27017KT 15SM FEW045 SCT050 BKN076 BKN092 22/11 A2981 RMK CU2SC2AC2AC2 TCU ASOCTD SLP095

CYYZ;2009-07-18 18:00;CYYZ 181800Z 30010KT 15SM SCT045 BKN085 BKN095 22/10 A2981 RMK CU3AC2AC2 TCU ASOCTD SLP095

CYYZ;2009-07-18 18:08;CYYZ 181808Z 27013G18KT 15SM -SHRA SCT045 BKN070 BKN090 21/ RMK CU3AC2AC2 TCU ASOCTD PCPN VRY LGT

CYYZ;2009-07-18 18:40;CYYZ 181840Z 28010G16KT 15SM SCT050 BKN100 22/ RMK CU3AC4 TCU ASOCTD

CYYZ;2009-07-18 19:00;CYYZ 181900Z 27018G24KT 15SM SCT045TCU BKN100 22/10 A2983 RMK TCU3AC3 SLP100

CYYZ;2009-07-18 20:00;CYYZ 182000Z CCA 29015KT 15SM -SHRA SCT050TCU BKN080 20/11 A2983 RMK TCU3AC3 PCPN VRY LGT SLP101

CYYZ;2009-07-18 21:00;CYYZ 182100Z 24015KT 15SM FEW045 SCT055 BKN085 BKN100 21/11 A2983 RMK CU2SC2AC2AC2 TCU ASOCTD SLP103

CYYZ;2009-07-18 22:00;CYYZ 182200Z 27011G16KT 15SM FEW050 SCT065 BKN085 BKN100 20/12 A2985 RMK CU2SC2AC2AC2 TCU ASOCTD SLP107

CYYZ;2009-07-18 23:00;CYYZ 182300Z 28010G15KT 15SM SCT042 BKN093 21/11 A2986 RMK SC3AC4 TCU ASOCTD SLP112

CYYZ;2009-07-19 00:00;CYYZ 190000Z 27013G18KT 15SM FEW054TCU BKN100 20/11 A2987 RMK TCU2AC4 TCU E S SLP116

CYYZ;2009-07-19 01:00;CYYZ 190100Z 27012G18KT 15SM FEW048TCU SCT100 19/12 A2990 RMK TCU2AC2 SLP124

CYYZ;2009-07-19 02:00;CYYZ 190200Z 26008KT 15SM FEW046 SCT094 18/12 A2991 RMK SC2AC2 SLP129

CYYZ;2009-07-19 03:00;CYYZ 190300Z 28010KT 15SM FEW033 FEW100 17/12 A2993 RMK SC2AC1 SLP135

CYYZ;2009-07-19 04:00;CYYZ 190400Z 27005KT 15SM FEW071 15/12 A2994 RMK AC1 SLP140

CYYZ;2009-07-19 05:00;CYYZ 190500Z 28006KT 15SM FEW090 15/12 A2995 RMK AC1 SLP141

CYYZ;2009-07-19 06:00;CYYZ 190600Z 29007KT 15SM FEW090 15/12 A2995 RMK AC1 SLP140

CYYZ;2009-07-19 07:00;CYYZ 190700Z 26005KT 15SM FEW090 13/12 A2995 RMK AC1 SLP141

CYYZ;2009-07-19 08:00;CYYZ 190800Z 26004KT 15SM FEW030 FEW090 13/12 A2996 RMK SC1AC1 SLP144

CYYZ;2009-07-19 09:00;CYYZ 190900Z 27003KT 15SM FEW030 FEW090 13/12 A2997 RMK SC1AC1 SLP150

CYYZ;2009-07-19 10:00;CYYZ 191000Z 26005KT 15SM FEW030 FEW100 12/11 A2999 RMK SC1AC1 SLP156

CYYZ;2009-07-19 11:00;CYYZ 191100Z 28007KT 15SM FEW080 FEW250 14/12 A3001 RMK AC1CI0 SLP162

CYYZ;2009-07-19 12:00;CYYZ 191200Z 29010KT 15SM FEW025 SCT080 16/12 A3003 RMK SC2AC1 SLP170

CYYZ;2009-07-19 13:00;CYYZ 191300Z 28010G17KT 15SM BKN023 17/13 A3005 RMK SC7 SLP176

CYYZ;2009-07-19 14:00;CYYZ 191400Z 31014G19KT 15SM BKN026 BKN055 18/13 A3006 RMK SC6SC2 SLP178

CYYZ;2009-07-19 15:00;CYYZ 191500Z 30010G15KT 15SM SCT030 BKN035 18/12 A3007 RMK SC3SC4 SLP185

CYYZ;2009-07-19 16:00;CYYZ 191600Z 28012KT 15SM FEW030 BKN035 BKN045 18/12 A3009 RMK SC2SC2SC2 SLP190

CYYZ;2009-07-19 17:00;CYYZ 191700Z 31012KT 15SM FEW040 BKN050 19/11 A3009 RMK CU2SC5 SLP191

CYYZ;2009-07-19 18:00;CYYZ 191800Z 28010KT 15SM FEW035 BKN050 19/12 A3009 RMK CU2SC5 SLP191

CYYZ;2009-07-19 19:00;CYYZ 191900Z 29007KT 15SM FEW040 BKN055 21/12 A3009 RMK CU2SC5 SLP191

CYYZ;2009-07-19 20:00;CYYZ 192000Z 29008KT 15SM FEW040 BKN057 21/12 A3010 RMK CU2SC5 SLP192

CYYZ;2009-07-19 21:00;CYYZ 192100Z 29003KT 15SM FEW040 BKN064 22/11 A3009 RMK CU2SC5 SLP190

CYYZ;2009-07-19 22:00;CYYZ 192200Z 23002KT 15SM FEW035 BKN048 BKN075 BKN240 22/11 A3009 RMK CU2SC3AC2CI1 SLP189

CYYZ;2009-07-19 23:00;CYYZ 192300Z 28006KT 15SM FEW045 SCT064 BKN110 BKN250 22/11 A3008 RMK CU2SC2AC2CI0 SLP188

CYYZ;2009-07-20 00:00;CYYZ 200000Z 31007KT 15SM FEW044 SCT058 BKN260 21/12 A3009 RMK CU2SC2CI1 SLP190

CYYZ;2009-07-20 01:00;CYYZ 200100Z 28006KT 15SM FEW045 SCT055 SCT260 20/13 A3010 RMK CU1SC2CI0 SLP194

CYYZ;2009-07-20 02:00;CYYZ 200200Z 28005KT 15SM SCT059 18/12 A3012 RMK SC3 SLP199

CYYZ;2009-07-20 03:00;CYYZ 200300Z 26005KT 15SM FEW063 17/12 A3013 RMK SC2 SLP205

CYYZ;2009-07-20 04:00;CYYZ 200400Z 28007KT 15SM FEW062 17/13 A3013 RMK SC1 SLP205

CYYZ;2009-07-20 05:00;CYYZ 200500Z 30005KT 15SM SKC 16/13 A3015 RMK SLP209

CYYZ;2009-07-20 06:00;CYYZ 200600Z 29003KT 15SM SKC 15/13 A3015 RMK SLP210

CYYZ;2009-07-20 07:00;CYYZ 200700Z 28004KT 15SM SKC 14/12 A3015 RMK SLP210

CYYZ;2009-07-20 08:00;CYYZ 200800Z 29004KT 15SM SKC 13/12 A3016 RMK SLP212

CYYZ;2009-07-20 09:00;CYYZ 200900Z 32005KT 15SM FEW250 14/12 A3016 RMK CI1 SLP214

CYYZ;2009-07-20 10:00;CYYZ 201000Z 02004KT 15SM FEW120 SCT250 13/12 A3016 RMK AC2CI0 SLP213

CYYZ;2009-07-20 11:00;CYYZ 201100Z 33002KT 15SM FEW120 SCT250 14/12 A3018 RMK AC2CI0 SLP219

CYYZ;2009-07-20 12:00;CYYZ 201200Z 31003KT 15SM FEW030 FEW120 SCT250 16/13 A3019 RMK SC1AC2CI1 SC TR SLP223

CYYZ;2009-07-20 13:00;CYYZ 201300Z 00000KT 15SM FEW030 FEW120 SCT250 19/14 A3020 RMK CF1AC2CI1 CF TR SLP227

CYYZ;2009-07-20 14:00;CYYZ 201400Z 00000KT 15SM FEW030 FEW120 SCT250 20/13 A3020 RMK CU1AC1CI1 SLP227

CYYZ;2009-07-20 15:00;CYYZ 201500Z 05002KT 15SM FEW035 FEW120 SCT250 22/13 A3019 RMK CU2AC1CI1 AC TR SLP223

CYYZ;2009-07-20 16:00;CYYZ 201600Z 13008KT 15SM FEW040 SCT230 22/13 A3019 RMK CU2CI1 AC TR SLP224

CYYZ;2009-07-20 17:00;CYYZ 201700Z 17004KT 15SM SCT040 BKN230 23/13 A3018 RMK CU3CI1 SLP221

CYYZ;2009-07-20 18:00;CYYZ 201800Z 15010KT 15SM SCT050 BKN250 22/13 A3019 RMK CU3CI1 SLP223

CYYZ;2009-07-20 19:00;CYYZ 201900Z 17009KT 15SM SCT050 SCT080 BKN220 23/12 A3018 RMK CU3AC1CI2 AC TR SLP219

CYYZ;2009-07-20 20:00;CYYZ 202000Z 16008KT 15SM FEW050 SCT080 BKN210 24/11 A3016 RMK CU2AC1CI2 TCU ASOCTD SLP214

CYYZ;2009-07-20 21:00;CYYZ 202100Z 12007KT 15SM FEW050 SCT180 BKN230 24/10 A3016 RMK CU2AC1CI2 TCU ASOCTD SLP212

CYYZ;2009-07-20 22:00;CYYZ 202200Z 17007KT 15SM FEW060TCU SCT130 BKN230 25/09 A3016 RMK TCU2AC1CI1 SLP213

CYYZ;2009-07-20 23:00;CYYZ 202300Z 14005KT 15SM FEW062 SCT120 BKN260 22/12 A3016 RMK CU2AC2CI1 SLP212

CYYZ;2009-07-21 00:00;CYYZ 210000Z 15004KT 15SM FEW062 SCT120 BKN260 22/11 A3016 RMK CU1AC2CI1 CU TR SLP213

CYYZ;2009-07-21 01:00;CYYZ 210100Z 16003KT 15SM FEW064 SCT120 BKN260 20/12 A3016 RMK CU1AC2CI1 CU TR SLP215

CYYZ;2009-07-21 02:00;CYYZ 210200Z 17002KT 15SM FEW062 FEW120 BKN260 19/12 A3018 RMK SC1AC2CI1 SC TR SLP220

CYYZ;2009-07-21 03:00;CYYZ 210300Z 14002KT 15SM FEW120 FEW260 18/13 A3018 RMK AC1CI1 SLP221

CYYZ;2009-07-21 04:00;CYYZ 210400Z 15003KT 15SM SCT240 18/13 A3019 RMK CI2 SLP225

CYYZ;2009-07-21 05:00;CYYZ 210500Z 13002KT 15SM SCT240 18/14 A3019 RMK CI2 SLP224

CYYZ;2009-07-21 06:00;CYYZ 210600Z 02006KT 15SM SCT240 16/12 A3019 RMK CI2 SLP224

CYYZ;2009-07-21 07:00;CYYZ 210700Z 01003KT 15SM SCT240 16/13 A3019 RMK CI2 SLP223

CYYZ;2009-07-21 08:00;CYYZ 210800Z 02005KT 15SM SCT240 15/12 A3019 RMK CI2 SLP222

CYYZ;2009-07-21 09:00;CYYZ 210900Z 05004KT 15SM SCT230 15/12 A3018 RMK CI2 SLP221

CYYZ;2009-07-21 10:00;CYYZ 211000Z 01004KT 15SM FEW140 SCT240 15/13 A3019 RMK AC2CI1 SLP222

CYYZ;2009-07-21 11:00;CYYZ 211100Z 01002KT 15SM FEW130 BKN150 17/14 A3019 RMK AC1AC4 SLP224

CYYZ;2009-07-21 12:00;CYYZ 211200Z 02003KT 15SM BKN150 18/14 A3019 RMK AC7 SLP224

CYYZ;2009-07-21 13:00;CYYZ 211300Z 10004KT 15SM BKN110 BKN140 21/14 A3020 RMK AC6AC2 SLP226

CYYZ;2009-07-21 14:00;CYYZ 211400Z 11007KT 15SM FEW088 BKN100 22/13 A3019 RMK AC2AC6 SLP224

CYYZ;2009-07-21 15:00;CYYZ 211500Z 09005KT 15SM FEW060 BKN140 22/12 A3019 RMK SC1AC7 SLP223

CYYZ;2009-07-21 16:00;CYYZ 211600Z 14008KT 15SM FEW012 FEW050 FEW110 BKN140 23/10 A3019 RMK SF1SC1AC2AC5 SLP224

CYYZ;2009-07-21 17:00;CYYZ 211700Z 11006KT 15SM FEW012 FEW050 OVC100 22/10 A3018 RMK ST1CU1AC8 SLP220

CYYZ;2009-07-21 18:00;CYYZ 211800Z 14004KT 15SM FEW015 FEW045 OVC085 22/11 A3017 RMK SF1CU1AC8 SLP218

CYYZ;2009-07-21 19:00;CYYZ 211900Z 19004KT 15SM FEW040 BKN056 OVC090 20/12 A3018 RMK CU1SC7AC1 SLP219

CYYZ;2009-07-21 20:00;CYYZ 212000Z 22006KT 15SM VCSH FEW040 SCT070 OVC097 18/14 A3018 RMK CU2AC2AC5 CB ASOCTD SHWRS W SLP220

CYYZ;2009-07-21 20:16;CYYZ 212016Z 21005KT 12SM -SHRA FEW040CB SCT060 OVC088 18/ RMK CB2SC2AC5

CYYZ;2009-07-21 21:00;CYYZ 212100Z 00000KT 9SM -SHRA OVC042 18/15 A3017 RMK SC8 CB EMBD SLP218

CYYZ;2009-07-21 22:00;CYYZ 212200Z 06006KT 15SM -SHRA FEW055 OVC130 18/14 A3013 RMK SC2AC6 SLP206

CYYZ;2009-07-21 23:00;CYYZ 212300Z 05007KT 12SM -SHRA FEW032 BKN064 OVC110 18/16 A3010 RMK SC2SC3AC3 SLP196

CYYZ;2009-07-21 23:38;CYYZ 212338Z 27003KT 12SM FEW062 BKN150 BKN250 18/ RMK SC2AC3CI2

CYYZ;2009-07-22 00:00;CYYZ 220000Z 29002KT 12SM BKN110 BKN250 18/16 A3012 RMK AC6CI2 SLP201

CYYZ;2009-07-22 01:00;CYYZ 220100Z 00000KT 12SM BKN099 BKN250 18/16 A3011 RMK AC6CI1 SLP197

CYYZ;2009-07-22 02:00;CYYZ 220200Z 04003KT 12SM BKN087 OVC250 18/16 A3012 RMK AC6CI1 SLP201

CYYZ;2009-07-22 03:00;CYYZ 220300Z 07002KT 12SM SCT092 OVC110 18/16 A3013 RMK AC3AC5 SLP201

CYYZ;2009-07-22 04:00;CYYZ 220400Z 09003KT 12SM SCT070 OVC085 19/15 A3013 RMK AC3AC5 SLP202

CYYZ;2009-07-22 05:00;CYYZ 220500Z 09004KT 12SM -SHRA SCT082 OVC100 18/15 A3012 RMK AC3AC5 SLP199

CYYZ;2009-07-22 05:24;CYYZ 220524Z 11005KT 15SM BKN091 17/ RMK AC7

CYYZ;2009-07-22 06:00;CYYZ 220600Z 14004KT 15SM BKN100 17/16 A3011 RMK AC7 SLP196

CYYZ;2009-07-22 07:00;CYYZ 220700Z 05002KT 15SM SCT010 BKN098 16/15 A3012 RMK ST3AC3 SLP198

CYYZ;2009-07-22 08:00;CYYZ 220800Z 06002KT 15SM SCT010 BKN100 17/16 A3011 RMK ST3AC3 SLP197

CYYZ;2009-07-22 09:00;CYYZ 220900Z 00000KT 15SM FEW011 BKN110 17/15 A3012 RMK ST2AC4 SLP199

CYYZ;2009-07-22 10:00;CYYZ 221000Z 00000KT 15SM FEW015 BKN110 BKN250 17/15 A3012 RMK SC2AC3CI1 SLP200

CYYZ;2009-07-22 10:19;CYYZ 221019Z 06003KT 12SM BKN006 BKN100 17/ RMK ST6AC1

CYYZ;2009-07-22 11:00;CYYZ 221100Z 05007KT 7SM OVC006 17/16 A3013 RMK ST8 SLP202

CYYZ;2009-07-22 12:00;CYYZ 221200Z 08009KT 9SM OVC007 18/17 A3013 RMK ST8 SLP204

CYYZ;2009-07-22 12:50;CYYZ 221250Z 09009KT 15SM BKN010 19/ RMK SF7

CYYZ;2009-07-22 13:00;CYYZ 221300Z 09009KT 15SM OVC013 19/16 A3013 RMK SF7 SLP204

CYYZ;2009-07-22 14:00;CYYZ 221400Z 08010KT 15SM OVC014 19/16 A3013 RMK SF8 SLP203

CYYZ;2009-07-22 15:00;CYYZ 221500Z 12008KT 15SM BKN015 BKN022 20/17 A3013 RMK SC6SC1 SLP203

CYYZ;2009-07-22 16:00;CYYZ 221600Z 11011KT 15SM BKN016 BKN220 22/17 A3013 RMK SC6CC1 CU ASOCTD SLP202

CYYZ;2009-07-22 17:00;CYYZ 221700Z 08011KT 15SM BKN015 OVC020 20/16 A3013 RMK SC6SC2 SLP204

CYYZ;2009-07-22 18:00;CYYZ 221800Z 09012KT 15SM SCT017 BKN180 21/16 A3012 RMK CU4AC3 SLP200

CYYZ;2009-07-22 19:00;CYYZ 221900Z 10008KT 15SM FEW020 OVC160 22/16 A3011 RMK CU1AC7 SLP196

CYYZ;2009-07-22 20:00;CYYZ 222000Z 11010KT 15SM FEW020 OVC160 22/16 A3010 RMK CU1AC8 SLP192

CYYZ;2009-07-22 21:00;CYYZ 222100Z 09010KT 15SM FEW020 OVC150 22/15 A3009 RMK CF1AC8 SLP190

CYYZ;2009-07-22 22:00;CYYZ 222200Z 09010KT 15SM BKN130 OVC140 21/15 A3007 RMK AC6AC2 SLP184

CYYZ;2009-07-22 23:00;CYYZ 222300Z 08009KT 15SM OVC130 21/15 A3007 RMK AC8 SLP181

CYYZ;2009-07-23 00:00;CYYZ 230000Z 10006KT 15SM OVC110 21/14 A3006 RMK AC8 SLP180

CYYZ;2009-07-23 01:00;CYYZ 230100Z 09006KT 15SM BKN097 OVC120 21/14 A3006 RMK AC6AC2 SLP180

CYYZ;2009-07-23 02:00;CYYZ 230200Z 11003KT 15SM OVC110 20/15 A3007 RMK AC8 SLP181

CYYZ;2009-07-23 02:24;CYYZ 230224Z 14002KT 15SM -SHRA FEW036 BKN094 OVC120 20/ RMK SC2AC3AC2

CYYZ;2009-07-23 03:00;CYYZ 230300Z 11006KT 12SM -SHRA FEW034 SCT082 OVC094 20/16 A3006 RMK SC2AC2AC4 SLP178

CYYZ;2009-07-23 04:00;CYYZ 230400Z 09004KT 12SM -SHRA BKN042 BKN078 OVC110 18/17 A3004 RMK SC5AC2AC1 SLP174

CYYZ;2009-07-23 05:00;CYYZ 230500Z 05008KT 10SM -SHRA SCT043 OVC083 18/17 A3002 RMK SC3AC5 SLP167

CYYZ;2009-07-23 05:33;CYYZ 230533Z 12008KT 10SM -SHRA BKN006 BKN043 OVC096 18/ RMK SC5SC2AC2

CYYZ;2009-07-23 05:45;CYYZ 230545Z 11008KT 10SM -SHRA SCT006 BKN043 OVC110 18/ RMK SC3SC2AC2

CYYZ;2009-07-23 06:00;CYYZ 230600Z 11008KT 9SM -SHRA SCT006 BKN042 OVC100 18/17 A3003 RMK SC3SC2AC2 SLP169

CYYZ;2009-07-23 06:49;CYYZ 230649Z 10003KT 8SM -RA BKN003 OVC042 18/ RMK SF6SC2

CYYZ;2009-07-23 07:00;CYYZ 230700Z 07003KT 7SM -RA SCT004 BKN040 OVC100 18/17 A3000 RMK SF3SC2AC2 BR SLP160

CYYZ;2009-07-23 08:00;CYYZ 230800Z 09004KT 7SM -RA SCT004 BKN041 OVC110 18/17 A2999 RMK SF3SC2AC3 BR SLP157

CYYZ;2009-07-23 09:00;CYYZ 230900Z 08005KT 10SM -SHRA FEW005 BKN074 OVC092 18/17 A2997 RMK SF2AC4AC2 PCPN VRY LGT SLP147

CYYZ;2009-07-23 10:00;CYYZ 231000Z 09005KT 8SM -SHRA FEW046 SCT063 OVC110 18/17 A2996 RMK SC2SC2AC4 BR SLP146

CYYZ;2009-07-23 11:00;CYYZ 231100Z 08008KT 7SM -SHRA BKN011 OVC120 18/18 A2994 RMK SF6AC2 SLP139

CYYZ;2009-07-23 11:20;CYYZ 231120Z 06006KT 6SM -SHRA OVC008 18/ RMK SF8

CYYZ;2009-07-23 12:00;CYYZ 231200Z 07008KT 6SM -SHRA OVC006 18/18 A2992 RMK SF8 SLP131

CYYZ;2009-07-23 12:48;CYYZ 231248Z 08008KT 2SM +SHRA OVC004 18/ RMK SF8 CB EMBD

CYYZ;2009-07-23 13:00;CYYZ 231300Z 07008KT 2 1/2SM SHRA BR OVC004 18/18 A2989 RERA RMK SF8 CB EMBD SLP123

CYYZ;2009-07-23 13:21;CYYZ 231321Z 09010KT 3SM -SHRA BR OVC004 19/ RERA RMK SF8

CYYZ;2009-07-23 13:28;CYYZ 231328Z 09009KT 2SM -SHRA BR OVC004 18/ RERA RMK SF8

CYYZ;2009-07-23 13:41;CYYZ 231341Z 11009KT 1 3/4SM +SHRA BR OVC003 18/ RMK SF8

CYYZ;2009-07-23 13:53;CYYZ 231353Z 10008KT 1 1/2SM +SHRA BR FEW003 OVC007 18/ RMK SF2SF6 CB EMBD

CYYZ;2009-07-23 14:00;CYYZ 231400Z 08007KT 2SM +SHRA BR FEW004 BKN008 OVC022 18/18 A2988 RMK SF2SF5SF2 CB EMBD SLP117

CYYZ;2009-07-23 14:11;CYYZ 231411Z 09003KT 4SM -SHRA BR BKN003 OVC007 18/ RERA RMK SF5SF3

CYYZ;2009-07-23 14:19;CYYZ 231419Z 08003KT 1 1/2SM +SHRA BR FEW003 OVC006 18/ RMK SF2SF6 CB EMBD

CYYZ;2009-07-23 14:36;CYYZ 231436Z 06006KT 3SM SHRA BR SCT004 OVC037 19/ RERA RMK SF3SC5 CB EMBD PRESFR

CYYZ;2009-07-23 14:50;CYYZ 231450Z 08006KT 4SM SHRA BR BKN006 BKN016 OVC028 19/ RERA RMK SF5SF2SC1 CB EMBD

CYYZ;2009-07-23 15:00;CYYZ 231500Z 08006KT 4SM +SHRA BR BKN005 OVC012 19/19 A2984 RMK SF7SC1 CB EMBD SLP105

CYYZ;2009-07-23 15:32;CYYZ 231532Z 08007KT 2SM -SHRA BR BKN004 OVC007 19/ RERA RMK SF6SF2

CYYZ;2009-07-23 15:53;CYYZ 231553Z 09007KT 3SM -SHRA BR BKN004 OVC009 19/ RERA RMK SF5SF3

CYYZ;2009-07-23 16:00;CYYZ 231600Z 10005KT 4SM -SHRA BR BKN004 OVC007 19/19 A2983 RERA RMK SF5SF3 SLP100

CYYZ;2009-07-23 17:00;CYYZ 231700Z 15007KT 4SM BR BKN003 OVC005 20/20 A2982 RMK SF6SF2 SLP096

CYYZ;2009-07-23 17:37;CYYZ 231737Z 19006KT 6SM BR FEW005 OVC007 21/ RMK SF2SC6

CYYZ;2009-07-23 17:51;CYYZ 231751Z 22008KT 7SM SCT007 BKN012 21/ RMK SF3SF4

CYYZ;2009-07-23 18:00;CYYZ 231800Z 21007KT 6SM BR FEW007 OVC011 21/20 A2981 RMK SF2SF6 /R20/ SLP094

CYYZ;2009-07-23 19:00;CYYZ 231900Z 27009KT 8SM BKN013 BKN040 BKN100 23/20 A2980 RMK SF5SC2AC1 SLP092

CYYZ;2009-07-23 19:11;CYYZ 231911Z 27008KT 9SM FEW013 BKN040 BKN100 22/ RMK SF2SC5AC1

CYYZ;2009-07-23 20:00;CYYZ 232000Z 31007KT 15SM SCT013 BKN018 22/19 A2980 RMK CF4SC3 SLP092

CYYZ;2009-07-23 21:00;CYYZ 232100Z 30005KT 15SM FEW016 BKN038 BKN100 22/19 A2980 RMK SC2SC5AS1 SLP090

CYYZ;2009-07-23 22:00;CYYZ 232200Z 31003KT 15SM FEW020 FEW065 BKN260 23/19 A2977 RMK SC1SC1CC6 SLP080

CYYZ;2009-07-23 23:00;CYYZ 232300Z 29003KT 15SM FEW050 SCT070 BKN095 23/18 A2978 RMK SC2AC2AC3 SLP083

CYYZ;2009-07-24 00:00;CYYZ 240000Z 14006KT 15SM FEW030 FEW065 BKN070 BKN090 23/18 A2979 RMK SC1SC2AC3AC2 SLP086

CYYZ;2009-07-24 01:00;CYYZ 240100Z 16004KT 12SM FEW050 BKN055 BKN110 20/18 A2978 RMK SC2SC3AC2 DARK TWD W SLP083

CYYZ;2009-07-24 01:37;CYYZ 240137Z 33007KT 4SM -SHRA SCT007 BKN022 20/ RMK SC3SC4

CYYZ;2009-07-24 01:47;CYYZ 240147Z 33008KT 3SM +SHRA BKN007 OVC025 19/ RMK SC5SC3

CYYZ;2009-07-24 02:00;CYYZ 240200Z 02007KT 10SM -SHRA FEW007 OVC025 19/18 A2980 RERA RMK SC2SC6 SLP090

CYYZ;2009-07-24 02:33;CYYZ 240233Z 01005KT 15SM FEW010 SCT030 BKN038 19/ RMK SC1SC3SC3

CYYZ;2009-07-24 03:00;CYYZ 240300Z 34003KT 15SM FEW007 BKN025 BKN038 19/19 A2980 RMK SC1SC5SC2 SLP091

CYYZ;2009-07-24 04:00;CYYZ 240400Z 01005KT 15SM FEW030 BKN075 BKN090 19/18 A2980 RMK SC1AC4AC2 SLP091

CYYZ;2009-07-24 05:00;CYYZ 240500Z 31004KT 15SM SCT070 BKN120 19/18 A2980 RMK AC3AC4 SLP091

CYYZ;2009-07-24 06:00;CYYZ 240600Z 32005KT 15SM FEW018 FEW065 SCT150 BKN250 18/17 A2981 RMK SC1SC1AC2CI1 SLP094

CYYZ;2009-07-24 07:00;CYYZ 240700Z 26002KT 15SM FEW075 BKN230 18/17 A2981 RMK AC2CI2 SLP095

CYYZ;2009-07-24 08:00;CYYZ 240800Z 28005KT 12SM BKN030 18/18 A2981 RMK SC7 SLP094

CYYZ;2009-07-24 09:00;CYYZ 240900Z 28004KT 12SM BKN035 BKN050 BKN070 18/17 A2980 RMK SC5SC2AC1 SLP092

CYYZ;2009-07-24 10:00;CYYZ 241000Z 27003KT 10SM FEW045 BKN075 BKN090 18/17 A2980 RMK SC2AC4AC2 BR SLP092

CYYZ;2009-07-24 11:00;CYYZ 241100Z 28005KT 12SM BKN043 BKN250 18/17 A2981 RMK SC5CI1 SLP095

CYYZ;2009-07-24 12:00;CYYZ 241200Z 26005KT 12SM FEW011 BKN039 19/17 A2983 RMK CF2SC6 SLP102

CYYZ;2009-07-24 13:00;CYYZ 241300Z 28005KT 15SM FEW018 BKN040 19/17 A2985 RMK CF2SC6 SLP107

CYYZ;2009-07-24 14:00;CYYZ 241400Z 31005KT 15SM SCT022 BKN038 BKN085 21/17 A2985 RMK CU3SC2AC2 SLP107

CYYZ;2009-07-24 15:00;CYYZ 241500Z 29007KT 15SM SCT024 BKN039 BKN082 21/16 A2986 RMK CU3SC2AC2 SLP110

CYYZ;2009-07-24 16:00;CYYZ 241600Z 28012KT 15SM SCT036 BKN051 23/17 A2986 RMK CU4SC3 SLP111

CYYZ;2009-07-24 17:00;CYYZ 241700Z 27008KT 15SM SCT034 BKN048 23/16 A2985 RMK CU4SC3 TCU ASOCTD SLP108

CYYZ;2009-07-24 18:00;CYYZ 241800Z 25008KT 15SM SCT032 BKN039 BKN240 23/16 A2985 RMK CU3SC2CI1 SLP106

CYYZ;2009-07-24 19:00;CYYZ 241900Z 27005KT 15SM SCT038 BKN052 BKN082 BKN240 23/16 A2983 RMK CU3SC2AC2CI0 TCU ASOCTD SLP102

CYYZ;2009-07-24 19:16;CYYZ 241916Z 23003KT 15SM -SHRA SCT038 BKN045 BKN082 BKN240 23/ RMK CU3SC2AC2CI0 TCU ASOCTD

CYYZ;2009-07-24 19:33;CYYZ 241933Z 00000KT 15SM SCT035 BKN045 BKN240 24/ RMK CU3SC2CI2

CYYZ;2009-07-24 19:55;CYYZ 241955Z 11006KT 15SM TS SCT035CB BKN045 BKN240 23/ RMK CB3SC2CI2 CB NW

CYYZ;2009-07-24 20:00;CYYZ 242000Z 13006KT 12SM TS SCT041CB BKN048 BKN240 23/16 A2983 RMK CB3SC2CI2 CB NW MOVG NE SLP099

CYYZ;2009-07-24 20:14;CYYZ 242014Z 32014G24KT 10SM -TSRA SCT041CB BKN048 BKN240 22/ RMK CB3SC2CI2 CB NE

CYYZ;2009-07-24 20:49;CYYZ 242049Z 27007KT 10SM SCT044TCU BKN085 BKN240 23/ RETS RMK TCU3AC2CI1 CB ASOCTD

CYYZ;2009-07-24 21:00;CYYZ 242100Z 24004KT 10SM SCT039TCU BKN085 BKN240 24/17 A2983 RETS RMK TCU3AC2CI2 CB ASOCTD SLP100

CYYZ;2009-07-24 21:22;CYYZ 242122Z 18010KT 10SM TS SCT035CB BKN075 BKN240 21/ RMK CB3AC2CI2 CB E

CYYZ;2009-07-24 21:47;CYYZ 242147Z 24009KT 10SM SCT035TCU BKN110 BKN240 23/ RETS RMK TCU3AC2CI2 CB ASOCTD

CYYZ;2009-07-24 22:00;CYYZ 242200Z 24011KT 10SM SCT045TCU BKN110 BKN230 22/16 A2983 RETS RMK TCU3AC2CI2 SLP101

CYYZ;2009-07-24 23:00;CYYZ 242300Z 27012KT 15SM FEW050TCU BKN120 BKN230 21/16 A2983 RMK TCU2AC2CI2 SLP102

CYYZ;2009-07-24 23:08;CYYZ 242308Z CCA 26015KT 15SM -SHRA FEW025 FEW050TCU BKN120 BKN230 21/ RMK CF1TCU2AC2CI2

CYYZ;2009-07-24 23:25;CYYZ 242325Z 26010KT 15SM FEW035 FEW050TCU BKN120 BKN230 21/ RMK CF1TCU2AC2CI2

CYYZ;2009-07-24 23:43;CYYZ 242343Z 26008KT 15SM -SHRA FEW050TCU SCT080 BKN120 BKN230 21/ RMK TCU2AC2AC2CI2 PCPN VRY LGT

CYYZ;2009-07-25 00:00;CYYZ 250000Z 26007KT 15SM -SHRA FEW050TCU BKN085 BKN230 21/16 A2983 RMK TCU2AC4CI2 PCPN VRY LGT SLP102

CYYZ;2009-07-25 00:20;CYYZ 250020Z 25005KT 15SM FEW050TCU BKN100 BKN110 BKN230 21/ RMK TCU2AC3AC2CI1

CYYZ;2009-07-25 01:00;CYYZ 250100Z 23004KT 15SM FEW050TCU BKN100 BKN120 20/17 A2984 RMK TCU2AC4AC2 SLP105

CYYZ;2009-07-25 02:00;CYYZ 250200Z 18002KT 15SM SCT045 BKN130 20/18 A2985 RMK SC3AC4 SLP108

CYYZ;2009-07-25 03:00;CYYZ 250300Z 17002KT 15SM SCT120 BKN220 19/18 A2985 RMK AC3CI2 SLP106

CYYZ;2009-07-25 04:00;CYYZ 250400Z 15005KT 15SM FEW120 BKN180 BKN210 19/18 A2985 RMK AC2AC2CI2 SLP108

CYYZ;2009-07-25 05:00;CYYZ 250500Z 16004KT 15SM FEW055 SCT120 BKN200 18/17 A2985 RMK SC2AC2CI2 SLP106

CYYZ;2009-07-25 06:00;CYYZ 250600Z 16005KT 15SM FEW050 BKN180 BKN230 18/17 A2984 RMK SC1AC4CI2 SLP104

CYYZ;2009-07-25 07:00;CYYZ 250700Z CCA 16003KT 15SM FEW050 SCT150 BKN190 BKN230 18/17 A2983 RMK SC1AC2AC3CI1 SLP100

CYYZ;2009-07-25 08:00;CYYZ 250800Z 20005KT 15SM FEW056 BKN110 BKN190 19/17 A2983 RMK SC2AC4AC2 SLP099

CYYZ;2009-07-25 09:00;CYYZ 250900Z 18003KT 12SM -SHRA FEW055 OVC110 19/17 A2982 RMK SC2AC6 PCPN VRY LGT SLP098

CYYZ;2009-07-25 09:40;CYYZ 250940Z 13003KT 12SM FEW090 BKN140 BKN170 18/ RMK AC2AC3AC2

CYYZ;2009-07-25 10:00;CYYZ 251000Z 14003KT 8SM FEW090 BKN120 BKN170 18/17 A2981 RMK AC2AC4AC2 BR SLP094

CYYZ;2009-07-25 11:00;CYYZ 251100Z 14004KT 4SM BR SCT094 BKN120 18/17 A2980 RMK AC3AC2 SLP091

CYYZ;2009-07-25 12:00;CYYZ 251200Z 15005KT 7SM SCT082 BKN110 BKN210 19/17 A2980 RMK AC3AC3CI0 BR SLP089

CYYZ;2009-07-25 13:00;CYYZ 251300Z 15008KT 10SM SCT100 BKN220 21/18 A2980 RMK AC3CI2 SLP089

CYYZ;2009-07-25 14:00;CYYZ 251400Z 15007KT 15SM FEW083 OVC160 21/17 A2979 RMK AC2AC6 SLP086

CYYZ;2009-07-25 15:00;CYYZ 251500Z 15006KT 12SM SCT042 OVC120 21/17 A2977 RMK SC3AC5 SLP082

CYYZ;2009-07-25 16:00;CYYZ 251600Z 15008KT 15SM OVC094 22/18 A2977 RMK AC8 SLP079

CYYZ;2009-07-25 17:00;CYYZ 251700Z 14008KT 15SM FEW058 BKN120 OVC220 22/18 A2974 RMK SC2AC6CI1 SLP069

CYYZ;2009-07-25 18:00;CYYZ 251800Z 13007KT 15SM FEW042 SCT083 OVC130 22/17 A2970 RMK SC2AC2AC4 SLP057

CYYZ;2009-07-25 18:05;CYYZ 251805Z 13008KT 10SM -SHRA FEW022 BKN043 OVC120 22/ RMK SC2SC3AC2

CYYZ;2009-07-25 18:38;CYYZ 251838Z CCA 14006KT 2SM +SHRA BR FEW012 OVC029 20/ RMK SC2SC6 TCU EMBD

CYYZ;2009-07-25 18:50;CYYZ 251850Z 16006KT 4SM -SHRA BR SCT022 OVC031 20/ RERA RMK SC3SC5

CYYZ;2009-07-25 19:00;CYYZ 251900Z 14007KT 4SM -SHRA BR BKN023 OVC049 20/19 A2968 RERA RMK SC5SC3 SLP051

CYYZ;2009-07-25 19:23;CYYZ 251923Z 13007KT 2 1/4SM SHRA BR BKN018 OVC032 20/ RMK SC5SC3

CYYZ;2009-07-25 19:47;CYYZ 251947Z 12006KT 2 1/2SM SHRA BR BKN005 OVC033 20/ RMK SF5SC3 TCU EMBD

CYYZ;2009-07-25 20:00;CYYZ 252000Z 11007KT 2 1/4SM SHRA BR BKN004 OVC022 19/19 A2966 RMK SF6SC2 TCU EMBD SLP043

CYYZ;2009-07-25 20:10;CYYZ 252010Z 09008KT 2SM TSRA BR BKN006 OVC032 19/ RMK SF5SC3 CB EMBD SE

CYYZ;2009-07-25 20:32;CYYZ 252032Z 03002KT 3SM SHRA BR FEW004 BKN011 OVC023 19/ RETSRA RMK SF2SC4SC2 TCU EMBD

CYYZ;2009-07-25 20:42;CYYZ 252042Z 04003KT 1 3/4SM SHRA BR BKN006 OVC014 19/ RETSRA RMK SF6SC2 TCU EMBD

CYYZ;2009-07-25 21:00;CYYZ 252100Z 36004KT 2 1/4SM +SHRA BR BKN007 OVC018 19/18 A2964 RETS RMK SF6SC2 /R14/ TCU EMBD SLP037

CYYZ;2009-07-25 21:08;CYYZ 252108Z 01004KT 8SM -SHRA FEW006 BKN013 OVC022 19/ RERA RMK SF2SC5SC2 BR

CYYZ;2009-07-25 21:31;CYYZ 252131Z 04004KT 12SM FEW014 BKN038 BKN120 20/ RERA RMK SC1SC4AC1

CYYZ;2009-07-25 22:00;CYYZ 252200Z CCA 29004KT 15SM BKN038 BKN120 21/20 A2965 RERA RMK SC6AC1 TCU ASOCTD SE SLP039

CYYZ;2009-07-25 23:00;CYYZ 252300Z 25005KT 12SM BKN030 BKN110 BKN240 21/19 A2966 RMK SC5AC2CI1 TCU EMBD SLP042

CYYZ;2009-07-26 00:00;CYYZ 260000Z CCA 21003KT 12SM SCT035 BKN110 BKN220 21/20 A2966 RMK SC3AC2CI1 TCU ASOCTD SE /R18/ SLP044

CYYZ;2009-07-26 00:30;CYYZ 260030Z CCA 20004KT 12SM -SHRA FEW022 SCT038 BKN110 BKN200 21/ RMK SC1SC2AC2CI1 TCU ASOCTD SE

CYYZ;2009-07-26 00:45;CYYZ 260045Z CCA 22004KT 12SM SCT040 BKN140 BKN200 21/ RMK SC3AC2CI1 TCU ASOCTD SE

CYYZ;2009-07-26 01:00;CYYZ 260100Z 22004KT 12SM FEW040 SCT100 BKN160 BKN200 21/19 A2965 RMK SC2AC2AC2CI1 TCU ASOCTD SE SLP041

CYYZ;2009-07-26 02:00;CYYZ 260200Z 18005KT 12SM FEW035 SCT130 BKN170 BKN200 21/19 A2966 RMK SC1AC2AC2CI2 SLP044

CYYZ;2009-07-26 03:00;CYYZ 260300Z 22009KT 15SM FEW030 FEW110 BKN180 BKN230 21/19 A2968 RMK SC1AC2AC2CI1 SLP049

CYYZ;2009-07-26 04:00;CYYZ 260400Z 21005KT 15SM BKN092 BKN230 20/18 A2968 RMK AC5CI1 SLP051

CYYZ;2009-07-26 05:00;CYYZ 260500Z 21006KT 15SM FEW090 SCT150 BKN230 19/17 A2968 RMK AC2AC2CI1 SLP051

CYYZ;2009-07-26 06:00;CYYZ 260600Z 24007KT 15SM BKN100 19/17 A2970 RMK AC5 SLP056

CYYZ;2009-07-26 07:00;CYYZ 260700Z 25005KT 15SM FEW230 17/16 A2970 RMK CI1 SLP057

CYYZ;2009-07-26 08:00;CYYZ 260800Z 24005KT 15SM FEW230 17/16 A2971 RMK CI1 SLP058

CYYZ;2009-07-26 09:00;CYYZ 260900Z 26003KT 15SM FEW230 16/16 A2971 RMK CI1 SLP061

CYYZ;2009-07-26 10:00;CYYZ 261000Z 25002KT 10SM SCT120 BKN250 17/16 A2972 RMK AC3CI1 SLP065

CYYZ;2009-07-26 11:00;CYYZ 261100Z 19002KT 10SM BKN120 18/17 A2974 RMK AC6 VIS LWR W 7 SLP072

CYYZ;2009-07-26 12:00;CYYZ 261200Z 24005KT 15SM FEW076 BKN110 19/17 A2976 RMK AC2AC5 SLP076

CYYZ;2009-07-26 13:00;CYYZ 261300Z 20005KT 15SM FEW040 BKN130 20/17 A2976 RMK CU1AC6 ACC ASOCTD SLP076

CYYZ;2009-07-26 14:00;CYYZ 261400Z 19005KT 15SM FEW040 SCT078 BKN120 21/17 A2974 RMK CU1AC3AC2 SLP071

CYYZ;2009-07-26 14:46;CYYZ 261446Z 18006KT 15SM TS SCT022 BKN053CB OVC120 21/ RMK SC3CB2AC2 CB W

CYYZ;2009-07-26 15:00;CYYZ 261500Z 17005KT 15SM -TSRA BKN023 OVC110 21/17 A2976 RMK SC5AC3 CB EMBD W SLP075

CYYZ;2009-07-26 15:32;CYYZ 261532Z 24018G25KT 2 1/2SM +TSRA BR SCT018 BKN026CB OVC035 17/ RMK SC3CB4SC1 TS OVRHD

CYYZ;2009-07-26 15:43;CYYZ 261543Z 27010G17KT 12SM TSRA SCT022 BKN032CB OVC053 16/ RERA RMK SC3CB2SC2 TS MOVG ESE

CYYZ;2009-07-26 16:00;CYYZ 261600Z 00000KT 15SM -TSRA FEW026 BKN042CB BKN110 17/16 A2975 RERA RMK SC2CB2AC2 LTGICCC SE SLP074

CYYZ;2009-07-26 16:29;CYYZ 261629Z 14004KT 15SM FEW040TCU SCT053 BKN120 18/ RETS RMK TCU1SC2AC2

CYYZ;2009-07-26 17:00;CYYZ 261700Z 17005KT 15SM FEW022 FEW040TCU SCT052 BKN120 19/18 A2975 RETS RMK SF1TCU1SC2AC2 SLP073

CYYZ;2009-07-26 18:00;CYYZ 261800Z 18006KT 15SM FEW040TCU FEW056 BKN120 21/19 A2973 RMK TCU1SC2AC2 SLP068

CYYZ;2009-07-26 18:44;CYYZ 261844Z 20009KT 12SM -SHRA FEW040TCU SCT056 BKN091 21/ RMK TCU1SC3AC3

CYYZ;2009-07-26 19:00;CYYZ 261900Z 20007KT 12SM -SHRA FEW025 FEW043TCU BKN062 BKN094 20/18 A2973 RMK SC2TCU1SC3AC2 VIS W 8 SLP068

CYYZ;2009-07-26 19:21;CYYZ 261921Z 22009KT 15SM FEW042TCU BKN058 BKN100 21/ RMK TCU2SC3AC2 SH WNW

CYYZ;2009-07-26 20:00;CYYZ 262000Z 24007KT 15SM FEW020 FEW043TCU SCT062 BKN093 21/18 A2975 RMK SC1TCU1SC2AC3 SLP073

CYYZ;2009-07-26 20:39;CYYZ 262039Z CCA 31008KT 15SM TS FEW040TCU SCT048 BKN075 BKN110 20/ RMK TCU1SC3AC2AC1 LTGCG SW CB EMBD

CYYZ;2009-07-26 20:54;CYYZ 262054Z 27008KT 8SM TSRA SCT042 BKN050CB BKN083 20/ RMK SC3CB2AC2 VIS SE 15 LTGICCG SW

CYYZ;2009-07-26 21:00;CYYZ 262100Z CCA 25006KT 12SM TSRA SCT022 BKN042CB BKN072 OVC110 19/16 A2974 RMK SC3CB2AC2AC1 TS OVEHD LTGICCG SW SLP070

CYYZ;2009-07-26 21:51;CYYZ 262151Z 21006KT 15SM -SHRA FEW034 SCT056CB OVC110 18/ RETSRA RMK SC2CB2AC5 CB SE-SSE

CYYZ;2009-07-26 22:00;CYYZ 262200Z 22005KT 15SM -SHRA FEW036 SCT053CB BKN078 OVC110 18/17 A2974 RETSRA RMK SC2CB2AC3AC2 CB SSW TCU ASOCTD NNW SLP070

CYYZ;2009-07-26 23:00;CYYZ 262300Z 20004KT 15SM FEW050CB BKN110 19/17 A2973 RMK CB1AC6 SHWRS S SLP068

CYYZ;2009-07-27 00:00;CYYZ 270000Z 22005KT 15SM FEW050CB BKN110 BKN260 19/17 A2975 RMK CB2AC4CC1 CB SW SLP074

CYYZ;2009-07-27 01:00;CYYZ 270100Z 22004KT 15SM FEW050CB FEW100 SCT260 18/17 A2975 RMK CB1AC2CI1 LTGCG W SLP074

CYYZ;2009-07-27 02:00;CYYZ 270200Z 25006KT 15SM FEW050CB OVC110 19/17 A2977 RMK CB2AC6 SLP080

CYYZ;2009-07-27 02:10;CYYZ 270210Z 25007KT 15SM -SHRA FEW050CB OVC110 19/ RMK CB2AC6

CYYZ;2009-07-27 03:00;CYYZ 270300Z 24002KT 15SM -SHRA FEW050CB BKN120 OVC220 18/17 A2976 RMK CB2AC5CI1 LTGIC S PCPN VRY LGT SLP078

CYYZ;2009-07-27 03:21;CYYZ 270321Z 21004KT 15SM FEW050CB BKN090 OVC220 18/ RMK CB1AC7CI1 LTGIC S

CYYZ;2009-07-27 04:00;CYYZ 270400Z 19003KT 15SM SCT035 BKN110 18/17 A2976 RMK CF4AC2 SLP077

CYYZ;2009-07-27 05:00;CYYZ 270500Z 21003KT 15SM SCT066 BKN078 18/17 A2977 RMK AC3AC3 SLP080

CYYZ;2009-07-27 06:00;CYYZ 270600Z 23005KT 15SM OVC062 18/17 A2977 RMK SC8 SLP082

CYYZ;2009-07-27 07:00;CYYZ 270700Z 25007KT 15SM FEW082 BKN099 17/16 A2977 RMK AC2AC6 SLP081

CYYZ;2009-07-27 08:00;CYYZ 270800Z 24006KT 15SM FEW035 BKN075 17/16 A2979 RMK SC2AC4 SLP086

CYYZ;2009-07-27 09:00;CYYZ 270900Z 25005KT 15SM SCT011 BKN016 BKN030 17/16 A2980 RMK SF3SF2SC1 SLP091

CYYZ;2009-07-27 10:00;CYYZ 271000Z 24006KT 15SM FEW011 FEW038 SCT270 16/16 A2982 RMK SF2SC1CI0 SLP097

CYYZ;2009-07-27 10:12;CYYZ 271012Z 25005KT 15SM BKN012 BKN035 16/ RMK SC5SC2

CYYZ;2009-07-27 10:29;CYYZ 271029Z 23006KT 15SM FEW012 FEW035 FEW270 17/ RMK SC1SC1CI0

CYYZ;2009-07-27 11:00;CYYZ 271100Z 25005KT 15SM FEW023 FEW036 FEW270 17/16 A2984 RMK SC1SC1CI0 SLP104

CYYZ;2009-07-27 12:00;CYYZ 271200Z 25007KT 15SM FEW012 SCT024 18/17 A2986 RMK SC1SC2 SLP111

CYYZ;2009-07-27 13:00;CYYZ 271300Z 27010KT 15SM FEW014 SCT043 20/17 A2986 RMK SC1SC2 SLP112

CYYZ;2009-07-27 14:00;CYYZ 271400Z 27014G19KT 15SM SCT023 BKN046 20/16 A2986 RMK CU3SC3 SLP112

CYYZ;2009-07-27 15:00;CYYZ 271500Z 27012G18KT 15SM FEW024 BKN042 BKN059 22/16 A2987 RMK CU2SC3SC1 SLP114

CYYZ;2009-07-27 16:00;CYYZ 271600Z 26013KT 15SM FEW028 BKN048 22/16 A2988 RMK CU2SC5 SLP117

CYYZ;2009-07-27 17:00;CYYZ 271700Z 25010G17KT 15SM FEW030 BKN048 23/16 A2987 RMK CU2SC2 SLP115

CYYZ;2009-07-27 18:00;CYYZ 271800Z 27017KT 15SM SCT034 SCT046 25/17 A2987 RMK CU3SC1 SLP114

CYYZ;2009-07-27 19:00;CYYZ 271900Z 26014G20KT 15SM BKN062 25/16 A2988 RMK CU5 SLP118

CYYZ;2009-07-27 20:00;CYYZ 272000Z 27014G20KT 15SM SCT056 BKN082 26/16 A2987 RMK CU3AC2 SLP114

CYYZ;2009-07-27 21:00;CYYZ 272100Z 25015KT 15SM SCT043 SCT270 26/15 A2987 RMK CU3CI1 SLP115

CYYZ;2009-07-27 22:00;CYYZ 272200Z 25013KT 15SM FEW042 SCT056 SCT087 SCT270 26/17 A2987 RMK CU2SC2AC1CI1 TCU ASOCTD SSE SH SE SLP113

CYYZ;2009-07-27 23:00;CYYZ 272300Z 24010KT 15SM FEW045CB BKN060 BKN130 23/18 A2986 RMK CB2SC3AC1 SHWRS SE-SW SLP112

CYYZ;2009-07-28 00:00;CYYZ 280000Z 24009KT 15SM FEW045 FEW060 FEW120 FEW270 22/18 A2986 RMK CF1SC1AC1CI1 SLP111

CYYZ;2009-07-28 01:00;CYYZ 280100Z 23008KT 15SM FEW050 FEW100 FEW270 22/17 A2986 RMK SC1AC1CI1 SLP111

CYYZ;2009-07-28 02:00;CYYZ 280200Z 23006KT 15SM FEW270 21/17 A2988 RMK CI0 SLP116

CYYZ;2009-07-28 03:00;CYYZ 280300Z 19004KT 15SM FEW270 21/17 A2988 RMK CI1 SLP117

CYYZ;2009-07-28 04:00;CYYZ 280400Z 19004KT 15SM BKN130 21/17 A2988 RMK AC7 SLP118

CYYZ;2009-07-28 05:00;CYYZ 280500Z 20004KT 15SM BKN130 21/17 A2988 RMK AC7 SLP117

CYYZ;2009-07-28 06:00;CYYZ 280600Z 21005KT 15SM BKN100 OVC130 21/17 A2988 RMK AC6AC2 SLP116

CYYZ;2009-07-28 07:00;CYYZ 280700Z 22005KT 15SM FEW090 BKN110 20/17 A2986 RMK AC1AC6 SLP111

CYYZ;2009-07-28 08:00;CYYZ 280800Z 24008KT 15SM FEW110 OVC140 21/18 A2986 RMK AC1AC6 SLP111

CYYZ;2009-07-28 09:00;CYYZ 280900Z 23005KT 15SM OVC120 20/18 A2986 RMK AC8 SLP110

CYYZ;2009-07-28 10:00;CYYZ 281000Z 21002KT 15SM FEW045CB BKN120 BKN150 20/18 A2985 RMK CB1AC5AC2 SLP106

CYYZ;2009-07-28 11:00;CYYZ 281100Z 21006KT 15SM SCT140 BKN260 21/18 A2984 RMK AC4CI2 SLP104

CYYZ;2009-07-28 12:00;CYYZ 281200Z 23008KT 15SM SCT140 BKN260 22/19 A2984 RMK AC3CI1 SLP102

CYYZ;2009-07-28 13:00;CYYZ 281300Z 22009KT 15SM FEW130 BKN260 24/20 A2984 RMK AC2CI2 SLP102

CYYZ;2009-07-28 14:00;CYYZ 281400Z 21012KT 15SM FEW030 BKN160 BKN260 25/19 A2983 RMK CF1AC5CI1 CF TR SLP101

CYYZ;2009-07-28 15:00;CYYZ 281500Z 23009G18KT 15SM FEW030 BKN140 BKN250 25/19 A2983 RMK CU1AC4CI1 CI TR SLP099

CYYZ;2009-07-28 15:17;CYYZ 281517Z 22012G18KT 12SM -SHRA FEW025 BKN120 BKN250 25/ RMK CU1AC6CI1

CYYZ;2009-07-28 15:44;CYYZ 281544Z 20011G17KT 12SM FEW023 BKN140 BKN250 26/ RMK CU1AC6CI1

CYYZ;2009-07-28 16:00;CYYZ 281600Z 21013G18KT 15SM FEW024 BKN140 BKN250 26/19 A2982 RMK CU1AC5CI2 SLP097

CYYZ;2009-07-28 17:00;CYYZ 281700Z 21014G20KT 15SM SCT042 BKN130 27/19 A2980 RMK CU3AC4 SLP091

CYYZ;2009-07-28 17:23;CYYZ 281723Z 22018G24KT 15SM -SHRA SCT040 BKN130 26/ RMK CU3AC4

CYYZ;2009-07-28 17:45;CYYZ 281745Z 23018G28KT 15SM SCT041 BKN150 26/ RMK CU3AC4

CYYZ;2009-07-28 18:00;CYYZ 281800Z 22016G21KT 15SM SCT041 BKN150 26/18 A2980 RMK CU3AC4 SLP091

CYYZ;2009-07-28 19:00;CYYZ 281900Z 20013G21KT 15SM FEW044 BKN140 BKN240 25/18 A2980 RMK CU2AC3CI1 SLP089

CYYZ;2009-07-28 20:00;CYYZ 282000Z 20015G24KT 15SM SCT038 BKN150 BKN250 27/19 A2978 RMK CU3AC2CI1 SLP082

CYYZ;2009-07-28 21:00;CYYZ 282100Z 21021KT 15SM FEW048 BKN150 BKN250 27/19 A2976 RMK CU2AC2CI1 SLP075

CYYZ;2009-07-28 22:00;CYYZ 282200Z 22018G24KT 15SM FEW042 SCT054 BKN150 BKN250 27/18 A2976 RMK CU2SC2AC2CI1 SLP075

CYYZ;2009-07-28 23:00;CYYZ 282300Z 22018G25KT 15SM FEW045 FEW070 FEW130 BKN270 27/18 A2975 RMK SC2AC1AC1CI2 SLP073

CYYZ;2009-07-29 00:00;CYYZ 290000Z 22013G19KT 15SM FEW050CB BKN270 26/18 A2976 RMK CB2CI2 SLP074

CYYZ;2009-07-29 01:00;CYYZ 290100Z 23009KT 15SM FEW040CB SCT080 SCT270 25/18 A2977 RMK CB2AC2CI0 SLP077

CYYZ;2009-07-29 02:00;CYYZ 290200Z 23008KT 15SM FEW040CB BKN096 24/18 A2978 RMK CB1AC6 LTGICCG N SLP083

CYYZ;2009-07-29 03:00;CYYZ 290300Z 22005KT 15SM FEW050 FEW095 OVC270 24/18 A2979 RMK SF1AC2CS6 SLP085

CYYZ;2009-07-29 04:00;CYYZ 290400Z 24010KT 15SM FEW050 BKN270 24/18 A2978 RMK SF1CS2 SLP082

CYYZ;2009-07-29 05:00;CYYZ 290500Z 21008KT 15SM FEW050 BKN140 24/18 A2977 RMK SF1AC6 SLP079

CYYZ;2009-07-29 06:00;CYYZ 290600Z 23012KT 15SM FEW095 OVC130 23/18 A2977 RMK AC1AC8 SLP079

CYYZ;2009-07-29 06:22;CYYZ 290622Z 25015KT 12SM -SHRA BKN055 OVC120 22/ RMK SC6AC2

CYYZ;2009-07-29 07:00;CYYZ 290700Z CCA 31005KT 15SM -SHRA FEW050 OVC120 21/20 A2973 RERA RMK SC2AC6 SLP066

CYYZ;2009-07-29 07:24;CYYZ 290724Z 25003KT 15SM SCT110 20/ RMK AC4

CYYZ;2009-07-29 08:00;CYYZ 290800Z 20004KT 15SM BKN130 21/20 A2974 RMK AC7 SLP070

CYYZ;2009-07-29 09:00;CYYZ 290900Z 19004KT 15SM BKN120 20/20 A2976 RMK AC7 SLP074

CYYZ;2009-07-29 10:00;CYYZ 291000Z 25005KT 12SM FEW050 FEW065 FEW190 BKN270 19/19 A2976 RMK SC1SC1AC2CI2 SLP075

CYYZ;2009-07-29 11:00;CYYZ 291100Z 24005KT 8SM SCT140 BKN190 OVC240 20/19 A2976 RMK AC3AC2CI2 SLP076

CYYZ;2009-07-29 11:41;CYYZ 291141Z 25005KT 8SM -SHRA SCT043 BKN110 OVC240 20/ RMK SC3AC2CI1

CYYZ;2009-07-29 12:00;CYYZ 291200Z 26007KT 6SM -SHRA BR SCT029 BKN063 OVC100 20/19 A2977 RMK SC3SC2AC2 SLP081

CYYZ;2009-07-29 12:49;CYYZ 291249Z 30006KT 2 1/2SM +TSRA FEW016 BKN033 OVC057 20/ RMK SC2SC3SC3 CB EMBD

CYYZ;2009-07-29 13:00;CYYZ 291300Z 27007KT 6SM -TSRA FEW017 SCT045CB BKN055 OVC081 19/18 A2980 RERA RMK SF2CB2SC3AC2 CB OVRHD SLP090

CYYZ;2009-07-29 13:43;CYYZ 291343Z 34004KT 7SM -SHRA FEW030 BKN061 OVC085 19/ RETS RMK SC2SC3AC2 TCU EMBD

CYYZ;2009-07-29 13:52;CYYZ 291352Z 32007KT 2SM +SHRA BR FEW010 BKN061 OVC085 18/ RETS RMK SF2SC3AC2 TCU EMBD

CYYZ;2009-07-29 14:00;CYYZ 291400Z 36006KT 5SM -SHRA BR FEW014 BKN061 OVC085 18/16 A2978 RETSRA RMK SF2SC4AC2 TCU EMBD SLP083

CYYZ;2009-07-29 15:00;CYYZ 291500Z 01005KT 10SM -SHRA FEW031 SCT045 BKN084 OVC140 19/16 A2977 RMK CU2SC2AC2AC2 SLP079

CYYZ;2009-07-29 15:23;CYYZ 291523Z 05003KT 10SM FEW045 BKN064 OVC140 19/ RMK CU2SC3AC3

CYYZ;2009-07-29 16:00;CYYZ 291600Z 32008KT 10SM -SHRA FEW045 BKN058 OVC110 20/17 A2978 RMK CU2SC5AC2 SLP082

CYYZ;2009-07-29 16:28;CYYZ 291628Z 01002KT 10SM SCT042 OVC140 20/ RMK SC3AC5

CYYZ;2009-07-29 17:00;CYYZ 291700Z 00000KT 10SM FEW025 BKN058 OVC140 21/17 A2977 RMK CF2SC4AC2 SLP079

CYYZ;2009-07-29 18:00;CYYZ 291800Z 13004KT 15SM FEW025 BKN061 OVC140 22/18 A2976 RMK CF2SC4AC2 SLP075

CYYZ;2009-07-29 19:00;CYYZ 291900Z 29002KT 15SM FEW025 SCT061 BKN082 OVC220 23/18 A2975 RMK CF2SC2AC2CI2 SLP074

CYYZ;2009-07-29 20:00;CYYZ 292000Z 12005KT 12SM FEW025 SCT035 BKN085 OVC220 22/19 A2975 RMK CU2SC2AC2CI3 SLP073

CYYZ;2009-07-29 21:00;CYYZ 292100Z 15007KT 12SM FEW025 BKN044 BKN110 OVC220 21/18 A2975 RMK CF2SC3AC2CI2 SLP073

CYYZ;2009-07-29 21:06;CYYZ 292106Z 16007KT 12SM -SHRA FEW025 BKN044 BKN110 OVC220 21/ RMK CF2SC3AC2CI2

CYYZ;2009-07-29 21:36;CYYZ 292136Z 15004KT 12SM FEW025 BKN058 OVC120 21/ RMK CU2SC3AC3

CYYZ;2009-07-29 22:00;CYYZ 292200Z 19005KT 12SM FEW025 SCT055 BKN080 OVC220 21/18 A2975 RMK CU2SC2AC3CI2 SLP074

CYYZ;2009-07-29 23:00;CYYZ 292300Z 19004KT 15SM FEW030 SCT080 OVC210 22/19 A2975 RMK SC1AC2CS2 SUN DIMLY VISBL SLP072

CYYZ;2009-07-30 00:00;CYYZ 300000Z 35011KT 15SM FEW018 SCT060 SCT100 BKN220 22/17 A2976 RMK CU2SC2AC1CI2 DARK OVRHD AND TWD E CONTRAIL TWD NW SLP076

CYYZ;2009-07-30 01:00;CYYZ 300100Z 36010KT 15SM FEW050 SCT085 BKN250 20/15 A2978 RMK CU2AC2CI1 SLP082

CYYZ;2009-07-30 02:00;CYYZ 300200Z 36007KT 15SM FEW050 SCT250 19/13 A2980 RMK SC2CI1 SLP090

CYYZ;2009-07-30 03:00;CYYZ 300300Z 34005KT 15SM FEW050 FEW250 18/13 A2981 RMK SC1CI0 SLP094

CYYZ;2009-07-30 04:00;CYYZ 300400Z 31006KT 15SM SKC 16/13 A2981 RMK SLP096

CYYZ;2009-07-30 05:00;CYYZ 300500Z 28005KT 15SM FEW220 16/14 A2983 RMK CI1 SLP103

CYYZ;2009-07-30 06:00;CYYZ 300600Z 29004KT 15SM SKC 16/14 A2984 RMK SLP105

CYYZ;2009-07-30 07:00;CYYZ 300700Z 29003KT 15SM SKC 15/13 A2985 RMK SLP107

CYYZ;2009-07-30 08:00;CYYZ 300800Z 33004KT 15SM SKC 15/12 A2984 RMK SLP105

CYYZ;2009-07-30 09:00;CYYZ 300900Z 01005KT 15SM SKC 14/12 A2984 RMK SLP106

CYYZ;2009-07-30 10:00;CYYZ 301000Z 35004KT 15SM SCT230 14/12 A2985 RMK CI1 SLP108

CYYZ;2009-07-30 11:00;CYYZ 301100Z 30003KT 15SM FEW150 BKN260 15/12 A2986 RMK AC1CI2 SLP112

CYYZ;2009-07-30 12:00;CYYZ 301200Z 23002KT 15SM FEW150 BKN260 16/13 A2988 RMK AC2CI2 SLP119

CYYZ;2009-07-30 13:00;CYYZ 301300Z 14002KT 15SM SCT064 BKN260 18/14 A2989 RMK SC2CI4 SLP120

CYYZ;2009-07-30 14:00;CYYZ 301400Z 14005KT 15SM FEW062 SCT140 BKN240 20/14 A2991 RMK SC1AC2CI1 SLP128

CYYZ;2009-07-30 15:00;CYYZ 301500Z 15005KT 15SM FEW040 FEW140 BKN250 22/14 A2990 RMK CF1AC1CI2 SLP126

CYYZ;2009-07-30 16:00;CYYZ 301600Z 14006KT 15SM FEW040 SCT150 BKN210 BKN250 23/14 A2989 RMK CU2AC1CC1CI0 SLP123

CYYZ;2009-07-30 17:00;CYYZ 301700Z 14008KT 15SM BKN048 BKN250 23/15 A2988 RMK CU5CI1 SLP119

CYYZ;2009-07-30 18:00;CYYZ 301800Z 16008G15KT 15SM BKN054 BKN250 24/16 A2987 RMK CU5CI1 SLP113

CYYZ;2009-07-30 19:00;CYYZ 301900Z 16008KT 15SM SCT058 BKN100 BKN230 25/17 A2986 RMK CU3AC1CI0 SLP111

CYYZ;2009-07-30 20:00;CYYZ 302000Z 14008KT 15SM SCT062 BKN110 BKN230 25/17 A2985 RMK CU3AC1CI0 SLP108

CYYZ;2009-07-30 21:00;CYYZ 302100Z 15007KT 15SM FEW062 SCT069 BKN240 25/17 A2984 RMK CU2AC1CI1 SLP105

CYYZ;2009-07-30 22:00;CYYZ 302200Z 17008KT 15SM FEW060 SCT074 BKN150 BKN240 25/16 A2983 RMK CU2AC2AC1CI0 SLP102

CYYZ;2009-07-30 23:00;CYYZ 302300Z 15007KT 15SM FEW055 SCT080 BKN130 BKN240 24/17 A2983 RMK CU2AC2AC2CI1 SLP101

CYYZ;2009-07-31 00:00;CYYZ 310000Z 15006KT 15SM FEW040 FEW055 BKN070 BKN120 OVC240 22/17 A2983 RMK CU1SC2AC2AC2CI1 SLP100

CYYZ;2009-07-31 01:00;CYYZ 310100Z 24005KT 15SM FEW050 SCT065 BKN070 BKN090 OVC240 23/17 A2983 RMK SC2SC2AC2AC2CI1 SLP100

CYYZ;2009-07-31 02:00;CYYZ 310200Z 32004KT 15SM FEW045 SCT070 BKN240 22/12 A2984 RMK SC2AC2CI1 SLP103

CYYZ;2009-07-31 03:00;CYYZ 310300Z 29005KT 15SM FEW055 SCT080 BKN240 21/13 A2984 RMK SC2AC2CI1 SLP105

CYYZ;2009-07-31 04:00;CYYZ 310400Z 32006KT 15SM FEW025 FEW050 SCT130 BKN240 20/14 A2985 RMK SC1SC2AC2CI2 SLP108

CYYZ;2009-07-31 05:00;CYYZ 310500Z 31006KT 15SM FEW025 BKN250 20/14 A2985 RMK SC1CI2 SLP106

CYYZ;2009-07-31 06:00;CYYZ 310600Z 31007KT 15SM BKN250 19/14 A2984 RMK CI3 SLP105

CYYZ;2009-07-31 07:00;CYYZ 310700Z 27002KT 15SM BKN250 18/14 A2984 RMK CI4 SLP103

CYYZ;2009-07-31 08:00;CYYZ 310800Z 30003KT 15SM BKN250 18/14 A2984 RMK CI4 SLP103

CYYZ;2009-07-31 09:00;CYYZ 310900Z 27002KT 15SM BKN250 17/14 A2983 RMK CI4 SLP100

CYYZ;2009-07-31 10:00;CYYZ 311000Z 27003KT 15SM FEW090 OVC250 17/14 A2983 RMK AC2CI3 SLP101

CYYZ;2009-07-31 11:00;CYYZ 311100Z 00000KT 15SM FEW120 OVC240 19/14 A2984 RMK AC1CS8 AC TR SLP103

CYYZ;2009-07-31 12:00;CYYZ 311200Z 27002KT 15SM BKN250 19/15 A2984 RMK CS6 SLP105

CYYZ;2009-07-31 13:00;CYYZ 311300Z 00000KT 15SM FEW150 BKN250 21/15 A2985 RMK AC1CI3 SLP107

CYYZ;2009-07-31 14:00;CYYZ 311400Z 14003KT 15SM FEW140 BKN250 22/15 A2985 RMK AC1CI3 SLP108

CYYZ;2009-07-31 15:00;CYYZ 311500Z 11002KT 15SM FEW040 SCT250 23/15 A2985 RMK CU1CI2 SLP106

CYYZ;2009-07-31 16:00;CYYZ 311600Z 09003KT 15SM FEW040 SCT250 24/15 A2985 RMK CU2CI1 SLP107

CYYZ;2009-07-31 17:00;CYYZ 311700Z 15006KT 15SM SCT060 BKN082 BKN250 25/15 A2985 RMK CU3AC2CI0 SLP106

CYYZ;2009-07-31 18:00;CYYZ 311800Z 14011KT 15SM SCT048 BKN062 BKN098 25/16 A2985 RMK CU3SC2AC1 SLP107

CYYZ;2009-07-31 19:00;CYYZ 311900Z 16012G18KT 15SM SCT056 BKN062 25/15 A2985 RMK CU3SC2 SLP107

CYYZ;2009-07-31 20:00;CYYZ 312000Z 27015KT 15SM SCT058 BKN064 27/15 A2985 RMK CU3SC2 TCU ASOCTD SLP107

CYYZ;2009-07-31 21:00;CYYZ 312100Z 25015G20KT 15SM SCT058 BKN110 25/15 A2985 RMK CU4AC2 TCU ASOCTD SLP107

CYYZ;2009-07-31 21:04;CYYZ 312104Z 24013G20KT 15SM -SHRA SCT058 BKN110 25/ RMK CU4AC2 TCU ASOCTD

CYYZ;2009-07-31 21:24;CYYZ 312124Z 29014G19KT 15SM -SHRA SCT060 BKN085 26/ RMK CU3AC2 TCU ASOCTD

CYYZ;2009-07-31 22:00;CYYZ 312200Z 29016KT 15SM SCT055 BKN085 BKN240 26/15 A2985 RMK CU3AC2CI0 TCU ASOCTD SLP108

CYYZ;2009-07-31 23:00;CYYZ 312300Z 28009G16KT 15SM FEW050 FEW090 BKN270 26/15 A2987 RMK CU2AC1CI1 SLP115

CYYZ;2009-08-01 01:00;CYYZ 010100Z 28008KT 15SM FEW050 FEW260 23/13 A2992 RMK SC1CI1 SLP131

CYYZ;2009-08-01 02:00;CYYZ 010200Z 34009KT 15SM SKC 21/16 A2995 RMK SLP142

CYYZ;2009-08-01 03:00;CYYZ 010300Z 34007KT 15SM SKC 20/15 A2998 RMK SLP151

CYYZ;2009-08-01 04:00;CYYZ 010400Z 32007KT 15SM SKC 19/15 A2999 RMK SLP155

CYYZ;2009-08-01 05:00;CYYZ 010500Z 33004KT 15SM SKC 18/14 A3000 RMK SLP157

CYYZ;2009-08-01 06:00;CYYZ 010600Z 29003KT 15SM SKC 17/14 A3000 RMK SLP158

CYYZ;2009-08-01 07:00;CYYZ 010700Z 26002KT 15SM SKC 17/14 A3000 RMK SLP157

CYYZ;2009-08-01 08:00;CYYZ 010800Z 27004KT 15SM SKC 16/14 A3001 RMK SLP160

CYYZ;2009-08-01 09:00;CYYZ 010900Z 25003KT 15SM SKC 16/14 A3000 RMK SLP159

CYYZ;2009-08-01 10:00;CYYZ 011000Z 21002KT 15SM FEW240 16/14 A3001 RMK CI1 SLP160

CYYZ;2009-08-01 11:00;CYYZ 011100Z 00000KT 15SM FEW120 FEW240 16/14 A3003 RMK AC1CI1 SLP168

CYYZ;2009-08-01 12:00;CYYZ 011200Z 00000KT 15SM FEW240 19/15 A3002 RMK CI1 SLP166

CYYZ;2009-08-01 13:00;CYYZ 011300Z 20003KT 15SM FEW240 21/15 A3002 RMK CI1 SLP166

CYYZ;2009-08-01 14:00;CYYZ 011400Z 20006KT 15SM FEW040 SCT260 23/15 A3002 RMK CU1CI1 CU TR SLP165

CYYZ;2009-08-01 15:00;CYYZ 011500Z 15008KT 15SM FEW040 FEW090 SCT240 23/16 A3001 RMK CU2AC1CI0 SLP163

CYYZ;2009-08-01 16:00;CYYZ 011600Z 16009G16KT 15SM SCT060 SCT087 BKN240 24/19 A3001 RMK CU3AC1CI0 SLP160

CYYZ;2009-08-01 17:00;CYYZ 011700Z 15009KT 15SM SCT058 SCT092 BKN230 24/19 A2999 RMK CU3AC1CI0 SLP155

CYYZ;2009-08-01 18:00;CYYZ 011800Z 16008KT 15SM SCT054 BKN090 BKN240 25/19 A2997 RMK CU3AC2CI1 SLP148

CYYZ;2009-08-01 19:00;CYYZ 011900Z 18012KT 15SM SCT049 BKN095 BKN240 26/18 A2994 RMK CU3AC2CI1 SLP139

CYYZ;2009-08-01 20:00;CYYZ 012000Z 21017G24KT 15SM SCT052 BKN260 27/16 A2993 RMK CU3CI1 SLP135

CYYZ;2009-08-01 21:00;CYYZ 012100Z 21016G22KT 15SM FEW056 BKN260 27/15 A2992 RMK CU2CI2 SLP131

CYYZ;2009-08-01 22:00;CYYZ 012200Z 21014G24KT 15SM FEW060 BKN260 26/13 A2993 RMK CU2CI3 SLP133

CYYZ;2009-08-01 23:00;CYYZ 012300Z 21012G19KT 15SM FEW055 BKN270 25/13 A2992 RMK SC1CI6 SLP130

CYYZ;2009-08-02 00:00;CYYZ 020000Z 21009KT 15SM FEW045 BKN270 25/13 A2991 RMK ST0CI6 SLP127

CYYZ;2009-08-02 01:00;CYYZ 020100Z 20007KT 15SM OVC250 24/14 A2991 RMK CS8 SLP126

CYYZ;2009-08-02 02:00;CYYZ 020200Z 15006KT 15SM SCT070 OVC200 23/15 A2991 RMK AC3CS3 SLP126

CYYZ;2009-08-02 03:00;CYYZ 020300Z 17006KT 15SM BKN068 OVC170 22/15 A2989 RMK AC6AS2 SLP120

CYYZ;2009-08-02 04:00;CYYZ 020400Z 18006KT 15SM BKN060 OVC150 22/16 A2988 RMK SC7AS1 SLP117

CYYZ;2009-08-02 05:00;CYYZ 020500Z 20003KT 15SM FEW060 OVC130 21/16 A2987 RMK SF1AC7 SLP113

CYYZ;2009-08-02 06:00;CYYZ 020600Z 22004KT 15SM FEW055 OVC110 21/16 A2985 RMK SF1AC8 SLP107

CYYZ;2009-08-02 07:00;CYYZ 020700Z 25005KT 15SM FEW050 OVC100 20/16 A2983 RMK SF1AC7 SLP101

CYYZ;2009-08-02 08:00;CYYZ 020800Z 22004KT 15SM FEW050 BKN130 19/16 A2982 RMK SC1AC4 SLP096

CYYZ;2009-08-02 09:00;CYYZ 020900Z 22003KT 15SM OVC068 20/17 A2981 RMK AC8 SLP093

CYYZ;2009-08-02 09:55;CYYZ 020955Z 19003KT 15SM -RA OVC076 20/ RMK AC8

CYYZ;2009-08-02 10:00;CYYZ 021000Z 20003KT 15SM -RA OVC078 20/17 A2980 RMK AC8 SLP090

CYYZ;2009-08-02 10:24;CYYZ 021024Z 21002KT 15SM FEW045 OVC080 20/ RMK SC2AC6

CYYZ;2009-08-02 11:00;CYYZ 021100Z 20002KT 15SM FEW082 BKN120 20/17 A2981 RMK AC2AC5 SLP092

CYYZ;2009-08-02 12:00;CYYZ 021200Z 26006KT 15SM FEW045 BKN110 20/17 A2982 RMK SC2AC5 SLP095

CYYZ;2009-08-02 13:00;CYYZ 021300Z 25007KT 15SM FEW042 SCT058 BKN085 20/17 A2982 RMK CU2SC2AC3 SLP096

CYYZ;2009-08-02 14:00;CYYZ 021400Z 27007KT 15SM FEW041 SCT052 BKN110 BKN260 21/17 A2981 RMK CU2SC2AC2CI1 SLP092

CYYZ;2009-08-02 15:00;CYYZ 021500Z 26004KT 15SM FEW028 SCT040 BKN062 BKN092 22/16 A2980 RMK CF1CU3SC2AC2 CF TR SLP091

CYYZ;2009-08-02 16:00;CYYZ 021600Z 26010KT 15SM SCT031 BKN064 BKN084 BKN240 23/17 A2981 RMK CU3SC2AC1CI0 SLP093

CYYZ;2009-08-02 17:00;CYYZ 021700Z 26011KT 15SM SCT035 BKN064 BKN085 BKN240 24/15 A2980 RMK CU3SC2AC2CI0 SLP089

CYYZ;2009-08-02 17:06;CYYZ 021706Z 27017KT 15SM -SHRA SCT039 BKN064 BKN088 BKN240 23/ RMK CU3SC2AC2CI0

CYYZ;2009-08-02 17:25;CYYZ 021725Z 29009KT 15SM SCT039 BKN064 BKN088 23/ RMK CU3SC2AC1 TCU ASOCTD

CYYZ;2009-08-02 18:00;CYYZ 021800Z 26016KT 15SM SCT043 BKN085 24/15 A2979 RMK CU4AC2 SLP085

CYYZ;2009-08-02 19:00;CYYZ 021900Z 28017G24KT 15SM SCT052 BKN085 25/13 A2979 RMK CU3AC2 SLP086

CYYZ;2009-08-02 20:00;CYYZ 022000Z 27019G24KT 15SM SCT058 SCT065 25/12 A2979 RMK CU3SC1 SLP087

CYYZ;2009-08-02 21:00;CYYZ 022100Z 28020G26KT 15SM FEW061 25/11 A2981 RMK CU2 SLP092

CYYZ;2009-08-02 22:00;CYYZ 022200Z 29018KT 15SM FEW058 FEW064 23/10 A2983 RMK CU2SC1 SLP099

CYYZ;2009-08-02 23:00;CYYZ 022300Z 29016KT 15SM FEW055 FEW060 SCT250 23/09 A2984 RMK CU1SC1CI0 SLP102

CYYZ;2009-08-03 00:00;CYYZ 030000Z 28012G19KT 15SM FEW063 FEW250 21/09 A2986 RMK SC1CI0 SLP112

CYYZ;2009-08-03 01:00;CYYZ 030100Z 27007KT 15SM FEW040 FEW250 19/09 A2989 RMK SC1CI0 SLP119

CYYZ;2009-08-03 02:00;CYYZ 030200Z 25004KT 15SM FEW250 18/10 A2991 RMK CI0 SLP127

CYYZ;2009-08-03 03:00;CYYZ 030300Z 22003KT 15SM FEW250 19/10 A2992 RMK CI0 SLP132

CYYZ;2009-08-03 04:00;CYYZ 030400Z 22003KT 15SM FEW240 18/10 A2993 RMK CI1 SLP134

CYYZ;2009-08-03 05:00;CYYZ 030500Z 24006KT 15SM FEW240 17/11 A2994 RMK CI1 SLP138

CYYZ;2009-08-03 06:00;CYYZ 030600Z 24005KT 15SM FEW240 16/11 A2995 RMK CI1 SLP140

CYYZ;2009-08-03 07:00;CYYZ 030700Z 27006KT 15SM FEW220 14/10 A2995 RMK CI1 SLP140

CYYZ;2009-08-03 08:00;CYYZ 030800Z 27005KT 15SM FEW220 13/10 A2994 RMK CI1 SLP137

CYYZ;2009-08-03 09:00;CYYZ 030900Z 27005KT 15SM FEW250 13/11 A2994 RMK CI1 SLP139

CYYZ;2009-08-03 10:00;CYYZ 031000Z 30003KT 15SM FEW250 14/11 A2995 RMK CI1 SLP141

CYYZ;2009-08-03 11:00;CYYZ 031100Z 28003KT 15SM FEW130 FEW250 15/11 A2996 RMK AC2CI0 SLP145

CYYZ;2009-08-03 12:00;CYYZ 031200Z 25003KT 15SM SCT140 SCT260 17/13 A2997 RMK AC2CI1 SLP147

CYYZ;2009-08-03 13:00;CYYZ 031300Z 20002KT 15SM FEW140 19/13 A2998 RMK AC2 SLP152

CYYZ;2009-08-03 14:00;CYYZ 031400Z 21009KT 15SM FEW140 FEW260 22/12 A2999 RMK AC1CI0 SLP154

CYYZ;2009-08-03 15:00;CYYZ 031500Z 24014G19KT 15SM FEW140 SCT260 23/11 A2998 RMK AC1CI1 AC TR SLP152

CYYZ;2009-08-03 16:00;CYYZ 031600Z 23013KT 15SM FEW140 BKN260 24/11 A2997 RMK AC1CI2 SLP148

CYYZ;2009-08-03 17:00;CYYZ 031700Z 22012KT 15SM FEW140 BKN260 25/13 A2995 RMK AC1CI2 SLP140

CYYZ;2009-08-03 18:00;CYYZ 031800Z CCA 22014G19KT 15SM FEW040 FEW130 BKN260 25/13 A2994 RMK CU1AC2CI1 CU TR SLP137

CYYZ;2009-08-03 19:00;CYYZ 031900Z 17017G22KT 15SM FEW040 FEW130 BKN180 BKN250 25/15 A2990 RMK CF1AC2AC1CI0 CF TR SLP124

CYYZ;2009-08-03 20:00;CYYZ 032000Z 17014G20KT 15SM FEW043 SCT140 BKN180 BKN220 24/14 A2989 RMK CF1AC3AC2CI0 SLP123

CYYZ;2009-08-03 21:00;CYYZ 032100Z 19015G20KT 15SM FEW046 SCT140 BKN180 BKN240 24/15 A2989 RMK SC1AC3AC2CI0 SLP120

CYYZ;2009-08-03 22:00;CYYZ 032200Z 21013G21KT 15SM FEW120 SCT190 BKN210 25/13 A2989 RMK AC2AC2CI2 SLP120

CYYZ;2009-08-03 23:00;CYYZ 032300Z 21014G19KT 15SM FEW120 SCT190 BKN220 24/13 A2988 RMK AC2AC2CI2 SLP119

CYYZ;2009-08-04 00:00;CYYZ 040000Z 21013KT 15SM FEW080 SCT120 BKN220 24/13 A2989 RMK AC2AC2CI2 CONTRAIL SLP119

CYYZ;2009-08-04 01:00;CYYZ 040100Z 20006KT 15SM SCT100 BKN220 23/14 A2988 RMK AC4CI2 SLP118

CYYZ;2009-08-04 02:00;CYYZ 040200Z 19007KT 15SM BKN130 BKN220 23/15 A2989 RMK AC5CI1 SLP120

CYYZ;2009-08-04 03:00;CYYZ 040300Z 15005KT 15SM -SHRA FEW110 BKN130 22/16 A2989 RMK AC2AC4 PCPN VRY LGT SLP122

CYYZ;2009-08-04 04:00;CYYZ 040400Z 22006KT 15SM -SHRA FEW090 BKN120 22/17 A2990 RMK AC2AC6 SLP123

CYYZ;2009-08-04 04:48;CYYZ 040448Z 21008KT 15SM BKN130 BKN140 22/ RMK AC5AC2

CYYZ;2009-08-04 05:00;CYYZ 040500Z 20009KT 15SM FEW110 BKN150 22/17 A2989 RMK AC2AC6 SLP120

CYYZ;2009-08-04 06:00;CYYZ 040600Z 22012KT 15SM FEW040 SCT100 BKN110 22/17 A2988 RMK SC2AC2AC4 SLP116

CYYZ;2009-08-04 07:00;CYYZ 040700Z 22011G16KT 15SM FEW040 SCT095 BKN110 22/17 A2987 RMK SC1AC3AC3 SLP112

CYYZ;2009-08-04 08:00;CYYZ 040800Z 22009KT 15SM FEW040 FEW080 SCT140 BKN230 21/17 A2986 RMK SC1AC2AC2CI0 SLP109

CYYZ;2009-08-04 09:00;CYYZ 040900Z 21008KT 15SM FEW030 SCT110 BKN230 21/17 A2985 RMK SC1AC2CI1 SLP106

CYYZ;2009-08-04 10:00;CYYZ 041000Z 22007KT 15SM FEW030 FEW080 BKN120 BKN230 21/17 A2985 RMK SC1AC2AC3CI0 SLP107

CYYZ;2009-08-04 11:00;CYYZ 041100Z 21007KT 15SM BKN120 21/18 A2985 RMK AC6 SLP106

CYYZ;2009-08-04 12:00;CYYZ 041200Z 22010KT 15SM FEW040 BKN110 22/18 A2984 RMK CU1AC5 CU TR SLP104

CYYZ;2009-08-04 13:00;CYYZ 041300Z 23015KT 15SM FEW040 FEW110 23/19 A2983 RMK CU1AC2 SLP101

CYYZ;2009-08-04 14:00;CYYZ 041400Z 22011G16KT 15SM FEW022 FEW110 25/20 A2982 RMK CF1AC1 CF TR SLP095

CYYZ;2009-08-04 15:00;CYYZ 041500Z 22009G17KT 10SM BKN023 25/20 A2980 RMK SC5 SLP091

CYYZ;2009-08-04 16:00;CYYZ 041600Z 22015KT 10SM FEW024 BKN029 26/21 A2980 RMK CU2SC4 SLP090

CYYZ;2009-08-04 17:00;CYYZ 041700Z 23014G20KT 8SM SCT032 BKN039 25/20 A2980 RMK CU3SC4 TCU EMBD SLP091

CYYZ;2009-08-04 17:08;CYYZ 041708Z 23013G19KT 8SM TS SCT034 BKN039 25/ RMK CU3SC4 CB EMBD

CYYZ;2009-08-04 17:22;CYYZ 041722Z 23017KT 8SM -TSRA SCT034CB OVC042 25/ RMK CB4SC4 CB WNW MOV NE

CYYZ;2009-08-04 17:44;CYYZ 041744Z 29007KT 2 1/2SM +TSRA SCT029CB BKN042 22/ RMK CB4SC3 CB OVERHD

CYYZ;2009-08-04 18:00;CYYZ 041800Z CCA 23004KT 3SM -TSRA BR FEW009 BKN024CB 21/19 A2980 RERA RMK SF2CB5 CB NE /R11/ SLP089

CYYZ;2009-08-04 18:42;CYYZ 041842Z 20005KT 8SM -SHRA SCT032CB BKN062 OVC085 24/ RETSRA RMK CB3SC2AC3

CYYZ;2009-08-04 18:49;CYYZ 041849Z 19003KT 6SM -TSRA SCT034CB BKN055 OVC085 24/ RETSRA RMK CB3SC2AC3 CB W MOV NE

CYYZ;2009-08-04 19:00;CYYZ 041900Z 25004KT 5SM -TSRA HZ SCT034CB BKN052 OVC075 23/20 A2979 RETSRA RMK CB3SC2AC3 CB WNW -NE SLP086

CYYZ;2009-08-04 20:00;CYYZ 042000Z 19010KT 6SM -TSRA BR FEW012 BKN041CB BKN075 21/19 A2979 RMK SF2CB4AC1 LTGCCIC E SLP085

CYYZ;2009-08-04 20:37;CYYZ 042037Z 15008KT 6SM BR SCT035TCU BKN085 22/ RETS RMK TCU4AC2 CB EMBD

CYYZ;2009-08-04 21:00;CYYZ 042100Z 17007KT 8SM FEW029 BKN042TCU 22/19 A2977 RETS RMK SC2TCU2 HZ SLP081

CYYZ;2009-08-04 22:00;CYYZ 042200Z 24014G21KT 10SM FEW035 SCT085 25/19 A2977 RMK CU2AC2 SLP080

CYYZ;2009-08-04 23:00;CYYZ 042300Z 25011KT 15SM FEW035 BKN130 BKN250 24/18 A2976 RMK CU2AC2CI1 TCU ASOCTD SLP077

CYYZ;2009-08-05 00:00;CYYZ 050000Z 26008KT 15SM FEW045 SCT130 BKN230 23/18 A2976 RMK CU2AC2CI2 TCU ASOCTD SLP076

CYYZ;2009-08-05 01:00;CYYZ 050100Z CCA 27010KT 15SM FEW055 BKN130 BKN230 22/18 A2979 RMK CU2AC2CI1 DARK TWD N TCU ASOCTD SLP086

CYYZ;2009-08-05 01:10;CYYZ 050110Z 31013KT 15SM -SHRA SCT032 BKN130 BKN230 23/ RMK CU3AC2CI1 TCU ASOCTD

CYYZ;2009-08-05 01:35;CYYZ 050135Z 01014KT 12SM SCT024 BKN120 BKN230 21/ RMK SC3AC2CI1 CB EMBD LTNG TWD S

CYYZ;2009-08-05 01:45;CYYZ 050145Z 34014KT 12SM -SHRA SCT025 BKN120 BKN230 20/ RMK SC3AC2CI1 CB EMBD LTNG TWD S PCPN VRY LGT

CYYZ;2009-08-05 02:00;CYYZ 050200Z 35011G18KT 10SM -SHRA FEW025 BKN045 BKN120 19/17 A2983 RMK SC2SC3AC2 PCPN VRY LGT CB EMBD SLP101

CYYZ;2009-08-05 02:30;CYYZ 050230Z 34014G22KT 10SM FEW025 BKN050 BKN110 19/ RMK SC2SC3AC2 CB EMBD LTNG TWD SE

CYYZ;2009-08-05 03:00;CYYZ 050300Z 34014KT 15SM FEW062 SCT100 SCT240 19/14 A2984 RMK SC2AC2CI1 SLP105

CYYZ;2009-08-05 04:00;CYYZ 050400Z 33012KT 15SM BKN095 18/13 A2984 RMK AC6 SLP105

CYYZ;2009-08-05 05:00;CYYZ 050500Z 32016KT 15SM FEW030 FEW080 SCT240 17/10 A2986 RMK SC1AC2CI0 SLP110

CYYZ;2009-08-05 06:00;CYYZ 050600Z 32011KT 15SM FEW080 15/10 A2989 RMK AC1 SLP122

CYYZ;2009-08-05 07:00;CYYZ 050700Z 28008KT 15SM SKC 14/10 A2992 RMK SLP130

CYYZ;2009-08-05 08:00;CYYZ 050800Z 26006KT 15SM SKC 12/09 A2994 RMK SLP137

CYYZ;2009-08-05 09:00;CYYZ 050900Z 26007KT 15SM SKC 12/09 A2994 RMK SLP140

CYYZ;2009-08-05 10:00;CYYZ 051000Z 27006KT 15SM FEW230 11/09 A2995 RMK CI1 SLP144

CYYZ;2009-08-05 11:00;CYYZ 051100Z 25005KT 15SM FEW230 12/10 A2998 RMK CI1 SLP152

CYYZ;2009-08-05 12:00;CYYZ 051200Z 27007KT 15SM FEW240 14/11 A2999 RMK CI1 SLP155

CYYZ;2009-08-05 13:00;CYYZ 051300Z 28009KT 15SM FEW240 16/11 A3000 RMK CI1 SLP158

CYYZ;2009-08-05 14:00;CYYZ 051400Z 31009KT 15SM FEW035 FEW240 19/12 A3001 RMK CF1CI1 SLP161

CYYZ;2009-08-05 15:00;CYYZ 051500Z 31011KT 15SM FEW037 FEW240 20/11 A3001 RMK CF1CI1 CF TR SLP163

CYYZ;2009-08-05 16:00;CYYZ 051600Z 31014KT 15SM FEW040 FEW250 22/11 A3001 RMK CF1CI1 SLP163

CYYZ;2009-08-05 17:00;CYYZ 051700Z 31010G16KT 15SM FEW040 FEW250 22/12 A3000 RMK CF1CI0 SLP158

CYYZ;2009-08-05 18:00;CYYZ 051800Z 30010G19KT 15SM FEW040 FEW250 23/11 A2999 RMK CF1CI0 SLP157

CYYZ;2009-08-05 19:00;CYYZ 051900Z 33009G17KT 15SM FEW046 FEW250 24/12 A2999 RMK CU2CI1 SLP156

CYYZ;2009-08-05 20:00;CYYZ 052000Z 31014KT 15SM SCT058 24/11 A2999 RMK CU3 SLP155

CYYZ;2009-08-05 21:00;CYYZ 052100Z 29009G16KT 15SM SCT062 SCT260 23/11 A2998 RMK CU3CI0 SLP153

CYYZ;2009-08-05 22:00;CYYZ 052200Z 32013KT 15SM SCT064 BKN260 23/10 A2998 RMK CU3CI0 SLP152

CYYZ;2009-08-05 23:00;CYYZ 052300Z 30012KT 15SM FEW065 BKN270 22/10 A2998 RMK CU2CI2 SLP151

CYYZ;2009-08-06 00:00;CYYZ 060000Z 30013KT 15SM FEW065 BKN270 21/10 A2998 RMK SC1CI3 SLP153

CYYZ;2009-08-06 01:00;CYYZ 060100Z 31009KT 15SM FEW065 FEW270 20/09 A2999 RMK SC1CI1 SLP157

CYYZ;2009-08-06 02:00;CYYZ 060200Z 28006KT 15SM FEW270 18/10 A3001 RMK CI1 SLP162

CYYZ;2009-08-06 03:00;CYYZ 060300Z 27005KT 15SM FEW270 17/10 A3001 RMK CI1 SLP161

CYYZ;2009-08-06 04:00;CYYZ 060400Z 28007KT 15SM FEW270 17/11 A3000 RMK CI1 SLP160

CYYZ;2009-08-06 05:00;CYYZ 060500Z 31005KT 15SM BKN068 17/11 A3001 RMK AC6 SLP164

CYYZ;2009-08-06 06:00;CYYZ 060600Z 27004KT 15SM BKN075 16/11 A3001 RMK AC6 SLP162

CYYZ;2009-08-06 07:00;CYYZ 060700Z 27003KT 15SM BKN078 16/12 A3001 RMK AC7 SLP161

CYYZ;2009-08-06 08:00;CYYZ 060800Z 28005KT 15SM FEW065 BKN078 16/12 A2999 RMK SC1AC7 SLP157

CYYZ;2009-08-06 09:00;CYYZ 060900Z 28006KT 15SM FEW060 BKN070 16/12 A2999 RMK SF1AC6 SLP156

CYYZ;2009-08-06 10:00;CYYZ 061000Z 32006KT 15SM FEW045 FEW070 16/11 A3000 RMK SC1AC1 SLP157

CYYZ;2009-08-06 11:00;CYYZ 061100Z 31010KT 15SM FEW040 FEW090 16/11 A3001 RMK SC1AC2 SLP161

CYYZ;2009-08-06 12:00;CYYZ 061200Z 30009KT 15SM FEW046 FEW090 FEW230 17/12 A3003 RMK SC1AC1CI1 SLP168

CYYZ;2009-08-06 13:00;CYYZ 061300Z 31011KT 15SM FEW045 FEW090 FEW230 19/12 A3003 RMK SC1AC1CI1 SLP170

CYYZ;2009-08-06 14:00;CYYZ 061400Z 31012KT 15SM FEW042 BKN096 BKN230 20/12 A3004 RMK CU1AC5CI0 SLP172

CYYZ;2009-08-06 15:00;CYYZ 061500Z 33015KT 15SM FEW042 BKN096 20/11 A3004 RMK CU1AC6 SLP173

CYYZ;2009-08-06 16:00;CYYZ 061600Z 31008KT 15SM FEW043 BKN098 20/11 A3003 RMK CU1AC5 SLP170

CYYZ;2009-08-06 17:00;CYYZ 061700Z 31009G17KT 15SM FEW056 SCT100 22/12 A3002 RMK CU2AC1 SLP165

CYYZ;2009-08-06 18:00;CYYZ 061800Z 30010G18KT 15SM SCT058 SCT100 23/11 A3001 RMK CU4AC1 SLP164

CYYZ;2009-08-06 19:00;CYYZ 061900Z 29007KT 15SM BKN064 23/12 A3000 RMK CU5 SLP158

CYYZ;2009-08-06 20:00;CYYZ 062000Z 32013KT 15SM BKN065 BKN086 23/11 A2999 RMK CU5AC1 SLP156

CYYZ;2009-08-06 21:00;CYYZ 062100Z 29012G17KT 15SM SCT064 BKN082 24/10 A2999 RMK CU3AC2 SLP154

CYYZ;2009-08-06 22:00;CYYZ 062200Z 30014G20KT 15SM SCT066 SCT076 24/09 A2999 RMK CU3AC1 SLP155

CYYZ;2009-08-06 23:00;CYYZ 062300Z 29016KT 15SM FEW065 23/10 A2999 RMK CU2 SLP155

CYYZ;2009-08-07 00:00;CYYZ 070000Z 30014G19KT 15SM FEW060 22/10 A3001 RMK CU1 SLP160

CYYZ;2009-08-07 01:00;CYYZ 070100Z 32010KT 15SM FEW050 20/10 A3002 RMK SC1 SLP164

CYYZ;2009-08-07 02:00;CYYZ 070200Z 32009KT 15SM SKC 19/10 A3005 RMK SLP174

CYYZ;2009-08-07 03:00;CYYZ 070300Z 28006KT 15SM SKC 17/10 A3005 RMK SLP177

CYYZ;2009-08-07 04:00;CYYZ 070400Z 30006KT 15SM SKC 17/10 A3006 RMK SLP178

CYYZ;2009-08-07 05:00;CYYZ 070500Z 29004KT 15SM SKC 16/10 A3005 RMK SLP177

CYYZ;2009-08-07 06:00;CYYZ 070600Z 28005KT 15SM FEW040 15/10 A3005 RMK SC1 SLP177

CYYZ;2009-08-07 07:00;CYYZ 070700Z 32007KT 15SM SKC 15/11 A3006 RMK SLP178

CYYZ;2009-08-07 08:00;CYYZ 070800Z 32011KT 15SM FEW250 16/10 A3006 RMK CI1 SLP180

CYYZ;2009-08-07 09:00;CYYZ 070900Z 29009KT 15SM SKC 15/10 A3008 RMK SLP186

CYYZ;2009-08-07 10:00;CYYZ 071000Z 31012G17KT 15SM FEW040 FEW220 14/10 A3010 RMK SC1CI1 SLP192

CYYZ;2009-08-07 11:00;CYYZ 071100Z 31011KT 15SM FEW040 FEW220 15/11 A3012 RMK SC1CI1 SLP198

CYYZ;2009-08-07 12:00;CYYZ 071200Z 31009KT 15SM FEW040 FEW250 16/11 A3013 RMK SC1CI1 SLP204

CYYZ;2009-08-07 13:00;CYYZ 071300Z 33011KT 15SM FEW030 FEW250 18/13 A3015 RMK CU1CI1 SLP210

CYYZ;2009-08-07 14:00;CYYZ 071400Z 34008KT 15SM FEW030 SCT250 19/13 A3015 RMK CU2CI1 CONTRAIL SLP209

CYYZ;2009-08-07 15:00;CYYZ 071500Z 33009KT 15SM FEW030 SCT250 20/13 A3015 RMK CU2CI1 SLP210

CYYZ;2009-08-07 16:00;CYYZ 071600Z 36003KT 15SM SCT030 SCT250 21/11 A3014 RMK CU3CI1 SLP206

CYYZ;2009-08-07 17:00;CYYZ 071700Z 02004KT 15SM BKN045 BKN220 22/11 A3014 RMK CU5CI1 SLP208

CYYZ;2009-08-07 18:00;CYYZ 071800Z 23002KT 15SM BKN055 BKN075 BKN220 22/12 A3014 RMK CU5AC2CI0 SLP206

CYYZ;2009-08-07 19:00;CYYZ 071900Z CCA 15010KT 15SM BKN050 BKN075 BKN220 21/13 A3013 RMK CU5AC2CI0 WND SHIFT SLP205

CYYZ;2009-08-07 20:00;CYYZ 072000Z 16008KT 15SM BKN055 BKN075 21/12 A3014 RMK CU5AC2 SLP206

CYYZ;2009-08-07 21:00;CYYZ 072100Z 15007KT 15SM SCT060 BKN065 BKN085 BKN220 21/12 A3014 RMK CU3CU2AC2CI1 SLP206

CYYZ;2009-08-07 22:00;CYYZ 072200Z 14005KT 15SM SCT050 BKN085 BKN210 21/11 A3014 RMK CU3AC2CI2 SLP207

CYYZ;2009-08-07 23:00;CYYZ 072300Z 11006KT 15SM FEW052 SCT065 BKN250 21/11 A3014 RMK CU2SC2CI2 SLP207

CYYZ;2009-08-08 00:00;CYYZ 080000Z 07005KT 15SM FEW055 SCT064 BKN078 BKN250 20/10 A3015 RMK CU2SC2AC2CI2 SLP211

CYYZ;2009-08-08 01:00;CYYZ 080100Z 00000KT 15SM FEW064 BKN250 20/11 A3014 RMK SC2CI2 SLP207

CYYZ;2009-08-08 02:00;CYYZ 080200Z 34009KT 15SM FEW062 BKN250 18/09 A3017 RMK SC2CI2 SLP218

CYYZ;2009-08-08 03:00;CYYZ 080300Z 36010KT 15SM FEW062 BKN250 17/09 A3018 RMK SC1CI2 SLP219

CYYZ;2009-08-08 04:00;CYYZ 080400Z 34009KT 15SM BKN250 16/09 A3019 RMK CI4 SLP223

CYYZ;2009-08-08 05:00;CYYZ 080500Z 34007KT 15SM FEW055 BKN250 15/09 A3020 RMK SC1CI3 SLP227

CYYZ;2009-08-08 06:00;CYYZ 080600Z 33005KT 15SM BKN250 15/10 A3020 RMK CI3 SLP228

CYYZ;2009-08-08 07:00;CYYZ 080700Z 36004KT 15SM FEW100 BKN250 14/09 A3020 RMK AC1CI2 SLP226

CYYZ;2009-08-08 08:00;CYYZ 080800Z 31004KT 15SM FEW075 BKN250 14/09 A3019 RMK AC2CI2 SLP225

CYYZ;2009-08-08 09:00;CYYZ 080900Z 31005KT 15SM FEW075 SCT250 13/08 A3019 RMK AC1CI2 SLP226

CYYZ;2009-08-08 10:00;CYYZ 081000Z 32004KT 15SM FEW054 SCT075 SCT250 13/09 A3021 RMK SC2AC2CI1 SLP230

CYYZ;2009-08-08 11:00;CYYZ 081100Z 00000KT 15SM BKN055 BKN260 14/10 A3021 RMK SC6CI1 SLP231

CYYZ;2009-08-08 12:00;CYYZ 081200Z 00000KT 15SM FEW060 BKN075 BKN260 16/11 A3022 RMK CF1AC4CI0 SLP233

CYYZ;2009-08-08 13:00;CYYZ 081300Z 00000KT 15SM FEW060 OVC270 18/11 A3020 RMK SC1CS8 SLP228

CYYZ;2009-08-08 14:00;CYYZ 081400Z 17005KT 15SM FEW060 OVC280 18/13 A3020 RMK SC1CS7 SLP228

CYYZ;2009-08-08 15:00;CYYZ 081500Z 16005KT 15SM FEW070 OVC280 19/14 A3020 RMK AC1CS8 SLP226

CYYZ;2009-08-08 16:00;CYYZ 081600Z 13006KT 15SM FEW075 OVC280 21/13 A3018 RMK AC1CS6 SLP221

CYYZ;2009-08-08 17:00;CYYZ 081700Z 14008KT 15SM FEW080 OVC280 22/13 A3016 RMK AC1CS7 SLP215

CYYZ;2009-08-08 18:00;CYYZ 081800Z 17005KT 15SM FEW072 OVC280 21/14 A3015 RMK AC2CS6 SLP209

CYYZ;2009-08-08 19:00;CYYZ 081900Z 15007KT 15SM BKN068 OVC280 20/14 A3012 RMK AC6CS2 SLP200

CYYZ;2009-08-08 20:00;CYYZ 082000Z 14008KT 15SM BKN100 BKN130 OVC280 20/15 A3012 RMK AC5AC1CS2 SLP199

CYYZ;2009-08-08 20:18;CYYZ 082018Z 16008KT 15SM -RA BKN056 OVC100 20/ RMK SC6AC2

CYYZ;2009-08-08 21:00;CYYZ 082100Z 15010KT 15SM -RA FEW035 OVC047 19/16 A3010 RMK CF1SC8 SLP192

CYYZ;2009-08-08 22:00;CYYZ 082200Z 15008KT 15SM -RA OVC027 19/17 A3008 RMK SC8 SLP187

CYYZ;2009-08-08 23:00;CYYZ 082300Z 16009KT 10SM -RA OVC030 19/17 A3007 RMK SC8 SLP182

CYYZ;2009-08-09 00:00;CYYZ 090000Z 13007KT 10SM -RA OVC016 18/17 A3005 RMK SC8 SLP177

CYYZ;2009-08-09 00:21;CYYZ 090021Z 14006KT 10SM -RA BKN012 OVC017 18/ RMK SF5SC3

CYYZ;2009-08-09 01:00;CYYZ 090100Z 14006KT 5SM -RA BR SCT008 OVC012 18/17 A3005 RMK SF3SC5 SLP176

CYYZ;2009-08-09 01:26;CYYZ 090126Z 15007KT 5SM -RA BR BKN005 OVC009 18/ RMK SF5SF3

CYYZ;2009-08-09 02:00;CYYZ 090200Z 14008KT 5SM -RA BR BKN005 OVC009 18/18 A3004 RMK SF5SF3 SLP175

CYYZ;2009-08-09 03:00;CYYZ 090300Z 18006G15KT 5SM -RA BR SCT003 BKN006 OVC009 19/18 A3004 RMK SF3SF2ST2 SLP172

CYYZ;2009-08-09 04:00;CYYZ 090400Z 17007KT 2 1/2SM -RA BR SCT002 OVC005 19/18 A3003 RMK SF4SF4 SLP169

CYYZ;2009-08-09 05:00;CYYZ 090500Z 17007KT 2 1/2SM -RA BR BKN002 OVC005 19/19 A3001 RMK SF5SF3 SLP163

CYYZ;2009-08-09 05:32;CYYZ 090532Z 14005KT 3SM BR BKN002 OVC005 19/ RMK SF5SF3

CYYZ;2009-08-09 06:00;CYYZ 090600Z 15005KT 3SM BR BKN003 OVC005 19/19 A2998 RMK SF5SF3 SLP153

CYYZ;2009-08-09 07:00;CYYZ 090700Z 14003KT 3SM BR BKN004 OVC006 19/19 A2998 RMK SF5SF3 SLP153

CYYZ;2009-08-09 07:43;CYYZ 090743Z 13003KT 5SM BR SCT005 OVC017 19/ RMK SF3SC5

CYYZ;2009-08-09 08:00;CYYZ 090800Z 11004KT 5SM BR SCT005 OVC015 19/19 A2996 RMK SF3SC5 SLP144

CYYZ;2009-08-09 09:00;CYYZ 090900Z 16003KT 5SM BR SCT005 OVC015 19/18 A2996 RMK SF3SC5 SLP144

CYYZ;2009-08-09 10:00;CYYZ 091000Z 09002KT 6SM BR OVC010 19/18 A2996 RMK SC8 SLP145

CYYZ;2009-08-09 10:54;CYYZ 091054Z 08004KT 6SM BR OVC008 19/ RMK ST8

CYYZ;2009-08-09 11:00;CYYZ 091100Z 09002KT 6SM BR OVC008 19/19 A2995 RMK ST8 SLP140

CYYZ;2009-08-09 12:00;CYYZ 091200Z 09002KT 6SM BR OVC006 20/19 A2995 RMK ST8 SLP140

CYYZ;2009-08-09 13:00;CYYZ 091300Z 19007KT 5SM BR SCT005 OVC009 20/19 A2998 RMK ST3ST5 SLP150

CYYZ;2009-08-09 13:22;CYYZ 091322Z 17006KT 5SM BR FEW006 FEW010 BKN035 20/ RMK SF2ST1SC5

CYYZ;2009-08-09 14:00;CYYZ 091400Z 16005KT 6SM BR SCT006 SCT055 BKN180 21/19 A2996 RMK SF3SC1AC3 SLP146

CYYZ;2009-08-09 15:00;CYYZ 091500Z 23005KT 7SM FEW010 OVC060 22/20 A2996 RMK SF1SC7 SLP145

CYYZ;2009-08-09 15:08;CYYZ 091508Z 25004KT 7SM TS FEW010 FEW035CB OVC060 22/ RMK SF1CB2SC6 LTGCG W SKY DRK SW-N

CYYZ;2009-08-09 15:18;CYYZ 091518Z CCA 31011KT 4SM +TSRA FEW010 BKN025CB OVC055 22/ RMK SF2CB5SC2 PRESRR LTGCG W N

CYYZ;2009-08-09 15:21;CYYZ 091521Z CCA 34017KT 1SM +TSRA SCT010 OVC025CB 21/ RMK SF3CB5 PRESRR

CYYZ;2009-08-09 15:40;CYYZ 091540Z 20005G21KT 2SM R23/4000VP6000FT/U R24R/P6000FT/U +TSRA FEW006 OVC020CB 21/ RMK SF1CB7 PRESFR R33L/4500VP6000FT/U R33R/4500VP6000FT/U

CYYZ;2009-08-09 15:48;CYYZ 091548Z 16006KT 6SM TSRA FEW010 BKN035CB BKN055 21/ RERA RMK SF2CB5SC1 PRESFR LTGICCG

CYYZ;2009-08-09 16:00;CYYZ 091600Z 23005KT 8SM -TSRA FEW010 SCT040CB BKN100 21/21 A2993 RERA RMK SF1CB3AC3 SLP134

CYYZ;2009-08-09 16:24;CYYZ 091624Z 24004KT 10SM FEW020 FEW040CB BKN120 BKN220 21/ RETS RMK SF1CB1AC5CS2 CB E W

CYYZ;2009-08-09 17:00;CYYZ 091700Z 20006KT 8SM FEW040 BKN220 22/21 A2991 RETS RMK SC1CS6 PRESFR SLP128

CYYZ;2009-08-09 18:00;CYYZ 091800Z 22011G17KT 12SM FEW020 FEW240 26/23 A2989 RMK CF1CS2 SLP120

CYYZ;2009-08-09 19:00;CYYZ 091900Z 14009KT 12SM SCT065 SCT220 26/23 A2989 RMK SC3CI1 SLP122

CYYZ;2009-08-09 20:00;CYYZ 092000Z 14005KT 12SM OVC030 25/22 A2988 RMK SC8 SLP118

CYYZ;2009-08-09 21:00;CYYZ 092100Z 17005KT 12SM OVC030 27/23 A2987 RMK SC8 SLP113

CYYZ;2009-08-09 22:00;CYYZ 092200Z 16005KT 12SM OVC028 27/24 A2987 RMK SC8 SLP112

CYYZ;2009-08-09 23:00;CYYZ 092300Z 24012KT 9SM FEW026 SCT048 BKN081 29/25 A2986 RMK SC1SC2AC2 HZ SLP109

CYYZ;2009-08-10 00:00;CYYZ 100000Z 23007KT 8SM FEW028 SCT052CB BKN086 OVC230 29/25 A2983 RMK SC2CB2AC2CI2 CB E HZ SLP098

CYYZ;2009-08-10 00:13;CYYZ 100013Z 25008KT 8SM TS FEW030 SCT053CB BKN090 BKN230 29/ RMK SC2CB2AC2CI2 CB W MOVG E LTGCC NNW

CYYZ;2009-08-10 00:23;CYYZ 100023Z 33033G45KT 2 1/2SM +TSRA SCT022 BKN042CB BKN090 27/ RMK SC3CB2AC2 WSHFT 0019 LTGICCG NNW VIS HIER SE

CYYZ;2009-08-10 00:33;CYYZ 100033Z 34035G52KT 2SM +TSRAGR FEW006 BKN011CB OVC028 20/ RMK SF2CB4SC2 CB OVRHD HAIL DIAM 4 MM

CYYZ;2009-08-10 00:47;CYYZ 100047Z CCA 32020G25KT 3SM +TSRA FEW012 BKN022CB OVC031 20/ RMK SF2CB5SC2 CB OVRHD

CYYZ;2009-08-10 01:00;CYYZ 100100Z 30015G22KT 7SM TSRA FEW010 BKN026CB OVC042 21/20 A2991 RERA RMK SF2CB4SC2 /R18/ CB OVRHD MOVG E PRESRR SLP127

CYYZ;2009-08-10 01:38;CYYZ 100138Z CCA 28013G20KT 5SM +TSRA BKN011 OVC022CB 21/ RMK SC5CB3 CB OVRHD FRQ LTGICCC ALQDS

CYYZ;2009-08-10 02:00;CYYZ 100200Z 30010KT 8SM -TSRA FEW012 BKN056CB OVC180 22/21 A2988 RERA RMK SC2CB3AC2 CB OVRHD SW SLP117

CYYZ;2009-08-10 02:21;CYYZ 100221Z 24007KT 10SM BKN042 BKN050CB 21/ RETS RMK SC5CB2 CB S-SW

CYYZ;2009-08-10 03:00;CYYZ 100300Z CCA 24010KT 12SM SCT042 BKN190 BKN250 22/21 A2988 RETS RMK SC3AC2CI1 LTNG SW SLP117

CYYZ;2009-08-10 04:00;CYYZ 100400Z 30004KT 15SM FEW043 OVC240 22/20 A2986 RMK SC2CI4 OCNL LTGIC SSE SLP112

CYYZ;2009-08-10 05:00;CYYZ 100500Z 13003KT 15SM FEW050 BKN220 23/21 A2986 RMK SC2CI4 SLP109

CYYZ;2009-08-10 06:00;CYYZ 100600Z 21004KT 10SM FEW050 OVC150 22/21 A2989 RMK SC2AC6 SLP118

CYYZ;2009-08-10 06:29;CYYZ 100629Z 22008KT 10SM -SHRA SCT048 SCT079 OVC130 23/ RMK SC3AC1AC4

CYYZ;2009-08-10 07:00;CYYZ 100700Z 23009KT 12SM -SHRA FEW046 BKN078 OVC130 23/22 A2988 RMK SC2AC4AC2 PCPN VRY LGT SLP115

CYYZ;2009-08-10 08:00;CYYZ 100800Z 23010KT 12SM FEW028 SCT043CB BKN130 23/22 A2986 RMK SC2CB2AC4 OCNL LTGIC W-N SLP111

CYYZ;2009-08-10 08:50;CYYZ 100850Z 28009KT 10SM TS SCT032 BKN046CB BKN190 23/ RMK SC3CB2AC2 OCNL LTGICCC W-N

CYYZ;2009-08-10 09:00;CYYZ 100900Z 29007KT 10SM TS SCT036 BKN058CB BKN160 23/22 A2989 RMK SC3CB2AC2 LTGIC N SE SLP121

CYYZ;2009-08-10 09:12;CYYZ 100912Z 24004KT 9SM FEW042 SCT058CB BKN140 23/ RETS RMK SC2CB2AC2 LTGIC NE-SE

CYYZ;2009-08-10 10:00;CYYZ 101000Z 24006KT 9SM SCT054 BKN130 BKN190 22/21 A2989 RETS RMK SC3AC2AC2 SLP119

CYYZ;2009-08-10 11:00;CYYZ 101100Z 26010KT 15SM FEW040CB FEW100 BKN280 22/21 A2989 RMK CB1AC1CI6 SLP118

CYYZ;2009-08-10 12:00;CYYZ 101200Z 28008KT 15SM FEW040CB FEW140 FEW180 BKN280 23/21 A2988 RMK CB1AC1AC2CI3 SLP115

CYYZ;2009-08-10 13:00;CYYZ 101300Z 29010KT 15SM BKN160 BKN270 24/22 A2987 RMK AC6CI2 SLP112

CYYZ;2009-08-10 14:00;CYYZ 101400Z 27010KT 15SM FEW010 BKN150 25/23 A2989 RMK SF1AC6 SLP120

CYYZ;2009-08-10 15:00;CYYZ 101500Z 26009KT 15SM FEW015 BKN110 26/23 A2989 RMK CF1AC7 SLP118

CYYZ;2009-08-10 16:00;CYYZ 101600Z 25010KT 15SM FEW020 BKN090 27/23 A2989 RMK CF1AC6 SLP121

CYYZ;2009-08-10 17:00;CYYZ 101700Z 26011KT 15SM FEW025 BKN085 28/23 A2989 RMK CU1AC6 SLP121

CYYZ;2009-08-10 18:00;CYYZ 101800Z 27014KT 15SM SCT030 SCT130 29/22 A2988 RMK CU2AC1 TCU ASOCTD SLP115

CYYZ;2009-08-10 19:00;CYYZ 101900Z 27010G15KT 15SM SCT043 30/23 A2986 RMK CU4 TCU ASOCTD SLP108

CYYZ;2009-08-10 20:00;CYYZ 102000Z 30025KT 15SM -SHRA SCT040 BKN080 BKN120 27/22 A2984 RMK SC4AC1AC2 CB ASOCTD VSBY LWR W SLP104

CYYZ;2009-08-10 20:23;CYYZ 102023Z 28011KT 15SM FEW040CB FEW080 SCT220 27/ RMK CB1AC2CI1 CB N E

CYYZ;2009-08-10 21:00;CYYZ 102100Z 35024G29KT 15SM VCSH BKN050 BKN080 BKN220 25/21 A2985 RMK SC5AC1CI1 CB N SLP105

CYYZ;2009-08-10 22:00;CYYZ 102200Z 01007KT 15SM FEW017 FEW040CB SCT100 BKN130 24/21 A2986 RMK SF1CB1AC3AC2 SLP108

CYYZ;2009-08-10 23:00;CYYZ 102300Z 36009KT 15SM FEW040TCU BKN100 BKN260 25/21 A2986 RMK TCU1AC4CI0 CC ASOCTD SLP109

CYYZ;2009-08-11 00:00;CYYZ 110000Z 35009KT 15SM FEW040TCU FEW120 SCT260 24/20 A2986 RMK TCU1AC1CI0 TCU S SLP111

CYYZ;2009-08-11 01:00;CYYZ 110100Z 36010KT 15SM FEW040TCU FEW090 SCT260 23/19 A2987 RMK TCU1AC1CI0 TCU SSE TR SLP112

CYYZ;2009-08-11 02:00;CYYZ 110200Z 33006KT 15SM FEW050 FEW070 22/20 A2989 RMK SC1AC1 SLP121

CYYZ;2009-08-11 03:00;CYYZ 110300Z 27004KT 15SM FEW050 FEW100 FEW260 21/19 A2990 RMK SC1AC1CI1 SLP122

CYYZ;2009-08-11 04:00;CYYZ 110400Z 27003KT 15SM FEW050 FEW090 FEW260 21/18 A2989 RMK SC1AC1CI1 SLP118

CYYZ;2009-08-11 05:00;CYYZ 110500Z 26005KT 15SM FEW260 20/18 A2989 RMK CI1 SLP118

CYYZ;2009-08-11 06:00;CYYZ 110600Z 32005KT 15SM FEW260 20/18 A2989 RMK CI1 SLP120

CYYZ;2009-08-11 07:00;CYYZ 110700Z 31005KT 15SM FEW062 BKN110 20/17 A2989 RMK SC1AC4 SLP121

CYYZ;2009-08-11 08:00;CYYZ 110800Z 31008KT 15SM FEW070 BKN110 19/17 A2989 RMK AC2AC2 SLP120

CYYZ;2009-08-11 09:00;CYYZ 110900Z 33006KT 15SM BKN120 20/16 A2989 RMK AC3 SLP119

CYYZ;2009-08-11 10:00;CYYZ 111000Z 34003KT 15SM FEW083 BKN120 19/16 A2989 RMK AC2AC4 SLP121

CYYZ;2009-08-11 11:00;CYYZ 111100Z 00000KT 15SM FEW085 BKN130 BKN140 20/16 A2991 RMK AC2AC3AC2 SLP126

CYYZ;2009-08-11 12:00;CYYZ 111200Z 23002KT 15SM FEW075 BKN130 BKN140 21/16 A2992 RMK AC2AC3AC2 SLP129

CYYZ;2009-08-11 13:00;CYYZ 111300Z 30003KT 15SM SCT055 BKN068 BKN120 22/16 A2993 RMK SC3AC2AC2 SLP133

CYYZ;2009-08-11 14:00;CYYZ 111400Z 31008KT 15SM FEW055 BKN110 BKN130 23/17 A2993 RMK SC2AC4AC2 SLP134

CYYZ;2009-08-11 15:00;CYYZ 111500Z 33006KT 15SM SCT055 BKN130 24/17 A2993 RMK SC3AC3 SLP133

CYYZ;2009-08-11 16:00;CYYZ 111600Z CCA 00000KT 15SM SCT055 BKN130 25/18 A2993 RMK SC3AC3 TCU ASOCTD SLP134

CYYZ;2009-08-11 17:00;CYYZ 111700Z 03005KT 15SM SCT043 BKN050 BKN120 25/18 A2992 RMK CU3SC2AC2 TCU ASOCTD SLP129

CYYZ;2009-08-11 17:35;CYYZ 111735Z 15004KT 15SM TS SCT035 BKN040 BKN120 25/ RMK CU3SC2AC2 CB EMBD LTGIC N

CYYZ;2009-08-11 17:45;CYYZ 111745Z CCA 20002KT 4SM -TSRA SCT030 BKN035 BKN120 25/ RMK CU3SC2AC2 CB EMBD LTGIC N

CYYZ;2009-08-11 17:50;CYYZ 111750Z CCA 31038G51KT 1/4SM +TSRA SCT030 BKN035 BKN120 18/ RMK CU3SC3AC1 CB EMBD LTGIC N WND SHFT

CYYZ;2009-08-11 18:00;CYYZ 111800Z CCA 06022G62KT 1/4SM +TSRA SCT003 BKN014 OVC025 18/15 A2992 RMK CU3SC3SC2 CB EMBD LTGIC /R18/ WND SHFT SLP131

CYYZ;2009-08-11 18:12;CYYZ 111812Z CCB 29002G16KT 3SM -TSRA FEW007 SCT025 OVC035 18/ RERA RMK SF2CU2SC4 CB EMBD LTGIC NE WND SHFT

CYYZ;2009-08-11 19:00;CYYZ 111900Z 00000KT 15SM -TSRA SCT030 BKN040 BKN120 20/20 A2991 RERA RMK CU3SC2AC2 CB EMBD DARK TWD NNE PCPN VRY LGT SLP129

CYYZ;2009-08-11 19:18;CYYZ 111918Z 01005KT 15SM -SHRA SCT030 BKN055 BKN080 22/ RETS RMK CU3SC2AC2 TCU ASOCTD NNE PCPN VRY LGT

CYYZ;2009-08-11 19:35;CYYZ 111935Z 02009G16KT 15SM SCT030 BKN055 BKN075 22/ RETS RMK CU3SC2AC2 TCU ASOCTD

CYYZ;2009-08-11 20:00;CYYZ 112000Z 36006KT 15SM SCT055 BKN060 BKN075 24/18 A2989 RETS RMK CU3SC2AC2 TCU ASOCTD SLP122

CYYZ;2009-08-11 20:48;CYYZ 112048Z 35009KT 10SM -SHRA SCT055TCU BKN085 BKN230 23/ RMK TCU3AC3CI1 DARK TWD W CB EMBD

CYYZ;2009-08-11 21:00;CYYZ 112100Z 34017KT 4SM -SHRA FEW055TCU SCT085 BKN095 22/18 A2990 RMK TCU2AC2AC3 DARK TWD S SW CB EMBD LTGIC SLP125

CYYZ;2009-08-11 21:08;CYYZ 112108Z 34017KT 4SM -TSRA FEW055TCU BKN065 BKN100 21/ RMK TCU2SC2AC2 DARK TWD S SW CB EMBD LTGIC

CYYZ;2009-08-11 21:35;CYYZ 112135Z CCA 27005KT 15SM -SHRA FEW055TCU BKN065 BKN100 20/ RETS RMK TCU2SC2AC2 DARK TWD S CB EMBD PCPN VRY LGT

CYYZ;2009-08-11 22:00;CYYZ 112200Z 31008KT 15SM -SHRA FEW055TCU SCT065 BKN100 22/19 A2991 RETS RMK TCU2SC2AC3 DARK TWD S SE PCPN VRY LGT SLP126

CYYZ;2009-08-11 22:25;CYYZ 112225Z 31008KT 15SM SCT062 BKN140 22/ RMK SC3AC2 TCU ASOCTD SE

CYYZ;2009-08-11 23:00;CYYZ 112300Z CCA 33010KT 15SM FEW060 FEW076 BKN110 BKN230 23/20 A2989 RMK SC1AC1AC2CI1 CI TR CU ASOCTD SLP122

CYYZ;2009-08-12 00:00;CYYZ 120000Z 32008KT 15SM FEW060TCU SCT100 SCT240 23/18 A2991 RMK TCU1AC1CI0 SLP126

CYYZ;2009-08-12 01:00;CYYZ 120100Z 34008KT 15SM FEW056 FEW120 SCT240 22/17 A2992 RMK SC1AC1CI0 SLP129

CYYZ;2009-08-12 02:00;CYYZ 120200Z 33007KT 15SM FEW050 FEW120 FEW240 22/17 A2993 RMK SC1AC1CI0 SLP135

CYYZ;2009-08-12 03:00;CYYZ 120300Z 35014KT 15SM FEW050 FEW100 FEW230 21/17 A2994 RMK SC1AC1CI0 SLP138

CYYZ;2009-08-12 04:00;CYYZ 120400Z 34010KT 15SM FEW050 FEW100 FEW230 19/17 A2996 RMK SC1AC1CI1 SLP143

CYYZ;2009-08-12 05:00;CYYZ 120500Z 33009KT 15SM FEW100 FEW250 18/17 A2995 RMK AC1CI1 SLP142

CYYZ;2009-08-12 06:00;CYYZ 120600Z 34012KT 15SM FEW040 FEW100 FEW260 18/16 A2995 RMK SC1AC1CI1 SLP144

CYYZ;2009-08-12 06:44;CYYZ 120644Z 35011KT 12SM BKN005 18/ RMK SF6

CYYZ;2009-08-12 07:00;CYYZ 120700Z 35009KT 15SM OVC005 18/17 A2996 RMK SF8 SLP146

CYYZ;2009-08-12 08:00;CYYZ 120800Z 34008KT 15SM BKN005 18/18 A2997 RMK SF7 SLP148

CYYZ;2009-08-12 09:00;CYYZ 120900Z 36011KT 15SM OVC005 18/18 A2997 RMK SC8 SLP149

CYYZ;2009-08-12 10:00;CYYZ 121000Z 35010KT 12SM OVC005 18/18 A2998 RMK SF8 SLP151

CYYZ;2009-08-12 11:00;CYYZ 121100Z 36009KT 12SM OVC005 18/18 A2999 RMK SF8 SLP156

CYYZ;2009-08-12 12:00;CYYZ 121200Z 36010KT 12SM OVC005 19/18 A3001 RMK SF8 SLP163

CYYZ;2009-08-12 13:00;CYYZ 121300Z 36006KT 12SM BKN007 20/18 A3004 RMK SF7 SLP170

CYYZ;2009-08-12 14:00;CYYZ 121400Z 34005KT 15SM BKN012 21/19 A3004 RMK SF7 SLP173

CYYZ;2009-08-12 14:46;CYYZ 121446Z 35003KT 15SM SCT015 BKN020 22/ RMK SF3SC4

CYYZ;2009-08-12 15:00;CYYZ 121500Z 00000KT 15SM FEW010 SCT015 BKN020 22/19 A3005 RMK SF2CU2SC3 SLP175

CYYZ;2009-08-12 16:00;CYYZ 121600Z CCB 00000KT 15SM BKN023 BKN070 23/19 A3005 RMK CU5AC2 TCU ASOCTD SLP175

CYYZ;2009-08-12 17:00;CYYZ 121700Z 29002KT 15SM BKN027 BKN070 24/19 A3005 RMK CU6AC2 TCU ASOCTD SLP175

CYYZ;2009-08-12 17:25;CYYZ 121725Z CCA 00000KT 15SM -SHRA BKN025 BKN070 24/ RMK CU6AC2 TCU ASOCTD PCPN VRY LGT

CYYZ;2009-08-12 17:46;CYYZ 121746Z CCA 07008KT 2SM -TSRA BKN025 BKN030 23/ RMK CU6SC2 DRK NEE CB EMBD VIS NNW 12

CYYZ;2009-08-12 18:00;CYYZ 121800Z 01012G18KT 1 1/2SM -TSRA BR SCT025 BKN030 BKN035CB 20/19 A3006 RMK CU3SC3CB1 SLP178

CYYZ;2009-08-12 18:10;CYYZ 121810Z 29004KT 6SM -TSRA SCT025 BKN030 BKN035CB 21/ RMK CU3SC3CB1 VIS NW 3 LTGIC TCU ASOCTD

CYYZ;2009-08-12 18:30;CYYZ 121830Z CCA 00000KT 15SM SCT050 BKN085 22/ RETS RMK CU4AC3 TCU ASOCTD

CYYZ;2009-08-12 19:00;CYYZ 121900Z 00000KT 15SM SCT050 BKN082 22/19 A3005 RETS RMK CU4AC3 TCU ASOCTD SLP175

CYYZ;2009-08-12 20:00;CYYZ 122000Z 00000KT 15SM SCT055TCU BKN083 23/19 A3004 RMK TCU4AC3 SLP171

CYYZ;2009-08-12 21:00;CYYZ 122100Z 23003KT 15SM SCT055TCU BKN100 24/18 A3003 RMK TCU3AC3 SLP169

CYYZ;2009-08-12 22:00;CYYZ 122200Z 17003KT 15SM SCT055TCU BKN085 BKN100 24/19 A3003 RMK TCU3AC2AC2 SLP169

CYYZ;2009-08-12 23:00;CYYZ 122300Z 26003KT 15SM SCT055TCU BKN110 25/19 A3003 RMK TCU3AC3 SLP168

CYYZ;2009-08-13 00:00;CYYZ 130000Z 24003KT 15SM FEW055TCU SCT100 24/18 A3004 RMK TCU2AC2 SLP170

CYYZ;2009-08-13 01:00;CYYZ 130100Z 00000KT 15SM SCT085 24/17 A3004 RMK AC3 SLP173

CYYZ;2009-08-13 02:00;CYYZ 130200Z 01009KT 15SM FEW090 22/17 A3007 RMK AC2 SLP180

CYYZ;2009-08-13 03:00;CYYZ 130300Z 35007KT 15SM FEW090 20/16 A3007 RMK AC1 SLP181

CYYZ;2009-08-13 04:00;CYYZ 130400Z 36005KT 15SM SKC 19/16 A3007 RMK SLP183

CYYZ;2009-08-13 05:00;CYYZ 130500Z 32006KT 15SM SKC 18/16 A3008 RMK SLP184

CYYZ;2009-08-13 06:00;CYYZ 130600Z 33007KT 15SM SKC 19/16 A3007 RMK SLP183

CYYZ;2009-08-13 07:00;CYYZ 130700Z 34005KT 15SM SKC 18/15 A3007 RMK SLP184

CYYZ;2009-08-13 08:00;CYYZ 130800Z 35008KT 15SM SKC 18/15 A3009 RMK SLP189

CYYZ;2009-08-13 09:00;CYYZ 130900Z 36003KT 15SM SKC 17/15 A3010 RMK SLP193

CYYZ;2009-08-13 10:00;CYYZ 131000Z 33006KT 15SM SKC 17/15 A3011 RMK SLP195

CYYZ;2009-08-13 11:00;CYYZ 131100Z 35005KT 15SM SKC 17/15 A3011 RMK SLP197

CYYZ;2009-08-13 12:00;CYYZ 131200Z 34008KT 15SM SKC 19/16 A3012 RMK SLP199

CYYZ;2009-08-13 13:00;CYYZ 131300Z 35005KT 15SM SKC 21/17 A3013 RMK SLP203

CYYZ;2009-08-13 14:00;CYYZ 131400Z 34004KT 15SM SKC 23/18 A3013 RMK SLP204

CYYZ;2009-08-13 15:00;CYYZ 131500Z 32003KT 15SM SKC 25/18 A3015 RMK SLP207

CYYZ;2009-08-13 16:00;CYYZ 131600Z 33005KT 15SM FEW025 26/18 A3014 RMK CU1 SLP205

CYYZ;2009-08-13 17:00;CYYZ 131700Z CCA 03006KT 15SM FEW035 27/18 A3013 RMK CU2 SLP203

CYYZ;2009-08-13 18:00;CYYZ 131800Z 17002KT 15SM FEW040 28/16 A3013 RMK CU2 TCU ASOCTD SLP201

CYYZ;2009-08-13 19:00;CYYZ 131900Z 14004KT 15SM FEW055 28/19 A3013 RMK CU2 TCU ASOCTD SLP200

CYYZ;2009-08-13 20:00;CYYZ 132000Z 15010KT 15SM SCT055 SCT250 27/18 A3012 RMK CU3CI0 TCU ASOCTD SLP199

CYYZ;2009-08-13 21:00;CYYZ 132100Z 14008KT 15SM FEW050 FEW250 27/17 A3012 RMK CU2CI1 CI TR SLP198

CYYZ;2009-08-13 22:00;CYYZ 132200Z 15008KT 15SM FEW050 FEW250 27/17 A3012 RMK CU2CI1 CI TR SLP199

CYYZ;2009-08-13 23:00;CYYZ 132300Z 15006KT 15SM FEW055 FEW110 26/16 A3012 RMK CU1AC2 SLP198

CYYZ;2009-08-14 00:00;CYYZ 140000Z 16004KT 15SM FEW110 25/16 A3012 RMK AC2 SLP197

CYYZ;2009-08-14 01:00;CYYZ 140100Z 16003KT 15SM FEW110 24/16 A3013 RMK AC2 SLP200

CYYZ;2009-08-14 02:00;CYYZ 140200Z 17003KT 15SM FEW110 23/16 A3013 RMK AC1 SLP202

CYYZ;2009-08-14 03:00;CYYZ 140300Z 29002KT 15SM SKC 23/16 A3013 RMK SLP203

CYYZ;2009-08-14 04:00;CYYZ 140400Z 24004KT 15SM SKC 20/17 A3015 RMK SLP207

CYYZ;2009-08-14 05:00;CYYZ 140500Z 36003KT 15SM SKC 20/17 A3015 RMK SLP209

CYYZ;2009-08-14 06:00;CYYZ 140600Z 01002KT 15SM SKC 20/17 A3016 RMK SLP210

CYYZ;2009-08-14 07:00;CYYZ 140700Z 32003KT 15SM SKC 20/17 A3016 RMK SLP210

CYYZ;2009-08-14 08:00;CYYZ 140800Z 27002KT 15SM SKC 19/16 A3015 RMK SLP208

CYYZ;2009-08-14 09:00;CYYZ 140900Z 31003KT 15SM SKC 19/16 A3016 RMK SLP210

CYYZ;2009-08-14 10:00;CYYZ 141000Z 26004KT 15SM SKC 17/15 A3017 RMK SLP214

CYYZ;2009-08-14 11:00;CYYZ 141100Z 00000KT 15SM SKC 19/16 A3018 RMK SLP218

CYYZ;2009-08-14 12:00;CYYZ 141200Z 30002KT 15SM FEW260 21/17 A3019 RMK CI1 SLP224

CYYZ;2009-08-14 13:00;CYYZ 141300Z 00000KT 15SM FEW260 23/18 A3020 RMK CI1 SLP226

CYYZ;2009-08-14 14:00;CYYZ 141400Z 25002KT 15SM FEW260 25/18 A3020 RMK CI1 SLP225

CYYZ;2009-08-14 15:00;CYYZ 141500Z 12003KT 15SM FEW038 FEW270 26/19 A3020 RMK CF1CI1 CU ASOCTD SLP224

CYYZ;2009-08-14 16:00;CYYZ 141600Z 13007KT 15SM FEW040 27/19 A3019 RMK CF1 CU ASOCTD SLP223

CYYZ;2009-08-14 17:00;CYYZ 141700Z 14008KT 15SM FEW045 27/19 A3018 RMK CU2 SLP219

CYYZ;2009-08-14 18:00;CYYZ 141800Z 15011KT 15SM FEW045 27/20 A3017 RMK CU2 SLP215

CYYZ;2009-08-14 19:00;CYYZ 141900Z 15009KT 15SM FEW045 27/20 A3016 RMK CU1 SLP212

CYYZ;2009-08-14 20:00;CYYZ 142000Z 14008KT 15SM FEW045 28/19 A3015 RMK CU2 SLP209

CYYZ;2009-08-14 21:00;CYYZ 142100Z 13009KT 15SM FEW050 27/18 A3014 RMK CU2 SLP205

CYYZ;2009-08-14 22:00;CYYZ 142200Z 15008KT 15SM FEW050 28/19 A3014 RMK CU1 SLP204

CYYZ;2009-08-14 23:00;CYYZ 142300Z 16006KT 15SM FEW056 27/19 A3014 RMK CU1 SLP204

CYYZ;2009-08-15 00:00;CYYZ 150000Z 16005KT 15SM FEW052 FEW260 25/20 A3013 RMK CU1CI1 SLP203

CYYZ;2009-08-15 01:00;CYYZ 150100Z 16006KT 12SM FEW050 FEW140 FEW260 24/20 A3013 RMK SC1AC1CI1 SLP201

CYYZ;2009-08-15 02:00;CYYZ 150200Z 17004KT 15SM FEW050 FEW140 FEW260 23/20 A3013 RMK SC1AC1CI1 SLP202

CYYZ;2009-08-15 03:00;CYYZ 150300Z 17002KT 15SM FEW050 FEW260 23/19 A3013 RMK SC1CI1 SLP201

CYYZ;2009-08-15 04:00;CYYZ 150400Z 00000KT 15SM FEW240 23/19 A3013 RMK CI1 SLP201

CYYZ;2009-08-15 05:00;CYYZ 150500Z 15002KT 15SM FEW240 23/19 A3013 RMK CI1 SLP200

CYYZ;2009-08-15 06:00;CYYZ 150600Z 29002KT 15SM SKC 22/19 A3013 RMK SLP201

CYYZ;2009-08-15 07:00;CYYZ 150700Z 30002KT 15SM SKC 21/19 A3013 RMK SLP201

CYYZ;2009-08-15 08:00;CYYZ 150800Z 00000KT 12SM SKC 20/19 A3013 RMK SLP201

CYYZ;2009-08-15 09:00;CYYZ 150900Z CCA 00000KT 12SM SKC 20/18 A3012 RMK SLP199

CYYZ;2009-08-15 10:00;CYYZ 151000Z 00000KT 10SM FEW150 FEW260 19/17 A3011 RMK AC1CI1 SLP196

CYYZ;2009-08-15 11:00;CYYZ 151100Z 33002KT 8SM FEW050 FEW120 SCT250 20/17 A3013 RMK CU1AC2CI1 HZ SLP201

CYYZ;2009-08-15 12:00;CYYZ 151200Z 00000KT 10SM SKC 21/19 A3014 RMK SLP206

CYYZ;2009-08-15 13:00;CYYZ 151300Z 00000KT 12SM SKC 23/18 A3016 RMK SLP211

CYYZ;2009-08-15 14:00;CYYZ 151400Z 18004KT 12SM FEW230 25/19 A3016 RMK CI1 SLP211

CYYZ;2009-08-15 15:00;CYYZ 151500Z 28004KT 15SM FEW230 27/19 A3016 RMK CI1 SLP211

CYYZ;2009-08-15 16:00;CYYZ 151600Z 30008KT 15SM FEW025 28/19 A3014 RMK CU1 SLP205

CYYZ;2009-08-15 17:00;CYYZ 151700Z 16005KT 15SM FEW050 28/21 A3013 RMK CU2 SLP200

CYYZ;2009-08-15 18:00;CYYZ 151800Z 13007KT 15SM SCT050 28/21 A3012 RMK CU3 SLP197

CYYZ;2009-08-15 19:00;CYYZ 151900Z 15009KT 15SM SCT050 28/20 A3010 RMK CU3 SLP192

CYYZ;2009-08-15 20:00;CYYZ 152000Z 17009KT 15SM SCT055 29/19 A3010 RMK CU3 SLP189

CYYZ;2009-08-15 21:00;CYYZ 152100Z 17007KT 15SM SCT060 SCT070 29/18 A3010 RMK CU3AC1 SLP191

CYYZ;2009-08-15 22:00;CYYZ 152200Z 13005KT 15SM FEW063 SCT070 29/18 A3010 RMK CU2AC2 SLP191

CYYZ;2009-08-15 23:00;CYYZ 152300Z 18005KT 15SM FEW062 FEW070 SCT230 29/19 A3010 RMK CU2AC1CI0 SLP191

CYYZ;2009-08-16 00:00;CYYZ 160000Z 16004KT 15SM FEW056 FEW120 SCT230 27/18 A3010 RMK SC2AC1CI0 SLP192

CYYZ;2009-08-16 01:00;CYYZ 160100Z 18005KT 12SM FEW082 26/18 A3011 RMK AC2 SLP196

CYYZ;2009-08-16 02:00;CYYZ 160200Z 21003KT 12SM FEW090 25/18 A3012 RMK AC2 SLP198

CYYZ;2009-08-16 03:00;CYYZ 160300Z 24005KT 12SM FEW090 25/19 A3012 RMK AC1 SLP198

CYYZ;2009-08-16 04:00;CYYZ 160400Z 27003KT 12SM FEW090 23/19 A3012 RMK AC1 SLP198

CYYZ;2009-08-16 05:00;CYYZ 160500Z 28003KT 12SM FEW100 23/18 A3013 RMK AC1 SLP200

CYYZ;2009-08-16 06:00;CYYZ 160600Z 27003KT 12SM FEW160 23/18 A3013 RMK AC1 SLP200

CYYZ;2009-08-16 07:00;CYYZ 160700Z 00000KT 10SM SCT180 22/18 A3012 RMK AC2 SLP196

CYYZ;2009-08-16 08:00;CYYZ 160800Z 25002KT 9SM FEW180 22/18 A3012 RMK AC2 HZ SLP196

CYYZ;2009-08-16 09:00;CYYZ 160900Z 26003KT 10SM BKN061 21/18 A3013 RMK SC4 SLP202

CYYZ;2009-08-16 10:00;CYYZ 161000Z 33004KT 10SM FEW062 FEW120 FEW230 21/17 A3014 RMK SC2AC1CI1 SLP205

CYYZ;2009-08-16 11:00;CYYZ 161100Z 02002KT 10SM FEW230 20/17 A3015 RMK CI1 HZ SLP207

CYYZ;2009-08-16 12:00;CYYZ 161200Z 00000KT 10SM SKC 22/19 A3016 RMK SLP210

CYYZ;2009-08-16 13:00;CYYZ 161300Z 22006KT 12SM SKC 24/20 A3016 RMK SLP213

CYYZ;2009-08-16 14:00;CYYZ 161400Z 22004KT 12SM SKC 26/19 A3016 RMK SLP211

CYYZ;2009-08-16 15:00;CYYZ 161500Z 18009KT 12SM SKC 27/19 A3016 RMK SLP210

CYYZ;2009-08-16 16:00;CYYZ 161600Z 13006KT 12SM FEW035 FEW100 28/21 A3015 RMK CF1AC1 SLP208

CYYZ;2009-08-16 17:00;CYYZ 161700Z 16010KT 12SM FEW050 SCT080 28/21 A3014 RMK CU2AC2 SLP204

CYYZ;2009-08-16 18:00;CYYZ 161800Z 17009G15KT 12SM SCT055 BKN070 29/21 A3013 RMK CU3AC3 SLP202

CYYZ;2009-08-16 19:00;CYYZ 161900Z 17010KT 12SM SCT045 BKN065 29/21 A3012 RMK CU4SC2 SLP197

CYYZ;2009-08-16 20:00;CYYZ 162000Z 18008KT 12SM SCT045 BKN065 28/20 A3011 RMK CU4SC2 SLP194

CYYZ;2009-08-16 21:00;CYYZ 162100Z 14007KT 12SM SCT050 29/21 A3010 RMK CU4 SLP189

CYYZ;2009-08-16 22:00;CYYZ 162200Z CCA 14005KT 12SM SCT055 28/21 A3008 RMK SC3 SLP184

CYYZ;2009-08-16 23:00;CYYZ 162300Z 22010G15KT 15SM FEW050 29/19 A3007 RMK SC2 SLP181

CYYZ;2009-08-17 00:00;CYYZ 170000Z 21009KT 15SM SKC 29/19 A3009 RMK SLP186

CYYZ;2009-08-17 01:00;CYYZ 170100Z 20005KT 15SM SKC 27/21 A3010 RMK SLP190

CYYZ;2009-08-17 02:00;CYYZ 170200Z 19004KT 15SM SKC 27/20 A3010 RMK SLP192

CYYZ;2009-08-17 03:00;CYYZ 170300Z 16004KT 15SM SKC 25/20 A3010 RMK SLP190

CYYZ;2009-08-17 04:00;CYYZ 170400Z 17004KT 15SM SKC 25/20 A3010 RMK SLP189

CYYZ;2009-08-17 05:00;CYYZ 170500Z 14003KT 12SM FEW080 24/21 A3010 RMK AC1 SLP189

CYYZ;2009-08-17 06:00;CYYZ 170600Z 14002KT 12SM SKC 23/21 A3009 RMK SLP187

CYYZ;2009-08-17 07:00;CYYZ 170700Z 16004KT 12SM FEW110 23/21 A3008 RMK AC1 SLP184

CYYZ;2009-08-17 08:00;CYYZ 170800Z 14003KT 12SM FEW110 23/21 A3008 RMK AC2 SLP184

CYYZ;2009-08-17 09:00;CYYZ 170900Z 22005KT 12SM SKC 24/21 A3007 RMK SLP182

CYYZ;2009-08-17 10:00;CYYZ 171000Z 20003KT 10SM FEW110 23/21 A3008 RMK AC2 SLP184

CYYZ;2009-08-17 11:00;CYYZ 171100Z 23007KT 8SM SKC 23/21 A3008 RMK HZ SLP185

CYYZ;2009-08-17 12:00;CYYZ 171200Z 22004KT 12SM SKC 25/22 A3009 RMK SLP188

CYYZ;2009-08-17 13:00;CYYZ 171300Z 20008KT 12SM SKC 26/22 A3010 RMK SLP191

CYYZ;2009-08-17 14:00;CYYZ 171400Z 24011KT 12SM SKC 28/23 A3010 RMK SLP192

CYYZ;2009-08-17 15:00;CYYZ 171500Z 23015KT 15SM FEW230 29/22 A3011 RMK CI1 SLP194

CYYZ;2009-08-17 16:00;CYYZ 171600Z 25013G18KT 15SM FEW030 FEW120 30/23 A3011 RMK CU1AC1 AC TR SLP193

CYYZ;2009-08-17 17:00;CYYZ 171700Z 26014KT 15SM SCT045 SCT110 30/22 A3010 RMK CU3AC1 TCU ASOCTD SLP190

CYYZ;2009-08-17 18:00;CYYZ 171800Z 25015KT 15SM BKN060 BKN100 31/22 A3008 RMK CU5AC2 TCU ASOCTD SLP183

CYYZ;2009-08-17 19:00;CYYZ 171900Z 22019KT 15SM SCT055 BKN100 BKN230 31/20 A3006 RMK CU4AC2CI1 TCU ASOCTD SLP176

CYYZ;2009-08-17 20:00;CYYZ 172000Z 26010G15KT 15SM FEW060 SCT070 BKN110 BKN220 30/21 A3005 RMK CU2AC2AC2CI1 TCU ASOCTD SLP172

CYYZ;2009-08-17 21:00;CYYZ 172100Z 20010KT 15SM FEW055 FEW120 SCT220 30/20 A3004 RMK CU2AC1CI1 SLP168

CYYZ;2009-08-17 22:00;CYYZ 172200Z 22016KT 15SM FEW055 FEW190 SCT220 30/21 A3002 RMK CU2AC1CI1 SLP164

CYYZ;2009-08-17 23:00;CYYZ 172300Z 23012KT 12SM FEW055 SCT240 29/20 A3001 RMK CU2CI1 SLP161

CYYZ;2009-08-18 00:00;CYYZ 180000Z 23011KT 12SM FEW055 FEW150 SCT240 29/20 A3001 RMK CU1AC2CI1 CU TR SLP160

CYYZ;2009-08-18 01:00;CYYZ 180100Z 23007KT 12SM FEW150 SCT240 28/20 A3002 RMK AC1CI2 SLP162

CYYZ;2009-08-18 02:00;CYYZ 180200Z 21006KT 15SM FEW120 SCT250 27/20 A3002 RMK AC1CI1 AC TR SLP162

CYYZ;2009-08-18 03:00;CYYZ 180300Z 20006KT 15SM FEW064 BKN120 BKN240 27/20 A3001 RMK SC1AC4CI1 SC TR SLP161

CYYZ;2009-08-18 04:00;CYYZ 180400Z 22010KT 15SM FEW063 BKN110 BKN240 26/20 A3002 RMK SC1AC4CI1 SC TR SLP162

CYYZ;2009-08-18 05:00;CYYZ 180500Z 22007KT 15SM FEW063 BKN120 25/21 A3000 RMK SC2AC4 SLP157

CYYZ;2009-08-18 06:00;CYYZ 180600Z 22009KT 15SM BKN130 BKN240 25/21 A2999 RMK AC5CI1 SLP154

CYYZ;2009-08-18 07:00;CYYZ 180700Z 23009KT 15SM FEW053 BKN140 BKN250 24/20 A2998 RMK SC2AC3CI1 SLP150

CYYZ;2009-08-18 07:38;CYYZ 180738Z 24011KT 12SM -SHRA FEW038 OVC085 24/ RMK SC2AC6

CYYZ;2009-08-18 08:00;CYYZ 180800Z 24007KT 12SM -SHRA FEW042 OVC100 23/21 A2998 RMK SC2AC6 SLP148

CYYZ;2009-08-18 08:35;CYYZ 180835Z 22009KT 15SM FEW045 BKN090 23/ RMK SC2AC6

CYYZ;2009-08-18 09:00;CYYZ 180900Z 20008KT 15SM FEW025 OVC110 23/22 A2997 RMK SC2AC6 SLP145

CYYZ;2009-08-18 10:00;CYYZ 181000Z 22007KT 15SM SCT140 BKN160 23/21 A2995 RMK AC4AC2 SLP138

CYYZ;2009-08-18 11:00;CYYZ 181100Z 22007KT 15SM BKN120 BKN140 23/21 A2995 RMK AC5AC2 SLP140

CYYZ;2009-08-18 12:00;CYYZ 181200Z 24012KT 15SM FEW025 FEW100 BKN130 23/21 A2996 RMK CF1AC2AC6 SLP143

CYYZ;2009-08-18 13:00;CYYZ 181300Z 23010KT 15SM FEW025 FEW110 BKN140 24/21 A2995 RMK CF1AC1AC6 SLP141

CYYZ;2009-08-18 14:00;CYYZ 181400Z 24012KT 15SM FEW018 FEW100 BKN140 24/21 A2995 RMK CF1AC2AC6 SLP140

CYYZ;2009-08-18 15:00;CYYZ 181500Z 23010G15KT 15SM FEW020 BKN060 BKN120 24/21 A2995 RMK SC1SC5AC2 SLP141

CYYZ;2009-08-18 16:00;CYYZ 181600Z 24010G17KT 15SM SCT020 BKN055 BKN140 25/21 A2994 RMK CU4SC2AC1 SLP136

CYYZ;2009-08-18 17:00;CYYZ 181700Z 24013KT 15SM SCT025 BKN045 BKN270 26/22 A2992 RMK SC3SC2CI0 SLP131

CYYZ;2009-08-18 18:00;CYYZ 181800Z 23014KT 15SM BKN030 BKN065 BKN270 28/21 A2991 RMK SC5SC1CI0 CU ASOCTD SLP126

CYYZ;2009-08-18 19:00;CYYZ 181900Z 27012G17KT 15SM FEW030CB BKN055 BKN270 27/21 A2989 RMK CB2SC4CI0 SLP119

CYYZ;2009-08-18 20:00;CYYZ 182000Z 25013KT 15SM SCT040 SCT260 29/21 A2988 RMK CU4CI1 CB S SLP116

CYYZ;2009-08-18 21:00;CYYZ 182100Z 27013G22KT 15SM FEW045 BKN100 28/20 A2988 RMK CU2AC6 CB S SLP114

CYYZ;2009-08-18 22:00;CYYZ 182200Z 27014G21KT 15SM FEW048 28/19 A2988 RMK CU2 CB ASOCTD SLP114

CYYZ;2009-08-18 23:00;CYYZ 182300Z 28014G20KT 15SM FEW051 SCT260 28/18 A2987 RMK CU2CI1 SLP113

CYYZ;2009-08-19 00:00;CYYZ 190000Z 27008KT 15SM FEW045 FEW120 SCT260 26/19 A2988 RMK CU1AC2CI0 SLP116

CYYZ;2009-08-19 01:00;CYYZ 190100Z 25005KT 15SM FEW045 FEW260 24/19 A2989 RMK CF1CI1 CF TR SLP121

CYYZ;2009-08-19 02:00;CYYZ 190200Z 25006KT 15SM FEW035 FEW260 24/19 A2990 RMK SC1CI0 SLP123

CYYZ;2009-08-19 03:00;CYYZ 190300Z 26005KT 15SM SCT052 BKN260 23/19 A2990 RMK SC3CI1 SLP122

CYYZ;2009-08-19 04:00;CYYZ 190400Z 24007KT 15SM FEW048 SCT064 24/20 A2991 RMK SC2SC2 SLP126

CYYZ;2009-08-19 05:00;CYYZ 190500Z 28009KT 15SM FEW061 23/19 A2992 RMK SC2 SLP129

CYYZ;2009-08-19 06:00;CYYZ 190600Z 29007KT 15SM FEW051 21/17 A2993 RMK SC1 SLP133

CYYZ;2009-08-19 07:00;CYYZ 190700Z 34010G16KT 15SM FEW220 20/15 A2993 RMK CI1 SLP134

CYYZ;2009-08-19 08:00;CYYZ 190800Z 33009KT 15SM FEW220 19/13 A2995 RMK CI2 SLP138

CYYZ;2009-08-19 09:00;CYYZ 190900Z 32007KT 15SM FEW210 18/13 A2994 RMK CI2 SLP138

CYYZ;2009-08-19 10:00;CYYZ 191000Z 31005KT 15SM SCT190 BKN220 18/13 A2995 RMK AC3CI2 SLP141

CYYZ;2009-08-19 11:00;CYYZ 191100Z 27003KT 15SM BKN230 BKN270 18/14 A2997 RMK CS7CI1 SLP148

CYYZ;2009-08-19 12:00;CYYZ 191200Z 24004KT 15SM BKN210 19/16 A2998 RMK CS7 SLP150

CYYZ;2009-08-19 13:00;CYYZ 191300Z 26002KT 15SM FEW190 BKN220 20/15 A2998 RMK AC1CS7 SLP150

CYYZ;2009-08-19 14:00;CYYZ 191400Z 30004KT 15SM FEW170 BKN230 21/14 A3000 RMK AC1CS4 SLP158

CYYZ;2009-08-19 15:00;CYYZ 191500Z 30006KT 15SM FEW040 FEW170 FEW220 23/13 A3000 RMK CF1AC1CS1 SLP157

CYYZ;2009-08-19 16:00;CYYZ 191600Z 28006KT 15SM FEW040 FEW170 24/14 A3000 RMK CF1AC1 SLP157

CYYZ;2009-08-19 17:00;CYYZ 191700Z 33005KT 15SM FEW045 FEW170 25/13 A2999 RMK CF1AC1 SLP155

CYYZ;2009-08-19 18:00;CYYZ 191800Z 21006KT 15SM FEW045 FEW250 26/15 A2999 RMK CF1CI1 SLP153

CYYZ;2009-08-19 19:00;CYYZ 191900Z 12007G15KT 15SM FEW055 FEW250 25/15 A2997 RMK CF1CI1 SLP148

CYYZ;2009-08-19 20:00;CYYZ 192000Z 14007KT 15SM FEW055 FEW260 26/16 A2995 RMK CF1CI1 SLP140

CYYZ;2009-08-19 21:00;CYYZ 192100Z 15009KT 15SM FEW050 FEW250 25/15 A2994 RMK CF1CI1 SLP136

CYYZ;2009-08-19 22:00;CYYZ 192200Z 17007KT 15SM FEW050 FEW250 25/15 A2993 RMK CF1CI0 SLP133

CYYZ;2009-08-19 23:00;CYYZ 192300Z 17007KT 15SM FEW050 FEW250 25/15 A2991 RMK CU1CI0 CONTRAILS SLP128

CYYZ;2009-08-20 00:00;CYYZ 200000Z 18006KT 15SM FEW050 FEW070 SCT250 24/15 A2993 RMK SC1AC1CI2 SLP134

CYYZ;2009-08-20 01:00;CYYZ 200100Z 17004KT 15SM FEW050 FEW250 23/15 A2994 RMK SC1CI1 SLP136

CYYZ;2009-08-20 02:00;CYYZ 200200Z 15006KT 15SM FEW050 SCT250 22/15 A2993 RMK SC1CI1 SC TR SLP133

CYYZ;2009-08-20 03:00;CYYZ 200300Z 16004KT 15SM FEW050 FEW250 22/17 A2992 RMK SC1CI0 SLP131

CYYZ;2009-08-20 04:00;CYYZ 200400Z 15004KT 15SM BKN250 21/16 A2991 RMK CI2 SLP128

CYYZ;2009-08-20 05:00;CYYZ 200500Z 13005KT 15SM BKN250 21/16 A2990 RMK CI3 SLP124

CYYZ;2009-08-20 06:00;CYYZ 200600Z 13007KT 15SM BKN043 BKN250 22/16 A2988 RMK SC5CI0 SLP115

CYYZ;2009-08-20 07:00;CYYZ 200700Z 13007KT 15SM FEW036 SCT140 BKN250 21/18 A2985 RMK SC1AC2CI0 SLP106

CYYZ;2009-08-20 08:00;CYYZ 200800Z 12006KT 15SM FEW046 BKN130 BKN250 21/18 A2983 RMK SC2AC3CI0 SLP100

CYYZ;2009-08-20 09:00;CYYZ 200900Z 12006KT 15SM FEW032 SCT042 BKN120 BKN190 22/19 A2981 RMK SC1SC2AC2AC1 SLP094

CYYZ;2009-08-20 10:00;CYYZ 201000Z 13005KT 15SM SCT018 BKN065 BKN140 22/18 A2981 RMK SC3SC2AC2 SLP094

CYYZ;2009-08-20 11:00;CYYZ 201100Z 12004KT 15SM FEW030 BKN140 22/19 A2981 RMK SC1AC6 SLP094

CYYZ;2009-08-20 12:00;CYYZ 201200Z 15005KT 12SM FEW016 BKN085 BKN150 23/21 A2981 RMK SF1AC4AC2 SLP094

CYYZ;2009-08-20 13:00;CYYZ 201300Z 19006KT 12SM FEW010 FEW050 BKN150 24/21 A2982 RMK SF1SC1AC6 SLP097

CYYZ;2009-08-20 14:00;CYYZ 201400Z 17009KT 15SM FEW021 BKN140 24/22 A2981 RMK SF2AC5 SLP094

CYYZ;2009-08-20 15:00;CYYZ 201500Z 21010KT 15SM BKN022 BKN110 26/21 A2981 RMK CU4AC0 SLP094

CYYZ;2009-08-20 16:00;CYYZ 201600Z 18006KT 15SM BKN028 BKN160 27/22 A2980 RMK SC7AC1 CU ASOCTD SLP091

CYYZ;2009-08-20 17:00;CYYZ 201700Z 17014KT 15SM SCT030 SCT090 27/22 A2978 RMK CU3AC1 TCU ASOCTD SLP084

CYYZ;2009-08-20 18:00;CYYZ 201800Z 17011G20KT 15SM FEW025 BKN270 29/22 A2977 RMK CU2CI3 SLP077

CYYZ;2009-08-20 19:00;CYYZ 201900Z 16014G19KT 15SM SCT026 BKN043 BKN270 28/23 A2975 RMK CU3SC2CI0 TCU ASOCTD SLP071

CYYZ;2009-08-20 20:00;CYYZ 202000Z 16012G18KT 15SM FEW025 BKN046 BKN079 BKN270 28/22 A2972 RMK CU2SC2AC1CI0 TCU ASOCTD SLP062

CYYZ;2009-08-20 21:00;CYYZ 202100Z 16014G20KT 15SM FEW036 BKN056TCU BKN083 28/22 A2967 RMK SC2TCU2AC1 TCU NE SW PRESFR SLP043

CYYZ;2009-08-20 21:26;CYYZ 202126Z 15012G19KT 15SM -SHRA FEW036 BKN054 BKN083 27/ RMK SC2SC3AC2 TCU EMBD

CYYZ;2009-08-20 21:39;CYYZ 202139Z 15011G18KT 12SM -TSRA SCT032 BKN056 BKN070 25/ RMK SC3SC3AC1 CB EMBD W LTGCG W VIS LWR NW

CYYZ;2009-08-20 22:00;CYYZ 202200Z 17014G19KT 15SM TS FEW034 BKN050 BKN110 27/22 A2964 RMK SC2SC3AC1 CB EMBD N SLP033

CYYZ;2009-08-20 22:09;CYYZ 202209Z CCA 19012G18KT 12SM -TSRA SCT035 BKN058CB BKN110 27/ RMK SC3CB3AC1 OCNL LTGICCG W

CYYZ;2009-08-20 22:31;CYYZ 202231Z 18012G17KT 12SM TS FEW012 SCT042 BKN056CB BKN120 27/ RMK SF1SC3CB3AC1 SF TR OCNL LTGCG W-N

CYYZ;2009-08-20 22:50;CYYZ 202250Z 23025G44KT 1 1/2SM +TSRA FEW022 OVC033CB 27/ RMK SC2CB6 CB OVRHD MOVG E

CYYZ;2009-08-20 23:00;CYYZ 202300Z 25026G34KT 3SM TSRA SCT004 BKN012 OVC029CB 21/21 A2969 RERA RMK SF3SC2CB3 CB OVRHD WND ESTD SLP050

CYYZ;2009-08-20 23:30;CYYZ 202330Z 25014KT 8SM TSRA FEW022 BKN036CB OVC052 21/ RMK SC2CB2SC3 CB MOVG E WND ESTD

CYYZ;2009-08-21 00:00;CYYZ 210000Z 20006KT 15SM FEW012 SCT032 BKN130 22/21 A2969 RETSRA RMK SC1SC3AC3 WND ESTD /R25/ SLP051

CYYZ;2009-08-21 01:00;CYYZ 210100Z 20007KT 15SM FEW030 OVC140 23/21 A2970 RMK SC1AC7 SLP056

CYYZ;2009-08-21 02:00;CYYZ 210200Z 20007KT 15SM FEW012 BKN140 23/22 A2971 RMK SC1AC6 SLP057

CYYZ;2009-08-21 03:00;CYYZ 210300Z 20008KT 15SM FEW012 BKN140 23/22 A2973 RMK SC1AC4 SLP064

CYYZ;2009-08-21 04:00;CYYZ 210400Z 20008KT 15SM FEW012 23/22 A2974 RMK SC2 SLP068

CYYZ;2009-08-21 05:00;CYYZ 210500Z 19008KT 15SM FEW012 BKN140 22/21 A2975 RMK SC1AC3 SLP071

CYYZ;2009-08-21 06:00;CYYZ 210600Z 21009KT 15SM FEW012 SCT240 22/21 A2974 RMK SC1CI2 SLP067

CYYZ;2009-08-21 07:00;CYYZ 210700Z 21008KT 15SM BKN040 BKN080 22/21 A2973 RMK SC5AC2 SLP064

CYYZ;2009-08-21 08:00;CYYZ 210800Z CCA 20008KT 15SM BKN040 BKN080 22/20 A2973 RMK SC5AC2 SLP065

CYYZ;2009-08-21 08:40;CYYZ 210840Z 21009KT 15SM -SHRA BKN030 OVC080 22/ RMK SC6AC2 CEILING ESTIMATED

CYYZ;2009-08-21 09:00;CYYZ 210900Z 21008KT 15SM SCT030 BKN080 22/21 A2973 RMK SC4AC2 SLP066

CYYZ;2009-08-21 10:00;CYYZ 211000Z 20005KT 15SM FEW030 BKN050 22/20 A2973 RMK SC2SC4 CEILING ESTIMATED SLP064

CYYZ;2009-08-21 11:00;CYYZ 211100Z 20006KT 15SM SCT150 BKN190 BKN240 22/18 A2974 RMK AC3AC2CI1 SLP069

CYYZ;2009-08-21 12:00;CYYZ 211200Z 22007KT 15SM FEW040 SCT150 BKN180 22/18 A2975 RMK CU2AC2AC3 SLP072

CYYZ;2009-08-21 13:00;CYYZ 211300Z 23007KT 15SM FEW040 SCT150 BKN180 22/17 A2975 RMK CU2AC2AC2 SLP073

CYYZ;2009-08-21 14:00;CYYZ 211400Z 23010KT 15SM FEW040 SCT190 23/18 A2977 RMK CU2AC2 SLP078

CYYZ;2009-08-21 15:00;CYYZ 211500Z 22014G19KT 15SM FEW035 SCT190 25/18 A2976 RMK CU2AC2 TCU ASOCTD SLP075

CYYZ;2009-08-21 16:00;CYYZ 211600Z 18010G17KT 15SM SCT041 25/20 A2976 RMK CU4 SLP074

CYYZ;2009-08-21 17:00;CYYZ 211700Z 23017G25KT 15SM SCT045 SCT180 26/17 A2974 RMK CU3AC1 TCU ASOCTD SLP069

CYYZ;2009-08-21 18:00;CYYZ 211800Z 22016G21KT 15SM BKN056 26/17 A2973 RMK CU5 TCU ASOCTD SLP065

CYYZ;2009-08-21 19:00;CYYZ 211900Z 22022G27KT 15SM SCT055 27/16 A2972 RMK CU4 SLP063

CYYZ;2009-08-21 20:00;CYYZ 212000Z 23020G27KT 15SM SCT052 SCT240 26/15 A2972 RMK CU3CI1 SLP062

CYYZ;2009-08-21 21:00;CYYZ 212100Z 25016G26KT 15SM FEW051 SCT240 25/16 A2972 RMK CU2CI1 SLP061

CYYZ;2009-08-21 22:00;CYYZ 212200Z 24016KT 15SM FEW045 SCT240 25/15 A2974 RMK CU2CI1 SLP067

CYYZ;2009-08-21 23:00;CYYZ 212300Z 23012G17KT 15SM FEW045 FEW240 24/16 A2974 RMK CU2CI1 SLP070

CYYZ;2009-08-22 00:00;CYYZ 220000Z 21012KT 15SM FEW040 FEW080 24/16 A2976 RMK CU1AC1 SLP075

CYYZ;2009-08-22 01:00;CYYZ 220100Z 22010G15KT 15SM FEW040 FEW080 23/15 A2977 RMK SC1AC1 SLP081

CYYZ;2009-08-22 02:00;CYYZ 220200Z 21006KT 15SM SKC 22/15 A2979 RMK SLP087

CYYZ;2009-08-22 03:00;CYYZ 220300Z 21006KT 15SM FEW080 22/15 A2979 RMK AC1 SLP087

CYYZ;2009-08-22 04:00;CYYZ 220400Z 23011KT 15SM FEW110 22/16 A2979 RMK AC2 SLP086

CYYZ;2009-08-22 05:00;CYYZ 220500Z 20006KT 15SM FEW100 20/16 A2980 RMK AC2 SLP088

CYYZ;2009-08-22 06:00;CYYZ 220600Z 21003KT 15SM FEW050 SCT130 21/16 A2980 RMK SC1AC2 SLP090

CYYZ;2009-08-22 07:00;CYYZ 220700Z 24004KT 15SM FEW085 BKN100 20/16 A2980 RMK AC2AC3 SLP088

CYYZ;2009-08-22 08:00;CYYZ 220800Z 27004KT 15SM FEW090 BKN100 20/17 A2980 RMK AC2AC3 SLP089

CYYZ;2009-08-22 09:00;CYYZ 220900Z 26002KT 15SM FEW095 19/16 A2980 RMK AC2 SLP091

CYYZ;2009-08-22 10:00;CYYZ 221000Z 27004KT 15SM FEW095 18/16 A2982 RMK AC2 SLP097

CYYZ;2009-08-22 11:00;CYYZ 221100Z 24002KT 15SM FEW090 FEW240 19/16 A2983 RMK AC2CI1 SLP098

CYYZ;2009-08-22 12:00;CYYZ 221200Z 32003KT 15SM FEW024 FEW100 BKN250 19/17 A2983 RMK SC1AC2CI0 SLP102

CYYZ;2009-08-22 13:00;CYYZ 221300Z 01006KT 15SM FEW024 BKN100 20/17 A2985 RMK SC2AC4 SLP107

CYYZ;2009-08-22 14:00;CYYZ 221400Z 03004KT 15SM SCT036 BKN098 OVC120 21/17 A2985 RMK SC3AC2AC2 SLP108

CYYZ;2009-08-22 15:00;CYYZ 221500Z 07003KT 15SM FEW032 SCT081 OVC100 22/17 A2986 RMK SC2AC2AC4 SLP109

CYYZ;2009-08-22 16:00;CYYZ 221600Z 13003KT 15SM FEW026 BKN099 22/18 A2986 RMK SC2AC4 SLP109

CYYZ;2009-08-22 17:00;CYYZ 221700Z 00000KT 15SM FEW024 BKN032 BKN100 23/18 A2984 RMK SC2SC3AC2 TCU EMBD SW SLP105

CYYZ;2009-08-22 17:24;CYYZ 221724Z 15005KT 15SM -SHRA FEW028TCU BKN036 BKN087 BKN240 23/ RMK TCU2SC2AC2CI0

CYYZ;2009-08-22 18:00;CYYZ 221800Z 17005KT 15SM -SHRA FEW032TCU SCT042 BKN054 OVC120 23/18 A2984 RMK TCU2SC2SC2AC2 TCU W-N PCPN VRY LGT SLP105

CYYZ;2009-08-22 18:23;CYYZ 221823Z 19006KT 15SM FEW036TCU BKN056 BKN120 23/ RMK TCU2SC2AC2 CB ASOCTD WNW NE

CYYZ;2009-08-22 19:00;CYYZ 221900Z 24006KT 15SM FEW032 SCT078 BKN130 23/19 A2984 RMK SC2AC2AC2 CB ASOCTD NE SLP103

CYYZ;2009-08-22 20:00;CYYZ 222000Z 31002KT 15SM FEW024 BKN130 24/19 A2983 RMK CU2AC3 TCU ASOCTD NNE SLP100

CYYZ;2009-08-22 21:00;CYYZ 222100Z 04008KT 15SM BKN027 BKN032 BKN120 22/17 A2983 RMK SC5CU1AC1 TCU ASOCTD NNE SLP101

CYYZ;2009-08-22 21:11;CYYZ 222111Z CCA 05006KT 15SM TS BKN027 BKN100 22/ RMK SC5AC2 CB EMBD OVRHD

CYYZ;2009-08-22 21:34;CYYZ 222134Z 35016KT 15SM -TSRA SCT015 BKN046CB BKN120 21/ RMK SC3CB3AC1 CB OVRHD MOVG SW

CYYZ;2009-08-22 22:00;CYYZ 222200Z 35016G21KT 12SM -TSRA SCT018 BKN056CB BKN078 OVC110 19/18 A2985 RMK SC3CB2AC2AC1 LTGICCG NW SLP108

CYYZ;2009-08-22 22:30;CYYZ 222230Z 36012G17KT 12SM -SHRA FEW018 SCT055CB BKN070 BKN110 19/ RETS RMK SF1CB3AC3AC1

CYYZ;2009-08-22 23:00;CYYZ 222300Z 36012G18KT 15SM -SHRA FEW018 FEW055CB BKN085 BKN110 19/17 A2986 RETS RMK SF1CB2AC5AC1 SLP109

CYYZ;2009-08-22 23:22;CYYZ 222322Z 34011KT 15SM FEW020 FEW050CB SCT080 BKN100 18/ RMK SF1CB1AC3AC2

CYYZ;2009-08-23 00:00;CYYZ 230000Z 35012KT 15SM FEW012 FEW050CB FEW080 FEW100 18/16 A2988 RMK SF1CB1AC1AC1 SLP118

CYYZ;2009-08-23 01:00;CYYZ 230100Z 35009G15KT 15SM FEW052 SCT080 17/16 A2989 RMK SC2AC1 SLP123

CYYZ;2009-08-23 02:00;CYYZ 230200Z 34011KT 15SM BKN039 17/16 A2991 RMK SC6 SLP127

CYYZ;2009-08-23 03:00;CYYZ 230300Z 36011KT 15SM SCT075 BKN082 17/15 A2992 RMK AC3AC2 SLP130

CYYZ;2009-08-23 04:00;CYYZ 230400Z 35010G15KT 15SM BKN035 17/15 A2991 RMK SC7 SLP128

CYYZ;2009-08-23 05:00;CYYZ 230500Z 36010G15KT 15SM FEW045 BKN090 17/15 A2990 RMK SC2AC6 SLP125

CYYZ;2009-08-23 06:00;CYYZ 230600Z 35010KT 15SM BKN088 17/15 A2989 RMK AC6 SLP123

CYYZ;2009-08-23 07:00;CYYZ 230700Z 34011KT 15SM FEW090 FEW110 17/16 A2989 RMK AC1AC1 SLP122

CYYZ;2009-08-23 08:00;CYYZ 230800Z 36008KT 15SM FEW090 17/16 A2989 RMK AC1 SLP123

CYYZ;2009-08-23 09:00;CYYZ 230900Z 35011KT 15SM FEW048 FEW068 17/16 A2990 RMK SC1AC2 SLP125

CYYZ;2009-08-23 10:00;CYYZ 231000Z 36010KT 15SM BKN025 BKN070 17/16 A2991 RMK SC6AC1 SLP127

CYYZ;2009-08-23 10:49;CYYZ 231049Z 36008KT 15SM SCT007 BKN036 BKN091 17/ RMK SF3SC2AC2

CYYZ;2009-08-23 11:00;CYYZ 231100Z 36008KT 15SM FEW007 SCT036 BKN079 17/16 A2992 RMK SF2SC2AC3 SLP131

CYYZ;2009-08-23 12:00;CYYZ 231200Z 36008KT 15SM FEW012 SCT034 BKN098 18/17 A2993 RMK SC1SC2AC2 SLP135

CYYZ;2009-08-23 13:00;CYYZ 231300Z 36011KT 15SM FEW014 BKN027 BKN093 19/17 A2994 RMK SC2SC4AC1 SLP140

CYYZ;2009-08-23 14:00;CYYZ 231400Z 36009KT 15SM SCT016 OVC023 19/17 A2996 RMK SC3SC5 SLP145

CYYZ;2009-08-23 15:00;CYYZ 231500Z 34009KT 15SM SCT016 OVC036 19/17 A2997 RMK SC3SC5 SLP149

CYYZ;2009-08-23 16:00;CYYZ 231600Z 35008KT 15SM SCT017 BKN043 BKN110 20/17 A2997 RMK SC3SC4AC1 CU ASOCTD SLP150

CYYZ;2009-08-23 17:00;CYYZ 231700Z 34012KT 15SM SCT020 BKN031 BKN087 21/17 A2997 RMK SC3SC4AC1 CU ASOCTD SLP149

CYYZ;2009-08-23 18:00;CYYZ 231800Z 33015KT 15SM FEW022 BKN053 BKN110 21/16 A2998 RMK CU1SC4AC2 SLP153

CYYZ;2009-08-23 19:00;CYYZ 231900Z 35013KT 15SM FEW026 SCT052 BKN100 20/16 A2998 RMK CU2SC2AC3 SLP153

CYYZ;2009-08-23 20:00;CYYZ 232000Z 36013G18KT 15SM SCT024 BKN110 22/16 A2998 RMK CU3AC2 SLP153

CYYZ;2009-08-23 21:00;CYYZ 232100Z 36013KT 15SM FEW026 FEW058 BKN140 21/16 A2999 RMK CU2SC1AC2 SLP155

CYYZ;2009-08-23 22:00;CYYZ 232200Z 35012G18KT 15SM FEW032 SCT140 20/15 A2999 RMK CU2AC1 TCU ASOCTD SLP154

CYYZ;2009-08-23 23:00;CYYZ 232300Z 01013KT 15SM FEW030 SCT140 19/14 A3000 RMK CU2AC2 TCU ASOCTD SLP157

CYYZ;2009-08-24 00:00;CYYZ 240000Z 35014KT 15SM FEW035 SCT100 18/14 A3001 RMK CU2AC2 TCU ASOCTD S SLP164

CYYZ;2009-08-24 01:00;CYYZ 240100Z 34012KT 15SM FEW035 FEW080 17/14 A3003 RMK CU1AC2 SLP169

CYYZ;2009-08-24 02:00;CYYZ 240200Z 34012KT 15SM FEW080 17/14 A3004 RMK AC1 SLP171

CYYZ;2009-08-24 03:00;CYYZ 240300Z 35010KT 15SM FEW090 16/13 A3004 RMK AC1 SLP174

CYYZ;2009-08-24 04:00;CYYZ 240400Z 34011KT 15SM SKC 16/13 A3006 RMK SLP179

CYYZ;2009-08-24 05:00;CYYZ 240500Z 31006KT 15SM FEW110 15/13 A3007 RMK AC1 SLP181

CYYZ;2009-08-24 06:00;CYYZ 240600Z 30007KT 15SM FEW046 SCT120 15/13 A3007 RMK SC2AC2 SLP184

CYYZ;2009-08-24 07:00;CYYZ 240700Z 32006KT 15SM FEW045 FEW120 15/13 A3007 RMK SC1AC1 SLP185

CYYZ;2009-08-24 08:00;CYYZ 240800Z 27002KT 15SM FEW050 FEW120 14/12 A3009 RMK SC1AC2 SLP189

CYYZ;2009-08-24 09:00;CYYZ 240900Z 31007KT 15SM FEW040 FEW100 14/12 A3009 RMK SC1AC2 SLP189

CYYZ;2009-08-24 10:00;CYYZ 241000Z 32006KT 15SM FEW030 FEW090 14/12 A3010 RMK SC2AC1 SLP192

CYYZ;2009-08-24 11:00;CYYZ 241100Z 31004KT 15SM BKN036 BKN100 15/13 A3011 RMK SC6AC1 SLP196

CYYZ;2009-08-24 12:00;CYYZ 241200Z 29005KT 15SM BKN038 BKN100 16/13 A3011 RMK SC5AC1 SLP198

CYYZ;2009-08-24 13:00;CYYZ 241300Z 31006KT 15SM BKN038 BKN100 17/14 A3013 RMK SC5AC1 SLP202

CYYZ;2009-08-24 14:00;CYYZ 241400Z 35004KT 15SM BKN038 18/15 A3013 RMK SC5 SLP205

CYYZ;2009-08-24 15:00;CYYZ 241500Z 32003KT 15SM FEW026 BKN039 19/15 A3014 RMK CU2SC5 SLP206

CYYZ;2009-08-24 16:00;CYYZ 241600Z 33003KT 15SM BKN026 BKN043 21/15 A3016 RMK SC5SC2 CU ASOCTD SLP212

CYYZ;2009-08-24 17:00;CYYZ 241700Z 31004KT 15SM SCT032 SCT046 BKN160 22/16 A3016 RMK CU3SC1AC2 SLP214

CYYZ;2009-08-24 18:00;CYYZ 241800Z 24002KT 15SM SCT042 BKN160 22/15 A3015 RMK CU4AC0 SLP209

CYYZ;2009-08-24 19:00;CYYZ 241900Z 23004KT 15SM BKN043 23/15 A3013 RMK CU5 SLP205

CYYZ;2009-08-24 20:00;CYYZ 242000Z 17011KT 15SM BKN046 23/17 A3013 RMK CU5 SLP202

CYYZ;2009-08-24 21:00;CYYZ 242100Z 00000KT 15SM SCT045 24/14 A3012 RMK CU3 SLP199

CYYZ;2009-08-24 22:00;CYYZ 242200Z 26007KT 15SM FEW045 24/13 A3011 RMK CU2 SLP195

CYYZ;2009-08-24 23:00;CYYZ 242300Z 24006KT 15SM BKN053 23/14 A3010 RMK CU5 SLP194

CYYZ;2009-08-25 00:00;CYYZ 250000Z 26009KT 15SM FEW050 21/14 A3011 RMK SC1 SLP197

CYYZ;2009-08-25 01:00;CYYZ 250100Z 28007KT 15SM FEW050 20/14 A3012 RMK SF1 SLP201

CYYZ;2009-08-25 02:00;CYYZ 250200Z 27006KT 15SM FEW045 18/14 A3014 RMK SC1 SLP206

CYYZ;2009-08-25 03:00;CYYZ 250300Z 31006KT 15SM SKC 18/14 A3014 RMK SLP208

CYYZ;2009-08-25 04:00;CYYZ 250400Z 28004KT 15SM SKC 18/14 A3014 RMK SLP208

CYYZ;2009-08-25 05:00;CYYZ 250500Z 30003KT 15SM SKC 18/14 A3015 RMK SLP209

CYYZ;2009-08-25 06:00;CYYZ 250600Z 29003KT 15SM SKC 16/14 A3015 RMK SLP209

CYYZ;2009-08-25 07:00;CYYZ 250700Z 31004KT 15SM SKC 16/14 A3015 RMK SLP209

CYYZ;2009-08-25 08:00;CYYZ 250800Z 29004KT 15SM SKC 15/13 A3015 RMK SLP210

CYYZ;2009-08-25 09:00;CYYZ 250900Z 00000KT 15SM SKC 15/13 A3016 RMK SLP215

CYYZ;2009-08-25 10:00;CYYZ 251000Z 31003KT 15SM FEW070 15/13 A3016 RMK AC1 SLP215

CYYZ;2009-08-25 11:00;CYYZ 251100Z 32003KT 12SM FEW250 16/14 A3017 RMK CI1 SLP218

CYYZ;2009-08-25 12:00;CYYZ 251200Z 00000KT 12SM FEW250 17/15 A3018 RMK CI1 SLP219

CYYZ;2009-08-25 13:00;CYYZ 251300Z 19005KT 15SM FEW250 20/16 A3016 RMK CI1 SLP213

CYYZ;2009-08-25 14:00;CYYZ 251400Z 23009KT 15SM FEW030 FEW260 21/16 A3013 RMK CU1CI0 SLP204

CYYZ;2009-08-25 15:00;CYYZ 251500Z 23008G16KT 15SM FEW031 23/17 A3013 RMK CU2 SLP201

CYYZ;2009-08-25 16:00;CYYZ 251600Z 24013G18KT 15SM SCT032 23/17 A3011 RMK CU4 SLP196

CYYZ;2009-08-25 17:00;CYYZ 251700Z 23009G18KT 15SM SCT039 25/17 A3009 RMK CU4 SLP188

CYYZ;2009-08-25 18:00;CYYZ 251800Z 22013G18KT 15SM FEW040 SCT260 25/17 A3006 RMK CU2CI1 SLP180

CYYZ;2009-08-25 19:00;CYYZ 251900Z 23015KT 15SM FEW041 BKN260 26/17 A3006 RMK CU2CI2 SLP180

CYYZ;2009-08-25 20:00;CYYZ 252000Z 22010G16KT 15SM FEW039 BKN260 25/17 A3002 RMK CF1CI2 SLP167

CYYZ;2009-08-25 21:00;CYYZ 252100Z 23012G19KT 15SM FEW035 BKN260 25/17 A3000 RMK CF1CI2 SLP159

CYYZ;2009-08-25 22:00;CYYZ 252200Z 23015KT 12SM FEW039 BKN260 25/17 A3000 RMK CF1CI2 SLP158

CYYZ;2009-08-25 23:00;CYYZ 252300Z 23011G19KT 15SM SCT270 24/17 A3000 RMK CI2 SLP158

CYYZ;2009-08-26 00:00;CYYZ 260000Z 22012KT 15SM BKN270 23/17 A2999 RMK CI3 SLP156

CYYZ;2009-08-26 01:00;CYYZ 260100Z 22010G16KT 15SM FEW170 BKN270 22/17 A2999 RMK AC1CI6 SLP156

CYYZ;2009-08-26 02:00;CYYZ 260200Z 24011KT 15SM BKN270 21/17 A3000 RMK CI3 SLP157

CYYZ;2009-08-26 03:00;CYYZ 260300Z 24010KT 15SM FEW170 21/17 A2999 RMK AC1 SLP154

CYYZ;2009-08-26 04:00;CYYZ 260400Z 24008KT 15SM FEW160 21/17 A2998 RMK AC2 SLP153

CYYZ;2009-08-26 05:00;CYYZ 260500Z 24005KT 15SM FEW065 FEW160 BKN200 20/17 A2997 RMK SC1AC1CI6 SLP149

CYYZ;2009-08-26 06:00;CYYZ 260600Z 24005KT 15SM FEW075 BKN210 20/17 A2996 RMK AC1CI2 SLP143

CYYZ;2009-08-26 07:00;CYYZ 260700Z 25006KT 15SM FEW080 BKN210 20/17 A2995 RMK AC1CI2 SLP142

CYYZ;2009-08-26 08:00;CYYZ 260800Z 25007KT 15SM BKN085 OVC190 20/17 A2995 RMK AC6AC2 SLP141

CYYZ;2009-08-26 09:00;CYYZ 260900Z 27005KT 15SM BKN080 OVC170 20/18 A2996 RMK AC7AC1 SLP144

CYYZ;2009-08-26 09:31;CYYZ 260931Z 26004KT 12SM -RA OVC090 20/ RMK AS8

CYYZ;2009-08-26 10:00;CYYZ 261000Z 28007KT 9SM -RA OVC078 20/19 A2997 RMK AS8 SLP146

CYYZ;2009-08-26 10:49;CYYZ 261049Z 28004KT 7SM BKN022 OVC042 20/ RMK SC6SC2

CYYZ;2009-08-26 11:00;CYYZ 261100Z 29005KT 8SM SCT014 BKN023 OVC045 20/19 A2997 RMK SF3SC2SC2 BR SLP148

CYYZ;2009-08-26 11:05;CYYZ 261105Z 36013KT 8SM -RA SCT012 BKN023 OVC045 19/ RMK SF3SC2SC2 WSHFT 1105 BR

CYYZ;2009-08-26 11:27;CYYZ 261127Z 35010KT 12SM BKN020 OVC042 19/ RMK SC6SC2

CYYZ;2009-08-26 11:41;CYYZ 261141Z 36010KT 10SM -RA BKN022 OVC042 19/ RMK SC6SC2

CYYZ;2009-08-26 12:00;CYYZ 261200Z 33011KT 10SM -RA BKN030 OVC045 18/17 A2999 RMK SC6SC2 SLP156

CYYZ;2009-08-26 13:00;CYYZ 261300Z 32012KT 4SM -RA BR SCT017 OVC042 17/16 A3001 RMK SC3SC5 SLP163

CYYZ;2009-08-26 13:38;CYYZ 261338Z 31008KT 12SM SCT025 BKN055 18/ RMK SC3SC3

CYYZ;2009-08-26 14:00;CYYZ 261400Z 30009KT 12SM FEW022 BKN058 BKN084 18/17 A3002 RMK CF2SC4AC1 SLP165

CYYZ;2009-08-26 15:00;CYYZ 261500Z 36009KT 15SM SCT025 BKN032 BKN085 21/17 A3003 RMK CU3SC2AC1 SLP168

CYYZ;2009-08-26 16:00;CYYZ 261600Z 35014KT 15SM SCT028 BKN034 BKN140 22/15 A3004 RMK CU3SC2AC1 SLP170

CYYZ;2009-08-26 17:00;CYYZ 261700Z 33014KT 15SM FEW030 SCT041 SCT120 22/15 A3004 RMK CU2SC2AC1 SLP173

CYYZ;2009-08-26 18:00;CYYZ 261800Z 33011G16KT 15SM FEW038 SCT120 22/16 A3004 RMK CU2AC2 SLP170

CYYZ;2009-08-26 19:00;CYYZ 261900Z 36017KT 15SM FEW039 FEW120 SCT240 22/13 A3005 RMK CU2AC1CI1 CI TR SLP174

CYYZ;2009-08-26 20:00;CYYZ 262000Z 36013KT 15SM FEW041 FEW120 SCT260 22/12 A3005 RMK CU2AC1CI1 CI TR SLP175

CYYZ;2009-08-26 21:00;CYYZ 262100Z 36015KT 15SM FEW041 FEW120 21/10 A3006 RMK CU2AC1 SLP178

CYYZ;2009-08-26 22:00;CYYZ 262200Z 34012G17KT 15SM FEW041 FEW120 FEW260 21/09 A3007 RMK CU1AC1CI1 AC TR SLP182

CYYZ;2009-08-26 23:00;CYYZ 262300Z 35013KT 15SM FEW041 FEW120 FEW260 20/11 A3008 RMK CU1AC1CI1 AC TR SLP185

CYYZ;2009-08-27 00:00;CYYZ 270000Z 35013KT 15SM FEW040 FEW120 FEW240 19/12 A3010 RMK CU1AC1CI1 AC TR SLP192

CYYZ;2009-08-27 01:00;CYYZ 270100Z 35013KT 15SM FEW100 SCT240 17/11 A3010 RMK AC1CI1 AC TR SLP195

CYYZ;2009-08-27 02:00;CYYZ 270200Z 34012KT 15SM FEW240 16/10 A3012 RMK CI1 SLP201

CYYZ;2009-08-27 03:00;CYYZ 270300Z 35012KT 15SM FEW230 15/10 A3012 RMK CI1 SLP201

CYYZ;2009-08-27 04:00;CYYZ 270400Z 35010KT 15SM FEW230 15/10 A3013 RMK CI1 SLP204

CYYZ;2009-08-27 05:00;CYYZ 270500Z 36010G15KT 15SM FEW230 14/10 A3013 RMK CI1 SLP205

CYYZ;2009-08-27 06:00;CYYZ 270600Z 36008KT 15SM FEW250 14/10 A3013 RMK CI1 SLP205

CYYZ;2009-08-27 07:00;CYYZ 270700Z 02006KT 15SM FEW250 14/10 A3014 RMK CI1 SLP207

CYYZ;2009-08-27 08:00;CYYZ 270800Z 01006KT 15SM FEW120 SCT250 12/09 A3014 RMK AC2CI1 SLP207

CYYZ;2009-08-27 09:00;CYYZ 270900Z 02008KT 15SM FEW120 SCT250 12/08 A3016 RMK AC1CI1 SLP213

CYYZ;2009-08-27 10:00;CYYZ 271000Z 02006KT 15SM FEW120 SCT250 12/08 A3016 RMK AC1CI2 SLP213

CYYZ;2009-08-27 11:00;CYYZ 271100Z 05005KT 15SM FEW180 BKN250 13/06 A3017 RMK AC2CI2 SLP217

CYYZ;2009-08-27 12:00;CYYZ 271200Z 06006KT 15SM FEW190 BKN250 15/06 A3019 RMK AC2CI2 SLP224

CYYZ;2009-08-27 13:00;CYYZ 271300Z 04005KT 15SM FEW190 BKN250 16/08 A3019 RMK AC2CI2 SLP225

CYYZ;2009-08-27 14:00;CYYZ 271400Z 06007KT 15SM FEW190 BKN260 17/07 A3019 RMK AC2CI3 SLP224

CYYZ;2009-08-27 15:00;CYYZ 271500Z 07005KT 15SM FEW190 BKN260 19/07 A3019 RMK AC2CI2 SLP224

CYYZ;2009-08-27 16:00;CYYZ 271600Z 10005KT 15SM FEW190 BKN260 19/07 A3019 RMK AC2CI2 SLP224

CYYZ;2009-08-27 17:00;CYYZ 271700Z 18005KT 15SM FEW190 BKN250 20/10 A3018 RMK AC2CI2 SLP221

CYYZ;2009-08-27 18:00;CYYZ 271800Z 16006KT 15SM FEW045 FEW190 BKN250 20/10 A3017 RMK CU1AC2CI2 SLP217

CYYZ;2009-08-27 19:00;CYYZ 271900Z 18008KT 15SM FEW045 SCT180 BKN250 20/09 A3016 RMK CU1AC3CI2 SLP215

CYYZ;2009-08-27 20:00;CYYZ 272000Z 13005KT 15SM FEW045 SCT190 BKN240 20/09 A3015 RMK CU1AC3CI2 SLP212

CYYZ;2009-08-27 21:00;CYYZ 272100Z 14005KT 15SM SCT180 BKN240 20/09 A3014 RMK AC3CI2 SLP208

CYYZ;2009-08-27 22:00;CYYZ 272200Z 16007KT 15SM FEW190 BKN230 19/09 A3015 RMK AC2CI3 SLP211

CYYZ;2009-08-27 23:00;CYYZ 272300Z 14004KT 15SM FEW180 BKN210 19/09 A3016 RMK AC2CI3 SLP213

CYYZ;2009-08-28 00:00;CYYZ 280000Z CCA 13003KT 15SM FEW180 BKN210 18/09 A3016 RMK AC2CI3 SLP215

CYYZ;2009-08-28 01:00;CYYZ 280100Z 11003KT 15SM FEW180 BKN200 18/08 A3017 RMK AC2CI2 SLP218

CYYZ;2009-08-28 02:00;CYYZ 280200Z 09004KT 15SM SCT170 BKN200 18/09 A3018 RMK AC3CI2 SLP220

CYYZ;2009-08-28 03:00;CYYZ 280300Z 08003KT 15SM BKN170 BKN200 18/10 A3018 RMK AC5CI2 SLP219

CYYZ;2009-08-28 04:00;CYYZ 280400Z 07003KT 15SM OVC150 18/09 A3016 RMK AC8 SLP215

CYYZ;2009-08-28 05:00;CYYZ 280500Z 05003KT 15SM FEW090 OVC160 17/10 A3017 RMK AC2AC6 SLP217

CYYZ;2009-08-28 06:00;CYYZ 280600Z 03004KT 15SM BKN160 OVC170 16/11 A3016 RMK AC5AC3 SLP214

CYYZ;2009-08-28 07:00;CYYZ 280700Z 03005KT 15SM BKN190 OVC200 16/12 A3014 RMK AC6CI2 SLP208

CYYZ;2009-08-28 08:00;CYYZ 280800Z 04005KT 15SM SCT160 OVC170 16/11 A3013 RMK AC4AC4 SLP204

CYYZ;2009-08-28 09:00;CYYZ 280900Z 05003KT 15SM FEW180 SCT190 BKN240 15/10 A3014 RMK AC2AC2CI2 SLP206

CYYZ;2009-08-28 10:00;CYYZ 281000Z 02005KT 15SM FEW150 BKN240 14/10 A3014 RMK AC2CI2 SLP208

CYYZ;2009-08-28 11:00;CYYZ 281100Z 05004KT 15SM SCT031 BKN160 BKN250 15/10 A3015 RMK SC3AC2CI1 SLP210

CYYZ;2009-08-28 12:00;CYYZ 281200Z 08006KT 15SM SCT033 BKN160 BKN250 16/11 A3014 RMK SC3AC2CI1 SLP208

CYYZ;2009-08-28 13:00;CYYZ 281300Z 09007KT 15SM FEW035 SCT160 BKN230 17/13 A3012 RMK SC2AC2CI2 SLP201

CYYZ;2009-08-28 14:00;CYYZ 281400Z 09009KT 15SM FEW031 SCT036 BKN210 18/14 A3011 RMK CU2SC2CI2 SLP196

CYYZ;2009-08-28 15:00;CYYZ 281500Z 09013KT 15SM FEW022 BKN029 BKN210 18/14 A3011 RMK CU2SC3CI1 SLP198

CYYZ;2009-08-28 16:00;CYYZ 281600Z 11012G20KT 15SM FEW025 BKN031 BKN110 19/14 A3011 RMK CU2SC2AC2 SLP197

CYYZ;2009-08-28 17:00;CYYZ 281700Z 09012G20KT 15SM FEW025 SCT035 BKN130 OVC220 19/11 A3010 RMK CU2SC2AC3CI1 SLP192

CYYZ;2009-08-28 18:00;CYYZ 281800Z 08012G21KT 15SM FEW035 SCT084 OVC100 18/11 A3009 RMK SC2AC2AC5 SLP189

CYYZ;2009-08-28 18:14;CYYZ 281814Z 08013G19KT 15SM -SHRA FEW035 SCT093 OVC120 18/ RMK SC1AC3AC4

CYYZ;2009-08-28 18:33;CYYZ 281833Z 09012G20KT 15SM FEW035 SCT088 OVC110 18/ RMK SC1AC3AC4

CYYZ;2009-08-28 19:00;CYYZ 281900Z 09014G19KT 15SM FEW035 SCT085 BKN120 18/11 A3006 RMK SC1AC3AC3 SLP179

CYYZ;2009-08-28 20:00;CYYZ 282000Z 08011G19KT 15SM SCT075 BKN110 OVC220 18/11 A3004 RMK AC3AC3CI2 SLP174

CYYZ;2009-08-28 21:00;CYYZ 282100Z 08010G20KT 15SM SCT041 BKN075 OVC110 18/10 A3002 RMK SC3AC3AC2 SLP166

CYYZ;2009-08-28 22:00;CYYZ 282200Z 08014G20KT 15SM SCT042 BKN098 OVC140 18/10 A2999 RMK SC3AC2AC2 SLP157

CYYZ;2009-08-28 23:00;CYYZ 282300Z 09014KT 15SM OVC044 18/09 A2997 RMK SC8 SLP149

CYYZ;2009-08-29 00:00;CYYZ 290000Z 09010G18KT 15SM OVC040 18/11 A2995 RMK SC8 SLP143

CYYZ;2009-08-29 01:00;CYYZ 290100Z 09013G19KT 15SM OVC035 19/12 A2994 RMK SC8 SLP138

CYYZ;2009-08-29 02:00;CYYZ 290200Z 09015G21KT 15SM FEW025 OVC033 19/13 A2991 RMK SF1SC7 SLP128

CYYZ;2009-08-29 02:53;CYYZ 290253Z 08013G18KT 15SM -RA OVC020 18/ RMK SC8

CYYZ;2009-08-29 03:00;CYYZ 290300Z 08014G19KT 15SM -RA OVC019 18/14 A2988 RMK SC8 SLP119

CYYZ;2009-08-29 04:00;CYYZ 290400Z 08010G18KT 7SM -RA OVC017 16/15 A2985 RERA RMK SC8 SLP108

CYYZ;2009-08-29 05:00;CYYZ 290500Z 07013KT 8SM +RA FEW010 BKN030 OVC040 15/14 A2982 RMK SF1SC6SC2 SLP097

CYYZ;2009-08-29 05:46;CYYZ 290546Z 09011G16KT 12SM -RA OVC007 15/ RERA RMK SC8

CYYZ;2009-08-29 06:00;CYYZ 290600Z CCA 08013KT 8SM +RA OVC007 15/15 A2977 RMK SC8 PRESFR /R11/ SLP082

CYYZ;2009-08-29 06:29;CYYZ 290629Z 09013G18KT 2SM +SHRA OVC006 15/ RMK NS8 PRESFR CB EMBD

CYYZ;2009-08-29 06:38;CYYZ 290638Z 07010G19KT 4SM SHRA OVC005 15/ RERA RMK NS8

CYYZ;2009-08-29 06:51;CYYZ 290651Z 07007KT 4SM +TSRA OVC005 15/ RMK SF8 CB EMBD

CYYZ;2009-08-29 07:00;CYYZ 290700Z 08012KT 8SM -TSRA BKN005 OVC009 16/15 A2974 RERA RMK SF6SF2 CB EMBD SLP071

CYYZ;2009-08-29 07:23;CYYZ 290723Z 08007KT 8SM -SHRA OVC004 16/ RETSRA RMK SF8

CYYZ;2009-08-29 07:49;CYYZ 290749Z 09010KT 12SM -RA FEW004 OVC018 16/ RETSRA RMK SF1SC7

CYYZ;2009-08-29 08:00;CYYZ 290800Z CCA 09008KT 15SM -RA FEW004 OVC015 16/16 A2971 RETSRA RMK SF1SC7 SLP062

CYYZ;2009-08-29 08:15;CYYZ 290815Z 11003KT 8SM -SHRA OVC004 16/ RMK SF8

CYYZ;2009-08-29 08:54;CYYZ 290854Z 07004KT 12SM -SHRA OVC003 16/ RERA RMK SF8

CYYZ;2009-08-29 09:00;CYYZ 290900Z 08002KT 12SM -SHRA OVC003 16/16 A2971 RERA RMK SF8 /R10/ SLP059

CYYZ;2009-08-29 09:52;CYYZ 290952Z 04002KT 10SM OVC003 17/ RMK ST8

CYYZ;2009-08-29 10:00;CYYZ 291000Z 03003KT 10SM OVC003 17/17 A2968 RMK ST8 SLP052

CYYZ;2009-08-29 10:42;CYYZ 291042Z 09002KT 4SM BR OVC002 17/ RMK ST8

CYYZ;2009-08-29 11:00;CYYZ 291100Z 08003KT 1 1/4SM BR OVC002 17/17 A2966 RMK FG2ST6 SLP045

CYYZ;2009-08-29 11:13;CYYZ 291113Z CCA 10003KT 3/4SM R05/P6000FT/D R06L/P6000FT/D BR OVC002 17/ RMK FG3ST5 RWY 15R 4600FTVP6000FT D

CYYZ;2009-08-29 11:34;CYYZ 291134Z 11004KT 1 1/2SM R05/3000V4500FT/U R06L/P6000FT/D BR OVC003 17/ RMK FG2ST6 RWY 15R P6000FT U

CYYZ;2009-08-29 11:49;CYYZ 291149Z 16003KT 3SM BR OVC003 17/ RMK ST8

CYYZ;2009-08-29 12:00;CYYZ 291200Z 17003KT 3SM BR OVC003 18/17 A2966 RMK ST8 SLP045

CYYZ;2009-08-29 13:00;CYYZ 291300Z 17005KT 3SM BR OVC003 18/18 A2965 RMK ST8 SLP040

CYYZ;2009-08-29 13:13;CYYZ 291313Z 18003KT 3SM BR OVC002 18/ RMK ST8

CYYZ;2009-08-29 13:39;CYYZ 291339Z 24006KT 4SM BR SCT002 OVC004 18/ RMK ST3ST5

CYYZ;2009-08-29 14:00;CYYZ 291400Z 25008KT 4SM BR SCT003 OVC005 18/18 A2964 RMK ST3SC5 SLP037

CYYZ;2009-08-29 15:00;CYYZ 291500Z 26009KT 15SM BKN009 OVC023 19/18 A2964 RMK SC6SC2 SLP037

CYYZ;2009-08-29 15:16;CYYZ 291516Z 25006KT 15SM SCT012 BKN019 20/ RMK SC3SC4

CYYZ;2009-08-29 16:00;CYYZ 291600Z 26013KT 15SM BKN023 21/17 A2964 RMK SC7 SLP037

CYYZ;2009-08-29 17:00;CYYZ 291700Z 25011G19KT 15SM BKN024 OVC032 20/16 A2965 RMK SC6SC2 SLP040

CYYZ;2009-08-29 18:00;CYYZ 291800Z 27014G20KT 15SM FEW028 BKN036 20/16 A2964 RMK CU2SC3 SLP039

CYYZ;2009-08-29 19:00;CYYZ 291900Z 25020G26KT 15SM FEW032 BKN037 21/15 A2965 RMK CU2SC3 SLP040

CYYZ;2009-08-29 20:00;CYYZ 292000Z 25019G25KT 15SM FEW038 SCT052 21/14 A2966 RMK CU2SC2 SLP044

CYYZ;2009-08-29 21:00;CYYZ 292100Z 24019G25KT 15SM SCT042 21/13 A2965 RMK CU3 SLP040

CYYZ;2009-08-29 22:00;CYYZ 292200Z 23017KT 15SM FEW046 21/13 A2966 RMK CU2 SLP044

CYYZ;2009-08-29 23:00;CYYZ 292300Z 24011G17KT 15SM FEW045 FEW060 20/13 A2968 RMK SC2SC1 TCU ASOCTD S SW SLP049

CYYZ;2009-08-30 00:00;CYYZ 300000Z 27011KT 15SM SCT040 SCT060 19/13 A2969 RMK SC3SC1 TCU ASOCTD SLP053

CYYZ;2009-08-30 01:00;CYYZ 300100Z 28010KT 15SM FEW040 FEW070 17/13 A2971 RMK SC1AC1 SLP059

CYYZ;2009-08-30 02:00;CYYZ 300200Z 27009G15KT 15SM FEW040 17/13 A2972 RMK SC1 SLP063

CYYZ;2009-08-30 03:00;CYYZ 300300Z 25010KT 15SM SKC 16/12 A2973 RMK SLP067

CYYZ;2009-08-30 04:00;CYYZ 300400Z 24008KT 15SM FEW040 15/12 A2973 RMK SC1 SLP068

CYYZ;2009-08-30 05:00;CYYZ 300500Z 22009KT 15SM BKN050 15/12 A2974 RMK SC7 SLP069

CYYZ;2009-08-30 06:00;CYYZ 300600Z 24013G19KT 15SM BKN050 15/12 A2973 RMK SC7 SLP068

CYYZ;2009-08-30 07:00;CYYZ 300700Z 24013KT 15SM FEW025 BKN048 15/13 A2974 RMK SC1SC7 SLP070

CYYZ;2009-08-30 08:00;CYYZ 300800Z 25016KT 15SM FEW032 BKN056 15/13 A2974 RMK SC1SC6 SLP070

CYYZ;2009-08-30 09:00;CYYZ 300900Z 26009G15KT 15SM FEW040 BKN065 14/13 A2976 RMK SC1SC4 SLP078

CYYZ;2009-08-30 10:00;CYYZ 301000Z 27007KT 15SM BKN020 BKN065 15/13 A2977 RMK SC7SC1 SLP083

CYYZ;2009-08-30 11:00;CYYZ 301100Z 26005KT 15SM FEW022 BKN058 BKN078 14/13 A2979 RMK SC2SC4AC1 SLP088

CYYZ;2009-08-30 12:00;CYYZ 301200Z 27009KT 15SM FEW022 SCT046 BKN073 15/13 A2981 RMK SC1SC2AC4 SLP096

CYYZ;2009-08-30 13:00;CYYZ 301300Z 27010KT 15SM SCT024 OVC059 15/13 A2983 RMK SC3SC5 SLP102

CYYZ;2009-08-30 14:00;CYYZ 301400Z 27009G15KT 15SM FEW023 BKN056 OVC078 16/12 A2985 RMK CU2SC4AC2 SLP107

CYYZ;2009-08-30 14:18;CYYZ 301418Z 28008KT 15SM -SHRA BKN024 BKN056 16/ RMK SC5SC2

CYYZ;2009-08-30 14:44;CYYZ 301444Z 28008KT 15SM FEW028 BKN043 BKN079 16/ RMK CU2SC3AC2

CYYZ;2009-08-30 15:00;CYYZ 301500Z 29011KT 15SM SCT028 BKN046 BKN080 17/12 A2986 RMK CU3SC2AC2 SLP112

CYYZ;2009-08-30 16:00;CYYZ 301600Z 31014G19KT 15SM SCT032 BKN052 BKN069 17/11 A2987 RMK CU3SC2AC2 SLP117

CYYZ;2009-08-30 17:00;CYYZ 301700Z 30017KT 15SM SCT042 SCT058 BKN096 17/11 A2988 RMK CU3SC1AC2 SLP120

CYYZ;2009-08-30 18:00;CYYZ 301800Z 31015G20KT 15SM SCT046 BKN054 BKN089 18/11 A2989 RMK CU3SC2AC1 SLP124

CYYZ;2009-08-30 18:52;CYYZ 301852Z 36010G15KT 12SM -SHRA BKN035 BKN071 16/ RMK SC6AC2 CU ASOCTD

CYYZ;2009-08-30 19:00;CYYZ 301900Z 01009KT 15SM -SHRA BKN029 BKN053 BKN070 15/13 A2992 RMK SC5SC2AC1 CU ASOCTD SLP134

CYYZ;2009-08-30 19:28;CYYZ 301928Z 33014KT 15SM SCT036 BKN059 BKN069 16/ RMK CU3SC3AC1 TCU ASOCTD N

CYYZ;2009-08-30 20:00;CYYZ 302000Z 36012KT 15SM FEW031 BKN043 BKN076 17/12 A2995 RMK CU2SC4AC1 TCU ASOCTD N SLP141

CYYZ;2009-08-30 20:34;CYYZ 302034Z 35011G20KT 15SM -SHRA FEW028 SCT036 BKN052 BKN070 16/ RMK CU2SC2SC2AC1

CYYZ;2009-08-30 21:00;CYYZ 302100Z 34013G22KT 15SM FEW036 BKN054 BKN076 16/11 A2998 RMK CU2SC3AC2 SLP153

CYYZ;2009-08-30 22:00;CYYZ 302200Z 34016G27KT 15SM FEW030 BKN045 BKN070 15/10 A3000 RMK CU2SC3AC2 SLP161

CYYZ;2009-08-30 23:00;CYYZ 302300Z 34013KT 15SM FEW030 BKN060 BKN070 15/11 A3003 RMK CU2SC4AC2 SLP170

CYYZ;2009-08-31 00:00;CYYZ 310000Z 33012G17KT 15SM FEW030 SCT060 BKN070 14/11 A3005 RMK CU1SC3AC2 SLP179

CYYZ;2009-08-31 01:00;CYYZ 310100Z 31007KT 15SM FEW060 FEW070 13/10 A3008 RMK SC1AC2 SLP187

CYYZ;2009-08-31 02:00;CYYZ 310200Z 32008KT 15SM FEW070 13/10 A3011 RMK AC1 SLP197

CYYZ;2009-08-31 03:00;CYYZ 310300Z 31007KT 15SM FEW060 12/10 A3012 RMK SC1 SLP202

CYYZ;2009-08-31 04:00;CYYZ 310400Z 24002KT 15SM FEW060 FEW070 12/09 A3014 RMK SC1AC1 SLP209

CYYZ;2009-08-31 05:00;CYYZ 310500Z 00000KT 15SM FEW055 SCT068 13/10 A3016 RMK SC2AC2 SLP216

CYYZ;2009-08-31 06:00;CYYZ 310600Z 27004KT 15SM FEW055 BKN070 12/10 A3017 RMK SC2AC3 SLP218

CYYZ;2009-08-31 07:00;CYYZ 310700Z 31004KT 15SM BKN070 13/11 A3016 RMK AC5 SLP216

CYYZ;2009-08-31 08:00;CYYZ 310800Z 31003KT 15SM BKN070 13/10 A3017 RMK AC6 SLP219

CYYZ;2009-08-31 09:00;CYYZ 310900Z 33003KT 15SM SCT067 13/10 A3018 RMK AC4 SLP221

CYYZ;2009-08-31 10:00;CYYZ 311000Z 01003KT 15SM FEW055 FEW070 11/10 A3018 RMK SC1AC1 SLP222

CYYZ;2009-08-31 11:00;CYYZ 311100Z 35004KT 15SM FEW062 11/09 A3020 RMK SC2 SLP229

CYYZ;2009-08-31 12:00;CYYZ 311200Z 31002KT 15SM FEW075 FEW260 13/11 A3022 RMK AC2CI1 CI TR SLP236

CYYZ;2009-08-31 13:00;CYYZ 311300Z 00000KT 15SM FEW062 FEW260 15/10 A3024 RMK SC2CI1 SLP241

CYYZ;2009-08-31 14:00;CYYZ 311400Z 22002KT 15SM FEW045 FEW057 17/09 A3025 RMK CU1SC1 CU TR SLP244

CYYZ;2009-08-31 15:00;CYYZ 311500Z 26003KT 15SM SCT040 SCT075 18/08 A3025 RMK CU3AC1 AC TR SLP244

CYYZ;2009-08-31 16:00;CYYZ 311600Z 26002KT 15SM SCT058 19/08 A3024 RMK CU4 SLP242

CYYZ;2009-08-31 17:00;CYYZ 311700Z 02006KT 15SM BKN060 19/09 A3023 RMK CU5 SLP240

CYYZ;2009-08-31 18:00;CYYZ 311800Z 02007KT 15SM BKN060 BKN260 20/08 A3023 RMK CU5CI1 SLP238

CYYZ;2009-08-31 19:00;CYYZ 311900Z 07004KT 15SM BKN061 BKN260 20/11 A3022 RMK CU5CI1 SLP235

CYYZ;2009-08-31 20:00;CYYZ 312000Z 09004KT 15SM BKN061 BKN260 20/10 A3021 RMK CU5CI0 CI TR SLP231

CYYZ;2009-08-31 21:00;CYYZ 312100Z 07002KT 15SM FEW058 BKN064 BKN260 20/07 A3020 RMK CU2SC2CI0 CI TR SLP228

CYYZ;2009-08-31 22:00;CYYZ 312200Z 18003KT 15SM FEW057 SCT063 BKN260 20/10 A3020 RMK CU2SC2CI1 SLP227

CYYZ;2009-08-31 23:00;CYYZ 312300Z 27003KT 15SM FEW045 FEW055 SCT067 SCT260 19/10 A3020 RMK CU1SC2AC2CI1 CI TR SLP229

CYYZ;2009-09-01 01:00;CYYZ 010100Z 04006KT 15SM FEW070 FEW250 17/09 A3023 RMK AC1CI1 SLP237

CYYZ;2009-09-01 02:00;CYYZ 010200Z 36011KT 15SM FEW070 FEW250 16/08 A3025 RMK AC1CI1 AC TR SLP244

CYYZ;2009-09-01 03:00;CYYZ 010300Z 36008KT 15SM SKC 15/08 A3026 RMK SLP248

CYYZ;2009-09-01 04:00;CYYZ 010400Z CCA 36006KT 15SM SKC 13/09 A3027 RMK SLP252

CYYZ;2009-09-01 05:00;CYYZ 010500Z 36005KT 15SM SKC 13/09 A3028 RMK SLP255

CYYZ;2009-09-01 06:00;CYYZ 010600Z 36005KT 15SM SKC 12/09 A3028 RMK SLP256

CYYZ;2009-09-01 07:00;CYYZ 010700Z 34005KT 15SM SKC 12/09 A3028 RMK SLP255

CYYZ;2009-09-01 08:00;CYYZ 010800Z 34006KT 15SM SKC 12/08 A3028 RMK SLP257

CYYZ;2009-09-01 09:00;CYYZ 010900Z 33002KT 15SM SKC 12/08 A3029 RMK SLP260

CYYZ;2009-09-01 10:00;CYYZ 011000Z 33003KT 15SM FEW230 12/08 A3031 RMK CI1 SLP264

CYYZ;2009-09-01 11:00;CYYZ 011100Z 35005KT 15SM FEW250 11/08 A3031 RMK CI1 SLP267

CYYZ;2009-09-01 12:00;CYYZ 011200Z 33006KT 15SM FEW250 12/09 A3033 RMK CI1 SLP273

CYYZ;2009-09-01 13:00;CYYZ 011300Z 33007KT 15SM FEW260 16/10 A3034 RMK CI1 SLP276

CYYZ;2009-09-01 14:00;CYYZ 011400Z 36006KT 15SM FEW260 17/10 A3035 RMK CI1 SLP279

CYYZ;2009-09-01 15:00;CYYZ 011500Z 31004KT 15SM FEW030 FEW260 18/10 A3035 RMK CU1CI1 SLP279

CYYZ;2009-09-01 16:00;CYYZ 011600Z 32006KT 15SM FEW034 19/08 A3035 RMK CU1 SLP279

CYYZ;2009-09-01 17:00;CYYZ 011700Z 00000KT 15SM FEW036 20/06 A3033 RMK CU1 SLP273

CYYZ;2009-09-01 18:00;CYYZ 011800Z 27003KT 15SM FEW040 21/08 A3032 RMK CU1 SLP270

CYYZ;2009-09-01 19:00;CYYZ 011900Z 21006KT 15SM FEW040 21/10 A3031 RMK CU1 SLP266

CYYZ;2009-09-01 20:00;CYYZ 012000Z 22006KT 15SM FEW046 22/11 A3030 RMK CU1 SLP261

CYYZ;2009-09-01 21:00;CYYZ 012100Z 14003KT 15SM FEW050 22/11 A3028 RMK CU1 SLP256

CYYZ;2009-09-01 22:00;CYYZ 012200Z 16006KT 15SM FEW050 FEW260 21/11 A3028 RMK CU1CI1 SLP254

CYYZ;2009-09-01 23:00;CYYZ 012300Z 15007KT 15SM FEW260 20/11 A3028 RMK CI1 SLP253

CYYZ;2009-09-02 00:00;CYYZ 020000Z 16005KT 15SM FEW260 19/11 A3028 RMK CI1 SLP254

CYYZ;2009-09-02 01:00;CYYZ 020100Z 17004KT 15SM FEW260 18/12 A3028 RMK CI0 SLP257

CYYZ;2009-09-02 02:00;CYYZ 020200Z 17004KT 15SM SKC 17/12 A3029 RMK SLP259

CYYZ;2009-09-02 03:00;CYYZ 020300Z 21003KT 15SM SKC 17/13 A3029 RMK SLP259

CYYZ;2009-09-02 04:00;CYYZ 020400Z 24004KT 15SM SKC 15/12 A3029 RMK SLP258

CYYZ;2009-09-02 05:00;CYYZ 020500Z 27005KT 15SM SKC 13/12 A3030 RMK SLP261

CYYZ;2009-09-02 06:00;CYYZ 020600Z 26004KT 15SM SKC 13/11 A3030 RMK SLP263

CYYZ;2009-09-02 07:00;CYYZ 020700Z 30004KT 15SM SKC 13/11 A3030 RMK SLP261

CYYZ;2009-09-02 08:00;CYYZ 020800Z 31005KT 15SM SKC 13/11 A3030 RMK SLP261

CYYZ;2009-09-02 09:00;CYYZ 020900Z 34004KT 15SM SKC 14/11 A3030 RMK SLP262

CYYZ;2009-09-02 10:00;CYYZ 021000Z 34004KT 15SM SKC 13/11 A3030 RMK SLP262

CYYZ;2009-09-02 11:00;CYYZ 021100Z 34004KT 12SM SKC 14/11 A3031 RMK SLP265

CYYZ;2009-09-02 12:00;CYYZ 021200Z 35004KT 12SM SKC 14/12 A3033 RMK SLP272

CYYZ;2009-09-02 13:00;CYYZ 021300Z 00000KT 15SM SKC 17/12 A3034 RMK SLP274

CYYZ;2009-09-02 14:00;CYYZ 021400Z 29002KT 15SM SKC 19/13 A3033 RMK SLP271

CYYZ;2009-09-02 15:00;CYYZ 021500Z 26003KT 15SM FEW028 20/12 A3033 RMK CF1 SLP271

CYYZ;2009-09-02 16:00;CYYZ 021600Z 22003KT 15SM FEW030 22/12 A3032 RMK CF1 SLP267

CYYZ;2009-09-02 17:00;CYYZ 021700Z 21004KT 15SM FEW030 22/12 A3030 RMK CF1 SLP261

CYYZ;2009-09-02 18:00;CYYZ 021800Z 15008KT 15SM FEW034 23/12 A3029 RMK CF1 SLP257

CYYZ;2009-09-02 19:00;CYYZ 021900Z 14007KT 15SM SKC 23/11 A3027 RMK SLP252

CYYZ;2009-09-02 20:00;CYYZ 022000Z 15007KT 15SM FEW038 23/11 A3025 RMK CF1 SLP245

CYYZ;2009-09-02 21:00;CYYZ 022100Z 15008KT 15SM SKC 23/11 A3024 RMK SLP240

CYYZ;2009-09-02 22:00;CYYZ 022200Z 12006KT 15SM SKC 22/11 A3023 RMK SLP238

CYYZ;2009-09-02 23:00;CYYZ 022300Z 14006KT 15SM SKC 21/12 A3023 RMK SLP237

CYYZ;2009-09-03 00:00;CYYZ 030000Z 16005KT 15SM SKC 20/13 A3022 RMK SLP234

CYYZ;2009-09-03 01:00;CYYZ 030100Z 16004KT 15SM SKC 19/15 A3022 RMK SLP233

CYYZ;2009-09-03 02:00;CYYZ 030200Z 18002KT 15SM SKC 18/15 A3022 RMK SLP233

CYYZ;2009-09-03 03:00;CYYZ 030300Z 00000KT 15SM SKC 18/14 A3021 RMK SLP230

CYYZ;2009-09-03 04:00;CYYZ 030400Z 20002KT 15SM SKC 18/15 A3020 RMK SLP227

CYYZ;2009-09-03 05:00;CYYZ 030500Z 00000KT 15SM SKC 17/15 A3020 RMK SLP228

CYYZ;2009-09-03 06:00;CYYZ 030600Z 34003KT 15SM SKC 16/13 A3020 RMK SLP227

CYYZ;2009-09-03 07:00;CYYZ 030700Z 02002KT 15SM SKC 15/12 A3019 RMK SLP225

CYYZ;2009-09-03 08:00;CYYZ 030800Z 31003KT 15SM SKC 14/12 A3020 RMK SLP228

CYYZ;2009-09-03 09:00;CYYZ 030900Z 32004KT 15SM SKC 15/12 A3020 RMK SLP227

CYYZ;2009-09-03 10:00;CYYZ 031000Z 33003KT 15SM SKC 13/12 A3020 RMK SLP226

CYYZ;2009-09-03 11:00;CYYZ 031100Z 33003KT 12SM SKC 14/12 A3020 RMK SLP227

CYYZ;2009-09-03 12:00;CYYZ 031200Z 35003KT 15SM SKC 16/13 A3021 RMK SLP230

CYYZ;2009-09-03 13:00;CYYZ 031300Z 02002KT 15SM FEW260 18/14 A3020 RMK CI1 SLP229

CYYZ;2009-09-03 14:00;CYYZ 031400Z 28003KT 15SM FEW260 20/14 A3020 RMK CI1 SLP228

CYYZ;2009-09-03 15:00;CYYZ 031500Z 00000KT 15SM FEW035 22/14 A3020 RMK CF1 SLP226

CYYZ;2009-09-03 16:00;CYYZ 031600Z 00000KT 15SM FEW035 22/13 A3019 RMK CU1 SLP222

CYYZ;2009-09-03 17:00;CYYZ 031700Z 30003KT 15SM FEW035 23/13 A3017 RMK CU1 SLP216

CYYZ;2009-09-03 18:00;CYYZ 031800Z 15008KT 15SM FEW035 24/15 A3015 RMK CU2 SLP210

CYYZ;2009-09-03 19:00;CYYZ 031900Z 15009KT 15SM FEW040 24/14 A3014 RMK CU2 SLP205

CYYZ;2009-09-03 20:00;CYYZ 032000Z 16007KT 15SM FEW045 24/14 A3012 RMK CU2 SLP198

CYYZ;2009-09-03 21:00;CYYZ 032100Z 15007KT 15SM FEW045 23/12 A3011 RMK CU1 SLP195

CYYZ;2009-09-03 22:00;CYYZ 032200Z 14007KT 15SM FEW052 FEW260 23/12 A3010 RMK SC1CI0 SLP193

CYYZ;2009-09-03 23:00;CYYZ 032300Z 14004KT 15SM FEW070 FEW280 22/13 A3009 RMK AC1CI1 SLP190

CYYZ;2009-09-04 00:00;CYYZ 040000Z 14004KT 15SM FEW060 FEW280 21/12 A3009 RMK SC1CI1 SLP191

CYYZ;2009-09-04 01:00;CYYZ 040100Z 15003KT 15SM FEW280 20/12 A3010 RMK CI1 SLP192

CYYZ;2009-09-04 02:00;CYYZ 040200Z 00000KT 15SM FEW270 19/12 A3011 RMK CI1 SLP196

CYYZ;2009-09-04 03:00;CYYZ 040300Z 36009KT 15SM FEW270 18/11 A3011 RMK CI0 SLP196

CYYZ;2009-09-04 04:00;CYYZ 040400Z 01007KT 15SM BKN280 17/11 A3012 RMK CI2 SLP198

CYYZ;2009-09-04 05:00;CYYZ 040500Z 35007KT 15SM SKC 16/11 A3012 RMK SLP199

CYYZ;2009-09-04 06:00;CYYZ 040600Z 33005KT 15SM FEW280 16/11 A3012 RMK CI0 SLP199

CYYZ;2009-09-04 07:00;CYYZ 040700Z 33005KT 15SM FEW280 15/11 A3011 RMK CI1 SLP197

CYYZ;2009-09-04 08:00;CYYZ 040800Z 31003KT 15SM SKC 15/11 A3011 RMK SLP196

CYYZ;2009-09-04 09:00;CYYZ 040900Z 34005KT 15SM SKC 15/11 A3011 RMK SLP195

CYYZ;2009-09-04 10:00;CYYZ 041000Z 34006KT 15SM SKC 15/12 A3011 RMK SLP195

CYYZ;2009-09-04 11:00;CYYZ 041100Z 35005KT 15SM FEW150 FEW250 14/11 A3013 RMK AC1CI1 SLP202

CYYZ;2009-09-04 12:00;CYYZ 041200Z 35005KT 15SM FEW150 FEW250 15/11 A3014 RMK AC1CI0 AC TR SLP206

CYYZ;2009-09-04 13:00;CYYZ 041300Z CCA 34007KT 15SM FEW150 FEW250 18/11 A3014 RMK AC1CI1 AC TR SLP208

CYYZ;2009-09-04 14:00;CYYZ 041400Z 36006KT 15SM FEW150 FEW250 20/12 A3014 RMK AC1CI1 SLP208

CYYZ;2009-09-04 15:00;CYYZ 041500Z 35005KT 15SM FEW150 FEW250 21/12 A3015 RMK AC1CI1 SLP209

CYYZ;2009-09-04 16:00;CYYZ 041600Z 32005KT 15SM FEW025 FEW140 FEW250 22/12 A3015 RMK CU1AC1CI1 CU TR SLP208

CYYZ;2009-09-04 17:00;CYYZ 041700Z 30005KT 15SM FEW025 FEW140 SCT250 24/13 A3013 RMK CU1AC1CI1 SLP203

CYYZ;2009-09-04 18:00;CYYZ 041800Z 32003KT 15SM FEW045 FEW120 SCT230 24/11 A3011 RMK CU1AC1CI2 AC TR SLP197

CYYZ;2009-09-04 19:00;CYYZ 041900Z 02006KT 15SM FEW040 FEW120 BKN220 24/11 A3010 RMK CU1AC1CI2 CC ASOCTD SLP193

CYYZ;2009-09-04 20:00;CYYZ 042000Z 36005KT 15SM FEW040 FEW120 BKN240 24/12 A3010 RMK CU1AC1CI2 SLP191

CYYZ;2009-09-04 21:00;CYYZ 042100Z 30007KT 15SM FEW045 FEW120 BKN240 23/12 A3010 RMK CU2AC1CI2 CC ASOCTD SLP192

CYYZ;2009-09-04 22:00;CYYZ 042200Z 35005KT 15SM FEW045 FEW120 BKN240 24/12 A3010 RMK CU1AC1CI1 SLP193

CYYZ;2009-09-04 23:00;CYYZ 042300Z 35006KT 15SM FEW064 FEW160 BKN260 22/11 A3010 RMK SC1AC2CI2 SLP193

CYYZ;2009-09-05 00:00;CYYZ 050000Z 01006KT 15SM FEW064 FEW140 SCT260 21/12 A3011 RMK SC2AC1CI1 AC TR SLP196

CYYZ;2009-09-05 01:00;CYYZ 050100Z 03002KT 15SM FEW140 SCT260 22/12 A3013 RMK AC1CI1 AC TR SLP202

CYYZ;2009-09-05 02:00;CYYZ 050200Z 02007KT 15SM FEW140 SCT260 20/12 A3013 RMK AC1CI1 AC TR SLP205

CYYZ;2009-09-05 03:00;CYYZ 050300Z 36005KT 15SM FEW260 18/14 A3015 RMK CI1 SLP208

CYYZ;2009-09-05 04:00;CYYZ 050400Z 36010KT 15SM FEW250 18/14 A3015 RMK CI1 SLP208

CYYZ;2009-09-05 05:00;CYYZ 050500Z 35006KT 15SM SKC 17/14 A3016 RMK SLP213

CYYZ;2009-09-05 06:00;CYYZ 050600Z 36005KT 15SM SKC 16/14 A3016 RMK SLP213

CYYZ;2009-09-05 07:00;CYYZ 050700Z 36007KT 15SM SKC 16/14 A3015 RMK SLP210

CYYZ;2009-09-05 08:00;CYYZ 050800Z 34006KT 15SM SKC 16/14 A3016 RMK SLP213

CYYZ;2009-09-05 09:00;CYYZ 050900Z 35007KT 15SM SKC 16/14 A3017 RMK SLP217

CYYZ;2009-09-05 10:00;CYYZ 051000Z 35006KT 15SM FEW140 15/14 A3019 RMK AC1 SLP222

CYYZ;2009-09-05 11:00;CYYZ 051100Z 34005KT 15SM FEW140 15/14 A3020 RMK AC2 SLP228

CYYZ;2009-09-05 12:00;CYYZ 051200Z 35008KT 15SM FEW030 FEW062 FEW120 16/15 A3022 RMK CU1SC1AC1 SLP235

CYYZ;2009-09-05 13:00;CYYZ 051300Z 36007KT 15SM FEW030 FEW060 18/16 A3023 RMK CU1SC1 SC TR SLP236

CYYZ;2009-09-05 14:00;CYYZ 051400Z CCA 07002KT 15SM FEW030 20/16 A3025 RMK CU1 SLP242

CYYZ;2009-09-05 15:00;CYYZ 051500Z 00000KT 15SM FEW030 21/17 A3025 RMK CU2 SLP242

CYYZ;2009-09-05 16:00;CYYZ 051600Z 36002KT 15SM SCT030 23/17 A3025 RMK CU4 SLP243

CYYZ;2009-09-05 17:00;CYYZ 051700Z 14008KT 15SM FEW040 SCT060 SCT070 22/17 A3025 RMK CU2SC1AC1 TCU ASOCTD SLP244

CYYZ;2009-09-05 18:00;CYYZ 051800Z 14005KT 15SM FEW050 SCT100 22/17 A3025 RMK CU2AC2 TCU ASOCTD SLP245

CYYZ;2009-09-05 19:00;CYYZ 051900Z 15006KT 15SM FEW050 SCT090 23/18 A3024 RMK CU2AC2 TCU ASOCTD SLP241

CYYZ;2009-09-05 20:00;CYYZ 052000Z 15007KT 15SM FEW050 FEW110 23/17 A3023 RMK CU2AC1 TCU ASOCTD SLP238

CYYZ;2009-09-05 21:00;CYYZ 052100Z 18007KT 15SM FEW060 FEW110 23/17 A3023 RMK CU2AC1 TCU ASOCTD NE SLP237

CYYZ;2009-09-05 22:00;CYYZ 052200Z 17005KT 15SM FEW055 FEW110 SCT260 22/16 A3023 RMK CU2AC1CI0 TCU ASOCTD NE SLP237

CYYZ;2009-09-05 23:00;CYYZ 052300Z 15004KT 15SM FEW055 SCT110 21/16 A3024 RMK CU2AC2 TCU ASOCTD SLP240

CYYZ;2009-09-06 00:00;CYYZ 060000Z 10004KT 15SM FEW061 SCT110 20/15 A3024 RMK SC2ACC2 SLP242

CYYZ;2009-09-06 01:00;CYYZ 060100Z 13004KT 15SM FEW120 20/14 A3026 RMK AC1 SLP249

CYYZ;2009-09-06 02:00;CYYZ 060200Z 10002KT 15SM FEW120 19/14 A3027 RMK AC2 SLP252

CYYZ;2009-09-06 03:00;CYYZ 060300Z 10003KT 15SM FEW120 19/14 A3028 RMK AC1 SLP253

CYYZ;2009-09-06 04:00;CYYZ 060400Z 06002KT 15SM FEW120 18/14 A3028 RMK AC1 SLP255

CYYZ;2009-09-06 05:00;CYYZ 060500Z 07002KT 15SM SKC 19/14 A3030 RMK SLP259

CYYZ;2009-09-06 06:00;CYYZ 060600Z 00000KT 15SM SKC 16/14 A3030 RMK SLP261

CYYZ;2009-09-06 07:00;CYYZ 060700Z 03002KT 15SM FEW015 16/14 A3030 RMK ST2 SLP262

CYYZ;2009-09-06 08:00;CYYZ 060800Z 02003KT 15SM FEW011 15/14 A3030 RMK ST2 SLP261

CYYZ;2009-09-06 09:00;CYYZ 060900Z 03004KT 12SM FEW012 14/13 A3030 RMK ST2 SLP262

CYYZ;2009-09-06 10:00;CYYZ 061000Z 05003KT 12SM FEW120 15/14 A3032 RMK AC1 SLP267

CYYZ;2009-09-06 11:00;CYYZ 061100Z 04004KT 12SM FEW120 FEW240 16/14 A3033 RMK AC1CI1 AC TR SLP272

CYYZ;2009-09-06 12:00;CYYZ 061200Z CCA 07004KT 15SM FEW250 18/16 A3034 RMK CI1 SLP275

CYYZ;2009-09-06 13:00;CYYZ 061300Z 10006KT 15SM FEW250 20/16 A3034 RMK CI1 SLP275

CYYZ;2009-09-06 14:00;CYYZ 061400Z 14011KT 15SM FEW250 21/13 A3035 RMK CI1 SLP277

CYYZ;2009-09-06 15:00;CYYZ 061500Z 14011KT 15SM FEW050 FEW250 21/13 A3035 RMK SC1CI1 SC TR SLP278

CYYZ;2009-09-06 16:00;CYYZ 061600Z 12009KT 15SM FEW040 FEW100 SCT250 22/12 A3034 RMK CU1AC1CI1 CU TR AC TR SLP276

CYYZ;2009-09-06 17:00;CYYZ 061700Z 10011KT 15SM FEW040 FEW100 SCT250 22/11 A3033 RMK CU1AC1CI1 AC TR SLP271

CYYZ;2009-09-06 18:00;CYYZ 061800Z 11011KT 15SM FEW045 FEW120 SCT250 23/12 A3032 RMK CU1AC1CI1 AC TR SLP269

CYYZ;2009-09-06 19:00;CYYZ 061900Z 12010KT 15SM FEW045 FEW180 SCT250 22/13 A3031 RMK CU2AC1CI1 SLP264

CYYZ;2009-09-06 20:00;CYYZ 062000Z 10008KT 15SM FEW040 FEW180 SCT240 22/13 A3029 RMK CU2AC1CI1 CONTRAIL SLP258

CYYZ;2009-09-06 21:00;CYYZ 062100Z 09011KT 15SM FEW040 FEW180 SCT240 22/13 A3028 RMK CU2AC1CI1 CONTRAIL SLP253

CYYZ;2009-09-06 22:00;CYYZ 062200Z 08008KT 15SM FEW040 FEW180 SCT240 21/13 A3028 RMK CU1AC1CI1 SLP253

CYYZ;2009-09-06 23:00;CYYZ 062300Z 10012KT 15SM FEW180 SCT250 21/13 A3027 RMK AC1CI1 SLP251

CYYZ;2009-09-07 00:00;CYYZ 070000Z 10005KT 15SM SCT160 SCT250 20/13 A3026 RMK AC2CI0 SLP249

CYYZ;2009-09-07 01:00;CYYZ 070100Z 11005KT 15SM FEW160 SCT250 19/13 A3026 RMK AC1CC1 SLP249

CYYZ;2009-09-07 02:00;CYYZ 070200Z 11006KT 15SM SCT240 19/13 A3026 RMK CC2 SLP247

CYYZ;2009-09-07 03:00;CYYZ 070300Z 12006KT 15SM BKN250 18/14 A3025 RMK CC2 SLP245

CYYZ;2009-09-07 04:00;CYYZ 070400Z 12004KT 15SM BKN250 18/14 A3025 RMK CI2 CC ASOCTD SLP242

CYYZ;2009-09-07 05:00;CYYZ 070500Z 08003KT 15SM BKN230 18/14 A3025 RMK CC2 SLP242

CYYZ;2009-09-07 06:00;CYYZ 070600Z 07004KT 15SM BKN220 17/13 A3024 RMK CS4 HALO SLP240

CYYZ;2009-09-07 07:00;CYYZ 070700Z 02005KT 15SM BKN180 BKN220 17/14 A3022 RMK AS5CI1 SLP234

CYYZ;2009-09-07 08:00;CYYZ 070800Z 03004KT 15SM BKN160 17/14 A3021 RMK AS6 SLP231

CYYZ;2009-09-07 09:00;CYYZ 070900Z 03003KT 15SM BKN160 16/14 A3020 RMK AC5 SLP227

CYYZ;2009-09-07 10:00;CYYZ 071000Z 02004KT 12SM BKN180 16/14 A3019 RMK AC6 SLP225

CYYZ;2009-09-07 11:00;CYYZ 071100Z 02005KT 15SM FEW120 BKN190 15/14 A3019 RMK AC1AC6 SLP223

CYYZ;2009-09-07 12:00;CYYZ 071200Z 02004KT 15SM FEW120 SCT180 BKN270 17/15 A3019 RMK AC1AC2CI2 SLP224

CYYZ;2009-09-07 13:00;CYYZ 071300Z 06005KT 15SM FEW025 FEW120 BKN270 19/16 A3019 RMK SC1AC1CI5 SLP223

CYYZ;2009-09-07 14:00;CYYZ 071400Z 11007KT 15SM FEW025 FEW130 BKN270 20/17 A3019 RMK SC1AC1CI6 SLP223

CYYZ;2009-09-07 15:00;CYYZ 071500Z 10004KT 15SM FEW013 FEW100 BKN280 22/16 A3018 RMK CF1AC1CI3 SLP221

CYYZ;2009-09-07 16:00;CYYZ 071600Z 12006KT 15SM FEW018 BKN280 23/17 A3018 RMK CF1CI4 SLP220

CYYZ;2009-09-07 17:00;CYYZ 071700Z 08007KT 15SM FEW025 BKN280 23/17 A3016 RMK CF1CI3 SLP215

CYYZ;2009-09-07 18:00;CYYZ 071800Z 12007KT 15SM FEW028 SCT280 24/18 A3015 RMK CU1CI2 SLP210

CYYZ;2009-09-07 19:00;CYYZ 071900Z 14006KT 15SM FEW030 FEW280 24/17 A3014 RMK CU1CI1 SLP206

CYYZ;2009-09-07 20:00;CYYZ 072000Z 13005KT 15SM FEW030 FEW280 24/17 A3013 RMK CU1CI1 SLP202

CYYZ;2009-09-07 21:00;CYYZ 072100Z 16008KT 15SM FEW030 SCT270 23/17 A3012 RMK CU1CI2 TCU ASOCTD SLP199

CYYZ;2009-09-07 22:00;CYYZ 072200Z 14009KT 15SM FEW030 FEW170 BKN270 22/17 A3012 RMK CU1AC1CI5 SLP200

CYYZ;2009-09-07 23:00;CYYZ 072300Z 14007KT 15SM FEW056 FEW160 BKN260 21/17 A3012 RMK SC1AC1CI2 SLP199

CYYZ;2009-09-08 00:00;CYYZ 080000Z 12004KT 15SM FEW053 SCT170 BKN260 20/17 A3012 RMK SC2AC1CI2 SLP200

CYYZ;2009-09-08 01:00;CYYZ 080100Z 10002KT 15SM FEW150 BKN260 20/17 A3013 RMK AC1CI2 SLP205

CYYZ;2009-09-08 02:00;CYYZ 080200Z 08003KT 12SM FEW160 BKN260 20/17 A3013 RMK AC2CI3 SLP205

CYYZ;2009-09-08 03:00;CYYZ 080300Z 00000KT 12SM FEW150 BKN250 19/17 A3013 RMK AC2CI4 SLP202

CYYZ;2009-09-08 04:00;CYYZ 080400Z 04003KT 12SM SCT130 BKN250 18/17 A3013 RMK AC2CI2 SLP201

CYYZ;2009-09-08 05:00;CYYZ 080500Z 02008KT 10SM SCT058 BKN260 18/17 A3012 RMK SC3CI1 SLP200

CYYZ;2009-09-08 06:00;CYYZ 080600Z 01007KT 8SM SCT006 BKN053 BKN260 18/17 A3012 RMK SC3SC2CI0 SLP198

CYYZ;2009-09-08 06:27;CYYZ 080627Z 01005KT 6SM BR BKN003 BKN052 18/ RMK ST5SC1

CYYZ;2009-09-08 06:40;CYYZ 080640Z 02005KT 5SM BR SCT003 BKN059 18/ RMK ST3SC3

CYYZ;2009-09-08 07:00;CYYZ 080700Z 03004KT 6SM BR FEW006 BKN061 17/17 A3012 RMK ST2SC3 SLP198

CYYZ;2009-09-08 07:34;CYYZ 080734Z 02005KT 3SM BR BKN003 17/ RMK ST6

CYYZ;2009-09-08 07:41;CYYZ 080741Z 01005KT 1 1/2SM BR BKN002 17/ RMK FG2ST6

CYYZ;2009-09-08 08:00;CYYZ 080800Z 36004KT 1 1/2SM BR OVC002 18/17 A3012 RMK FG2ST6 SLP200

CYYZ;2009-09-08 08:26;CYYZ 080826Z 00000KT 2 1/4SM BR FEW002 OVC005 18/ RMK ST2ST6

CYYZ;2009-09-08 09:00;CYYZ 080900Z 34006KT 2 1/4SM BR FEW003 OVC005 18/17 A3013 RMK ST2SC6 SLP201

CYYZ;2009-09-08 09:26;CYYZ 080926Z 36004KT 2 1/2SM BR OVC004 18/ RMK SC8

CYYZ;2009-09-08 10:00;CYYZ 081000Z 01005KT 2 1/2SM BR OVC004 17/17 A3013 RMK ST8 SLP201

CYYZ;2009-09-08 10:35;CYYZ 081035Z 02003KT 3SM BR OVC003 17/ RMK ST8

CYYZ;2009-09-08 11:00;CYYZ 081100Z 01004KT 3SM BR OVC004 18/17 A3013 RMK ST8 SLP201

CYYZ;2009-09-08 11:38;CYYZ 081138Z 36007KT 4SM BR FEW005 BKN008 17/ RMK SF2SC5

CYYZ;2009-09-08 12:00;CYYZ 081200Z 36007KT 6SM BR BKN006 OVC009 17/16 A3014 RMK SF6SC2 SLP208

CYYZ;2009-09-08 13:00;CYYZ 081300Z 03002KT 6SM BR FEW005 OVC008 19/17 A3016 RMK SF2SC6 SLP212

CYYZ;2009-09-08 13:42;CYYZ 081342Z 08002KT 8SM SCT008 OVC013 20/ RMK SF3SC5 BR

CYYZ;2009-09-08 14:00;CYYZ 081400Z 02004KT 8SM BKN012 BKN017 20/18 A3016 RMK SC5SC2 HZ SLP214

CYYZ;2009-09-08 15:00;CYYZ 081500Z 10004KT 12SM SCT020 BKN025 21/18 A3016 RMK CU3SC4 SLP213

CYYZ;2009-09-08 16:00;CYYZ 081600Z 07008KT 12SM BKN025 BKN030 22/18 A3016 RMK CU5SC2 SLP213

CYYZ;2009-09-08 17:00;CYYZ 081700Z 06006KT 12SM BKN025 BKN030 23/18 A3015 RMK CU5SC2 TCU ASOCTD SLP208

CYYZ;2009-09-08 18:00;CYYZ 081800Z 10006KT 15SM FEW030 SCT130 SCT250 24/18 A3013 RMK CU2AC1CI1 AC TR TCU ASOCTD SLP203

CYYZ;2009-09-08 19:00;CYYZ 081900Z 14009KT 15SM FEW035 SCT150 SCT250 24/18 A3012 RMK CU2AC1CI0 AC TR TCU ASOCTD SLP200

CYYZ;2009-09-08 20:00;CYYZ 082000Z 09007KT 15SM FEW040 FEW110 SCT250 24/15 A3011 RMK CU2AC1CI0 AC TR TCU ASOCTD NE SLP195

CYYZ;2009-09-08 21:00;CYYZ 082100Z 09007KT 15SM FEW040 FEW120 FEW250 25/13 A3010 RMK CU2AC1CI0 AC TR SLP191

CYYZ;2009-09-08 22:00;CYYZ 082200Z CCA 14007KT 15SM FEW040 FEW120 FEW260 24/14 A3010 RMK CU1AC1CI0 AC TR SLP190

CYYZ;2009-09-08 23:00;CYYZ 082300Z 13006KT 15SM FEW260 23/13 A3010 RMK CI1 SLP193

CYYZ;2009-09-09 00:00;CYYZ 090000Z 13003KT 15SM FEW130 FEW260 22/14 A3010 RMK AC1CI1 SLP193

CYYZ;2009-09-09 01:00;CYYZ 090100Z 11004KT 15SM FEW130 FEW250 22/13 A3012 RMK AC1CI1 SLP198

CYYZ;2009-09-09 02:00;CYYZ 090200Z 02002KT 15SM FEW250 21/13 A3012 RMK CI1 SLP200

CYYZ;2009-09-09 03:00;CYYZ 090300Z 00000KT 15SM FEW260 20/13 A3013 RMK CI1 SLP203

CYYZ;2009-09-09 04:00;CYYZ 090400Z 36005KT 15SM FEW120 FEW250 19/15 A3013 RMK AC1CI1 SLP204

CYYZ;2009-09-09 05:00;CYYZ 090500Z 33006KT 15SM FEW063 FEW100 18/15 A3015 RMK SC1AC1 AC TR SLP208

CYYZ;2009-09-09 06:00;CYYZ 090600Z 35006KT 15SM FEW150 17/15 A3015 RMK AC1 SLP209

CYYZ;2009-09-09 07:00;CYYZ 090700Z 36008KT 15SM SCT250 17/15 A3014 RMK CI1 SLP207

CYYZ;2009-09-09 08:00;CYYZ 090800Z 36003KT 15SM BKN260 17/15 A3015 RMK CI2 SLP209

CYYZ;2009-09-09 09:00;CYYZ 090900Z 32004KT 15SM BKN260 16/14 A3016 RMK CI2 SLP214

CYYZ;2009-09-09 10:00;CYYZ 091000Z 00000KT 12SM SCT260 16/14 A3017 RMK CI1 SLP216

CYYZ;2009-09-09 11:00;CYYZ 091100Z 36004KT 12SM SCT010 SCT080 BKN260 16/14 A3019 RMK SC3AC1CI1 SLP221

CYYZ;2009-09-09 12:00;CYYZ 091200Z 02004KT 15SM FEW080 BKN250 18/15 A3021 RMK AC2CI1 SLP229

CYYZ;2009-09-09 13:00;CYYZ 091300Z 04005KT 15SM FEW080 BKN250 20/16 A3022 RMK AC2CI1 SLP235

CYYZ;2009-09-09 14:00;CYYZ 091400Z 06003KT 15SM FEW120 BKN240 21/16 A3023 RMK AC2CI2 SLP238

CYYZ;2009-09-09 15:00;CYYZ 091500Z 05002KT 15SM FEW025 BKN240 22/17 A3023 RMK CU1CI1 CU TR SLP237

CYYZ;2009-09-09 16:00;CYYZ 091600Z 09005KT 15SM FEW025 BKN240 23/17 A3023 RMK CU2CI1 SLP237

CYYZ;2009-09-09 17:00;CYYZ 091700Z 15009KT 15SM FEW050 SCT060 BKN240 24/17 A3022 RMK CU2SC2CI1 TCU ASOCTD SLP234

CYYZ;2009-09-09 18:00;CYYZ 091800Z 14009KT 15SM FEW050 SCT063 BKN240 24/17 A3022 RMK CU2SC2CI1 SLP234

CYYZ;2009-09-09 19:00;CYYZ 091900Z 13009KT 15SM FEW050 FEW055 BKN240 23/15 A3021 RMK CU2SC1CI1 SLP229

CYYZ;2009-09-09 20:00;CYYZ 092000Z 12013KT 15SM FEW055 SCT060 BKN080 BKN240 22/15 A3022 RMK CU2SC2AC1CI2 SLP233

CYYZ;2009-09-09 21:00;CYYZ 092100Z 14009KT 15SM FEW050 FEW055 BKN240 22/16 A3022 RMK CU2SC1CI1 SLP233

CYYZ;2009-09-09 22:00;CYYZ 092200Z 14007KT 15SM FEW040 FEW090 SCT240 22/15 A3023 RMK CU1AC1CI1 SLP236

CYYZ;2009-09-09 23:00;CYYZ 092300Z 12006KT 15SM FEW080 BKN260 21/15 A3024 RMK AC2CI2 SLP239

CYYZ;2009-09-10 00:00;CYYZ 100000Z 10004KT 15SM SCT260 21/14 A3025 RMK CI2 SLP242

CYYZ;2009-09-10 01:00;CYYZ 100100Z 09004KT 15SM SCT260 20/14 A3025 RMK CI2 SLP244

CYYZ;2009-09-10 02:00;CYYZ 100200Z 10004KT 15SM SCT260 20/14 A3026 RMK CI2 SLP248

CYYZ;2009-09-10 03:00;CYYZ 100300Z 07003KT 15SM FEW260 18/14 A3028 RMK CI1 SLP254

CYYZ;2009-09-10 04:00;CYYZ 100400Z 08004KT 15SM FEW260 19/15 A3029 RMK CI1 SLP257

CYYZ;2009-09-10 05:00;CYYZ 100500Z 05003KT 15SM FEW015 SCT260 17/15 A3030 RMK CF1CI2 CF TR SLP259

CYYZ;2009-09-10 06:00;CYYZ 100600Z 04004KT 15SM FEW025 SCT260 16/14 A3030 RMK SC1CI2 SLP260

CYYZ;2009-09-10 07:00;CYYZ 100700Z 05005KT 15SM FEW030 SCT260 16/13 A3030 RMK SC1CI1 CI TR SLP260

CYYZ;2009-09-10 08:00;CYYZ 100800Z 06006KT 15SM FEW030 SCT260 16/12 A3030 RMK SC1CI1 CI TR SLP259

CYYZ;2009-09-10 09:00;CYYZ 100900Z CCA 04004KT 15SM FEW030 FEW260 15/11 A3031 RMK SC1CI1 CI TR SLP265

CYYZ;2009-09-10 10:00;CYYZ 101000Z 02005KT 15SM FEW030 FEW260 14/10 A3032 RMK SC1CI1 SC TR SLP267

CYYZ;2009-09-10 11:00;CYYZ 101100Z 01005KT 15SM FEW030 FEW090 FEW260 14/10 A3033 RMK SC1AC1CI1 AC TR SLP271

CYYZ;2009-09-10 12:00;CYYZ 101200Z 02004KT 15SM FEW120 SCT260 15/10 A3035 RMK AC1CI1 SLP278

CYYZ;2009-09-10 13:00;CYYZ 101300Z 06005KT 15SM FEW011 SCT120 BKN260 18/13 A3035 RMK SC2AC1CI1 SLP280

CYYZ;2009-09-10 14:00;CYYZ 101400Z 06007KT 15SM FEW025 FEW120 BKN260 19/15 A3036 RMK SC2AC1CI1 SLP282

CYYZ;2009-09-10 15:00;CYYZ 101500Z 08005KT 15SM FEW025 BKN260 21/15 A3035 RMK CU1CI1 SLP277

CYYZ;2009-09-10 16:00;CYYZ 101600Z 12005KT 15SM FEW025 BKN260 23/16 A3034 RMK CU1CI1 SLP274

CYYZ;2009-09-10 17:00;CYYZ 101700Z 14008KT 15SM FEW025 FEW140 BKN260 23/15 A3034 RMK CU2AC1CI1 SLP274

CYYZ;2009-09-10 18:00;CYYZ 101800Z 11013KT 15SM FEW030 FEW140 SCT260 24/14 A3034 RMK CU1AC1CI1 AC TR SLP274

CYYZ;2009-09-10 19:00;CYYZ 101900Z 11013G21KT 15SM FEW030 FEW140 SCT260 24/13 A3032 RMK CU1AC1CI1 SLP269

CYYZ;2009-09-10 20:00;CYYZ 102000Z 11011G16KT 15SM FEW030 FEW140 SCT260 24/11 A3032 RMK CU1AC1CI1 CONTRAIL SLP269

CYYZ;2009-09-10 21:00;CYYZ 102100Z 10011G17KT 15SM FEW030 FEW140 SCT260 23/10 A3032 RMK CU1AC2CI1 SLP269

CYYZ;2009-09-10 22:00;CYYZ 102200Z 09013KT 15SM FEW140 SCT240 22/10 A3032 RMK AC1CI2 SLP269

CYYZ;2009-09-10 23:00;CYYZ 102300Z 09012G18KT 15SM FEW160 BKN260 20/12 A3033 RMK AC1CI2 SLP272

CYYZ;2009-09-11 00:00;CYYZ 110000Z 08011KT 15SM FEW160 SCT260 19/11 A3034 RMK AC1CI2 SLP276

CYYZ;2009-09-11 01:00;CYYZ 110100Z 08008KT 15SM FEW220 SCT260 19/11 A3034 RMK CI2CI1 SLP274

CYYZ;2009-09-11 02:00;CYYZ 110200Z 08007KT 15SM SCT240 18/11 A3034 RMK CI2 SLP275

CYYZ;2009-09-11 03:00;CYYZ 110300Z 08005KT 15SM SCT240 18/12 A3032 RMK CI2 SLP269

CYYZ;2009-09-11 04:00;CYYZ 110400Z 06004KT 15SM BKN250 17/12 A3032 RMK CI2 SLP267

CYYZ;2009-09-11 05:00;CYYZ 110500Z 05005KT 15SM FEW190 BKN240 15/11 A3030 RMK AC2CI1 SLP261

CYYZ;2009-09-11 06:00;CYYZ 110600Z 04005KT 15SM FEW190 BKN240 15/11 A3030 RMK AC2CI1 SLP260

CYYZ;2009-09-11 07:00;CYYZ 110700Z 04005KT 15SM FEW180 BKN250 15/12 A3030 RMK AC2CI2 SLP260

CYYZ;2009-09-11 08:00;CYYZ 110800Z 05005KT 15SM FEW180 BKN250 15/12 A3030 RMK AC2CI2 SLP260

CYYZ;2009-09-11 09:00;CYYZ 110900Z 07003KT 15SM BKN250 16/12 A3030 RMK CI3 SLP260

CYYZ;2009-09-11 10:00;CYYZ 111000Z 03003KT 15SM SCT250 14/12 A3030 RMK CI2 SLP260

CYYZ;2009-09-11 11:00;CYYZ 111100Z 02006KT 15SM FEW150 FEW230 BKN270 13/11 A3031 RMK AC1CC1CI2 SLP263

CYYZ;2009-09-11 12:00;CYYZ 111200Z 02005KT 15SM FEW150 BKN280 15/12 A3030 RMK AC1CI6 SLP262

CYYZ;2009-09-11 13:00;CYYZ 111300Z 04004KT 15SM BKN200 OVC280 16/12 A3030 RMK CC5CS2 SLP261

CYYZ;2009-09-11 14:00;CYYZ 111400Z 07005KT 15SM FEW025 BKN220 BKN280 18/13 A3030 RMK CF1CC6CI1 SLP261

CYYZ;2009-09-11 15:00;CYYZ 111500Z 11004KT 15SM FEW025 BKN180 18/13 A3028 RMK CF1AC7 SLP256

CYYZ;2009-09-11 16:00;CYYZ 111600Z 09005KT 15SM FEW025 BKN160 19/11 A3028 RMK CF1AC7 SLP254

CYYZ;2009-09-11 17:00;CYYZ 111700Z 07008KT 15SM FEW028 BKN190 19/10 A3027 RMK CF1AC7 SLP252

CYYZ;2009-09-11 18:00;CYYZ 111800Z 10009KT 15SM FEW035 BKN130 BKN190 20/11 A3026 RMK CF1AC6AS2 SLP247

CYYZ;2009-09-11 19:00;CYYZ 111900Z 08005KT 15SM FEW130 BKN240 BKN280 20/07 A3024 RMK AC1CC5CI2 SLP242

CYYZ;2009-09-11 20:00;CYYZ 112000Z 09008KT 15SM FEW170 FEW240 OVC280 20/08 A3023 RMK AC1CC1CI7 SLP238

CYYZ;2009-09-11 21:00;CYYZ 112100Z 11009KT 15SM FEW170 FEW240 OVC280 19/07 A3022 RMK AC1CC1CI7 SLP235

CYYZ;2009-09-11 22:00;CYYZ 112200Z 11006KT 15SM FEW190 OVC270 19/08 A3022 RMK AC1CS8 SLP234

CYYZ;2009-09-11 23:00;CYYZ 112300Z 12006KT 15SM FEW180 BKN220 BKN260 18/11 A3021 RMK AC2CS3CI2 SLP232

CYYZ;2009-09-12 00:00;CYYZ 120000Z 05003KT 15SM FEW180 BKN220 18/11 A3021 RMK AC2CI2 SLP232

CYYZ;2009-09-12 01:00;CYYZ 120100Z 05003KT 15SM FEW170 BKN230 16/12 A3021 RMK AC2CI2 SLP231

CYYZ;2009-09-12 02:00;CYYZ 120200Z 36005KT 15SM FEW160 FEW250 15/11 A3020 RMK AC1CI0 SLP227

CYYZ;2009-09-12 03:00;CYYZ 120300Z 36006KT 15SM FEW160 FEW250 15/11 A3019 RMK AC1CI0 SLP223

CYYZ;2009-09-12 04:00;CYYZ 120400Z 34007KT 15SM FEW250 13/10 A3017 RMK CI1 SLP217

CYYZ;2009-09-12 05:00;CYYZ 120500Z 36008KT 15SM FEW250 13/10 A3016 RMK CI0 SLP216

CYYZ;2009-09-12 06:00;CYYZ 120600Z 01007KT 15SM FEW130 FEW260 13/08 A3016 RMK AC1CI0 SLP214

CYYZ;2009-09-12 07:00;CYYZ 120700Z 35009KT 15SM SCT170 SCT260 13/08 A3015 RMK AC3CI0 SLP212

CYYZ;2009-09-12 08:00;CYYZ 120800Z 36011KT 15SM BKN170 14/09 A3014 RMK AC5 SLP208

CYYZ;2009-09-12 09:00;CYYZ 120900Z 35011KT 15SM BKN170 14/10 A3014 RMK AC6 SLP209

CYYZ;2009-09-12 10:00;CYYZ 121000Z 36010KT 15SM BKN180 14/10 A3013 RMK AC6 SLP205

CYYZ;2009-09-12 11:00;CYYZ 121100Z 35008KT 15SM BKN180 14/11 A3014 RMK AC6 SLP208

CYYZ;2009-09-12 12:00;CYYZ 121200Z 36010KT 15SM FEW060 BKN190 BKN240 15/12 A3014 RMK SC1AC4CI2 SLP209

CYYZ;2009-09-12 13:00;CYYZ 121300Z 36009KT 15SM FEW060 SCT180 BKN240 16/13 A3015 RMK SC1AC3CI2 SLP210

CYYZ;2009-09-12 14:00;CYYZ 121400Z 02010KT 15SM FEW025 FEW180 BKN240 19/13 A3014 RMK SC1AC2CI2 SLP208

CYYZ;2009-09-12 15:00;CYYZ 121500Z CCA 03009G16KT 15SM FEW030 FEW180 BKN240 21/11 A3013 RMK SC1AC2CI2 SLP204

CYYZ;2009-09-12 16:00;CYYZ 121600Z 03007KT 15SM FEW040 FEW170 BKN240 21/11 A3012 RMK SC1AC2CI1 SC TR SLP200

CYYZ;2009-09-12 17:00;CYYZ 121700Z CCA 04006KT 15SM FEW040 FEW150 BKN240 23/11 A3010 RMK CU1AC2CI1 CONTRAIL CU TR SLP194

CYYZ;2009-09-12 18:00;CYYZ 121800Z 36004KT 15SM FEW150 BKN220 23/12 A3008 RMK AC1CI1 CONTRAIL SLP188

CYYZ;2009-09-12 19:00;CYYZ 121900Z 16005KT 15SM FEW140 BKN220 23/14 A3006 RMK AC1CI1 CONTRAIL SLP179

CYYZ;2009-09-12 20:00;CYYZ 122000Z 15008KT 15SM FEW055 FEW100 FEW250 23/14 A3005 RMK CF1AC1CI1 CF TR AC TR CONTRAIL SLP178

CYYZ;2009-09-12 21:00;CYYZ 122100Z 14005KT 15SM FEW050 FEW100 FEW250 23/14 A3005 RMK SC1AC1CI1 SC TR AC TR SLP177

CYYZ;2009-09-12 22:00;CYYZ 122200Z 03007KT 15SM FEW100 FEW250 23/11 A3005 RMK AC1CI1 AC TR SLP176

CYYZ;2009-09-12 23:00;CYYZ 122300Z 01005KT 15SM FEW080 FEW260 22/11 A3004 RMK AC1CI0 SLP174

CYYZ;2009-09-13 00:00;CYYZ 130000Z 35011KT 15SM FEW090 FEW250 21/13 A3005 RMK AC1CI1 AC TR SLP176

CYYZ;2009-09-13 01:00;CYYZ 130100Z 36011KT 15SM FEW250 19/12 A3006 RMK CI1 SLP178

CYYZ;2009-09-13 02:00;CYYZ 130200Z 35012KT 15SM FEW250 18/11 A3006 RMK CI1 SLP178

CYYZ;2009-09-13 03:00;CYYZ 130300Z 34010KT 15SM FEW250 17/11 A3006 RMK CI1 SLP179

CYYZ;2009-09-13 04:00;CYYZ 130400Z 32009KT 15SM FEW250 16/11 A3005 RMK CI1 SLP177

CYYZ;2009-09-13 05:00;CYYZ 130500Z 31006KT 15SM SKC 15/11 A3005 RMK SLP176

CYYZ;2009-09-13 06:00;CYYZ 130600Z 31005KT 15SM SKC 14/11 A3005 RMK SLP177

CYYZ;2009-09-13 07:00;CYYZ 130700Z 30003KT 15SM SKC 13/11 A3004 RMK SLP173

CYYZ;2009-09-13 08:00;CYYZ 130800Z 29006KT 15SM SKC 13/11 A3003 RMK SLP168

CYYZ;2009-09-13 09:00;CYYZ 130900Z 28006KT 15SM SKC 14/11 A3002 RMK SLP165

CYYZ;2009-09-13 10:00;CYYZ 131000Z 31007KT 15SM SKC 15/12 A3001 RMK SLP164

CYYZ;2009-09-13 11:00;CYYZ 131100Z 31012KT 15SM FEW120 FEW240 16/12 A3002 RMK AC1CI1 SLP165

CYYZ;2009-09-13 12:00;CYYZ 131200Z 31008KT 15SM FEW130 SCT250 17/13 A3002 RMK AC1CI1 AC TR SLP167

CYYZ;2009-09-13 13:00;CYYZ 131300Z 34014KT 15SM FEW013 SCT250 19/16 A3003 RMK SC2CI0 SLP169

CYYZ;2009-09-13 13:14;CYYZ 131314Z 34016KT 15SM BKN012 BKN250 19/ RMK SC5CI1

CYYZ;2009-09-13 13:41;CYYZ 131341Z 33015KT 15SM SCT014 BKN073 20/ RMK SC3AC3

CYYZ;2009-09-13 14:00;CYYZ 131400Z 32012G18KT 15SM FEW014 BKN071 20/17 A3003 RMK SC2AC3 SLP170

CYYZ;2009-09-13 15:00;CYYZ 131500Z 34010G16KT 15SM BKN018 21/17 A3003 RMK SC7 SLP170

CYYZ;2009-09-13 16:00;CYYZ 131600Z 35008KT 15SM SCT022 BKN029 22/17 A3004 RMK SC3SC4 SLP171

CYYZ;2009-09-13 17:00;CYYZ 131700Z 35011G16KT 15SM SCT032 SCT260 24/17 A3003 RMK CU3CI1 SLP169

CYYZ;2009-09-13 18:00;CYYZ 131800Z 35012G19KT 15SM SCT039 SCT260 24/15 A3002 RMK CU3CI1 SLP165

CYYZ;2009-09-13 19:00;CYYZ 131900Z 34012G18KT 15SM FEW042 FEW220 24/15 A3000 RMK CU2CI1 SLP160

CYYZ;2009-09-13 20:00;CYYZ 132000Z 33010G18KT 15SM FEW044 FEW220 24/15 A2999 RMK CU2CI0 SLP157

CYYZ;2009-09-13 21:00;CYYZ 132100Z 34014KT 15SM FEW042 FEW220 24/15 A2999 RMK CU1CI0 SLP155

CYYZ;2009-09-13 22:00;CYYZ 132200Z 35013KT 15SM FEW040 FEW230 23/14 A2999 RMK CU1CI0 SLP155

CYYZ;2009-09-13 23:00;CYYZ 132300Z 36010G15KT 15SM FEW040 SCT250 21/13 A2999 RMK SC1CI0 SLP157

CYYZ;2009-09-14 00:00;CYYZ 140000Z 35011KT 15SM FEW040 FEW090 BKN250 20/13 A3000 RMK SC1AC1CI1 SC TR SLP159

CYYZ;2009-09-14 01:00;CYYZ 140100Z 34012KT 15SM FEW100 FEW250 18/13 A3001 RMK AC1CI0 SLP164

CYYZ;2009-09-14 02:00;CYYZ 140200Z 34008KT 15SM FEW250 17/13 A3002 RMK CI1 SLP165

CYYZ;2009-09-14 03:00;CYYZ 140300Z 35009KT 15SM SKC 15/13 A3001 RMK SLP163

CYYZ;2009-09-14 04:00;CYYZ 140400Z 32004KT 15SM SKC 15/13 A3000 RMK SLP160

CYYZ;2009-09-14 05:00;CYYZ 140500Z 30005KT 15SM SKC 14/13 A3001 RMK SLP161

CYYZ;2009-09-14 06:00;CYYZ 140600Z CCA 30006KT 15SM SKC 14/13 A3000 RMK SLP160

CYYZ;2009-09-14 07:00;CYYZ 140700Z 32006KT 15SM SKC 13/12 A3000 RMK SLP158

CYYZ;2009-09-14 08:00;CYYZ 140800Z 31005KT 15SM SKC 13/12 A3000 RMK SLP158

CYYZ;2009-09-14 09:00;CYYZ 140900Z 31005KT 15SM FEW150 13/12 A3000 RMK AC1 SLP160

CYYZ;2009-09-14 10:00;CYYZ 141000Z 31006KT 15SM FEW050 13/12 A3000 RMK SC1 SLP158

CYYZ;2009-09-14 11:00;CYYZ 141100Z 22004KT 15SM BKN035 BKN230 15/14 A3000 RMK SC6CI1 SLP159

CYYZ;2009-09-14 12:00;CYYZ 141200Z 27006KT 15SM SCT035 OVC040 16/15 A3000 RMK SC4SC4 SLP160

CYYZ;2009-09-14 13:00;CYYZ 141300Z CCA 28010KT 15SM BKN044 18/16 A3001 RMK SC7 SLP163

CYYZ;2009-09-14 14:00;CYYZ 141400Z 29005KT 15SM SCT030 BKN090 BKN250 19/16 A3000 RMK SC3AC2CI1 SLP160

CYYZ;2009-09-14 15:00;CYYZ 141500Z 32012G18KT 15SM SCT030 BKN035 22/15 A2999 RMK CU3SC4 SLP157

CYYZ;2009-09-14 16:00;CYYZ 141600Z 31013G18KT 15SM SCT030 BKN035 22/14 A2998 RMK CU3SC3 SLP153

CYYZ;2009-09-14 17:00;CYYZ 141700Z 29017KT 15SM FEW030 BKN040 23/14 A2996 RMK CU2SC3 SLP146

CYYZ;2009-09-14 18:00;CYYZ 141800Z 30012G18KT 15SM FEW030 BKN045 25/14 A2995 RMK CU2SC4 SLP140

CYYZ;2009-09-14 19:00;CYYZ 141900Z 31015KT 15SM FEW045 BKN050 BKN120 25/14 A2992 RMK CU2SC4AC1 AC TR SLP133

CYYZ;2009-09-14 20:00;CYYZ 142000Z CCA 32013G18KT 15SM FEW045 BKN055 BKN120 25/14 A2992 RMK CU2SC3AC1 AC TR SLP131

CYYZ;2009-09-14 21:00;CYYZ 142100Z 31015G20KT 15SM FEW045 SCT050 SCT120 SCT240 25/14 A2991 RMK CU1SC2AC1CI1 CI TR SLP129

CYYZ;2009-09-14 22:00;CYYZ 142200Z 31016KT 15SM FEW040 FEW045 SCT120 SCT240 23/14 A2991 RMK CU1SC2AC1CI1 AC TR SLP127

CYYZ;2009-09-14 23:00;CYYZ 142300Z 31017KT 15SM FEW045 FEW250 23/14 A2991 RMK SC2CI0 SLP128

CYYZ;2009-09-15 00:00;CYYZ 150000Z 32009G17KT 15SM FEW045 FEW250 21/14 A2992 RMK SC1CI1 SC TR SLP132

CYYZ;2009-09-15 01:00;CYYZ 150100Z 29009KT 15SM FEW250 20/15 A2993 RMK CI1 SLP134

CYYZ;2009-09-15 02:00;CYYZ 150200Z 28006KT 15SM FEW250 18/15 A2993 RMK CI1 SLP135

CYYZ;2009-09-15 03:00;CYYZ 150300Z 30007KT 15SM FEW250 19/15 A2993 RMK CI1 SLP135

CYYZ;2009-09-15 04:00;CYYZ 150400Z 29008KT 15SM FEW250 18/15 A2993 RMK CI1 SLP134

CYYZ;2009-09-15 05:00;CYYZ 150500Z 26005KT 15SM FEW250 16/15 A2994 RMK CI1 SLP138

CYYZ;2009-09-15 06:00;CYYZ 150600Z 29008KT 15SM FEW250 17/15 A2994 RMK CI1 SLP138

CYYZ;2009-09-15 07:00;CYYZ 150700Z 30010KT 15SM FEW250 17/15 A2993 RMK CI1 SLP135

CYYZ;2009-09-15 08:00;CYYZ 150800Z 31010KT 15SM FEW250 17/15 A2993 RMK CI1 SLP135

CYYZ;2009-09-15 09:00;CYYZ 150900Z 31009KT 15SM FEW250 17/15 A2994 RMK CI1 SLP138

CYYZ;2009-09-15 10:00;CYYZ 151000Z 32009KT 15SM FEW250 16/15 A2995 RMK CI1 SLP141

CYYZ;2009-09-15 11:00;CYYZ 151100Z 35009KT 15SM FEW030 FEW090 BKN280 16/15 A2996 RMK SC1AC1CI2 SLP146

CYYZ;2009-09-15 12:00;CYYZ 151200Z 36010KT 15SM FEW030 FEW090 SCT280 17/15 A2998 RMK SC1AC1CI2 SLP154

CYYZ;2009-09-15 13:00;CYYZ 151300Z 36009KT 15SM FEW030 FEW090 FEW280 18/16 A3000 RMK SC1AC1CI1 SLP158

CYYZ;2009-09-15 14:00;CYYZ 151400Z 06008KT 15SM FEW030 SCT070 SCT280 20/12 A3001 RMK CF1AC3CI1 SLP163

CYYZ;2009-09-15 15:00;CYYZ 151500Z 36009KT 15SM FEW030 FEW280 21/11 A3002 RMK CF1CI1 SLP167

CYYZ;2009-09-15 16:00;CYYZ 151600Z 35012KT 15SM FEW040 FEW070 22/12 A3003 RMK CF1AC1 SLP169

CYYZ;2009-09-15 17:00;CYYZ 151700Z 34011KT 15SM FEW040 FEW060 22/10 A3003 RMK CF1SC1 SLP168

CYYZ;2009-09-15 18:00;CYYZ 151800Z 34014KT 15SM FEW040 FEW050 23/09 A3002 RMK CF1SC1 SLP165

CYYZ;2009-09-15 19:00;CYYZ 151900Z 34010KT 15SM FEW063 23/10 A3002 RMK CU2 SLP165

CYYZ;2009-09-15 20:00;CYYZ 152000Z 01010G16KT 15SM FEW058 23/08 A3002 RMK CU1 SLP166

CYYZ;2009-09-15 21:00;CYYZ 152100Z 01014G19KT 15SM FEW060 22/08 A3004 RMK SC1 SLP172

CYYZ;2009-09-15 22:00;CYYZ 152200Z 35017KT 15SM FEW060 20/08 A3005 RMK SC1 SLP177

CYYZ;2009-09-15 23:00;CYYZ 152300Z 36014KT 15SM FEW055 FEW062 18/07 A3008 RMK CU1SC2 SLP186

CYYZ;2009-09-16 00:00;CYYZ 160000Z 36015G20KT 15SM FEW045 FEW055 16/09 A3011 RMK CU2SC1 SLP197

CYYZ;2009-09-16 01:00;CYYZ 160100Z 35012G17KT 15SM FEW035 15/10 A3013 RMK SC2 SLP203

CYYZ;2009-09-16 02:00;CYYZ 160200Z 01011KT 15SM SCT027 14/10 A3015 RMK SC3 SLP209

CYYZ;2009-09-16 03:00;CYYZ 160300Z 04012KT 15SM BKN035 14/09 A3017 RMK SC5 SLP216

CYYZ;2009-09-16 04:00;CYYZ 160400Z 04012KT 15SM BKN038 13/08 A3019 RMK SC5 SLP223

CYYZ;2009-09-16 05:00;CYYZ 160500Z 03010KT 15SM BKN041 12/08 A3021 RMK SC5 SLP231

CYYZ;2009-09-16 06:00;CYYZ 160600Z 03009KT 15SM SCT042 11/08 A3023 RMK SC3 SLP237

CYYZ;2009-09-16 07:00;CYYZ 160700Z 02008KT 15SM FEW043 10/07 A3023 RMK SC2 SLP238

CYYZ;2009-09-16 08:00;CYYZ 160800Z 02006KT 15SM FEW035 09/07 A3024 RMK SC1 SLP240

CYYZ;2009-09-16 09:00;CYYZ 160900Z 36006KT 15SM SKC 09/07 A3025 RMK SLP245

CYYZ;2009-09-16 10:00;CYYZ 161000Z 36006KT 15SM SKC 10/08 A3025 RMK SLP247

CYYZ;2009-09-16 11:00;CYYZ 161100Z 36008KT 15SM FEW025 09/08 A3027 RMK SC1 SLP253

CYYZ;2009-09-16 12:00;CYYZ 161200Z 36011KT 15SM FEW025 10/08 A3029 RMK SC1 SLP260

CYYZ;2009-09-16 13:00;CYYZ 161300Z 02007KT 15SM FEW025 12/08 A3030 RMK SC1 SLP262

CYYZ;2009-09-16 14:00;CYYZ 161400Z 36005KT 15SM FEW025 14/09 A3031 RMK SC1 SLP265

CYYZ;2009-09-16 15:00;CYYZ 161500Z 03013KT 15SM FEW035 17/08 A3030 RMK CU1 SLP262

CYYZ;2009-09-16 16:00;CYYZ 161600Z 08011G17KT 15SM SCT045 17/06 A3030 RMK CU4 SLP263

CYYZ;2009-09-16 17:00;CYYZ 161700Z 09009KT 15SM BKN050 18/06 A3030 RMK CU6 SLP262

CYYZ;2009-09-16 18:00;CYYZ 161800Z 04010KT 15SM BKN050 BKN060 18/07 A3030 RMK CU7SC1 SLP261

CYYZ;2009-09-16 19:00;CYYZ 161900Z 13006KT 15SM FEW045 BKN055 BKN070 17/10 A3030 RMK CF1SC7AC1 SLP261

CYYZ;2009-09-16 20:00;CYYZ 162000Z 12008KT 15SM FEW040 BKN050 BKN060 17/09 A3029 RMK CF1SC5SC1 SLP258

CYYZ;2009-09-16 21:00;CYYZ 162100Z 12010KT 15SM FEW035 BKN057 17/09 A3028 RMK CF2SC6 SLP258

CYYZ;2009-09-16 22:00;CYYZ 162200Z 09007KT 15SM FEW035 FEW058 17/09 A3029 RMK CF1SC2 SLP260

CYYZ;2009-09-16 23:00;CYYZ 162300Z 10007KT 15SM FEW056 17/08 A3029 RMK SC2 SLP261

CYYZ;2009-09-17 00:00;CYYZ 170000Z 08005KT 15SM SCT056 16/08 A3029 RMK SC3 SLP261

CYYZ;2009-09-17 01:00;CYYZ 170100Z 08004KT 15SM FEW053 16/08 A3030 RMK SC2 SLP263

CYYZ;2009-09-17 02:00;CYYZ 170200Z 07009KT 15SM SCT046 16/08 A3030 RMK SC3 SLP264

CYYZ;2009-09-17 03:00;CYYZ 170300Z 06008KT 15SM SCT055 15/07 A3030 RMK SC3 SLP263

CYYZ;2009-09-17 04:00;CYYZ 170400Z 07006KT 15SM FEW056 14/07 A3031 RMK SC2 SLP264

CYYZ;2009-09-17 05:00;CYYZ 170500Z 08005KT 15SM FEW042 BKN053 13/07 A3029 RMK SC1SC3 SLP259

CYYZ;2009-09-17 06:00;CYYZ 170600Z 05005KT 15SM BKN053 13/07 A3028 RMK SC4 SLP254

CYYZ;2009-09-17 07:00;CYYZ 170700Z 05005KT 15SM SCT054 12/07 A3027 RMK SC2 SLP253

CYYZ;2009-09-17 08:00;CYYZ 170800Z 01007KT 15SM BKN052 11/07 A3026 RMK SC6 SLP250

CYYZ;2009-09-17 09:00;CYYZ 170900Z 01005KT 15SM BKN052 11/07 A3026 RMK SC6 SLP248

CYYZ;2009-09-17 10:00;CYYZ 171000Z 34007KT 15SM BKN051 11/07 A3026 RMK SC6 SLP249

CYYZ;2009-09-17 11:00;CYYZ 171100Z 01006KT 15SM FEW025 BKN052 10/07 A3026 RMK SC1SC6 SLP248

CYYZ;2009-09-17 12:00;CYYZ 171200Z 34006KT 15SM FEW025 BKN053 11/07 A3026 RMK SC1SC4 SLP250

CYYZ;2009-09-17 13:00;CYYZ 171300Z 36004KT 15SM FEW025 FEW050 FEW220 13/07 A3025 RMK SC1SC1CI1 SLP247

CYYZ;2009-09-17 14:00;CYYZ 171400Z 04003KT 15SM FEW025 FEW050 FEW220 15/08 A3025 RMK SC1SC1CI1 SLP248

CYYZ;2009-09-17 15:00;CYYZ 171500Z 33004KT 15SM FEW050 FEW220 17/07 A3025 RMK SC1CI1 SLP245

CYYZ;2009-09-17 16:00;CYYZ 171600Z 32005KT 15SM FEW040 FEW230 18/08 A3023 RMK CF1CI1 SLP238

CYYZ;2009-09-17 17:00;CYYZ 171700Z 21002KT 15SM FEW045 FEW250 19/08 A3021 RMK CF2CI1 SLP231

CYYZ;2009-09-17 18:00;CYYZ 171800Z 00000KT 15SM FEW053 FEW260 20/08 A3018 RMK CF1CI1 SLP222

CYYZ;2009-09-17 19:00;CYYZ 171900Z 17008KT 15SM FEW052 FEW260 20/10 A3016 RMK CF1CI1 SLP215

CYYZ;2009-09-17 20:00;CYYZ 172000Z 15005KT 15SM FEW050 FEW260 20/10 A3014 RMK CU1CI1 SLP207

CYYZ;2009-09-17 21:00;CYYZ 172100Z 14009KT 15SM FEW048 19/10 A3012 RMK CU1 SLP202

CYYZ;2009-09-17 22:00;CYYZ 172200Z 17007KT 15SM FEW045 19/10 A3012 RMK CF1 SLP201

CYYZ;2009-09-17 23:00;CYYZ 172300Z 18006KT 15SM FEW050 FEW260 18/09 A3011 RMK SC1CI1 SLP197

CYYZ;2009-09-18 00:00;CYYZ 180000Z 19004KT 15SM FEW050 FEW120 FEW260 17/09 A3010 RMK SC1AC1CI1 SLP193

CYYZ;2009-09-18 01:00;CYYZ 180100Z 23005KT 15SM FEW260 16/09 A3010 RMK CI1 SLP194

CYYZ;2009-09-18 02:00;CYYZ 180200Z 24006KT 15SM SKC 15/10 A3009 RMK SLP192

CYYZ;2009-09-18 03:00;CYYZ 180300Z 27005KT 15SM SKC 14/10 A3009 RMK SLP190

CYYZ;2009-09-18 04:00;CYYZ 180400Z 26003KT 15SM SKC 13/09 A3008 RMK SLP187

CYYZ;2009-09-18 05:00;CYYZ 180500Z 29002KT 15SM FEW260 12/09 A3007 RMK CI1 SLP183

CYYZ;2009-09-18 06:00;CYYZ 180600Z 26003KT 15SM FEW260 12/09 A3005 RMK CI1 SLP178

CYYZ;2009-09-18 07:00;CYYZ 180700Z 20006KT 15SM FEW090 FEW260 09/08 A3004 RMK AC1CI1 SLP175

CYYZ;2009-09-18 08:00;CYYZ 180800Z 26008KT 15SM BKN064 11/09 A3004 RMK SC5 SLP174

CYYZ;2009-09-18 09:00;CYYZ 180900Z 24007KT 15SM BKN056 13/10 A3003 RMK SC7 SLP171

CYYZ;2009-09-18 10:00;CYYZ 181000Z 25011KT 15SM FEW063 BKN081 13/10 A3002 RMK SC2AC3 SLP167

CYYZ;2009-09-18 11:00;CYYZ 181100Z 30010KT 15SM FEW078 BKN100 15/11 A3001 RMK AC2AC3 SLP165

CYYZ;2009-09-18 12:00;CYYZ 181200Z 29010KT 15SM FEW077 BKN098 16/12 A3003 RMK AC2AC3 SLP171

CYYZ;2009-09-18 13:00;CYYZ 181300Z 30009KT 15SM SCT049 BKN079 17/12 A3003 RMK SC3AC3 SLP169

CYYZ;2009-09-18 13:22;CYYZ 181322Z 30012KT 15SM -SHRA SCT044 BKN082 18/ RMK SC3AC3 PCPN VRY LGT

CYYZ;2009-09-18 13:39;CYYZ 181339Z 29016KT 15SM SCT049 BKN098 18/ RMK SC3AC3

CYYZ;2009-09-18 14:00;CYYZ 181400Z 30014G20KT 15SM FEW030 SCT053 BKN095 18/14 A3004 RMK CU2SC2AC2 SLP172

CYYZ;2009-09-18 15:00;CYYZ 181500Z 31012G17KT 15SM BKN026 BKN082 19/14 A3005 RMK CU5AC2 SLP176

CYYZ;2009-09-18 16:00;CYYZ 181600Z 34015G20KT 15SM FEW035 BKN053 BKN085 18/12 A3007 RMK CU2SC2AC2 SLP183

CYYZ;2009-09-18 17:00;CYYZ 181700Z 33012G18KT 15SM FEW035 BKN062 BKN082 20/12 A3008 RMK CU2SC2AC1 SLP186

CYYZ;2009-09-18 18:00;CYYZ 181800Z 32018G26KT 15SM SCT036 BKN054 20/11 A3009 RMK CU3SC2 SLP190

CYYZ;2009-09-18 19:00;CYYZ 181900Z 35017G22KT 15SM FEW038 SCT045 20/10 A3009 RMK CU2SC2 SLP190

CYYZ;2009-09-18 20:00;CYYZ 182000Z 34017KT 15SM FEW045 19/08 A3009 RMK CU2 SLP191

CYYZ;2009-09-18 21:00;CYYZ 182100Z 35017KT 15SM FEW045 18/07 A3011 RMK CU1 SLP198

CYYZ;2009-09-18 22:00;CYYZ 182200Z 35021KT 15SM FEW045 16/04 A3013 RMK SC1 SLP205

CYYZ;2009-09-18 23:00;CYYZ 182300Z 34014G19KT 15SM FEW045 15/06 A3016 RMK SC1 SLP214

CYYZ;2009-09-19 00:00;CYYZ 190000Z 33014G19KT 15SM SKC 14/06 A3018 RMK SLP223

CYYZ;2009-09-19 01:00;CYYZ 190100Z 33010G16KT 15SM SKC 13/06 A3021 RMK SLP233

CYYZ;2009-09-19 02:00;CYYZ 190200Z 36010KT 15SM SKC 12/06 A3023 RMK SLP239

CYYZ;2009-09-19 03:00;CYYZ 190300Z 36009KT 15SM SKC 11/06 A3025 RMK SLP246

CYYZ;2009-09-19 04:00;CYYZ 190400Z 02007KT 15SM SKC 09/05 A3027 RMK SLP253

CYYZ;2009-09-19 05:00;CYYZ 190500Z 36005KT 15SM SKC 09/05 A3029 RMK SLP259

CYYZ;2009-09-19 06:00;CYYZ 190600Z 05003KT 15SM SKC 10/05 A3030 RMK SLP262

CYYZ;2009-09-19 07:00;CYYZ 190700Z 02004KT 15SM SKC 08/04 A3031 RMK SLP264

CYYZ;2009-09-19 08:00;CYYZ 190800Z 30004KT 15SM SKC 07/04 A3031 RMK SLP265

CYYZ;2009-09-19 09:00;CYYZ 190900Z 36003KT 15SM SKC 07/04 A3031 RMK SLP268

CYYZ;2009-09-19 10:00;CYYZ 191000Z 36002KT 15SM SKC 06/04 A3032 RMK SLP270

CYYZ;2009-09-19 11:00;CYYZ 191100Z 02005KT 15SM FEW025 06/03 A3033 RMK SC1 SLP273

CYYZ;2009-09-19 12:00;CYYZ 191200Z 02004KT 15SM FEW030 07/04 A3034 RMK SC1 SLP279

CYYZ;2009-09-19 13:00;CYYZ 191300Z 00000KT 15SM FEW036 10/05 A3036 RMK SC1 SLP284

CYYZ;2009-09-19 14:00;CYYZ 191400Z 01005KT 15SM FEW038 12/05 A3037 RMK CU1 SLP289

CYYZ;2009-09-19 15:00;CYYZ 191500Z 35002KT 15SM FEW040 13/05 A3038 RMK CU1 SLP290

CYYZ;2009-09-19 16:00;CYYZ 191600Z 00000KT 15SM FEW043 14/04 A3037 RMK CU1 SLP288

CYYZ;2009-09-19 17:00;CYYZ 191700Z 26002KT 15SM FEW270 15/05 A3036 RMK CI1 SLP285

CYYZ;2009-09-19 18:00;CYYZ 191800Z 01003KT 15SM FEW270 16/05 A3034 RMK CI1 SLP278

CYYZ;2009-09-19 19:00;CYYZ 191900Z 02002KT 15SM SKC 17/04 A3032 RMK SLP270

CYYZ;2009-09-19 20:00;CYYZ 192000Z 14009KT 15SM FEW270 17/07 A3031 RMK CI1 SLP266

CYYZ;2009-09-19 21:00;CYYZ 192100Z 15006KT 15SM FEW270 17/07 A3030 RMK CI1 SLP264

CYYZ;2009-09-19 22:00;CYYZ 192200Z 16006KT 15SM FEW260 16/08 A3030 RMK CI0 SLP262

CYYZ;2009-09-19 23:00;CYYZ 192300Z 17006KT 15SM FEW260 15/08 A3029 RMK CI1 CONTRAIL SLP261

CYYZ;2009-09-20 00:00;CYYZ 200000Z 18004KT 15SM FEW260 14/08 A3029 RMK CI1 SLP260

CYYZ;2009-09-20 01:00;CYYZ 200100Z 18003KT 15SM FEW260 14/08 A3029 RMK CI1 SLP262

CYYZ;2009-09-20 02:00;CYYZ 200200Z 00000KT 15SM FEW250 13/07 A3029 RMK CI1 SLP261

CYYZ;2009-09-20 03:00;CYYZ 200300Z 09002KT 15SM FEW250 12/07 A3028 RMK CI1 SLP258

CYYZ;2009-09-20 04:00;CYYZ 200400Z 07002KT 15SM SKC 11/07 A3028 RMK SLP257

CYYZ;2009-09-20 05:00;CYYZ 200500Z 32006KT 15SM SKC 09/07 A3030 RMK SLP262

CYYZ;2009-09-20 06:00;CYYZ 200600Z 01004KT 15SM SKC 09/07 A3030 RMK SLP263

CYYZ;2009-09-20 07:00;CYYZ 200700Z 36003KT 15SM SKC 08/06 A3029 RMK SLP261

CYYZ;2009-09-20 08:00;CYYZ 200800Z 00000KT 15SM SKC 07/06 A3029 RMK SLP260

CYYZ;2009-09-20 09:00;CYYZ 200900Z 01004KT 12SM SKC 07/06 A3029 RMK SLP260

CYYZ;2009-09-20 10:00;CYYZ 201000Z 01002KT 12SM SKC 07/06 A3029 RMK SLP259

CYYZ;2009-09-20 11:00;CYYZ 201100Z 01003KT 12SM FEW260 07/06 A3028 RMK CI0 SLP257

CYYZ;2009-09-20 12:00;CYYZ 201200Z 33002KT 15SM FEW260 08/07 A3029 RMK CI0 SLP260

CYYZ;2009-09-20 13:00;CYYZ 201300Z 02004KT 15SM FEW260 11/09 A3029 RMK CI0 SLP260

CYYZ;2009-09-20 14:00;CYYZ 201400Z 08006KT 15SM FEW260 16/11 A3029 RMK CI0 SLP261

CYYZ;2009-09-20 15:00;CYYZ 201500Z 15006KT 15SM FEW260 18/10 A3028 RMK CI0 SLP257

CYYZ;2009-09-20 16:00;CYYZ 201600Z 09005KT 15SM FEW260 19/10 A3027 RMK CI0 CONTRAILS SLP252

CYYZ;2009-09-20 17:00;CYYZ 201700Z 10005KT 15SM FEW260 20/10 A3026 RMK CI0 SLP249

CYYZ;2009-09-20 18:00;CYYZ 201800Z 16007KT 15SM FEW260 20/11 A3025 RMK CI1 SLP245

CYYZ;2009-09-20 19:00;CYYZ 201900Z 14008KT 15SM SCT260 21/10 A3023 RMK CI1 SLP238

CYYZ;2009-09-20 20:00;CYYZ 202000Z 14007KT 15SM SCT260 21/10 A3021 RMK CI1 CONTRAILS SLP233

CYYZ;2009-09-20 21:00;CYYZ 202100Z 11006KT 15SM SCT260 20/08 A3020 RMK CI1 SLP230

CYYZ;2009-09-20 22:00;CYYZ 202200Z 09005KT 15SM BKN260 20/09 A3019 RMK CI1 SLP224

CYYZ;2009-09-20 23:00;CYYZ 202300Z 11005KT 15SM FEW050 BKN280 18/09 A3019 RMK SC1CI1 SLP224

CYYZ;2009-09-21 00:00;CYYZ 210000Z 09007KT 15SM FEW280 17/11 A3019 RMK CI1 SLP224

CYYZ;2009-09-21 01:00;CYYZ 210100Z 09004KT 15SM FEW270 17/12 A3019 RMK CI1 SLP225

CYYZ;2009-09-21 02:00;CYYZ 210200Z 08004KT 15SM FEW270 16/12 A3018 RMK CI1 SLP223

CYYZ;2009-09-21 03:00;CYYZ 210300Z CCA 05004KT 15SM FEW040 FEW270 15/13 A3018 RMK SC1CI0 SLP221

CYYZ;2009-09-21 04:00;CYYZ 210400Z 02004KT 15SM FEW040 FEW270 15/12 A3018 RMK SC1CI0 SLP220

CYYZ;2009-09-21 05:00;CYYZ 210500Z 05005KT 15SM SKC 15/12 A3016 RMK SLP216

CYYZ;2009-09-21 06:00;CYYZ 210600Z 05003KT 15SM FEW270 14/12 A3016 RMK CI0 SLP213

CYYZ;2009-09-21 07:00;CYYZ 210700Z 02003KT 15SM BKN200 14/12 A3015 RMK CI2 SLP210

CYYZ;2009-09-21 08:00;CYYZ 210800Z 01002KT 15SM BKN220 14/13 A3014 RMK CI6 SLP208

CYYZ;2009-09-21 09:00;CYYZ 210900Z 00000KT 15SM BKN050 16/14 A3014 RMK SC7 SLP207

CYYZ;2009-09-21 10:00;CYYZ 211000Z 06003KT 15SM BKN050 OVC060 16/14 A3014 RMK SC5SC3 SLP206

CYYZ;2009-09-21 11:00;CYYZ 211100Z 09006KT 15SM BKN049 OVC063 17/15 A3013 RMK SC6SC2 SLP204

CYYZ;2009-09-21 12:00;CYYZ 211200Z 09005KT 15SM SCT052 BKN100 OVC140 17/15 A3013 RMK SC3AC2AC2 SLP205

CYYZ;2009-09-21 13:00;CYYZ 211300Z 11006KT 15SM BKN050 OVC100 18/16 A3013 RMK SC5AC3 SLP204

CYYZ;2009-09-21 14:00;CYYZ 211400Z 12009KT 15SM SCT064 BKN077 BKN160 20/16 A3013 RMK SC3AC2AC1 SLP203

CYYZ;2009-09-21 15:00;CYYZ 211500Z 12008KT 15SM FEW062 BKN084 BKN160 21/16 A3013 RMK SC2AC2AC1 SLP204

CYYZ;2009-09-21 16:00;CYYZ 211600Z 12007KT 15SM FEW042 OVC068 21/16 A3013 RMK SC2AC6 SLP204

CYYZ;2009-09-21 17:00;CYYZ 211700Z 13007KT 15SM SCT044 OVC078 20/16 A3011 RMK SC3AC5 SLP196

CYYZ;2009-09-21 18:00;CYYZ 211800Z 14007KT 15SM SCT045 BKN083 OVC110 21/17 A3010 RMK SC3AC2AC3 SLP194

CYYZ;2009-09-21 19:00;CYYZ 211900Z 14009KT 15SM BKN019 OVC046 21/17 A3010 RMK SC6SC2 SLP194

CYYZ;2009-09-21 19:49;CYYZ 211949Z 13007KT 12SM -SHRA OVC019 20/ RMK SC8

CYYZ;2009-09-21 20:00;CYYZ 212000Z 14006KT 10SM -SHRA OVC019 20/18 A3010 RMK SC8 SLP195

CYYZ;2009-09-21 21:00;CYYZ 212100Z 13005KT 7SM -SHRA FEW010 OVC023 19/18 A3011 RMK SF1SC8 BR SLP196

CYYZ;2009-09-21 22:00;CYYZ 212200Z 13006KT 4SM -RA BR FEW026 OVC035 19/18 A3011 RMK SC2SC6 SLP196

CYYZ;2009-09-21 22:49;CYYZ 212249Z 12007KT 4SM -RA BR FEW007 BKN045 BKN075 19/ RMK SF1SC6AC1

CYYZ;2009-09-21 23:00;CYYZ 212300Z 12007KT 4SM -RA BR FEW006 FEW040 BKN065 BKN080 19/18 A3010 RMK SF1SC2SC5AC1 SLP195

CYYZ;2009-09-21 23:20;CYYZ 212320Z 12006KT 5SM BR FEW007 SCT045 BKN073 19/ RMK SF1SC4AC3

CYYZ;2009-09-22 00:00;CYYZ 220000Z 13004KT 5SM BR SCT038 OVC085 19/18 A3011 RMK SC4AC4 SLP196

CYYZ;2009-09-22 01:00;CYYZ 220100Z 12004KT 5SM BR SCT028 OVC038 19/19 A3011 RMK SC3SC5 SLP198

CYYZ;2009-09-22 02:00;CYYZ 220200Z 11004KT 4SM BR BKN040 OVC070 20/19 A3011 RMK SC6AC2 SLP198

CYYZ;2009-09-22 03:00;CYYZ 220300Z 12005KT 5SM BR FEW035 OVC070 20/19 A3010 RMK SC2AC6 SLP194

CYYZ;2009-09-22 04:00;CYYZ 220400Z 14004KT 5SM BR BKN030 OVC050 20/19 A3011 RMK SC6SC2 SLP195

CYYZ;2009-09-22 05:00;CYYZ 220500Z 14003KT 3SM BR FEW032 OVC060 20/20 A3010 RMK SC1SC7 SLP194

CYYZ;2009-09-22 06:00;CYYZ 220600Z 14004KT 3SM BR OVC024 20/20 A3010 RMK SC8 SLP194

CYYZ;2009-09-22 07:00;CYYZ 220700Z 17004KT 6SM BR FEW022 OVC045 20/20 A3010 RMK SC2SC6 SLP192

CYYZ;2009-09-22 08:00;CYYZ 220800Z 19004KT 9SM BKN020 OVC045 20/20 A3010 RMK SC6SC2 SLP191

CYYZ;2009-09-22 09:00;CYYZ 220900Z 18005KT 9SM BKN015 20/19 A3009 RMK ST7 SLP189

CYYZ;2009-09-22 10:00;CYYZ 221000Z 19004KT 9SM OVC019 20/20 A3010 RMK SC8 SLP194

CYYZ;2009-09-22 11:00;CYYZ 221100Z 20004KT 8SM FEW014 OVC019 21/20 A3012 RMK SF2SC6 SLP199

CYYZ;2009-09-22 12:00;CYYZ 221200Z 19007KT 8SM BKN026 BKN260 21/20 A3012 RMK SC6CI2 SLP200

CYYZ;2009-09-22 12:37;CYYZ 221237Z 23008KT 8SM BKN012 BKN130 22/ RMK SC6AC2

CYYZ;2009-09-22 13:00;CYYZ 221300Z 22007KT 8SM OVC011 22/20 A3012 RMK SC8 SLP199

CYYZ;2009-09-22 14:00;CYYZ 221400Z 22007KT 8SM SCT011 OVC016 22/20 A3013 RMK SC3SC5 SLP201

CYYZ;2009-09-22 15:00;CYYZ 221500Z 22006KT 8SM SCT013 OVC018 22/20 A3013 RMK SC4SC4 SLP201

CYYZ;2009-09-22 16:00;CYYZ 221600Z 18007KT 8SM FEW014 OVC025 23/20 A3013 RMK SC2SC6 SLP202

CYYZ;2009-09-22 17:00;CYYZ 221700Z 21006KT 8SM FEW019 OVC024 23/20 A3012 RMK SC2SC6 SLP199

CYYZ;2009-09-22 17:51;CYYZ 221751Z 20007KT 8SM -DZ SCT017 OVC024 23/ RMK ST3SC5

CYYZ;2009-09-22 18:00;CYYZ 221800Z 20005KT 8SM -DZ SCT017 OVC025 23/20 A3012 RMK ST3SC5 SLP199

CYYZ;2009-09-22 18:26;CYYZ 221826Z 16006KT 8SM SCT025 OVC048 23/ RMK SC3SC5

CYYZ;2009-09-22 19:00;CYYZ 221900Z 20009KT 8SM OVC058 23/21 A3010 RMK SC8 SLP193

CYYZ;2009-09-22 20:00;CYYZ 222000Z 22007KT 9SM FEW015 BKN058 BKN070 23/20 A3009 RMK CF2SC3AC2 SLP189

CYYZ;2009-09-22 21:00;CYYZ 222100Z 18004KT 8SM SCT018 OVC057 24/21 A3009 RMK SC3SC5 SLP187

CYYZ;2009-09-22 22:00;CYYZ 222200Z 16004KT 8SM FEW017 SCT048 OVC073 23/20 A3009 RMK CF1SC3AC4 SLP188

CYYZ;2009-09-22 23:00;CYYZ 222300Z 15003KT 9SM FEW020 BKN070 BKN260 23/20 A3009 RMK SC1AC6CI1 SLP189

CYYZ;2009-09-23 00:00;CYYZ 230000Z 20004KT 12SM BKN020 BKN130 23/20 A3009 RMK SC6AC1 SLP187

CYYZ;2009-09-23 01:00;CYYZ 230100Z 21006KT 10SM FEW020 22/20 A3010 RMK SC1 SLP190

CYYZ;2009-09-23 02:00;CYYZ 230200Z 21004KT 10SM FEW075 FEW260 21/20 A3009 RMK AC1CI0 SLP187

CYYZ;2009-09-23 03:00;CYYZ 230300Z 20003KT 9SM FEW240 21/19 A3008 RMK CI2 SLP185

CYYZ;2009-09-23 04:00;CYYZ 230400Z 18002KT 9SM OVC021 21/19 A3007 RMK ST6 SLP180

CYYZ;2009-09-23 05:00;CYYZ 230500Z 18004KT 9SM FEW025 FEW065 20/19 A3006 RMK SC1SC2 SLP177

CYYZ;2009-09-23 06:00;CYYZ 230600Z 24004KT 7SM FEW025 OVC065 20/19 A3007 RMK SC1SC7 SLP181

CYYZ;2009-09-23 07:00;CYYZ 230700Z 23002KT 7SM FEW065 OVC280 19/19 A3007 RMK SC2CC4 SLP180

CYYZ;2009-09-23 08:00;CYYZ 230800Z 18002KT 7SM FEW035 OVC240 19/19 A3004 RMK SC2CC6 SLP173

CYYZ;2009-09-23 09:00;CYYZ 230900Z 18004KT 7SM SCT040 SCT070 BKN240 20/19 A3003 RMK SC3AC1CI2 SLP168

CYYZ;2009-09-23 09:23;CYYZ 230923Z 20003KT 6SM BR FEW007 OVC220 20/ RMK SF1CC6

CYYZ;2009-09-23 09:44;CYYZ 230944Z 23004KT 6SM BR BKN007 OVC035 20/ RMK ST7SC1

CYYZ;2009-09-23 10:00;CYYZ 231000Z 21005KT 6SM BR FEW006 OVC009 20/19 A3002 RMK SF2ST6 SLP166

CYYZ;2009-09-23 10:20;CYYZ 231020Z 22004KT 6SM BR SCT009 BKN014 OVC058 20/ RMK SF3SC2SC2

CYYZ;2009-09-23 11:00;CYYZ 231100Z 19005KT 5SM BR FEW007 BKN012 OVC062 20/19 A3001 RMK SF2SC3SC2 SLP163

CYYZ;2009-09-23 12:00;CYYZ 231200Z 18004KT 5SM BR SCT008 OVC012 21/20 A3002 RMK SF4SF4 SLP164

CYYZ;2009-09-23 12:44;CYYZ 231244Z 19005KT 5SM BR SCT012 OVC071 21/ RMK SF4AC4

CYYZ;2009-09-23 13:00;CYYZ 231300Z 19004KT 5SM BR SCT011 OVC071 21/20 A3001 RMK SF4AC4 SLP162

CYYZ;2009-09-23 13:15;CYYZ 231315Z 21006KT 5SM BR FEW008 BKN012 OVC075 21/ RMK SF2SC4AC2

CYYZ;2009-09-23 14:00;CYYZ 231400Z 21010KT 6SM BR SCT011 OVC017 22/20 A3001 RMK SC4SC4 SLP162

CYYZ;2009-09-23 14:40;CYYZ 231440Z 25009KT 6SM -SHRA BR SCT013 BKN058 OVC110 23/ RMK SC3SC2AC3

CYYZ;2009-09-23 15:00;CYYZ 231500Z 25010G15KT 7SM SCT013 BKN110 BKN260 23/20 A3001 RMK SC3AC2CI1 SLP162

CYYZ;2009-09-23 16:00;CYYZ 231600Z 25017KT 10SM SCT026 BKN031 BKN110 26/21 A3000 RMK CU3SC2AC2 SLP158

CYYZ;2009-09-23 17:00;CYYZ 231700Z 25013G21KT 15SM SCT031 BKN038 BKN120 27/20 A2998 RMK CU3SC2AC2 SLP153

CYYZ;2009-09-23 18:00;CYYZ 231800Z 27020G25KT 15SM SCT038 BKN052 BKN130 27/19 A2998 RMK CU3SC2AC2 SLP150

CYYZ;2009-09-23 19:00;CYYZ 231900Z 27013G19KT 15SM SCT039 BKN043 25/19 A2998 RMK CU3SC4 TCU ASOCTD SLP149

CYYZ;2009-09-23 19:42;CYYZ 231942Z 28015G22KT 6SM -SHRA SCT032 BKN045 25/ RMK CU4SC3 TCU EMBD

CYYZ;2009-09-23 19:53;CYYZ 231953Z 31017G24KT 2SM SHRA SCT032 BKN045 22/ RMK CU4SC3 TCU EMBD

CYYZ;2009-09-23 20:00;CYYZ 232000Z 31010G21KT 10SM -SHRA SCT032 BKN042 22/21 A2999 RERA RMK CU4SC3 SLP154

CYYZ;2009-09-23 20:27;CYYZ 232027Z 36011KT 10SM SCT028 BKN041 22/ RMK CU3SC3 TCU ASOCTD

CYYZ;2009-09-23 21:00;CYYZ 232100Z 31007KT 15SM FEW035 SCT042 SCT260 23/20 A2999 RMK CU2SC2CI0 SLP156

CYYZ;2009-09-23 22:00;CYYZ 232200Z 29014G19KT 15SM FEW035 SCT260 24/19 A3000 RMK CU2CI1 SLP157

CYYZ;2009-09-23 23:00;CYYZ 232300Z 30010KT 15SM FEW035 FEW130 SCT260 23/17 A3001 RMK CU2AC1CI1 AC TR SLP161

CYYZ;2009-09-24 00:00;CYYZ 240000Z 32009KT 15SM FEW030 SCT250 21/16 A3003 RMK CU1CI1 SLP169

CYYZ;2009-09-24 01:00;CYYZ 240100Z 30012KT 15SM SCT250 19/16 A3005 RMK CI1 SLP174

CYYZ;2009-09-24 02:00;CYYZ 240200Z 32008KT 15SM SCT250 18/16 A3006 RMK CI1 SLP177

CYYZ;2009-09-24 03:00;CYYZ 240300Z 33011KT 15SM FEW250 18/15 A3006 RMK CI1 SLP177

CYYZ;2009-09-24 04:00;CYYZ 240400Z 32009KT 15SM FEW250 17/15 A3007 RMK CI1 SLP183

CYYZ;2009-09-24 05:00;CYYZ 240500Z 32008KT 15SM FEW250 17/15 A3008 RMK CI1 SLP184

CYYZ;2009-09-24 06:00;CYYZ 240600Z 30008KT 12SM FEW240 16/16 A3009 RMK CI1 SLP187

CYYZ;2009-09-24 07:00;CYYZ 240700Z 31008KT 12SM FEW240 16/14 A3009 RMK CI1 SLP189

CYYZ;2009-09-24 08:00;CYYZ 240800Z 31005KT 12SM SKC 15/14 A3010 RMK SLP191

CYYZ;2009-09-24 09:00;CYYZ 240900Z 32006KT 12SM SKC 14/13 A3010 RMK SLP191

CYYZ;2009-09-24 10:00;CYYZ 241000Z 31007KT 10SM SKC 14/13 A3011 RMK SLP195

CYYZ;2009-09-24 11:00;CYYZ 241100Z 32004KT 15SM SCT250 14/13 A3012 RMK CI2 SLP198

CYYZ;2009-09-24 12:00;CYYZ 241200Z 35010KT 15SM BKN260 15/13 A3014 RMK CI3 SLP207

CYYZ;2009-09-24 13:00;CYYZ 241300Z 36007KT 15SM FEW030 BKN260 16/14 A3015 RMK CF1CI3 CF TR SLP210

CYYZ;2009-09-24 14:00;CYYZ 241400Z 02004KT 15SM FEW030 BKN260 18/15 A3016 RMK CF1CI3 SLP213

CYYZ;2009-09-24 15:00;CYYZ 241500Z 05006KT 15SM FEW030 BKN260 19/13 A3016 RMK CU2CI2 SLP214

CYYZ;2009-09-24 16:00;CYYZ 241600Z 09002KT 15SM SCT037 BKN260 20/13 A3016 RMK CU4CI2 SLP213

CYYZ;2009-09-24 17:00;CYYZ 241700Z 35005KT 15SM SCT042 BKN260 21/13 A3015 RMK CU4CI2 SLP210

CYYZ;2009-09-24 18:00;CYYZ 241800Z 34004KT 15SM BKN046 BKN250 21/11 A3014 RMK CU5CI2 SLP206

CYYZ;2009-09-24 19:00;CYYZ 241900Z 30007KT 15SM BKN054 BKN250 22/11 A3012 RMK CU5CI2 SLP199

CYYZ;2009-09-24 20:00;CYYZ 242000Z 33005KT 15SM SCT051 BKN250 22/11 A3011 RMK CU4CI2 SLP196

CYYZ;2009-09-24 21:00;CYYZ 242100Z 35009KT 15SM FEW051 BKN250 22/10 A3010 RMK CU2CI2 SLP195

CYYZ;2009-09-24 22:00;CYYZ 242200Z 36015KT 15SM FEW052 FEW058 BKN250 20/11 A3013 RMK CU1SC2CI2 SLP205

CYYZ;2009-09-24 23:00;CYYZ 242300Z 35010G18KT 15SM FEW050 FEW120 BKN220 17/10 A3016 RMK CU1AC1CI2 SLP212

CYYZ;2009-09-25 00:00;CYYZ 250000Z 35015KT 15SM FEW090 BKN220 16/08 A3017 RMK AC1CI2 SLP217

CYYZ;2009-09-25 01:00;CYYZ 250100Z 36010KT 15SM BKN220 14/09 A3018 RMK CI2 SLP222

CYYZ;2009-09-25 02:00;CYYZ 250200Z 36015KT 15SM SCT220 14/10 A3018 RMK CI1 SLP222

CYYZ;2009-09-25 03:00;CYYZ 250300Z 36011KT 15SM SCT220 14/09 A3020 RMK CI1 SLP228

CYYZ;2009-09-25 04:00;CYYZ 250400Z 36012KT 15SM SCT220 13/09 A3022 RMK CI1 SLP234

CYYZ;2009-09-25 05:00;CYYZ 250500Z 36011KT 15SM SCT220 13/09 A3022 RMK CI1 SLP234

CYYZ;2009-09-25 06:00;CYYZ 250600Z 36006KT 15SM FEW220 12/09 A3023 RMK CI1 SLP237

CYYZ;2009-09-25 07:00;CYYZ 250700Z 02006KT 15SM FEW220 11/09 A3023 RMK CI1 SLP238

CYYZ;2009-09-25 08:00;CYYZ 250800Z 01008KT 15SM FEW220 12/08 A3024 RMK CI1 SLP241

CYYZ;2009-09-25 09:00;CYYZ 250900Z 36007KT 15SM FEW025 SCT220 12/08 A3026 RMK SC1CI1 SLP248

CYYZ;2009-09-25 10:00;CYYZ 251000Z 01007KT 15SM FEW025 SCT220 11/09 A3027 RMK SC1CI1 SLP250

CYYZ;2009-09-25 11:00;CYYZ 251100Z 06010KT 15SM FEW026 FEW070 12/10 A3030 RMK SC2AC1 SLP260

CYYZ;2009-09-25 12:00;CYYZ 251200Z 05007KT 15SM FEW016 BKN033 BKN070 12/10 A3031 RMK SC2SC4AC1 SLP268

CYYZ;2009-09-25 13:00;CYYZ 251300Z 07008KT 15SM FEW018 BKN034 12/07 A3035 RMK SC1SC4 SLP279

CYYZ;2009-09-25 14:00;CYYZ 251400Z 08010KT 15SM FEW033 13/06 A3037 RMK SC2 SLP285

CYYZ;2009-09-25 15:00;CYYZ 251500Z 08007KT 15SM SCT024 13/07 A3036 RMK SC3 SLP284

CYYZ;2009-09-25 16:00;CYYZ 251600Z 09010KT 15SM SCT027 13/07 A3037 RMK SC3 SLP286

CYYZ;2009-09-25 17:00;CYYZ 251700Z 10009G15KT 15SM FEW022 SCT027 14/07 A3037 RMK CU2SC2 SLP286

CYYZ;2009-09-25 18:00;CYYZ 251800Z 09007KT 15SM FEW023 SCT029 14/07 A3036 RMK CU2SC2 SLP284

CYYZ;2009-09-25 19:00;CYYZ 251900Z 10009KT 15SM FEW030 FEW240 15/07 A3034 RMK CU1CI1 SLP277

CYYZ;2009-09-25 20:00;CYYZ 252000Z 08011G16KT 15SM FEW030 FEW240 15/06 A3032 RMK CU1CI1 SLP271

CYYZ;2009-09-25 21:00;CYYZ 252100Z 09009KT 15SM FEW030 FEW060 FEW240 15/05 A3032 RMK CF1SC1CI1 SLP269

CYYZ;2009-09-25 22:00;CYYZ 252200Z 12009KT 15SM FEW030 FEW120 FEW240 14/05 A3032 RMK CF1AC1CI1 SLP271

CYYZ;2009-09-25 23:00;CYYZ 252300Z 11007KT 15SM FEW030 FEW100 FEW240 13/06 A3033 RMK CF1AC1CI1 SLP272

CYYZ;2009-09-26 00:00;CYYZ 260000Z CCA 09005KT 15SM FEW120 12/07 A3031 RMK AC1 SLP268

CYYZ;2009-09-26 01:00;CYYZ 260100Z 10005KT 15SM FEW030 FEW100 12/07 A3031 RMK CF1AC1 SLP267

CYYZ;2009-09-26 02:00;CYYZ 260200Z 09007KT 15SM FEW030 BKN240 12/07 A3030 RMK CF1CC2 SLP264

CYYZ;2009-09-26 03:00;CYYZ 260300Z 11010KT 15SM FEW030 BKN240 13/07 A3029 RMK CF1CC2 SLP261

CYYZ;2009-09-26 04:00;CYYZ 260400Z 11006KT 15SM FEW030 BKN240 12/07 A3028 RMK CF1CC2 SLP258

CYYZ;2009-09-26 05:00;CYYZ 260500Z 13007KT 15SM FEW030 BKN220 13/06 A3027 RMK CF1CC3 SLP253

CYYZ;2009-09-26 06:00;CYYZ 260600Z 13007KT 15SM SCT210 13/08 A3025 RMK CC1 SLP245

CYYZ;2009-09-26 07:00;CYYZ 260700Z 11006KT 15SM SCT250 13/08 A3022 RMK CC2 SLP236

CYYZ;2009-09-26 08:00;CYYZ 260800Z 12005KT 15SM BKN200 13/08 A3019 RMK CC2 SLP228

CYYZ;2009-09-26 09:00;CYYZ 260900Z 11004KT 15SM FEW120 BKN200 13/08 A3017 RMK AC1CC7 SLP220

CYYZ;2009-09-26 10:00;CYYZ 261000Z 28002KT 15SM FEW046 BKN200 09/07 A3015 RMK CF1CC7 SLP212

CYYZ;2009-09-26 11:00;CYYZ 261100Z 00000KT 15SM BKN150 09/08 A3014 RMK AC6 SLP208

CYYZ;2009-09-26 12:00;CYYZ 261200Z 00000KT 15SM SCT110 BKN130 11/08 A3012 RMK AC3AC3 SLP202

CYYZ;2009-09-26 12:11;CYYZ 261211Z 00000KT 15SM -SHRA SCT100 BKN120 12/ RMK ACC3AC3

CYYZ;2009-09-26 12:39;CYYZ 261239Z 03002KT 15SM SCT085 BKN110 13/ RMK AC3AC3

CYYZ;2009-09-26 13:00;CYYZ 261300Z 02003KT 15SM BKN081 BKN110 13/10 A3010 RMK AC5AC2 SLP196

CYYZ;2009-09-26 14:00;CYYZ 261400Z 15006KT 15SM BKN087 BKN260 15/11 A3008 RMK AC6CI1 SLP188

CYYZ;2009-09-26 15:00;CYYZ 261500Z 15010KT 15SM SCT081 BKN120 BKN260 17/12 A3006 RMK AC3AC2CI1 SLP180

CYYZ;2009-09-26 16:00;CYYZ 261600Z 15007KT 15SM FEW025 BKN075 BKN140 17/12 A3005 RMK CF1AC6AC2 CF TR SLP178

CYYZ;2009-09-26 17:00;CYYZ 261700Z 14007KT 15SM SCT028 BKN110 BKN130 17/13 A3001 RMK SC3AC2AC2 SLP166

CYYZ;2009-09-26 18:00;CYYZ 261800Z 14005KT 15SM BKN028 OVC034 17/13 A2998 RMK SC6SC2 SLP155

CYYZ;2009-09-26 18:40;CYYZ 261840Z 12007KT 12SM -SHRA OVC025 16/ RMK SC8

CYYZ;2009-09-26 19:00;CYYZ 261900Z 11009KT 8SM -SHRA OVC026 16/13 A2996 RMK SC8 SLP148

CYYZ;2009-09-26 19:20;CYYZ 261920Z 10005KT 12SM OVC024 16/ RMK SC8

CYYZ;2009-09-26 19:31;CYYZ 261931Z 10007KT 12SM -SHRA OVC023 16/ RMK SC8

CYYZ;2009-09-26 20:00;CYYZ 262000Z 11004KT 12SM -SHRA FEW018 OVC024 16/14 A2992 RMK CF1SC7 SLP135

CYYZ;2009-09-26 20:43;CYYZ 262043Z 16007KT 12SM OVC021 16/ RMK SC8

CYYZ;2009-09-26 21:00;CYYZ 262100Z 16009KT 12SM SCT015 OVC022 16/14 A2991 RMK SC3SC5 SLP131

CYYZ;2009-09-26 21:25;CYYZ 262125Z 16007KT 10SM -SHRA SCT014 OVC022 16/ RMK SF3SC5

CYYZ;2009-09-26 21:35;CYYZ 262135Z CCA 15009KT 2 1/2SM SHRA BR SCT012 OVC021 15/ RMK SF3SC5

CYYZ;2009-09-26 21:49;CYYZ 262149Z 14010KT 6SM -SHRA BR SCT011 OVC026 15/ RMK SF3SC5

CYYZ;2009-09-26 22:00;CYYZ 262200Z 14008KT 4SM -RA BR SCT005 OVC017 15/15 A2989 RMK SF3SC5 SLP122

CYYZ;2009-09-26 22:20;CYYZ 262220Z 14005KT 12SM -RA SCT012 OVC016 15/ RMK SF3SC5 PCPN VRY LGT

CYYZ;2009-09-26 23:00;CYYZ 262300Z 15004KT 10SM -RA SCT007 OVC014 15/15 A2987 RMK SF3SF5 PCPN VRY LGT SLP118

CYYZ;2009-09-26 23:15;CYYZ 262315Z 15004KT 4SM -RA BR SCT007 OVC012 15/ RMK SF3SF5 PCPN VRY LGT

CYYZ;2009-09-27 00:00;CYYZ 270000Z 15008KT 4SM -RA BR FEW005 BKN010 OVC019 15/14 A2985 RMK SF2SF4SC2 VIS NE 13/4 PCPN VRY LGT SLP111

CYYZ;2009-09-27 01:00;CYYZ 270100Z 15005KT 3SM -RA BR SCT003 BKN014 OVC019 15/15 A2984 RMK SF3SF3SC2 VIS ENE 11/2 SLP108

CYYZ;2009-09-27 01:32;CYYZ 270132Z 15004KT 3SM -RA BR BKN004 OVC014 15/ RMK SF6SF2

CYYZ;2009-09-27 02:00;CYYZ 270200Z 14004KT 5SM -RA BR BKN003 OVC007 15/15 A2981 RMK SF5SF3 SLP096

CYYZ;2009-09-27 02:38;CYYZ 270238Z 15004KT 6SM -RA BR SCT003 BKN007 OVC022 15/ RMK SF3SF3SC2 PCPN VRY LGT

CYYZ;2009-09-27 03:00;CYYZ 270300Z 15004KT 6SM -RA BR BKN004 OVC011 15/15 A2978 RMK SF6SC2 PCPN VRY LGT SLP086

CYYZ;2009-09-27 03:15;CYYZ 270315Z 13005KT 3SM RA BR SCT001 OVC005 15/ RMK SF4SC4 VIS NNE 11/2

CYYZ;2009-09-27 03:30;CYYZ 270330Z 14005KT 6SM -RA BR SCT002 OVC030 15/ RERA RMK SF4SC4

CYYZ;2009-09-27 03:40;CYYZ 270340Z 13005KT 6SM -RA BR BKN003 OVC010 15/ RERA RMK SF6SC2

CYYZ;2009-09-27 04:00;CYYZ 270400Z 14005KT 6SM -RA BR BKN003 OVC008 15/15 A2975 RERA RMK SF6SC2 SLP075

CYYZ;2009-09-27 05:00;CYYZ 270500Z 14005KT 1 1/2SM -DZ BR BKN002 OVC007 15/15 A2972 RMK SF6SC2 VIS SSW - NW 3 SLP065

CYYZ;2009-09-27 06:00;CYYZ 270600Z 16004KT 3SM -DZ BR OVC003 16/16 A2970 RMK ST8 VIS NNE- ENE 11/4 PCPN VRY LGT SLP059

CYYZ;2009-09-27 07:00;CYYZ 270700Z 19005KT 3SM -DZ BR OVC003 16/16 A2968 RMK ST8 PCPN VRY LGT SLP051

CYYZ;2009-09-27 07:33;CYYZ 270733Z 22006KT 4SM -DZ BR OVC004 16/ RMK ST8 PCPN VRY LGT

CYYZ;2009-09-27 08:00;CYYZ 270800Z 22005KT 4SM -DZ BR OVC005 16/16 A2966 RMK ST8 PCPN VRY LGT SLP044

CYYZ;2009-09-27 09:00;CYYZ 270900Z 16002KT 4SM BR FEW009 BKN018 OVC160 16/16 A2964 RMK ST2SC4AC2 SLP036

CYYZ;2009-09-27 10:00;CYYZ 271000Z 20005KT 7SM -DZ FEW007 BKN013 OVC025 17/16 A2963 RMK SF2SC3SC2 BR PCPN VRY LGT SLP035

CYYZ;2009-09-27 10:21;CYYZ 271021Z 20006KT 7SM BKN013 BKN042 OVC130 16/ RMK SF5SC2AC2 BR

CYYZ;2009-09-27 11:00;CYYZ 271100Z 20005KT 8SM SCT014 BKN039 OVC170 16/16 A2963 RMK SF3SC3AC2 SLP033

CYYZ;2009-09-27 12:00;CYYZ 271200Z 22004KT 8SM FEW009 BKN016 OVC170 16/16 A2963 RMK SF2SC3AC2 SLP033

CYYZ;2009-09-27 13:00;CYYZ 271300Z 25006KT 8SM FEW012 SCT170 BKN240 16/16 A2962 RMK SF2AC2CI2 SLP032

CYYZ;2009-09-27 14:00;CYYZ 271400Z 26008KT 9SM FEW011 BKN058 BKN240 17/15 A2962 RMK SF2SC5CI1 SLP031

CYYZ;2009-09-27 15:00;CYYZ 271500Z 25006KT 10SM FEW012 BKN062 BKN240 17/15 A2961 RMK CF1SC4CI2 SLP028

CYYZ;2009-09-27 16:00;CYYZ 271600Z 24007KT 10SM SCT024 BKN054 BKN240 18/15 A2959 RMK CU3SC2CI2 SLP021

CYYZ;2009-09-27 17:00;CYYZ 271700Z 25009KT 12SM SCT021 BKN048 BKN240 18/15 A2958 RMK CU3SC2CI2 SLP016

CYYZ;2009-09-27 18:00;CYYZ 271800Z 25006KT 12SM FEW023 SCT045 BKN074 BKN240 20/15 A2955 RMK CU2SC2AC2CI1 SLP007

CYYZ;2009-09-27 19:00;CYYZ 271900Z 24008KT 12SM FEW035 BKN088 BKN240 19/15 A2953 RMK CU2AC3CI2 TCU ASOCTD SLP000

CYYZ;2009-09-27 20:00;CYYZ 272000Z 25013KT 12SM FEW045 BKN098 21/14 A2952 RMK CU2AC4 TCU ASOCTD SLP996

CYYZ;2009-09-27 21:00;CYYZ 272100Z 25011KT 12SM FEW045 BKN098 20/14 A2952 RMK CU2AC4 SLP996

CYYZ;2009-09-27 22:00;CYYZ 272200Z 25005KT 12SM FEW045 SCT100 BKN260 20/14 A2952 RMK CU2AC2CI2 SLP997

CYYZ;2009-09-27 23:00;CYYZ 272300Z 27013KT 15SM FEW053 SCT060 SCT100 BKN250 19/13 A2953 RMK CU2SC2AC1CI2 SLP999

CYYZ;2009-09-28 00:00;CYYZ 280000Z 27007KT 15SM FEW090 BKN220 17/13 A2953 RMK AC1CI2 SLP001

CYYZ;2009-09-28 01:00;CYYZ 280100Z 25007KT 12SM SCT220 15/13 A2955 RMK CI2 SLP005

CYYZ;2009-09-28 02:00;CYYZ 280200Z 21002KT 12SM FEW220 16/13 A2954 RMK CI1 SLP002

CYYZ;2009-09-28 03:00;CYYZ 280300Z CCA 19002KT 12SM FEW220 15/13 A2953 RMK CI1 SLP999

CYYZ;2009-09-28 04:00;CYYZ 280400Z 18003KT 12SM FEW030 SCT220 15/13 A2950 RMK SC1CI2 SLP991

CYYZ;2009-09-28 05:00;CYYZ 280500Z 17002KT 12SM FEW220 14/13 A2947 RMK CI1 SLP980

CYYZ;2009-09-28 06:00;CYYZ 280600Z CCA 17003KT 12SM FEW055 BKN220 14/13 A2946 RMK SC2CI2 SLP977

CYYZ;2009-09-28 07:00;CYYZ 280700Z 16005KT 12SM FEW055 BKN220 14/14 A2942 RMK SC1CI2 SLP963

CYYZ;2009-09-28 08:00;CYYZ 280800Z 18007KT 12SM FEW055 BKN190 BKN220 15/14 A2938 RMK SC2AC4CI2 SLP951

CYYZ;2009-09-28 09:00;CYYZ 280900Z 18009KT 12SM FEW050 BKN140 BKN170 16/15 A2935 RMK SC1AC4AC2 SLP939

CYYZ;2009-09-28 10:00;CYYZ 281000Z 17012G18KT 10SM FEW017 BKN100 BKN120 17/15 A2932 RMK SC2AC3AC2 SLP928

CYYZ;2009-09-28 10:23;CYYZ 281023Z 17013KT 10SM -SHRA FEW019 BKN059 OVC085 17/ RMK SC2SC3AC2

CYYZ;2009-09-28 11:00;CYYZ 281100Z 16011G18KT 10SM -SHRA SCT017 BKN059 OVC091 16/15 A2926 RMK SC3SC2AC3 PRESFR SLP908

CYYZ;2009-09-28 11:22;CYYZ 281122Z 15018KT 10SM SCT013 BKN021 OVC091 16/ RMK SF3SC2AC2

CYYZ;2009-09-28 11:32;CYYZ 281132Z 15015G22KT 8SM -SHRA SCT012 OVC019 16/ RMK SF4SC4

CYYZ;2009-09-28 12:00;CYYZ 281200Z 17012G20KT 4SM SHRA BR BKN009 OVC016 16/15 A2922 RMK SF5SC3 SLP895

CYYZ;2009-09-28 12:25;CYYZ 281225Z 16018G24KT 2 1/2SM SHRA BR BKN006 OVC016 15/ RERA RMK SF5SC3 TCU EMBD

CYYZ;2009-09-28 13:00;CYYZ 281300Z 16013G18KT 5SM -SHRA BR BKN006 OVC016 15/15 A2918 RERA RMK SF5SC3 SLP880

CYYZ;2009-09-28 13:16;CYYZ 281316Z 17013G21KT 2SM SHRA BR BKN006 OVC011 16/ RMK SF6SC2 TCU EMBD

CYYZ;2009-09-28 13:21;CYYZ 281321Z 17021G29KT 1 1/4SM +SHRA BR BKN006 OVC011 16/ RMK SF6SC2 TCU EMBD

CYYZ;2009-09-28 13:35;CYYZ 281335Z 17016G22KT 4SM SHRA BR BKN006 OVC011 16/ RERA RMK SF6SC2 TCU EMBD

CYYZ;2009-09-28 13:46;CYYZ 281346Z 19016G24KT 1 1/2SM SHRA BR BKN006 OVC010 16/ RERA RMK SF6SC2 TCU EMBD

CYYZ;2009-09-28 13:53;CYYZ 281353Z 21010G22KT 6SM -SHRA BR BKN006 OVC012 16/ RERA RMK SF6SC2

CYYZ;2009-09-28 14:00;CYYZ 281400Z 21015G25KT 10SM -SHRA SCT008 BKN019 OVC026 16/15 A2916 RERA RMK SF3SC2SC2 SLP874

CYYZ;2009-09-28 14:17;CYYZ 281417Z 21013G18KT 15SM SCT011 BKN024 BKN030 16/ RMK SF3CU2SC2

CYYZ;2009-09-28 15:00;CYYZ 281500Z 26020G28KT 15SM FEW021 BKN041 BKN260 17/14 A2916 RMK CU2SC2CI1 SLP876

CYYZ;2009-09-28 16:00;CYYZ 281600Z 25018G27KT 15SM SCT038 BKN061 BKN150 17/12 A2919 RMK CU3SC2AC2 SLP886

CYYZ;2009-09-28 17:00;CYYZ 281700Z 24028G34KT 15SM SCT045 BKN061 BKN150 17/07 A2921 RMK CU3SC2AC1 SLP890

CYYZ;2009-09-28 17:47;CYYZ 281747Z 24031G36KT 15SM -SHRA SCT048 BKN064 BKN150 16/ RMK CU3SC2AC1

CYYZ;2009-09-28 18:00;CYYZ 281800Z 22022G31KT 15SM -SHRA SCT048 BKN062 BKN120 15/06 A2922 RMK CU3SC2AC1 SLP896

CYYZ;2009-09-28 18:22;CYYZ 281822Z 23021G29KT 15SM FEW052 SCT062 BKN120 16/ RMK CU2SC2AC1

CYYZ;2009-09-28 19:00;CYYZ 281900Z 23021G29KT 15SM VCSH SCT042 BKN120 BKN250 16/07 A2922 RMK CU3AC2CI1 TCU ASOCTD NE SLP896

CYYZ;2009-09-28 20:00;CYYZ 282000Z 24018G28KT 15SM SCT044 BKN062 BKN170 15/07 A2924 RMK CU3SC2AC2 SLP903

CYYZ;2009-09-28 20:26;CYYZ 282026Z 24019G27KT 15SM -SHRA SCT038 BKN053 BKN140 15/ RMK CU3SC2AC2

CYYZ;2009-09-28 21:00;CYYZ 282100Z 25019G27KT 15SM -SHRA SCT038 BKN053 BKN100 13/10 A2927 RMK CU3SC2AC2 SLP912

CYYZ;2009-09-28 22:00;CYYZ 282200Z 21009KT 10SM -SHRA SCT017 BKN024 OVC064 12/11 A2928 RMK SC3SC2SC2 CU EMBD SLP914

CYYZ;2009-09-28 23:00;CYYZ 282300Z 23016G26KT 15SM FEW022 BKN028 BKN150 13/11 A2928 RMK SC2SC3AC2 CU EMBD SLP916

CYYZ;2009-09-29 00:00;CYYZ 290000Z 24022G29KT 10SM -SHRA SCT025 BKN045 BKN110 13/10 A2930 RMK SC3SC2AC2 SLP921

CYYZ;2009-09-29 01:00;CYYZ 290100Z 24019G27KT 12SM -SHRA SCT025 BKN030 BKN055 13/10 A2931 RMK SC3SC2SC2 PCPN VRY LGT SLP925

CYYZ;2009-09-29 01:25;CYYZ 290125Z 24021G30KT 12SM BKN025 BKN055 13/ RMK SC5SC2

CYYZ;2009-09-29 02:00;CYYZ 290200Z 24023G30KT 12SM BKN030 BKN130 13/09 A2930 RMK SC5AC2 SLP923

CYYZ;2009-09-29 03:00;CYYZ 290300Z 25013G22KT 15SM BKN030 BKN100 12/09 A2930 RMK SC5AC2 SLP921

CYYZ;2009-09-29 04:00;CYYZ 290400Z 24017G24KT 15SM SCT020 BKN063 12/09 A2929 RMK SC3SC3 SLP920

CYYZ;2009-09-29 05:00;CYYZ 290500Z 24017G24KT 15SM SCT022 BKN120 12/09 A2928 RMK SC4AC2 SLP917

CYYZ;2009-09-29 05:13;CYYZ 290513Z 24015G24KT 10SM -SHRA BKN020 BKN090 12/ RMK SC5AC2

CYYZ;2009-09-29 06:00;CYYZ 290600Z 24012G19KT 10SM -SHRA FEW014 BKN065 OVC074 11/10 A2929 RMK SF2SC4AC2 SLP919

CYYZ;2009-09-29 07:00;CYYZ 290700Z 23013G20KT 10SM -SHRA FEW014 BKN050 OVC080 11/10 A2927 RMK SF2SC4AC2 PCPN VRY LGT SLP913

CYYZ;2009-09-29 07:12;CYYZ 290712Z 23013G20KT 12SM FEW015 BKN045 BKN062 12/ RMK SF2SC3SC2

CYYZ;2009-09-29 08:00;CYYZ 290800Z 23016KT 10SM -SHRA OVC016 11/10 A2925 RMK SC8 SLP905

CYYZ;2009-09-29 09:00;CYYZ 290900Z 24019G27KT 12SM -SHRA SCT016 BKN050 OVC120 12/11 A2924 RMK SC3SC2AC2 PCPN VRY LGT SLP902

CYYZ;2009-09-29 10:00;CYYZ 291000Z 25014G29KT 12SM -DZ FEW012 SCT020 BKN030 12/11 A2925 RMK SF2SC2SC2 SLP906

CYYZ;2009-09-29 10:26;CYYZ 291026Z 25017G22KT 15SM SCT023 BKN041 12/ RMK SC3SC3

CYYZ;2009-09-29 10:46;CYYZ 291046Z 25018G25KT 12SM -SHRA BKN021 BKN043 12/ RMK SC5SC2

CYYZ;2009-09-29 11:00;CYYZ 291100Z 25017KT 15SM FEW018 OVC031 12/11 A2928 RMK SC2SC6 SLP916

CYYZ;2009-09-29 11:20;CYYZ 291120Z 25019G25KT 12SM -SHRA FEW020 OVC027 12/ RMK SC2SC6

CYYZ;2009-09-29 11:52;CYYZ 291152Z 27013G22KT 15SM FEW014 OVC019 12/ RMK SC2SC6

CYYZ;2009-09-29 12:00;CYYZ 291200Z 27014KT 15SM SCT017 OVC023 12/11 A2932 RMK SC3SC5 SLP931

CYYZ;2009-09-29 13:00;CYYZ 291300Z 32014KT 15SM BKN021 BKN160 13/11 A2937 RMK SC5AC2 SLP947

CYYZ;2009-09-29 14:00;CYYZ 291400Z 32019KT 15SM FEW018 FEW026 SCT160 BKN230 15/11 A2940 RMK SC1SC2AC1CI0 SLP958

CYYZ;2009-09-29 15:00;CYYZ 291500Z CCA 31013G20KT 12SM -SHRA FEW023 BKN034 16/10 A2943 RMK CU1SC6 SLP968

CYYZ;2009-09-29 16:00;CYYZ 291600Z 32021G31KT 15SM -SHRA FEW022 BKN033 OVC056 14/12 A2948 RMK SC2SC4SC2 SLP983

CYYZ;2009-09-29 16:24;CYYZ 291624Z 33022G29KT 15SM FEW018 BKN026 BKN120 14/ RMK CU2SC2AC1

CYYZ;2009-09-29 17:00;CYYZ 291700Z 34029G35KT 15SM SCT023 BKN031 BKN078 15/10 A2949 RMK CU3SC2AC1 SLP988

CYYZ;2009-09-29 18:00;CYYZ 291800Z 34025KT 15SM FEW024 BKN032 BKN070 15/10 A2952 RMK CU2SC3AC1 SLP000

CYYZ;2009-09-29 19:00;CYYZ 291900Z 32020G29KT 15SM BKN032 BKN062 BKN073 14/09 A2956 RMK SC5SC2AC1 SLP013

CYYZ;2009-09-29 19:05;CYYZ 291905Z 32023KT 15SM -SHRA BKN026 BKN043 BKN070 13/ RMK SC5SC2AC1

CYYZ;2009-09-29 19:48;CYYZ 291948Z 33016G21KT 15SM FEW026 BKN037 13/ RMK CU2SC6

CYYZ;2009-09-29 20:00;CYYZ 292000Z 32028KT 15SM FEW028 BKN034 14/09 A2958 RMK CU2SC6 SLP020

CYYZ;2009-09-29 20:41;CYYZ 292041Z 32027KT 15SM BKN031 BKN058 14/ RMK SC6SC2 CU ASOCTD

CYYZ;2009-09-29 21:00;CYYZ 292100Z 33025G32KT 15SM FEW026 BKN034 BKN100 13/08 A2962 RMK CU2SC6AC1 SLP031

CYYZ;2009-09-29 22:00;CYYZ 292200Z 32025G30KT 15SM FEW023 BKN036 BKN220 13/08 A2966 RMK CU2SC6CI1 SLP044

CYYZ;2009-09-29 22:53;CYYZ 292253Z 31023G28KT 15SM -DZ FEW023 BKN030 BKN220 12/ RMK CU2SC6CI1

CYYZ;2009-09-29 23:00;CYYZ 292300Z 31015G28KT 15SM -DZ FEW019 BKN025 BKN030 BKN220 11/08 A2969 RMK CU2SC3SC2CI1 SLP055

CYYZ;2009-09-30 00:00;CYYZ 300000Z 31019G26KT 12SM -DZ BKN020 11/08 A2973 RMK SC7 SLP069

CYYZ;2009-09-30 01:00;CYYZ 300100Z 32016G25KT 10SM -DZ FEW016 SCT025 BKN030 10/08 A2976 RMK SC2SC2SC3 SLP079

CYYZ;2009-09-30 02:00;CYYZ 300200Z 33019G24KT 10SM -DZ SCT020 BKN030 BKN110 10/07 A2978 RMK SC3SC3AC1 PCPN VRY LGT SLP087

CYYZ;2009-09-30 02:45;CYYZ 300245Z 33019G28KT 15SM FEW016 SCT022 SCT080 BKN120 09/ RMK SC2SC2AC1AC2

CYYZ;2009-09-30 03:00;CYYZ 300300Z 33020G28KT 15SM FEW022 BKN028 BKN075 09/05 A2980 RMK SC2SC2AC2 SLP094

CYYZ;2009-09-30 04:00;CYYZ 300400Z 34015KT 15SM BKN022 08/05 A2982 RMK SC6 SLP099

CYYZ;2009-09-30 05:00;CYYZ 300500Z 33016G22KT 15SM BKN022 BKN045 08/04 A2983 RMK SC5SC2 SLP104

CYYZ;2009-09-30 06:00;CYYZ 300600Z 34015G20KT 15SM BKN025 07/04 A2984 RMK SC6 SLP108

CYYZ;2009-09-30 07:00;CYYZ 300700Z 32011G16KT 15SM SCT022 BKN029 07/04 A2986 RMK SC3SC3 SLP114

CYYZ;2009-09-30 08:00;CYYZ 300800Z 33014KT 15SM -DZ BKN024 07/04 A2987 RMK SC7 SLP118

CYYZ;2009-09-30 08:40;CYYZ 300840Z 32009KT 15SM SCT017 BKN025 07/ RMK SC3SC4

CYYZ;2009-09-30 09:00;CYYZ 300900Z 30008KT 15SM SCT012 BKN017 07/05 A2989 RMK SF3SC4 SLP125

CYYZ;2009-09-30 10:00;CYYZ 301000Z 31008KT 15SM FEW014 BKN025 07/06 A2990 RMK SF2SC5 SLP128

CYYZ;2009-09-30 11:00;CYYZ 301100Z 34010KT 15SM FEW018 OVC027 08/05 A2992 RMK SC1SC7 SLP134

CYYZ;2009-09-30 12:00;CYYZ 301200Z 36013KT 15SM FEW018 OVC023 07/03 A2993 RMK SC2SC6 SLP140

CYYZ;2009-09-30 13:00;CYYZ 301300Z 35011KT 15SM FEW016 FEW024 SCT063 BKN160 07/04 A2995 RMK CF1SC2SC2AC1 SLP145

CYYZ;2009-09-30 14:00;CYYZ 301400Z 34011G16KT 15SM BKN018 BKN210 08/05 A2996 RMK SC7CI1 SLP148

CYYZ;2009-09-30 15:00;CYYZ 301500Z 33013KT 15SM BKN022 BKN210 09/04 A2997 RMK SC6CI0 CU ASOCTD SLP152

CYYZ;2009-09-30 16:00;CYYZ 301600Z 33013KT 15SM FEW026 BKN038 BKN220 09/04 A2997 RMK CU2SC6CI1 SLP154

CYYZ;2009-09-30 17:00;CYYZ 301700Z 31012G17KT 15SM FEW018 SCT036 SCT120 10/06 A2997 RMK CU1SC3AC1 AC TR SLP154

CYYZ;2009-09-30 18:00;CYYZ 301800Z 30014G21KT 15SM SCT023 BKN058 BKN120 11/05 A2996 RMK CU3SC2AC1 SLP148

CYYZ;2009-09-30 18:20;CYYZ 301820Z 33015KT 15SM -DZ FEW026 BKN038 BKN120 10/ RMK CU2SC4AC1

CYYZ;2009-09-30 18:49;CYYZ 301849Z 31011G16KT 15SM FEW028 BKN053 BKN100 10/ RMK CU2SC3AC1

CYYZ;2009-09-30 19:00;CYYZ 301900Z 32014G21KT 15SM -SHRA FEW026 BKN042 11/05 A2995 RMK CU2SC5 TCU ASOCTD SLP147

CYYZ;2009-09-30 20:00;CYYZ 302000Z 36014KT 15SM FEW028 BKN043 BKN054 09/06 A2997 RMK CU2SC4SC2 SLP151

CYYZ;2009-09-30 20:20;CYYZ 302020Z 35014KT 15SM -SHRA FEW025 BKN036 BKN090 08/ RMK CU2SC4AC1

CYYZ;2009-09-30 20:44;CYYZ 302044Z 35012KT 15SM FEW018 BKN037 BKN100 09/ RMK SC2SC6AC1 CU ASOCTD

CYYZ;2009-09-30 21:00;CYYZ 302100Z 36012G17KT 15SM FEW018 BKN042 BKN120 09/06 A2998 RMK SC1SC6AC1 SLP155

CYYZ;2009-09-30 22:00;CYYZ 302200Z 35010KT 15SM FEW015 FEW028 BKN038 BKN120 09/05 A2998 RMK SF1SC2SC5AC1 CU ASOCTD SLP157

CYYZ;2009-09-30 23:00;CYYZ 302300Z 31019KT 15SM FEW028 BKN044 09/03 A2999 RMK CF1SC6 SLP160

CYYZ;2009-10-01 01:00;CYYZ 010100Z 30012KT 15SM BKN037 07/02 A3002 RMK SC7 SLP169

CYYZ;2009-10-01 02:00;CYYZ 010200Z 28011KT 15SM OVC028 07/01 A3002 RMK SC8 SLP169

CYYZ;2009-10-01 03:00;CYYZ 010300Z 29009KT 15SM OVC026 07/01 A3002 RMK SC8 SLP171

CYYZ;2009-10-01 04:00;CYYZ 010400Z 31011KT 15SM OVC025 07/02 A3002 RMK SC8 SLP169

CYYZ;2009-10-01 05:00;CYYZ 010500Z 34008KT 15SM OVC023 07/02 A3002 RMK SC8 SLP169

CYYZ;2009-10-01 06:00;CYYZ 010600Z 32009KT 15SM BKN019 OVC024 06/03 A3002 RMK SC7SC1 SLP171

CYYZ;2009-10-01 07:00;CYYZ 010700Z 31007KT 15SM FEW018 BKN025 BKN055 BKN120 05/03 A3002 RMK SF1SC6SC1AC1 SLP169

CYYZ;2009-10-01 08:00;CYYZ 010800Z 31008KT 15SM FEW035 FEW060 05/02 A3002 RMK SC1SC1 SLP170

CYYZ;2009-10-01 09:00;CYYZ 010900Z 30008KT 15SM FEW040 FEW075 05/02 A3002 RMK SC1AC1 SLP171

CYYZ;2009-10-01 10:00;CYYZ 011000Z 29005KT 15SM FEW035 BKN078 04/02 A3003 RMK SC1AC5 SLP173

CYYZ;2009-10-01 11:00;CYYZ 011100Z 29004KT 15SM FEW040 SCT081 04/01 A3004 RMK SC1AC4 SLP176

CYYZ;2009-10-01 12:00;CYYZ 011200Z 28004KT 15SM FEW040 BKN055 BKN078 05/02 A3004 RMK CU1SC5AC1 CU TR SLP176

CYYZ;2009-10-01 13:00;CYYZ 011300Z 29005KT 15SM FEW028 BKN037 BKN092 07/03 A3004 RMK CU1SC5AC1 CU TR SLP176

CYYZ;2009-10-01 14:00;CYYZ 011400Z 28006KT 15SM FEW030 BKN041 BKN079 08/03 A3003 RMK CU1SC5AC1 CU TR SLP173

CYYZ;2009-10-01 15:00;CYYZ 011500Z 26005KT 15SM SCT032 BKN039 BKN076 09/04 A3003 RMK SC3SC3AC1 SLP172

CYYZ;2009-10-01 16:00;CYYZ 011600Z 26006KT 15SM OVC036 10/03 A3002 RMK SC8 CU ASOCTD SLP171

CYYZ;2009-10-01 17:00;CYYZ 011700Z 27008KT 15SM FEW038 OVC049 11/03 A3001 RMK CU2SC6 SLP166

CYYZ;2009-10-01 18:00;CYYZ 011800Z 29010KT 15SM FEW030 BKN042 OVC056 11/04 A2998 RMK CU2SC5SC2 SLP158

CYYZ;2009-10-01 19:00;CYYZ 011900Z 30011KT 15SM FEW030 BKN039 OVC048 11/04 A2997 RMK CU2SC4SC2 SLP153

CYYZ;2009-10-01 20:00;CYYZ 012000Z 30012KT 15SM FEW032 OVC041 11/04 A2996 RMK CU1SC7 SLP151

CYYZ;2009-10-01 21:00;CYYZ 012100Z 31007KT 15SM FEW030 BKN051 10/05 A2997 RMK CU1SC6 SLP153

CYYZ;2009-10-01 22:00;CYYZ 012200Z 36009KT 15SM FEW030 BKN054 10/04 A2997 RMK CU1SC7 SLP154

CYYZ;2009-10-01 23:00;CYYZ 012300Z 35006KT 15SM FEW045 BKN055 10/04 A2998 RMK SC2SC6 SLP156

CYYZ;2009-10-02 00:00;CYYZ 020000Z 02006KT 15SM BKN045 BKN055 08/05 A2998 RMK SC5SC1 SLP158

CYYZ;2009-10-02 01:00;CYYZ 020100Z 04003KT 15SM BKN055 07/05 A2998 RMK SC6 SLP158

CYYZ;2009-10-02 02:00;CYYZ 020200Z 01005KT 15SM BKN052 08/06 A2999 RMK SC7 SLP159

CYYZ;2009-10-02 03:00;CYYZ 020300Z 02002KT 15SM BKN053 07/05 A2998 RMK SC4 SLP158

CYYZ;2009-10-02 04:00;CYYZ 020400Z 01005KT 15SM BKN040 07/05 A2998 RMK SC6 SLP156

CYYZ;2009-10-02 05:00;CYYZ 020500Z 36003KT 15SM SCT038 06/05 A2997 RMK SC2 SLP154

CYYZ;2009-10-02 06:00;CYYZ 020600Z 02004KT 15SM FEW040 FEW130 05/05 A2996 RMK SC1AC1 SLP149

CYYZ;2009-10-02 07:00;CYYZ 020700Z 02005KT 15SM BKN250 05/05 A2994 RMK CI4 SLP142

CYYZ;2009-10-02 08:00;CYYZ 020800Z 01003KT 15SM FEW160 BKN240 05/04 A2994 RMK AC2CI2 SLP142

CYYZ;2009-10-02 09:00;CYYZ 020900Z 05005KT 15SM FEW047 BKN220 05/05 A2992 RMK SC1CS6 SLP135

CYYZ;2009-10-02 10:00;CYYZ 021000Z 07007KT 15SM FEW045 BKN220 07/05 A2990 RMK SC1CS6 SLP129

CYYZ;2009-10-02 11:00;CYYZ 021100Z 06005KT 12SM FEW040 SCT090 BKN200 07/04 A2990 RMK SC2AC2CS4 SLP130

CYYZ;2009-10-02 12:00;CYYZ 021200Z 09005KT 15SM FEW050 FEW090 BKN180 BKN200 07/04 A2991 RMK SC1AC2AC2CI2 SLP131

CYYZ;2009-10-02 13:00;CYYZ 021300Z 08008KT 15SM FEW050 FEW090 BKN180 BKN240 08/07 A2987 RMK SC1AC2AC2CI2 SLP120

CYYZ;2009-10-02 14:00;CYYZ 021400Z 08012KT 15SM FEW120 BKN150 OVC220 09/07 A2984 RMK AC2AC3CI2 SLP108

CYYZ;2009-10-02 15:00;CYYZ 021500Z 08011G17KT 15SM FEW030 BKN073 OVC110 09/07 A2980 RMK SC1AC4AC3 SLP096

CYYZ;2009-10-02 15:15;CYYZ 021515Z 08013KT 15SM -SHRA FEW035 BKN068 OVC110 10/ RMK SC1AC4AC3

CYYZ;2009-10-02 16:00;CYYZ 021600Z 10006KT 12SM -SHRA FEW055 OVC090 10/09 A2980 RMK SC2AC6 SLP093

CYYZ;2009-10-02 17:00;CYYZ 021700Z 10006KT 4SM -SHRA FEW035 BKN055 OVC062 09/08 A2976 RMK SC2SC4SC2 SLP082

CYYZ;2009-10-02 18:00;CYYZ 021800Z 10011KT 4SM -RA BR SCT009 BKN014 OVC025 09/08 A2973 RMK SF4SC2SC2 SLP071

CYYZ;2009-10-02 18:20;CYYZ 021820Z CCA 10010KT 2 1/2SM -RA BR SCT005 OVC012 09/ RMK SF3SF5 CIG RAG

CYYZ;2009-10-02 19:00;CYYZ 021900Z 10011G16KT 3SM -RA BR SCT005 BKN010 OVC030 10/09 A2969 RMK SF3SF3SC2 SLP057

CYYZ;2009-10-02 20:00;CYYZ 022000Z 09016KT 4SM -RA BR SCT005 BKN010 OVC018 10/10 A2965 RMK SF3SF3SC2 CIG RAG SLP046

CYYZ;2009-10-02 20:30;CYYZ 022030Z 12015G21KT 6SM -RA BR BKN005 OVC010 10/ RMK SF6SC2

CYYZ;2009-10-02 21:00;CYYZ 022100Z 11012G19KT 10SM -RA BKN006 OVC012 11/10 A2965 RMK SF5SF3 PCPN VRY LGT SLP045

CYYZ;2009-10-02 21:15;CYYZ 022115Z 11012G19KT 2SM -RADZ BR BKN006 OVC015 11/ RMK SF5SF3

CYYZ;2009-10-02 22:00;CYYZ 022200Z 10012G19KT 1 1/2SM -RADZ BR BKN005 OVC015 11/11 A2964 RMK FG2SF4SF2 SLP042

CYYZ;2009-10-02 22:42;CYYZ 022242Z 11011KT 2 1/4SM -RA BR OVC004 11/ RMK FG1SF7

CYYZ;2009-10-02 23:00;CYYZ 022300Z 11011G18KT 2 1/4SM -RA BR OVC004 11/11 A2964 RMK FG2SF6 SLP041

CYYZ;2009-10-02 23:40;CYYZ 022340Z 11009KT 5SM -RA BR OVC004 11/ RMK SF8

CYYZ;2009-10-03 00:00;CYYZ 030000Z 10010KT 4SM -RA BR FEW002 OVC004 11/11 A2962 RMK SF2SF6 SLP035

CYYZ;2009-10-03 01:00;CYYZ 030100Z 12002KT 4SM -RA BR OVC003 12/12 A2964 RMK SF8 PCPN VRY LGT SLP041

CYYZ;2009-10-03 01:26;CYYZ 030126Z 13005KT 4SM BR SCT002 OVC015 12/ RMK SF4SC4

CYYZ;2009-10-03 01:41;CYYZ 030141Z 22003KT 6SM BR OVC003 12/ RMK ST8

CYYZ;2009-10-03 02:00;CYYZ 030200Z 22008KT 7SM FEW003 BKN007 BKN069 12/12 A2967 RMK ST2ST4AC2 BR SLP050

CYYZ;2009-10-03 02:05;CYYZ 030205Z 20008KT 7SM -RA BKN007 OVC026 13/ RMK SC5SC3 BR

CYYZ;2009-10-03 02:33;CYYZ 030233Z 20003KT 7SM -RA FEW007 BKN053 OVC074 12/ RMK ST2SC5AC2 BR

CYYZ;2009-10-03 03:00;CYYZ 030300Z 00000KT 10SM FEW016 BKN093 12/12 A2966 RMK SC2AC4 SLP046

CYYZ;2009-10-03 04:00;CYYZ 030400Z 18006KT 15SM FEW043 SCT079 11/10 A2969 RMK SC1AC3 SLP057

CYYZ;2009-10-03 05:00;CYYZ 030500Z 21007KT 15SM FEW038 11/10 A2971 RMK SC1 SLP063

CYYZ;2009-10-03 06:00;CYYZ 030600Z 19004KT 15SM FEW035 10/09 A2973 RMK SC1 SLP069

CYYZ;2009-10-03 07:00;CYYZ 030700Z 21004KT 15SM BKN087 09/08 A2974 RMK AC6 SLP073

CYYZ;2009-10-03 08:00;CYYZ 030800Z 00000KT 15SM SCT093 08/07 A2973 RMK AC2 SLP070

CYYZ;2009-10-03 09:00;CYYZ 030900Z 14003KT 15SM BKN100 09/07 A2974 RMK AC6 SLP072

CYYZ;2009-10-03 10:00;CYYZ 031000Z 15004KT 15SM BKN059 BKN100 09/08 A2974 RMK SC5AC1 SLP074

CYYZ;2009-10-03 10:26;CYYZ 031026Z 17004KT 10SM +SHRA FEW020 BKN045 OVC095 09/ RMK SC2SC6AC1 CB EMBD

CYYZ;2009-10-03 10:51;CYYZ 031051Z 12004KT 15SM FEW030 BKN065 BKN110 09/ RERA RMK SF2SC5AC1

CYYZ;2009-10-03 11:00;CYYZ 031100Z 11004KT 15SM FEW030 SCT060 BKN078 09/08 A2974 RERA RMK SF1SC3AC4 SLP075

CYYZ;2009-10-03 12:00;CYYZ 031200Z 09005KT 15SM FEW030CB BKN075 BKN090 10/09 A2974 RMK CB1AC5AC2 CB W SLP074

CYYZ;2009-10-03 13:00;CYYZ 031300Z 05005KT 15SM BKN072 BKN095 11/10 A2974 RMK AC6AC2 SLP073

CYYZ;2009-10-03 14:00;CYYZ 031400Z 12006KT 15SM BKN070 13/12 A2974 RMK AC7 VIRGA SLP074

CYYZ;2009-10-03 15:00;CYYZ 031500Z 14008KT 15SM FEW050 OVC075 14/12 A2974 RMK SC2AC6 SLP074

CYYZ;2009-10-03 16:00;CYYZ 031600Z 19006KT 15SM FEW050 BKN075 BKN090 14/09 A2973 RMK SC1AC6AC2 VIRGA SLP069

CYYZ;2009-10-03 16:10;CYYZ 031610Z 19005KT 15SM -RA FEW050 BKN075 14/ RMK SC2AC6 TCU S SHWRS N

CYYZ;2009-10-03 16:30;CYYZ 031630Z 19006KT 15SM FEW040TCU FEW075 BKN100 BKN270 15/ RMK TCU1AC2AC3CI1 SHWRS N

CYYZ;2009-10-03 17:00;CYYZ 031700Z 16007KT 15SM FEW040 BKN100 BKN220 17/11 A2973 RMK CU1AC4CI0 SLP068

CYYZ;2009-10-03 18:00;CYYZ 031800Z 20010G15KT 15SM FEW035TCU OVC100 17/10 A2971 RMK TCU1AC8 SLP064

CYYZ;2009-10-03 19:00;CYYZ 031900Z 18009G15KT 15SM FEW035TCU BKN140 BKN180 16/09 A2971 RMK TCU1AC6AC1 SLP061

CYYZ;2009-10-03 20:00;CYYZ 032000Z 22009KT 15SM FEW035 BKN096 BKN140 17/09 A2971 RMK CF1AC5AC2 SLP064

CYYZ;2009-10-03 21:00;CYYZ 032100Z 22009G15KT 15SM FEW040 OVC085 15/07 A2974 RMK SC2AC6 SLP072

CYYZ;2009-10-03 21:16;CYYZ 032116Z CCA 28024G29KT 15SM -SHRA BKN028 OVC090 13/ RMK SC7AC1 CB EMBD PRESRR VIS 6 W

CYYZ;2009-10-03 21:28;CYYZ 032128Z 27018G32KT 15SM -TSRA FEW030CB OVC060 10/ RMK CB2SC6 PRESRR LTGCC SE

CYYZ;2009-10-03 22:00;CYYZ 032200Z 27011G17KT 15SM -SHRA FEW030CB BKN055 10/09 A2978 RETSRA RMK CB2SC6 SLP087

CYYZ;2009-10-03 22:41;CYYZ 032241Z 22009KT 15SM FEW040 BKN061 BKN250 11/ RMK CU2SC3CI1

CYYZ;2009-10-03 23:00;CYYZ 032300Z 22008KT 15SM FEW040 SCT061 BKN088 BKN250 11/09 A2977 RMK CU2SC2AC2CI1 SLP084

CYYZ;2009-10-04 00:00;CYYZ 040000Z 22008KT 15SM FEW061 SCT091 10/09 A2980 RMK SC2AC2 SLP094

CYYZ;2009-10-04 01:00;CYYZ 040100Z 23005KT 15SM FEW095 10/08 A2980 RMK AC2 SLP095

CYYZ;2009-10-04 02:00;CYYZ 040200Z 21002KT 15SM FEW095 09/08 A2981 RMK AC2 SLP097

CYYZ;2009-10-04 03:00;CYYZ 040300Z 16003KT 15SM FEW098 09/08 A2982 RMK AC2 SLP100

CYYZ;2009-10-04 04:00;CYYZ 040400Z 17004KT 15SM SCT110 09/08 A2982 RMK AC3 SLP101

CYYZ;2009-10-04 05:00;CYYZ 040500Z 20004KT 15SM SCT110 09/08 A2983 RMK AC3 SLP102

CYYZ;2009-10-04 06:00;CYYZ 040600Z 17006KT 15SM SCT110 09/08 A2983 RMK AC4 SLP104

CYYZ;2009-10-04 07:00;CYYZ 040700Z 22003KT 15SM SCT110 08/08 A2982 RMK AC3 SLP101

CYYZ;2009-10-04 08:00;CYYZ 040800Z 23002KT 15SM SCT100 07/07 A2983 RMK AC3 SLP102

CYYZ;2009-10-04 09:00;CYYZ 040900Z 24002KT 15SM SCT110 BKN150 08/07 A2983 RMK AC3AC2 SLP102

CYYZ;2009-10-04 10:00;CYYZ 041000Z 13002KT 15SM FEW061 BKN110 08/08 A2984 RMK SC2AC4 SLP106

CYYZ;2009-10-04 11:00;CYYZ 041100Z 00000KT 15SM SCT050 BKN100 09/08 A2984 RMK SC3AC4 SLP108

CYYZ;2009-10-04 12:00;CYYZ 041200Z 00000KT 15SM FEW020 BKN042 09/08 A2986 RMK SC1SC7 SLP114

CYYZ;2009-10-04 13:00;CYYZ 041300Z 25003KT 15SM BKN036 BKN070 10/09 A2988 RMK SC6AC2 SLP121

CYYZ;2009-10-04 13:36;CYYZ 041336Z 24006KT 15SM BKN010 BKN036 10/ RMK SF5SC2

CYYZ;2009-10-04 13:53;CYYZ 041353Z 24005KT 12SM BKN008 BKN035 11/ RMK SF6SC1

CYYZ;2009-10-04 14:00;CYYZ 041400Z 24006KT 12SM BKN008 BKN035 11/10 A2989 RMK SF5SC2 SLP123

CYYZ;2009-10-04 14:38;CYYZ 041438Z 26002KT 15SM FEW008 SCT035 BKN080 11/ RMK SF1SC2AC4

CYYZ;2009-10-04 15:00;CYYZ 041500Z 26003KT 15SM FEW008 FEW035 OVC075 12/10 A2989 RMK SF1SC2AC6 SLP124

CYYZ;2009-10-04 16:00;CYYZ 041600Z 24005KT 15SM FEW015 BKN035 OVC045 13/10 A2989 RMK SF2SC5SC2 SLP123

CYYZ;2009-10-04 17:00;CYYZ 041700Z 28003KT 15SM FEW018 BKN030 OVC040 13/10 A2988 RMK SF1SC6SC2 TCU ASOCTD SE SLP122

CYYZ;2009-10-04 17:52;CYYZ 041752Z 18003KT 10SM -RA BKN010 OVC020 13/ RMK SC6SC2

CYYZ;2009-10-04 18:00;CYYZ 041800Z 00000KT 12SM -RA BKN012 OVC022 12/11 A2988 RMK SC6SC2 SLP120

CYYZ;2009-10-04 18:14;CYYZ 041814Z 21002KT 15SM -RA FEW012 SCT030 OVC050 12/ RERA RMK SC2SC2SC4

CYYZ;2009-10-04 18:48;CYYZ 041848Z 23006KT 15SM FEW012 FEW038 BKN055 13/ RERA RMK SF1SC2SC5

CYYZ;2009-10-04 19:00;CYYZ 041900Z 25007KT 15SM FEW018 SCT050 BKN080 14/10 A2987 RERA RMK SF1SC2AC4 SLP117

CYYZ;2009-10-04 20:00;CYYZ 042000Z 24011KT 15SM FEW015 BKN055 BKN070 13/10 A2987 RMK SF1SC5AC2 SHWRS NE SLP117

CYYZ;2009-10-04 21:00;CYYZ 042100Z 22006KT 15SM FEW030 BKN075 BKN120 14/10 A2987 RMK CU1AC6AC2 CB E SE SLP117

CYYZ;2009-10-04 22:00;CYYZ 042200Z 23007KT 15SM FEW035 FEW070 BKN120 13/10 A2987 RMK SC1AC2AC6 CB ASOCTD SLP119

CYYZ;2009-10-04 23:00;CYYZ 042300Z 22005KT 15SM FEW061 SCT075 BKN110 13/10 A2989 RMK SC2AC2AC3 CU ASOCTD SLP123

CYYZ;2009-10-04 23:10;CYYZ 042310Z 24005KT 12SM -SHRA FEW040 SCT071 BKN110 13/ RMK SC2AC2AC3 CU ASOCTD

CYYZ;2009-10-04 23:28;CYYZ 042328Z 24007KT 12SM SCT035 BKN068 BKN110 13/ RMK SC3AC2AC2 CU ASOCTD

CYYZ;2009-10-04 23:50;CYYZ 042350Z 27007KT 12SM -SHRA FEW028 BKN040 BKN110 13/ RMK CU2SC2AC2

CYYZ;2009-10-05 00:00;CYYZ 050000Z 27014G20KT 12SM -SHRA FEW026 BKN042 BKN068 13/10 A2990 RMK CU2SC2AC2 SLP128

CYYZ;2009-10-05 00:43;CYYZ 050043Z 26008KT 12SM FEW055 SCT068 BKN120 10/ RMK SC2AC2AC2

CYYZ;2009-10-05 01:00;CYYZ 050100Z 26007KT 15SM FEW056 SCT070 BKN130 10/08 A2990 RMK SC2AC2AC2 SLP128

CYYZ;2009-10-05 02:00;CYYZ 050200Z 25005KT 15SM FEW062 BKN073 10/08 A2990 RMK SC2AC3 SLP129

CYYZ;2009-10-05 03:00;CYYZ 050300Z 26007KT 15SM SCT120 09/07 A2991 RMK AC4 SLP130

CYYZ;2009-10-05 04:00;CYYZ 050400Z 26009KT 15SM SCT110 09/07 A2991 RMK AC3 SLP130

CYYZ;2009-10-05 05:00;CYYZ 050500Z 26005KT 15SM BKN100 09/08 A2990 RMK AC5 SLP128

CYYZ;2009-10-05 06:00;CYYZ 050600Z 26008KT 15SM FEW061 BKN100 09/08 A2990 RMK SC2AC2 SLP127

CYYZ;2009-10-05 07:00;CYYZ 050700Z 27009KT 15SM FEW058 SCT110 09/08 A2990 RMK SC2AC2 SLP129

CYYZ;2009-10-05 08:00;CYYZ 050800Z 26008KT 15SM FEW059 SCT110 09/08 A2990 RMK SC2AC2 SLP129

CYYZ;2009-10-05 09:00;CYYZ 050900Z 25006KT 15SM FEW045 SCT110 09/08 A2991 RMK SC2AC2 SLP131

CYYZ;2009-10-05 10:00;CYYZ 051000Z 24007KT 15SM SCT047 SCT120 08/08 A2991 RMK SC3AC1 SLP132

CYYZ;2009-10-05 11:00;CYYZ 051100Z 21007KT 15SM FEW022 BKN052 09/08 A2992 RMK CF1SC4 SLP136

CYYZ;2009-10-05 12:00;CYYZ 051200Z 22008KT 15SM FEW020 SCT050 09/08 A2994 RMK SC1SC3 SLP141

CYYZ;2009-10-05 13:00;CYYZ 051300Z 23007KT 15SM FEW020 BKN050 10/09 A2995 RMK SC1SC2 SLP143

CYYZ;2009-10-05 14:00;CYYZ 051400Z 26011KT 15SM BKN017 BKN050 13/10 A2993 RMK SF5SC1 SLP138

CYYZ;2009-10-05 15:00;CYYZ 051500Z 27014G20KT 15SM BKN025 BKN050 14/09 A2993 RMK CU6SC1 TCU SE SLP139

CYYZ;2009-10-05 16:00;CYYZ 051600Z 27018KT 15SM BKN040 15/07 A2993 RMK CU7 TCU ASOCTD SLP137

CYYZ;2009-10-05 17:00;CYYZ 051700Z 28012G27KT 15SM BKN055 BKN270 15/07 A2993 RMK SC6CI1 TCU ASOCTD SLP137

CYYZ;2009-10-05 18:00;CYYZ 051800Z 28012G21KT 15SM FEW045 BKN060 15/06 A2991 RMK SC1SC6 TCU ASOCTD SLP132

CYYZ;2009-10-05 19:00;CYYZ 051900Z 26016G21KT 15SM FEW040 BKN072 15/08 A2991 RMK SC2AC4 SHWRS SW SLP130

CYYZ;2009-10-05 20:00;CYYZ 052000Z 26019KT 15SM SCT055 BKN070 14/08 A2991 RMK CU3AC2 CB SE SLP131

CYYZ;2009-10-05 21:00;CYYZ 052100Z 28019G26KT 15SM FEW050 BKN072 BKN220 14/05 A2992 RMK SC1AC5CI1 TCU ASOCTD SLP135

CYYZ;2009-10-05 22:00;CYYZ 052200Z 27017KT 15SM FEW040 SCT070 SCT220 13/06 A2994 RMK CU1AC3CI1 SLP140

CYYZ;2009-10-05 23:00;CYYZ 052300Z 28012KT 15SM FEW040 FEW076 FEW220 12/06 A2995 RMK CU1AC1CI1 CI TR SLP143

CYYZ;2009-10-06 00:00;CYYZ 060000Z 27010KT 15SM FEW040 FEW070 FEW220 11/06 A2996 RMK SC1AC1CI1 SLP148

CYYZ;2009-10-06 01:00;CYYZ 060100Z 27009KT 15SM FEW040 FEW070 10/07 A2997 RMK SC1AC1 SLP153

CYYZ;2009-10-06 02:00;CYYZ 060200Z 28005KT 15SM FEW040 FEW078 08/06 A2998 RMK SC1AC1 SLP156

CYYZ;2009-10-06 03:00;CYYZ 060300Z 29003KT 15SM FEW050 08/06 A2998 RMK SC1 SLP155

CYYZ;2009-10-06 04:00;CYYZ 060400Z 27005KT 15SM FEW050 07/06 A2998 RMK SC1 SLP156

CYYZ;2009-10-06 05:00;CYYZ 060500Z 27004KT 15SM FEW050 FEW220 07/06 A2997 RMK SC1CI1 SLP152

CYYZ;2009-10-06 06:00;CYYZ 060600Z 27004KT 15SM FEW040 SCT170 BKN240 06/05 A2997 RMK SC1AC2CI0 SLP153

CYYZ;2009-10-06 07:00;CYYZ 060700Z 23002KT 15SM FEW040 SCT160 07/06 A2998 RMK SC1AC2 SLP154

CYYZ;2009-10-06 08:00;CYYZ 060800Z 26004KT 15SM FEW040 BKN160 BKN220 07/06 A2997 RMK SC1AC4CI0 SLP153

CYYZ;2009-10-06 09:00;CYYZ 060900Z 32004KT 15SM FEW054 BKN150 08/07 A2998 RMK SC2AC2 SLP154

CYYZ;2009-10-06 10:00;CYYZ 061000Z 27002KT 15SM FEW056 SCT160 BKN230 08/07 A2998 RMK SC2AC1CI0 SLP157

CYYZ;2009-10-06 11:00;CYYZ 061100Z 28003KT 15SM FEW055 BKN120 BKN230 08/07 A2998 RMK SC1AC4CI1 SLP156

CYYZ;2009-10-06 12:00;CYYZ 061200Z 00000KT 15SM SCT110 BKN120 BKN230 09/08 A2998 RMK AC3AC3CI1 SLP155

CYYZ;2009-10-06 13:00;CYYZ 061300Z 00000KT 15SM SCT095 BKN110 BKN220 09/08 A2998 RMK AC3AC3CI1 SLP154

CYYZ;2009-10-06 14:00;CYYZ 061400Z 18003KT 15SM OVC090 11/08 A2998 RMK AC8 SLP154

CYYZ;2009-10-06 15:00;CYYZ 061500Z 14003KT 15SM BKN100 OVC130 11/09 A2995 RMK AC5AC3 SLP146

CYYZ;2009-10-06 16:00;CYYZ 061600Z 15005KT 15SM FEW030 SCT090 BKN120 BKN170 13/09 A2993 RMK CU1AC2AC2AC2 SLP138

CYYZ;2009-10-06 17:00;CYYZ 061700Z 15006KT 15SM FEW030 SCT090 BKN110 13/08 A2991 RMK CU1AC2AC4 SLP132

CYYZ;2009-10-06 18:00;CYYZ 061800Z 12005KT 15SM FEW030 BKN110 BKN210 14/09 A2986 RMK CU2AC3CI2 SLP113

CYYZ;2009-10-06 19:00;CYYZ 061900Z 18004KT 15SM FEW040 FEW045 SCT090 BKN190 BKN210 15/10 A2982 RMK CU1SC2AC2AC2CI1 CC ASOCTD SLP101

CYYZ;2009-10-06 20:00;CYYZ 062000Z 13005KT 15SM FEW030 BKN055 BKN110 BKN210 14/08 A2977 RMK CU1SC4AC2CI1 SLP084

CYYZ;2009-10-06 21:00;CYYZ 062100Z 11006KT 15SM FEW050 BKN100 OVC120 13/09 A2973 RMK SC1AC5AC2 SLP071

CYYZ;2009-10-06 22:00;CYYZ 062200Z 10011KT 15SM BKN090 BKN120 12/08 A2968 RMK AC5AC2 SLP055

CYYZ;2009-10-06 22:51;CYYZ 062251Z 09010KT 15SM -SHRA SCT064 BKN068 OVC100 12/ RMK SC3AC2AC2

CYYZ;2009-10-06 23:00;CYYZ 062300Z 10011KT 15SM -SHRA SCT062 BKN071 OVC100 12/08 A2964 RMK SC3AC2AC2 SLP041

CYYZ;2009-10-07 00:00;CYYZ 070000Z 10015KT 15SM -SHRA SCT042 BKN056 OVC070 11/09 A2957 RMK SC3SC3AC2 PRESFR SLP017

CYYZ;2009-10-07 01:00;CYYZ 070100Z 11019G26KT 12SM -SHRA FEW012 BKN041 BKN063 OVC079 12/11 A2949 RERA RMK SF1SC5SC2AC2 PRESFR SLP989

CYYZ;2009-10-07 02:00;CYYZ 070200Z 12012G17KT 5SM -SHRA BR FEW014 OVC022 12/11 A2944 RMK SF1SC7 SLP973

CYYZ;2009-10-07 02:33;CYYZ 070233Z 12013G18KT 3SM SHRA BR FEW002 BKN008 OVC016 11/ RMK SF2SC4SC2

CYYZ;2009-10-07 02:48;CYYZ 070248Z 13010G18KT 3SM -SHRA BR BKN003 OVC008 11/ RERA RMK SF6SC2

CYYZ;2009-10-07 03:00;CYYZ 070300Z 12011G16KT 3SM -SHRA BR BKN003 OVC008 11/11 A2939 RERA RMK SF6SC2 RERA SLP953

CYYZ;2009-10-07 03:26;CYYZ 070326Z 13008KT 3SM -RA BR BKN002 OVC004 11/ RMK SF6SF2

CYYZ;2009-10-07 03:44;CYYZ 070344Z 13008KT 1 3/4SM -RA BR OVC002 11/ RMK SF8

CYYZ;2009-10-07 04:00;CYYZ 070400Z 14007KT 1 1/4SM -RA BR OVC002 12/12 A2934 RMK FG2SF6 SLP936

CYYZ;2009-10-07 04:14;CYYZ 070414Z 18006KT 2 1/4SM -RA BR BKN002 OVC005 12/ RMK SF6SF2

CYYZ;2009-10-07 04:26;CYYZ 070426Z 19006KT 3SM -RA BR BKN002 OVC006 13/ RMK SF5SF3

CYYZ;2009-10-07 04:36;CYYZ 070436Z 20005KT 5SM -RA BR SCT002 OVC007 13/ RMK SF3SC5

CYYZ;2009-10-07 04:48;CYYZ 070448Z 23013G18KT 10SM -RA SCT006 BKN018 BKN049 14/ RMK SF3SC2SC2

CYYZ;2009-10-07 05:00;CYYZ 070500Z 24010KT 15SM FEW006 BKN052 13/13 A2931 RMK SF2SC3 SLP926

CYYZ;2009-10-07 06:00;CYYZ 070600Z 23008KT 15SM FEW036 13/12 A2930 RMK SC1 SLP923

CYYZ;2009-10-07 07:00;CYYZ 070700Z 23010KT 15SM SCT061 BKN069 13/11 A2931 RMK SC3AC2 SLP926

CYYZ;2009-10-07 08:00;CYYZ 070800Z 26017G23KT 15SM FEW060 12/09 A2930 RMK SC2 SLP923

CYYZ;2009-10-07 09:00;CYYZ 070900Z 24025G30KT 15SM -SHRA SCT043 11/08 A2929 RMK SC3 SLP921

CYYZ;2009-10-07 09:49;CYYZ 070949Z 24015G23KT 15SM BKN059 BKN068 11/ RMK SC5AC1

CYYZ;2009-10-07 10:00;CYYZ 071000Z 25017KT 15SM BKN060 BKN070 11/08 A2930 RMK SC5AC1 SLP922

CYYZ;2009-10-07 10:40;CYYZ 071040Z 25025G31KT 10SM -DZ BKN028 BKN050 10/ RMK SC5SC1

CYYZ;2009-10-07 11:00;CYYZ 071100Z 26020G30KT 10SM -SHRA FEW030 BKN050 BKN100 10/07 A2934 RMK SC2SC2AC2 SLP936

CYYZ;2009-10-07 12:00;CYYZ 071200Z CCA 25021G32KT 15SM -SHRA BKN030 BKN100 09/07 A2935 RMK SC6AC2 SLP942

CYYZ;2009-10-07 12:17;CYYZ 071217Z 25020G27KT 15SM FEW025 BKN050 BKN090 09/ RMK SC2SC3AC2

CYYZ;2009-10-07 12:45;CYYZ 071245Z 24018G25KT 15SM -SHRA FEW017 OVC025 09/ RMK SC2SC6

CYYZ;2009-10-07 13:00;CYYZ 071300Z 25017G22KT 10SM -SHRA SCT017 OVC025 09/08 A2939 RMK SC3SC5 SLP956

CYYZ;2009-10-07 13:49;CYYZ 071349Z 27016G22KT 15SM SCT017 BKN025 BKN030 11/ RMK SC3SC2SC2

CYYZ;2009-10-07 14:00;CYYZ 071400Z 26020G25KT 15SM FEW017 BKN025 BKN030 11/09 A2942 RMK SC2SC3SC2 SLP964

CYYZ;2009-10-07 15:00;CYYZ 071500Z 28026G34KT 15SM BKN030 BKN050 13/10 A2944 RMK SC5SC2 SLP972

CYYZ;2009-10-07 16:00;CYYZ 071600Z 30028G35KT 15SM SCT023 BKN030 12/08 A2951 RMK SC3SC4 PRESRR SLP993

CYYZ;2009-10-07 17:00;CYYZ 071700Z CCA 29032G39KT 15SM SCT030 OVC040 12/06 A2958 RMK SC4SC4 PRESRR SLP016

CYYZ;2009-10-07 18:00;CYYZ 071800Z 31023G35KT 15SM SCT030 OVC035 12/06 A2964 RMK SC4SC4 PRESRR SLP041

CYYZ;2009-10-07 19:00;CYYZ 071900Z 31025G35KT 15SM SCT035 OVC040 12/06 A2971 RMK SC4SC4 PRESRR SLP061

CYYZ;2009-10-07 19:17;CYYZ 071917Z 29022G29KT 15SM -SHRA SCT025 OVC030 11/ RMK SC4SC4

CYYZ;2009-10-07 20:00;CYYZ 072000Z 30025G33KT 15SM -SHRA SCT030 OVC040 11/06 A2975 RMK SC4SC4 PCPN VRY LGT SLP076

CYYZ;2009-10-07 20:32;CYYZ 072032Z 31021G36KT 15SM SCT030 OVC040 11/ RMK SC4SC4

CYYZ;2009-10-07 21:00;CYYZ 072100Z 30021G28KT 15SM SCT035 OVC047 12/05 A2980 RMK SC3SC5 SLP094

CYYZ;2009-10-07 22:00;CYYZ 072200Z 31020G27KT 15SM BKN050 BKN080 12/05 A2983 RMK SC6AC1 CU ASOCTD SLP103

CYYZ;2009-10-07 23:00;CYYZ 072300Z 28015G25KT 15SM BKN038 11/06 A2987 RMK SC7 SLP117

CYYZ;2009-10-08 00:00;CYYZ 080000Z 29014KT 15SM BKN049 11/06 A2989 RMK SC7 SLP126

CYYZ;2009-10-08 01:00;CYYZ 080100Z 27007KT 15SM BKN057 10/06 A2991 RMK SC7 SLP132

CYYZ;2009-10-08 02:00;CYYZ 080200Z 27009KT 15SM BKN054 10/05 A2995 RMK SC6 SLP146

CYYZ;2009-10-08 03:00;CYYZ 080300Z 28007KT 15SM FEW042 BKN058 09/06 A2997 RMK SC2SC4 SLP150

CYYZ;2009-10-08 04:00;CYYZ 080400Z 28008KT 15SM BKN047 10/06 A2998 RMK SC6 SLP154

CYYZ;2009-10-08 05:00;CYYZ 080500Z 25005KT 15SM SCT049 07/05 A2999 RMK SC3 SLP158

CYYZ;2009-10-08 06:00;CYYZ 080600Z 27002KT 15SM FEW052 07/06 A2999 RMK SC2 SLP160

CYYZ;2009-10-08 07:00;CYYZ 080700Z 24007KT 15SM SCT049 06/05 A3001 RMK SC3 SLP165

CYYZ;2009-10-08 08:00;CYYZ 080800Z 26006KT 15SM FEW036 BKN049 08/06 A3002 RMK SC2SC4 SLP169

CYYZ;2009-10-08 09:00;CYYZ 080900Z 27004KT 15SM BKN047 08/06 A3002 RMK SC6 SLP168

CYYZ;2009-10-08 10:00;CYYZ 081000Z 24003KT 15SM FEW048 07/06 A3003 RMK SC2 SLP172

CYYZ;2009-10-08 11:00;CYYZ 081100Z 25004KT 15SM FEW040 06/05 A3004 RMK SC1 SLP176

CYYZ;2009-10-08 12:00;CYYZ 081200Z 25006KT 15SM FEW240 06/05 A3005 RMK CI1 SLP179

CYYZ;2009-10-08 13:00;CYYZ 081300Z 25005KT 15SM FEW130 FEW240 09/07 A3005 RMK AC1CI1 AC TR SLP180

CYYZ;2009-10-08 14:00;CYYZ 081400Z 20004KT 15SM FEW220 12/07 A3003 RMK CI1 SLP174

CYYZ;2009-10-08 15:00;CYYZ 081500Z 20011KT 15SM FEW130 SCT220 14/07 A3003 RMK AC1CI2 SLP172

CYYZ;2009-10-08 16:00;CYYZ 081600Z CCB 14007KT 15SM FEW030 BKN220 15/08 A3002 RMK CF1CI2 CF TR SLP169

CYYZ;2009-10-08 17:00;CYYZ 081700Z 14009KT 15SM FEW030 BKN240 15/08 A2999 RMK CF1CI2 CF TR SLP160

CYYZ;2009-10-08 18:00;CYYZ 081800Z 12015KT 15SM FEW030 FEW160 BKN190 OVC240 17/08 A2998 RMK CF1AC2AS4CI2 CF TR SLP156

CYYZ;2009-10-08 19:00;CYYZ 081900Z CCA 23018G24KT 15SM FEW030 FEW160 BKN190 OVC240 17/07 A2998 RMK CF1AC2AS3CI2 CF TR SLP154

CYYZ;2009-10-08 20:00;CYYZ 082000Z 23014G22KT 15SM FEW030 SCT190 OVC240 17/08 A2997 RMK CU1AC3CS4 CU TR SLP152

CYYZ;2009-10-08 21:00;CYYZ 082100Z 23014G21KT 15SM FEW030 FEW170 SCT180 OVC240 16/08 A2997 RMK CU1AC2AC2CS3 CU TR SLP150

CYYZ;2009-10-08 22:00;CYYZ 082200Z 23011G18KT 15SM FEW110 BKN130 OVC240 15/08 A2997 RMK AC2AC3CS2 SLP150

CYYZ;2009-10-08 23:00;CYYZ 082300Z 23013KT 15SM OVC110 15/08 A2996 RMK AC8 SLP147

CYYZ;2009-10-09 00:00;CYYZ 090000Z 23011G16KT 15SM OVC092 14/08 A2996 RMK AC8 SLP148

CYYZ;2009-10-09 00:23;CYYZ 090023Z 23014KT 15SM -RA OVC090 14/ RMK AC8

CYYZ;2009-10-09 01:00;CYYZ 090100Z 22010KT 15SM -RA OVC079 14/09 A2995 RMK AC8 SLP146

CYYZ;2009-10-09 01:17;CYYZ 090117Z 24007KT 15SM OVC079 14/ RMK AC8

CYYZ;2009-10-09 02:00;CYYZ 090200Z 23006KT 15SM FEW030 OVC072 13/09 A2995 RMK SC2AC6 SLP146

CYYZ;2009-10-09 03:00;CYYZ 090300Z 23007KT 15SM BKN055 OVC066 13/09 A2993 RMK SC6AC2 SLP138

CYYZ;2009-10-09 03:26;CYYZ 090326Z 23011KT 15SM -RA BKN062 OVC068 13/ RMK SC6AC2

CYYZ;2009-10-09 04:00;CYYZ 090400Z 23008KT 15SM BKN048 OVC062 13/10 A2992 RMK SC5SC3 SLP132

CYYZ;2009-10-09 04:50;CYYZ 090450Z 23009KT 15SM -SHRA BKN047 OVC063 12/ RMK SC5SC3

CYYZ;2009-10-09 05:00;CYYZ 090500Z 24010KT 10SM -SHRA BKN048 OVC063 12/09 A2991 RMK SC5SC3 SLP130

CYYZ;2009-10-09 06:00;CYYZ 090600Z 26003KT 10SM -RA FEW019 OVC026 10/10 A2991 RMK SC2SC6 SLP130

CYYZ;2009-10-09 07:00;CYYZ 090700Z 24002KT 10SM -RA FEW005 SCT019 OVC032 10/10 A2988 RMK SF2SC2SC4 SLP120

CYYZ;2009-10-09 08:00;CYYZ 090800Z 00000KT 8SM -RA FEW006 BKN021 OVC034 10/10 A2985 RMK SF2SC2SC3 SLP110

CYYZ;2009-10-09 09:00;CYYZ 090900Z 00000KT 7SM -RA FEW006 BKN024 OVC035 10/10 A2986 RMK SF2SC2SC3 SLP114

CYYZ;2009-10-09 10:00;CYYZ 091000Z 18002KT 8SM -DZ SCT004 OVC019 10/10 A2985 RMK SF3SC5 SLP110

CYYZ;2009-10-09 10:20;CYYZ 091020Z 15004KT 6SM -DZ FEW001 BKN004 OVC020 10/ RMK SF1SF6ST1

CYYZ;2009-10-09 10:40;CYYZ 091040Z 14003KT 6SM BR OVC002 10/ RMK SF8

CYYZ;2009-10-09 11:00;CYYZ 091100Z 16002KT 6SM BR OVC002 10/10 A2983 RMK ST8 SLP104

CYYZ;2009-10-09 11:25;CYYZ 091125Z 00000KT 2 1/4SM -RA BR SCT002 OVC004 10/ RMK SF3SF5

CYYZ;2009-10-09 12:00;CYYZ 091200Z 14002KT 1 1/2SM -RA BR SCT006 OVC012 10/10 A2983 RMK SF3ST5 SLP102

CYYZ;2009-10-09 12:47;CYYZ 091247Z 00000KT 2 1/2SM -DZ BR FEW002 OVC011 10/ RMK SF2ST6

CYYZ;2009-10-09 12:55;CYYZ 091255Z 00000KT 2SM -DZ BR OVC003 10/ RMK SF8

CYYZ;2009-10-09 13:00;CYYZ 091300Z 00000KT 2 1/2SM -DZ BR BKN003 OVC012 11/11 A2982 RMK SF7ST1 SLP101

CYYZ;2009-10-09 13:33;CYYZ 091333Z 12002KT 3SM -RADZ BR BKN003 OVC012 11/ RMK SF6ST2

CYYZ;2009-10-09 13:53;CYYZ 091353Z 10002KT 3SM -RADZ BR FEW004 OVC018 11/ RMK SF2ST6

CYYZ;2009-10-09 14:00;CYYZ 091400Z 10003KT 3SM -RA BR BKN004 OVC018 11/11 A2981 RMK SF6ST2 SLP097

CYYZ;2009-10-09 15:00;CYYZ 091500Z 11003KT 3SM -RA BR BKN004 OVC021 11/11 A2980 RMK SF6NS2 SLP092

CYYZ;2009-10-09 16:00;CYYZ 091600Z 00000KT 3SM -RA BR BKN004 OVC010 11/11 A2980 RMK SF6NS2 SLP093

CYYZ;2009-10-09 17:00;CYYZ 091700Z 36005KT 7SM -RA BKN004 OVC012 11/11 A2979 RMK SF7NS1 SLP091

CYYZ;2009-10-09 17:38;CYYZ 091738Z 01007KT 6SM -RA SCT006 BKN021 OVC027 11/ RMK SF3SC3SC2

CYYZ;2009-10-09 18:00;CYYZ 091800Z 03006KT 6SM -RA BKN004 OVC011 11/11 A2977 RMK SF7NS1 SLP084

CYYZ;2009-10-09 18:32;CYYZ 091832Z 04005KT 5SM -RA FEW004 OVC015 11/ RMK SF2NS6

CYYZ;2009-10-09 18:49;CYYZ 091849Z 03005KT 6SM -RA BKN005 OVC025 11/ RMK SF6NS2

CYYZ;2009-10-09 19:00;CYYZ 091900Z 03005KT 6SM -RA SCT005 OVC028 11/11 A2977 RMK SF3NS5 SLP085

CYYZ;2009-10-09 19:17;CYYZ 091917Z 04006KT 6SM -RA BKN005 OVC015 11/ RMK SF7NS1

CYYZ;2009-10-09 19:37;CYYZ 091937Z 04006KT 5SM -RA FEW005 SCT018 OVC045 11/ RMK SF1SF2SC5

CYYZ;2009-10-09 20:00;CYYZ 092000Z 04005KT 6SM -RA FEW007 BKN015 OVC045 11/11 A2977 RMK SF2SF5SC2 SLP085

CYYZ;2009-10-09 20:34;CYYZ 092034Z 03006KT 7SM -RA BKN006 OVC020 11/ RMK SF7SC1

CYYZ;2009-10-09 21:00;CYYZ 092100Z 06005KT 6SM -RA BKN008 OVC039 11/10 A2975 RMK SF5SC3 SLP077

CYYZ;2009-10-09 21:14;CYYZ 092114Z 06005KT 6SM -RA FEW012 FEW022 OVC038 11/ RMK SF1SF2SC6

CYYZ;2009-10-09 22:00;CYYZ 092200Z 09004KT 6SM -RA FEW009 BKN025 OVC045 11/11 A2975 RMK SF2SF6SC1 SLP078

CYYZ;2009-10-09 22:19;CYYZ 092219Z 09002KT 7SM -RA SCT005 BKN012 OVC018 11/ RMK SF3SC3SC2

CYYZ;2009-10-09 22:54;CYYZ 092254Z 04003KT 7SM -RA BKN005 OVC011 11/ RMK SF5SC3

CYYZ;2009-10-09 23:00;CYYZ 092300Z 04004KT 7SM -RA BKN005 OVC012 11/11 A2977 RMK SF6SC2 SLP083

CYYZ;2009-10-10 00:00;CYYZ 100000Z 36012KT 8SM -RA FEW007 BKN016 OVC026 10/10 A2977 RMK SF2SC4SC2 SLP085

CYYZ;2009-10-10 00:11;CYYZ 100011Z 02012G18KT 7SM -RA SCT007 OVC013 10/ RMK SF3SC5

CYYZ;2009-10-10 01:00;CYYZ 100100Z 35013KT 8SM -RA SCT006 BKN014 OVC020 09/09 A2978 RMK SF3SC2SC2 SLP086

CYYZ;2009-10-10 01:28;CYYZ 100128Z 01016KT 9SM -RA FEW007 SCT012 OVC022 09/ RMK SF1SC2SC5

CYYZ;2009-10-10 02:00;CYYZ 100200Z 36015KT 10SM -RA FEW011 BKN018 OVC032 09/08 A2977 RMK SC2SC4SC2 SLP082

CYYZ;2009-10-10 03:00;CYYZ 100300Z 35014KT 10SM -RA FEW007 BKN014 OVC039 08/08 A2979 RMK SF2SC5SC1 SLP091

CYYZ;2009-10-10 03:49;CYYZ 100349Z 36015KT 10SM -RA SCT011 OVC043 08/ RMK SC3SC5

CYYZ;2009-10-10 04:00;CYYZ 100400Z 36016KT 12SM -RA FEW010 SCT040 OVC058 08/07 A2979 RMK SF2SC2SC4 SLP090

CYYZ;2009-10-10 05:00;CYYZ 100500Z 36013KT 12SM -RA SCT012 OVC051 07/07 A2979 RMK SF3SC5 SLP092

CYYZ;2009-10-10 05:43;CYYZ 100543Z 36009KT 15SM FEW012 BKN051 BKN082 07/ RMK SC2SC4AC2

CYYZ;2009-10-10 06:00;CYYZ 100600Z 35010KT 15SM FEW012 BKN046 BKN100 07/07 A2982 RMK SC2SC4AC2 SLP102

CYYZ;2009-10-10 07:00;CYYZ 100700Z 01007KT 15SM OVC052 08/06 A2984 RMK SC8 SLP109

CYYZ;2009-10-10 07:18;CYYZ 100718Z 33006KT 15SM -RA OVC056 08/ RMK SC8

CYYZ;2009-10-10 07:46;CYYZ 100746Z 34008KT 15SM OVC046 08/ RMK SC8

CYYZ;2009-10-10 08:00;CYYZ 100800Z 32009KT 15SM OVC048 08/07 A2988 RMK SC8 SLP120

CYYZ;2009-10-10 09:00;CYYZ 100900Z 33008KT 15SM OVC053 07/06 A2990 RMK SC8 SLP128

CYYZ;2009-10-10 09:34;CYYZ 100934Z 32010KT 15SM -SHRA OVC062 07/ RMK SC8

CYYZ;2009-10-10 10:00;CYYZ 101000Z 31011KT 15SM BKN051 07/06 A2993 RMK SC7 SLP139

CYYZ;2009-10-10 11:00;CYYZ 101100Z 33009KT 12SM BKN030 08/05 A2996 RMK SC7 SLP149

CYYZ;2009-10-10 12:00;CYYZ 101200Z 27005KT 15SM FEW045 SCT050 BKN080 07/06 A2999 RMK SC2SC2AC3 SLP159

CYYZ;2009-10-10 13:00;CYYZ 101300Z 29007KT 15SM FEW050 SCT080 08/06 A3002 RMK SC2AC2 SLP170

CYYZ;2009-10-10 14:00;CYYZ 101400Z 29008KT 15SM FEW025 FEW050 SCT070 10/06 A3006 RMK CU1SC1AC2 SLP182

CYYZ;2009-10-10 15:00;CYYZ 101500Z 27002KT 15SM FEW025 FEW030 SCT075 11/05 A3006 RMK CU1SC2AC2 SLP182

CYYZ;2009-10-10 16:00;CYYZ 101600Z 31005KT 15SM FEW035 BKN045 11/04 A3005 RMK CU2SC4 SLP180

CYYZ;2009-10-10 17:00;CYYZ 101700Z 25004KT 15SM FEW035 BKN050 12/03 A3005 RMK CU2SC4 SLP180

CYYZ;2009-10-10 18:00;CYYZ 101800Z 18004KT 15SM FEW045 BKN050 BKN075 BKN140 12/06 A3004 RMK CU2SC2AC1AC2 SLP178

CYYZ;2009-10-10 19:00;CYYZ 101900Z 20005KT 15SM FEW045 SCT050 BKN068 BKN130 BKN240 13/05 A3004 RMK CU2SC2AC2AC2CI1 SLP175

CYYZ;2009-10-10 20:00;CYYZ 102000Z 25013KT 15SM FEW045 SCT062 BKN130 BKN230 14/02 A3003 RMK CU1SC3AC2CI1 SLP173

CYYZ;2009-10-10 21:00;CYYZ 102100Z 27009KT 15SM FEW040 SCT050 BKN072 13/02 A3003 RMK CU2SC2AC4 SLP172

CYYZ;2009-10-10 22:00;CYYZ 102200Z 25011KT 15SM FEW040 SCT050 BKN069 12/03 A3004 RMK CU2SC2AC3 SLP176

CYYZ;2009-10-10 23:00;CYYZ 102300Z 27013G19KT 15SM FEW042 FEW071 BKN140 11/01 A3006 RMK SC2AC1AC2 SLP181

CYYZ;2009-10-11 00:00;CYYZ 110000Z 27008KT 15SM FEW046 SCT120 09/02 A3007 RMK SC2AC2 SLP189

CYYZ;2009-10-11 01:00;CYYZ 110100Z 25007KT 15SM FEW050 BKN110 09/02 A3007 RMK SC1AC5 SLP188

CYYZ;2009-10-11 02:00;CYYZ 110200Z 23008KT 15SM FEW043 SCT100 BKN170 09/03 A3007 RMK SC1AC3AC2 SLP186

CYYZ;2009-10-11 03:00;CYYZ 110300Z 25007KT 15SM FEW056 BKN120 08/03 A3006 RMK SC1AC3 SLP184

CYYZ;2009-10-11 04:00;CYYZ 110400Z 28014KT 15SM FEW045 SCT110 08/03 A3006 RMK SC1AC3 SLP184

CYYZ;2009-10-11 05:00;CYYZ 110500Z 28015KT 15SM FEW055 FEW110 08/02 A3007 RMK SC1AC2 SLP188

CYYZ;2009-10-11 06:00;CYYZ 110600Z 31019G27KT 15SM BKN061 BKN100 06/01 A3011 RMK SC5AC1 SLP200

CYYZ;2009-10-11 07:00;CYYZ 110700Z 31017KT 15SM FEW058 05/00 A3013 RMK SC1 SLP207

CYYZ;2009-10-11 08:00;CYYZ 110800Z 29010KT 15SM SKC 04/M02 A3014 RMK SLP211

CYYZ;2009-10-11 09:00;CYYZ 110900Z 27008KT 15SM SKC 02/M02 A3016 RMK SLP216

CYYZ;2009-10-11 10:00;CYYZ 111000Z 27007KT 15SM SKC 01/M02 A3016 RMK SLP219

CYYZ;2009-10-11 11:00;CYYZ 111100Z 26007KT 15SM SKC 01/M02 A3018 RMK SLP224

CYYZ;2009-10-11 12:00;CYYZ 111200Z 26007KT 15SM FEW045 01/M02 A3020 RMK SC1 SLP232

CYYZ;2009-10-11 12:49;CYYZ 111249Z 26011KT 15SM FEW045 03/ RMK SC1

CYYZ;2009-10-11 13:00;CYYZ 111300Z 26011KT 15SM FEW045 04/M01 A3022 RMK SC1 SLP239

CYYZ;2009-10-11 14:00;CYYZ 111400Z 27011G16KT 15SM FEW030 06/M01 A3022 RMK SC1 SLP240

CYYZ;2009-10-11 15:00;CYYZ 111500Z 27021KT 15SM FEW040 SCT045 07/M02 A3023 RMK SC2SC2 SLP243

CYYZ;2009-10-11 16:00;CYYZ 111600Z 27015G20KT 15SM FEW045 SCT050 08/M03 A3024 RMK CU2SC2 SLP245

CYYZ;2009-10-11 17:00;CYYZ 111700Z 31017G24KT 15SM FEW045 SCT053 09/M02 A3024 RMK CU2SC2 SLP244

CYYZ;2009-10-11 18:00;CYYZ 111800Z 29017KT 15SM FEW055 BKN060 08/M03 A3024 RMK CU2SC3 SLP244

CYYZ;2009-10-11 19:00;CYYZ 111900Z 31020G25KT 15SM FEW050 BKN060 BKN120 08/M03 A3025 RMK CU2SC4AC1 SLP250

CYYZ;2009-10-11 20:00;CYYZ 112000Z 30020KT 15SM FEW050 BKN060 BKN120 07/M04 A3027 RMK CU2SC4AC1 SLP255

CYYZ;2009-10-11 21:00;CYYZ 112100Z CCA 30015G24KT 15SM FEW050 BKN060 BKN170 07/M03 A3028 RMK CU2SC4AC1 SLP260

CYYZ;2009-10-11 22:00;CYYZ 112200Z 28010KT 15SM FEW040 SCT060 BKN130 05/M04 A3029 RMK CU1SC2AC2 SLP262

CYYZ;2009-10-11 23:00;CYYZ 112300Z 27007KT 15SM SCT055 BKN110 04/M03 A3031 RMK SC3AC2 SLP269

CYYZ;2009-10-12 00:00;CYYZ 120000Z 27006KT 15SM SCT065 SCT160 04/M03 A3032 RMK SC3AC1 SLP276

CYYZ;2009-10-12 01:00;CYYZ 120100Z 28006KT 15SM FEW064 FEW160 03/M03 A3033 RMK SC1AC1 SLP277

CYYZ;2009-10-12 02:00;CYYZ 120200Z 29007KT 15SM FEW064 03/M02 A3034 RMK SC1 SLP281

CYYZ;2009-10-12 02:23;CYYZ 120223Z 29007KT 15SM FEW064 02/ RMK SC1

CYYZ;2009-10-12 03:00;CYYZ 120300Z 30007KT 15SM FEW064 02/M03 A3034 RMK SC1 SLP282

CYYZ;2009-10-12 04:00;CYYZ 120400Z 27004KT 15SM FEW210 01/M03 A3034 RMK CI1 SLP282

CYYZ;2009-10-12 05:00;CYYZ 120500Z 27003KT 15SM FEW190 02/M03 A3034 RMK AC2 SLP281

CYYZ;2009-10-12 06:00;CYYZ 120600Z 28003KT 15SM FEW170 FEW240 01/M03 A3035 RMK AC2CI0 SLP284

CYYZ;2009-10-12 07:00;CYYZ 120700Z 30002KT 15SM FEW240 01/M03 A3036 RMK CI1 SLP286

CYYZ;2009-10-12 08:00;CYYZ 120800Z 29002KT 15SM FEW160 01/M03 A3036 RMK AC2 SLP288

CYYZ;2009-10-12 09:00;CYYZ 120900Z 31004KT 15SM FEW150 02/M03 A3035 RMK AC2 SLP285

CYYZ;2009-10-12 10:00;CYYZ 121000Z 00000KT 15SM FEW150 01/M02 A3036 RMK AC2 SLP288

CYYZ;2009-10-12 11:00;CYYZ 121100Z 28002KT 15SM FEW080 SCT220 01/M03 A3037 RMK AC2CI0 SLP292

CYYZ;2009-10-12 12:00;CYYZ 121200Z 05003KT 15SM SCT110 BKN120 BKN220 01/M02 A3037 RMK AC3AC3CI1 FROIN SLP290

CYYZ;2009-10-12 13:00;CYYZ 121300Z 07003KT 15SM FEW030 BKN110 02/M02 A3035 RMK SC1AC7 SC TR SLP285

CYYZ;2009-10-12 14:00;CYYZ 121400Z 11002KT 15SM FEW030 BKN110 04/M01 A3035 RMK SC1AC7 SC TR SLP284

CYYZ;2009-10-12 15:00;CYYZ 121500Z 16004KT 15SM FEW030 BKN090 OVC100 05/M00 A3034 RMK CU1AC5AC2 SLP282

CYYZ;2009-10-12 16:00;CYYZ 121600Z 15004KT 15SM FEW030 OVC084 06/M01 A3034 RMK CU1AC7 SLP279

CYYZ;2009-10-12 17:00;CYYZ 121700Z 14005KT 15SM OVC083 06/01 A3031 RMK AC8 SLP269

CYYZ;2009-10-12 18:00;CYYZ 121800Z 12003KT 15SM OVC085 06/01 A3030 RMK AC8 SLP267

CYYZ;2009-10-12 19:00;CYYZ 121900Z 14005KT 15SM FEW030 OVC096 06/01 A3026 RMK CU1AC7 SLP255

CYYZ;2009-10-12 20:00;CYYZ 122000Z 09005KT 15SM FEW030 OVC096 06/01 A3023 RMK CU1AC7 SLP243

CYYZ;2009-10-12 21:00;CYYZ 122100Z 12005KT 15SM OVC092 07/M00 A3021 RMK AC8 SLP237

CYYZ;2009-10-12 22:00;CYYZ 122200Z 11004KT 15SM FEW025 BKN077 OVC088 06/M00 A3021 RMK CU1AC5AC3 CU TR SLP235

CYYZ;2009-10-12 23:00;CYYZ 122300Z 08004KT 15SM OVC087 06/00 A3020 RMK AC8 SLP233

CYYZ;2009-10-13 00:00;CYYZ 130000Z 09005KT 15SM BKN068 OVC098 06/01 A3019 RMK AC5AC3 SLP230

CYYZ;2009-10-13 01:00;CYYZ 130100Z 05006KT 15SM BKN074 OVC088 06/02 A3016 RMK AC6AC2 SLP219

CYYZ;2009-10-13 02:00;CYYZ 130200Z 04003KT 15SM BKN054 OVC072 06/02 A3014 RMK SC6AC2 SLP213

CYYZ;2009-10-13 03:00;CYYZ 130300Z 03004KT 15SM BKN049 OVC058 06/02 A3012 RMK SC6SC2 SLP206

CYYZ;2009-10-13 04:00;CYYZ 130400Z 04003KT 15SM OVC052 06/02 A3010 RMK SC8 SLP200

CYYZ;2009-10-13 05:00;CYYZ 130500Z 34003KT 15SM SCT042 OVC055 05/02 A3010 RMK SC4SC4 SLP197

CYYZ;2009-10-13 05:31;CYYZ 130531Z 00000KT 15SM -SHRA SCT044 OVC085 05/ RMK SC4AC4

CYYZ;2009-10-13 06:00;CYYZ 130600Z 33002KT 15SM -SHRA SCT045 OVC072 05/02 A3007 RMK SC3AC5 SLP189

CYYZ;2009-10-13 07:00;CYYZ 130700Z 31003KT 15SM -SHRA BKN065 OVC072 05/03 A3007 RMK SC5AC3 PCPN VRY LGT SLP188

CYYZ;2009-10-13 08:00;CYYZ 130800Z 35003KT 15SM -SHRA OVC069 05/03 A3006 RMK AC8 PCPN VRY LGT SLP185

CYYZ;2009-10-13 09:00;CYYZ 130900Z 36005KT 15SM -SHRA BKN064 OVC070 05/03 A3006 RMK SC5AC3 SLP185

CYYZ;2009-10-13 10:00;CYYZ 131000Z 27003KT 15SM -SHRA SCT024 OVC032 05/03 A3006 RMK SC3SC5 SLP185

CYYZ;2009-10-13 11:00;CYYZ 131100Z 26005KT 12SM -RA OVC024 05/04 A3007 RMK SC8 PCPN VRY LGT INTMT SLP187

CYYZ;2009-10-13 11:31;CYYZ 131131Z 24006KT 12SM FEW025 SCT040 BKN085 05/ RMK SC1SC3AC4

CYYZ;2009-10-13 12:00;CYYZ 131200Z 27007KT 15SM FEW025 FEW040 BKN090 05/04 A3007 RMK SF1SC1AC6 SLP188

CYYZ;2009-10-13 13:00;CYYZ 131300Z 30011KT 15SM FEW040 FEW065 BKN093 07/04 A3009 RMK SC1SC1AC6 SLP195

CYYZ;2009-10-13 14:00;CYYZ 131400Z 30018KT 15SM BKN023 BKN085 07/03 A3010 RMK SC6AC1 CU ASOCTD SLP199

CYYZ;2009-10-13 15:00;CYYZ 131500Z 31022KT 15SM SCT030 BKN083 09/02 A3012 RMK CU4AC2 SHWRS W SLP203

CYYZ;2009-10-13 16:00;CYYZ 131600Z 31012G17KT 15SM BKN035 BKN080 09/02 A3014 RMK CU6AC1 VIRGA SHWRS N NE SE SLP210

CYYZ;2009-10-13 17:00;CYYZ 131700Z 35012G20KT 15SM BKN045 09/02 A3016 RMK CU6 SKY DRK NW N TCU ASOCTD SLP217

CYYZ;2009-10-13 18:00;CYYZ 131800Z 32015G22KT 15SM FEW030 SCT065 10/03 A3017 RMK CU2SC2 SLP220

CYYZ;2009-10-13 19:00;CYYZ 131900Z 34018G28KT 15SM FEW040 SCT055 08/M01 A3018 RMK SC2SC2 CU ASOCTD SLP225

CYYZ;2009-10-13 20:00;CYYZ 132000Z 34016G22KT 15SM SCT045 SCT060 10/M01 A3019 RMK CU4SC1 SLP227

CYYZ;2009-10-13 21:00;CYYZ 132100Z 34013G21KT 15SM FEW050 FEW150 09/00 A3021 RMK CU2AC1 SLP236

CYYZ;2009-10-13 22:00;CYYZ 132200Z 34017G24KT 15SM FEW050 FEW240 07/00 A3024 RMK SC1CI1 PRESRR SLP246

CYYZ;2009-10-13 23:00;CYYZ 132300Z 34016KT 15SM FEW050 FEW240 06/M00 A3028 RMK SC1CI1 SLP257

CYYZ;2009-10-14 00:00;CYYZ 140000Z 32012KT 15SM FEW045 FEW240 05/01 A3030 RMK SC1CI1 SC TR SLP266

CYYZ;2009-10-14 01:00;CYYZ 140100Z 32012KT 15SM FEW240 05/01 A3033 RMK CI1 SLP275

CYYZ;2009-10-14 02:00;CYYZ 140200Z 32010KT 15SM FEW038 FEW240 04/01 A3031 RMK SC1CI1 SLP269

CYYZ;2009-10-14 03:00;CYYZ 140300Z 34010KT 15SM FEW250 03/01 A3031 RMK CI1 SLP268

CYYZ;2009-10-14 04:00;CYYZ 140400Z 35009KT 15SM FEW040 SCT250 03/01 A3031 RMK SC1CI1 SC TR SLP270

CYYZ;2009-10-14 05:00;CYYZ 140500Z 36009KT 15SM FEW035 SCT250 03/01 A3031 RMK SC2CI0 SLP269

CYYZ;2009-10-14 06:00;CYYZ 140600Z 01009KT 15SM BKN019 BKN250 03/01 A3031 RMK SC5CI0 SLP271

CYYZ;2009-10-14 06:20;CYYZ 140620Z 02007KT 15SM SCT019 02/ RMK SC4

CYYZ;2009-10-14 07:00;CYYZ 140700Z 02007KT 15SM FEW020 01/M00 A3033 RMK SC2 SLP277

CYYZ;2009-10-14 08:00;CYYZ 140800Z 35007KT 15SM FEW020 01/M01 A3033 RMK SC2 SLP276

CYYZ;2009-10-14 09:00;CYYZ 140900Z 36010KT 15SM BKN023 01/M01 A3034 RMK SC5 SLP279

CYYZ;2009-10-14 10:00;CYYZ 141000Z 36006KT 15SM SCT033 00/M02 A3035 RMK SC4 SLP285

CYYZ;2009-10-14 11:00;CYYZ 141100Z 03004KT 15SM FEW030 M00/M02 A3035 RMK SC1 SLP284

CYYZ;2009-10-14 12:00;CYYZ 141200Z 36003KT 15SM FEW030 FEW270 00/M02 A3035 RMK SC1CI0 SLP286

CYYZ;2009-10-14 13:00;CYYZ 141300Z 35005KT 15SM FEW030 BKN280 02/M02 A3036 RMK SC1CI2 SLP288

CYYZ;2009-10-14 14:00;CYYZ 141400Z 03005KT 15SM FEW030 BKN280 03/M03 A3036 RMK SC1CS4 SLP288

CYYZ;2009-10-14 15:00;CYYZ 141500Z 02007KT 15SM FEW030 BKN280 04/M04 A3034 RMK SC1CS6 SLP282

CYYZ;2009-10-14 16:00;CYYZ 141600Z 03005KT 15SM FEW030 BKN280 05/M04 A3033 RMK CF1CS4 SLP278

CYYZ;2009-10-14 17:00;CYYZ 141700Z 35006KT 15SM FEW030 FEW220 BKN280 06/M03 A3032 RMK CF1CI2CS4 SLP274

CYYZ;2009-10-14 18:00;CYYZ 141800Z 02007KT 15SM FEW030 BKN260 06/M05 A3029 RMK CF1CS7 SLP264

CYYZ;2009-10-14 19:00;CYYZ 141900Z 02007KT 15SM FEW030 FEW180 BKN260 06/M05 A3025 RMK CF1AS2CS5 SLP250

CYYZ;2009-10-14 20:00;CYYZ 142000Z 01008KT 15SM FEW030 FEW180 BKN230 07/M04 A3022 RMK CF1AC2CI2 SLP242

CYYZ;2009-10-14 21:00;CYYZ 142100Z 02009KT 15SM FEW030 FEW160 FEW240 07/M04 A3021 RMK CF1AC1CI2 SLP236

CYYZ;2009-10-14 22:00;CYYZ 142200Z 35011KT 15SM FEW030 FEW150 FEW250 05/M04 A3021 RMK SC1AC1CI0 SLP236

CYYZ;2009-10-14 23:00;CYYZ 142300Z 35010KT 15SM FEW041 FEW130 FEW240 04/M05 A3021 RMK SC1AC1CI1 SLP237

CYYZ;2009-10-15 00:00;CYYZ 150000Z 36008KT 15SM FEW040 FEW120 FEW240 03/M04 A3021 RMK SC1AC1CI1 SLP237

CYYZ;2009-10-15 01:00;CYYZ 150100Z 01008KT 15SM FEW040 FEW130 02/M04 A3020 RMK SC1AC1 SC TR SLP233

CYYZ;2009-10-15 02:00;CYYZ 150200Z 02006KT 15SM FEW040 FEW130 SCT250 01/M04 A3019 RMK SC1AC1CI0 SC TR SLP232

CYYZ;2009-10-15 03:00;CYYZ 150300Z 01008KT 15SM SCT250 01/M04 A3020 RMK CI1 SLP235

CYYZ;2009-10-15 04:00;CYYZ 150400Z 36005KT 15SM SCT250 M00/M04 A3020 RMK CI1 SLP233

CYYZ;2009-10-15 05:00;CYYZ 150500Z 02008KT 15SM BKN250 00/M04 A3017 RMK CI3 SLP224

CYYZ;2009-10-15 06:00;CYYZ 150600Z 02006KT 15SM OVC250 M00/M04 A3016 RMK CI5 SLP219

CYYZ;2009-10-15 07:00;CYYZ 150700Z 05006KT 15SM FEW040 OVC250 01/M03 A3014 RMK SC1CI4 SLP214

CYYZ;2009-10-15 08:00;CYYZ 150800Z 07007KT 15SM BKN030 BKN080 OVC250 01/M04 A3013 RMK SC5AC1CI1 SLP210

CYYZ;2009-10-15 09:00;CYYZ 150900Z 06010G15KT 15SM FEW030 BKN140 BKN250 01/M06 A3013 RMK SC2AC2CI1 SLP209

CYYZ;2009-10-15 10:00;CYYZ 151000Z 06009KT 15SM BKN030 BKN140 BKN250 01/M06 A3012 RMK SC6AC1CI0 SLP206

CYYZ;2009-10-15 11:00;CYYZ 151100Z 07008KT 15SM BKN030 OVC042 02/M06 A3012 RMK SC7SC1 SLP205

CYYZ;2009-10-15 12:00;CYYZ 151200Z 07008KT 15SM FEW015 BKN032 OVC042 02/M06 A3013 RMK SC1SC7SC1 SLP208

CYYZ;2009-10-15 13:00;CYYZ 151300Z 07010G16KT 15SM FEW015 BKN040 OVC050 02/M05 A3013 RMK SF1SC7SC1 SLP208

CYYZ;2009-10-15 14:00;CYYZ 151400Z 08011KT 15SM BKN040 OVC140 03/M05 A3012 RMK SC4AS4 SLP206

CYYZ;2009-10-15 15:00;CYYZ 151500Z 08018KT 15SM FEW020 OVC040 03/M08 A3011 RMK SF1SC8 SLP202

CYYZ;2009-10-15 16:00;CYYZ 151600Z 09015KT 15SM FEW020 BKN040 03/M08 A3009 RMK SF1SC7 SLP195

CYYZ;2009-10-15 17:00;CYYZ 151700Z 09018KT 15SM FEW020 BKN046 04/M07 A3007 RMK SF1SC7 SLP190

CYYZ;2009-10-15 18:00;CYYZ 151800Z 09013G20KT 15SM BKN046 BKN260 04/M05 A3005 RMK SC6CS2 SLP184

CYYZ;2009-10-15 19:00;CYYZ 151900Z 08016G21KT 15SM FEW045 BKN280 04/M06 A3004 RMK SC1CI6 SLP181

CYYZ;2009-10-15 20:00;CYYZ 152000Z 09013KT 15SM FEW025 FEW045 BKN280 04/M05 A3003 RMK SF1SC1CS7 SLP177

CYYZ;2009-10-15 21:00;CYYZ 152100Z 09011G18KT 15SM FEW030 FEW050 BKN280 04/M05 A3003 RMK CF1SC1CS6 SLP176

CYYZ;2009-10-15 22:00;CYYZ 152200Z 09009KT 15SM FEW030 FEW050 OVC200 04/M06 A3003 RMK CF1SC1CS7 SLP177

CYYZ;2009-10-15 23:00;CYYZ 152300Z 08008KT 15SM FEW030 FEW042 OVC120 04/M06 A3004 RMK CF1SC2AS6 SLP178

CYYZ;2009-10-16 00:00;CYYZ 160000Z 06007KT 15SM FEW036 OVC160 04/M05 A3004 RMK SC2AS6 SLP177

CYYZ;2009-10-16 01:00;CYYZ 160100Z 05009KT 15SM FEW040 OVC110 04/M06 A3003 RMK SC1AC6 SLP176

CYYZ;2009-10-16 02:00;CYYZ 160200Z 06011KT 15SM FEW050 BKN110 OVC140 03/M06 A3004 RMK SC1AC4AC2 SLP177

CYYZ;2009-10-16 03:00;CYYZ 160300Z 06009G16KT 15SM FEW043 FEW078 BKN120 03/M06 A3004 RMK SC1AC2AC4 SLP178

CYYZ;2009-10-16 04:00;CYYZ 160400Z 06010G15KT 15SM BKN043 BKN110 02/M06 A3004 RMK SC5AC2 SLP177

CYYZ;2009-10-16 05:00;CYYZ 160500Z 06009KT 15SM SCT042 OVC120 02/M06 A3003 RMK SC3AC5 SLP176

CYYZ;2009-10-16 06:00;CYYZ 160600Z 06009G15KT 15SM BKN039 BKN100 02/M06 A3003 RMK SC5AC2 SLP175

CYYZ;2009-10-16 07:00;CYYZ 160700Z 05009KT 15SM BKN038 BKN110 02/M06 A3003 RMK SC6AC1 SLP174

CYYZ;2009-10-16 08:00;CYYZ 160800Z 05011KT 15SM BKN041 BKN110 01/M06 A3001 RMK SC6AC1 SLP170

CYYZ;2009-10-16 09:00;CYYZ 160900Z 04010KT 15SM FEW040 BKN110 01/M07 A3001 RMK SC2AC3 SLP171

CYYZ;2009-10-16 10:00;CYYZ 161000Z 04009KT 15SM FEW040 SCT110 01/M06 A3002 RMK SC1AC2 SLP174

CYYZ;2009-10-16 11:00;CYYZ 161100Z 04008KT 15SM FEW042 SCT140 00/M06 A3003 RMK SC1AC2 SLP176

CYYZ;2009-10-16 12:00;CYYZ 161200Z 03007KT 15SM FEW040 SCT140 SCT250 M00/M06 A3004 RMK SC1AC2CI1 SC TR SLP178

CYYZ;2009-10-16 13:00;CYYZ 161300Z 03008KT 15SM FEW040 FEW120 SCT250 01/M06 A3005 RMK CU1AC2CI0 SLP182

CYYZ;2009-10-16 14:00;CYYZ 161400Z 04010KT 15SM FEW120 FEW250 02/M05 A3006 RMK AC1CI1 SLP187

CYYZ;2009-10-16 15:00;CYYZ 161500Z 05004KT 15SM FEW025 FEW045 SCT250 04/M05 A3007 RMK CF1SC2CI0 CF TR SLP187

CYYZ;2009-10-16 16:00;CYYZ 161600Z 01009KT 15SM FEW045 FEW120 SCT250 05/M04 A3006 RMK SC2AC1CI0 SLP186

CYYZ;2009-10-16 17:00;CYYZ 161700Z 02006G15KT 15SM FEW045 FEW120 SCT250 06/M04 A3006 RMK CF1AC1CI0 CF TR SLP184

CYYZ;2009-10-16 18:00;CYYZ 161800Z 06004KT 15SM FEW045 FEW120 SCT250 06/M05 A3004 RMK CF1AC1CI0 CF TR SLP179

CYYZ;2009-10-16 19:00;CYYZ 161900Z 05009KT 15SM FEW045 SCT250 07/M05 A3004 RMK CF1CI1 CF TR SLP179

CYYZ;2009-10-16 20:00;CYYZ 162000Z 12008KT 15SM SCT250 06/M03 A3004 RMK CI1 SLP179

CYYZ;2009-10-16 21:00;CYYZ 162100Z 16007KT 15SM FEW035 FEW240 06/M02 A3004 RMK CF1CI1 CF TR SLP179

CYYZ;2009-10-16 22:00;CYYZ 162200Z 15004KT 15SM FEW030 SCT240 05/M03 A3006 RMK CF1CI2 CF TR SLP184

CYYZ;2009-10-16 23:00;CYYZ 162300Z 11004KT 15SM SCT120 SCT240 04/M02 A3008 RMK AC3CI0 SLP191

CYYZ;2009-10-17 00:00;CYYZ 170000Z 06002KT 15SM SCT100 SCT240 04/M03 A3009 RMK AC3CI1 SLP197

CYYZ;2009-10-17 01:00;CYYZ 170100Z 06003KT 15SM SCT130 BKN140 04/M03 A3010 RMK AC3AC2 SLP201

CYYZ;2009-10-17 02:00;CYYZ 170200Z 04004KT 15SM BKN130 BKN140 04/M01 A3010 RMK AC5AC2 SLP201

CYYZ;2009-10-17 02:53;CYYZ 170253Z 01004KT 15SM BKN120 02/ RMK AC6

CYYZ;2009-10-17 03:00;CYYZ 170300Z 01004KT 15SM BKN120 02/M02 A3011 RMK AC6 SLP203

CYYZ;2009-10-17 04:00;CYYZ 170400Z 35005KT 15SM BKN140 02/M02 A3011 RMK AC6 SLP203

CYYZ;2009-10-17 05:00;CYYZ 170500Z 36009KT 15SM SCT140 BKN170 02/M03 A3011 RMK AC3AC4 SLP204

CYYZ;2009-10-17 06:00;CYYZ 170600Z 02006KT 15SM FEW150 BKN170 01/M03 A3012 RMK AC2AC5 SLP205

CYYZ;2009-10-17 07:00;CYYZ 170700Z 02006KT 15SM SCT120 BKN130 01/M03 A3012 RMK AC4AC3 SLP207

CYYZ;2009-10-17 08:00;CYYZ 170800Z 01005KT 15SM SCT110 BKN150 BKN220 01/M04 A3012 RMK AC3AC3CI1 SLP206

CYYZ;2009-10-17 09:00;CYYZ 170900Z 01005KT 15SM SCT140 BKN150 BKN220 00/M04 A3013 RMK AC3AC3CI1 SLP209

CYYZ;2009-10-17 10:00;CYYZ 171000Z 35005KT 15SM BKN100 BKN110 00/M04 A3014 RMK AC5AC2 SLP213

CYYZ;2009-10-17 11:00;CYYZ 171100Z 36008KT 15SM BKN110 01/M04 A3016 RMK AC7 SLP218

CYYZ;2009-10-17 12:00;CYYZ 171200Z 35007KT 15SM BKN110 01/M04 A3017 RMK AC7 SLP224

CYYZ;2009-10-17 13:00;CYYZ 171300Z 36008KT 15SM BKN100 02/M04 A3019 RMK AC6 SLP229

CYYZ;2009-10-17 14:00;CYYZ 171400Z 02009KT 15SM SCT100 BKN250 03/M04 A3019 RMK AC3CI0 SLP232

CYYZ;2009-10-17 15:00;CYYZ 171500Z 02011G16KT 15SM FEW030 FEW100 BKN260 06/M05 A3019 RMK CF1AC2CI0 SLP229

CYYZ;2009-10-17 16:00;CYYZ 171600Z 04009KT 15SM FEW036 SCT130 BKN260 07/M06 A3019 RMK CU1AC2CI0 SLP231

CYYZ;2009-10-17 17:00;CYYZ 171700Z 06008KT 15SM FEW040 FEW130 BKN260 07/M06 A3019 RMK CU1AC2CI0 SLP230

CYYZ;2009-10-17 18:00;CYYZ 171800Z 36003KT 15SM FEW040 SCT140 BKN260 08/M05 A3019 RMK CU1AC2CI0 SLP228

CYYZ;2009-10-17 19:00;CYYZ 171900Z 35009KT 15SM FEW040 SCT140 BKN250 08/M05 A3018 RMK CU1AC2CI0 CF TR SLP225

CYYZ;2009-10-17 20:00;CYYZ 172000Z 02005KT 15SM FEW040 FEW120 BKN250 08/M05 A3018 RMK CF1AC2CI0 SLP225

CYYZ;2009-10-17 21:00;CYYZ 172100Z 34012KT 15SM FEW040 SCT150 BKN250 08/M06 A3018 RMK CF1AC2CI0 SLP227

CYYZ;2009-10-17 22:00;CYYZ 172200Z 36010G16KT 15SM FEW050 FEW140 BKN250 07/M08 A3019 RMK SC1AC2CI1 SC TR SLP229

CYYZ;2009-10-17 23:00;CYYZ 172300Z CCA 36008KT 15SM FEW050 SCT150 BKN250 06/M07 A3020 RMK SC1AC3CI1 SC TR SLP233

CYYZ;2009-10-18 00:00;CYYZ 180000Z 35012KT 15SM BKN130 BKN140 05/M05 A3022 RMK AC5AC2 SLP240

CYYZ;2009-10-18 01:00;CYYZ 180100Z 34012KT 15SM FEW110 BKN160 04/M05 A3023 RMK AC2AC5 SLP243

CYYZ;2009-10-18 02:00;CYYZ 180200Z 35010KT 15SM BKN150 04/M05 A3024 RMK AC7 SLP246

CYYZ;2009-10-18 03:00;CYYZ 180300Z 35009KT 15SM BKN150 03/M05 A3024 RMK AC7 SLP245

CYYZ;2009-10-18 04:00;CYYZ 180400Z 35009KT 15SM FEW100 BKN150 03/M05 A3024 RMK AC2AC5 SLP245

CYYZ;2009-10-18 05:00;CYYZ 180500Z 35008KT 15SM SCT140 02/M04 A3023 RMK AC4 SLP242

CYYZ;2009-10-18 06:00;CYYZ 180600Z 34011KT 15SM FEW140 02/M04 A3023 RMK AC2 SLP244

CYYZ;2009-10-18 07:00;CYYZ 180700Z 02008KT 15SM FEW140 01/M04 A3023 RMK AC2 SLP244

CYYZ;2009-10-18 08:00;CYYZ 180800Z CCA 35007KT 15SM SKC 01/M04 A3023 RMK SLP243

CYYZ;2009-10-18 09:00;CYYZ 180900Z 35008KT 15SM FEW220 00/M04 A3024 RMK CI1 FROIN SLP245

CYYZ;2009-10-18 10:00;CYYZ 181000Z 34008KT 15SM FEW220 00/M04 A3025 RMK CI1 FROIN SLP248

CYYZ;2009-10-18 11:00;CYYZ 181100Z 34009KT 15SM FEW040 FEW260 00/M05 A3026 RMK SC1CI1 SLP253

CYYZ;2009-10-18 12:00;CYYZ 181200Z 36007KT 15SM FEW040 FEW260 M00/M05 A3027 RMK SC1CI1 SLP257

CYYZ;2009-10-18 13:00;CYYZ 181300Z 35004KT 15SM FEW050 01/M04 A3028 RMK SC1 SLP262

CYYZ;2009-10-18 14:00;CYYZ 181400Z 35006KT 15SM FEW050 03/M03 A3029 RMK SC1 SLP264

CYYZ;2009-10-18 15:00;CYYZ 181500Z 36005KT 15SM FEW040 06/M03 A3030 RMK CU1 SLP267

CYYZ;2009-10-18 16:00;CYYZ 181600Z 32004KT 15SM FEW040 08/M04 A3029 RMK CU1 SLP264

CYYZ;2009-10-18 17:00;CYYZ 181700Z 35003KT 15SM FEW040 08/M05 A3027 RMK CU1 SLP257

CYYZ;2009-10-18 18:00;CYYZ 181800Z 27004KT 15SM FEW040 09/M05 A3025 RMK CU1 SLP249

CYYZ;2009-10-18 19:00;CYYZ 181900Z 31005KT 15SM FEW046 10/M05 A3024 RMK CU1 SLP246

CYYZ;2009-10-18 20:00;CYYZ 182000Z 15009KT 15SM FEW048 09/M03 A3022 RMK CU1 SLP241

CYYZ;2009-10-18 21:00;CYYZ 182100Z 16009KT 15SM FEW050 08/M05 A3022 RMK CU1 SLP239

CYYZ;2009-10-18 22:00;CYYZ 182200Z 15006KT 15SM FEW160 07/M05 A3022 RMK AC1 SLP238

CYYZ;2009-10-18 23:00;CYYZ 182300Z 17003KT 15SM FEW160 06/M04 A3021 RMK AC1 SLP235

CYYZ;2009-10-19 00:00;CYYZ 190000Z 18003KT 15SM SKC 05/M04 A3021 RMK SLP238

CYYZ;2009-10-19 01:00;CYYZ 190100Z 27002KT 15SM SKC 04/M04 A3020 RMK SLP234

CYYZ;2009-10-19 02:00;CYYZ 190200Z 25002KT 15SM SKC 04/M03 A3019 RMK SLP232

CYYZ;2009-10-19 03:00;CYYZ 190300Z 25006KT 15SM SKC 02/M04 A3019 RMK SLP229

CYYZ;2009-10-19 04:00;CYYZ 190400Z 29002KT 15SM FEW260 02/M04 A3019 RMK CI1 SLP230

CYYZ;2009-10-19 05:00;CYYZ 190500Z 28004KT 15SM SKC 03/M04 A3018 RMK SLP226

CYYZ;2009-10-19 06:00;CYYZ 190600Z 28003KT 15SM FEW010 02/M04 A3018 RMK ST1 SLP226

CYYZ;2009-10-19 07:00;CYYZ 190700Z 27002KT 15SM FEW010 FEW260 01/M03 A3017 RMK ST1CI1 SLP224

CYYZ;2009-10-19 08:00;CYYZ 190800Z 27003KT 15SM FEW010 FEW260 01/M03 A3016 RMK ST1CI1 SLP221

CYYZ;2009-10-19 09:00;CYYZ 190900Z 00000KT 15SM FEW140 01/M03 A3016 RMK AC2 SLP221

CYYZ;2009-10-19 10:00;CYYZ 191000Z 23004KT 15SM BKN140 01/M03 A3017 RMK AC4 SLP223

CYYZ;2009-10-19 11:00;CYYZ 191100Z 18004KT 15SM BKN140 03/M02 A3017 RMK AC3 SLP222

CYYZ;2009-10-19 12:00;CYYZ 191200Z 14003KT 15SM FEW140 FEW270 03/M02 A3016 RMK AC2CI1 SLP218

CYYZ;2009-10-19 13:00;CYYZ 191300Z 15004KT 15SM FEW140 FEW270 04/M01 A3016 RMK AC1CI1 SLP218

CYYZ;2009-10-19 14:00;CYYZ 191400Z 22007KT 15SM FEW140 FEW260 08/01 A3014 RMK AC1CI1 SLP214

CYYZ;2009-10-19 15:00;CYYZ 191500Z 21013KT 15SM FEW140 10/02 A3013 RMK AC1 SLP207

CYYZ;2009-10-19 16:00;CYYZ 191600Z 22017G22KT 15SM SCT130 SCT220 12/02 A3010 RMK AC2CI1 SLP200

CYYZ;2009-10-19 17:00;CYYZ 191700Z 21014G19KT 15SM FEW035 BKN140 BKN220 12/02 A3008 RMK CU1AC3CI0 SLP193

CYYZ;2009-10-19 18:00;CYYZ 191800Z 21012G17KT 15SM FEW040 SCT140 BKN160 BKN220 13/03 A3005 RMK CU1AC3AC2CI0 SLP182

CYYZ;2009-10-19 19:00;CYYZ 191900Z 22013G20KT 15SM FEW040 SCT140 BKN160 BKN230 15/05 A3003 RMK CU1AC3AC2CI0 CC ASOCTD SLP175

CYYZ;2009-10-19 20:00;CYYZ 192000Z 21016G22KT 15SM FEW040 SCT150 BKN230 14/05 A3001 RMK CU1AC2CI1 CU TR CONTRAILS SLP169

CYYZ;2009-10-19 21:00;CYYZ 192100Z 23016G22KT 15SM BKN096 BKN230 13/04 A3001 RMK AC5CI0 SLP165

CYYZ;2009-10-19 22:00;CYYZ 192200Z 20010G17KT 15SM FEW100 SCT140 BKN240 13/04 A2999 RMK AC1AC2CI1 SLP161

CYYZ;2009-10-19 23:00;CYYZ 192300Z 22010G16KT 15SM BKN068 12/03 A2999 RMK AC7 SLP161

CYYZ;2009-10-20 00:00;CYYZ 200000Z 20004KT 15SM OVC061 12/03 A2999 RMK SC8 SLP159

CYYZ;2009-10-20 01:00;CYYZ 200100Z 18005KT 15SM BKN044 OVC220 12/04 A2998 RMK SC7CS1 SLP158

CYYZ;2009-10-20 02:00;CYYZ 200200Z 22012KT 15SM OVC048 12/05 A2999 RMK SC8 SLP161

CYYZ;2009-10-20 03:00;CYYZ 200300Z 22009KT 15SM OVC050 12/05 A2999 RMK SC8 SLP159

CYYZ;2009-10-20 04:00;CYYZ 200400Z 21007KT 15SM OVC054 12/06 A3000 RMK SC8 SLP161

CYYZ;2009-10-20 05:00;CYYZ 200500Z 24006KT 15SM OVC058 13/05 A3000 RMK SC8 SLP161

CYYZ;2009-10-20 06:00;CYYZ 200600Z 25009KT 15SM OVC058 13/05 A2999 RMK SC8 SLP159

CYYZ;2009-10-20 07:00;CYYZ 200700Z 25008KT 15SM OVC058 12/04 A3001 RMK SC8 SLP163

CYYZ;2009-10-20 08:00;CYYZ 200800Z 25008KT 15SM OVC058 12/04 A3001 RMK SC8 SLP163

CYYZ;2009-10-20 09:00;CYYZ 200900Z 24008KT 15SM OVC054 12/04 A3002 RMK SC8 SLP167

CYYZ;2009-10-20 10:00;CYYZ 201000Z 25009KT 15SM OVC052 11/04 A3004 RMK SC8 SLP173

CYYZ;2009-10-20 11:00;CYYZ 201100Z 25008KT 15SM OVC050 11/05 A3005 RMK SC8 SLP178

CYYZ;2009-10-20 12:00;CYYZ 201200Z 25007KT 15SM BKN048 OVC250 11/05 A3006 RMK SC6CI2 SLP182

CYYZ;2009-10-20 13:00;CYYZ 201300Z 25008KT 12SM SCT047 BKN260 11/05 A3007 RMK SC3CI1 SLP187

CYYZ;2009-10-20 14:00;CYYZ 201400Z 27010KT 15SM FEW048 BKN260 12/06 A3009 RMK SC2CI2 SLP192

CYYZ;2009-10-20 15:00;CYYZ 201500Z 23005KT 15SM FEW047 BKN260 13/06 A3009 RMK SC2CI2 SLP191

CYYZ;2009-10-20 16:00;CYYZ 201600Z 00000KT 15SM FEW047 FEW220 BKN260 15/06 A3008 RMK SC2CI1CI2 SLP190

CYYZ;2009-10-20 17:00;CYYZ 201700Z 15005KT 15SM FEW047 BKN260 16/08 A3007 RMK SC1CI2 SLP187

CYYZ;2009-10-20 18:00;CYYZ 201800Z 14006KT 15SM BKN240 15/07 A3007 RMK CI4 SLP185

CYYZ;2009-10-20 19:00;CYYZ 201900Z 13006KT 15SM SCT051 BKN210 16/08 A3007 RMK SC3CI2 SLP183

CYYZ;2009-10-20 20:00;CYYZ 202000Z 14007KT 15SM BKN047 BKN240 16/08 A3007 RMK SC5CI2 WND ESTD SLP184

CYYZ;2009-10-20 21:00;CYYZ 202100Z 13007KT 10SM SCT044 BKN054 BKN240 14/08 A3007 RMK SC4SC2CI1 SLP183

CYYZ;2009-10-20 22:00;CYYZ 202200Z 14004KT 10SM BKN045 BKN240 14/09 A3009 RMK SC5CI2 SLP190

CYYZ;2009-10-20 23:00;CYYZ 202300Z 15005KT 15SM FEW045 BKN170 14/09 A3008 RMK SC2AC3 SLP189

CYYZ;2009-10-21 00:00;CYYZ 210000Z 22008KT 15SM OVC042 15/09 A3010 RMK SC8 SLP196

CYYZ;2009-10-21 01:00;CYYZ 210100Z 22004KT 15SM FEW052 OVC110 14/09 A3010 RMK SC1AC7 SLP195

CYYZ;2009-10-21 01:17;CYYZ 210117Z 24003KT 15SM TS FEW045CB OVC110 15/ RMK CB1AC6 LTGCC NW

CYYZ;2009-10-21 01:32;CYYZ 210132Z 25002KT 15SM FEW050 OVC110 14/ RETS RMK SC1AC8

CYYZ;2009-10-21 02:00;CYYZ 210200Z 28005KT 15SM OVC100 14/09 A3011 RETS RMK AC8 SLP198

CYYZ;2009-10-21 03:00;CYYZ 210300Z 01004KT 15SM OVC050 13/09 A3012 RMK SC8 SLP201

CYYZ;2009-10-21 04:00;CYYZ 210400Z 32006KT 10SM OVC045 13/09 A3013 RMK SC8 SLP204

CYYZ;2009-10-21 05:00;CYYZ 210500Z 35003KT 10SM OVC042 13/09 A3013 RMK SC8 SLP204

CYYZ;2009-10-21 06:00;CYYZ 210600Z 35004KT 10SM OVC037 12/09 A3013 RMK SC8 SLP207

CYYZ;2009-10-21 07:00;CYYZ 210700Z 32002KT 10SM OVC038 12/09 A3014 RMK SC8 SLP209

CYYZ;2009-10-21 08:00;CYYZ 210800Z 32004KT 10SM OVC036 12/09 A3013 RMK SC8 SLP207

CYYZ;2009-10-21 09:00;CYYZ 210900Z 00000KT 10SM SCT056 OVC068 12/09 A3013 RMK SC3AS5 SLP204

CYYZ;2009-10-21 10:00;CYYZ 211000Z 35002KT 10SM FEW030 BKN063 OVC100 12/10 A3013 RMK SC1SC6AC2 SLP207

CYYZ;2009-10-21 11:00;CYYZ 211100Z 01003KT 10SM FEW028 BKN039 OVC055 12/10 A3015 RMK SC2SC4SC2 SLP212

CYYZ;2009-10-21 12:00;CYYZ 211200Z 01002KT 8SM BKN052 OVC098 12/09 A3015 RMK SC5AC3 SLP213

CYYZ;2009-10-21 13:00;CYYZ 211300Z 00000KT 8SM BKN048 OVC097 13/10 A3016 RMK SC6AC2 SLP214

CYYZ;2009-10-21 14:00;CYYZ 211400Z 12002KT 8SM BKN052 OVC092 14/10 A3016 RMK SC6AC2 SLP215

CYYZ;2009-10-21 14:38;CYYZ 211438Z 15003KT 7SM -SHRA FEW023 BKN046 OVC088 14/ RMK SC2SC4AC2

CYYZ;2009-10-21 15:00;CYYZ 211500Z 14004KT 6SM HZ BKN062 BKN110 14/11 A3015 RMK SC5AC2 SLP211

CYYZ;2009-10-21 16:00;CYYZ 211600Z 13005KT 6SM -SHRA HZ BKN047 OVC095 13/10 A3013 RMK SC6AC2 SLP207

CYYZ;2009-10-21 16:56;CYYZ 211656Z 13003KT 2SM -RA BR FEW005 OVC035 12/ RMK SF2SC6

CYYZ;2009-10-21 17:00;CYYZ 211700Z 13003KT 2SM -RA BR FEW008 OVC038 12/12 A3014 RMK SF2SC6 SLP210

CYYZ;2009-10-21 17:34;CYYZ 211734Z 11005KT 4SM -RA BR SCT005 OVC037 12/ RMK SF3SC5

CYYZ;2009-10-21 18:00;CYYZ 211800Z 09005KT 4SM -RA BR SCT005 OVC037 12/12 A3011 RMK SF4SC4 SLP198

CYYZ;2009-10-21 19:00;CYYZ 211900Z 09006KT 4SM BR SCT006 OVC036 12/12 A3008 RMK SF3SC5 SLP188

CYYZ;2009-10-21 20:00;CYYZ 212000Z 09003KT 4SM BR SCT015 OVC038 12/11 A3007 RMK SC4SC4 SLP184

CYYZ;2009-10-21 20:21;CYYZ 212021Z 08004KT 4SM BR SCT006 OVC013 12/ RMK SC4SC4

CYYZ;2009-10-21 21:00;CYYZ 212100Z 12004KT 4SM -SHRA BR FEW006 SCT022 OVC088 12/12 A3005 RMK SC2SC2AC4 SLP180

CYYZ;2009-10-21 21:49;CYYZ 212149Z 15005KT 4SM BR SCT022 OVC098 11/ RMK SC4AC4

CYYZ;2009-10-21 22:00;CYYZ 212200Z 14005KT 4SM BR SCT022 OVC110 11/10 A3005 RMK SC3AC5 SLP179

CYYZ;2009-10-21 22:10;CYYZ 212210Z 12008KT 3SM -SHRA BR SCT022 OVC110 11/ RMK SC3AC5

CYYZ;2009-10-21 22:50;CYYZ 212250Z 11006KT 3SM BR FEW004 SCT020 OVC110 11/ RMK SF2SC2AC4

CYYZ;2009-10-21 23:00;CYYZ 212300Z 14002KT 4SM BR FEW004 SCT020 BKN110 OVC120 11/10 A3004 RMK SF2SC2AC3AC2 VIS 2 NE SLP174

CYYZ;2009-10-22 00:00;CYYZ 220000Z 07006KT 6SM BR FEW030 SCT080 BKN120 11/11 A3003 RMK SC2AC2AC4 SLP172

CYYZ;2009-10-22 01:00;CYYZ 220100Z 10004KT 6SM BR FEW030 FEW130 BKN140 BKN210 11/10 A3001 RMK SC1AC2AC2CI2 SLP164

CYYZ;2009-10-22 02:00;CYYZ 220200Z 14003KT 6SM BR FEW030 SCT130 BKN150 11/10 A3000 RMK SC1AC2AC4 SLP161

CYYZ;2009-10-22 03:00;CYYZ 220300Z 11004KT 6SM BR FEW030 SCT150 BKN180 11/10 A2999 RMK SC1AC3AC3 SLP157

CYYZ;2009-10-22 04:00;CYYZ 220400Z 12003KT 4SM BR FEW025 SCT140 BKN160 10/10 A2997 RMK SC1AC3AC3 SLP151

CYYZ;2009-10-22 05:00;CYYZ 220500Z 13003KT 4SM BR FEW025 SCT140 BKN240 10/10 A2995 RMK SC1AC3CI2 VIS 2 NE SLP144

CYYZ;2009-10-22 06:00;CYYZ 220600Z 13003KT 4SM BR FEW025 SCT160 OVC220 10/10 A2994 RMK SC1AC3CI3 SLP140

CYYZ;2009-10-22 07:00;CYYZ 220700Z 16004KT 4SM BR FEW025 SCT160 OVC220 10/09 A2992 RMK SC1AC3CI3 SLP135

CYYZ;2009-10-22 08:00;CYYZ 220800Z 15003KT 4SM BR FEW025 SCT190 OVC210 09/09 A2991 RMK SC1AC3CI4 SLP132

CYYZ;2009-10-22 09:00;CYYZ 220900Z 17004KT 4SM BR FEW180 BKN220 09/09 A2990 RMK AC2CI2 SLP127

CYYZ;2009-10-22 10:00;CYYZ 221000Z 15003KT 10SM FEW150 BKN200 09/09 A2989 RMK AC2CI2 BR SLP126

CYYZ;2009-10-22 11:00;CYYZ 221100Z 17003KT 10SM FEW140 BKN210 11/09 A2987 RMK AC2CI3 SLP117

CYYZ;2009-10-22 12:00;CYYZ 221200Z 22007KT 12SM BKN190 BKN220 12/09 A2986 RMK AC5CI1 SLP115

CYYZ;2009-10-22 13:00;CYYZ 221300Z 23012KT 12SM FEW045 BKN180 BKN240 13/09 A2987 RMK SC2AC4CI1 SLP117

CYYZ;2009-10-22 14:00;CYYZ 221400Z 25014KT 12SM FEW045 BKN170 BKN240 13/09 A2986 RMK SC2AC3CI1 SLP116

CYYZ;2009-10-22 15:00;CYYZ 221500Z 25013G20KT 12SM FEW044 BKN110 BKN210 14/10 A2986 RMK SC2AC4CI1 SLP114

CYYZ;2009-10-22 16:00;CYYZ 221600Z 27019KT 12SM FEW024 SCT052 BKN110 16/11 A2986 RMK SC2SC2AC2 SLP114

CYYZ;2009-10-22 17:00;CYYZ 221700Z 28018G25KT 10SM FEW026 BKN055 BKN120 16/11 A2987 RMK SC2SC2AC2 SLP118

CYYZ;2009-10-22 18:00;CYYZ 221800Z 27018G24KT 10SM BKN022 OVC055 15/11 A2990 RMK SC6SC2 SLP128

CYYZ;2009-10-22 18:28;CYYZ 221828Z 30017KT 10SM -SHRA BKN022 OVC034 14/ RMK SC6SC2

CYYZ;2009-10-22 19:00;CYYZ 221900Z 36018KT 15SM SCT017 BKN025 OVC035 10/08 A2992 RMK SC3SC2SC3 SLP136

CYYZ;2009-10-22 19:22;CYYZ 221922Z 36015KT 12SM -SHRA SCT015 BKN025 OVC051 10/ RMK SF3SC2SC3 CU EMBD

CYYZ;2009-10-22 20:00;CYYZ 222000Z 35016KT 8SM -SHRA FEW011 BKN031 OVC077 09/08 A2995 RMK SF2SC3AC2 CU EMBD SLP145

CYYZ;2009-10-22 20:33;CYYZ 222033Z 34015KT 15SM SCT016 OVC077 08/ RMK SC3AC5

CYYZ;2009-10-22 21:00;CYYZ 222100Z 36013G18KT 15SM SCT014 BKN078 OVC120 08/06 A2999 RMK SC4AC2AC2 SLP160

CYYZ;2009-10-22 22:00;CYYZ 222200Z 34016G21KT 15SM BKN016 OVC130 07/05 A3001 RMK SC6AC2 SLP165

CYYZ;2009-10-22 23:00;CYYZ 222300Z 34012G18KT 15SM BKN014 06/04 A3004 RMK SC7 SLP178

CYYZ;2009-10-23 00:00;CYYZ 230000Z 36013KT 15SM OVC015 06/04 A3008 RMK SC8 SLP191

CYYZ;2009-10-23 01:00;CYYZ 230100Z 01017KT 15SM OVC016 06/03 A3013 RMK SC8 SLP206

CYYZ;2009-10-23 02:00;CYYZ 230200Z 05015KT 15SM OVC020 06/02 A3014 RMK SC8 SLP209

CYYZ;2009-10-23 03:00;CYYZ 230300Z 05012G17KT 15SM BKN022 05/01 A3014 RMK SC7 SLP211

CYYZ;2009-10-23 04:00;CYYZ 230400Z 04010KT 15SM BKN022 05/01 A3016 RMK SC7 SLP216

CYYZ;2009-10-23 05:00;CYYZ 230500Z 06008KT 15SM BKN020 04/M00 A3017 RMK SC7 SLP219

CYYZ;2009-10-23 06:00;CYYZ 230600Z 06008KT 15SM OVC019 04/00 A3016 RMK SC8 SLP217

CYYZ;2009-10-23 07:00;CYYZ 230700Z 06010KT 15SM OVC017 04/M00 A3016 RMK SC8 SLP217

CYYZ;2009-10-23 08:00;CYYZ 230800Z 08009KT 15SM OVC016 03/M00 A3014 RMK SC8 SLP212

CYYZ;2009-10-23 09:00;CYYZ 230900Z 07008KT 15SM OVC015 03/00 A3013 RMK SC8 SLP209

CYYZ;2009-10-23 09:42;CYYZ 230942Z 07006KT 12SM -SHRA OVC014 03/ RMK SC8

CYYZ;2009-10-23 10:00;CYYZ 231000Z 08007KT 12SM -SHRA OVC015 03/02 A3014 RMK SC8 SLP212

CYYZ;2009-10-23 11:00;CYYZ 231100Z 10007KT 10SM -RA FEW010 OVC015 04/03 A3014 RMK SC2SC6 SLP213

CYYZ;2009-10-23 11:16;CYYZ 231116Z 09012G18KT 8SM -RA OVC013 04/ RMK SC8

CYYZ;2009-10-23 12:00;CYYZ 231200Z 10012G18KT 8SM -RA OVC012 04/02 A3013 RMK SC8 BR SLP207

CYYZ;2009-10-23 13:00;CYYZ 231300Z 10013G18KT 5SM -RA BR OVC012 04/03 A3012 RMK SC8 SLP204

CYYZ;2009-10-23 13:31;CYYZ 231331Z 09014G20KT 10SM -RA FEW008 OVC012 04/ RMK SC2SC6

CYYZ;2009-10-23 14:00;CYYZ 231400Z 08016G27KT 12SM -RA FEW008 OVC012 04/03 A3005 RMK SC1SC7 PCPN VRY LGT PRESFR SLP182

CYYZ;2009-10-23 15:00;CYYZ 231500Z 10020G26KT 10SM -RA FEW007 OVC011 05/03 A3006 RMK SF2SC6 SLP186

CYYZ;2009-10-23 16:00;CYYZ 231600Z 09014G19KT 12SM -RA SCT007 OVC011 05/04 A3003 RMK SF3SC5 SLP176

CYYZ;2009-10-23 16:14;CYYZ 231614Z 09013G21KT 12SM -RA BKN007 OVC011 05/ RMK SF6SC2

CYYZ;2009-10-23 16:50;CYYZ 231650Z 09016G24KT 15SM BKN007 OVC012 06/ RMK SC6SC2

CYYZ;2009-10-23 17:00;CYYZ 231700Z 08023G30KT 15SM BKN007 OVC012 06/05 A2997 RMK SC6SC2 PRESFR SLP154

CYYZ;2009-10-23 17:08;CYYZ 231708Z 09017G29KT 12SM -RA BKN007 OVC011 06/ RMK SF6SC2

CYYZ;2009-10-23 17:37;CYYZ 231737Z 11012G19KT 12SM -RA SCT007 OVC011 06/ RMK SF3SC5

CYYZ;2009-10-23 18:00;CYYZ 231800Z 10019KT 9SM -RA FEW007 OVC011 06/05 A2995 RMK SF2SC6 SLP149

CYYZ;2009-10-23 18:45;CYYZ 231845Z 09022G30KT 8SM -RA BKN007 OVC012 06/ RMK SF6SC2

CYYZ;2009-10-23 19:00;CYYZ 231900Z 09018G25KT 8SM -RA BKN006 OVC010 06/06 A2987 RMK SF7SC1 PRESFR SLP121

CYYZ;2009-10-23 20:00;CYYZ 232000Z 09025G31KT 12SM -RA OVC007 07/06 A2982 RMK SF8 SLP105

CYYZ;2009-10-23 21:00;CYYZ 232100Z 09020G28KT 8SM -RA OVC006 07/06 A2979 RMK SF8 SLP093

CYYZ;2009-10-23 22:00;CYYZ 232200Z 10018G27KT 8SM -RA OVC005 07/06 A2975 RMK SF8 SLP081

CYYZ;2009-10-23 23:00;CYYZ 232300Z 09018G27KT 3SM RA BKN005 OVC010 07/07 A2972 RERA RMK SF6SF2 SLP070

CYYZ;2009-10-24 00:00;CYYZ 240000Z 10018G26KT 3SM -RA OVC005 08/08 A2967 RERA RMK SF8 SLP053

CYYZ;2009-10-24 01:00;CYYZ 240100Z 10017G25KT 5SM -RA OVC005 08/08 A2964 RMK SF8 SLP043

CYYZ;2009-10-24 01:20;CYYZ 240120Z 09015KT 5SM -RA OVC004 08/ RMK SF8

CYYZ;2009-10-24 01:47;CYYZ 240147Z 10014KT 4SM -RA OVC003 09/ RMK SF8

CYYZ;2009-10-24 02:00;CYYZ 240200Z 11008KT 5SM -RA OVC003 09/09 A2963 RMK SF8 SLP038

CYYZ;2009-10-24 03:00;CYYZ 240300Z 10011KT 5SM -RA OVC002 09/09 A2959 RMK SF8 SLP026

CYYZ;2009-10-24 03:34;CYYZ 240334Z 10009KT 3SM BR OVC002 09/ RMK ST8

CYYZ;2009-10-24 04:00;CYYZ 240400Z 11007KT 2SM -RA BR OVC002 10/10 A2955 RMK SF8 SLP013

CYYZ;2009-10-24 04:07;CYYZ 240407Z 11009KT 2SM -RA BR OVC001 10/ RMK SF8

CYYZ;2009-10-24 04:26;CYYZ 240426Z 12005KT 2SM -DZ BR OVC002 10/ RMK ST8

CYYZ;2009-10-24 05:00;CYYZ 240500Z 11002KT 2SM BR OVC001 10/10 A2954 RMK ST8 SLP007

CYYZ;2009-10-24 05:34;CYYZ 240534Z 11006KT 1SM R15L/P6000FT/N R15R/P6000FT/D BR OVC002 11/ RMK ST8 RVR R05/P6000FT/D R06L/P6000FT/D

CYYZ;2009-10-24 05:53;CYYZ 240553Z 11006KT 5/8SM R15L/3500V5500FT/D R15R/4000V5500FT/D BR OVC002 11/ RMK ST8 RVR R05/3500FT/D R06L/5500/D

CYYZ;2009-10-24 06:00;CYYZ 240600Z 10006KT 5/8SM R15L/3000V4500FT/D R15R/3000V4500FT/D BR OVC002 11/11 A2953 RMK FG1ST7 RVR R05/3500FT/D R06L/5000/D SLP004

CYYZ;2009-10-24 06:35;CYYZ 240635Z 15006KT 1 1/2SM R15L/3500FT/U R15R/3000FT/U BR SCT001 OVC007 12/ RMK SF3SF5 RVR R05/3000V4500FT/U R06L/P6000FT/U

CYYZ;2009-10-24 07:00;CYYZ 240700Z 16004KT 1 1/2SM BR SCT002 OVC006 11/11 A2953 RMK SF4SF4 SLP002

CYYZ;2009-10-24 07:42;CYYZ 240742Z 17008KT 2 1/4SM BR OVC003 12/ RMK SF8

CYYZ;2009-10-24 08:00;CYYZ 240800Z 17008KT 2 1/2SM BR BKN003 OVC010 12/12 A2954 RMK SF7SF1 SLP005

CYYZ;2009-10-24 08:17;CYYZ 240817Z 20006KT 5SM BR FEW005 BKN048 12/ RMK SF1SC5 VIS 10 E

CYYZ;2009-10-24 09:00;CYYZ 240900Z 18007KT 9SM SCT055 BKN280 12/12 A2953 RMK SC3CI1 SLP003

CYYZ;2009-10-24 10:00;CYYZ 241000Z 16006KT 8SM OVC060 11/11 A2952 RMK SC7 SLP001

CYYZ;2009-10-24 11:00;CYYZ 241100Z 18009KT 8SM BKN059 11/11 A2953 RMK SC7 SLP003

CYYZ;2009-10-24 12:00;CYYZ 241200Z 20007KT 12SM SCT042 OVC058 12/11 A2954 RMK SC3SC5 SLP005

CYYZ;2009-10-24 13:00;CYYZ 241300Z 20006KT 12SM SCT041 OVC056 12/10 A2954 RMK SC3SC5 SLP007

CYYZ;2009-10-24 14:00;CYYZ 241400Z 22009KT 12SM FEW025 OVC058 12/10 A2954 RMK CF1SC7 SLP006

CYYZ;2009-10-24 15:00;CYYZ 241500Z 24013G18KT 12SM FEW025 OVC061 12/08 A2955 RMK CF1SC7 SLP009

CYYZ;2009-10-24 16:00;CYYZ 241600Z 23015G22KT 15SM OVC032 12/08 A2955 RMK SC8 SLP008

CYYZ;2009-10-24 17:00;CYYZ 241700Z 22017KT 15SM FEW025 OVC054 13/08 A2954 RMK CF2SC6 SLP005

CYYZ;2009-10-24 18:00;CYYZ 241800Z 22018KT 15SM FEW035 BKN054 13/07 A2952 RMK CU2SC5 SLP997

CYYZ;2009-10-24 19:00;CYYZ 241900Z 25014G24KT 15SM FEW035 BKN047 13/06 A2952 RMK CU1SC6 SLP000

CYYZ;2009-10-24 19:15;CYYZ 241915Z 26019KT 15SM -SHRA SCT036 BKN048 12/ RMK SC3SC4 CU EMBD

CYYZ;2009-10-24 20:00;CYYZ 242000Z 24016G21KT 15SM FEW035 BKN047 11/07 A2955 RMK CU2SC5 SLP010

CYYZ;2009-10-24 20:25;CYYZ 242025Z 25018KT 15SM -SHRA FEW035 BKN045 11/ RMK CU2SC5 PCPN VRY LGT

CYYZ;2009-10-24 20:48;CYYZ 242048Z 23017G27KT 15SM FEW035 BKN058 11/ RMK CU2SC6

CYYZ;2009-10-24 21:00;CYYZ 242100Z 26016G21KT 15SM FEW035 OVC061 11/06 A2957 RMK CU2SC6 SLP016

CYYZ;2009-10-24 21:29;CYYZ 242129Z 26010G19KT 15SM -SHRA FEW035 OVC061 11/ RMK CU2SC6 PCPN VRY LGT

CYYZ;2009-10-24 21:52;CYYZ 242152Z 26015G30KT 15SM FEW024 BKN032 BKN055 10/ RMK CU2SC3SC2

CYYZ;2009-10-24 22:00;CYYZ 242200Z 25013G20KT 15SM FEW024 SCT034 BKN052 10/05 A2960 RMK CU2SC2SC3 SLP026

CYYZ;2009-10-24 23:00;CYYZ 242300Z 24014G20KT 15SM FEW040 BKN068 OVC090 09/05 A2963 RMK SC1AC6AC1 SLP037

CYYZ;2009-10-25 00:00;CYYZ 250000Z 24015G21KT 15SM BKN030 OVC040 09/04 A2966 RMK SC6SC2 SLP048

CYYZ;2009-10-25 01:00;CYYZ 250100Z 26018G26KT 15SM FEW020 OVC033 09/04 A2970 RMK SF1SC8 SLP059

CYYZ;2009-10-25 02:00;CYYZ 250200Z 26019G26KT 15SM FEW020 BKN060 OVC080 08/04 A2973 RMK SC1SC6AC1 SLP071

CYYZ;2009-10-25 03:00;CYYZ 250300Z 26015G22KT 15SM FEW025 BKN090 07/04 A2977 RMK SF2AC1 SLP085

CYYZ;2009-10-25 04:00;CYYZ 250400Z 25014KT 15SM SCT025 SCT050 06/04 A2979 RMK SF4SC1 SLP092

CYYZ;2009-10-25 05:00;CYYZ 250500Z 25013KT 15SM BKN025 BKN038 07/04 A2983 RMK SF6SF1 SLP104

CYYZ;2009-10-25 06:00;CYYZ 250600Z 27012KT 15SM BKN025 OVC035 07/03 A2985 RMK SC7SC1 SLP112

CYYZ;2009-10-25 07:00;CYYZ 250700Z 25008KT 15SM BKN035 06/03 A2989 RMK SC7 SLP123

CYYZ;2009-10-25 08:00;CYYZ 250800Z 27009G15KT 15SM BKN037 07/01 A2990 RMK SC7 SLP127

CYYZ;2009-10-25 09:00;CYYZ 250900Z 25008KT 15SM BKN035 06/01 A2993 RMK SC5 SLP138

CYYZ;2009-10-25 10:00;CYYZ 251000Z 23006KT 15SM SCT240 05/01 A2996 RMK CI2 SLP148

CYYZ;2009-10-25 11:00;CYYZ 251100Z 22004KT 15SM FEW070 BKN240 05/01 A2998 RMK AC1CI2 SLP155

CYYZ;2009-10-25 12:00;CYYZ 251200Z 23005KT 15SM FEW030 FEW100 BKN250 04/02 A3000 RMK SC1AC1CI2 SLP165

CYYZ;2009-10-25 13:00;CYYZ 251300Z 24009KT 15SM FEW035 SCT110 BKN170 BKN250 06/04 A3004 RMK SC1AC2AC1CI0 SLP178

CYYZ;2009-10-25 14:00;CYYZ 251400Z 25012KT 15SM FEW018 BKN130 BKN250 08/04 A3007 RMK SC2AC2CI0 SLP186

CYYZ;2009-10-25 15:00;CYYZ 251500Z 26011G16KT 15SM SCT020 BKN100 09/04 A3009 RMK SC3AC3 SLP194

CYYZ;2009-10-25 16:00;CYYZ 251600Z 27012G17KT 15SM FEW023 BKN110 10/05 A3010 RMK SC1AC2 SLP199

CYYZ;2009-10-25 17:00;CYYZ 251700Z 27009G15KT 15SM FEW026 SCT097 BKN250 11/05 A3010 RMK SC2AC1CI0 SLP199

CYYZ;2009-10-25 18:00;CYYZ 251800Z 28009KT 15SM FEW024 SCT031 SCT120 BKN250 12/05 A3012 RMK CU1SC2AC1CI0 AC TR SLP202

CYYZ;2009-10-25 19:00;CYYZ 251900Z 27011G19KT 15SM FEW032 FEW120 BKN240 12/05 A3012 RMK CU1AC1CI0 SLP203

CYYZ;2009-10-25 20:00;CYYZ 252000Z 28006KT 15SM FEW038 SCT069 BKN240 13/05 A3013 RMK SC2AC1CI0 CU ASOCTD SLP208

CYYZ;2009-10-25 21:00;CYYZ 252100Z 27007KT 15SM FEW043 BKN250 13/05 A3014 RMK SC2CI0 CU ASOCTD SLP210

CYYZ;2009-10-25 22:00;CYYZ 252200Z 28005KT 15SM FEW046 FEW110 SCT250 12/04 A3015 RMK SC2AC1CI0 SLP213

CYYZ;2009-10-25 23:00;CYYZ 252300Z 00000KT 15SM FEW046 FEW110 SCT250 10/04 A3016 RMK SC1AC1CI1 SLP219

CYYZ;2009-10-26 00:00;CYYZ 260000Z 16006KT 15SM FEW250 09/05 A3018 RMK CI1 SLP225

CYYZ;2009-10-26 01:00;CYYZ 260100Z 15002KT 15SM FEW250 09/06 A3019 RMK CI1 CI TR SLP230

CYYZ;2009-10-26 02:00;CYYZ 260200Z 04004KT 15SM FEW110 FEW250 06/05 A3021 RMK AC2CI1 CI TR SLP235

CYYZ;2009-10-26 03:00;CYYZ 260300Z 03002KT 15SM FEW110 FEW250 07/05 A3022 RMK AC1CI0 SLP238

CYYZ;2009-10-26 04:00;CYYZ 260400Z 02006KT 15SM FEW090 FEW250 06/05 A3022 RMK AC2CI1 SLP237

CYYZ;2009-10-26 05:00;CYYZ 260500Z 02002KT 15SM FEW080 SCT110 06/05 A3023 RMK AC1AC3 SLP243

CYYZ;2009-10-26 06:00;CYYZ 260600Z 02003KT 15SM BKN080 BKN110 06/05 A3024 RMK AC5AC2 SLP245

CYYZ;2009-10-26 07:00;CYYZ 260700Z 07003KT 15SM SCT085 BKN110 07/05 A3026 RMK AC3AC4 SLP251

CYYZ;2009-10-26 08:00;CYYZ 260800Z 09002KT 15SM SCT070 BKN090 07/05 A3025 RMK AC3AC4 SLP248

CYYZ;2009-10-26 09:00;CYYZ 260900Z 04003KT 15SM BKN070 BKN090 07/06 A3027 RMK AC5AC2 SLP255

CYYZ;2009-10-26 10:00;CYYZ 261000Z 12008KT 15SM SCT080 BKN110 08/06 A3026 RMK AC3AC4 SLP250

CYYZ;2009-10-26 11:00;CYYZ 261100Z 10009KT 15SM FEW025 SCT064 BKN110 08/05 A3028 RMK CF1SC3AC4 CF TR SLP256

CYYZ;2009-10-26 12:00;CYYZ 261200Z 10012KT 15SM FEW018 FEW070 BKN100 08/05 A3028 RMK CF1AC2AC3 CF TR SLP260

CYYZ;2009-10-26 13:00;CYYZ 261300Z 11009G15KT 15SM FEW019 FEW110 BKN130 08/06 A3029 RMK CF1AC2AC2 SLP263

CYYZ;2009-10-26 14:00;CYYZ 261400Z 10009KT 15SM FEW025 BKN082 BKN110 09/06 A3031 RMK CF1AC4AC2 SLP268

CYYZ;2009-10-26 15:00;CYYZ 261500Z 09010G17KT 15SM FEW025 SCT110 BKN160 09/06 A3029 RMK CF1AC3AC2 SLP262

CYYZ;2009-10-26 16:00;CYYZ 261600Z 09010KT 15SM FEW020 BKN160 10/06 A3029 RMK CU2AC4 SLP261

CYYZ;2009-10-26 17:00;CYYZ 261700Z 12011G16KT 15SM FEW020 BKN150 11/06 A3025 RMK CF1AC6 SLP249

CYYZ;2009-10-26 18:00;CYYZ 261800Z 11012KT 15SM FEW022 BKN130 11/06 A3023 RMK CF1AC5 SLP241

CYYZ;2009-10-26 19:00;CYYZ 261900Z 09009G15KT 15SM FEW022 SCT140 BKN260 12/06 A3019 RMK CF1AC2CI2 SLP229

CYYZ;2009-10-26 20:00;CYYZ 262000Z 10013KT 15SM FEW022 BKN130 BKN250 11/06 A3018 RMK CF1AC5CI1 CF TR SLP225

CYYZ;2009-10-26 21:00;CYYZ 262100Z 08009KT 15SM FEW025 BKN150 10/06 A3018 RMK CF1AC6 SLP223

CYYZ;2009-10-26 22:00;CYYZ 262200Z 10011KT 15SM BKN130 BKN250 10/06 A3015 RMK AC5CI1 SLP214

CYYZ;2009-10-26 23:00;CYYZ 262300Z 09016G21KT 15SM BKN130 BKN250 10/05 A3013 RMK AC6CI1 SLP208

CYYZ;2009-10-27 00:00;CYYZ 270000Z 10016KT 15SM SCT130 BKN150 10/05 A3013 RMK AC3AC4 SLP206

CYYZ;2009-10-27 01:00;CYYZ 270100Z 10012G17KT 15SM FEW110 BKN150 10/05 A3011 RMK AC2AC5 SLP200

CYYZ;2009-10-27 02:00;CYYZ 270200Z 09008KT 15SM FEW110 SCT150 10/06 A3009 RMK AC2AC2 SLP195

CYYZ;2009-10-27 03:00;CYYZ 270300Z 10006KT 15SM BKN170 BKN230 09/07 A3007 RMK AC6CI2 SLP188

CYYZ;2009-10-27 04:00;CYYZ 270400Z 00000KT 15SM FEW170 BKN190 BKN230 09/07 A3007 RMK AC2AC4CI1 SLP186

CYYZ;2009-10-27 05:00;CYYZ 270500Z 10004KT 15SM SCT190 BKN230 09/07 A3003 RMK AC4CI1 SLP174

CYYZ;2009-10-27 06:00;CYYZ 270600Z 12006KT 15SM SCT150 BKN240 08/07 A3002 RMK AC3CI2 SLP170

CYYZ;2009-10-27 07:00;CYYZ 270700Z 10003KT 15SM SCT140 BKN240 09/07 A3001 RMK AC3CI2 SLP167

CYYZ;2009-10-27 08:00;CYYZ 270800Z 11003KT 15SM FEW130 BKN220 09/07 A3000 RMK AC2CI2 SLP161

CYYZ;2009-10-27 09:00;CYYZ 270900Z 13004KT 15SM FEW080 BKN200 09/07 A2998 RMK AC2CI2 SLP156

CYYZ;2009-10-27 10:00;CYYZ 271000Z 15003KT 15SM FEW080 BKN220 09/07 A2999 RMK AC2CI2 SLP158

CYYZ;2009-10-27 11:00;CYYZ 271100Z 13003KT 15SM BKN086 BKN170 09/08 A2998 RMK AC5AC2 SLP157

CYYZ;2009-10-27 12:00;CYYZ 271200Z 20002KT 15SM BKN081 OVC170 10/08 A2998 RMK AC7AC1 SLP155

CYYZ;2009-10-27 13:00;CYYZ 271300Z 23003KT 15SM BKN082 BKN170 OVC220 10/08 A2999 RMK AC6AC2CI0 SLP159

CYYZ;2009-10-27 14:00;CYYZ 271400Z 25004KT 15SM BKN079 OVC170 11/07 A2998 RMK AC7AC1 SLP157

CYYZ;2009-10-27 15:00;CYYZ 271500Z 20003KT 15SM BKN048 BKN082 OVC220 11/07 A2997 RMK SC5AC2CI1 SLP153

CYYZ;2009-10-27 16:00;CYYZ 271600Z 25004KT 15SM FEW043 BKN061 OVC110 12/08 A2998 RMK SC2SC4AC2 SLP154

CYYZ;2009-10-27 17:00;CYYZ 271700Z 24006KT 15SM BKN100 BKN250 13/09 A2997 RMK AC5CI0 SLP153

CYYZ;2009-10-27 18:00;CYYZ 271800Z 26006KT 15SM FEW042 BKN097 BKN250 15/09 A2997 RMK SC1AC3CI0 SLP151

CYYZ;2009-10-27 19:00;CYYZ 271900Z 28004KT 15SM FEW040 FEW120 BKN170 BKN220 16/09 A2996 RMK SC1AC2AC1CI1 SLP149

CYYZ;2009-10-27 20:00;CYYZ 272000Z 27003KT 15SM SCT038 BKN180 BKN220 16/10 A2996 RMK SC3AC2CI1 SLP147

CYYZ;2009-10-27 21:00;CYYZ 272100Z 16005KT 15SM BKN038 OVC100 14/09 A2995 RMK SC6AS2 SLP144

CYYZ;2009-10-27 22:00;CYYZ 272200Z 16006KT 15SM BKN029 BKN120 OVC240 14/09 A2997 RMK SC5AC2CS1 SLP150

CYYZ;2009-10-27 23:00;CYYZ 272300Z 00000KT 10SM OVC240 13/09 A3000 RMK CS5 SLP160

CYYZ;2009-10-28 00:00;CYYZ 280000Z 06004KT 10SM OVC240 11/09 A2998 RMK CS6 SLP154

CYYZ;2009-10-28 01:00;CYYZ 280100Z 07003KT 12SM FEW130 OVC240 12/09 A2997 RMK AC2CS5 SLP151

CYYZ;2009-10-28 02:00;CYYZ 280200Z 06003KT 12SM FEW043 BKN050 BKN220 12/09 A2996 RMK SC2SC4CS2 SLP148

CYYZ;2009-10-28 03:00;CYYZ 280300Z 16005KT 15SM BKN050 BKN190 11/09 A2995 RMK SC6AS2 SLP143

CYYZ;2009-10-28 04:00;CYYZ 280400Z 09003KT 15SM FEW040 BKN100 OVC120 11/09 A2994 RMK SC2AC3AS2 SLP141

CYYZ;2009-10-28 04:35;CYYZ 280435Z 08003KT 15SM -SHRA FEW035 BKN090 OVC100 11/ RMK SC2AC4AS2 PCPN VRY LGT

CYYZ;2009-10-28 05:00;CYYZ 280500Z 08003KT 12SM -SHRA FEW035 SCT070 OVC090 10/08 A2995 RMK SC1AC3AS4 PCPN VRY LGT SLP143

CYYZ;2009-10-28 06:00;CYYZ 280600Z 04005KT 12SM -SHRA SCT070 OVC080 10/09 A2993 RMK AC3AS5 SLP138

CYYZ;2009-10-28 07:00;CYYZ 280700Z 03006KT 12SM -SHRA FEW070 OVC083 10/09 A2992 RMK AC2AS6 SLP134

CYYZ;2009-10-28 08:00;CYYZ 280800Z 05008KT 12SM -SHRA OVC100 10/09 A2988 RMK AC8 PCPN VRY LGT SLP120

CYYZ;2009-10-28 09:00;CYYZ 280900Z 06008G15KT 15SM OVC092 10/09 A2985 RMK AC8 SLP110

CYYZ;2009-10-28 10:00;CYYZ 281000Z 07004KT 15SM BKN090 10/09 A2985 RMK AC6 SLP109

CYYZ;2009-10-28 11:00;CYYZ 281100Z 08007KT 15SM FEW009 BKN083 OVC100 11/09 A2985 RMK SC2AC4AC2 SLP110

CYYZ;2009-10-28 12:00;CYYZ 281200Z 09008KT 12SM FEW012 BKN079 OVC100 11/09 A2986 RMK SF2AC4AC2 SLP114

CYYZ;2009-10-28 12:09;CYYZ 281209Z 08007KT 10SM -SHRA BKN010 OVC076 11/ RMK SF6AC2

CYYZ;2009-10-28 12:19;CYYZ 281219Z 08008KT 9SM -SHRA OVC009 11/ RMK SC8

CYYZ;2009-10-28 13:00;CYYZ 281300Z 09008KT 6SM -RA BR OVC009 11/10 A2988 RMK SC8 SLP122

CYYZ;2009-10-28 14:00;CYYZ 281400Z 04007KT 6SM -RA BR SCT009 BKN012 OVC062 11/10 A2987 RMK SC3SC3SC2 SLP119

CYYZ;2009-10-28 14:39;CYYZ 281439Z 04009KT 6SM -RA BR BKN007 OVC011 11/ RMK SF6SC2

CYYZ;2009-10-28 15:00;CYYZ 281500Z 04008KT 5SM -RA BR BKN007 OVC013 11/10 A2989 RMK SF6SC2 SLP124

CYYZ;2009-10-28 15:19;CYYZ 281519Z 03008KT 2SM -RA BR BKN007 OVC013 11/ RMK FG1SF4SC3

CYYZ;2009-10-28 16:00;CYYZ 281600Z 02008KT 2 1/2SM -RA BR BKN006 OVC014 11/10 A2990 RMK FG2SF4SC2 SLP129

CYYZ;2009-10-28 16:13;CYYZ 281613Z 02008KT 6SM -RA BR BKN007 OVC015 11/ RMK SF6SC2

CYYZ;2009-10-28 16:32;CYYZ 281632Z 04010G15KT 10SM -RA FEW007 OVC012 11/ RMK SF2SC6 PCPN VRY LGT

CYYZ;2009-10-28 16:53;CYYZ 281653Z 03008KT 12SM BKN011 OVC017 11/ RMK SC5SC3

CYYZ;2009-10-28 17:00;CYYZ 281700Z 03007KT 12SM BKN012 OVC018 11/10 A2990 RMK SC6SC2 SLP128

CYYZ;2009-10-28 18:00;CYYZ 281800Z 04008KT 15SM BKN012 OVC018 11/10 A2991 RMK SC6SC2 SLP132

CYYZ;2009-10-28 18:26;CYYZ 281826Z 04011KT 8SM -DZ SCT014 OVC019 11/ RMK ST3SC5

CYYZ;2009-10-28 18:53;CYYZ 281853Z 02012KT 12SM SCT012 OVC018 11/ RMK SC3SC5

CYYZ;2009-10-28 19:00;CYYZ 281900Z 02011KT 15SM SCT012 OVC018 12/10 A2992 RMK SC3SC5 SLP135

CYYZ;2009-10-28 20:00;CYYZ 282000Z 35010G15KT 15SM OVC014 11/10 A2996 RMK SC8 SLP147

CYYZ;2009-10-28 21:00;CYYZ 282100Z 36013KT 15SM OVC013 11/09 A2999 RMK SC8 SLP159

CYYZ;2009-10-28 22:00;CYYZ 282200Z 03009KT 15SM BKN013 OVC021 11/09 A3002 RMK SC6SC2 SLP169

CYYZ;2009-10-28 23:00;CYYZ 282300Z 03007KT 12SM BKN014 OVC018 11/09 A3007 RMK SC5SC3 SLP185

CYYZ;2009-10-28 23:17;CYYZ 282317Z 05007KT 15SM OVC017 11/ RMK SC8

CYYZ;2009-10-29 00:00;CYYZ 290000Z 05006KT 12SM OVC017 11/09 A3008 RMK SC8 SLP189

CYYZ;2009-10-29 01:00;CYYZ 290100Z 01003KT 12SM OVC016 10/09 A3012 RMK SC8 VIS 6 W SLP201

CYYZ;2009-10-29 01:13;CYYZ 290113Z 36006KT 7SM -DZ OVC014 11/ RMK ST8

CYYZ;2009-10-29 01:26;CYYZ 290126Z 36006KT 4SM -DZ BR SCT008 OVC014 10/ RMK ST3ST5

CYYZ;2009-10-29 02:00;CYYZ 290200Z 01005KT 4SM -DZ BR BKN007 OVC010 10/10 A3014 RMK ST6ST2 SLP209

CYYZ;2009-10-29 02:45;CYYZ 290245Z 03002KT 12SM FEW005 OVC020 10/ RMK ST1SC7

CYYZ;2009-10-29 03:00;CYYZ 290300Z 00000KT 15SM OVC022 10/10 A3015 RMK SC8 SLP214

CYYZ;2009-10-29 04:00;CYYZ 290400Z 00000KT 12SM BKN020 OVC038 10/10 A3015 RMK SC6SC2 SLP214

CYYZ;2009-10-29 05:00;CYYZ 290500Z 00000KT 12SM OVC020 10/10 A3016 RMK SC8 SLP217

CYYZ;2009-10-29 06:00;CYYZ 290600Z 00000KT 12SM SCT010 OVC018 10/10 A3017 RMK SF4SC4 SLP221

CYYZ;2009-10-29 07:00;CYYZ 290700Z 11002KT 12SM SCT011 OVC018 10/09 A3020 RMK SC3SC5 SLP229

CYYZ;2009-10-29 07:30;CYYZ 290730Z 14003KT 12SM OVC012 10/ RMK SC8

CYYZ;2009-10-29 08:00;CYYZ 290800Z 17004KT 9SM FEW004 OVC008 10/10 A3021 RMK SF2SF6 SLP233

CYYZ;2009-10-29 08:40;CYYZ 290840Z 15004KT 10SM FEW007 OVC012 10/ RMK SF2ST6

CYYZ;2009-10-29 09:00;CYYZ 290900Z 18002KT 10SM SCT006 OVC010 10/09 A3022 RMK ST4ST4 SLP238

CYYZ;2009-10-29 09:33;CYYZ 290933Z 05002KT 10SM OVC007 10/ RMK SF8

CYYZ;2009-10-29 10:00;CYYZ 291000Z 09004KT 10SM OVC008 10/08 A3023 RMK SC8 SLP241

CYYZ;2009-10-29 10:32;CYYZ 291032Z 11002KT 10SM OVC011 09/ RMK SC8

CYYZ;2009-10-29 11:00;CYYZ 291100Z 09002KT 10SM SCT009 OVC012 10/08 A3025 RMK SC3SC5 SLP249

CYYZ;2009-10-29 12:00;CYYZ 291200Z 00000KT 10SM SCT009 OVC012 10/08 A3027 RMK SC3SC5 SLP255

CYYZ;2009-10-29 12:23;CYYZ 291223Z 18003KT 7SM SCT005 OVC009 10/ RMK SF3SC5

CYYZ;2009-10-29 13:00;CYYZ 291300Z 16003KT 7SM BKN009 OVC011 10/09 A3030 RMK SC5SC3 SLP264

CYYZ;2009-10-29 14:00;CYYZ 291400Z 36002KT 8SM BKN009 OVC012 10/09 A3031 RMK SC5SC3 SLP266

CYYZ;2009-10-29 15:00;CYYZ 291500Z 14003KT 8SM BKN009 OVC012 11/09 A3031 RMK SC5SC3 SLP267

CYYZ;2009-10-29 15:42;CYYZ 291542Z 16002KT 8SM OVC014 11/ RMK SC8

CYYZ;2009-10-29 16:00;CYYZ 291600Z 00000KT 8SM OVC012 11/09 A3030 RMK SC8 SLP264

CYYZ;2009-10-29 17:00;CYYZ 291700Z 13005KT 9SM OVC011 11/09 A3027 RMK SC8 SLP254

CYYZ;2009-10-29 18:00;CYYZ 291800Z 14006KT 9SM OVC013 11/09 A3025 RMK SC8 SLP247

CYYZ;2009-10-29 19:00;CYYZ 291900Z 14005KT 10SM FEW009 OVC014 11/09 A3025 RMK SC2SC6 SLP248

CYYZ;2009-10-29 20:00;CYYZ 292000Z 14007KT 10SM FEW009 OVC014 10/08 A3026 RMK SC2SC6 SLP250

CYYZ;2009-10-29 21:00;CYYZ 292100Z 11006KT 10SM OVC013 10/08 A3027 RMK SC8 SLP255

CYYZ;2009-10-29 22:00;CYYZ 292200Z 09007KT 10SM SCT009 OVC014 09/08 A3023 RMK SC3SC5 SLP241

CYYZ;2009-10-29 22:45;CYYZ 292245Z 09005KT 10SM OVC008 09/ RMK ST8

CYYZ;2009-10-29 23:00;CYYZ 292300Z 09005KT 10SM OVC009 09/08 A3024 RMK ST8 SLP243

CYYZ;2009-10-30 00:00;CYYZ 300000Z 11004KT 10SM BKN008 OVC019 10/09 A3025 RMK SF6SC2 SLP246

CYYZ;2009-10-30 00:19;CYYZ 300019Z 11004KT 10SM SCT008 OVC014 10/ RMK SF3SF5

CYYZ;2009-10-30 00:47;CYYZ 300047Z 06003KT 15SM FEW007 OVC017 10/ RMK SF1SC7

CYYZ;2009-10-30 01:00;CYYZ 300100Z 06005KT 15SM FEW007 OVC016 10/08 A3024 RMK SF1SC8 SLP245

CYYZ;2009-10-30 02:00;CYYZ 300200Z 10004KT 15SM BKN016 OVC022 10/08 A3022 RMK SC5SC3 SLP237

CYYZ;2009-10-30 02:44;CYYZ 300244Z 12005KT 15SM BKN012 OVC017 10/ RMK SF6SF2

CYYZ;2009-10-30 03:00;CYYZ 300300Z 13004KT 15SM OVC010 10/08 A3019 RMK ST8 SLP227

CYYZ;2009-10-30 03:11;CYYZ 300311Z 12008KT 15SM OVC007 10/ RMK ST8

CYYZ;2009-10-30 04:00;CYYZ 300400Z 10009KT 12SM OVC008 09/08 A3015 RMK SF8 SLP213

CYYZ;2009-10-30 04:23;CYYZ 300423Z 10010KT 12SM FEW008 FEW012 OVC022 10/ RMK SF1SF2SC6

CYYZ;2009-10-30 05:00;CYYZ 300500Z 11008KT 12SM FEW010 OVC024 10/08 A3013 RMK SF1SC7 SLP207

CYYZ;2009-10-30 05:19;CYYZ 300519Z 10010KT 12SM BKN008 OVC024 10/ RMK SF6SC2

CYYZ;2009-10-30 06:00;CYYZ 300600Z 09010G15KT 10SM OVC005 10/09 A3010 RMK SF8 SLP197

CYYZ;2009-10-30 07:00;CYYZ 300700Z 10007KT 9SM OVC005 10/09 A3010 RMK ST8 SLP195

CYYZ;2009-10-30 08:00;CYYZ 300800Z 10007KT 9SM OVC006 10/10 A3008 RMK ST8 SLP190

CYYZ;2009-10-30 09:00;CYYZ 300900Z 11005KT 9SM OVC006 10/10 A3005 RMK ST8 SLP181

CYYZ;2009-10-30 10:00;CYYZ 301000Z 13006KT 9SM OVC006 10/10 A3004 RMK SF7 SLP176

CYYZ;2009-10-30 10:12;CYYZ 301012Z 12007KT 9SM -SHRA OVC006 10/ RMK SF7

CYYZ;2009-10-30 11:00;CYYZ 301100Z 13004KT 6SM -SHRA BR OVC004 10/10 A3002 RMK SF7 PCPN VRY LGT SLP169

CYYZ;2009-10-30 11:25;CYYZ 301125Z 14005KT 6SM -SHRA BR SCT004 BKN110 10/ RMK SF3AC4 PCPN VRY LGT

CYYZ;2009-10-30 12:00;CYYZ 301200Z 12003KT 5SM -SHRA BR FEW012 SCT130 BKN140 10/10 A3000 RMK SF2AC2AC3 PCPN VRY LGT SLP162

CYYZ;2009-10-30 13:00;CYYZ 301300Z 13004KT 8SM -SHRA SCT110 OVC120 11/10 A3000 RMK AC3AC5 PCPN VRY LGT BR SLP162

CYYZ;2009-10-30 14:00;CYYZ 301400Z 12005KT 10SM -SHRA SCT061 BKN066 OVC120 11/10 A2998 RMK SC3AC3AC2 PCPN VRY LGT SLP155

CYYZ;2009-10-30 15:00;CYYZ 301500Z 13004KT 10SM -SHRA SCT050 BKN073 OVC085 11/10 A2996 RMK SC3AC3AC2 PCPN VRY LGT SLP150

CYYZ;2009-10-30 16:00;CYYZ 301600Z 13007KT 4SM -SHRA BR SCT037 BKN045 OVC070 11/11 A2994 RMK SC3SC3AC2 SLP142

CYYZ;2009-10-30 17:00;CYYZ 301700Z 12008KT 4SM -SHRA BR FEW030 BKN044 OVC070 11/11 A2989 RMK SC2SC4AC2 SLP126

CYYZ;2009-10-30 18:00;CYYZ 301800Z 12008KT 10SM -SHRA BKN035 OVC090 12/12 A2986 RMK SC6AC2 PCPN VRY LGT SLP114

CYYZ;2009-10-30 18:50;CYYZ 301850Z 13006KT 10SM BKN037 OVC100 13/ RMK SC6AC2

CYYZ;2009-10-30 19:00;CYYZ 301900Z 11008KT 8SM BKN037 OVC180 13/12 A2983 RMK SC5AC3 BR SLP103

CYYZ;2009-10-30 20:00;CYYZ 302000Z 11008KT 10SM BKN038 OVC180 13/12 A2980 RMK SC5AC3 SLP096

CYYZ;2009-10-30 21:00;CYYZ 302100Z 09007KT 12SM FEW040 BKN180 OVC200 14/12 A2977 RMK SC2AC3CI2 SLP082

CYYZ;2009-10-30 22:00;CYYZ 302200Z 11005KT 12SM FEW140 BKN190 BKN210 14/12 A2975 RMK AC2AC3CI2 SLP077

CYYZ;2009-10-30 23:00;CYYZ 302300Z 13004KT 12SM BKN044 BKN180 BKN240 14/12 A2974 RMK SC5AC2CI0 SLP075

CYYZ;2009-10-31 00:00;CYYZ 310000Z 13005KT 12SM BKN180 BKN240 14/11 A2972 RMK AC5CI1 SLP066

CYYZ;2009-10-31 02:00;CYYZ 310200Z 15006KT 15SM SCT180 BKN250 14/11 A2965 RMK AC2CI2 CC ASOCTD SLP044

CYYZ;2009-10-31 03:00;CYYZ 310300Z 15006KT 15SM FEW180 SCT250 14/11 A2963 RMK AC1CI1 SLP036

CYYZ;2009-10-31 04:00;CYYZ 310400Z 14007KT 15SM FEW170 SCT250 14/11 A2959 RMK AC2CI1 SLP023

CYYZ;2009-10-31 05:00;CYYZ 310500Z 16008KT 15SM BKN093 BKN220 14/11 A2957 RMK AC3CI1 SLP015

CYYZ;2009-10-31 06:00;CYYZ 310600Z 17011G16KT 15SM BKN096 BKN170 BKN250 15/12 A2953 RMK AC5AC2CI0 SLP002

CYYZ;2009-10-31 06:28;CYYZ 310628Z 18012KT 10SM -SHRA FEW042 BKN093 BKN120 15/ RMK SC2AC3AC2

CYYZ;2009-10-31 07:00;CYYZ 310700Z 18014KT 10SM -SHRA SCT056 BKN110 OVC140 16/13 A2951 RMK SC3AC3AC2 SLP994

CYYZ;2009-10-31 08:00;CYYZ 310800Z 20016G22KT 10SM -SHRA BKN036 OVC100 16/13 A2949 RMK SC5AC3 SLP989

CYYZ;2009-10-31 09:00;CYYZ 310900Z 19014G25KT 8SM -RA BKN022 BKN051 OVC100 16/14 A2946 RMK SC5SC2AC1 SLP977

CYYZ;2009-10-31 09:27;CYYZ 310927Z 21016G24KT 7SM -RA BKN012 OVC018 16/ RMK SC5SC3 BR

CYYZ;2009-10-31 10:00;CYYZ 311000Z 20018G25KT 9SM -RA BKN012 OVC019 16/15 A2946 RMK SC6SC2 BR SLP975

CYYZ;2009-10-31 11:00;CYYZ 311100Z 26027G33KT 9SM -RA FEW015 OVC025 12/11 A2951 RMK SF1SC7 SLP993

CYYZ;2009-10-31 12:00;CYYZ 311200Z 22008KT 15SM -RA BKN038 OVC110 12/09 A2949 RMK SC7AS1 SLP987

CYYZ;2009-10-31 13:00;CYYZ 311300Z 23017G24KT 15SM -RA FEW025 OVC070 11/09 A2953 RMK SF1AC7 PRESRR SLP000

CYYZ;2009-10-31 13:27;CYYZ 311327Z 23016G22KT 15SM FEW025 OVC078 11/ RMK SF1AC7

CYYZ;2009-10-31 14:00;CYYZ 311400Z 22015G20KT 15SM BKN022 BKN038 OVC095 12/09 A2954 RMK SF5SC2AC1 SLP003

CYYZ;2009-10-31 15:00;CYYZ 311500Z 23025G34KT 15SM FEW030 OVC040 12/08 A2954 RMK SF2SC6 SLP004

CYYZ;2009-10-31 16:00;CYYZ 311600Z 24022G35KT 15SM BKN038 OVC200 12/06 A2955 RMK SC6CC2 SLP010

CYYZ;2009-10-31 17:00;CYYZ 311700Z 24030G43KT 15SM FEW038 BKN210 12/04 A2958 RMK SC1CC6 SLP019

CYYZ;2009-10-31 18:00;CYYZ 311800Z 24019G36KT 15SM BKN045 BKN230 12/04 A2961 RMK SC6CI1 SLP028

CYYZ;2009-10-31 19:00;CYYZ 311900Z 25026G36KT 15SM BKN045 11/03 A2964 RMK SC7 CU ASOCTD SLP037

CYYZ;2009-10-31 20:00;CYYZ 312000Z 25024G35KT 15SM FEW053 BKN068 11/01 A2967 RMK SC2AC5 SLP050

CYYZ;2009-10-31 21:00;CYYZ 312100Z 26016G22KT 15SM FEW046 BKN066 10/03 A2971 RMK CF1AC4 SLP062

CYYZ;2009-10-31 22:00;CYYZ 312200Z 25021G26KT 15SM FEW043 BKN055 10/02 A2974 RMK CF2SC6 SLP073

CYYZ;2009-10-31 23:00;CYYZ 312300Z CCA 28018G27KT 15SM SCT041 BKN045 09/02 A2981 RMK SC3SC4 PRESRR SLP097

CYYZ;2009-11-01 01:00;CYYZ 010100Z 26022G27KT 15SM SCT041 BKN047 08/01 A2989 RMK SC3SC4 SLP124

CYYZ;2009-11-01 02:00;CYYZ 010200Z 27016KT 15SM SCT039 BKN044 08/02 A2993 RMK SC3SC4 SLP138

CYYZ;2009-11-01 03:00;CYYZ 010300Z 26012KT 15SM SCT032 OVC038 08/02 A2996 RMK SC3SC5 SLP148

CYYZ;2009-11-01 04:00;CYYZ 010400Z 27010KT 15SM OVC051 07/02 A2996 RMK SC8 SLP150

CYYZ;2009-11-01 05:00;CYYZ 010500Z 27010KT 15SM OVC048 07/01 A2998 RMK SC8 SLP156

CYYZ;2009-11-01 06:00;CYYZ 010600Z 27009KT 15SM OVC049 07/00 A3001 RMK SC8 SLP164

CYYZ;2009-11-01 07:00;CYYZ 010700Z 28011G17KT 15SM OVC045 07/M00 A3003 RMK SC8 SLP173

CYYZ;2009-11-01 08:00;CYYZ 010800Z 28012G17KT 15SM FEW035 BKN048 06/00 A3004 RMK SC2SC4 SLP177

CYYZ;2009-11-01 09:00;CYYZ 010900Z 27008KT 15SM BKN049 06/00 A3005 RMK SC6 SLP179

CYYZ;2009-11-01 10:00;CYYZ 011000Z 26009KT 15SM BKN049 06/01 A3008 RMK SC6 SLP191

CYYZ;2009-11-01 11:00;CYYZ 011100Z 26006KT 15SM BKN049 06/01 A3011 RMK SC6 SLP200

CYYZ;2009-11-01 12:00;CYYZ 011200Z 27004KT 15SM FEW040 BKN045 05/00 A3012 RMK SC2SC5 SLP204

CYYZ;2009-11-01 13:00;CYYZ 011300Z 26008KT 15SM BKN041 06/02 A3015 RMK SC7 SLP214

CYYZ;2009-11-01 14:00;CYYZ 011400Z 26007KT 15SM FEW030 BKN040 BKN270 08/03 A3018 RMK CF1SC6CI1 SLP224

CYYZ;2009-11-01 15:00;CYYZ 011500Z 27007KT 15SM FEW030 BKN038 08/02 A3020 RMK CU1SC6 SLP230

CYYZ;2009-11-01 16:00;CYYZ 011600Z 25003KT 15SM OVC035 08/01 A3022 RMK SC8 SLP237

CYYZ;2009-11-01 17:00;CYYZ 011700Z 22004KT 15SM OVC044 09/02 A3021 RMK SC8 SLP235

CYYZ;2009-11-01 18:00;CYYZ 011800Z 29006KT 15SM FEW035 BKN046 BKN100 09/02 A3020 RMK SC2SC5AC1 SLP232

CYYZ;2009-11-01 19:00;CYYZ 011900Z 28004KT 15SM BKN044 BKN100 09/02 A3021 RMK SC6AC1 SLP235

CYYZ;2009-11-01 20:00;CYYZ 012000Z 00000KT 15SM FEW040 SCT220 10/01 A3021 RMK CU1CC3 SLP233

CYYZ;2009-11-01 21:00;CYYZ 012100Z 00000KT 15SM FEW040 BKN220 10/01 A3020 RMK SC1CC6 SLP233

CYYZ;2009-11-01 22:00;CYYZ 012200Z 03002KT 15SM FEW040 BKN200 09/01 A3021 RMK SC2CC3 SLP236

CYYZ;2009-11-01 23:00;CYYZ 012300Z 17004KT 15SM BKN045 09/02 A3023 RMK SC7 SLP243

CYYZ;2009-11-02 00:00;CYYZ 020000Z 18004KT 15SM BKN046 08/02 A3025 RMK SC6 SLP247

CYYZ;2009-11-02 01:00;CYYZ 020100Z 00000KT 15SM BKN046 08/02 A3025 RMK SC6 SLP250

CYYZ;2009-11-02 02:00;CYYZ 020200Z 15002KT 15SM FEW036 BKN047 08/02 A3026 RMK SC2SC3 SLP253

CYYZ;2009-11-02 03:00;CYYZ 020300Z 18002KT 15SM FEW037 BKN048 08/02 A3026 RMK SC2SC5 SLP252

CYYZ;2009-11-02 04:00;CYYZ 020400Z 27002KT 15SM BKN048 07/03 A3025 RMK SC6 SLP248

CYYZ;2009-11-02 05:00;CYYZ 020500Z 00000KT 15SM FEW043 06/02 A3024 RMK SC2 SLP245

CYYZ;2009-11-02 06:00;CYYZ 020600Z 00000KT 15SM FEW045 05/02 A3023 RMK SC2 SLP242

CYYZ;2009-11-02 07:00;CYYZ 020700Z 09002KT 15SM FEW160 04/02 A3022 RMK AC1 SLP240

CYYZ;2009-11-02 08:00;CYYZ 020800Z 00000KT 15SM FEW040 FEW150 04/02 A3022 RMK SC1AC1 SLP239

CYYZ;2009-11-02 09:00;CYYZ 020900Z 03003KT 15SM FEW130 04/02 A3023 RMK AC1 SLP241

CYYZ;2009-11-02 10:00;CYYZ 021000Z 29002KT 15SM FEW130 02/01 A3023 RMK AC1 SLP242

CYYZ;2009-11-02 11:00;CYYZ 021100Z 00000KT 15SM FEW130 02/01 A3023 RMK AC1 SLP242

CYYZ;2009-11-02 12:00;CYYZ 021200Z 30002KT 15SM FEW030 FEW060 FEW270 02/01 A3023 RMK SC1SC1CI0 SLP243

CYYZ;2009-11-02 13:00;CYYZ 021300Z 00000KT 15SM FEW100 SCT270 04/02 A3024 RMK AC1CI2 SLP245

CYYZ;2009-11-02 14:00;CYYZ 021400Z 15004KT 15SM FEW030 FEW100 FEW270 08/05 A3022 RMK CU1AC1CI1 SLP239

CYYZ;2009-11-02 15:00;CYYZ 021500Z 12007KT 15SM FEW030 FEW080 BKN270 08/03 A3020 RMK CU1AC1CI6 SLP231

CYYZ;2009-11-02 16:00;CYYZ 021600Z 14009KT 15SM FEW040 FEW180 BKN270 09/03 A3018 RMK CU1AC1CI4 SLP225

CYYZ;2009-11-02 17:00;CYYZ 021700Z 17005KT 15SM FEW040 FEW070 BKN150 BKN270 09/04 A3016 RMK CU1AC1AC6CI1 SLP217

CYYZ;2009-11-02 18:00;CYYZ 021800Z 16011KT 15SM FEW030 BKN160 10/04 A3012 RMK CU1AC6 SLP205

CYYZ;2009-11-02 19:00;CYYZ 021900Z 19007KT 15SM FEW030 FEW080 SCT150 BKN280 10/05 A3010 RMK CU1AC1AC2CI2 SLP199

CYYZ;2009-11-02 20:00;CYYZ 022000Z 16006KT 15SM SCT100 SCT150 OVC280 10/05 A3008 RMK AC3AC1CI3 SLP191

CYYZ;2009-11-02 21:00;CYYZ 022100Z 17006KT 15SM BKN070 OVC100 10/05 A3008 RMK AC7AC1 SLP191

CYYZ;2009-11-02 21:17;CYYZ 022117Z 16003KT 15SM -RA OVC075 09/ RMK AS8

CYYZ;2009-11-02 22:00;CYYZ 022200Z 19004KT 15SM -RA FEW035 OVC070 09/06 A3008 RMK SC2AS6 SLP192

CYYZ;2009-11-02 23:00;CYYZ 022300Z 22007KT 12SM -RA FEW030 OVC058 08/06 A3007 RMK SC1SC7 SLP188

CYYZ;2009-11-03 00:00;CYYZ 030000Z 18005KT 12SM -RA BKN040 OVC051 08/07 A3006 RMK SC6SC2 SLP184

CYYZ;2009-11-03 00:28;CYYZ 030028Z 21004KT 12SM OVC041 08/ RMK SC8

CYYZ;2009-11-03 01:00;CYYZ 030100Z 22004KT 12SM OVC042 08/06 A3004 RMK SC8 SLP180

CYYZ;2009-11-03 01:33;CYYZ 030133Z 21006KT 12SM -SHRA OVC042 08/ RMK SC8

CYYZ;2009-11-03 01:50;CYYZ 030150Z 20006KT 12SM OVC042 08/ RMK SC8

CYYZ;2009-11-03 02:00;CYYZ 030200Z 20006KT 12SM OVC041 08/06 A3003 RMK SC8 SLP176

CYYZ;2009-11-03 03:00;CYYZ 030300Z 20006KT 12SM OVC038 08/05 A3001 RMK SC8 SLP168

CYYZ;2009-11-03 04:00;CYYZ 030400Z 23007KT 12SM SCT029 OVC040 08/06 A3000 RMK SC3SC5 SLP164

CYYZ;2009-11-03 05:00;CYYZ 030500Z 24005KT 12SM BKN049 BKN070 08/06 A2999 RMK SC5AC2 SLP159

CYYZ;2009-11-03 06:00;CYYZ 030600Z 27006KT 15SM FEW045 BKN088 08/06 A2999 RMK SC2AC4 SLP159

CYYZ;2009-11-03 07:00;CYYZ 030700Z 27009KT 15SM FEW040 BKN087 07/06 A2998 RMK SC1AC4 SLP156

CYYZ;2009-11-03 08:00;CYYZ 030800Z 31017KT 15SM FEW028 BKN089 07/03 A2999 RMK SC2AC4 SLP159

CYYZ;2009-11-03 09:00;CYYZ 030900Z 32012G17KT 15SM SCT051 BKN089 06/02 A3001 RMK SC3AC2 SLP165

CYYZ;2009-11-03 10:00;CYYZ 031000Z 31014KT 15SM FEW053 05/01 A3002 RMK SC2 SLP171

CYYZ;2009-11-03 11:00;CYYZ 031100Z 31011KT 15SM FEW055 04/M01 A3004 RMK SC2 SLP176

CYYZ;2009-11-03 12:00;CYYZ 031200Z 29009KT 15SM FEW050 FEW080 04/M01 A3005 RMK SC1AC1 SLP182

CYYZ;2009-11-03 13:00;CYYZ 031300Z 30010KT 15SM FEW050 FEW080 05/01 A3008 RMK SC1AC1 SLP190

CYYZ;2009-11-03 14:00;CYYZ 031400Z 30012KT 15SM FEW050 SCT070 07/01 A3009 RMK SC2AC2 CU ASOCTD SLP193

CYYZ;2009-11-03 15:00;CYYZ 031500Z 29014KT 15SM FEW030 FEW035 BKN090 07/01 A3010 RMK CU2SC1AC4 SLP196

CYYZ;2009-11-03 16:00;CYYZ 031600Z 30014KT 15SM SCT040 BKN090 08/01 A3011 RMK CU3AC4 SLP200

CYYZ;2009-11-03 16:18;CYYZ 031618Z 30015KT 15SM -SHRA FEW035 SCT055 BKN060 BKN085 08/ RMK CU2CU2SC2AC2

CYYZ;2009-11-03 16:29;CYYZ 031629Z CCA 30013G18KT 15SM FEW035 SCT055 BKN082 08/ RMK CU2SC2AC3

CYYZ;2009-11-03 16:45;CYYZ 031645Z 30018KT 15SM -SHRA FEW035 BKN044 BKN075 07/ RMK CU2SC2AC2 PCPN VRY LGT

CYYZ;2009-11-03 17:00;CYYZ 031700Z 32018KT 15SM -SHRA FEW035 BKN050 BKN080 07/M01 A3011 RMK CU2SC2AC2 PCPN VRY LGT SLP202

CYYZ;2009-11-03 17:42;CYYZ 031742Z 30013G20KT 15SM SCT055 BKN064 BKN080 08/ RMK CU3SC2AC2

CYYZ;2009-11-03 18:00;CYYZ 031800Z CCA 32014KT 15SM SCT045 BKN060 BKN075 07/M00 A3011 RMK CU3SC2AC2 SLP202

CYYZ;2009-11-03 18:45;CYYZ 031845Z 33015G27KT 15SM -SHRA SCT050 BKN064 BKN080 07/ RMK CU3SC2AC2 PCPN VRY LGT

CYYZ;2009-11-03 19:00;CYYZ 031900Z 34016G26KT 15SM SCT050 BKN064 BKN080 06/00 A3013 RMK CU3SC2AC2 SLP206

CYYZ;2009-11-03 19:50;CYYZ 031950Z 33021G26KT 12SM -SHRA SCT045 BKN064 BKN080 06/ RMK CU3SC2AC2 PCPN VRY LGT

CYYZ;2009-11-03 20:00;CYYZ 032000Z 33015G25KT 15SM -SHRA SCT040 BKN055 BKN080 06/01 A3014 RMK CU3SC2AC2 PCPN VRY LGT SLP212

CYYZ;2009-11-03 20:35;CYYZ 032035Z 29010KT 15SM SCT033 BKN050 BKN080 06/ RMK CU4SC2AC2

CYYZ;2009-11-03 21:00;CYYZ 032100Z 30011G20KT 15SM SCT030 BKN050 BKN080 07/01 A3016 RMK CU3SC2AC2 SLP217

CYYZ;2009-11-03 22:00;CYYZ 032200Z 33010G16KT 15SM FEW030 BKN062 BKN075 05/01 A3019 RMK CU2SC2AC2 SLP227

CYYZ;2009-11-03 23:00;CYYZ 032300Z 30012G19KT 15SM SCT030 BKN070 05/M01 A3020 RMK SC3AC2 SLP233

CYYZ;2009-11-04 00:00;CYYZ 040000Z 29009KT 15SM FEW062 FEW069 04/M00 A3022 RMK SC1AC1 SLP238

CYYZ;2009-11-04 01:00;CYYZ 040100Z 29010KT 15SM FEW062 03/00 A3022 RMK SC1 SLP240

CYYZ;2009-11-04 02:00;CYYZ 040200Z 27007KT 15SM FEW060 02/M00 A3023 RMK SC1 SLP244

CYYZ;2009-11-04 03:00;CYYZ 040300Z 28008KT 15SM FEW050 FEW070 02/M00 A3026 RMK SC1AC1 SLP252

CYYZ;2009-11-04 04:00;CYYZ 040400Z 27008KT 15SM FEW062 01/M01 A3026 RMK SC1 SLP254

CYYZ;2009-11-04 05:00;CYYZ 040500Z 29006KT 15SM SCT061 02/M01 A3027 RMK SC2 SLP256

CYYZ;2009-11-04 06:00;CYYZ 040600Z 28005KT 15SM BKN053 02/M00 A3028 RMK SC6 SLP259

CYYZ;2009-11-04 07:00;CYYZ 040700Z 26007KT 15SM BKN056 02/M00 A3029 RMK SC5 SLP264

CYYZ;2009-11-04 08:00;CYYZ 040800Z 27005KT 15SM FEW062 SCT190 M00/M02 A3030 RMK SC2AC1 SLP265

CYYZ;2009-11-04 09:00;CYYZ 040900Z 29003KT 15SM BKN052 BKN190 01/M01 A3029 RMK SC5AC0 SLP264

CYYZ;2009-11-04 10:00;CYYZ 041000Z 26005KT 15SM FEW053 SCT220 M00/M02 A3028 RMK SC2CI0 SLP260

CYYZ;2009-11-04 11:00;CYYZ 041100Z 00000KT 15SM FEW050 FEW240 00/M01 A3028 RMK SC1CI0 SLP260

CYYZ;2009-11-04 12:00;CYYZ 041200Z 05004KT 15SM FEW045 FEW150 BKN210 M00/M02 A3028 RMK SC1AC2CI2 SLP262

CYYZ;2009-11-04 13:00;CYYZ 041300Z 00000KT 15SM FEW045 SCT130 BKN140 02/M01 A3030 RMK SC1AC2AS3 SLP267

CYYZ;2009-11-04 14:00;CYYZ 041400Z 29002KT 15SM FEW045 BKN110 OVC130 03/00 A3031 RMK SC2AC2AS3 SLP273

CYYZ;2009-11-04 15:00;CYYZ 041500Z 18002KT 15SM FEW030 FEW045 BKN120 OVC130 04/01 A3031 RMK CU1SC2AC2AS2 SLP271

CYYZ;2009-11-04 16:00;CYYZ 041600Z 14003KT 15SM FEW030 SCT045 BKN070 OVC080 05/01 A3031 RMK CU2SC1AC2AC2 SLP270

CYYZ;2009-11-04 17:00;CYYZ 041700Z 15003KT 15SM FEW025 BKN058 OVC086 06/M00 A3028 RMK CU2SC2AC3 SLP262

CYYZ;2009-11-04 18:00;CYYZ 041800Z 16003KT 15SM FEW025 SCT060 BKN090 BKN100 06/00 A3025 RMK CU2SC2AC2AS2 SLP251

CYYZ;2009-11-04 19:00;CYYZ 041900Z 13004KT 15SM FEW030 BKN052 BKN075 06/01 A3023 RMK CU2SC3AC2 SLP243

CYYZ;2009-11-04 20:00;CYYZ 042000Z 14006KT 15SM FEW030 OVC041 05/01 A3022 RMK CU2SC6 SLP239

CYYZ;2009-11-04 20:08;CYYZ 042008Z 15006KT 15SM -SHRA FEW030 OVC039 05/ RMK CU2SC6 PCPN VRY LGT

CYYZ;2009-11-04 20:30;CYYZ 042030Z 14006KT 15SM FEW030 OVC040 05/ RMK CU2SC6

CYYZ;2009-11-04 21:00;CYYZ 042100Z CCA 17005KT 15SM -SHRA FEW030 OVC054 05/M01 A3021 RMK CU2SC6 PCPN VRY LGT SLP238

CYYZ;2009-11-04 22:00;CYYZ 042200Z 16005KT 12SM -SHRA FEW025 OVC043 04/01 A3022 RMK CF2SC6 PCPN VRY LGT SLP240

CYYZ;2009-11-04 23:00;CYYZ 042300Z 16004KT 12SM -SHRA FEW012 OVC018 04/02 A3023 RMK SF1SC7 SLP243

CYYZ;2009-11-05 00:00;CYYZ 050000Z CCA 14003KT 12SM -RA FEW012 OVC053 04/02 A3022 RMK SF2SC6 SLP241

CYYZ;2009-11-05 01:00;CYYZ 050100Z 13004KT 12SM -RA FEW012 SCT019 OVC027 04/02 A3021 RMK SF2SC2SC4 SLP238

CYYZ;2009-11-05 02:00;CYYZ 050200Z 14005KT 12SM -RA SCT009 BKN016 OVC026 04/03 A3021 RMK SF3SC2SC3 SLP236

CYYZ;2009-11-05 03:00;CYYZ 050300Z 14005KT 12SM -RA SCT012 BKN027 OVC042 04/03 A3019 RMK SF3SC2SC3 SLP231

CYYZ;2009-11-05 04:00;CYYZ 050400Z 15004KT 10SM -RA SCT008 OVC012 04/03 A3018 RMK SF3SC5 SLP226

CYYZ;2009-11-05 04:11;CYYZ 050411Z 17004KT 10SM -RA BKN007 OVC012 04/ RMK SF5SC3

CYYZ;2009-11-05 04:28;CYYZ 050428Z 18003KT 10SM -RA FEW008 BKN013 OVC033 04/ RMK SF2SC4SC2

CYYZ;2009-11-05 05:00;CYYZ 050500Z 19003KT 10SM -RA FEW009 OVC019 04/04 A3017 RMK SF2SC6 SLP223

CYYZ;2009-11-05 06:00;CYYZ 050600Z 22003KT 10SM -RA FEW009 BKN016 OVC026 04/04 A3016 RMK SF2SC4SC2 SLP219

CYYZ;2009-11-05 07:00;CYYZ 050700Z 24004KT 10SM -RA SCT014 OVC024 04/04 A3015 RMK SC3SC5 SLP214

CYYZ;2009-11-05 07:31;CYYZ 050731Z 24007KT 10SM FEW008 OVC021 04/ RMK SF2SC6

CYYZ;2009-11-05 08:00;CYYZ 050800Z 23004KT 12SM FEW021 BKN031 OVC081 04/03 A3012 RMK SC2SC3AC2 SLP206

CYYZ;2009-11-05 09:00;CYYZ 050900Z 23004KT 12SM FEW021 OVC120 03/03 A3011 RMK SC2AC6 SLP201

CYYZ;2009-11-05 10:00;CYYZ 051000Z 26004KT 12SM SCT062 OVC120 03/03 A3010 RMK SC3AC5 SLP197

CYYZ;2009-11-05 11:00;CYYZ 051100Z 23004KT 12SM BKN061 OVC075 03/02 A3008 RMK SC5AC3 SLP192

CYYZ;2009-11-05 12:00;CYYZ 051200Z 23005KT 10SM SCT030 OVC038 04/02 A3007 RMK SC3SC5 SLP188

CYYZ;2009-11-05 12:25;CYYZ 051225Z 24006KT 8SM -SHRA SCT025 OVC030 04/ RMK SC3SC5

CYYZ;2009-11-05 13:00;CYYZ 051300Z 23006KT 10SM -SHRA FEW012 FEW017 SCT025 OVC055 04/02 A3006 RMK SF1SC2SC2SC4 PCPN VRY LGT SLP184

CYYZ;2009-11-05 13:30;CYYZ 051330Z 20005KT 12SM SCT012 BKN050 04/ RMK SF3SC4

CYYZ;2009-11-05 14:00;CYYZ 051400Z 22005KT 12SM FEW010 BKN015 BKN090 04/03 A3004 RMK SF2SC3AC2 SLP177

CYYZ;2009-11-05 15:00;CYYZ 051500Z 25013KT 10SM -SHRA FEW010 BKN016 OVC025 05/04 A3002 RMK SF2SC3SC2 PCPN VRY LGT SLP172

CYYZ;2009-11-05 15:45;CYYZ 051545Z 29018KT 15SM FEW014 SCT025 BKN035 BKN070 06/ RMK SF2CU2SC2AC2

CYYZ;2009-11-05 16:00;CYYZ 051600Z 30019G25KT 15SM FEW025 SCT035 BKN085 06/02 A3002 RMK CU2SC2AC3 SLP173

CYYZ;2009-11-05 17:00;CYYZ 051700Z 30019G25KT 15SM SCT025 BKN035 BKN110 07/02 A3001 RMK CU3SC2AC2 SLP170

CYYZ;2009-11-05 17:40;CYYZ 051740Z 32031G37KT 15SM -SHRA SCT030 BKN060 BKN070 06/ RMK CU3SC2AC2 PCPN VRY LGT

CYYZ;2009-11-05 18:00;CYYZ 051800Z CCA 30019G27KT 15SM -SHRA SCT035 BKN063 BKN075 05/01 A3003 RMK CU3SC2AC2 DARK TWD SE PCPN VRY LGT SLP175

CYYZ;2009-11-05 18:35;CYYZ 051835Z 31020KT 15SM SCT040 SCT045 BKN070 06/ RMK CU3SC1AC2

CYYZ;2009-11-05 19:00;CYYZ 051900Z 30016G22KT 15SM FEW040 SCT045 BKN070 07/01 A3003 RMK CU2SC2AC2 SLP176

CYYZ;2009-11-05 19:15;CYYZ 051915Z CCA 33032G37KT 2SM SHRAGR BKN020 OVC030 03/ RMK CU5SC3 HAIL DIAM 2 MM

CYYZ;2009-11-05 19:30;CYYZ 051930Z CCA 31011G19KT 15SM -SHRA SCT035 BKN070 03/ RERAGR RMK CU4AC2 TCU ASOCTD N

CYYZ;2009-11-05 19:46;CYYZ 051946Z 30012KT 15SM SCT040 BKN080 BKN140 05/ RERAGR RMK CU4AC2AC1

CYYZ;2009-11-05 20:00;CYYZ 052000Z 32022G29KT 15SM FEW035 BKN040 BKN080 05/01 A3005 RERAGR RMK CU2CU3AC2 TCU ASOCTD SLP182

CYYZ;2009-11-05 21:00;CYYZ 052100Z CCA 32023G34KT 15SM FEW050 BKN063 BKN075 06/M01 A3007 RMK CU2CU2AC2 TCU ASOCTD SLP189

CYYZ;2009-11-05 22:00;CYYZ 052200Z 30015KT 15SM FEW045 SCT070 04/M02 A3009 RMK CU2AC2 SLP195

CYYZ;2009-11-05 23:00;CYYZ 052300Z 31015G21KT 15SM FEW040 SCT090 04/M01 A3011 RMK SC2AC2 SLP202

CYYZ;2009-11-06 00:00;CYYZ 060000Z 30010KT 15SM SCT049 02/M01 A3014 RMK SC4 SLP213

CYYZ;2009-11-06 01:00;CYYZ 060100Z 31011KT 15SM SCT050 02/M01 A3016 RMK SC3 SLP218

CYYZ;2009-11-06 02:00;CYYZ 060200Z 31011KT 15SM FEW045 02/M02 A3018 RMK SC2 SLP225

CYYZ;2009-11-06 03:00;CYYZ 060300Z 31013KT 15SM SCT045 02/M03 A3019 RMK SC3 SLP231

CYYZ;2009-11-06 04:00;CYYZ 060400Z 33013G18KT 15SM SCT058 02/M05 A3021 RMK SC3 SLP236

CYYZ;2009-11-06 05:00;CYYZ 060500Z 33010G15KT 15SM BKN047 02/M04 A3023 RMK SC6 SLP242

CYYZ;2009-11-06 06:00;CYYZ 060600Z 35008KT 15SM BKN047 02/M04 A3025 RMK SC6 SLP250

CYYZ;2009-11-06 07:00;CYYZ 060700Z 33010G15KT 15SM BKN048 01/M04 A3028 RMK SC6 SLP260

CYYZ;2009-11-06 08:00;CYYZ 060800Z 35010KT 15SM BKN048 01/M04 A3030 RMK SC6 SLP266

CYYZ;2009-11-06 09:00;CYYZ 060900Z 36009KT 15SM SCT047 00/M04 A3030 RMK SC4 SLP268

CYYZ;2009-11-06 10:00;CYYZ 061000Z 35007KT 15SM SCT039 M00/M04 A3032 RMK SC4 SLP274

CYYZ;2009-11-06 11:00;CYYZ 061100Z 34007KT 15SM FEW040 M01/M05 A3033 RMK SC2 SLP277

CYYZ;2009-11-06 12:00;CYYZ 061200Z 32005KT 15SM FEW020 SCT036 M01/M05 A3035 RMK CF1SC2 SLP287

CYYZ;2009-11-06 13:00;CYYZ 061300Z 34007KT 15SM FEW020 BKN034 BKN260 00/M04 A3037 RMK CF1SC4CI1 SLP292

CYYZ;2009-11-06 14:00;CYYZ 061400Z 36007KT 15SM FEW020 BKN036 01/M03 A3038 RMK CF1SC7 SLP296

CYYZ;2009-11-06 15:00;CYYZ 061500Z 02005KT 15SM FEW020 BKN034 02/M03 A3037 RMK CF1SC3 SLP292

CYYZ;2009-11-06 16:00;CYYZ 061600Z 29008KT 15SM FEW022 BKN034 03/M04 A3038 RMK CF1SC7 SLP294

CYYZ;2009-11-06 17:00;CYYZ 061700Z 26005KT 15SM BKN036 BKN260 04/M03 A3036 RMK SC6CI1 SLP287

CYYZ;2009-11-06 18:00;CYYZ 061800Z 18004KT 15SM FEW038 FEW260 04/M04 A3033 RMK SC2CI0 SLP279

CYYZ;2009-11-06 19:00;CYYZ 061900Z 16007KT 15SM FEW040 FEW260 05/M03 A3030 RMK CF1CI1 SLP269

CYYZ;2009-11-06 20:00;CYYZ 062000Z 17008KT 15SM FEW040 SCT270 04/M02 A3028 RMK CF1CI0 SLP263

CYYZ;2009-11-06 21:00;CYYZ 062100Z 17007KT 15SM FEW035 BKN240 03/M03 A3028 RMK CF1CC4 SLP260

CYYZ;2009-11-06 22:00;CYYZ 062200Z 16005KT 15SM FEW240 FEW270 03/M02 A3026 RMK CC2CI0 SLP255

CYYZ;2009-11-06 23:00;CYYZ 062300Z 16004KT 15SM FEW240 FEW270 03/M02 A3024 RMK CI1CI0 SLP249

CYYZ;2009-11-07 00:00;CYYZ 070000Z 18003KT 15SM FEW250 03/M02 A3024 RMK CI0 SLP247

CYYZ;2009-11-07 01:00;CYYZ 070100Z 20004KT 15SM FEW180 BKN240 03/M03 A3022 RMK AC1CI2 SLP243

CYYZ;2009-11-07 02:00;CYYZ 070200Z 18003KT 15SM BKN250 03/M03 A3020 RMK CI3 SLP235

CYYZ;2009-11-07 03:00;CYYZ 070300Z 16003KT 15SM BKN260 03/M02 A3018 RMK CI2 SLP227

CYYZ;2009-11-07 04:00;CYYZ 070400Z 15003KT 15SM FEW260 03/M02 A3017 RMK CI0 SLP223

CYYZ;2009-11-07 05:00;CYYZ 070500Z 16004KT 15SM BKN096 04/M00 A3016 RMK AC6 SLP219

CYYZ;2009-11-07 06:00;CYYZ 070600Z 14005KT 15SM FEW062 BKN094 05/01 A3014 RMK SC2AC4 SLP212

CYYZ;2009-11-07 07:00;CYYZ 070700Z 14006KT 15SM FEW056 BKN094 05/02 A3012 RMK SC1AC6 SLP206

CYYZ;2009-11-07 08:00;CYYZ 070800Z 14005KT 15SM FEW061 OVC096 05/03 A3009 RMK SC2AC6 SLP197

CYYZ;2009-11-07 09:00;CYYZ 070900Z 15006KT 15SM FEW063 BKN093 06/03 A3007 RMK SC1AC5 SLP187

CYYZ;2009-11-07 10:00;CYYZ 071000Z 15004KT 15SM FEW062 BKN091 06/03 A3005 RMK SC2AC5 SLP181

CYYZ;2009-11-07 11:00;CYYZ 071100Z 16004KT 15SM FEW060 BKN083 06/04 A3002 RMK SC2AC3 SLP172

CYYZ;2009-11-07 12:00;CYYZ 071200Z 18004KT 15SM FEW060 BKN080 BKN230 06/03 A2999 RMK SC2AC3CI1 SLP160

CYYZ;2009-11-07 13:00;CYYZ 071300Z CCA 18005KT 15SM FEW060 SCT080 BKN230 09/04 A2997 RMK SC1AC3CI1 SLP154

CYYZ;2009-11-07 14:00;CYYZ 071400Z 19009KT 15SM FEW080 BKN230 10/03 A2995 RMK AC1CI1 SLP148

CYYZ;2009-11-07 15:00;CYYZ 071500Z 19011KT 15SM FEW150 BKN210 11/03 A2992 RMK AC1CI2 SLP137

CYYZ;2009-11-07 16:00;CYYZ 071600Z 19010G15KT 15SM BKN230 13/04 A2991 RMK CI2 SLP133

CYYZ;2009-11-07 17:00;CYYZ 071700Z 18012KT 15SM BKN230 15/04 A2984 RMK CI2 PRESFR SLP109

CYYZ;2009-11-07 18:00;CYYZ 071800Z 18010G15KT 15SM FEW160 BKN230 15/05 A2981 RMK AC1CI2 SLP097

CYYZ;2009-11-07 19:00;CYYZ 071900Z 20009KT 15SM FEW160 SCT240 16/05 A2978 RMK AC2CI1 SLP089

CYYZ;2009-11-07 20:00;CYYZ 072000Z 21013G22KT 15SM FEW160 FEW240 16/06 A2977 RMK AC1CI1 SLP084

CYYZ;2009-11-07 21:00;CYYZ 072100Z 22015KT 15SM FEW150 15/06 A2977 RMK AC1 SLP085

CYYZ;2009-11-07 22:00;CYYZ 072200Z 23011G21KT 15SM FEW250 15/06 A2979 RMK CI0 SLP091

CYYZ;2009-11-07 23:00;CYYZ 072300Z 24013KT 15SM SKC 14/06 A2983 RMK SLP103

CYYZ;2009-11-08 00:00;CYYZ 080000Z 24008KT 15SM FEW260 13/06 A2986 RMK CI1 SLP116

CYYZ;2009-11-08 01:00;CYYZ 080100Z 24013KT 15SM FEW260 14/07 A2987 RMK CI1 SLP118

CYYZ;2009-11-08 02:00;CYYZ 080200Z 24010KT 15SM SKC 13/08 A2989 RMK SLP124

CYYZ;2009-11-08 03:00;CYYZ 080300Z 25005KT 15SM SKC 13/08 A2992 RMK SLP133

CYYZ;2009-11-08 04:00;CYYZ 080400Z 27009KT 15SM SKC 10/08 A2994 RMK SLP140

CYYZ;2009-11-08 05:00;CYYZ 080500Z 27006KT 15SM FEW260 10/08 A2996 RMK CI1 SLP149

CYYZ;2009-11-08 06:00;CYYZ 080600Z 30005KT 12SM FEW260 09/08 A2999 RMK CI1 SLP158

CYYZ;2009-11-08 07:00;CYYZ 080700Z 32007KT 12SM SKC 08/07 A3002 RMK SLP168

CYYZ;2009-11-08 08:00;CYYZ 080800Z 30006KT 12SM SKC 08/07 A3004 RMK SLP175

CYYZ;2009-11-08 09:00;CYYZ 080900Z 29004KT 10SM SKC 07/05 A3007 RMK SLP186

CYYZ;2009-11-08 10:00;CYYZ 081000Z 20002KT 10SM FEW260 07/06 A3010 RMK CI1 SLP197

CYYZ;2009-11-08 11:00;CYYZ 081100Z 21003KT 10SM FEW260 07/05 A3014 RMK CI1 SLP209

CYYZ;2009-11-08 12:00;CYYZ 081200Z 23003KT 15SM FEW250 06/05 A3018 RMK CI1 CONTRAIL SLP224

CYYZ;2009-11-08 13:00;CYYZ 081300Z 25004KT 15SM FEW250 06/05 A3022 RMK CI1 CONTRAIL SLP237

CYYZ;2009-11-08 14:00;CYYZ 081400Z 28003KT 15SM FEW250 10/07 A3025 RMK CI1 SLP246

CYYZ;2009-11-08 15:00;CYYZ 081500Z CCA 30002KT 15SM FEW250 12/08 A3025 RMK CI1 SLP247

CYYZ;2009-11-08 16:00;CYYZ 081600Z 22003KT 15SM FEW250 16/05 A3026 RMK CI1 SLP249

CYYZ;2009-11-08 17:00;CYYZ 081700Z 20004KT 15SM FEW250 17/05 A3024 RMK CI1 SLP243

CYYZ;2009-11-08 18:00;CYYZ 081800Z 19008KT 15SM FEW250 17/02 A3022 RMK CI1 SLP237

CYYZ;2009-11-08 19:00;CYYZ 081900Z 19006KT 15SM FEW250 18/00 A3022 RMK CI1 SLP237

CYYZ;2009-11-08 20:00;CYYZ 082000Z 14005KT 15SM FEW250 17/04 A3022 RMK CI1 SLP236

CYYZ;2009-11-08 21:00;CYYZ 082100Z 15005KT 15SM FEW250 16/05 A3022 RMK CI1 SLP236

CYYZ;2009-11-08 22:00;CYYZ 082200Z 11005KT 15SM FEW180 FEW250 14/06 A3023 RMK AC2CI0 SLP239

CYYZ;2009-11-08 23:00;CYYZ 082300Z 16003KT 15SM FEW180 FEW220 12/05 A3025 RMK AC2CI0 SLP247

CYYZ;2009-11-09 00:00;CYYZ 090000Z 15005KT 15SM FEW250 11/05 A3026 RMK CI1 SLP251

CYYZ;2009-11-09 01:00;CYYZ 090100Z 13005KT 15SM FEW250 11/04 A3025 RMK CI1 SLP250

CYYZ;2009-11-09 02:00;CYYZ 090200Z 11004KT 15SM FEW250 11/04 A3025 RMK CI1 SLP247

CYYZ;2009-11-09 03:00;CYYZ 090300Z 08004KT 15SM FEW250 10/04 A3023 RMK CI0 SLP241

CYYZ;2009-11-09 04:00;CYYZ 090400Z 00000KT 15SM SKC 09/05 A3022 RMK SLP237

CYYZ;2009-11-09 05:00;CYYZ 090500Z 00000KT 15SM SKC 08/05 A3020 RMK SLP229

CYYZ;2009-11-09 06:00;CYYZ 090600Z 31003KT 15SM SKC 06/03 A3019 RMK SLP228

CYYZ;2009-11-09 07:00;CYYZ 090700Z 00000KT 15SM SKC 07/04 A3019 RMK SLP225

CYYZ;2009-11-09 08:00;CYYZ 090800Z 34004KT 15SM FEW250 06/03 A3018 RMK CI1 SLP224

CYYZ;2009-11-09 09:00;CYYZ 090900Z 00000KT 15SM FEW250 05/03 A3019 RMK CI1 SLP225

CYYZ;2009-11-09 10:00;CYYZ 091000Z 00000KT 15SM BKN250 06/04 A3017 RMK CI3 SLP221

CYYZ;2009-11-09 11:00;CYYZ 091100Z 17005KT 15SM SCT250 07/05 A3016 RMK CI2 SLP218

CYYZ;2009-11-09 12:00;CYYZ 091200Z 15004KT 10SM BKN240 08/07 A3016 RMK CI2 SLP219

CYYZ;2009-11-09 13:00;CYYZ 091300Z 16004KT 10SM FEW120 BKN230 09/08 A3018 RMK AC2CI2 SLP223

CYYZ;2009-11-09 14:00;CYYZ 091400Z 22008KT 12SM FEW150 BKN230 12/09 A3018 RMK AC2CI2 SLP223

CYYZ;2009-11-09 15:00;CYYZ 091500Z 23011KT 12SM FEW150 BKN230 15/11 A3016 RMK AC2CI2 SLP217

CYYZ;2009-11-09 16:00;CYYZ 091600Z 21010G15KT 12SM FEW150 BKN230 16/11 A3015 RMK AC1CI3 SLP212

CYYZ;2009-11-09 17:00;CYYZ 091700Z 21009KT 12SM FEW150 BKN230 17/11 A3014 RMK AC1CI3 SLP209

CYYZ;2009-11-09 18:00;CYYZ 091800Z 24013KT 12SM FEW150 BKN230 18/12 A3012 RMK AC2CS4 SLP203

CYYZ;2009-11-09 19:00;CYYZ 091900Z 24012KT 15SM FEW150 BKN210 19/12 A3013 RMK AC2CS4 SLP204

CYYZ;2009-11-09 20:00;CYYZ 092000Z 25011KT 15SM FEW150 BKN210 19/12 A3014 RMK AC2CS4 SLP208

CYYZ;2009-11-09 21:00;CYYZ 092100Z 27014KT 15SM BKN034 OVC130 18/12 A3016 RMK SC6AC2 SLP218

CYYZ;2009-11-09 22:00;CYYZ 092200Z 28011KT 15SM BKN032 OVC042 17/12 A3019 RMK SC6SC2 SLP228

CYYZ;2009-11-09 23:00;CYYZ 092300Z 29009KT 15SM BKN035 BKN160 16/12 A3022 RMK SC6AC1 SLP237

CYYZ;2009-11-10 00:00;CYYZ 100000Z 30009KT 15SM BKN180 15/11 A3024 RMK AC5 SLP244

CYYZ;2009-11-10 01:00;CYYZ 100100Z CCA 32009KT 15SM FEW160 BKN250 13/10 A3025 RMK AC2CI2 SLP246

CYYZ;2009-11-10 02:00;CYYZ 100200Z 32012KT 15SM FEW170 BKN190 BKN250 12/06 A3028 RMK AC2AC3CI0 SLP258

CYYZ;2009-11-10 03:00;CYYZ 100300Z 32007KT 15SM SCT160 BKN250 11/06 A3030 RMK AC3CI1 SLP263

CYYZ;2009-11-10 04:00;CYYZ 100400Z 29006KT 15SM BKN140 10/06 A3031 RMK AC5 SLP267

CYYZ;2009-11-10 05:00;CYYZ 100500Z 31006KT 15SM BKN130 10/06 A3032 RMK AC6 SLP269

CYYZ;2009-11-10 06:00;CYYZ 100600Z 33007KT 15SM OVC170 10/06 A3034 RMK AC8 SLP276

CYYZ;2009-11-10 07:00;CYYZ 100700Z 33011KT 15SM BKN180 OVC210 10/06 A3034 RMK AC6CI2 SLP277

CYYZ;2009-11-10 08:00;CYYZ 100800Z 34012KT 15SM BKN190 OVC220 09/05 A3035 RMK AC6CI2 SLP281

CYYZ;2009-11-10 09:00;CYYZ 100900Z 36004KT 15SM FEW190 OVC220 07/05 A3037 RMK AC2CS2 SLP287

CYYZ;2009-11-10 10:00;CYYZ 101000Z 35006KT 15SM FEW180 BKN240 06/04 A3038 RMK AC2CI1 SLP291

CYYZ;2009-11-10 11:00;CYYZ 101100Z 36006KT 15SM FEW180 BKN240 06/04 A3038 RMK AC2CI2 SLP290

CYYZ;2009-11-10 12:00;CYYZ 101200Z 35004KT 15SM FEW190 BKN270 06/04 A3040 RMK AC1CI0 SLP298

CYYZ;2009-11-10 13:00;CYYZ 101300Z 32005KT 15SM FEW190 BKN260 06/04 A3042 RMK AC2CI2 SLP304

CYYZ;2009-11-10 14:00;CYYZ 101400Z 35008KT 15SM BKN180 BKN260 08/04 A3043 RMK AC6CI1 SLP308

CYYZ;2009-11-10 15:00;CYYZ 101500Z 35004KT 15SM BKN180 BKN260 09/05 A3043 RMK AC6CI1 SLP309

CYYZ;2009-11-10 16:00;CYYZ 101600Z 34006KT 15SM SCT180 BKN240 10/05 A3043 RMK AC3CI2 SLP308

CYYZ;2009-11-10 17:00;CYYZ 101700Z 02007KT 15SM FEW180 BKN260 12/04 A3042 RMK AC1CI2 SLP304

CYYZ;2009-11-10 18:00;CYYZ 101800Z 36009KT 15SM FEW180 BKN260 13/02 A3040 RMK AC1CI2 SLP299

CYYZ;2009-11-10 19:00;CYYZ 101900Z 35013KT 15SM FEW180 SCT210 BKN260 13/M00 A3040 RMK AC1CC2CI1 SLP297

CYYZ;2009-11-10 20:00;CYYZ 102000Z 35013KT 15SM FEW040 FEW210 BKN270 12/01 A3040 RMK CF1CC2CI2 SLP298

CYYZ;2009-11-10 21:00;CYYZ 102100Z 35011KT 15SM FEW040 BKN210 BKN270 11/00 A3041 RMK CF1CC5CI0 SLP301

CYYZ;2009-11-10 22:00;CYYZ 102200Z 34013KT 15SM BKN190 BKN260 10/00 A3041 RMK AC6CI1 SLP302

CYYZ;2009-11-10 23:00;CYYZ 102300Z CCA 35011G16KT 15SM BKN180 09/M00 A3042 RMK AC2 SLP305

CYYZ;2009-11-11 00:00;CYYZ 110000Z 35012KT 15SM SCT180 08/M01 A3044 RMK AC2 SLP315

CYYZ;2009-11-11 01:00;CYYZ 110100Z 35011KT 15SM FEW260 07/01 A3046 RMK CI1 SLP320

CYYZ;2009-11-11 02:00;CYYZ 110200Z 35011G16KT 15SM FEW260 06/02 A3047 RMK CI1 SLP323

CYYZ;2009-11-11 03:00;CYYZ 110300Z 35010KT 15SM FEW260 05/03 A3048 RMK CI1 SLP326

CYYZ;2009-11-11 04:00;CYYZ 110400Z 35012KT 15SM SKC 04/03 A3048 RMK SLP327

CYYZ;2009-11-11 05:00;CYYZ 110500Z 36009KT 15SM SKC 04/02 A3048 RMK SLP327

CYYZ;2009-11-11 06:00;CYYZ 110600Z 36008KT 15SM SKC 03/01 A3048 RMK SLP327

CYYZ;2009-11-11 07:00;CYYZ 110700Z 01006KT 15SM SKC 02/01 A3049 RMK SLP330

CYYZ;2009-11-11 08:00;CYYZ 110800Z 01004KT 15SM SKC 02/M00 A3049 RMK SLP329

CYYZ;2009-11-11 09:00;CYYZ 110900Z 34007KT 15SM SKC 01/M01 A3049 RMK SLP331

CYYZ;2009-11-11 10:00;CYYZ 111000Z 34007KT 15SM SKC 01/M01 A3050 RMK SLP335

CYYZ;2009-11-11 11:00;CYYZ 111100Z 00000KT 15SM SKC 00/M02 A3051 RMK SLP336

CYYZ;2009-11-11 12:00;CYYZ 111200Z 02006KT 15SM FEW260 00/M02 A3051 RMK CI1 SLP338

CYYZ;2009-11-11 13:00;CYYZ 111300Z 03007KT 15SM FEW030 FEW260 01/M01 A3052 RMK CF1CI1 SLP340

CYYZ;2009-11-11 14:00;CYYZ 111400Z 05006KT 15SM FEW030 FEW220 04/M00 A3052 RMK SC1CI1 SLP341

CYYZ;2009-11-11 15:00;CYYZ 111500Z 09007KT 15SM FEW030 FEW220 06/M00 A3053 RMK SC1CI1 SLP344

CYYZ;2009-11-11 16:00;CYYZ 111600Z 11006KT 15SM FEW030 FEW240 06/01 A3053 RMK CF1CI1 SLP344

CYYZ;2009-11-11 17:00;CYYZ 111700Z 11008KT 15SM FEW025 FEW260 07/02 A3050 RMK CF1CI1 SLP336

CYYZ;2009-11-11 18:00;CYYZ 111800Z 08009KT 15SM FEW025 FEW260 08/01 A3049 RMK CF1CI1 SLP332

CYYZ;2009-11-11 19:00;CYYZ 111900Z 09008KT 15SM FEW025 FEW260 08/M01 A3047 RMK CF1CI1 SLP326

CYYZ;2009-11-11 20:00;CYYZ 112000Z 11008KT 15SM FEW025 FEW260 09/M02 A3046 RMK SC1CI1 SLP322

CYYZ;2009-11-11 21:00;CYYZ 112100Z 09007KT 15SM FEW260 08/M03 A3044 RMK CI1 SLP315

CYYZ;2009-11-11 22:00;CYYZ 112200Z 10005KT 15SM FEW220 08/M03 A3044 RMK CI1 SLP315

CYYZ;2009-11-11 23:00;CYYZ 112300Z 08002KT 15SM FEW220 07/M02 A3045 RMK CI1 SLP317

CYYZ;2009-11-12 00:00;CYYZ 120000Z 13002KT 15SM FEW220 07/M01 A3045 RMK CI1 SLP317

CYYZ;2009-11-12 01:00;CYYZ 120100Z 02005KT 15SM FEW250 04/M01 A3043 RMK CI1 SLP311

CYYZ;2009-11-12 02:00;CYYZ 120200Z 04004KT 15SM FEW250 04/M01 A3042 RMK CI1 SLP307

CYYZ;2009-11-12 03:00;CYYZ 120300Z 02005KT 15SM FEW250 03/M02 A3041 RMK CI1 SLP303

CYYZ;2009-11-12 04:00;CYYZ 120400Z 02002KT 15SM FEW250 02/M01 A3039 RMK CI0 SLP296

CYYZ;2009-11-12 05:00;CYYZ 120500Z 03006KT 15SM FEW250 01/M02 A3039 RMK CI1 SLP297

CYYZ;2009-11-12 06:00;CYYZ 120600Z 02005KT 15SM FEW250 01/M03 A3038 RMK CI1 SLP294

CYYZ;2009-11-12 07:00;CYYZ 120700Z 03006KT 15SM SKC 01/M03 A3038 RMK SLP294

CYYZ;2009-11-12 08:00;CYYZ 120800Z 01006KT 15SM SKC M00/M04 A3038 RMK SLP293

CYYZ;2009-11-12 09:00;CYYZ 120900Z 04004KT 15SM SKC M00/M03 A3037 RMK SLP289

CYYZ;2009-11-12 10:00;CYYZ 121000Z 01004KT 15SM SKC M01/M03 A3036 RMK SLP287

CYYZ;2009-11-12 11:00;CYYZ 121100Z 04002KT 15SM FEW100 FEW250 M01/M03 A3034 RMK AC1CI1 SLP282

CYYZ;2009-11-12 12:00;CYYZ 121200Z 03004KT 15SM FEW030 FEW220 M01/M03 A3035 RMK SC1CI1 FROIN SLP284

CYYZ;2009-11-12 13:00;CYYZ 121300Z 02004KT 15SM FEW008 00/M02 A3035 RMK ST2 SLP285

CYYZ;2009-11-12 13:19;CYYZ 121319Z 04003KT 15SM BKN007 01/ RMK ST7

CYYZ;2009-11-12 13:44;CYYZ 121344Z 05004KT 15SM FEW007 03/ RMK ST1

CYYZ;2009-11-12 14:00;CYYZ 121400Z 04003KT 15SM FEW007 03/00 A3035 RMK ST1 SLP284

CYYZ;2009-11-12 15:00;CYYZ 121500Z 08005KT 15SM FEW007 06/03 A3034 RMK ST1 SLP281

CYYZ;2009-11-12 16:00;CYYZ 121600Z 00000KT 15SM FEW012 FEW070 08/03 A3033 RMK CF1AC1 SLP278

CYYZ;2009-11-12 17:00;CYYZ 121700Z 10007KT 15SM FEW020 FEW080 08/03 A3030 RMK CF1AC1 SLP266

CYYZ;2009-11-12 18:00;CYYZ 121800Z 09007KT 15SM FEW025 FEW080 09/03 A3027 RMK CF1AC1 SLP257

CYYZ;2009-11-12 19:00;CYYZ 121900Z 09007KT 15SM FEW025 FEW080 09/02 A3026 RMK CF1AC1 SLP252

CYYZ;2009-11-12 20:00;CYYZ 122000Z 08006KT 15SM FEW080 09/00 A3024 RMK AC1 SLP246

CYYZ;2009-11-12 21:00;CYYZ 122100Z 09008KT 15SM FEW080 09/M01 A3024 RMK AC1 SLP246

CYYZ;2009-11-12 22:00;CYYZ 122200Z 11004KT 15SM FEW100 FEW250 07/00 A3024 RMK AC1CI1 SLP245

CYYZ;2009-11-12 23:00;CYYZ 122300Z 09004KT 15SM FEW250 06/01 A3024 RMK CI1 SLP247

CYYZ;2009-11-13 00:00;CYYZ 130000Z 09002KT 15SM FEW250 05/01 A3023 RMK CI1 SLP245

CYYZ;2009-11-13 01:00;CYYZ 130100Z 05002KT 15SM FEW250 05/01 A3023 RMK CI1 SLP243

CYYZ;2009-11-13 02:00;CYYZ 130200Z 04003KT 15SM FEW250 04/01 A3022 RMK CI1 SLP241

CYYZ;2009-11-13 03:00;CYYZ 130300Z 02004KT 15SM FEW250 02/00 A3021 RMK CI1 SLP237

CYYZ;2009-11-13 04:00;CYYZ 130400Z 04003KT 15SM FEW250 02/00 A3020 RMK CI1 SLP233

CYYZ;2009-11-13 05:00;CYYZ 130500Z 02004KT 15SM SKC 01/M01 A3019 RMK SLP230

CYYZ;2009-11-13 06:00;CYYZ 130600Z 03003KT 15SM SKC 01/M00 A3019 RMK SLP229

CYYZ;2009-11-13 07:00;CYYZ 130700Z 00000KT 15SM SKC M00/M02 A3018 RMK FROIN SLP226

CYYZ;2009-11-13 08:00;CYYZ 130800Z 34003KT 15SM FEW250 M01/M02 A3016 RMK CI0 FROIN SLP221

CYYZ;2009-11-13 09:00;CYYZ 130900Z 34002KT 15SM FEW250 M00/M02 A3016 RMK CI1 FROIN SLP218

CYYZ;2009-11-13 10:00;CYYZ 131000Z 36003KT 15SM FEW040 FEW250 M00/M02 A3015 RMK SC1CI1 FROIN SLP216

CYYZ;2009-11-13 10:28;CYYZ 131028Z 03004KT 15SM FEW007 FEW230 M00/ RMK ST2CI1 FROIN

CYYZ;2009-11-13 11:00;CYYZ 131100Z 04003KT 15SM FEW007 FEW230 M00/M02 A3014 RMK SC2CI1 SLP214

CYYZ;2009-11-13 11:07;CYYZ 131107Z 05004KT 15SM BKN007 00/ RMK SC6

CYYZ;2009-11-13 12:00;CYYZ 131200Z 03005KT 15SM BKN005 02/M00 A3016 RMK SC6 SLP219

CYYZ;2009-11-13 13:00;CYYZ 131300Z 02006KT 12SM BKN006 03/01 A3016 RMK SC7 SLP220

CYYZ;2009-11-13 14:00;CYYZ 131400Z 04004KT 12SM FEW008 BKN260 05/03 A3016 RMK SC2CI2 SLP220

CYYZ;2009-11-13 15:00;CYYZ 131500Z 10006KT 15SM FEW015 BKN260 07/04 A3015 RMK CF1CI2 CF TR SLP215

CYYZ;2009-11-13 16:00;CYYZ 131600Z 09009KT 15SM FEW025 BKN260 09/01 A3013 RMK CF1CI2 CF TR SLP210

CYYZ;2009-11-13 17:00;CYYZ 131700Z 12010KT 15SM SCT260 10/M00 A3010 RMK CI2 SLP199

CYYZ;2009-11-13 18:00;CYYZ 131800Z 10007KT 15SM SCT260 10/M00 A3008 RMK CI2 SLP193

CYYZ;2009-11-13 19:00;CYYZ 131900Z 09008KT 15SM SCT260 11/01 A3007 RMK CI2 SLP190

CYYZ;2009-11-13 20:00;CYYZ 132000Z 11007KT 15SM SCT260 10/01 A3006 RMK CI2 SLP184

CYYZ;2009-11-13 21:00;CYYZ 132100Z 09005KT 15SM SCT260 09/02 A3004 RMK CI2 SLP179

CYYZ;2009-11-13 22:00;CYYZ 132200Z 09006KT 15SM SCT260 08/02 A3005 RMK CI2 SLP182

CYYZ;2009-11-13 23:00;CYYZ 132300Z 09008KT 15SM SCT260 08/02 A3005 RMK CI2 SLP183

CYYZ;2009-11-14 00:00;CYYZ 140000Z 05004KT 15SM FEW250 05/01 A3007 RMK CI0 SLP187

CYYZ;2009-11-14 01:00;CYYZ 140100Z 05004KT 15SM FEW250 07/02 A3007 RMK CI0 SLP188

CYYZ;2009-11-14 02:00;CYYZ 140200Z 08006KT 15SM FEW250 07/03 A3005 RMK CI0 SLP183

CYYZ;2009-11-14 03:00;CYYZ 140300Z 09005KT 15SM SKC 07/03 A3004 RMK SLP177

CYYZ;2009-11-14 04:00;CYYZ 140400Z 03004KT 15SM FEW250 06/02 A3004 RMK CI1 SLP176

CYYZ;2009-11-14 05:00;CYYZ 140500Z 04003KT 15SM SCT230 06/01 A3003 RMK CI2 SLP174

CYYZ;2009-11-14 06:00;CYYZ 140600Z 36004KT 15SM SCT230 05/00 A3002 RMK CI2 SLP171

CYYZ;2009-11-14 07:00;CYYZ 140700Z 32003KT 15SM SCT230 04/01 A3003 RMK CI2 SLP172

CYYZ;2009-11-14 08:00;CYYZ 140800Z 07002KT 15SM BKN230 04/02 A3001 RMK CI2 SLP165

CYYZ;2009-11-14 09:00;CYYZ 140900Z 00000KT 15SM BKN230 05/02 A3001 RMK CI2 SLP165

CYYZ;2009-11-14 10:00;CYYZ 141000Z 00000KT 15SM BKN230 04/02 A3001 RMK CI2 SLP166

CYYZ;2009-11-14 11:00;CYYZ 141100Z 32003KT 15SM BKN230 04/03 A3002 RMK CI2 SLP170

CYYZ;2009-11-14 12:00;CYYZ 141200Z 09003KT 15SM FEW040 FEW100 BKN210 06/04 A3000 RMK SC1AC1CS6 SLP164

CYYZ;2009-11-14 13:00;CYYZ 141300Z 06003KT 15SM FEW040 FEW120 BKN190 BKN220 08/05 A3001 RMK SC1AC2AC3CS2 SLP169

CYYZ;2009-11-14 14:00;CYYZ 141400Z 08007KT 15SM FEW034 SCT140 BKN230 09/05 A2999 RMK SC2AC2CS3 SLP162

CYYZ;2009-11-14 15:00;CYYZ 141500Z 11003KT 15SM FEW036 FEW140 BKN240 10/04 A2999 RMK SC1AC2CI3 SLP161

CYYZ;2009-11-14 16:00;CYYZ 141600Z 09008KT 15SM FEW040 FEW160 BKN250 12/04 A2998 RMK SC1AC1CI2 SLP158

CYYZ;2009-11-14 17:00;CYYZ 141700Z 07004KT 15SM FEW040 FEW160 SCT250 13/05 A2997 RMK SC1AC1CI1 SC TR SLP153

CYYZ;2009-11-14 18:00;CYYZ 141800Z 13002KT 15SM FEW040 FEW150 FEW250 15/06 A2994 RMK SC1AC1CI1 SLP143

CYYZ;2009-11-14 19:00;CYYZ 141900Z 14005KT 15SM FEW040 FEW130 FEW260 16/07 A2992 RMK SC1AC1CI1 SLP136

CYYZ;2009-11-14 20:00;CYYZ 142000Z 12010KT 15SM FEW040 FEW130 FEW260 14/08 A2991 RMK CU1AC1CI1 SLP132

CYYZ;2009-11-14 21:00;CYYZ 142100Z 10009KT 15SM FEW040 FEW120 FEW260 12/08 A2992 RMK CU1AC1CI1 SLP134

CYYZ;2009-11-14 22:00;CYYZ 142200Z 11006KT 15SM FEW040 FEW120 FEW240 10/07 A2992 RMK SC1AC1CI1 SLP137

CYYZ;2009-11-14 23:00;CYYZ 142300Z 06003KT 15SM FEW120 FEW240 09/06 A2992 RMK AC1CI1 SLP137

CYYZ;2009-11-15 00:00;CYYZ 150000Z CCA 05002KT 15SM SKC 09/06 A2992 RMK SLP138

CYYZ;2009-11-15 01:00;CYYZ 150100Z 10005KT 15SM SKC 09/07 A2992 RMK SLP136

CYYZ;2009-11-15 01:38;CYYZ 150138Z 08004KT 7SM BKN002 08/ RMK SF6 BR VIS 12 NW

CYYZ;2009-11-15 02:00;CYYZ 150200Z 08003KT 1/2SM R05/P6000FT/N R06L/P6000FT/D FG BKN002 08/08 A2992 RMK FG6ST2 RVR 33R P6000 D SLP137

CYYZ;2009-11-15 02:40;CYYZ 150240Z CCA 00000KT 3/4SM R05/P6000FT/D R06L/3000V5000FT/U BR BKN003 08/ RMK FG5ST2 VIS 3 NW

CYYZ;2009-11-15 03:00;CYYZ 150300Z 10002KT 1SM R05/3000V4500FT/D R06L/4500VP6000FT/U BR BKN003 09/09 A2991 RMK FG4ST3 VIS 3 NW SLP133

CYYZ;2009-11-15 03:15;CYYZ 150315Z 10002KT 3SM BR BKN004 09/ RMK FG2ST4

CYYZ;2009-11-15 03:28;CYYZ 150328Z CCA 00000KT 4SM BR BKN004 08/ RMK SF6

CYYZ;2009-11-15 04:00;CYYZ 150400Z CCA 00000KT 5/8SM R05/2200FT/N R06L/P6000FT/N BR BKN005 07/07 A2991 RMK FG3SF3 VIS 13/4 NW SLP131

CYYZ;2009-11-15 04:50;CYYZ 150450Z CCA 29002KT 1/8SM R05/1400FT/N R06L/0800FT/N FG VV001 06/ RMK FG8

CYYZ;2009-11-15 05:00;CYYZ 150500Z 28002KT 0SM R05/1200FT/N R06L/0700V1100FT/N FG VV001 06/06 A2991 RMK FG8 SLP131

CYYZ;2009-11-15 05:35;CYYZ 150535Z 31003KT 1/8SM R05/0800V1100FT/N R06L/3000FT/N FG VV001 06/ RMK FG8 VIS 1 N

CYYZ;2009-11-15 06:00;CYYZ 150600Z 29003KT 1/8SM R05/1400FT/N R06L/1800FT/N FG VV001 06/06 A2990 RMK FG8 VIS 1 N SLP128

CYYZ;2009-11-15 06:45;CYYZ 150645Z CCA 27002KT 1SM R05/4000FT/U R06L/4000FT/N BR BKN003 06/ RMK FG4SF3 VIS 21/2 NW

CYYZ;2009-11-15 07:00;CYYZ 150700Z 00000KT 1/2SM R05/5000FT/N R06L/4000VP6000FT/U FG OVC002 07/07 A2990 RMK FG6SF2 SLP129

CYYZ;2009-11-15 07:10;CYYZ 150710Z 00000KT 1/4SM R05/3500V5500FT/D R06L/5500FT/D FG VV001 07/ RMK FG8

CYYZ;2009-11-15 07:30;CYYZ 150730Z 00000KT 1/8SM R05/2000FT/N R06L/3500V5500FT/D FG VV001 07/ RMK FG8

CYYZ;2009-11-15 08:00;CYYZ 150800Z 00000KT 1/8SM R05/1600FT/N R06L/1400V2000FT/N FG VV001 08/08 A2990 RMK FG8 SLP127

CYYZ;2009-11-15 09:00;CYYZ 150900Z 00000KT 1/8SM R05/1600FT/N R06L/1600FT/N FG VV001 07/07 A2989 RMK FG8 SLP125

CYYZ;2009-11-15 10:00;CYYZ 151000Z 00000KT 1/8SM R05/1800FT/N R06L/1800FT/N FG VV001 07/07 A2990 RMK FG8 SLP129

CYYZ;2009-11-15 10:35;CYYZ 151035Z 27002KT 1/4SM R05/P6000FT/U R06L/2800FT/N FG VV003 07/ RMK FG8

CYYZ;2009-11-15 11:00;CYYZ 151100Z 00000KT 1/8SM R05/P6000FT/N R06L/1400FT/N FG VV001 07/07 A2990 RMK FG8 SLP128

CYYZ;2009-11-15 11:27;CYYZ 151127Z 00000KT 3/8SM R05/P6000FT/N R06L/1600V2200FT/N FG SCT001 OVC046 07/ RMK FG3ST1SC4

CYYZ;2009-11-15 11:36;CYYZ 151136Z 00000KT 5/8SM R05/P6000FT/N R06L/2600VP6000FT/U BR SCT001 OVC046 08/ RMK FG3ST1SC4

CYYZ;2009-11-15 11:45;CYYZ 151145Z 25002KT 1SM R05/P6000FT/N R06L/P6000FT/U BR SCT002 OVC046 07/ RMK FG3ST1SC4

CYYZ;2009-11-15 11:50;CYYZ 151150Z 25003KT 2SM BR SCT002 OVC046 07/ RMK FG3ST1SC4 VIS SW 4

CYYZ;2009-11-15 12:00;CYYZ 151200Z 19002KT 5SM BR FEW002 OVC046 07/07 A2991 RMK SC2SC6 SLP131

CYYZ;2009-11-15 13:00;CYYZ 151300Z 20002KT 6SM BR OVC051 08/08 A2992 RMK SC8 SLP135

CYYZ;2009-11-15 14:00;CYYZ 151400Z 18002KT 8SM OVC053 08/08 A2991 RMK SC8 BR SLP133

CYYZ;2009-11-15 15:00;CYYZ 151500Z 25003KT 8SM BKN036 OVC053 09/08 A2993 RMK SC6SC2 BR SLP138

CYYZ;2009-11-15 16:00;CYYZ 151600Z 25004KT 8SM OVC036 10/09 A2994 RMK SC8 BR SLP141

CYYZ;2009-11-15 17:00;CYYZ 151700Z 28003KT 9SM OVC049 12/10 A2993 RMK SC8 BR SLP138

CYYZ;2009-11-15 18:00;CYYZ 151800Z 31012KT 9SM OVC048 13/10 A2993 RMK SC8 HZ SLP140

CYYZ;2009-11-15 19:00;CYYZ 151900Z 31010KT 7SM FEW023 OVC048 13/09 A2994 RMK SC2SC6 HZ SLP143

CYYZ;2009-11-15 20:00;CYYZ 152000Z 32017KT 7SM FEW020 BKN026 OVC043 12/09 A2996 RMK SC2SC4SC2 HZ SLP150

CYYZ;2009-11-15 21:00;CYYZ 152100Z 31015G20KT 15SM SCT026 BKN110 11/07 A3000 RMK SC3AC3 SLP163

CYYZ;2009-11-15 22:00;CYYZ 152200Z 29012KT 15SM FEW025 BKN120 BKN220 09/05 A3003 RMK SC2AC2CC2 SLP172

CYYZ;2009-11-15 23:00;CYYZ 152300Z 31013KT 15SM FEW028 FEW120 SCT180 BKN220 08/03 A3007 RMK SC1AC1AC2CC2 SLP186

CYYZ;2009-11-16 00:00;CYYZ 160000Z 32019KT 15SM BKN230 06/01 A3010 RMK CI2 SLP197

CYYZ;2009-11-16 01:00;CYYZ 160100Z 31010G15KT 15SM FEW260 05/01 A3010 RMK CI0 SLP199

CYYZ;2009-11-16 02:00;CYYZ 160200Z 31009KT 15SM FEW080 FEW230 04/00 A3011 RMK AC1CI0 SLP202

CYYZ;2009-11-16 03:00;CYYZ 160300Z 28005KT 15SM FEW070 FEW200 03/M00 A3013 RMK AC1CI0 SLP209

CYYZ;2009-11-16 04:00;CYYZ 160400Z 29007KT 15SM FEW060 BKN200 03/00 A3014 RMK SC1CC2 SLP212

CYYZ;2009-11-16 05:00;CYYZ 160500Z 30004KT 15SM FEW028 BKN200 04/01 A3016 RMK SC1CC6 SLP217

CYYZ;2009-11-16 06:00;CYYZ 160600Z 32008KT 15SM FEW030 BKN200 05/00 A3015 RMK SC1CC7 SLP215

CYYZ;2009-11-16 07:00;CYYZ 160700Z 30006KT 15SM SCT027 BKN200 04/01 A3017 RMK SC3CC4 SLP221

CYYZ;2009-11-16 08:00;CYYZ 160800Z 30005KT 15SM BKN028 BKN200 04/01 A3019 RMK SC5CC2 SLP226

CYYZ;2009-11-16 09:00;CYYZ 160900Z 36007KT 15SM BKN160 04/01 A3020 RMK AC6 SLP233

CYYZ;2009-11-16 10:00;CYYZ 161000Z 36009KT 15SM OVC170 04/M01 A3022 RMK AC7 SLP237

CYYZ;2009-11-16 11:00;CYYZ 161100Z 36008KT 15SM OVC150 04/M01 A3022 RMK AC8 SLP240

CYYZ;2009-11-16 12:00;CYYZ 161200Z 03005KT 15SM BKN150 04/M02 A3024 RMK AC7 SLP247

CYYZ;2009-11-16 13:00;CYYZ 161300Z 02006KT 15SM BKN150 OVC220 04/M02 A3025 RMK AC7CI1 SLP249

CYYZ;2009-11-16 14:00;CYYZ 161400Z 01005KT 15SM FEW130 BKN170 BKN220 04/M02 A3026 RMK AC2AC5CI1 SLP253

CYYZ;2009-11-16 15:00;CYYZ 161500Z 01011KT 15SM BKN150 05/M02 A3026 RMK AC6 SLP255

CYYZ;2009-11-16 16:00;CYYZ 161600Z 02009KT 15SM FEW040 BKN150 06/M01 A3027 RMK SC1AC6 SLP258

CYYZ;2009-11-16 17:00;CYYZ 161700Z 35009KT 15SM FEW040 SCT150 BKN240 07/M00 A3025 RMK SC1AC2CI0 SLP251

CYYZ;2009-11-16 18:00;CYYZ 161800Z 35007KT 15SM SCT150 BKN250 08/M01 A3023 RMK AC2CI0 SLP242

CYYZ;2009-11-16 19:00;CYYZ 161900Z 36006KT 15SM FEW150 BKN250 08/M01 A3022 RMK AC2CI1 SLP239

CYYZ;2009-11-16 20:00;CYYZ 162000Z 01008KT 15SM FEW140 BKN250 08/M01 A3022 RMK AC2CI2 SLP238

CYYZ;2009-11-16 21:00;CYYZ 162100Z 01007KT 15SM SCT140 BKN250 07/M01 A3022 RMK AC2CI0 SLP240

CYYZ;2009-11-16 22:00;CYYZ 162200Z 20010KT 15SM FEW140 BKN260 06/M03 A3022 RMK AC2CI0 SLP241

CYYZ;2009-11-16 23:00;CYYZ 162300Z 36011KT 15SM FEW130 SCT240 05/M03 A3024 RMK AC1CI0 SLP245

CYYZ;2009-11-17 00:00;CYYZ 170000Z 35010KT 15SM SKC 04/M01 A3025 RMK SLP250

CYYZ;2009-11-17 01:00;CYYZ 170100Z 36009KT 15SM SKC 04/M01 A3025 RMK SLP252

CYYZ;2009-11-17 02:00;CYYZ 170200Z 36009KT 15SM SKC 03/M01 A3026 RMK SLP255

CYYZ;2009-11-17 03:00;CYYZ 170300Z 02005KT 15SM SKC 01/M01 A3027 RMK SLP257

CYYZ;2009-11-17 04:00;CYYZ 170400Z 27003KT 15SM SKC 01/M01 A3029 RMK SLP264

CYYZ;2009-11-17 05:00;CYYZ 170500Z 31004KT 15SM SKC 01/M01 A3029 RMK SLP263

CYYZ;2009-11-17 06:00;CYYZ 170600Z 34008KT 15SM SKC 01/M01 A3029 RMK SLP265

CYYZ;2009-11-17 07:00;CYYZ 170700Z 36003KT 15SM SKC 01/M01 A3030 RMK SLP267

CYYZ;2009-11-17 08:00;CYYZ 170800Z 01003KT 15SM SKC M00/M01 A3031 RMK FROIN SLP270

CYYZ;2009-11-17 09:00;CYYZ 170900Z 02004KT 15SM FEW270 M00/M02 A3031 RMK CI0 FROIN SLP271

CYYZ;2009-11-17 10:00;CYYZ 171000Z CCA 02006KT 15SM FEW270 M01/M03 A3032 RMK CI1 FROIN SLP275

CYYZ;2009-11-17 11:00;CYYZ 171100Z 01007KT 15SM SKC M02/M04 A3033 RMK SLP278

CYYZ;2009-11-17 12:00;CYYZ 171200Z 02007KT 15SM FEW025 M02/M04 A3034 RMK SC1 SLP283

CYYZ;2009-11-17 13:00;CYYZ 171300Z 02006KT 15SM FEW025 M01/M03 A3036 RMK SC1 SLP287

CYYZ;2009-11-17 14:00;CYYZ 171400Z 04006KT 15SM FEW025 02/M02 A3036 RMK SC1 SLP289

CYYZ;2009-11-17 15:00;CYYZ 171500Z 07007KT 15SM FEW025 04/M01 A3037 RMK SC1 SLP291

CYYZ;2009-11-17 16:00;CYYZ 171600Z 09008KT 15SM FEW025 06/M00 A3037 RMK CF1 SLP291

CYYZ;2009-11-17 17:00;CYYZ 171700Z 11008KT 15SM FEW030 07/01 A3036 RMK CF2 SLP288

CYYZ;2009-11-17 18:00;CYYZ 171800Z 08009KT 15SM FEW030 FEW240 07/00 A3034 RMK CF2CI1 CI TR SLP281

CYYZ;2009-11-17 19:00;CYYZ 171900Z 10008KT 15SM FEW030 FEW240 07/00 A3033 RMK CF2CI1 CI TR SLP276

CYYZ;2009-11-17 20:00;CYYZ 172000Z 09009KT 15SM FEW030 FEW240 07/M00 A3032 RMK CF1CI1 CF TR SLP274

CYYZ;2009-11-17 21:00;CYYZ 172100Z 11007KT 15SM FEW030 FEW240 06/M00 A3033 RMK CF1CI1 CF TR SLP277

CYYZ;2009-11-17 22:00;CYYZ 172200Z 09008KT 15SM FEW250 05/00 A3032 RMK CI1 SLP274

CYYZ;2009-11-17 23:00;CYYZ 172300Z 08007KT 15SM FEW250 05/01 A3032 RMK CI1 SLP276

CYYZ;2009-11-18 00:00;CYYZ 180000Z 07005KT 15SM FEW250 04/01 A3033 RMK CI1 SLP279

CYYZ;2009-11-18 01:00;CYYZ 180100Z 07004KT 15SM SKC 04/01 A3034 RMK SLP281

CYYZ;2009-11-18 01:45;CYYZ 180145Z 05004KT 15SM SKC 02/

CYYZ;2009-11-18 02:00;CYYZ 180200Z 06003KT 15SM SKC 03/00 A3034 RMK SLP280

CYYZ;2009-11-18 03:00;CYYZ 180300Z 05005KT 15SM FEW030 02/M00 A3034 RMK SF1 SLP283

CYYZ;2009-11-18 04:00;CYYZ 180400Z 05005KT 15SM FEW030 03/01 A3034 RMK SF1 SLP281

CYYZ;2009-11-18 05:00;CYYZ 180500Z 06005KT 15SM FEW020 01/M01 A3034 RMK SF1 SLP283

CYYZ;2009-11-18 05:40;CYYZ 180540Z 06005KT 15SM BKN013 02/ RMK SF5

CYYZ;2009-11-18 06:00;CYYZ 180600Z 05005KT 15SM BKN013 01/M01 A3034 RMK SF6 SLP280

CYYZ;2009-11-18 07:00;CYYZ 180700Z 03004KT 15SM BKN013 01/M01 A3034 RMK SF6 SLP279

CYYZ;2009-11-18 08:00;CYYZ 180800Z 04006KT 15SM FEW012 01/M00 A3033 RMK SF2 SLP278

CYYZ;2009-11-18 09:00;CYYZ 180900Z 05005KT 15SM FEW012 01/M01 A3033 RMK ST2 SLP276

CYYZ;2009-11-18 09:52;CYYZ 180952Z 06007KT 15SM OVC006 03/ RMK ST7

CYYZ;2009-11-18 10:00;CYYZ 181000Z 06006KT 15SM OVC005 03/02 A3032 RMK ST8 SLP274

CYYZ;2009-11-18 11:00;CYYZ 181100Z 08007KT 10SM OVC005 04/03 A3032 RMK ST8 SLP275

CYYZ;2009-11-18 12:00;CYYZ 181200Z 09009KT 10SM OVC006 04/04 A3033 RMK ST8 SLP277

CYYZ;2009-11-18 13:00;CYYZ 181300Z 08009KT 10SM SCT007 BKN120 05/04 A3032 RMK SC4AC2 SLP274

CYYZ;2009-11-18 14:00;CYYZ 181400Z 10011KT 12SM FEW020 FEW140 07/05 A3033 RMK CF1AC2 SLP276

CYYZ;2009-11-18 15:00;CYYZ 181500Z 10012KT 15SM FEW020 FEW160 09/04 A3033 RMK CF1AC2 SLP278

CYYZ;2009-11-18 16:00;CYYZ 181600Z 11013KT 15SM FEW025 FEW160 10/03 A3032 RMK CU1AC2 SLP275

CYYZ;2009-11-18 17:00;CYYZ 181700Z 10012KT 15SM SCT150 10/02 A3030 RMK AC2 SLP267

CYYZ;2009-11-18 18:00;CYYZ 181800Z 09008KT 15SM SCT150 11/00 A3029 RMK AC2 SLP263

CYYZ;2009-11-18 19:00;CYYZ 181900Z 09008KT 15SM FEW160 11/00 A3028 RMK AC2 SLP259

CYYZ;2009-11-18 20:00;CYYZ 182000Z 08009KT 15SM FEW160 10/02 A3028 RMK AC2 SLP259

CYYZ;2009-11-18 21:00;CYYZ 182100Z 09009KT 15SM FEW160 09/03 A3028 RMK AC2 SLP259

CYYZ;2009-11-18 22:00;CYYZ 182200Z 09009KT 15SM FEW160 08/03 A3027 RMK AC2 SLP255

CYYZ;2009-11-18 23:00;CYYZ 182300Z 08005KT 15SM FEW150 08/04 A3028 RMK AC2 SLP260

CYYZ;2009-11-19 00:00;CYYZ 190000Z 07005KT 15SM FEW120 07/04 A3028 RMK AC1 SLP259

CYYZ;2009-11-19 01:00;CYYZ 190100Z 06003KT 15SM FEW120 06/04 A3027 RMK AC1 SLP255

CYYZ;2009-11-19 02:00;CYYZ 190200Z 02004KT 15SM SKC 06/04 A3026 RMK SLP253

CYYZ;2009-11-19 03:00;CYYZ 190300Z 06003KT 15SM SKC 06/04 A3025 RMK SLP249

CYYZ;2009-11-19 04:00;CYYZ 190400Z 00000KT 15SM SKC 04/03 A3026 RMK SLP252

CYYZ;2009-11-19 05:00;CYYZ 190500Z 00000KT 12SM FEW090 03/02 A3025 RMK AC2 SLP249

CYYZ;2009-11-19 06:00;CYYZ 190600Z 34002KT 12SM SCT080 02/02 A3023 RMK AC3 SLP242

CYYZ;2009-11-19 07:00;CYYZ 190700Z 02004KT 12SM FEW040 SCT130 BKN140 05/04 A3022 RMK SC2AC2AC3 SLP238

CYYZ;2009-11-19 08:00;CYYZ 190800Z 00000KT 12SM FEW040 SCT130 BKN140 04/03 A3022 RMK SC2AC2AC3 SLP240

CYYZ;2009-11-19 09:00;CYYZ 190900Z 11002KT 12SM FEW035 BKN110 BKN130 05/04 A3022 RMK SC2AC3AC2 SLP238

CYYZ;2009-11-19 10:00;CYYZ 191000Z 05005KT 12SM -SHRA FEW035 BKN087 BKN110 07/06 A3019 RMK SC2AC3AC2 SLP230

CYYZ;2009-11-19 11:00;CYYZ 191100Z 09003KT 10SM -SHRA BKN023 OVC070 07/07 A3019 RMK SC6AC2 SLP230

CYYZ;2009-11-19 12:00;CYYZ 191200Z 09006KT 10SM -SHRA BKN023 OVC078 07/07 A3019 RMK SC6AC2 SLP227

CYYZ;2009-11-19 12:22;CYYZ 191222Z 09005KT 10SM FEW017 OVC023 07/ RMK SC2SC6

CYYZ;2009-11-19 13:00;CYYZ 191300Z 10005KT 8SM OVC022 08/07 A3019 RMK SC8 SLP230

CYYZ;2009-11-19 13:06;CYYZ 191306Z 10006KT 8SM -SHRA OVC022 08/ RMK SC8

CYYZ;2009-11-19 13:28;CYYZ 191328Z 10007KT 5SM -SHRA BR BKN013 OVC024 08/ RMK SC5SC3

CYYZ;2009-11-19 14:00;CYYZ 191400Z 10005KT 3SM -RA BR BKN011 OVC024 08/08 A3019 RMK SC6SC2 SLP229

CYYZ;2009-11-19 14:24;CYYZ 191424Z 09006KT 4SM -RA BR BKN005 OVC019 08/ RMK SF5SC3

CYYZ;2009-11-19 15:00;CYYZ 191500Z 10005KT 5SM -RA BR BKN004 OVC011 08/08 A3017 RMK SF5SC3 SLP221

CYYZ;2009-11-19 15:20;CYYZ 191520Z 10005KT 5SM BR BKN003 OVC011 08/ RMK SF5SC3

CYYZ;2009-11-19 16:00;CYYZ 191600Z 10003KT 4SM BR BKN003 OVC012 09/09 A3015 RMK SF6SC2 SLP216

CYYZ;2009-11-19 16:20;CYYZ 191620Z 09003KT 2 1/2SM -DZ BR OVC003 09/ RMK ST8

CYYZ;2009-11-19 16:42;CYYZ 191642Z 10005KT 1 1/2SM -RA BR OVC002 09/ RMK ST8

CYYZ;2009-11-19 17:00;CYYZ 191700Z 10004KT 1 1/2SM -RA BR OVC002 09/09 A3013 RMK ST8 SLP208

CYYZ;2009-11-19 17:41;CYYZ 191741Z 10006KT 3SM -RA BR OVC003 10/ RMK ST8

CYYZ;2009-11-19 18:00;CYYZ 191800Z 10007KT 4SM -RA BR OVC004 10/10 A3009 RMK SF8 SLP196

CYYZ;2009-11-19 18:18;CYYZ 191818Z 10007KT 4SM BR BKN003 OVC009 10/ RMK SF5SC3

CYYZ;2009-11-19 19:00;CYYZ 191900Z 09007KT 2 1/2SM BR OVC002 10/10 A3007 RMK SF8 SLP189

CYYZ;2009-11-19 19:45;CYYZ 191945Z 12004KT 2 1/2SM -RA BR OVC002 10/ RMK SF8

CYYZ;2009-11-19 20:00;CYYZ 192000Z 11004KT 3SM -RA BR OVC003 10/10 A3007 RMK SF8 SLP187

CYYZ;2009-11-19 21:00;CYYZ 192100Z 12004KT 3SM RA BR OVC003 10/09 A3006 RMK SF8 TCU EMBD SLP183

CYYZ;2009-11-19 22:00;CYYZ 192200Z 09003KT 4SM -RA BR OVC003 10/09 A3004 RERA RMK SF8 SLP176

CYYZ;2009-11-19 23:00;CYYZ 192300Z 11005KT 4SM -RA BR OVC002 10/10 A3004 RMK SF8 SLP176

CYYZ;2009-11-19 23:25;CYYZ 192325Z 12004KT 5/8SM R05/P6000FT/N R06R/P6000FT/D -RA BR OVC001 09/ RMK FG3SF5

CYYZ;2009-11-19 23:40;CYYZ 192340Z 13004KT 5/8SM R05/3500VP6000FT/D R06R/3000FT/N -DZ BR OVC001 09/ RMK FG4SF4

CYYZ;2009-11-20 00:00;CYYZ 200000Z 16003KT 5/8SM R06L/2800FT/N R06R/3000FT/U -DZ BR OVC001 09/09 A3002 RMK FG4SF4 RVR05 3000 V 4500 U SLP171

CYYZ;2009-11-20 00:07;CYYZ 200007Z 15004KT 1/8SM R05/3000FT/N R06L/2200FT/N -DZ FG VV001 09/ RMK FG8

CYYZ;2009-11-20 01:00;CYYZ 200100Z 15004KT 1/8SM R05/2200FT/N R06L/1800FT/N -DZ FG VV001 09/09 A3001 RMK FG8 SLP167

CYYZ;2009-11-20 02:00;CYYZ 200200Z 19003KT 1/8SM R05/4500VP6000FT/U R06L/3500FT/N -DZ FG VV001 09/09 A3001 RMK FG8 PCPN VRY LGT SLP167

CYYZ;2009-11-20 02:08;CYYZ 200208Z CCA 23003KT 1/4SM R05/P6000FT/D R06L/3500VP6000FT/U -SHRA FG VV002 09/ RMK FG8

CYYZ;2009-11-20 02:13;CYYZ 200213Z 23003KT 4SM -SHRA BR OVC002 09/ RMK SF8 VIS 13/4 NE

CYYZ;2009-11-20 02:30;CYYZ 200230Z 25009KT 10SM SCT006 OVC012 09/ RMK SF4SF4

CYYZ;2009-11-20 02:34;CYYZ 200234Z 26009KT 12SM FEW007 SCT025 OVC045 09/ RMK SF2SC2SC4

CYYZ;2009-11-20 02:52;CYYZ 200252Z 23016KT 6SM -SHRA BR BKN014 OVC019 09/ RMK SF5SC3

CYYZ;2009-11-20 03:00;CYYZ 200300Z 25013G20KT 4SM -SHRA BR FEW007 SCT017 BKN028 OVC034 08/08 A3001 RMK SF2SC2SC2SC2 SLP167

CYYZ;2009-11-20 04:00;CYYZ 200400Z 28007KT 4SM -SHRA BR FEW022 SCT030 OVC050 08/08 A3000 RMK SC2SC2SC4 SLP163

CYYZ;2009-11-20 05:00;CYYZ 200500Z 27010KT 8SM -SHRA BKN050 OVC070 08/07 A2999 RMK SC5AC3 PCPN VRY LGT BR SLP159

CYYZ;2009-11-20 06:00;CYYZ 200600Z 26011KT 10SM -SHRA OVC025 07/06 A3000 RMK SC8 PCPN VRY LGT SLP162

CYYZ;2009-11-20 07:00;CYYZ 200700Z 26012G19KT 10SM -SHRA OVC032 06/05 A3001 RMK SC8 SLP166

CYYZ;2009-11-20 08:00;CYYZ 200800Z 25010KT 10SM -SHRA OVC076 06/05 A3000 RMK AC8 PCPN VRY LGT SLP163

CYYZ;2009-11-20 09:00;CYYZ 200900Z 26011KT 15SM BKN075 BKN085 06/05 A2999 RMK AC5AC2 SLP161

CYYZ;2009-11-20 10:00;CYYZ 201000Z 25007KT 15SM FEW035 BKN080 05/04 A2999 RMK SC2AC3 SLP161

CYYZ;2009-11-20 11:00;CYYZ 201100Z 26006KT 12SM FEW035 BKN130 05/04 A3000 RMK SC2AC3 SLP162

CYYZ;2009-11-20 12:00;CYYZ 201200Z 24010KT 10SM FEW032 BKN120 05/04 A3001 RMK SC1AC3 SLP165

CYYZ;2009-11-20 13:00;CYYZ 201300Z 25010KT 10SM FEW043 SCT120 05/04 A3000 RMK SC1AC2 SLP164

CYYZ;2009-11-20 14:00;CYYZ 201400Z 25011KT 12SM BKN029 07/05 A3000 RMK SC7 SLP164

CYYZ;2009-11-20 15:00;CYYZ 201500Z 26018KT 12SM BKN029 BKN120 08/05 A3001 RMK SC7AC1 SLP166

CYYZ;2009-11-20 16:00;CYYZ 201600Z 26020G26KT 12SM BKN024 08/05 A3001 RMK SC7 SLP166

CYYZ;2009-11-20 17:00;CYYZ 201700Z 27020G27KT 15SM BKN029 09/05 A2999 RMK SC5 SLP161

CYYZ;2009-11-20 18:00;CYYZ 201800Z 27019G27KT 15SM BKN031 10/05 A3000 RMK SC5 SLP162

CYYZ;2009-11-20 19:00;CYYZ 201900Z 27025KT 15SM BKN032 BKN041 09/04 A3001 RMK SC6SC2 SLP165

CYYZ;2009-11-20 20:00;CYYZ 202000Z 27014G20KT 15SM FEW030 BKN049 09/05 A3002 RMK SC1SC6 SLP169

CYYZ;2009-11-20 21:00;CYYZ 202100Z 25012G20KT 15SM BKN034 09/04 A3001 RMK SC6 SLP168

CYYZ;2009-11-20 22:00;CYYZ 202200Z 25011KT 15SM FEW030 FEW230 07/04 A3004 RMK SC2CI1 SLP175

CYYZ;2009-11-20 23:00;CYYZ 202300Z 24008KT 15SM FEW030 FEW120 07/05 A3005 RMK SC1AC1 SLP179

CYYZ;2009-11-21 00:00;CYYZ 210000Z 26008KT 15SM FEW020 06/05 A3006 RMK SF1 SLP183

CYYZ;2009-11-21 01:00;CYYZ 210100Z 24008KT 15SM SKC 06/05 A3007 RMK SLP186

CYYZ;2009-11-21 02:00;CYYZ 210200Z 25006KT 15SM FEW250 05/04 A3007 RMK CI2 SLP188

CYYZ;2009-11-21 03:00;CYYZ 210300Z 28004KT 12SM SKC 04/04 A3007 RMK SLP187

CYYZ;2009-11-21 04:00;CYYZ 210400Z 26002KT 15SM BKN018 BKN250 05/04 A3007 RMK SF4CI0 SLP188

CYYZ;2009-11-21 05:00;CYYZ 210500Z 22002KT 15SM BKN230 05/05 A3008 RMK CI3 SLP190

CYYZ;2009-11-21 06:00;CYYZ 210600Z 25006KT 15SM FEW020 BKN240 04/03 A3009 RMK ST1CI3 SLP193

CYYZ;2009-11-21 07:00;CYYZ 210700Z 24003KT 15SM FEW020 BKN230 04/04 A3009 RMK ST1CI3 SLP193

CYYZ;2009-11-21 08:00;CYYZ 210800Z 26005KT 15SM FEW020 BKN200 04/04 A3009 RMK ST1CI5 SLP194

CYYZ;2009-11-21 09:00;CYYZ 210900Z 27003KT 15SM OVC020 05/04 A3008 RMK SC7 SLP192

CYYZ;2009-11-21 10:00;CYYZ 211000Z 26005KT 15SM OVC020 06/05 A3009 RMK ST8 SLP195

CYYZ;2009-11-21 11:00;CYYZ 211100Z 24006KT 15SM OVC017 06/05 A3010 RMK ST8 SLP197

CYYZ;2009-11-21 12:00;CYYZ 211200Z 24005KT 12SM OVC016 06/05 A3012 RMK ST8 SLP204

CYYZ;2009-11-21 13:00;CYYZ 211300Z 26004KT 10SM OVC015 06/06 A3013 RMK ST8 SLP209

CYYZ;2009-11-21 14:00;CYYZ 211400Z 25005KT 12SM BKN022 BKN140 07/07 A3015 RMK SC6AC1 SLP214

CYYZ;2009-11-21 15:00;CYYZ 211500Z 25003KT 15SM FEW026 SCT250 09/07 A3016 RMK SC2CI1 SLP217

CYYZ;2009-11-21 16:00;CYYZ 211600Z 27004KT 15SM FEW019 BKN025 09/06 A3016 RMK CU2SC2 SLP220

CYYZ;2009-11-21 17:00;CYYZ 211700Z 26003KT 15SM BKN029 11/06 A3016 RMK SC6 SLP218

CYYZ;2009-11-21 18:00;CYYZ 211800Z 32004KT 15SM BKN029 11/05 A3015 RMK SC6 SLP215

CYYZ;2009-11-21 19:00;CYYZ 211900Z 00000KT 15SM BKN032 11/05 A3015 RMK SC7 SLP214

CYYZ;2009-11-21 20:00;CYYZ 212000Z 15006KT 15SM BKN032 10/06 A3016 RMK SC7 SLP217

CYYZ;2009-11-21 21:00;CYYZ 212100Z 16006KT 15SM BKN032 10/06 A3017 RMK SC7 SLP222

CYYZ;2009-11-21 22:00;CYYZ 212200Z 17003KT 15SM BKN027 09/06 A3018 RMK SC7 SLP225

CYYZ;2009-11-21 23:00;CYYZ 212300Z 27004KT 15SM BKN035 09/06 A3020 RMK SC7 SLP232

CYYZ;2009-11-22 00:00;CYYZ 220000Z 29008KT 15SM BKN032 08/05 A3021 RMK SC5 SLP236

CYYZ;2009-11-22 01:00;CYYZ 220100Z 31007KT 15SM BKN030 08/05 A3022 RMK SC5 SLP238

CYYZ;2009-11-22 02:00;CYYZ 220200Z 32008KT 15SM SCT030 07/05 A3023 RMK SC3 SLP242

CYYZ;2009-11-22 03:00;CYYZ 220300Z 32007KT 15SM FEW030 07/05 A3024 RMK SC2 SLP245

CYYZ;2009-11-22 04:00;CYYZ 220400Z 31004KT 15SM FEW030 06/04 A3024 RMK SC1 SLP245

CYYZ;2009-11-22 05:00;CYYZ 220500Z 29004KT 15SM SCT220 06/04 A3025 RMK CI3 SLP248

CYYZ;2009-11-22 06:00;CYYZ 220600Z 31004KT 15SM OVC028 05/04 A3026 RMK SC8 SLP251

CYYZ;2009-11-22 07:00;CYYZ 220700Z 36003KT 15SM OVC027 06/05 A3027 RMK SC8 SLP255

CYYZ;2009-11-22 08:00;CYYZ 220800Z 30003KT 15SM BKN028 06/04 A3028 RMK SC7 SLP260

CYYZ;2009-11-22 09:00;CYYZ 220900Z 25002KT 15SM OVC028 06/04 A3029 RMK SC8 SLP263

CYYZ;2009-11-22 10:00;CYYZ 221000Z 30004KT 15SM BKN028 06/04 A3030 RMK SC7 SLP266

CYYZ;2009-11-22 11:00;CYYZ 221100Z 30004KT 15SM BKN028 06/04 A3031 RMK SC7 SLP270

CYYZ;2009-11-22 12:00;CYYZ 221200Z 33003KT 15SM BKN028 07/04 A3034 RMK SC7 SLP278

CYYZ;2009-11-22 13:00;CYYZ 221300Z 33005KT 12SM SCT029 06/04 A3034 RMK SC4 SLP281

CYYZ;2009-11-22 14:00;CYYZ 221400Z 32004KT 15SM SCT029 07/04 A3036 RMK SC3 SLP285

CYYZ;2009-11-22 15:00;CYYZ 221500Z 05003KT 15SM FEW030 09/04 A3036 RMK SC2 SLP286

CYYZ;2009-11-22 16:00;CYYZ 221600Z 08002KT 15SM FEW022 SCT028 10/05 A3036 RMK CU2SC2 SLP285

CYYZ;2009-11-22 17:00;CYYZ 221700Z 17007KT 15SM BKN029 10/05 A3034 RMK SC5 SLP280

CYYZ;2009-11-22 18:00;CYYZ 221800Z 17007KT 15SM BKN026 10/05 A3032 RMK SC5 SLP273

CYYZ;2009-11-22 19:00;CYYZ 221900Z 13006KT 15SM FEW018 BKN026 09/05 A3031 RMK CF1SC6 CF TR SLP270

CYYZ;2009-11-22 20:00;CYYZ 222000Z 13007KT 12SM SCT029 09/06 A3030 RMK SC3 SLP266

CYYZ;2009-11-22 21:00;CYYZ 222100Z 12007KT 12SM FEW029 09/05 A3030 RMK CU1 SLP266

CYYZ;2009-11-22 22:00;CYYZ 222200Z 11004KT 12SM FEW025 08/05 A3032 RMK SC1 SLP273

CYYZ;2009-11-22 23:00;CYYZ 222300Z 07004KT 15SM SKC 07/04 A3035 RMK SLP281

CYYZ;2009-11-23 00:00;CYYZ 230000Z 06007KT 15SM FEW030 07/05 A3036 RMK SC2 SLP285

CYYZ;2009-11-23 01:00;CYYZ 230100Z 06006KT 12SM BKN029 07/05 A3037 RMK SC7 SLP291

CYYZ;2009-11-23 02:00;CYYZ 230200Z 06005KT 12SM BKN026 06/05 A3037 RMK SC5 SLP288

CYYZ;2009-11-23 03:00;CYYZ 230300Z 05005KT 12SM FEW030 05/04 A3036 RMK SC1 SLP287

CYYZ;2009-11-23 04:00;CYYZ 230400Z 07006KT 12SM FEW030 05/04 A3034 RMK SC1 SLP281

CYYZ;2009-11-23 05:00;CYYZ 230500Z 06004KT 12SM SKC 05/04 A3034 RMK SLP279

CYYZ;2009-11-23 06:00;CYYZ 230600Z 04005KT 10SM FEW012 SCT030 03/03 A3032 RMK SF1SC2 SLP272

CYYZ;2009-11-23 07:00;CYYZ 230700Z 08003KT 7SM FEW010 SCT016 04/04 A3032 RMK SF2SC2 SLP274

CYYZ;2009-11-23 08:00;CYYZ 230800Z 09006KT 7SM FEW007 BKN012 07/06 A3032 RMK SF2SC4 SLP272

CYYZ;2009-11-23 09:00;CYYZ 230900Z 12004KT 10SM FEW007 BKN014 06/05 A3033 RMK SF2SC3 SLP276

CYYZ;2009-11-23 10:00;CYYZ 231000Z 11006KT 12SM FEW010 FEW022 06/05 A3034 RMK SF2SC1 SLP278

CYYZ;2009-11-23 11:00;CYYZ 231100Z 07004KT 12SM FEW240 05/04 A3032 RMK CI1 SLP274

CYYZ;2009-11-23 12:00;CYYZ 231200Z 06004KT 10SM FEW016 FEW120 FEW250 06/05 A3032 RMK SC1AC1CI1 SLP273

CYYZ;2009-11-23 12:51;CYYZ 231251Z 06003KT 4SM BR FEW006 05/ RMK ST2

CYYZ;2009-11-23 13:00;CYYZ 231300Z 06004KT 4SM BR FEW006 05/05 A3034 RMK ST2 SLP278

CYYZ;2009-11-23 13:53;CYYZ 231353Z 09005KT 4SM BR BKN009 06/ RMK SC6

CYYZ;2009-11-23 14:00;CYYZ 231400Z 09005KT 4SM BR BKN009 06/05 A3034 RMK SC6 SLP279

CYYZ;2009-11-23 14:36;CYYZ 231436Z 09004KT 5SM BR BKN011 07/ RMK SC5

CYYZ;2009-11-23 15:00;CYYZ 231500Z 09008KT 6SM BR SCT012 07/05 A3034 RMK SC3 SLP279

CYYZ;2009-11-23 16:00;CYYZ 231600Z 08002KT 8SM FEW018 09/05 A3033 RMK SC2 BR SLP277

CYYZ;2009-11-23 17:00;CYYZ 231700Z CCA 14008KT 9SM FEW021 09/06 A3031 RMK SC2 BR SLP270

CYYZ;2009-11-23 18:00;CYYZ 231800Z 09008KT 10SM SCT015 BKN150 09/05 A3029 RMK SC3AC1 SLP262

CYYZ;2009-11-23 18:21;CYYZ 231821Z 08009KT 10SM BKN015 BKN140 BKN230 08/ RMK SC6AC1CI1

CYYZ;2009-11-23 19:00;CYYZ 231900Z 07008KT 15SM BKN019 BKN140 BKN230 08/05 A3028 RMK SC6AC1CI1 SLP260

CYYZ;2009-11-23 20:00;CYYZ 232000Z 08008G15KT 12SM BKN018 BKN140 BKN230 08/04 A3028 RMK SC5AC1CI0 SLP259

CYYZ;2009-11-23 21:00;CYYZ 232100Z 08008KT 10SM BKN015 BKN230 07/04 A3028 RMK SC5CI2 SLP257

CYYZ;2009-11-23 22:00;CYYZ 232200Z 09009KT 8SM BKN016 OVC210 07/05 A3027 RMK SC6CI2 SLP254

CYYZ;2009-11-23 23:00;CYYZ 232300Z 08012KT 8SM FEW011 BKN016 BKN220 07/05 A3027 RMK SC2SC3CI1 SLP255

CYYZ;2009-11-24 00:00;CYYZ 240000Z 09011KT 10SM BKN012 07/05 A3028 RMK SC7 SLP258

CYYZ;2009-11-24 01:00;CYYZ 240100Z 08011KT 10SM BKN010 07/05 A3026 RMK SC7 SLP254

CYYZ;2009-11-24 02:00;CYYZ 240200Z 06006KT 10SM BKN011 07/05 A3025 RMK SC7 SLP251

CYYZ;2009-11-24 03:00;CYYZ 240300Z 06008KT 12SM SCT011 BKN036 06/05 A3024 RMK SC3SC4 SLP245

CYYZ;2009-11-24 04:00;CYYZ 240400Z 05005KT 12SM SCT011 BKN036 06/05 A3023 RMK SC3SC4 SLP241

CYYZ;2009-11-24 05:00;CYYZ 240500Z 05005KT 12SM FEW010 OVC034 06/05 A3022 RMK SC2SC6 SLP237

CYYZ;2009-11-24 06:00;CYYZ 240600Z 04004KT 12SM FEW010 BKN034 07/05 A3020 RMK SC2SC6 SLP233

CYYZ;2009-11-24 07:00;CYYZ 240700Z 04004KT 12SM BKN033 BKN110 06/05 A3019 RMK SC6AC1 SLP229

CYYZ;2009-11-24 08:00;CYYZ 240800Z 03004KT 10SM -SHRA BKN008 OVC030 07/06 A3020 RMK SC5SC3 PCPN VRY LGT SLP233

CYYZ;2009-11-24 08:40;CYYZ 240840Z 04005KT 10SM -SHRA OVC007 06/ RMK SC8

CYYZ;2009-11-24 09:00;CYYZ 240900Z 04003KT 6SM -SHRA BR OVC006 06/06 A3019 RMK SC8 PCPN VRY LGT SLP229

CYYZ;2009-11-24 10:00;CYYZ 241000Z 05003KT 6SM -SHRA BR OVC005 07/06 A3019 RMK SC8 PCPN VRY LGT SLP230

CYYZ;2009-11-24 10:15;CYYZ 241015Z 06003KT 5SM -SHRA BR OVC004 07/ RMK SC8 PCPN VRY LGT

CYYZ;2009-11-24 10:52;CYYZ 241052Z 06004KT 5SM BR OVC006 07/ RMK SC8

CYYZ;2009-11-24 11:00;CYYZ 241100Z 07004KT 5SM BR OVC004 07/07 A3019 RMK SC8 SLP229

CYYZ;2009-11-24 11:55;CYYZ 241155Z 09003KT 5SM -DZ BR OVC004 07/ RMK ST8

CYYZ;2009-11-24 12:00;CYYZ 241200Z 07005KT 5SM -DZ BR OVC004 07/07 A3020 RMK ST8 SLP233

CYYZ;2009-11-24 12:36;CYYZ 241236Z 08006KT 2 1/2SM BR OVC003 07/ RMK ST8

CYYZ;2009-11-24 13:00;CYYZ 241300Z 09004KT 1 1/4SM BR OVC003 07/07 A3020 RMK ST8 SLP232

CYYZ;2009-11-24 13:26;CYYZ 241326Z 12005KT 2 1/2SM BR OVC003 08/ RMK ST8

CYYZ;2009-11-24 14:00;CYYZ 241400Z 14005KT 2 1/2SM -DZ BR OVC003 07/07 A3021 RMK ST8 SLP235

CYYZ;2009-11-24 14:29;CYYZ 241429Z 13005KT 1 1/4SM -DZ BR OVC003 07/ RMK ST8

CYYZ;2009-11-24 15:00;CYYZ 241500Z 11006KT 1 1/4SM -DZ BR OVC003 07/07 A3020 RMK ST8 SLP232

CYYZ;2009-11-24 15:37;CYYZ 241537Z 09006KT 2 1/2SM BR OVC003 08/ RMK ST8

CYYZ;2009-11-24 16:00;CYYZ 241600Z 10006KT 2SM BR OVC003 07/07 A3019 RMK ST8 SLP227

CYYZ;2009-11-24 17:00;CYYZ 241700Z 11005KT 1 1/2SM BR OVC003 07/07 A3017 RMK ST8 SLP223

CYYZ;2009-11-24 17:14;CYYZ 241714Z 11005KT 1SM R06L/3000V6000FT/U R05/4500VP6000FT/N BR OVC003 07/ RMK ST8

CYYZ;2009-11-24 17:32;CYYZ 241732Z 09004KT 3/4SM R05/2800V6000FT/D R06L/5000FT/N -DZ BR OVC003 08/ RMK FG2ST6

CYYZ;2009-11-24 17:48;CYYZ 241748Z 09004KT 1 1/4SM -DZ BR OVC003 08/ RMK ST8

CYYZ;2009-11-24 18:00;CYYZ 241800Z 07006KT 1 1/4SM -DZ BR OVC003 08/08 A3015 RMK ST8 SLP214

CYYZ;2009-11-24 19:00;CYYZ 241900Z 08005KT 1 1/4SM BR OVC003 07/07 A3014 RMK ST8 SLP212

CYYZ;2009-11-24 20:00;CYYZ 242000Z 09004KT 2SM BR OVC003 07/07 A3014 RMK ST8 SLP211

CYYZ;2009-11-24 21:00;CYYZ 242100Z 09006KT 2 1/2SM BR OVC003 07/07 A3013 RMK ST8 SLP207

CYYZ;2009-11-24 22:00;CYYZ 242200Z 09005KT 3SM -DZ BR OVC003 07/07 A3012 RMK ST8 SLP203

CYYZ;2009-11-24 23:00;CYYZ 242300Z 08004KT 4SM -DZ BR OVC003 07/07 A3012 RMK ST8 SLP203

CYYZ;2009-11-24 23:28;CYYZ 242328Z 08004KT 4SM -DZ BR OVC002 07/ RMK ST8

CYYZ;2009-11-25 00:00;CYYZ 250000Z 09005KT 4SM -DZ BR OVC002 07/07 A3010 RMK ST8 SLP199

CYYZ;2009-11-25 00:29;CYYZ 250029Z 08004KT 3SM BR OVC002 07/ RMK FG2ST6

CYYZ;2009-11-25 01:00;CYYZ 250100Z CCA 09005KT 3SM BR OVC002 07/07 A3009 RMK FG3ST5 VIS NE 2 SLP195

CYYZ;2009-11-25 01:20;CYYZ 250120Z 09005KT 3/4SM R05/P6000FT/N R06R/P6000FT/U BR OVC002 07/ RMK FG6ST2

CYYZ;2009-11-25 01:35;CYYZ 250135Z 10003KT 1/4SM R05/P6000FT/D R06R/P6000FT/U FG VV001 07/ RMK FG8

CYYZ;2009-11-25 02:00;CYYZ 250200Z 08003KT 1/4SM R05/3000V5000FT/D R06L/3500FT/N FG VV001 07/07 A3008 RMK FG8 SLP191

CYYZ;2009-11-25 03:00;CYYZ 250300Z 09004KT 1/8SM R05/3000V5000FT/D R06L/2000FT/N FG VV001 07/07 A3006 RMK FG8 SLP185

CYYZ;2009-11-25 03:24;CYYZ 250324Z 09005KT 1/4SM R05/2200FT/N R06L/2600FT/N FG VV001 07/ RMK FG8

CYYZ;2009-11-25 04:00;CYYZ 250400Z 09003KT 1/4SM R05/4000FT/N R06L/3500FT/N FG VV001 08/08 A3005 RMK FG8 SLP180

CYYZ;2009-11-25 04:15;CYYZ 250415Z 08003KT 1/4SM R05/3500FT/N R06L/3500FT/N -DZ FG VV001 08/ RMK FG8

CYYZ;2009-11-25 05:00;CYYZ 250500Z 08002KT 1/2SM R05/P6000FT/U R06L/P6000FT/N -DZ FG VV002 08/08 A3003 RMK FG8 SLP175

CYYZ;2009-11-25 05:25;CYYZ 250525Z 07002KT 3/4SM R05/P6000FT/D R06L/4500FT/U -DZ BR VV002 08/ RMK FG8

CYYZ;2009-11-25 05:30;CYYZ 250530Z CCA 06002KT 1 1/4SM -DZ BR OVC002 08/ RMK FG4ST4

CYYZ;2009-11-25 05:42;CYYZ 250542Z 08002KT 1 3/4SM -DZ BR OVC003 08/ RMK ST8

CYYZ;2009-11-25 06:00;CYYZ 250600Z 09003KT 4SM -DZ BR OVC002 08/08 A3003 RMK ST8 SLP172

CYYZ;2009-11-25 07:00;CYYZ 250700Z 09005KT 5SM -DZ BR SCT002 OVC005 08/08 A3000 RMK SF4SC4 SLP164

CYYZ;2009-11-25 07:23;CYYZ 250723Z 10005KT 1/2SM -DZ FG VV001 08/ RMK FG8

CYYZ;2009-11-25 07:31;CYYZ 250731Z 10006KT 1/8SM -DZ FG VV001 08/ RMK FG8

CYYZ;2009-11-25 08:00;CYYZ 250800Z 08010KT 1/8SM -DZ FG VV001 08/08 A2997 RMK FG8 SLP152

CYYZ;2009-11-25 09:00;CYYZ 250900Z 11005KT 1/8SM -DZ FG VV001 08/08 A2995 RMK FG8 SLP146

CYYZ;2009-11-25 10:00;CYYZ 251000Z 11005KT 1/2SM -DZ FG VV001 08/08 A2993 RMK FG8 SLP140

CYYZ;2009-11-25 10:40;CYYZ 251040Z 12004KT 4SM BR OVC003 08/ RMK ST8

CYYZ;2009-11-25 11:00;CYYZ 251100Z 12003KT 5SM BR SCT003 OVC009 09/09 A2990 RMK SF4SC4 SLP130

CYYZ;2009-11-25 11:18;CYYZ 251118Z 14005KT 3SM BR BKN003 OVC007 09/ RMK ST6SC2

CYYZ;2009-11-25 12:00;CYYZ 251200Z 12006KT 3SM BR OVC003 09/09 A2989 RMK ST8 SLP126

CYYZ;2009-11-25 13:00;CYYZ 251300Z 12006KT 5SM BR SCT003 OVC036 09/09 A2987 RMK ST3SC5 SLP119

CYYZ;2009-11-25 14:00;CYYZ 251400Z 12006KT 6SM BR FEW004 FEW042 OVC076 09/09 A2985 RMK ST1SC2AC6 SLP111

CYYZ;2009-11-25 15:00;CYYZ 251500Z 13005KT 12SM BKN031 BKN049 OVC074 10/08 A2983 RMK SC5SC2AC2 SLP105

CYYZ;2009-11-25 15:25;CYYZ 251525Z 14008KT 7SM -RA BKN029 OVC038 09/ RMK SC6SC2

CYYZ;2009-11-25 16:00;CYYZ 251600Z 14006KT 3SM -RA BR SCT016 OVC027 09/08 A2981 RMK SC3SC5 SLP098

CYYZ;2009-11-25 16:27;CYYZ 251627Z 14006KT 4SM -RA BR SCT006 BKN017 OVC023 09/ RMK SF3SC4SC1

CYYZ;2009-11-25 16:43;CYYZ 251643Z 14005KT 4SM -RA BR SCT003 OVC011 09/ RMK SF3SC5

CYYZ;2009-11-25 17:00;CYYZ 251700Z 14005KT 4SM -RA BR BKN005 OVC009 09/09 A2978 RMK SF6SC2 SLP089

CYYZ;2009-11-25 18:00;CYYZ 251800Z 15005KT 4SM -RA BR SCT003 OVC006 09/09 A2975 RERA RMK SF3SF5 SLP078

CYYZ;2009-11-25 18:07;CYYZ 251807Z 15006KT 1 3/4SM -RA BR BKN003 OVC006 09/ RMK FG2SF5SF2

CYYZ;2009-11-25 18:23;CYYZ 251823Z 16005KT 4SM -RA BR FEW003 OVC005 09/ RMK SF2SF6

CYYZ;2009-11-25 18:51;CYYZ 251851Z 17007KT 4SM BR SCT003 OVC006 09/ RMK SF3SC5

CYYZ;2009-11-25 19:00;CYYZ 251900Z 17007KT 4SM BR SCT003 BKN006 OVC017 10/10 A2974 RMK SF3SF2SC2 SLP076

CYYZ;2009-11-25 19:43;CYYZ 251943Z 15004KT 6SM BR FEW012 BKN023 OVC073 10/ RMK SC2SC4AC2

CYYZ;2009-11-25 20:00;CYYZ 252000Z 15006KT 6SM BR FEW005 BKN008 OVC027 10/10 A2974 RMK SF2SC4SC2 SLP073

CYYZ;2009-11-25 20:21;CYYZ 252021Z 17006KT 8SM FEW012 BKN018 OVC073 10/ RMK SC2SC5AC2 BR

CYYZ;2009-11-25 20:37;CYYZ 252037Z 20006KT 5SM -RA BR FEW012 OVC023 11/ RMK SC2SC6

CYYZ;2009-11-25 21:00;CYYZ 252100Z 22009KT 12SM FEW012 OVC043 10/08 A2975 RMK SC1SC7 SLP077

CYYZ;2009-11-25 22:00;CYYZ 252200Z 21007KT 12SM FEW022 BKN062 BKN120 09/07 A2976 RMK SC2SC3AC2 SLP081

CYYZ;2009-11-25 23:00;CYYZ 252300Z 20006KT 15SM SCT032 BKN046 09/07 A2977 RMK SC3SC4 SLP086

CYYZ;2009-11-26 00:00;CYYZ 260000Z 21010KT 15SM BKN024 BKN045 09/07 A2978 RMK SC5SC2 SLP088

CYYZ;2009-11-26 01:00;CYYZ 260100Z 21007KT 15SM FEW035 BKN075 08/06 A2978 RMK SC1AC7 SLP088

CYYZ;2009-11-26 02:00;CYYZ 260200Z 21007KT 15SM FEW025 OVC070 08/06 A2979 RMK SC1AC7 SLP090

CYYZ;2009-11-26 03:00;CYYZ 260300Z 19004KT 15SM FEW018 BKN035 OVC070 08/07 A2978 RMK SF2SC6AC1 SLP088

CYYZ;2009-11-26 04:00;CYYZ 260400Z 21005KT 15SM FEW030 BKN067 08/07 A2978 RMK SC1AC6 SLP089

CYYZ;2009-11-26 05:00;CYYZ 260500Z 20005KT 15SM BKN035 BKN090 08/07 A2978 RMK SC6AC1 SLP088

CYYZ;2009-11-26 06:00;CYYZ 260600Z 19006KT 15SM BKN035 OVC065 08/07 A2978 RMK SC6SC2 SLP089

CYYZ;2009-11-26 07:00;CYYZ 260700Z 20006KT 15SM FEW020 BKN055 OVC070 08/07 A2978 RMK SC1SC6AC1 SLP089

CYYZ;2009-11-26 08:00;CYYZ 260800Z 19006KT 15SM SCT025 BKN035 OVC060 08/07 A2979 RMK SC3SC4SC1 SLP090

CYYZ;2009-11-26 09:00;CYYZ 260900Z 18004KT 15SM FEW020 OVC045 08/07 A2978 RMK SF1SC7 SLP089

CYYZ;2009-11-26 10:00;CYYZ 261000Z 18004KT 15SM OVC057 08/07 A2978 RMK SC8 SLP088

CYYZ;2009-11-26 10:51;CYYZ 261051Z 17005KT 7SM -DZ FEW010 BKN022 OVC033 08/ RMK SF1SF6ST2

CYYZ;2009-11-26 11:00;CYYZ 261100Z 18007KT 8SM -DZ FEW025 OVC055 08/08 A2978 RMK SF2SC6 SLP089

CYYZ;2009-11-26 11:32;CYYZ 261132Z 17006KT 10SM SCT011 BKN041 OVC062 08/ RMK SF3SC3SC2

CYYZ;2009-11-26 11:44;CYYZ 261144Z 18006KT 7SM -DZ SCT012 OVC038 08/ RMK ST3SC5

CYYZ;2009-11-26 12:00;CYYZ 261200Z 18004KT 5SM -DZ BR FEW012 BKN026 OVC038 08/08 A2978 RMK ST2SC4SC2 SLP089

CYYZ;2009-11-26 13:00;CYYZ 261300Z 18006KT 5SM -RA BR FEW012 BKN032 OVC045 08/08 A2978 RMK ST1SC4SC3 SLP088

CYYZ;2009-11-26 13:40;CYYZ 261340Z 18005KT 12SM BKN058 OVC069 08/ RMK SC6AC2

CYYZ;2009-11-26 14:00;CYYZ 261400Z 19007KT 12SM FEW015 BKN062 OVC074 09/07 A2977 RMK SF1SC5AC3 SLP084

CYYZ;2009-11-26 15:00;CYYZ 261500Z 23012G19KT 15SM FEW015 BKN027 OVC046 08/06 A2978 RMK SC2SC4SC2 SLP087

CYYZ;2009-11-26 16:00;CYYZ 261600Z 24011G17KT 15SM FEW022 BKN046 BKN110 08/04 A2978 RMK CF1SC6AC2 SLP087

CYYZ;2009-11-26 17:00;CYYZ 261700Z 22009G15KT 15SM FEW026 BKN053 BKN079 09/05 A2976 RMK CU2SC4AC2 SLP080

CYYZ;2009-11-26 18:00;CYYZ 261800Z 21009G15KT 15SM SCT026 BKN058 BKN080 09/04 A2974 RMK CU3SC2AC2 SLP074

CYYZ;2009-11-26 18:51;CYYZ 261851Z 25011G16KT 15SM -SHRA FEW024 BKN032 BKN110 08/ RMK CU2SC4AC2

CYYZ;2009-11-26 19:00;CYYZ 261900Z 23011G16KT 12SM -SHRA FEW022 BKN034 BKN100 08/05 A2973 RMK CU2SC4AC2 SLP072

CYYZ;2009-11-26 19:26;CYYZ 261926Z 23011G16KT 15SM SCT023 BKN043 BKN100 08/ RMK SC3SC2AC1 CU ASOCTD

CYYZ;2009-11-26 20:00;CYYZ 262000Z 22016KT 15SM SCT026 BKN038 08/04 A2974 RMK CU3SC2 SLP074

CYYZ;2009-11-26 21:00;CYYZ 262100Z 24013G19KT 15SM SCT037 07/02 A2974 RMK CU3 SLP075

CYYZ;2009-11-26 22:00;CYYZ 262200Z 24009KT 15SM FEW035 FEW070 06/M01 A2974 RMK SC1AC1 AC TR SLP076

CYYZ;2009-11-26 23:00;CYYZ 262300Z 25008KT 15SM FEW035 FEW100 04/M01 A2975 RMK SC1AC1 SLP078

CYYZ;2009-11-27 00:00;CYYZ 270000Z 24004KT 15SM FEW065 SCT270 04/M01 A2974 RMK SC1CI2 SLP074

CYYZ;2009-11-27 01:00;CYYZ 270100Z 21005KT 15SM FEW072 04/M01 A2974 RMK AC1 SLP074

CYYZ;2009-11-27 02:00;CYYZ 270200Z 21005KT 15SM FEW085 03/M00 A2973 RMK AC1 SLP071

CYYZ;2009-11-27 03:00;CYYZ 270300Z 19004KT 15SM FEW080 03/00 A2971 RMK AC1 SLP065

CYYZ;2009-11-27 04:00;CYYZ 270400Z 20004KT 15SM FEW080 02/00 A2969 RMK AC1 SLP060

CYYZ;2009-11-27 05:00;CYYZ 270500Z 15002KT 15SM FEW090 02/M00 A2967 RMK AC2 SLP053

CYYZ;2009-11-27 06:00;CYYZ 270600Z 17002KT 15SM FEW090 FEW120 02/00 A2966 RMK AC2AC1 SLP049

CYYZ;2009-11-27 07:00;CYYZ 270700Z 18003KT 15SM BKN018 OVC060 02/01 A2966 RMK SC7SC1 SLP050

CYYZ;2009-11-27 08:00;CYYZ 270800Z 22004KT 15SM FEW022 BKN048 02/01 A2965 RMK SC1SC6 SLP047

CYYZ;2009-11-27 09:00;CYYZ 270900Z 18003KT 15SM FEW020 SCT050 02/00 A2964 RMK SC1SC2 SLP043

CYYZ;2009-11-27 10:00;CYYZ 271000Z 00000KT 15SM FEW020 BKN090 02/01 A2963 RMK SC1AC7 SLP040

CYYZ;2009-11-27 11:00;CYYZ 271100Z 19003KT 15SM OVC022 02/01 A2964 RMK SC8 SLP043

CYYZ;2009-11-27 12:00;CYYZ 271200Z 21003KT 15SM BKN021 03/01 A2964 RMK SC7 SLP044

CYYZ;2009-11-27 13:00;CYYZ 271300Z 27003KT 12SM BKN018 03/02 A2964 RMK SC6 SLP044

CYYZ;2009-11-27 13:34;CYYZ 271334Z 26005KT 12SM BKN018 BKN035 02/ RMK SC5SC2

CYYZ;2009-11-27 14:00;CYYZ 271400Z 28008KT 15SM BKN012 BKN019 03/02 A2964 RMK SC5SC2 SLP043

CYYZ;2009-11-27 15:00;CYYZ 271500Z 31007KT 15SM BKN015 BKN025 04/01 A2965 RMK SC5SC2 SLP047

CYYZ;2009-11-27 16:00;CYYZ 271600Z 32010KT 15SM BKN018 04/01 A2964 RMK SC7 SLP044

CYYZ;2009-11-27 17:00;CYYZ 271700Z 30006KT 15SM BKN027 05/01 A2964 RMK SC7 SLP043

CYYZ;2009-11-27 18:00;CYYZ 271800Z 34005KT 15SM SCT023 BKN029 BKN240 06/01 A2963 RMK CU3SC2CI1 TCU EMBD SLP038

CYYZ;2009-11-27 19:00;CYYZ 271900Z 34004KT 15SM FEW024 BKN029 BKN085 06/01 A2963 RMK CU2SC2AC2 SLP039

CYYZ;2009-11-27 19:35;CYYZ 271935Z 32012KT 15SM -SHRA FEW023 BKN031 BKN085 07/ RMK CU2SC2AC2

CYYZ;2009-11-27 20:00;CYYZ 272000Z 34010KT 15SM -SHRA FEW025 BKN031 BKN085 06/01 A2964 RMK CU2SC2AC2 SLP044

CYYZ;2009-11-27 21:00;CYYZ 272100Z 33015KT 15SM -SHRA FEW018 BKN024 OVC038 04/02 A2968 RMK CF2SC3SC3 CU EMBD SLP056

CYYZ;2009-11-27 21:30;CYYZ 272130Z 32011KT 15SM FEW019 SCT031 BKN071 04/ RMK CF2SC2AC2

CYYZ;2009-11-27 22:00;CYYZ 272200Z 33014G19KT 15SM BKN044 BKN065 04/02 A2969 RMK SC5SC2 SLP061

CYYZ;2009-11-27 22:10;CYYZ 272210Z 32012G19KT 15SM -SHRA BKN042 BKN062 04/ RMK SC5SC2

CYYZ;2009-11-27 22:34;CYYZ 272234Z 32013G18KT 15SM FEW018 BKN051 04/ RMK CF2SC6

CYYZ;2009-11-27 23:00;CYYZ 272300Z 32013G19KT 15SM BKN018 BKN052 04/02 A2970 RMK SC5SC2 SLP064

CYYZ;2009-11-28 00:00;CYYZ 280000Z 33016KT 15SM FEW015 BKN048 05/03 A2972 RMK SF2SC5 SLP069

CYYZ;2009-11-28 01:00;CYYZ 280100Z 32019G30KT 15SM BKN024 BKN048 05/02 A2973 RMK SC5SC2 SLP073

CYYZ;2009-11-28 02:00;CYYZ 280200Z 33017KT 15SM SCT028 04/01 A2974 RMK SC3 SLP075

CYYZ;2009-11-28 03:00;CYYZ 280300Z 32019G24KT 15SM BKN029 05/01 A2976 RMK SC7 SLP083

CYYZ;2009-11-28 04:00;CYYZ 280400Z 31015KT 15SM SCT035 04/00 A2978 RMK SC3 SLP089

CYYZ;2009-11-28 05:00;CYYZ 280500Z 31015KT 15SM FEW035 03/00 A2978 RMK SC2 SLP090

CYYZ;2009-11-28 06:00;CYYZ 280600Z CCA 29010KT 15SM FEW035 02/00 A2979 RMK SC2 SLP092

CYYZ;2009-11-28 07:00;CYYZ 280700Z 31013KT 15SM BKN028 03/00 A2980 RMK SC5 SLP096

CYYZ;2009-11-28 08:00;CYYZ 280800Z 31012KT 15SM BKN025 03/01 A2980 RMK SC5 SLP098

CYYZ;2009-11-28 09:00;CYYZ 280900Z 33012KT 15SM BKN025 03/00 A2982 RMK SC5 SLP103

CYYZ;2009-11-28 10:00;CYYZ 281000Z 31014KT 15SM BKN025 04/01 A2982 RMK SC6 SLP103

CYYZ;2009-11-28 11:00;CYYZ 281100Z 31012KT 15SM BKN024 04/01 A2983 RMK SC6 SLP109

CYYZ;2009-11-28 12:00;CYYZ 281200Z 29011KT 15SM OVC023 04/01 A2986 RMK SC8 SLP115

CYYZ;2009-11-28 13:00;CYYZ 281300Z 30012G18KT 15SM OVC017 04/01 A2985 RMK SC8 SLP112

CYYZ;2009-11-28 14:00;CYYZ 281400Z 28012G17KT 15SM OVC021 04/01 A2986 RMK SC8 SLP115

CYYZ;2009-11-28 15:00;CYYZ 281500Z 29014KT 15SM BKN022 05/02 A2987 RMK SC7 SLP119

CYYZ;2009-11-28 16:00;CYYZ 281600Z 30013KT 15SM OVC023 05/01 A2986 RMK SC8 SLP118

CYYZ;2009-11-28 17:00;CYYZ 281700Z 30012G17KT 15SM OVC024 06/01 A2984 RMK SC7 SLP109

CYYZ;2009-11-28 18:00;CYYZ 281800Z 27010KT 15SM BKN026 BKN035 06/01 A2982 RMK SC6SC1 SLP104

CYYZ;2009-11-28 19:00;CYYZ 281900Z 29015KT 15SM BKN026 06/01 A2983 RMK SC7 SLP108

CYYZ;2009-11-28 20:00;CYYZ 282000Z 26011G16KT 15SM BKN026 06/01 A2982 RMK SC7 SLP102

CYYZ;2009-11-28 21:00;CYYZ 282100Z 27013KT 15SM BKN025 05/00 A2983 RMK SC7 SLP107

CYYZ;2009-11-28 22:00;CYYZ 282200Z 26014KT 15SM BKN025 BKN270 04/M01 A2985 RMK SC5CI1 SLP113

CYYZ;2009-11-28 23:00;CYYZ 282300Z 26005KT 15SM FEW025 SCT270 02/M01 A2985 RMK SC1CI1 SLP113

CYYZ;2009-11-29 00:00;CYYZ 290000Z 24005KT 15SM SCT250 01/M01 A2985 RMK CI1 SLP114

CYYZ;2009-11-29 01:00;CYYZ 290100Z 22002KT 15SM SCT210 02/M01 A2985 RMK CI1 SLP113

CYYZ;2009-11-29 02:00;CYYZ 290200Z 21003KT 15SM SCT210 02/M01 A2985 RMK CI1 SLP113

CYYZ;2009-11-29 03:00;CYYZ 290300Z 00000KT 15SM SKC 01/M01 A2984 RMK SLP111

CYYZ;2009-11-29 04:00;CYYZ 290400Z 11002KT 15SM SKC 01/M01 A2983 RMK SLP109

CYYZ;2009-11-29 05:00;CYYZ 290500Z 10003KT 15SM SKC 02/M01 A2983 RMK SLP106

CYYZ;2009-11-29 06:00;CYYZ 290600Z 00000KT 15SM SKC 00/M01 A2982 RMK SLP103

CYYZ;2009-11-29 07:00;CYYZ 290700Z 00000KT 15SM SKC M01/M02 A2981 RMK SLP101

CYYZ;2009-11-29 08:00;CYYZ 290800Z 31003KT 15SM FEW230 M00/M01 A2982 RMK CI1 FROIN SLP103

CYYZ;2009-11-29 09:00;CYYZ 290900Z 31003KT 15SM SCT230 M02/M03 A2981 RMK CI1 FROIN SLP100

CYYZ;2009-11-29 10:00;CYYZ 291000Z 32002KT 15SM FEW230 M02/M03 A2980 RMK CI1 FROIN SLP098

CYYZ;2009-11-29 11:00;CYYZ 291100Z 33004KT 15SM FEW230 M01/M03 A2980 RMK CI1 FROIN SLP097

CYYZ;2009-11-29 12:00;CYYZ 291200Z 33005KT 12SM FEW240 M01/M02 A2980 RMK CI1 FROIN SLP099

CYYZ;2009-11-29 13:00;CYYZ 291300Z 01005KT 12SM FEW025 SCT160 SCT240 M01/M02 A2979 RMK SC2AC2CI0 SLP096

CYYZ;2009-11-29 13:09;CYYZ 291309Z 01005KT 12SM BKN007 BKN160 M01/ RMK ST5AC1

CYYZ;2009-11-29 14:00;CYYZ 291400Z 02003KT 12SM BKN007 BKN160 01/00 A2979 RMK ST6AC1 SLP096

CYYZ;2009-11-29 14:23;CYYZ 291423Z 03003KT 12SM FEW007 SCT160 02/ RMK ST2AC1

CYYZ;2009-11-29 15:00;CYYZ 291500Z 00000KT 12SM BKN011 BKN160 03/01 A2980 RMK SC5AC1 SLP096

CYYZ;2009-11-29 16:00;CYYZ 291600Z 18002KT 12SM BKN011 05/02 A2977 RMK SC7 SLP087

CYYZ;2009-11-29 16:34;CYYZ 291634Z 04002KT 10SM SCT012 BKN017 05/ RMK SC3SC4

CYYZ;2009-11-29 17:00;CYYZ 291700Z 12003KT 10SM FEW013 OVC018 06/04 A2972 RMK SC2SC6 SLP072

CYYZ;2009-11-29 18:00;CYYZ 291800Z 15005KT 10SM FEW012 OVC017 06/04 A2970 RMK SC2SC6 SLP062

CYYZ;2009-11-29 18:31;CYYZ 291831Z 16002KT 10SM OVC013 06/ RMK SC8

CYYZ;2009-11-29 19:00;CYYZ 291900Z 14004KT 10SM FEW009 OVC012 06/05 A2967 RMK SC2SC6 SLP054

CYYZ;2009-11-29 20:00;CYYZ 292000Z 11003KT 8SM FEW012 OVC017 07/05 A2965 RMK SC2SC6 SLP047

CYYZ;2009-11-29 20:51;CYYZ 292051Z 14003KT 8SM -RA SCT018 OVC024 07/ RMK SC3SC5

CYYZ;2009-11-29 21:00;CYYZ 292100Z 14004KT 8SM -RA SCT018 OVC024 07/05 A2964 RMK SC3SC5 SLP042

CYYZ;2009-11-29 21:39;CYYZ 292139Z 19002KT 5SM -RA BR SCT006 BKN014 OVC025 06/ RMK SF3SC2SC2

CYYZ;2009-11-29 22:00;CYYZ 292200Z 14002KT 5SM -RA BR FEW009 BKN014 OVC025 06/06 A2963 RMK SF2SC3SC2 SLP040

CYYZ;2009-11-29 22:21;CYYZ 292221Z 14003KT 4SM -RA BR SCT004 BKN007 OVC015 06/ RMK SF3SC2SC2

CYYZ;2009-11-29 23:00;CYYZ 292300Z 14002KT 4SM -RA BR BKN008 OVC014 06/06 A2961 RMK SC5SC3 SLP034

CYYZ;2009-11-29 23:37;CYYZ 292337Z 25002KT 6SM -RA BR FEW009 BKN036 OVC060 06/ RMK SC2SC3SC2

CYYZ;2009-11-30 00:00;CYYZ 300000Z 30006KT 5SM -RA BR FEW007 BKN041 OVC058 06/06 A2961 RMK SC2SC4SC2 SLP035

CYYZ;2009-11-30 01:00;CYYZ 300100Z 03007KT 6SM -RA BR FEW023 BKN043 OVC110 06/06 A2961 RMK SC2SC3AC3 PCPN VRY LGT SLP035

CYYZ;2009-11-30 01:27;CYYZ 300127Z CCA 29007KT 8SM FEW042 BKN110 06/ RMK SC2AC4 BR

CYYZ;2009-11-30 02:00;CYYZ 300200Z 29006KT 8SM FEW043 BKN100 06/05 A2961 RMK SC2AC4 SLP035

CYYZ;2009-11-30 03:00;CYYZ 300300Z 29004KT 9SM FEW017 BKN078 BKN100 05/05 A2961 RMK SC2AC2AC1 SLP033

CYYZ;2009-11-30 03:53;CYYZ 300353Z 32009KT 10SM -SHRA BKN034 OVC053 06/ RMK SC6SC2

CYYZ;2009-11-30 04:00;CYYZ 300400Z 32011KT 10SM -SHRA BKN032 OVC050 06/04 A2963 RMK SC5SC3 SLP038

CYYZ;2009-11-30 04:32;CYYZ 300432Z 32008KT 8SM -SHRA BKN014 OVC036 06/ RMK SC6SC2

CYYZ;2009-11-30 05:00;CYYZ 300500Z 32006KT 8SM -SHRA BKN013 OVC032 05/04 A2961 RMK SC6SC2 SLP033

CYYZ;2009-11-30 05:28;CYYZ 300528Z 31007KT 8SM FEW014 OVC062 05/ RMK SC2SC6

CYYZ;2009-11-30 06:00;CYYZ 300600Z 30006KT 10SM BKN029 OVC045 05/04 A2961 RMK SC6SC2 SLP033

CYYZ;2009-11-30 06:04;CYYZ 300604Z 30007KT 8SM -SHRA BKN032 OVC059 05/ RMK SC6SC2

CYYZ;2009-11-30 07:00;CYYZ 300700Z 29008KT 8SM -SHRA BKN023 OVC038 05/04 A2963 RMK SC6SC2 SLP039

CYYZ;2009-11-30 08:00;CYYZ 300800Z 30014KT 10SM -SHRA OVC019 05/03 A2965 RMK SC8 SLP045

CYYZ;2009-11-30 09:00;CYYZ 300900Z 31013G18KT 12SM BKN023 03/01 A2967 RMK SC6 SLP053

CYYZ;2009-11-30 10:00;CYYZ 301000Z 32014G19KT 15SM SCT024 BKN083 03/00 A2969 RMK SC3AC1 SLP060

CYYZ;2009-11-30 10:06;CYYZ 301006Z 32013G19KT 15SM FEW023 FEW080 02/ RMK SC2AC1

CYYZ;2009-11-30 11:00;CYYZ 301100Z 33015KT 15SM FEW020 FEW070 02/M01 A2971 RMK SC1AC1 SLP067

CYYZ;2009-11-30 12:00;CYYZ 301200Z 33012KT 15SM FEW020 BKN040 02/M01 A2974 RMK SF1SC3 SLP078

CYYZ;2009-11-30 13:00;CYYZ 301300Z 34008KT 15SM FEW020 BKN040 01/M01 A2978 RMK SF1SC5 SLP089

CYYZ;2009-11-30 14:00;CYYZ 301400Z 33012G18KT 15SM FEW020 BKN040 02/M01 A2978 RMK SF1SC6 SLP091

CYYZ;2009-11-30 15:00;CYYZ 301500Z 33011KT 15SM FEW020 FEW042 03/M01 A2981 RMK SF1SC1 SLP099

CYYZ;2009-11-30 16:00;CYYZ 301600Z 33013KT 15SM FEW026 BKN045 03/M03 A2981 RMK CU2SC5 SLP100

CYYZ;2009-11-30 17:00;CYYZ 301700Z 34009G16KT 15SM BKN040 04/M04 A2980 RMK SC7 SLP096

CYYZ;2009-11-30 18:00;CYYZ 301800Z 35010KT 15SM BKN040 04/M04 A2979 RMK SC7 SLP093

CYYZ;2009-11-30 19:00;CYYZ 301900Z 31006KT 15SM BKN045 04/M03 A2980 RMK SC7 SLP095

CYYZ;2009-11-30 20:00;CYYZ 302000Z 28006KT 15SM BKN046 04/M03 A2980 RMK SC7 SLP095

CYYZ;2009-11-30 21:00;CYYZ 302100Z 30007KT 15SM FEW035 BKN054 03/M03 A2980 RMK SC1SC5 SLP097

CYYZ;2009-11-30 21:43;CYYZ 302143Z 28005KT 15SM FEW028 SCT052 02/ RMK SF1SC3

CYYZ;2009-11-30 22:00;CYYZ 302200Z 28006KT 15SM BKN055 02/M04 A2982 RMK SC5 SLP103

CYYZ;2009-11-30 23:00;CYYZ 302300Z 26004KT 15SM BKN056 02/M04 A2982 RMK SC7 SLP104

CYYZ;2009-12-01 01:00;CYYZ 010100Z 24006KT 15SM SCT057 SCT180 01/M04 A2982 RMK SC2AC1 SLP105

CYYZ;2009-12-01 02:00;CYYZ 010200Z 23004KT 15SM SCT052 BKN063 01/M02 A2981 RMK SC3SC4 SLP101

CYYZ;2009-12-01 03:00;CYYZ 010300Z 22009KT 15SM FEW038 BKN061 02/M02 A2980 RMK SC2SC5 SLP098

CYYZ;2009-12-01 04:00;CYYZ 010400Z 23013KT 15SM BKN061 02/M03 A2980 RMK SC7 SLP097

CYYZ;2009-12-01 05:00;CYYZ 010500Z 21009KT 15SM OVC062 02/M03 A2978 RMK SC8 SLP092

CYYZ;2009-12-01 06:00;CYYZ 010600Z 21010KT 15SM FEW043 BKN063 OVC069 02/M04 A2976 RMK SC2SC4AC2 SLP083

CYYZ;2009-12-01 07:00;CYYZ 010700Z 22010KT 15SM FEW032 SCT064 BKN120 02/M03 A2975 RMK SC2SC2AC3 SLP079

CYYZ;2009-12-01 07:53;CYYZ 010753Z 23010KT 12SM -SN BKN022 OVC036 02/ RMK SC6SC2

CYYZ;2009-12-01 08:00;CYYZ 010800Z 23012G17KT 8SM -SN BKN023 OVC032 02/M03 A2973 RMK SC6SC2 SLP073

CYYZ;2009-12-01 08:08;CYYZ 010808Z 23016KT 5SM -SN BKN012 OVC023 01/ RMK SC6SC2

CYYZ;2009-12-01 08:26;CYYZ 010826Z 22010G16KT 5SM -SN SCT012 OVC043 00/ RMK SC3SC5

CYYZ;2009-12-01 09:00;CYYZ 010900Z 22011G17KT 9SM -SN SCT014 OVC023 01/M01 A2970 RMK SC3SC5 SLP065

CYYZ;2009-12-01 09:45;CYYZ 010945Z 24014G19KT 8SM -SHSN FEW008 SCT014 OVC026 01/ RMK SF1SC2SC5

CYYZ;2009-12-01 10:00;CYYZ 011000Z 24018KT 5SM -SHSN SCT007 BKN017 OVC032 01/M01 A2968 RMK SF3SC3SC2 MOON DIMLY VISBL SLP059

CYYZ;2009-12-01 10:23;CYYZ 011023Z 25019KT 15SM SCT023 01/ RMK SC3

CYYZ;2009-12-01 10:35;CYYZ 011035Z 25017G22KT 8SM -SHSN FEW007 BKN014 01/ RMK SF2SC4

CYYZ;2009-12-01 11:00;CYYZ 011100Z 24017KT 12SM FEW007 FEW012 01/M00 A2969 RMK SF1SC2 SLP061

CYYZ;2009-12-01 12:00;CYYZ 011200Z 25013G19KT 12SM FEW055 BKN075 02/M00 A2973 RMK SC2AC5 SLP073

CYYZ;2009-12-01 12:36;CYYZ 011236Z 25016KT 7SM -SN FEW030 BKN055 02/ RMK SF2SC6

CYYZ;2009-12-01 13:00;CYYZ 011300Z 24013G18KT 12SM FEW030 FEW050 01/00 A2975 RMK SF1SC1 SLP080

CYYZ;2009-12-01 14:00;CYYZ 011400Z 23011G18KT 15SM FEW030 FEW045 03/01 A2978 RMK SC1SC1 SLP090

CYYZ;2009-12-01 15:00;CYYZ 011500Z 25015G20KT 15SM FEW020 FEW050 04/01 A2980 RMK SF1SC2 SLP099

CYYZ;2009-12-01 16:00;CYYZ 011600Z 24018G24KT 15SM FEW030 FEW045 05/01 A2983 RMK SF1SC2 SLP107

CYYZ;2009-12-01 17:00;CYYZ 011700Z 25016KT 15SM FEW024 BKN050 05/01 A2984 RMK SF1SC4 SLP110

CYYZ;2009-12-01 18:00;CYYZ 011800Z 27020KT 15SM FEW030 FEW050 BKN180 06/00 A2984 RMK SF1SC2AC4 SLP112

CYYZ;2009-12-01 19:00;CYYZ 011900Z 27015KT 15SM SCT045 BKN190 06/M01 A2986 RMK SC4AC1 SLP118

CYYZ;2009-12-01 20:00;CYYZ 012000Z 26011KT 15SM FEW040 SCT130 BKN180 07/M01 A2986 RMK SC1AC3AC4 SLP119

CYYZ;2009-12-01 21:00;CYYZ 012100Z 28008KT 15SM FEW045 FEW130 06/M01 A2988 RMK SC1AC1 SLP124

CYYZ;2009-12-01 22:00;CYYZ 012200Z 26007KT 15SM FEW040 FEW090 03/M02 A2992 RMK SC1AC1 SLP137

CYYZ;2009-12-01 23:00;CYYZ 012300Z 25006KT 15SM FEW040 BKN085 03/M01 A2993 RMK SC1AC5 SLP142

CYYZ;2009-12-02 00:00;CYYZ 020000Z 24005KT 15SM FEW062 BKN089 04/M01 A2994 RMK SC2AC5 SLP145

CYYZ;2009-12-02 01:00;CYYZ 020100Z 21003KT 15SM FEW060 BKN086 05/M01 A2994 RMK SC1AC6 SLP146

CYYZ;2009-12-02 02:00;CYYZ 020200Z 20004KT 15SM FEW085 04/00 A2995 RMK AC2 SLP150

CYYZ;2009-12-02 03:00;CYYZ 020300Z 20005KT 15SM FEW090 04/01 A2995 RMK AC1 SLP146

CYYZ;2009-12-02 04:00;CYYZ 020400Z 20003KT 15SM FEW260 04/02 A2994 RMK CI1 SLP145

CYYZ;2009-12-02 05:00;CYYZ 020500Z 16002KT 15SM FEW023 03/01 A2993 RMK SC1 SLP142

CYYZ;2009-12-02 06:00;CYYZ 020600Z 13003KT 15SM FEW260 03/02 A2994 RMK CI1 SLP143

CYYZ;2009-12-02 07:00;CYYZ 020700Z 16003KT 12SM FEW260 03/02 A2994 RMK CI0 SLP144

CYYZ;2009-12-02 08:00;CYYZ 020800Z 19004KT 10SM FEW260 03/02 A2994 RMK CI1 SLP143

CYYZ;2009-12-02 09:00;CYYZ 020900Z 22003KT 10SM FEW260 03/02 A2993 RMK CI1 SLP141

CYYZ;2009-12-02 10:00;CYYZ 021000Z 22006KT 12SM SKC 03/02 A2991 RMK SLP133

CYYZ;2009-12-02 11:00;CYYZ 021100Z 21004KT 12SM FEW260 03/02 A2992 RMK CI0 SLP136

CYYZ;2009-12-02 12:00;CYYZ 021200Z CCA 20003KT 12SM SCT250 03/02 A2991 RMK CI2 SLP133

CYYZ;2009-12-02 13:00;CYYZ 021300Z 20005KT 10SM FEW130 BKN210 04/02 A2992 RMK AC1CI2 SLP139

CYYZ;2009-12-02 14:00;CYYZ 021400Z 19005KT 10SM FEW150 BKN230 05/03 A2992 RMK AC1CI2 SLP137

CYYZ;2009-12-02 15:00;CYYZ 021500Z 18005KT 15SM FEW130 BKN210 06/03 A2989 RMK AC1CI2 SLP128

CYYZ;2009-12-02 16:00;CYYZ 021600Z 17005KT 15SM FEW130 BKN210 07/04 A2986 RMK AC1CI2 SLP119

CYYZ;2009-12-02 17:00;CYYZ 021700Z 17006KT 15SM FEW140 BKN220 09/03 A2985 RMK AC1CI2 SLP113

CYYZ;2009-12-02 18:00;CYYZ 021800Z 17006KT 15SM FEW130 FEW170 BKN240 10/04 A2983 RMK AC1AC2CI2 CONTRAIL SLP104

CYYZ;2009-12-02 19:00;CYYZ 021900Z 15006KT 15SM FEW150 SCT170 BKN250 09/03 A2981 RMK AC2AC2CI2 SLP099

CYYZ;2009-12-02 20:00;CYYZ 022000Z 14006KT 12SM FEW150 OVC210 09/03 A2979 RMK AC2CS3 SUN DIMLY VISBLE SLP093

CYYZ;2009-12-02 21:00;CYYZ 022100Z 13004KT 12SM FEW150 OVC160 08/04 A2976 RMK AC2AC6 SLP083

CYYZ;2009-12-02 22:00;CYYZ 022200Z 13005KT 12SM FEW120 BKN150 OVC170 08/03 A2974 RMK AC2AC3AC2 SLP076

CYYZ;2009-12-02 22:52;CYYZ 022252Z 13006KT 12SM -SHRA SCT062 OVC075 08/ RMK SC3AC5

CYYZ;2009-12-02 23:00;CYYZ 022300Z 12005KT 12SM -SHRA BKN058 OVC075 08/03 A2972 RMK SC5AC3 SLP068

CYYZ;2009-12-03 00:00;CYYZ 030000Z 09005KT 12SM -RA BKN035 OVC062 07/05 A2968 RMK SC6SC2 SLP056

CYYZ;2009-12-03 01:00;CYYZ 030100Z CCA 07009KT 10SM -RA BKN026 OVC034 07/06 A2961 RMK SC6SC2 PRESFR SLP031

CYYZ;2009-12-03 02:00;CYYZ 030200Z 07009KT 6SM -RA BR FEW008 BKN014 OVC019 06/06 A2955 RMK SF2SC3SC2 PRESFR SLP012

CYYZ;2009-12-03 02:18;CYYZ 030218Z 08009G16KT 5SM -RA BR BKN007 BKN011 OVC019 06/ RMK SF5SC2SC2

CYYZ;2009-12-03 03:00;CYYZ 030300Z 08013G18KT 6SM -RA BR BKN005 OVC009 07/07 A2948 RERA RMK SF5SC3 PRESFR SLP986

CYYZ;2009-12-03 04:00;CYYZ 030400Z 09018G25KT 8SM -RA BKN005 OVC008 07/07 A2942 RMK SF6SC2 PRESFR SLP966

CYYZ;2009-12-03 05:00;CYYZ 030500Z 08014KT 8SM -RA BKN006 OVC009 07/07 A2938 RMK SF6SC2 SLP953

CYYZ;2009-12-03 06:00;CYYZ 030600Z 09012G18KT 8SM -RA BKN005 OVC008 07/07 A2932 RMK SF6SC2 /R15/ SLP933

CYYZ;2009-12-03 07:00;CYYZ 030700Z 08011G16KT 8SM -RA BKN005 OVC008 07/07 A2928 RMK SF6SC2 SLP919

CYYZ;2009-12-03 08:00;CYYZ 030800Z 07006KT 5SM -RA BR OVC004 07/07 A2925 RMK SF8 SLP907

CYYZ;2009-12-03 09:00;CYYZ 030900Z 36004KT 5SM -RA BR OVC004 07/07 A2922 RMK SF8 SLP899

CYYZ;2009-12-03 10:00;CYYZ 031000Z 34009KT 6SM -RA BR OVC005 07/07 A2921 RMK SF8 SLP896

CYYZ;2009-12-03 10:44;CYYZ 031044Z 34010KT 5SM -RA BR SCT006 OVC010 07/ RMK SF3SC5

CYYZ;2009-12-03 11:00;CYYZ 031100Z 34009KT 5SM -RA BR SCT006 OVC010 07/07 A2923 RMK SF3SC5 SLP903

CYYZ;2009-12-03 11:45;CYYZ 031145Z 33017KT 5SM -RA BR SCT006 OVC018 06/ RMK SF3SC5

CYYZ;2009-12-03 12:00;CYYZ 031200Z 33016G21KT 6SM -RA BR SCT006 BKN018 OVC025 06/06 A2926 RMK SF3SC3SC2 SLP911

CYYZ;2009-12-03 13:00;CYYZ 031300Z 34017G26KT 15SM -RA FEW012 BKN027 BKN032 06/06 A2929 RMK SF2SC3SC2 PCPN VRY LGT SLP922

CYYZ;2009-12-03 13:11;CYYZ 031311Z 33019KT 15SM FEW012 SCT030 BKN035 06/ RMK SF2SC2SC4

CYYZ;2009-12-03 14:00;CYYZ 031400Z 32017G22KT 15SM BKN011 BKN035 07/05 A2935 RMK SC5SC2 PRESRR SLP942

CYYZ;2009-12-03 15:00;CYYZ 031500Z CCA 32019G26KT 15SM OVC020 06/04 A2944 RMK SC8 PRESRR SLP974

CYYZ;2009-12-03 16:00;CYYZ 031600Z 32018G26KT 15SM OVC020 07/03 A2947 RMK SC8 SLP985

CYYZ;2009-12-03 17:00;CYYZ 031700Z 30015G29KT 15SM OVC020 06/03 A2955 RMK SC8 PRESRR SLP009

CYYZ;2009-12-03 18:00;CYYZ 031800Z 29020G28KT 15SM FEW020 BKN025 BKN030 06/02 A2957 RMK CU2SC3SC2 SLP018

CYYZ;2009-12-03 19:00;CYYZ 031900Z 29023G28KT 15SM FEW023 BKN035 BKN090 06/03 A2961 RMK CU2SC4AC1 SLP033

CYYZ;2009-12-03 20:00;CYYZ 032000Z 28018KT 15SM -SHRA OVC018 06/03 A2967 RMK SC8 PCPN VRY LGT SLP053

CYYZ;2009-12-03 20:42;CYYZ 032042Z 29016KT 15SM BKN018 BKN025 06/ RMK SC5SC2 CU ASOCTD

CYYZ;2009-12-03 21:00;CYYZ 032100Z CCA 28009G16KT 15SM BKN018 BKN025 06/03 A2972 RMK SC5SC2 CU ASOCTD SLP068

CYYZ;2009-12-03 22:00;CYYZ 032200Z 27019KT 15SM BKN032 BKN057 05/01 A2976 RMK SC5SC2 SLP081

CYYZ;2009-12-03 23:00;CYYZ 032300Z 29013KT 15SM FEW032 BKN062 05/00 A2979 RMK SC2SC2 SLP091

CYYZ;2009-12-04 00:00;CYYZ 040000Z 27011KT 15SM BKN024 BKN034 04/01 A2983 RMK SC5SC2 SLP106

CYYZ;2009-12-04 00:40;CYYZ 040040Z 25013G18KT 15SM -SHRA FEW022 BKN048 04/ RMK SC2SC4

CYYZ;2009-12-04 01:00;CYYZ 040100Z 27011G20KT 15SM FEW023 BKN050 04/02 A2985 RMK CU2SC5 SLP114

CYYZ;2009-12-04 02:00;CYYZ 040200Z 27010G15KT 15SM FEW021 BKN046 04/00 A2986 RMK CU1SC6 SLP117

CYYZ;2009-12-04 03:00;CYYZ 040300Z 26014KT 15SM FEW020 BKN048 03/M00 A2988 RMK CF1SC5 SLP122

CYYZ;2009-12-04 04:00;CYYZ 040400Z 25008KT 15SM FEW046 02/M01 A2989 RMK SC2 SLP126

CYYZ;2009-12-04 05:00;CYYZ 040500Z 26010KT 15SM FEW046 01/M01 A2991 RMK SC2 SLP133

CYYZ;2009-12-04 06:00;CYYZ 040600Z 25006KT 15SM FEW040 M00/M02 A2991 RMK SC2 SLP136

CYYZ;2009-12-04 07:00;CYYZ 040700Z 28004KT 15SM FEW073 M00/M02 A2992 RMK AC2 SLP139

CYYZ;2009-12-04 08:00;CYYZ 040800Z 22003KT 15SM FEW073 M00/M02 A2993 RMK AC2 SLP143

CYYZ;2009-12-04 09:00;CYYZ 040900Z 19004KT 15SM SCT043 BKN076 01/M02 A2995 RMK SC3AC3 SLP148

CYYZ;2009-12-04 10:00;CYYZ 041000Z 21004KT 15SM FEW060 BKN076 01/M01 A2995 RMK SC2AC4 SLP147

CYYZ;2009-12-04 11:00;CYYZ 041100Z 24010KT 15SM FEW055 SCT074 01/M02 A2995 RMK SC2AC2 SLP148

CYYZ;2009-12-04 12:00;CYYZ 041200Z 24012KT 15SM FEW053 01/M03 A2997 RMK SC2 SLP156

CYYZ;2009-12-04 13:00;CYYZ 041300Z 25011KT 15SM FEW030 FEW065 00/M03 A2999 RMK SF2SC1 SLP161

CYYZ;2009-12-04 14:00;CYYZ 041400Z 24013G18KT 15SM FEW030 FEW050 01/M04 A3001 RMK SF1SC1 SLP168

CYYZ;2009-12-04 15:00;CYYZ 041500Z 24016G22KT 15SM FEW035 02/M06 A3003 RMK SF1 SLP175

CYYZ;2009-12-04 16:00;CYYZ 041600Z 24020G27KT 15SM FEW035 02/M07 A3003 RMK CF1 SLP176

CYYZ;2009-12-04 17:00;CYYZ 041700Z 25017G24KT 15SM SCT041 03/M06 A3003 RMK CU3 SLP175

CYYZ;2009-12-04 18:00;CYYZ 041800Z 24017G26KT 15SM SCT040 03/M06 A3003 RMK CU4 SLP176

CYYZ;2009-12-04 19:00;CYYZ 041900Z 25017KT 15SM FEW042 02/M06 A3004 RMK CU2 SLP180

CYYZ;2009-12-04 20:00;CYYZ 042000Z 27019KT 15SM FEW040 01/M07 A3005 RMK CU1 SLP184

CYYZ;2009-12-04 21:00;CYYZ 042100Z 24013G19KT 15SM FEW040 00/M07 A3009 RMK CU2 SLP196

CYYZ;2009-12-04 22:00;CYYZ 042200Z 23012G17KT 15SM FEW045 M00/M07 A3010 RMK SC1 SLP202

CYYZ;2009-12-04 23:00;CYYZ 042300Z 25009G15KT 15SM FEW045 M01/M07 A3012 RMK SC1 SLP206

CYYZ;2009-12-05 00:00;CYYZ 050000Z 24008KT 15SM FEW040 M01/M08 A3013 RMK SC1 SLP212

CYYZ;2009-12-05 01:00;CYYZ 050100Z 25006KT 15SM FEW040 FEW260 M02/M07 A3013 RMK SC1CI1 SLP211

CYYZ;2009-12-05 02:00;CYYZ 050200Z 22006KT 15SM FEW040 M02/M07 A3013 RMK SC1 SLP213

CYYZ;2009-12-05 03:00;CYYZ 050300Z 24007KT 15SM FEW040 FEW090 M02/M07 A3014 RMK SC1AC1 SLP215

CYYZ;2009-12-05 04:00;CYYZ 050400Z 25008KT 15SM FEW040 FEW260 M03/M07 A3013 RMK SC1CI1 SLP213

CYYZ;2009-12-05 05:00;CYYZ 050500Z 24008KT 15SM SKC M03/M07 A3014 RMK SLP214

CYYZ;2009-12-05 06:00;CYYZ 050600Z 26007KT 15SM SCT170 M03/M07 A3015 RMK AC2 SLP218

CYYZ;2009-12-05 07:00;CYYZ 050700Z 25007KT 15SM FEW042 BKN160 M04/M07 A3017 RMK SC1AC2 SLP226

CYYZ;2009-12-05 08:00;CYYZ 050800Z 28006KT 15SM FEW052 BKN160 BKN220 M04/M07 A3016 RMK SC1AC2CS1 HALO SC TR SLP222

CYYZ;2009-12-05 09:00;CYYZ 050900Z 29004KT 15SM FEW050 BKN160 BKN240 M04/M08 A3015 RMK SC1AC2CI0 SLP219

CYYZ;2009-12-05 10:00;CYYZ 051000Z 00000KT 15SM BKN170 BKN240 M03/M08 A3014 RMK AC3CS0 HALO SLP215

CYYZ;2009-12-05 11:00;CYYZ 051100Z 30002KT 15SM BKN170 BKN240 M04/M08 A3014 RMK AC3CI0 SLP214

CYYZ;2009-12-05 12:00;CYYZ 051200Z 31004KT 15SM BKN170 BKN230 M04/M08 A3015 RMK AC5CI2 SLP219

CYYZ;2009-12-05 13:00;CYYZ 051300Z 00000KT 12SM BKN180 BKN220 M04/M08 A3013 RMK AC5CI1 SLP213

CYYZ;2009-12-05 14:00;CYYZ 051400Z 00000KT 15SM SCT180 BKN220 M03/M08 A3014 RMK AC3CI2 SLP217

CYYZ;2009-12-05 15:00;CYYZ 051500Z 26003KT 15SM SCT150 BKN220 M03/M07 A3014 RMK AC3CI2 SLP215

CYYZ;2009-12-05 16:00;CYYZ 051600Z 31002KT 15SM FEW180 BKN220 M01/M07 A3013 RMK AC2CI2 SLP212

CYYZ;2009-12-05 17:00;CYYZ 051700Z 29002KT 15SM FEW025 FEW180 BKN220 M00/M08 A3010 RMK CU1AC2CI2 SLP203

CYYZ;2009-12-05 18:00;CYYZ 051800Z 26003KT 15SM FEW030 BKN190 BKN210 00/M09 A3009 RMK SC1AS4CI2 SLP197

CYYZ;2009-12-05 19:00;CYYZ 051900Z 26005KT 15SM FEW030 BKN190 BKN210 00/M09 A3008 RMK SC2AS3CI2 SLP195

CYYZ;2009-12-05 20:00;CYYZ 052000Z 27003KT 15SM SCT045 BKN240 M00/M09 A3008 RMK SC3CI1 SLP195

CYYZ;2009-12-05 21:00;CYYZ 052100Z 30009KT 15SM FEW040 SCT240 M00/M09 A3008 RMK SC2CI1 SLP194

CYYZ;2009-12-05 22:00;CYYZ 052200Z 31008KT 15SM FEW040 FEW080 SCT240 M01/M09 A3009 RMK SC2AC1CI1 SLP197

CYYZ;2009-12-05 23:00;CYYZ 052300Z 32006KT 15SM SKC M02/M09 A3009 RMK SLP198

CYYZ;2009-12-06 00:00;CYYZ 060000Z 31005KT 15SM FEW240 M03/M09 A3010 RMK CI1 SLP203

CYYZ;2009-12-06 01:00;CYYZ 060100Z 29007KT 15SM FEW045 M04/M09 A3010 RMK SC2 SLP201

CYYZ;2009-12-06 02:00;CYYZ 060200Z 28006KT 15SM FEW055 M04/M09 A3010 RMK SC2 SLP201

CYYZ;2009-12-06 03:00;CYYZ 060300Z 27007KT 15SM FEW055 FEW250 M05/M09 A3010 RMK SC2CI1 SLP202

CYYZ;2009-12-06 04:00;CYYZ 060400Z 27007KT 15SM FEW045 FEW250 M05/M08 A3011 RMK SC1CI1 SLP206

CYYZ;2009-12-06 05:00;CYYZ 060500Z 26009KT 15SM BKN052 M04/M07 A3011 RMK SC6 SLP206

CYYZ;2009-12-06 06:00;CYYZ 060600Z 26010KT 15SM BKN052 M04/M07 A3010 RMK SC5 SLP203

CYYZ;2009-12-06 07:00;CYYZ 060700Z 25010KT 15SM BKN052 M03/M07 A3012 RMK SC6 SLP207

CYYZ;2009-12-06 08:00;CYYZ 060800Z 24009KT 15SM BKN053 M03/M07 A3013 RMK SC6 SLP212

CYYZ;2009-12-06 09:00;CYYZ 060900Z 24010KT 15SM BKN055 M03/M07 A3013 RMK SC7 SLP211

CYYZ;2009-12-06 10:00;CYYZ 061000Z 25012KT 12SM -SHSN OVC053 M02/M06 A3014 RMK SC8 SLP216

CYYZ;2009-12-06 11:00;CYYZ 061100Z 25013KT 12SM -SHSN OVC059 M02/M06 A3016 RMK SC8 SLP222

CYYZ;2009-12-06 12:00;CYYZ 061200Z 25011G16KT 12SM -SHSN BKN060 BKN150 M02/M06 A3018 RMK SC6AC2 PCPN VRY LGT SLP229

CYYZ;2009-12-06 13:00;CYYZ 061300Z 23012KT 15SM FEW060 SCT140 M03/M06 A3019 RMK SC2AC2 SLP231

CYYZ;2009-12-06 14:00;CYYZ 061400Z 24013G18KT 15SM FEW055 FEW140 M02/M06 A3021 RMK SC2AC1 SLP238

CYYZ;2009-12-06 15:00;CYYZ 061500Z 25017KT 15SM FEW055 FEW140 M01/M06 A3023 RMK SC2AC1 SLP246

CYYZ;2009-12-06 16:00;CYYZ 061600Z 24012G17KT 15SM FEW035 FEW220 01/M06 A3024 RMK SC1CI1 SLP251

CYYZ;2009-12-06 17:00;CYYZ 061700Z 23013G22KT 15SM FEW030 FEW110 SCT240 02/M07 A3021 RMK CU1AC2CI1 SLP239

CYYZ;2009-12-06 18:00;CYYZ 061800Z 24015G20KT 15SM FEW030 FEW220 02/M08 A3019 RMK CU1CI1 SLP233

CYYZ;2009-12-06 19:00;CYYZ 061900Z 23015KT 15SM FEW140 FEW230 02/M07 A3018 RMK AC1CI1 SLP228

CYYZ;2009-12-06 20:00;CYYZ 062000Z 23016KT 15SM FEW055 SCT130 SCT230 02/M08 A3018 RMK SC2AC2CI1 SLP228

CYYZ;2009-12-06 21:00;CYYZ 062100Z 23013KT 15SM FEW080 FEW250 02/M07 A3019 RMK AC1CI1 AC TR SLP230

CYYZ;2009-12-06 22:00;CYYZ 062200Z 22012KT 15SM FEW055 FEW250 01/M06 A3019 RMK SC2CI1 SLP231

CYYZ;2009-12-06 23:00;CYYZ 062300Z 22010G16KT 15SM FEW050 FEW250 01/M06 A3020 RMK SC1CI1 SLP234

CYYZ;2009-12-07 00:00;CYYZ 070000Z 23011KT 15SM FEW055 FEW250 00/M05 A3021 RMK SC1CI1 SLP239

CYYZ;2009-12-07 01:00;CYYZ 070100Z 24011KT 15SM FEW055 M00/M05 A3022 RMK SC1 SLP242

CYYZ;2009-12-07 02:00;CYYZ 070200Z 26011G17KT 15SM SCT061 BKN071 M00/M06 A3022 RMK SC3AC2 SLP241

CYYZ;2009-12-07 03:00;CYYZ 070300Z 27010KT 15SM SCT063 00/M06 A3022 RMK SC4 SLP240

CYYZ;2009-12-07 04:00;CYYZ 070400Z 26011KT 15SM FEW060 M01/M06 A3022 RMK SC2 SLP242

CYYZ;2009-12-07 05:00;CYYZ 070500Z 25008KT 15SM SCT048 BKN180 M02/M06 A3022 RMK SC3AC2 SLP240

CYYZ;2009-12-07 06:00;CYYZ 070600Z 25009KT 15SM SCT060 BKN160 M01/M06 A3020 RMK SC3AC2 SLP235

CYYZ;2009-12-07 07:00;CYYZ 070700Z 00000KT 15SM SCT062 M02/M06 A3019 RMK SC3 SLP232

CYYZ;2009-12-07 08:00;CYYZ 070800Z 17003KT 15SM SCT110 M01/M05 A3021 RMK AC4 SLP238

CYYZ;2009-12-07 09:00;CYYZ 070900Z 26005KT 15SM BKN130 M01/M05 A3019 RMK AC6 SLP233

CYYZ;2009-12-07 10:00;CYYZ 071000Z 28002KT 15SM FEW055 BKN170 M01/M05 A3019 RMK SC2AC5 SLP230

CYYZ;2009-12-07 11:00;CYYZ 071100Z 18002KT 15SM OVC120 M00/M06 A3017 RMK AC8 SLP226

CYYZ;2009-12-07 12:00;CYYZ 071200Z CCA 22004KT 15SM FEW030 OVC120 M00/M05 A3018 RMK SC2AC6 SLP228

CYYZ;2009-12-07 13:00;CYYZ 071300Z 21004KT 12SM BKN030 OVC070 M00/M05 A3017 RMK SC5AC3 SLP224

CYYZ;2009-12-07 14:00;CYYZ 071400Z 19004KT 12SM BKN026 OVC070 00/M05 A3015 RMK SC6AC2 SLP219

CYYZ;2009-12-07 15:00;CYYZ 071500Z 15002KT 12SM SCT025 OVC110 01/M05 A3014 RMK SC4AC4 SLP214

CYYZ;2009-12-07 15:30;CYYZ 071530Z 18003KT 10SM -SHSN BKN030 OVC048 01/ RMK SC5SC3

CYYZ;2009-12-07 16:00;CYYZ 071600Z 23004KT 6SM -SHSN BKN022 OVC030 01/M04 A3012 RMK SC6SC2 SLP208

CYYZ;2009-12-07 17:00;CYYZ 071700Z 26006KT 1 3/4SM -SHSN BKN013 OVC027 01/M02 A3010 RMK SC6SC2 SLP199

CYYZ;2009-12-07 17:15;CYYZ 071715Z 27005KT 4SM -SHSN BKN020 OVC030 01/ RMK SC6SC2

CYYZ;2009-12-07 18:00;CYYZ 071800Z 27004KT 6SM -SHSN FEW016 BKN025 OVC035 01/M01 A3007 RMK SC2SC3SC2 SLP190

CYYZ;2009-12-07 19:00;CYYZ 071900Z 26005KT 8SM -SHSN BKN018 OVC110 01/M02 A3006 RMK SC5AC3 PCPN VRY LGT SLP187

CYYZ;2009-12-07 19:25;CYYZ 071925Z 24006KT 12SM FEW018 BKN042 OVC049 01/ RMK SC2SC4SC2

CYYZ;2009-12-07 19:45;CYYZ 071945Z 26007KT 4SM -SHSN BKN018 OVC039 01/ RMK SC5SC3

CYYZ;2009-12-07 20:00;CYYZ 072000Z 25005KT 3SM -SHSN FEW013 BKN020 OVC028 01/M02 A3007 RMK SF2SC4SC2 SLP190

CYYZ;2009-12-07 20:28;CYYZ 072028Z 27006KT 1 1/4SM -SHSN BKN014 OVC022 00/ RMK SN3SF2SC2

CYYZ;2009-12-07 20:46;CYYZ 072046Z 27006KT 4SM -SHSN FEW018 BKN037 OVC090 00/ RMK SC2SC4AC2

CYYZ;2009-12-07 21:00;CYYZ 072100Z 27005KT 12SM -SHSN FEW009 SCT035 BKN055 OVC090 00/M01 A3008 RMK SF2CU2SC2AC2 SLP194

CYYZ;2009-12-07 22:00;CYYZ 072200Z 27005KT 10SM -SHSN FEW035 SCT050 BKN079 BKN090 M00/M02 A3009 RMK CU1SC2AC2AC2 PCPN VRY LGT SLP198

CYYZ;2009-12-07 23:00;CYYZ 072300Z 25006KT 10SM -SHSN BKN035 M00/M02 A3010 RMK SC7 PCPN VRY LGT SLP202

CYYZ;2009-12-07 23:53;CYYZ 072353Z 24005KT 10SM BKN038 M00/ RMK SC7

CYYZ;2009-12-08 00:00;CYYZ 080000Z 24005KT 10SM BKN038 BKN062 M00/M01 A3012 RMK SC5SC2 SLP206

CYYZ;2009-12-08 01:00;CYYZ 080100Z 25006KT 10SM SCT048 BKN098 M01/M03 A3012 RMK SC3AC3 SLP208

CYYZ;2009-12-08 02:00;CYYZ 080200Z 27011KT 12SM FEW051 BKN150 M01/M03 A3013 RMK SC2AC3 SLP209

CYYZ;2009-12-08 03:00;CYYZ 080300Z 26006KT 12SM FEW045 BKN062 M02/M03 A3014 RMK SC2SC3 SLP215

CYYZ;2009-12-08 04:00;CYYZ 080400Z 25005KT 12SM FEW045 BKN069 M02/M04 A3015 RMK SC2AC3 SLP219

CYYZ;2009-12-08 05:00;CYYZ 080500Z 29005KT 12SM BKN026 BKN042 M01/M03 A3017 RMK SC5SC2 SLP224

CYYZ;2009-12-08 06:00;CYYZ 080600Z 30008KT 12SM BKN015 BKN031 00/M02 A3018 RMK SC5SC2 SLP229

CYYZ;2009-12-08 06:15;CYYZ 080615Z 35012KT 10SM -SHSN BKN015 BKN031 M00/ RMK SC5SC2

CYYZ;2009-12-08 06:32;CYYZ 080632Z 34013KT 10SM BKN018 BKN028 M00/ RMK SC5SC2

CYYZ;2009-12-08 07:00;CYYZ 080700Z 36010G16KT 15SM BKN032 M01/M05 A3021 RMK SC6 SLP239

CYYZ;2009-12-08 08:00;CYYZ 080800Z 34006KT 15SM SCT028 M02/M07 A3024 RMK SC3 SLP249

CYYZ;2009-12-08 09:00;CYYZ 080900Z 34009KT 15SM BKN064 M02/M07 A3026 RMK SC6 SLP255

CYYZ;2009-12-08 10:00;CYYZ 081000Z 35007KT 15SM SCT065 M03/M08 A3028 RMK SC4 SLP262

CYYZ;2009-12-08 11:00;CYYZ 081100Z 36003KT 15SM BKN045 M03/M08 A3029 RMK SC5 SLP266

CYYZ;2009-12-08 12:00;CYYZ 081200Z 02005KT 15SM FEW040 M04/M08 A3031 RMK SC2 SLP272

CYYZ;2009-12-08 13:00;CYYZ 081300Z 04003KT 15SM BKN051 BKN220 M03/M07 A3031 RMK SC5CI1 SLP275

CYYZ;2009-12-08 14:00;CYYZ 081400Z 04003KT 15SM FEW050 FEW220 M02/M07 A3034 RMK SC1CI1 SLP284

CYYZ;2009-12-08 15:00;CYYZ 081500Z 11005KT 15SM BKN030 M01/M08 A3035 RMK SC7 SLP287

CYYZ;2009-12-08 16:00;CYYZ 081600Z 08005KT 15SM OVC028 M01/M08 A3034 RMK SC8 SLP283

CYYZ;2009-12-08 17:00;CYYZ 081700Z 12005KT 15SM OVC032 M00/M08 A3032 RMK SC8 SLP277

CYYZ;2009-12-08 18:00;CYYZ 081800Z 09006KT 15SM BKN030 OVC038 M00/M08 A3029 RMK SC7SC1 SLP267

CYYZ;2009-12-08 19:00;CYYZ 081900Z 08006KT 15SM OVC035 M00/M07 A3027 RMK SC8 SLP258

CYYZ;2009-12-08 20:00;CYYZ 082000Z 09009KT 15SM BKN040 OVC046 M00/M07 A3025 RMK SC6SC2 SLP254

CYYZ;2009-12-08 21:00;CYYZ 082100Z 09008KT 15SM OVC040 M00/M07 A3022 RMK SC8 SLP243

CYYZ;2009-12-08 22:00;CYYZ 082200Z 09013KT 15SM OVC036 M00/M06 A3020 RMK SC8 SLP237

CYYZ;2009-12-08 23:00;CYYZ 082300Z 09010G15KT 15SM OVC026 00/M05 A3018 RMK SC8 SLP230

CYYZ;2009-12-09 00:00;CYYZ 090000Z 10014KT 15SM OVC025 01/M04 A3016 RMK SC8 SLP221

CYYZ;2009-12-09 01:00;CYYZ 090100Z 11012G19KT 15SM SCT027 OVC069 01/M04 A3012 RMK SC3AC5 SLP208

CYYZ;2009-12-09 02:00;CYYZ 090200Z 11017G25KT 15SM FEW032 BKN069 OVC240 01/M04 A3009 RMK SC2AC2CI3 SLP198

CYYZ;2009-12-09 03:00;CYYZ 090300Z CCA 10018G25KT 15SM FEW025 OVC110 02/M03 A3004 RMK CF2AS6 SLP181

CYYZ;2009-12-09 04:00;CYYZ 090400Z 10019G26KT 15SM FEW028 OVC088 02/M03 A2998 RMK CF2AS6 PRESFR SLP160

CYYZ;2009-12-09 05:00;CYYZ 090500Z 11015G33KT 15SM FEW022 SCT039 OVC066 02/M03 A2990 RMK SC2SC2AS4 PRESFR SLP133

CYYZ;2009-12-09 05:17;CYYZ 090517Z 11024G33KT 10SM -SN BKN027 OVC039 02/ RMK SC5SC3

CYYZ;2009-12-09 06:00;CYYZ 090600Z 10020G29KT 2SM -SN SCT014 OVC022 01/M01 A2980 RMK SF3SC5 PRESFR SLP100

CYYZ;2009-12-09 06:08;CYYZ 090608Z 10016G26KT 1 1/4SM -SN SCT008 OVC012 01/ RMK SF3SC5

CYYZ;2009-12-09 07:00;CYYZ 090700Z 11022G31KT 1 1/4SM -SN OVC007 00/M00 A2972 RMK SN2SF6 PRESFR SLP071

CYYZ;2009-12-09 08:00;CYYZ 090800Z 10018G25KT 1 1/4SM -SN SCT005 OVC010 00/M00 A2964 RMK SN2SF2SC4 PRESFR SLP044

CYYZ;2009-12-09 09:00;CYYZ 090900Z 10018G25KT 1 1/4SM -SN SCT005 OVC009 00/00 A2956 RMK SN2SF2SC4 PRESFR /S02/ SLP016

CYYZ;2009-12-09 10:00;CYYZ 091000Z 11015G26KT 1 1/4SM -SN SCT005 OVC008 00/00 A2946 RMK SN2SF2SC4 PRESFR /S04/ SLP985

CYYZ;2009-12-09 11:00;CYYZ 091100Z CCA 11020G29KT 2SM -SN SCT005 OVC008 00/00 A2937 RMK SN2SF2SC4 PRESFR SLP955

CYYZ;2009-12-09 12:00;CYYZ 091200Z 10018G33KT 4SM -SN OVC007 01/01 A2927 RMK NS8 PRESFR /S05/ SLP919

CYYZ;2009-12-09 12:25;CYYZ 091225Z 10021G30KT 2SM -SNPL OVC007 01/ RMK SN1NS7 PRESFR

CYYZ;2009-12-09 12:41;CYYZ 091241Z 10021G31KT 3SM -SN OVC007 01/ RMK NS8 PRESFR

CYYZ;2009-12-09 13:00;CYYZ 091300Z 11019G29KT 2 1/4SM -SN OVC008 01/01 A2921 RMK SN1NS7 SLP898

CYYZ;2009-12-09 13:10;CYYZ 091310Z 10019G33KT 2SM -RASN OVC007 01/ RMK SN1NS7

CYYZ;2009-12-09 13:25;CYYZ 091325Z 10023G32KT 5SM -RASN OVC007 01/ RMK NS8 PRESFR

CYYZ;2009-12-09 13:36;CYYZ 091336Z 10019G28KT 1 3/4SM -SN OVC007 01/ RMK SN1NS7 PRESFR

CYYZ;2009-12-09 13:53;CYYZ 091353Z 10016G22KT 2 1/4SM -RASN OVC007 01/ RMK SN1NS7 PRESFR

CYYZ;2009-12-09 14:00;CYYZ 091400Z 09015G22KT 4SM -RASN OVC006 01/01 A2916 RMK NS8 /S01/ SLP880

CYYZ;2009-12-09 14:14;CYYZ 091414Z 10013G24KT 2 1/2SM -RA OVC006 01/ RMK NS8

CYYZ;2009-12-09 14:22;CYYZ 091422Z 10015G20KT 3SM -RASN OVC006 02/ RMK NS8

CYYZ;2009-12-09 15:00;CYYZ 091500Z 09014G26KT 4SM -RASN OVC006 02/02 A2912 RMK NS8 SLP865

CYYZ;2009-12-09 15:20;CYYZ 091520Z 10012G21KT 7SM -RA OVC005 02/ RMK NS8

CYYZ;2009-12-09 16:00;CYYZ 091600Z 10015KT 5SM -RA BKN005 OVC015 03/03 A2902 RMK SF6NS2 PRESFR SLP834

CYYZ;2009-12-09 17:00;CYYZ 091700Z 12011G19KT 4SM -RA BR BKN005 OVC010 04/04 A2896 RMK SF5NS3 PRESFR SLP814

CYYZ;2009-12-09 18:00;CYYZ 091800Z 11005KT 7SM -RA FEW003 BKN008 BKN070 05/05 A2893 RMK SF1SF6AC1 PRESFR SLP801

CYYZ;2009-12-09 18:12;CYYZ 091812Z 13006KT 8SM FEW005 BKN090 04/ RMK SF2AC6

CYYZ;2009-12-09 19:00;CYYZ 091900Z 17005KT 7SM FEW005 BKN032 OVC075 05/05 A2895 RMK SF2SC5AC2 SLP807

CYYZ;2009-12-09 19:09;CYYZ 091909Z 16006KT 4SM -RA FEW005 OVC030 05/ RMK SF2SC6

CYYZ;2009-12-09 20:00;CYYZ 092000Z 20009KT 15SM FEW007 OVC065 06/05 A2896 RMK SF1SC7 SLP813

CYYZ;2009-12-09 20:24;CYYZ 092024Z 22012KT 15SM -RA BKN030 BKN070 06/ RMK SC6AC1

CYYZ;2009-12-09 20:54;CYYZ 092054Z 22014KT 15SM FEW030 BKN075 BKN090 05/ RMK CU2AC4AC2

CYYZ;2009-12-09 21:00;CYYZ 092100Z 22013G18KT 15SM BKN030 BKN080 05/03 A2899 RMK SC6AC2 VIRGA SHWRS W SLP821

CYYZ;2009-12-09 22:00;CYYZ 092200Z 22016G26KT 15SM FEW030 FEW060 SCT130 04/M00 A2902 RMK SF1SC1AS0 SHWRS TCU E SLP832

CYYZ;2009-12-09 23:00;CYYZ 092300Z 22020G27KT 15SM BKN035 BKN050 03/M02 A2905 RMK SC6SC2 SLP842

CYYZ;2009-12-10 00:00;CYYZ 100000Z 23019G27KT 15SM BKN030 02/M03 A2909 RMK SC7 SLP855

CYYZ;2009-12-10 00:42;CYYZ 100042Z 24018G35KT 15SM -SHSN BKN027 01/ RMK SC7 PCPN VRY LGT

CYYZ;2009-12-10 01:00;CYYZ 100100Z CCA 23029G41KT 15SM -SHSN OVC025 01/M04 A2911 RMK SC8 PCPN VRY LGT SLP863

CYYZ;2009-12-10 02:00;CYYZ 100200Z 24024G30KT 12SM -SHSN BKN025 OVC030 00/M04 A2914 RMK SC6SC2 SLP872

CYYZ;2009-12-10 02:50;CYYZ 100250Z 23018G29KT 1 1/4SM -SHSN OVC022 M00/ RMK SN3SC5

CYYZ;2009-12-10 03:00;CYYZ 100300Z 23019G28KT 4SM -SHSN OVC022 M01/M03 A2915 RMK SC8 SLP878

CYYZ;2009-12-10 04:00;CYYZ 100400Z 22018G31KT 12SM -SHSN OVC025 00/M04 A2917 RMK SC8 SLP883

CYYZ;2009-12-10 05:00;CYYZ 100500Z 23020G27KT 10SM -SHSN BKN025 OVC030 M01/M04 A2920 RMK SC5SC3 SLP894

CYYZ;2009-12-10 06:00;CYYZ 100600Z 24026G34KT 10SM -SHSN SCT028 OVC088 M01/M05 A2921 RMK SC4AC4 PCPN VRY LGT SLP898

CYYZ;2009-12-10 07:00;CYYZ 100700Z 24023G40KT 10SM -SHSN SCT028 BKN032 OVC100 M01/M05 A2925 RMK SC3SC3AC2 PCPN VRY LGT SLP911

CYYZ;2009-12-10 08:00;CYYZ 100800Z 24027G36KT 12SM -SHSN SCT045 OVC120 M01/M06 A2928 RMK SC3AC5 PCPN VRY LGT SLP921

CYYZ;2009-12-10 09:00;CYYZ 100900Z CCA 24025G35KT 15SM -SHSN FEW025 SCT042 OVC130 M02/M06 A2931 RMK SC2SC2AC4 PCPN VRY LGT SLP932

CYYZ;2009-12-10 09:48;CYYZ 100948Z 25022G31KT 2 1/2SM -SHSN OVC023 M03/ RMK SN3SC5

CYYZ;2009-12-10 10:00;CYYZ 101000Z CCA 25017G26KT 4SM -SHSN FEW013 BKN031 OVC069 M03/M04 A2936 RMK SF2SC4AC2 SLP947

CYYZ;2009-12-10 10:39;CYYZ 101039Z 26019G25KT 3/4SM R23/P6000FT/N R24R/P6000FT/D -SN BKN003 OVC012 M03/ RMK SN3SF2SC2

CYYZ;2009-12-10 10:42;CYYZ 101042Z 25019G25KT 4SM -SN SCT008 OVC025 M03/ RMK SF3SC5

CYYZ;2009-12-10 11:00;CYYZ 101100Z 26019G26KT 4SM -SN FEW012 BKN020 OVC025 M03/M05 A2938 RMK SF2SC3SC3 /S01/ SLP956

CYYZ;2009-12-10 11:23;CYYZ 101123Z 24016G21KT 2 1/4SM -SN FEW012 OVC025 M03/ RMK SF2SC6

CYYZ;2009-12-10 11:45;CYYZ 101145Z 25020G26KT 3SM -SN DRSN FEW016 BKN028 M03/ RMK SF2SF5

CYYZ;2009-12-10 12:00;CYYZ 101200Z 26023G29KT 5SM -SN DRSN BKN028 BKN240 M03/M06 A2941 RMK SF6CI1 SLP967

CYYZ;2009-12-10 13:00;CYYZ 101300Z 25020G30KT 12SM -SN DRSN FEW025 SCT260 M03/M06 A2943 RMK SF2CI0 SLP975

CYYZ;2009-12-10 14:00;CYYZ 101400Z 25023G28KT 12SM -SN FEW030 FEW260 M03/M07 A2947 RMK SC1CI1 SLP986

CYYZ;2009-12-10 15:00;CYYZ 101500Z 26029G36KT 15SM FEW025 BKN056 BKN270 M03/M08 A2950 RMK SF1SC6CI0 SLP999

CYYZ;2009-12-10 16:00;CYYZ 101600Z 26026G32KT 15SM BKN030 BKN120 BKN270 M03/M08 A2952 RMK SC6AC1CI0 SLP004

CYYZ;2009-12-10 16:17;CYYZ 101617Z 25021G28KT 8SM -SN FEW020 BKN035 M03/ RMK SC2SC5 VIS 4 W

CYYZ;2009-12-10 17:00;CYYZ 101700Z 24022G28KT 3SM -SN DRSN FEW018 OVC024 M03/M06 A2953 RMK SF2SC6 SLP007

CYYZ;2009-12-10 17:17;CYYZ 101717Z 25023G29KT 2SM -SN DRSN BKN020 M04/ RMK SN2SF6

CYYZ;2009-12-10 17:45;CYYZ 101745Z 24023G29KT 4SM -SN DRSN BKN020 M04/ RMK SF7 VIS LWR W

CYYZ;2009-12-10 18:00;CYYZ 101800Z 25026KT 8SM -SN DRSN FEW020 BKN030 BKN270 M04/M07 A2953 RMK SF2SC3CI1 SLP008

CYYZ;2009-12-10 18:54;CYYZ 101854Z 24020G25KT 2 1/4SM -SHSN DRSN OVC018 M05/ RMK SF7

CYYZ;2009-12-10 19:00;CYYZ 101900Z 25025G34KT 1 3/4SM -SHSN DRSN BKN018 M05/M07 A2955 RMK SN2CU4 SLP014

CYYZ;2009-12-10 19:11;CYYZ 101911Z 25026G34KT 8SM -SHSN DRSN FEW018 FEW025 BKN270 M05/ RMK SF1CU2CI4

CYYZ;2009-12-10 19:48;CYYZ 101948Z 26026G35KT 15SM FEW025 BKN090 M05/ RMK SF2AC5

CYYZ;2009-12-10 20:00;CYYZ 102000Z 25025G31KT 15SM FEW030 BKN082 M05/M11 A2958 RMK SF1AC6 SLP024

CYYZ;2009-12-10 21:00;CYYZ 102100Z 25021G30KT 15SM FEW030 FEW270 M07/M12 A2963 RMK SF1CI2 SLP042

CYYZ;2009-12-10 22:00;CYYZ 102200Z 25025G33KT 15SM FEW030 BKN130 M07/M12 A2966 RMK SF1AS6 PRESRR SLP052

CYYZ;2009-12-10 23:00;CYYZ 102300Z 25027G32KT 15SM FEW030 FEW120 M08/M13 A2970 RMK SF1AS1 SLP065

CYYZ;2009-12-11 00:00;CYYZ 110000Z 25031G39KT 15SM FEW030 FEW120 SCT220 M09/M14 A2971 RMK SC1AC1CI0 SC TR SLP072

CYYZ;2009-12-11 00:02;CYYZ 110002Z 26032G39KT 8SM -SHSN FEW026 BKN120 M09/ RMK SC2AS5

CYYZ;2009-12-11 01:00;CYYZ 110100Z 25023G36KT 12SM -SHSN FEW023 SCT110 M09/M14 A2974 RMK SC1AS1 PCPN VRY LGT SLP080

CYYZ;2009-12-11 02:00;CYYZ 110200Z 25023G33KT 15SM FEW022 FEW120 M09/M14 A2976 RMK SC1AC1 SLP086

CYYZ;2009-12-11 03:00;CYYZ 110300Z 25024G35KT 15SM FEW034 FEW096 BKN140 M09/M13 A2977 RMK SC1AC2AC4 SLP092

CYYZ;2009-12-11 03:30;CYYZ 110330Z 25026G32KT 12SM -SHSN FEW040 SCT078 BKN120 M09/ RMK SC1AC3AS3

CYYZ;2009-12-11 04:00;CYYZ 110400Z 24029G38KT 10SM -SHSN SCT017 BKN029 BKN120 M09/M13 A2980 RMK SC3SC3AC1 SLP100

CYYZ;2009-12-11 05:00;CYYZ 110500Z 24020G27KT 8SM -SHSN BKN022 BKN035 M09/M12 A2983 RMK SC5SC2 SLP110

CYYZ;2009-12-11 06:00;CYYZ 110600Z 24022G27KT 5SM -SHSN SCT018 BKN027 M09/M11 A2984 RMK SC3SC3 SLP114

CYYZ;2009-12-11 06:25;CYYZ 110625Z 24025G32KT 3SM -SHSN BKN013 BKN026 M10/ RMK SC5SC2

CYYZ;2009-12-11 06:31;CYYZ 110631Z 25024G33KT 2SM -SHSN BKN012 OVC023 M10/ RMK SC6SC2

CYYZ;2009-12-11 06:44;CYYZ 110644Z 25020G28KT 10SM -SHSN FEW012 SCT027 M10/ RMK SC2SC2

CYYZ;2009-12-11 07:00;CYYZ 110700Z 25021G26KT 8SM -SHSN SCT011 BKN019 M10/M13 A2986 RMK SC3SC3 SLP121

CYYZ;2009-12-11 07:35;CYYZ 110735Z 25018G24KT 15SM SCT018 M10/ RMK SC3

CYYZ;2009-12-11 08:00;CYYZ 110800Z 25019G24KT 15SM SCT021 M10/M14 A2987 RMK SC3 SLP126

CYYZ;2009-12-11 09:00;CYYZ 110900Z 25021G27KT 15SM FEW026 M10/M14 A2988 RMK SC2 SLP129

CYYZ;2009-12-11 10:00;CYYZ 111000Z 25022G29KT 15SM FEW023 M10/M14 A2989 RMK SC1 SLP133

CYYZ;2009-12-11 11:00;CYYZ 111100Z 25017G22KT 15SM FEW022 M10/M14 A2990 RMK SC1 SLP136

CYYZ;2009-12-11 12:00;CYYZ 111200Z 25014KT 15SM FEW022 M10/M13 A2992 RMK SC1 SLP143

CYYZ;2009-12-11 13:00;CYYZ 111300Z 25016G25KT 15SM FEW008 FEW022 M10/M13 A2993 RMK CF1SC1 SLP146

CYYZ;2009-12-11 14:00;CYYZ 111400Z 25016G25KT 15SM FEW022 M08/M13 A2996 RMK SC1 CF ASSOCIATED SLP158

CYYZ;2009-12-11 15:00;CYYZ 111500Z 27018G25KT 15SM FEW022 M08/M13 A2999 RMK SC1 CF ASSOCIATED SLP167

CYYZ;2009-12-11 16:00;CYYZ 111600Z 26024KT 15SM SCT030 M07/M12 A3002 RMK SC4 SLP177

CYYZ;2009-12-11 17:00;CYYZ 111700Z 27023G30KT 15SM BKN035 M07/M13 A3003 RMK SC5 CU ASSOCIATED SLP180

CYYZ;2009-12-11 18:00;CYYZ 111800Z 25021G30KT 15SM BKN035 M07/M11 A3005 RMK SC6 SNOWSHOWERS SW/ VIS LOWER SW SLP188

CYYZ;2009-12-11 19:00;CYYZ 111900Z 27027G34KT 15SM BKN035 M07/M13 A3007 RMK SC5 SLP195

CYYZ;2009-12-11 20:00;CYYZ 112000Z 26021G28KT 15SM SCT035 M07/M14 A3011 RMK SC4 SLP207

CYYZ;2009-12-11 21:00;CYYZ 112100Z 27023G29KT 15SM FEW035 BKN040 BKN090 M08/M14 A3014 RMK CU2SC3AC1 SLP219

CYYZ;2009-12-11 22:00;CYYZ 112200Z 26018KT 15SM FEW030 SCT035 M08/M13 A3016 RMK CU1SC2 SLP225

CYYZ;2009-12-11 23:00;CYYZ 112300Z 26018KT 15SM FEW030 M08/M13 A3017 RMK SC1 SLP229

CYYZ;2009-12-12 00:00;CYYZ 120000Z 26016G21KT 15SM SKC M08/M13 A3020 RMK SLP238

CYYZ;2009-12-12 01:00;CYYZ 120100Z 25007KT 15SM FEW035 M09/M13 A3020 RMK SC2 SLP240

CYYZ;2009-12-12 02:00;CYYZ 120200Z 25011KT 15SM FEW035 M08/M12 A3021 RMK SC2 SLP241

CYYZ;2009-12-12 03:00;CYYZ 120300Z 27016G24KT 15SM SCT045 M07/M13 A3022 RMK SC4 SLP245

CYYZ;2009-12-12 04:00;CYYZ 120400Z 27015G20KT 15SM FEW035 BKN045 M07/M12 A3024 RMK SC2SC6 SLP251

CYYZ;2009-12-12 04:42;CYYZ 120442Z 28018KT 15SM -SHSN FEW035 BKN045 M07/ RMK SC2SC6 PCPN VRY LGT

CYYZ;2009-12-12 05:00;CYYZ 120500Z 27017KT 15SM -SHSN BKN050 M07/M13 A3025 RMK SC6 PCPN VRY LGT SLP256

CYYZ;2009-12-12 06:00;CYYZ 120600Z 27017KT 15SM -SHSN BKN055 M07/M13 A3027 RMK SC6 PCPN VRY LGT SLP262

CYYZ;2009-12-12 07:00;CYYZ 120700Z 26012KT 15SM -SHSN BKN047 M07/M12 A3029 RMK SC6 PCPN VRY LGT SLP268

CYYZ;2009-12-12 08:00;CYYZ 120800Z 26015G21KT 15SM BKN043 M06/M12 A3030 RMK SC7 SLP273

CYYZ;2009-12-12 09:00;CYYZ 120900Z 27013KT 15SM FEW035 SCT070 M06/M12 A3033 RMK SC2AC2 SLP281

CYYZ;2009-12-12 10:00;CYYZ 121000Z 27008KT 15SM SKC M07/M12 A3034 RMK SLP286

CYYZ;2009-12-12 11:00;CYYZ 121100Z 27011KT 15SM SKC M07/M12 A3036 RMK SLP293

CYYZ;2009-12-12 12:00;CYYZ 121200Z 27008KT 15SM FEW025 M07/M12 A3037 RMK CF1 SLP296

CYYZ;2009-12-12 13:00;CYYZ 121300Z 24008KT 15SM FEW025 FEW250 M08/M12 A3040 RMK CF1CI0 SLP306

CYYZ;2009-12-12 14:00;CYYZ 121400Z 24006KT 15SM FEW025 FEW250 M07/M11 A3042 RMK SC1CI0 SLP312

CYYZ;2009-12-12 15:00;CYYZ 121500Z 21007KT 15SM FEW025 M06/M10 A3043 RMK SC1 SLP315

CYYZ;2009-12-12 16:00;CYYZ 121600Z 21006KT 15SM FEW025 M04/M09 A3042 RMK CU1 SLP312

CYYZ;2009-12-12 17:00;CYYZ 121700Z 25011KT 15SM SKC M03/M08 A3039 RMK SLP303

CYYZ;2009-12-12 18:00;CYYZ 121800Z 24010G15KT 15SM FEW250 M01/M07 A3035 RMK CI1 SLP289

CYYZ;2009-12-12 19:00;CYYZ 121900Z 22013G18KT 15SM FEW035 FEW250 01/M06 A3034 RMK CF1CI0 SLP284

CYYZ;2009-12-12 20:00;CYYZ 122000Z 22008G15KT 15SM FEW035 FEW250 02/M06 A3032 RMK CF1CI0 SLP277

CYYZ;2009-12-12 21:00;CYYZ 122100Z 22010G16KT 15SM FEW035 FEW250 02/M06 A3031 RMK CU2CI1 CI TR SLP273

CYYZ;2009-12-12 22:00;CYYZ 122200Z 21012KT 15SM FEW030 FEW250 01/M05 A3031 RMK SC1CI1 SC TR SLP274

CYYZ;2009-12-12 23:00;CYYZ 122300Z 22009KT 15SM FEW250 00/M05 A3032 RMK CI1 SLP278

CYYZ;2009-12-13 00:00;CYYZ 130000Z 22010KT 15SM FEW250 M00/M07 A3031 RMK CI1 SLP275

CYYZ;2009-12-13 01:00;CYYZ 130100Z 22009KT 15SM SCT220 M00/M07 A3030 RMK CI2 SLP271

CYYZ;2009-12-13 02:00;CYYZ 130200Z 20004KT 15SM FEW180 BKN210 M00/M08 A3027 RMK AC2CI2 SLP260

CYYZ;2009-12-13 03:00;CYYZ 130300Z 18004KT 15SM BKN180 00/M08 A3025 RMK AC6 SLP252

CYYZ;2009-12-13 04:00;CYYZ 130400Z 17004KT 15SM BKN190 00/M08 A3023 RMK AC5 SLP247

CYYZ;2009-12-13 05:00;CYYZ 130500Z 19007KT 15SM FEW180 SCT200 M00/M08 A3019 RMK AC2CI1 SLP234

CYYZ;2009-12-13 06:00;CYYZ 130600Z 19006KT 15SM FEW180 SCT200 00/M08 A3017 RMK AC2CI1 SLP225

CYYZ;2009-12-13 07:00;CYYZ 130700Z 18006KT 15SM BKN097 BKN130 00/M06 A3015 RMK AC5AC2 SLP217

CYYZ;2009-12-13 08:00;CYYZ 130800Z 17006KT 15SM BKN085 BKN130 01/M06 A3010 RMK AC5AC2 SLP202

CYYZ;2009-12-13 09:00;CYYZ 130900Z 18004KT 15SM OVC077 02/M05 A3006 RMK AC8 SLP186

CYYZ;2009-12-13 10:00;CYYZ 131000Z 15003KT 15SM FEW035 SCT040 OVC068 02/M05 A3002 RMK SC2SC2AC4 SLP173

CYYZ;2009-12-13 11:00;CYYZ 131100Z 15004KT 15SM BKN050 BKN068 02/M04 A2998 RMK SC5AC2 SLP161

CYYZ;2009-12-13 12:00;CYYZ 131200Z 17006KT 15SM SCT043 BKN087 BKN110 03/M04 A2995 RMK SC3AC2AC2 SLP151

CYYZ;2009-12-13 13:00;CYYZ 131300Z 16005KT 15SM BKN058 OVC076 03/M04 A2993 RMK SC5AC3 SLP142

CYYZ;2009-12-13 14:00;CYYZ 131400Z 19014G19KT 15SM OVC054 03/M04 A2989 RMK SC8 SLP129

CYYZ;2009-12-13 14:12;CYYZ 131412Z 19013G19KT 12SM -RA OVC053 03/ RMK SC8

CYYZ;2009-12-13 15:00;CYYZ 131500Z 19009KT 8SM -RA OVC026 02/M02 A2988 RMK SC8 SLP124

CYYZ;2009-12-13 16:00;CYYZ 131600Z 20007KT 12SM -RA BKN017 OVC036 02/M00 A2985 RMK SC6SC2 PCPN VRY LGT SLP115

CYYZ;2009-12-13 16:23;CYYZ 131623Z 21006KT 12SM -RA BKN013 OVC026 02/ RMK SC6SC2 PCPN VRY LGT

CYYZ;2009-12-13 17:00;CYYZ 131700Z 19004KT 8SM -RA FEW008 OVC011 01/01 A2982 RMK SC2SC6 SLP104

CYYZ;2009-12-13 17:22;CYYZ 131722Z 22005KT 6SM -RA BR FEW006 OVC009 02/ RMK SC2SC6

CYYZ;2009-12-13 17:49;CYYZ 131749Z CCA 23006KT 5SM -RAPL BR OVC007 02/ RMK SC8

CYYZ;2009-12-13 18:00;CYYZ 131800Z 23006KT 10SM -RA OVC007 02/01 A2981 RMK SC8 SLP101

CYYZ;2009-12-13 18:24;CYYZ 131824Z 22005KT 9SM -RA FEW007 OVC011 02/ RMK SC2SC6

CYYZ;2009-12-13 18:43;CYYZ 131843Z 22007KT 12SM SCT011 OVC015 02/ RMK SC3SC5

CYYZ;2009-12-13 19:00;CYYZ 131900Z 24005KT 15SM OVC013 02/01 A2980 RMK SC8 SLP099

CYYZ;2009-12-13 20:00;CYYZ 132000Z 26007KT 15SM OVC016 02/01 A2983 RMK SC8 SLP107

CYYZ;2009-12-13 21:00;CYYZ 132100Z 27007KT 15SM SCT018 OVC053 02/01 A2983 RMK SC3SC5 SLP109

CYYZ;2009-12-13 22:00;CYYZ 132200Z 27006KT 15SM OVC019 02/01 A2986 RMK SC8 SLP119

CYYZ;2009-12-13 23:00;CYYZ 132300Z 27007KT 15SM OVC016 02/01 A2988 RMK SC8 SLP125

CYYZ;2009-12-13 23:33;CYYZ 132333Z 27009KT 12SM -SHRA SCT016 OVC022 02/ RMK SC4SC4

CYYZ;2009-12-14 00:00;CYYZ 140000Z 25007KT 15SM SCT022 OVC027 02/01 A2993 RMK SC3SC5 SLP142

CYYZ;2009-12-14 01:00;CYYZ 140100Z 25005KT 15SM OVC024 02/01 A2994 RMK SC8 SLP146

CYYZ;2009-12-14 02:00;CYYZ 140200Z 26005KT 15SM OVC028 02/01 A2998 RMK SC8 SLP157

CYYZ;2009-12-14 03:00;CYYZ 140300Z 26006KT 15SM OVC029 02/00 A2999 RMK SC8 SLP164

CYYZ;2009-12-14 04:00;CYYZ 140400Z 30006KT 15SM OVC028 02/M01 A3000 RMK SC8 SLP165

CYYZ;2009-12-14 05:00;CYYZ 140500Z 27005KT 15SM OVC027 02/M01 A3001 RMK SC8 SLP168

CYYZ;2009-12-14 06:00;CYYZ 140600Z 28007KT 15SM OVC026 02/M02 A3002 RMK SC8 SLP174

CYYZ;2009-12-14 07:00;CYYZ 140700Z CCA 31004KT 15SM OVC029 01/M01 A3004 RMK SC8 SLP178

CYYZ;2009-12-14 08:00;CYYZ 140800Z 34006KT 15SM OVC034 01/M01 A3007 RMK SC8 SLP188

CYYZ;2009-12-14 09:00;CYYZ 140900Z 05003KT 15SM OVC032 01/M02 A3002 RMK SC8 SLP172

CYYZ;2009-12-14 10:00;CYYZ 141000Z 00000KT 15SM OVC029 01/M02 A3002 RMK SC8 SLP173

CYYZ;2009-12-14 11:00;CYYZ 141100Z 00000KT 15SM SCT029 OVC034 01/M02 A3001 RMK SC3SC5 SLP169

CYYZ;2009-12-14 12:00;CYYZ 141200Z 17003KT 15SM OVC032 01/M02 A3001 RMK SC8 SLP170

CYYZ;2009-12-14 13:00;CYYZ 141300Z 11002KT 10SM OVC028 02/M02 A3001 RMK SC8 SLP169

CYYZ;2009-12-14 14:00;CYYZ 141400Z 10003KT 10SM OVC026 02/M01 A3000 RMK SC8 SLP167

CYYZ;2009-12-14 15:00;CYYZ 141500Z 14003KT 3SM BR FEW012 OVC019 02/01 A3001 RMK SC2SC6 SLP169

CYYZ;2009-12-14 15:15;CYYZ 141515Z 14004KT 1 3/4SM BR BKN005 OVC018 02/ RMK FG1SF5SC2

CYYZ;2009-12-14 15:39;CYYZ 141539Z 15005KT 1 1/2SM -RA BR OVC004 02/ RMK FG2SC6

CYYZ;2009-12-14 16:00;CYYZ 141600Z 15006KT 2 1/4SM -RA BR BKN004 OVC009 02/02 A2998 RMK FG2SC5SC2 SLP160

CYYZ;2009-12-14 16:14;CYYZ 141614Z 15005KT 2 1/4SM -RA BR SCT003 OVC007 02/ RMK FG2SF2SC4

CYYZ;2009-12-14 16:39;CYYZ 141639Z 14005KT 4SM -RA BR SCT004 OVC007 02/ RMK SF3SC5

CYYZ;2009-12-14 17:00;CYYZ 141700Z 15004KT 4SM -RA BR FEW004 BKN007 OVC016 02/02 A2993 RMK SF2SC5SC2 PCPN VRY LGT SLP143

CYYZ;2009-12-14 17:38;CYYZ 141738Z 13004KT 4SM -DZ BR BKN004 OVC026 03/ RMK ST6SC2

CYYZ;2009-12-14 18:00;CYYZ 141800Z 14005KT 4SM -DZ BR FEW005 OVC028 03/02 A2988 RMK SF2SC6 PRESFR SLP125

CYYZ;2009-12-14 18:18;CYYZ 141818Z 15004KT 4SM -DZ BR BKN005 OVC026 03/ RMK ST5SC3

CYYZ;2009-12-14 19:00;CYYZ 141900Z 15004KT 3SM -DZ BR BKN007 OVC014 03/03 A2986 RMK ST6SC2 SLP119

CYYZ;2009-12-14 20:00;CYYZ 142000Z 12007KT 5SM BR SCT006 OVC015 03/03 A2982 RMK SC3SC5 SLP104

CYYZ;2009-12-14 20:25;CYYZ 142025Z 13007KT 4SM -RA BR BKN007 OVC015 04/ RMK SC5SC3

CYYZ;2009-12-14 21:00;CYYZ 142100Z 13007KT 4SM -RA BR SCT006 OVC013 04/03 A2980 RMK SC4SC4 SLP099

CYYZ;2009-12-14 22:00;CYYZ 142200Z 15004KT 3SM -RA BR BKN007 OVC011 04/03 A2978 RMK SC5SC3 SLP092

CYYZ;2009-12-14 23:00;CYYZ 142300Z 14006KT 3SM -RA BR FEW004 BKN007 OVC012 03/03 A2976 RMK SF2SC4SC2 SLP085

CYYZ;2009-12-15 00:00;CYYZ 150000Z 12003KT 4SM -RA BR SCT004 BKN007 OVC011 04/03 A2975 RMK SF3SC3SC2 SLP081

CYYZ;2009-12-15 01:00;CYYZ 150100Z 12005KT 4SM -RA BR FEW005 BKN007 OVC011 03/03 A2973 RMK SF2SC4SC2 SLP074

CYYZ;2009-12-15 02:00;CYYZ 150200Z 16002KT 4SM -RA BR FEW005 OVC008 04/04 A2974 RMK SF2SC6 SLP076

CYYZ;2009-12-15 03:00;CYYZ 150300Z 20003KT 4SM -DZ BR FEW005 BKN007 OVC011 04/04 A2974 RMK SF2ST4SC2 SLP075

CYYZ;2009-12-15 03:17;CYYZ 150317Z 20003KT 4SM BR BKN012 OVC064 04/ RMK ST5SC3

CYYZ;2009-12-15 04:00;CYYZ 150400Z 25004KT 5SM BR FEW012 SCT064 OVC072 03/03 A2974 RMK SC2SC2AC4 SLP075

CYYZ;2009-12-15 05:00;CYYZ 150500Z 25006KT 10SM FEW035 OVC071 03/03 A2975 RMK SC2AC6 SLP079

CYYZ;2009-12-15 06:00;CYYZ 150600Z 26007KT 12SM FEW035 BKN065 OVC074 03/02 A2975 RMK SC2SC3AC2 SLP082

CYYZ;2009-12-15 07:00;CYYZ 150700Z 28008KT 12SM FEW009 BKN028 OVC061 03/02 A2978 RMK SC2SC3SC2 SLP090

CYYZ;2009-12-15 07:42;CYYZ 150742Z 34007KT 12SM SCT009 BKN019 OVC061 02/ RMK SC3SC2SC2

CYYZ;2009-12-15 08:00;CYYZ 150800Z 33008KT 12SM BKN007 OVC016 02/01 A2981 RMK SF5SC3 SLP100

CYYZ;2009-12-15 08:22;CYYZ 150822Z 33010KT 12SM BKN015 OVC049 02/ RMK SC5SC3

CYYZ;2009-12-15 09:00;CYYZ 150900Z 33007KT 12SM BKN015 OVC050 01/01 A2983 RMK SC5SC3 SLP107

CYYZ;2009-12-15 10:00;CYYZ 151000Z 31010KT 12SM OVC015 02/01 A2985 RMK SC8 SLP113

CYYZ;2009-12-15 11:00;CYYZ 151100Z 31012KT 12SM SCT012 OVC017 02/00 A2988 RMK SC3SC5 SLP123

CYYZ;2009-12-15 12:00;CYYZ 151200Z CCA 33014KT 15SM OVC018 02/M01 A2991 RMK SC8 SLP134

CYYZ;2009-12-15 13:00;CYYZ 151300Z 32013G18KT 15SM OVC019 01/M01 A2994 RMK SC8 SLP146

CYYZ;2009-12-15 14:00;CYYZ 151400Z 33011G17KT 15SM OVC021 01/M02 A2997 RMK SC8 SLP154

CYYZ;2009-12-15 15:00;CYYZ 151500Z 32010KT 15SM FEW015 BKN022 OVC069 01/M02 A2999 RMK SC2SC5AC2 SLP162

CYYZ;2009-12-15 15:42;CYYZ 151542Z 32011KT 12SM -SHSN BKN023 BKN042 OVC070 01/ RMK SC5SC2AC1

CYYZ;2009-12-15 16:00;CYYZ 151600Z 31012KT 12SM -SHSN BKN023 OVC041 01/M02 A3001 RMK SC6SC2 SLP170

CYYZ;2009-12-15 17:00;CYYZ 151700Z 33010KT 8SM -SHSN BKN015 OVC022 00/M01 A3000 RMK SC6SC2 SLP165

CYYZ;2009-12-15 17:45;CYYZ 151745Z 32009KT 15SM SCT018 OVC051 01/ RMK SC3SC5

CYYZ;2009-12-15 18:00;CYYZ 151800Z 32010KT 15SM SCT018 OVC053 01/M03 A3000 RMK SC3SC5 SLP165

CYYZ;2009-12-15 19:00;CYYZ 151900Z 31012KT 15SM FEW022 OVC054 00/M05 A2999 RMK SC2SC6 SLP164

CYYZ;2009-12-15 20:00;CYYZ 152000Z 32015KT 15SM SCT031 BKN079 00/M06 A3001 RMK SC3AC4 SLP170

CYYZ;2009-12-15 21:00;CYYZ 152100Z 31009KT 15SM FEW022 BKN038 BKN079 M00/M06 A3004 RMK SC1SC5AC2 SLP179

CYYZ;2009-12-15 21:11;CYYZ 152111Z 31019G25KT 10SM -SHSN BKN029 OVC038 M00/ RMK SC5SC3

CYYZ;2009-12-15 21:36;CYYZ 152136Z 28012G18KT 15SM BKN042 OVC074 M01/ RMK SC6AC2

CYYZ;2009-12-15 22:00;CYYZ 152200Z 27010KT 15SM FEW032 BKN079 M01/M05 A3006 RMK SC2AC4 SLP186

CYYZ;2009-12-15 23:00;CYYZ 152300Z 29017KT 12SM -SHSN FEW036 BKN089 M01/M06 A3008 RMK SC2AC2 SLP193

CYYZ;2009-12-15 23:05;CYYZ 152305Z 28016G22KT 2SM -SHSN OVC006 M02/ RMK SN3SC5

CYYZ;2009-12-15 23:14;CYYZ 152314Z 28012G19KT 8SM -SHSN OVC025 M03/ RMK SC8

CYYZ;2009-12-15 23:44;CYYZ 152344Z 31021KT 15SM SCT034 BKN045 M02/ RMK SC3SC3

CYYZ;2009-12-16 00:00;CYYZ 160000Z 32018KT 15SM SCT045 BKN080 M02/M06 A3011 RMK SC3AC3 SLP205

CYYZ;2009-12-16 01:00;CYYZ 160100Z 31015G27KT 15SM FEW030 FEW080 M03/M08 A3015 RMK SC1AC1 AC TR SLP217

CYYZ;2009-12-16 02:00;CYYZ 160200Z 30014KT 15SM FEW030 SCT067 M03/M08 A3018 RMK SC2AC2 SLP227

CYYZ;2009-12-16 03:00;CYYZ 160300Z 28008KT 15SM SCT063 SCT070 M04/M08 A3020 RMK SC3AC1 SLP236

CYYZ;2009-12-16 04:00;CYYZ 160400Z 27013KT 15SM SCT055 SCT070 M05/M09 A3022 RMK SC3AC1 SLP241

CYYZ;2009-12-16 05:00;CYYZ 160500Z 28011KT 15SM FEW055 BKN080 M05/M09 A3022 RMK SC2AC2 SLP242

CYYZ;2009-12-16 06:00;CYYZ 160600Z 28013KT 15SM BKN048 M04/M09 A3022 RMK SC6 SLP243

CYYZ;2009-12-16 07:00;CYYZ 160700Z CCA 27014KT 15SM BKN048 M04/M09 A3024 RMK SC6 SLP249

CYYZ;2009-12-16 08:00;CYYZ 160800Z CCA 27012G18KT 15SM BKN048 M04/M10 A3027 RMK SC6 SLP258

CYYZ;2009-12-16 08:40;CYYZ 160840Z CCF 25017KT 4SM -SHSN FEW025 BKN039 M05/ RMK SC2SC6

CYYZ;2009-12-16 09:00;CYYZ 160900Z CCA 26015G20KT 10SM -SHSN FEW025 SCT035 OVC040 M05/M08 A3027 RMK SC2SC2SC4 SLP259

CYYZ;2009-12-16 09:52;CYYZ 160952Z 27018G24KT 15SM OVC041 M05/ RMK SC8

CYYZ;2009-12-16 10:00;CYYZ 161000Z 27016G24KT 15SM OVC041 M05/M10 A3028 RMK SC8 SLP263

CYYZ;2009-12-16 11:00;CYYZ 161100Z 26013G19KT 12SM -SHSN OVC035 M06/M11 A3029 RMK SC8 SLP268

CYYZ;2009-12-16 11:31;CYYZ 161131Z 26015KT 15SM FEW032 OVC042 M06/ RMK SC2SC6

CYYZ;2009-12-16 12:00;CYYZ 161200Z 26017KT 15SM OVC041 M06/M11 A3029 RMK SC8 SLP269

CYYZ;2009-12-16 13:00;CYYZ 161300Z 27014G19KT 15SM OVC038 M06/M11 A3031 RMK SC8 SLP273

CYYZ;2009-12-16 13:17;CYYZ 161317Z 27014G19KT 12SM -SHSN FEW026 OVC036 M06/ RMK SC2SC6

CYYZ;2009-12-16 14:00;CYYZ 161400Z 27015G22KT 12SM -SHSN FEW024 OVC034 M06/M11 A3031 RMK SC2SC6 SLP275

CYYZ;2009-12-16 15:00;CYYZ 161500Z 26019KT 5SM -SHSN OVC038 M06/M10 A3032 RMK SC8 SLP278

CYYZ;2009-12-16 16:00;CYYZ 161600Z 25020G26KT 15SM -SHSN FEW022 SCT042 M05/M10 A3030 RMK SC2SC2 SLP272

CYYZ;2009-12-16 16:24;CYYZ 161624Z 26022G28KT 15SM FEW020 BKN035 M05/ RMK SC1SC5

CYYZ;2009-12-16 17:00;CYYZ 161700Z 26019G24KT 15SM FEW022 BKN053 M05/M09 A3028 RMK SC1SC5 SLP265

CYYZ;2009-12-16 18:00;CYYZ 161800Z 27020G26KT 15SM FEW023 BKN054 BKN068 M04/M09 A3027 RMK CU1SC5AC1 SLP259

CYYZ;2009-12-16 19:00;CYYZ 161900Z 27021KT 15SM FEW026 BKN048 M04/M09 A3026 RMK SC2SC6 SLP258

CYYZ;2009-12-16 19:18;CYYZ 161918Z 27019G26KT 12SM -SHSN FEW022 OVC048 M04/ RMK SC2SC6 CU ASOCTD

CYYZ;2009-12-16 20:00;CYYZ 162000Z 27019G24KT 10SM -SHSN FEW027 OVC046 M05/M09 A3028 RMK SC2SC6 VIS W 5 SLP263

CYYZ;2009-12-16 20:38;CYYZ 162038Z 28013G20KT 2 1/2SM -SHSN BR BKN016 OVC031 M05/ RMK FG1SC6SC2

CYYZ;2009-12-16 20:45;CYYZ 162045Z 27013KT 1 1/2SM -SHSN BR OVC011 M05/ RMK FG3SF5

CYYZ;2009-12-16 20:50;CYYZ 162050Z CCA 27015KT 1SM R23/P6000FT/D R24L/P6000FT/D -SHSN BR OVC008 M05/ RMK SN4SF4 VIS SE-SW 2

CYYZ;2009-12-16 21:00;CYYZ 162100Z 27014KT 1 1/2SM -SHSN BR BKN006 OVC022 M05/M07 A3029 RMK SN2SF4SC2 SLP269

CYYZ;2009-12-16 21:35;CYYZ 162135Z 27010KT 3SM -SHSN FEW012 OVC038 M05/ RMK SC2SC6

CYYZ;2009-12-16 22:00;CYYZ 162200Z 27004KT 5SM -SHSN FEW025 OVC048 M05/M07 A3031 RMK SC2SC6 /S01/ SLP273

CYYZ;2009-12-16 23:00;CYYZ 162300Z 27010G15KT 10SM -SHSN FEW040 OVC049 M05/M08 A3032 RMK SC2SC6 SLP277

CYYZ;2009-12-17 00:00;CYYZ 170000Z 29013KT 10SM -SHSN OVC041 M05/M09 A3032 RMK SC8 SLP279

CYYZ;2009-12-17 01:00;CYYZ 170100Z 27009KT 8SM -SHSN OVC042 M05/M07 A3033 RMK SC8 SLP281

CYYZ;2009-12-17 02:00;CYYZ 170200Z 27013KT 10SM -SHSN OVC048 M05/M08 A3033 RMK SC8 SLP281

CYYZ;2009-12-17 03:00;CYYZ 170300Z 28011KT 10SM -SHSN OVC049 M04/M08 A3033 RMK SC8 SLP282

CYYZ;2009-12-17 04:00;CYYZ 170400Z 28011G16KT 10SM -SHSN BKN049 M04/M08 A3034 RMK SC7 SLP285

CYYZ;2009-12-17 04:47;CYYZ 170447Z 29015KT 10SM BKN051 M04/ RMK SC7

CYYZ;2009-12-17 05:00;CYYZ 170500Z 29013KT 10SM BKN051 M04/M08 A3034 RMK SC7 SLP283

CYYZ;2009-12-17 06:00;CYYZ 170600Z 30010KT 10SM BKN051 M05/M08 A3034 RMK SC7 SLP285

CYYZ;2009-12-17 06:47;CYYZ 170647Z 04009KT 10SM -SHSN SCT019 BKN032 M06/ RMK SC3SC2

CYYZ;2009-12-17 07:00;CYYZ 170700Z 02009KT 10SM -SHSN SCT028 BKN045 M07/M10 A3036 RMK SC3SC3 SLP291

CYYZ;2009-12-17 08:00;CYYZ 170800Z 02010KT 10SM SCT031 BKN043 M08/M12 A3039 RMK SC3SC3 SLP301

CYYZ;2009-12-17 09:00;CYYZ 170900Z 34008KT 15SM BKN041 M08/M13 A3041 RMK SC6 SLP310

CYYZ;2009-12-17 10:00;CYYZ 171000Z 34010KT 15SM BKN031 M10/M14 A3043 RMK SC6 SLP315

CYYZ;2009-12-17 11:00;CYYZ 171100Z 36010KT 15SM FEW028 M10/M14 A3044 RMK SC2 SLP321

CYYZ;2009-12-17 12:00;CYYZ 171200Z 36011KT 15SM FEW025 M11/M16 A3045 RMK SC2 SLP325

CYYZ;2009-12-17 13:00;CYYZ 171300Z 01010KT 15SM FEW025 SCT220 M12/M16 A3046 RMK SC2CI1 SLP326

CYYZ;2009-12-17 14:00;CYYZ 171400Z 02009KT 15SM FEW025 BKN220 M11/M15 A3046 RMK SC1CI1 SLP327

CYYZ;2009-12-17 15:00;CYYZ 171500Z 02007KT 15SM FEW025 BKN240 M10/M16 A3048 RMK SC1CI2 SLP334

CYYZ;2009-12-17 16:00;CYYZ 171600Z 36003KT 15SM FEW025 SCT240 M10/M16 A3048 RMK SC1CI2 SLP334

CYYZ;2009-12-17 17:00;CYYZ 171700Z 36003KT 15SM FEW030 SCT240 M09/M15 A3045 RMK SC1CI2 SLP325

CYYZ;2009-12-17 18:00;CYYZ 171800Z 29005KT 15SM FEW030 SCT240 M08/M15 A3042 RMK SC1CI2 SLP314

CYYZ;2009-12-17 19:00;CYYZ 171900Z 03002KT 15SM FEW030 FEW150 SCT240 M07/M14 A3040 RMK CU1AC1CI1 SLP306

CYYZ;2009-12-17 20:00;CYYZ 172000Z 00000KT 15SM FEW030 FEW160 BKN240 M07/M14 A3040 RMK CU1AC2CI2 SLP305

CYYZ;2009-12-17 21:00;CYYZ 172100Z 00000KT 15SM FEW030 FEW150 BKN170 BKN240 M07/M14 A3039 RMK CU1AC2AC2CI1 SLP302

CYYZ;2009-12-17 22:00;CYYZ 172200Z 18002KT 15SM FEW030 BKN140 BKN170 M07/M14 A3038 RMK SC1AC5AC2 SLP300

CYYZ;2009-12-17 23:00;CYYZ 172300Z 17004KT 15SM BKN130 BKN220 M07/M13 A3037 RMK AC5CI2 SLP298

CYYZ;2009-12-18 00:00;CYYZ 180000Z 17002KT 15SM BKN110 BKN250 M07/M12 A3036 RMK AC5CI1 SLP294

CYYZ;2009-12-18 01:00;CYYZ 180100Z 00000KT 15SM BKN160 M07/M13 A3036 RMK AC6 SLP293

CYYZ;2009-12-18 02:00;CYYZ 180200Z 00000KT 15SM FEW030 BKN110 M07/M11 A3035 RMK SC2AC5 SLP290

CYYZ;2009-12-18 03:00;CYYZ 180300Z 09003KT 15SM FEW030 BKN100 M06/M11 A3034 RMK SC2AC5 SLP287

CYYZ;2009-12-18 04:00;CYYZ 180400Z 09002KT 15SM BKN020 BKN110 M06/M10 A3033 RMK SC5AC2 SLP283

CYYZ;2009-12-18 05:00;CYYZ 180500Z 13004KT 15SM BKN019 BKN110 M05/M09 A3032 RMK SC6AC2 SLP280

CYYZ;2009-12-18 06:00;CYYZ 180600Z 06003KT 15SM -SHSN BKN015 M06/M09 A3031 RMK SC7 SLP274

CYYZ;2009-12-18 07:00;CYYZ 180700Z 10006KT 15SM BKN017 M05/M09 A3028 RMK SC7 SLP267

CYYZ;2009-12-18 08:00;CYYZ 180800Z 09007KT 15SM BKN020 M05/M09 A3027 RMK SC6 SLP261

CYYZ;2009-12-18 09:00;CYYZ 180900Z 07004KT 15SM BKN023 BKN160 M06/M09 A3026 RMK SC6AC1 SLP260

CYYZ;2009-12-18 10:00;CYYZ 181000Z 07005KT 15SM BKN018 BKN160 M06/M09 A3025 RMK SC6AC2 SLP255

CYYZ;2009-12-18 10:29;CYYZ 181029Z 06006KT 15SM -SHSN BKN016 M06/ RMK SC7

CYYZ;2009-12-18 11:00;CYYZ 181100Z 07009KT 15SM -SHSN BKN018 M07/M10 A3025 RMK SC7 SLP255

CYYZ;2009-12-18 11:51;CYYZ 181151Z 07007KT 15SM BKN021 M07/ RMK SC7

CYYZ;2009-12-18 12:00;CYYZ 181200Z 07009KT 15SM BKN021 M07/M09 A3025 RMK SC7 SLP256

CYYZ;2009-12-18 13:00;CYYZ 181300Z 07003KT 12SM SCT021 BKN034 OVC046 M06/M09 A3026 RMK SC3SC4SC1 SLP258

CYYZ;2009-12-18 13:25;CYYZ 181325Z 07007KT 15SM BKN012 OVC022 M06/ RMK SC6SC2

CYYZ;2009-12-18 14:00;CYYZ 181400Z 07008KT 15SM BKN012 OVC023 M06/M09 A3024 RMK SC6SC2 SLP252

CYYZ;2009-12-18 14:23;CYYZ 181423Z 08006KT 15SM OVC015 M06/ RMK SC8

CYYZ;2009-12-18 15:00;CYYZ 181500Z 07005KT 15SM OVC018 M05/M08 A3023 RMK SC8 SLP247

CYYZ;2009-12-18 15:27;CYYZ 181527Z 07005KT 15SM BKN012 OVC018 M05/ RMK SC6SC2

CYYZ;2009-12-18 16:00;CYYZ 181600Z 08008KT 15SM FEW012 OVC018 M05/M07 A3021 RMK SC2SC6 SLP240

CYYZ;2009-12-18 17:00;CYYZ 181700Z 06006KT 15SM FEW016 BKN021 M04/M06 A3019 RMK SC2SC6 SLP235

CYYZ;2009-12-18 18:00;CYYZ 181800Z 06009KT 15SM BKN022 BKN039 M04/M06 A3015 RMK SC5SC2 SLP220

CYYZ;2009-12-18 18:12;CYYZ 181812Z 04009KT 15SM BKN009 BKN018 M04/ RMK SC5SC2

CYYZ;2009-12-18 18:40;CYYZ 181840Z 09008KT 15SM SCT009 BKN020 M04/ RMK SC3SC4

CYYZ;2009-12-18 19:00;CYYZ 181900Z 08006KT 15SM FEW009 BKN021 M03/M06 A3013 RMK SC2SC4 SLP213

CYYZ;2009-12-18 20:00;CYYZ 182000Z 06010G15KT 15SM BKN015 BKN022 M03/M06 A3012 RMK SC5SC2 SLP210

CYYZ;2009-12-18 21:00;CYYZ 182100Z 06009KT 15SM SCT013 OVC021 M03/M06 A3011 RMK SC3SC5 SLP207

CYYZ;2009-12-18 22:00;CYYZ 182200Z CCA 07007KT 15SM BKN018 M04/M07 A3011 RMK SC6 SLP206

CYYZ;2009-12-18 23:00;CYYZ 182300Z 06009KT 15SM SCT021 M04/M07 A3010 RMK SC3 SLP205

CYYZ;2009-12-19 00:00;CYYZ 190000Z 05008KT 15SM BKN021 M05/M08 A3009 RMK SC5 SLP200

CYYZ;2009-12-19 01:00;CYYZ 190100Z 06008KT 15SM FEW021 M05/M08 A3008 RMK SC2 SLP197

CYYZ;2009-12-19 01:45;CYYZ 190145Z CCA 06009KT 12SM -SN FEW010 BKN021 M06/ RMK SC2SC3

CYYZ;2009-12-19 02:00;CYYZ 190200Z 06010KT 12SM -SHSN FEW010 BKN021 M06/M08 A3007 RMK SC2SC4 SLP193

CYYZ;2009-12-19 02:33;CYYZ 190233Z 06008G15KT 15SM FEW010 BKN021 M06/ RMK SC1SC6

CYYZ;2009-12-19 03:00;CYYZ 190300Z 05009KT 15SM FEW010 OVC021 M06/M08 A3005 RMK SC2SC6 SLP188

CYYZ;2009-12-19 04:00;CYYZ 190400Z 06010KT 15SM FEW010 OVC020 M06/M09 A3004 RMK SC2SC6 SLP182

CYYZ;2009-12-19 05:00;CYYZ 190500Z 04009KT 15SM FEW010 OVC020 M06/M10 A3004 RMK SC2SC6 SLP182

CYYZ;2009-12-19 06:00;CYYZ 190600Z CCA 04009KT 15SM BKN020 M07/M12 A3001 RMK SC7 SLP174

CYYZ;2009-12-19 07:00;CYYZ 190700Z 05010KT 15SM BKN020 M07/M13 A3000 RMK SC5 SLP169

CYYZ;2009-12-19 08:00;CYYZ 190800Z 05008KT 15SM SCT019 M07/M15 A2998 RMK SC3 SLP162

CYYZ;2009-12-19 09:00;CYYZ 190900Z 04009KT 15SM FEW019 M07/M14 A2996 RMK SC2 SLP156

CYYZ;2009-12-19 10:00;CYYZ 191000Z 05008KT 15SM BKN016 M06/M13 A2997 RMK SC6 SLP158

CYYZ;2009-12-19 11:00;CYYZ 191100Z 36009KT 15SM BKN018 M08/M12 A2995 RMK SC6 SLP153

CYYZ;2009-12-19 12:00;CYYZ 191200Z 01008KT 15SM FEW022 BKN170 M09/M14 A2995 RMK SC1AC6 SLP154

CYYZ;2009-12-19 13:00;CYYZ 191300Z 01009KT 15SM FEW025 BKN150 BKN250 M09/M17 A2995 RMK SC1AC6CI0 SC TR SLP153

CYYZ;2009-12-19 14:00;CYYZ 191400Z 05006KT 15SM FEW026 BKN160 M07/M18 A2996 RMK SC1AC5 SLP155

CYYZ;2009-12-19 15:00;CYYZ 191500Z 06009KT 15SM FEW030 BKN160 BKN250 M05/M17 A2996 RMK SC1AC6CI0 SLP155

CYYZ;2009-12-19 16:00;CYYZ 191600Z 09009KT 15SM FEW040 BKN150 BKN250 M05/M18 A2995 RMK SC2AC3CI0 SLP154

CYYZ;2009-12-19 17:00;CYYZ 191700Z 07006KT 15SM FEW030 FEW040 BKN160 BKN230 M05/M19 A2993 RMK CU1SC2AC3CI0 SLP146

CYYZ;2009-12-19 18:00;CYYZ 191800Z 07007KT 15SM FEW030 FEW050 BKN150 BKN230 M04/M21 A2991 RMK CU1SC2AC4CI0 SLP139

CYYZ;2009-12-19 19:00;CYYZ 191900Z 07008KT 15SM FEW035 FEW100 BKN140 M03/M23 A2990 RMK CU1AC2AS5 SLP136

CYYZ;2009-12-19 20:00;CYYZ 192000Z 05007KT 15SM FEW040 FEW100 BKN150 M03/M23 A2990 RMK CU1AC2AS5 SLP134

CYYZ;2009-12-19 21:00;CYYZ 192100Z 04008KT 15SM FEW050 SCT120 OVC170 M04/M22 A2990 RMK SC1AC3AS3 SLP135

CYYZ;2009-12-19 22:00;CYYZ 192200Z 03010KT 15SM FEW050 OVC160 M04/M21 A2991 RMK SC1AS7 SLP138

CYYZ;2009-12-19 23:00;CYYZ 192300Z 04008KT 15SM FEW050 OVC150 M05/M21 A2993 RMK SC2AC6 SLP146

CYYZ;2009-12-20 00:00;CYYZ 200000Z 02009KT 15SM FEW030 OVC160 M06/M20 A2994 RMK SC2AC6 SLP149

CYYZ;2009-12-20 01:00;CYYZ 200100Z 35011KT 15SM FEW030 OVC170 M06/M18 A2994 RMK SC2AC6 SLP149

CYYZ;2009-12-20 02:00;CYYZ 200200Z 01009KT 15SM BKN140 M06/M16 A2994 RMK AC7 SLP149

CYYZ;2009-12-20 03:00;CYYZ 200300Z 36008KT 15SM FEW070 BKN130 M06/M16 A2994 RMK AC2AC6 SLP148

CYYZ;2009-12-20 04:00;CYYZ 200400Z 36009KT 15SM BKN077 BKN130 M06/M15 A2994 RMK AC5AC2 SLP148

CYYZ;2009-12-20 05:00;CYYZ 200500Z 34007KT 15SM OVC075 M06/M15 A2992 RMK AC8 SLP144

CYYZ;2009-12-20 06:00;CYYZ 200600Z 34007KT 15SM BKN077 M06/M14 A2992 RMK AC7 SLP142

CYYZ;2009-12-20 07:00;CYYZ 200700Z 36007KT 15SM BKN079 M06/M13 A2993 RMK AC7 SLP145

CYYZ;2009-12-20 08:00;CYYZ 200800Z 36006KT 15SM FEW062 OVC080 M06/M12 A2994 RMK SC2AC6 SLP147

CYYZ;2009-12-20 09:00;CYYZ 200900Z 35009KT 15SM FEW060 OVC080 M05/M11 A2994 RMK SC2AC6 SLP148

CYYZ;2009-12-20 10:00;CYYZ 201000Z 34007KT 15SM OVC080 M05/M11 A2993 RMK AC8 SLP146

CYYZ;2009-12-20 11:00;CYYZ 201100Z 31005KT 15SM OVC084 M06/M11 A2995 RMK AC8 SLP150

CYYZ;2009-12-20 12:00;CYYZ 201200Z 36005KT 15SM BKN077 M05/M12 A2998 RMK AC7 SLP161

CYYZ;2009-12-20 13:00;CYYZ 201300Z 36004KT 15SM FEW062 OVC074 M05/M12 A2999 RMK SC2AC6 SLP165

CYYZ;2009-12-20 14:00;CYYZ 201400Z 32004KT 15SM BKN077 M04/M11 A3000 RMK AC7 SLP168

CYYZ;2009-12-20 15:00;CYYZ 201500Z 31004KT 15SM BKN084 M04/M11 A3001 RMK AC7 SLP172

CYYZ;2009-12-20 16:00;CYYZ 201600Z 34002KT 15SM BKN087 M03/M11 A3001 RMK AC7 SLP172

CYYZ;2009-12-20 17:00;CYYZ 201700Z 33003KT 15SM FEW062 BKN086 M02/M09 A2999 RMK SC2AC4 SLP166

CYYZ;2009-12-20 18:00;CYYZ 201800Z 33004KT 15SM FEW062 FEW086 M01/M09 A2998 RMK SC2AC1 SLP160

CYYZ;2009-12-20 19:00;CYYZ 201900Z 29005KT 15SM SCT045 BKN062 00/M08 A2997 RMK SC3SC2 SLP158

CYYZ;2009-12-20 20:00;CYYZ 202000Z 29008KT 15SM BKN035 BKN062 01/M06 A2998 RMK SC5SC2 SLP162

CYYZ;2009-12-20 20:08;CYYZ 202008Z 29010KT 15SM -SHSN BKN029 BKN055 00/ RMK SC5SC2

CYYZ;2009-12-20 20:38;CYYZ 202038Z 29011KT 15SM FEW032 BKN059 00/ RMK SC2SC5

CYYZ;2009-12-20 21:00;CYYZ 202100Z 29011KT 15SM FEW028 BKN058 00/M05 A2999 RMK SC2SC6 SLP165

CYYZ;2009-12-20 22:00;CYYZ 202200Z 32010KT 15SM BKN051 M01/M05 A3000 RMK SC7 SLP169

CYYZ;2009-12-20 23:00;CYYZ 202300Z 31010KT 15SM BKN041 M01/M06 A3002 RMK SC6 SLP174

CYYZ;2009-12-21 00:00;CYYZ 210000Z 31007KT 15SM BKN041 M01/M07 A3002 RMK SC6 SLP175

CYYZ;2009-12-21 01:00;CYYZ 210100Z 31012KT 15SM -SHSN BKN037 M01/M08 A3003 RMK SC7 PCPN VRY LGT SLP177

CYYZ;2009-12-21 02:00;CYYZ 210200Z 32009KT 15SM -SHSN BKN037 M02/M08 A3002 RMK SC7 SLP176

CYYZ;2009-12-21 02:47;CYYZ 210247Z 31010KT 15SM BKN040 M02/ RMK SC7

CYYZ;2009-12-21 03:00;CYYZ 210300Z 31012KT 15SM BKN041 M02/M08 A3002 RMK SC7 SLP174

CYYZ;2009-12-21 04:00;CYYZ 210400Z 31009KT 15SM FEW040 M02/M09 A3001 RMK SC2 SLP173

CYYZ;2009-12-21 05:00;CYYZ 210500Z 25007KT 15SM SCT045 SCT095 M05/M08 A3002 RMK SC3AC1 SLP175

CYYZ;2009-12-21 06:00;CYYZ 210600Z 27007KT 15SM FEW049 BKN095 M03/M07 A3001 RMK SC2AC4 SLP172

CYYZ;2009-12-21 07:00;CYYZ 210700Z 27005KT 15SM BKN052 M04/M07 A3001 RMK SC7 SLP172

CYYZ;2009-12-21 08:00;CYYZ 210800Z 27005KT 15SM OVC048 M03/M07 A3002 RMK SC8 SLP175

CYYZ;2009-12-21 09:00;CYYZ 210900Z CCA 27005KT 15SM OVC053 M03/M06 A3002 RMK SC8 SLP174

CYYZ;2009-12-21 09:40;CYYZ 210940Z 28005KT 15SM -SHSN FEW030 OVC057 M03/ RMK SC1SC7

CYYZ;2009-12-21 10:00;CYYZ 211000Z 29003KT 15SM -SHSN FEW034 OVC056 M03/M06 A3002 RMK SC2SC6 SLP175

CYYZ;2009-12-21 11:00;CYYZ 211100Z 32007KT 15SM -SHSN FEW036 OVC047 M03/M06 A3003 RMK SC2SC6 PCPN VRY LGT SLP176

CYYZ;2009-12-21 12:00;CYYZ 211200Z 31005KT 15SM -SHSN SCT034 OVC047 M04/M07 A3003 RMK SC3SC5 PCPN VRY LGT SLP179

CYYZ;2009-12-21 13:00;CYYZ 211300Z 32007KT 15SM -SHSN FEW034 OVC045 M03/M08 A3003 RMK SC2SC6 SLP179

CYYZ;2009-12-21 13:49;CYYZ 211349Z 33009KT 15SM FEW032 OVC044 M03/ RMK SC2SC6

CYYZ;2009-12-21 14:00;CYYZ 211400Z 32006KT 15SM FEW032 OVC045 M03/M07 A3004 RMK SC2SC6 SLP181

CYYZ;2009-12-21 14:52;CYYZ 211452Z 36008KT 15SM -SHSN FEW025 OVC047 M03/ RMK CF2SC6

CYYZ;2009-12-21 15:00;CYYZ 211500Z 34007KT 15SM -SHSN FEW025 OVC047 M03/M08 A3004 RMK CF2SC6 SLP183

CYYZ;2009-12-21 16:00;CYYZ 211600Z 36006KT 15SM -SHSN FEW025 OVC047 M03/M07 A3004 RMK CF2SC6 SLP182

CYYZ;2009-12-21 17:00;CYYZ 211700Z 35005KT 15SM -SHSN FEW030 OVC051 M03/M07 A3003 RMK SC2SC6 SLP178

CYYZ;2009-12-21 18:00;CYYZ 211800Z 30006KT 15SM -SHSN FEW025 SCT030 BKN051 M03/M07 A3002 RMK CF2SC2SC3 SLP176

CYYZ;2009-12-21 19:00;CYYZ 211900Z 34007KT 12SM -SHSN FEW025 OVC030 M02/M07 A3003 RMK CF2SC6 SLP178

CYYZ;2009-12-21 20:00;CYYZ 212000Z 30004KT 12SM -SN FEW025 OVC032 M02/M06 A3003 RMK SC2SC6 SLP179

CYYZ;2009-12-21 21:00;CYYZ 212100Z 06003KT 12SM -SN SCT031 BKN049 M02/M06 A3004 RMK SC3SC4 SLP180

CYYZ;2009-12-21 21:18;CYYZ 212118Z 01004KT 15SM BKN027 BKN049 M02/ RMK SC5SC2

CYYZ;2009-12-21 21:38;CYYZ 212138Z 35005KT 12SM -SN BKN028 OVC038 M02/ RMK SC5SC3

CYYZ;2009-12-21 22:00;CYYZ 212200Z 02006KT 12SM -SN BKN030 OVC038 M02/M06 A3006 RMK SC5SC3 SLP187

CYYZ;2009-12-21 23:00;CYYZ 212300Z 35008KT 12SM -SN SCT028 BKN049 M03/M07 A3007 RMK SC3SC4 SLP191

CYYZ;2009-12-22 00:00;CYYZ 220000Z 33009KT 12SM -SN BKN043 M03/M07 A3008 RMK SC6 SLP195

CYYZ;2009-12-22 00:23;CYYZ 220023Z 35011KT 15SM SCT038 M04/ RMK SC2

CYYZ;2009-12-22 01:00;CYYZ 220100Z 33012KT 15SM FEW036 M04/M09 A3009 RMK SC1 SLP200

CYYZ;2009-12-22 02:00;CYYZ 220200Z 31009KT 15SM FEW026 M05/M09 A3011 RMK SC2 SLP205

CYYZ;2009-12-22 03:00;CYYZ 220300Z 33012KT 15SM SCT028 M04/M10 A3011 RMK SC2 SLP205

CYYZ;2009-12-22 04:00;CYYZ 220400Z 32008KT 15SM FEW026 BKN094 M05/M09 A3011 RMK SC1AC4 SLP205

CYYZ;2009-12-22 05:00;CYYZ 220500Z 35005KT 15SM FEW028 BKN110 M05/M10 A3011 RMK SC2AC2 SLP206

CYYZ;2009-12-22 06:00;CYYZ 220600Z 36007KT 15SM BKN038 BKN100 M06/M10 A3012 RMK SC5AC2 SLP209

CYYZ;2009-12-22 07:00;CYYZ 220700Z 36008KT 15SM FEW036 BKN097 M07/M09 A3013 RMK SC2AC4 SLP213

CYYZ;2009-12-22 08:00;CYYZ 220800Z 35010KT 15SM BKN041 BKN087 M07/M10 A3015 RMK SC5AC2 SLP220

CYYZ;2009-12-22 09:00;CYYZ 220900Z 36010KT 15SM BKN036 BKN087 M07/M10 A3016 RMK SC5AC2 SLP223

CYYZ;2009-12-22 10:00;CYYZ 221000Z 36015KT 15SM BKN059 BKN086 M08/M12 A3018 RMK SC6AC2 SLP229

CYYZ;2009-12-22 11:00;CYYZ 221100Z 34014KT 15SM FEW063 BKN100 M10/M14 A3020 RMK SC2AC2 SLP236

CYYZ;2009-12-22 12:00;CYYZ 221200Z 34011G17KT 15SM FEW062 SCT084 M11/M15 A3021 RMK SC1AC2 SLP242

CYYZ;2009-12-22 13:00;CYYZ 221300Z 36014KT 15SM FEW085 FEW250 M11/M18 A3024 RMK AC1CI1 CI TR SLP250

CYYZ;2009-12-22 14:00;CYYZ 221400Z 36012KT 15SM FEW030 FEW250 M11/M17 A3026 RMK SC1CI1 CI TR SLP257

CYYZ;2009-12-22 15:00;CYYZ 221500Z CCA 34011KT 15SM FEW030 FEW250 M10/M17 A3027 RMK SC1CI1 CI TR SLP263

CYYZ;2009-12-22 16:00;CYYZ 221600Z 36009KT 15SM FEW250 M09/M16 A3028 RMK CI1 SLP264

CYYZ;2009-12-22 17:00;CYYZ 221700Z 32013KT 15SM FEW250 M08/M14 A3027 RMK CI1 SLP262

CYYZ;2009-12-22 18:00;CYYZ 221800Z 33012G17KT 15SM FEW025 FEW250 M06/M12 A3026 RMK CF1CI1 CF TR SLP259

CYYZ;2009-12-22 19:00;CYYZ 221900Z 36009G16KT 15SM FEW025 FEW250 M06/M13 A3025 RMK CF1CI1 CF TR SLP256

CYYZ;2009-12-22 20:00;CYYZ 222000Z 34009KT 15SM FEW025 FEW250 M06/M12 A3026 RMK CF1CI1 CF TR SLP258

CYYZ;2009-12-22 21:00;CYYZ 222100Z 32009KT 15SM FEW025 FEW250 M06/M12 A3027 RMK CF1CI1 CF CI TR SLP261

CYYZ;2009-12-22 22:00;CYYZ 222200Z 32010KT 15SM FEW025 FEW250 M06/M13 A3027 RMK CF1CI1 CF CI TR SLP263

CYYZ;2009-12-22 23:00;CYYZ 222300Z 32009KT 15SM FEW250 M07/M13 A3029 RMK CI1 SLP268

CYYZ;2009-12-23 00:00;CYYZ 230000Z 31007KT 15SM SKC M08/M11 A3030 RMK SLP274

CYYZ;2009-12-23 01:00;CYYZ 230100Z 27006KT 15SM FEW035 M09/M12 A3030 RMK SC1 SLP273

CYYZ;2009-12-23 02:00;CYYZ 230200Z 31008KT 15SM -SHSN FEW022 BKN035 M08/M12 A3030 RMK SC2SC6 PCPN VRY LGT SLP274

CYYZ;2009-12-23 03:00;CYYZ 230300Z 01007KT 12SM -SHSN FEW016 BKN031 M08/M11 A3031 RMK SC2SC5 PCPN VRY LGT SLP278

CYYZ;2009-12-23 04:00;CYYZ 230400Z 34009KT 10SM -SHSN FEW016 BKN031 M09/M11 A3032 RMK SC2SC5 PCPN VRY LGT SLP280

CYYZ;2009-12-23 05:00;CYYZ 230500Z 32011KT 10SM -SHSN FEW020 BKN030 M09/M12 A3032 RMK SC2SC5 PCPN VRY LGT SLP281

CYYZ;2009-12-23 06:00;CYYZ 230600Z 33008KT 12SM -SHSN BKN030 BKN080 M10/M13 A3032 RMK SC5AC2 PCPN VRY LGT SLP281

CYYZ;2009-12-23 07:00;CYYZ 230700Z 32008KT 12SM -SHSN BKN020 BKN080 M10/M12 A3033 RMK SC5AC1 PCPN VRY LGT SLP282

CYYZ;2009-12-23 08:00;CYYZ 230800Z 30007KT 12SM -SHSN BKN027 BKN080 M10/M12 A3034 RMK SC5AC1 PCPN VRY LGT SLP285

CYYZ;2009-12-23 09:00;CYYZ 230900Z 32007KT 15SM FEW025 SCT080 M10/M12 A3033 RMK SC2AC2 SLP282

CYYZ;2009-12-23 10:00;CYYZ 231000Z 34010KT 15SM FEW018 BKN025 BKN080 M10/M12 A3033 RMK SC2SC2AC2 SLP282

CYYZ;2009-12-23 11:00;CYYZ 231100Z 32010KT 15SM -SHPL FEW020 BKN029 M09/M12 A3033 RMK SC2SC5 SLP282

CYYZ;2009-12-23 11:21;CYYZ 231121Z 32008KT 15SM -SHSN FEW022 BKN029 M09/ RMK SC2SC6

CYYZ;2009-12-23 12:00;CYYZ 231200Z 31008KT 15SM -SHSN FEW021 BKN028 M09/M12 A3033 RMK SC2SC6 SLP284

CYYZ;2009-12-23 13:00;CYYZ 231300Z 32009KT 12SM -SHSN OVC019 M09/M12 A3034 RMK SC8 SLP288

CYYZ;2009-12-23 14:00;CYYZ 231400Z 32009KT 12SM -SHSN OVC019 M08/M11 A3034 RMK SC8 PCPN VRY LGT SLP288

CYYZ;2009-12-23 15:00;CYYZ 231500Z 33008KT 12SM -SHSN OVC022 M08/M11 A3036 RMK SC8 SLP292

CYYZ;2009-12-23 16:00;CYYZ 231600Z 32010KT 12SM -SHSN BKN025 M07/M11 A3035 RMK SC7 SLP289

CYYZ;2009-12-23 17:00;CYYZ 231700Z 32008KT 15SM FEW018 BKN027 M06/M10 A3033 RMK SC1SC3 SLP284

CYYZ;2009-12-23 17:11;CYYZ 231711Z 33012KT 15SM -SHSN FEW018 BKN027 M06/ RMK CF1SC6 PCPN VRY LGT

CYYZ;2009-12-23 17:48;CYYZ 231748Z 33015KT 15SM FEW020 BKN025 M06/ RMK CU1SC6

CYYZ;2009-12-23 18:00;CYYZ 231800Z 33018KT 15SM FEW020 BKN025 M06/M10 A3032 RMK CU1SC6 SLP278

CYYZ;2009-12-23 19:00;CYYZ 231900Z 34015KT 15SM FEW019 SCT026 M04/M09 A3030 RMK CU1SC2 SLP272

CYYZ;2009-12-23 20:00;CYYZ 232000Z 33014G19KT 15SM SCT023 M04/M09 A3031 RMK SC3 CU ASOCTD SLP275

CYYZ;2009-12-23 21:00;CYYZ 232100Z 35017KT 15SM FEW024 M04/M09 A3032 RMK SC2 SLP278

CYYZ;2009-12-23 22:00;CYYZ 232200Z 34013G18KT 15SM BKN022 M05/M09 A3033 RMK SC6 SLP282

CYYZ;2009-12-23 23:00;CYYZ 232300Z 32013KT 15SM BKN022 M04/M09 A3034 RMK SC6 SLP286

CYYZ;2009-12-24 00:00;CYYZ 240000Z 34012KT 15SM BKN020 M04/M08 A3037 RMK SC6 SLP295

CYYZ;2009-12-24 01:00;CYYZ 240100Z 35011KT 15SM FEW020 SCT030 SCT220 M06/M10 A3037 RMK SC2SC2CI1 CI TR SLP297

CYYZ;2009-12-24 02:00;CYYZ 240200Z 01010KT 15SM FEW020 SCT080 M07/M11 A3038 RMK SC2AC2 SLP298

CYYZ;2009-12-24 03:00;CYYZ 240300Z 36010KT 15SM FEW030 FEW080 M07/M11 A3038 RMK SC2AC1 SLP300

CYYZ;2009-12-24 04:00;CYYZ 240400Z 34007KT 15SM FEW015 SCT080 M07/M11 A3039 RMK SC2AC1 SLP303

CYYZ;2009-12-24 05:00;CYYZ 240500Z 35006KT 15SM FEW016 SCT090 M08/M11 A3039 RMK SC2AC2 SLP302

CYYZ;2009-12-24 06:00;CYYZ 240600Z 36007KT 15SM BKN011 M07/M10 A3038 RMK SC7 SLP299

CYYZ;2009-12-24 07:00;CYYZ 240700Z 32004KT 15SM BKN011 M07/M09 A3040 RMK SC7 SLP306

CYYZ;2009-12-24 08:00;CYYZ 240800Z 01005KT 15SM OVC011 M06/M09 A3040 RMK SC8 SLP306

CYYZ;2009-12-24 09:00;CYYZ 240900Z 02006KT 15SM OVC010 M06/M08 A3038 RMK SC8 SLP299

CYYZ;2009-12-24 10:00;CYYZ 241000Z 32004KT 15SM OVC010 M06/M08 A3042 RMK SC8 SLP312

CYYZ;2009-12-24 11:00;CYYZ 241100Z 33004KT 15SM OVC009 M06/M08 A3044 RMK SC8 SLP320

CYYZ;2009-12-24 12:00;CYYZ 241200Z 01007KT 12SM OVC008 M06/M08 A3043 RMK SC8 SLP316

CYYZ;2009-12-24 12:09;CYYZ 241209Z 03006KT 5SM -SHSN OVC008 M07/ RMK SC8

CYYZ;2009-12-24 12:12;CYYZ 241212Z CCA 03007KT 3SM -SHSN OVC011 M07/ RMK SC8

CYYZ;2009-12-24 12:31;CYYZ 241231Z 03008KT 3SM -SHSN OVC008 M07/ RMK SC8

CYYZ;2009-12-24 12:50;CYYZ 241250Z 03008KT 10SM OVC007 M07/ RMK SC8

CYYZ;2009-12-24 13:00;CYYZ 241300Z 03008KT 8SM OVC007 M07/M08 A3043 RMK SC8 SLP315

CYYZ;2009-12-24 14:00;CYYZ 241400Z 03007KT 8SM OVC007 M07/M08 A3043 RMK SC8 SLP316

CYYZ;2009-12-24 15:00;CYYZ 241500Z 03009KT 8SM OVC007 M06/M08 A3045 RMK SC8 SLP322

CYYZ;2009-12-24 16:00;CYYZ 241600Z 03007KT 8SM OVC007 M06/M07 A3045 RMK SC8 SLP323

CYYZ;2009-12-24 17:00;CYYZ 241700Z 03006KT 8SM OVC007 M05/M07 A3043 RMK SC8 SLP317

CYYZ;2009-12-24 18:00;CYYZ 241800Z 05006KT 8SM OVC008 M04/M06 A3041 RMK SC8 SLP310

CYYZ;2009-12-24 19:00;CYYZ 241900Z CCA 05008KT 5SM -SHSN OVC009 M04/M05 A3038 RMK SC8 SLP300

CYYZ;2009-12-24 19:12;CYYZ 241912Z 06007KT 2 1/2SM -SHSN OVC011 M04/ RMK SC8

CYYZ;2009-12-24 19:34;CYYZ 241934Z 06005KT 1 1/4SM -SHSN OVC012 M03/ RMK SC8

CYYZ;2009-12-24 20:00;CYYZ 242000Z 06007KT 1 1/2SM -SN SCT009 OVC012 M03/M04 A3037 RMK SC3SC5 SLP296

CYYZ;2009-12-24 21:00;CYYZ 242100Z 09007KT 2 1/2SM -SN OVC009 M02/M02 A3037 RMK SC8 SLP294

CYYZ;2009-12-24 21:48;CYYZ 242148Z 09011KT 5SM -SN SCT006 OVC009 M02/ RMK SC4SC4

CYYZ;2009-12-24 22:00;CYYZ 242200Z 09010KT 5SM -SN BKN007 OVC009 M02/M02 A3037 RMK SC5SC3 SLP293

CYYZ;2009-12-24 22:17;CYYZ 242217Z 09008KT 3SM -SN SCT008 OVC012 M02/ RMK SC3SC5

CYYZ;2009-12-24 23:00;CYYZ 242300Z 08007KT 3SM -SN BKN007 OVC011 M01/M02 A3035 RMK SC5SC3 SLP289

CYYZ;2009-12-25 00:00;CYYZ 250000Z 07006KT 6SM -SN SCT008 OVC011 M02/M03 A3036 RMK SC4SC4 PCPN VRY LGLT SLP292

CYYZ;2009-12-25 00:30;CYYZ 250030Z 05005KT 3SM -SN SCT004 OVC008 M02/ RMK SC3SC5

CYYZ;2009-12-25 01:00;CYYZ 250100Z 06005KT 2 1/2SM -SN BR OVC005 M01/M01 A3034 RMK SN2SC6 SLP286

CYYZ;2009-12-25 01:18;CYYZ 250118Z CCA 09008KT 6SM -SN BR OVC005 M00/ RMK SC8 PCPN VRY LGT

CYYZ;2009-12-25 01:55;CYYZ 250155Z 09015G20KT 10SM OVC006 00/ RMK SC8

CYYZ;2009-12-25 02:00;CYYZ 250200Z 09011G20KT 10SM OVC006 00/M00 A3031 RMK SC8 SLP275

CYYZ;2009-12-25 03:00;CYYZ 250300Z 10013G24KT 12SM OVC006 00/M00 A3030 RMK SC8 SLP271

CYYZ;2009-12-25 04:00;CYYZ 250400Z 11015G21KT 10SM OVC006 M00/M01 A3029 RMK SC8 SLP266

CYYZ;2009-12-25 05:00;CYYZ 250500Z 11014G21KT 10SM OVC006 M00/M01 A3029 RMK SC8 SLP266

CYYZ;2009-12-25 06:00;CYYZ 250600Z 09014G19KT 10SM OVC009 M00/M01 A3027 RMK SC8 SLP258

CYYZ;2009-12-25 07:00;CYYZ 250700Z 10012G22KT 12SM OVC010 00/M01 A3025 RMK SC8 SLP251

CYYZ;2009-12-25 08:00;CYYZ 250800Z 10014G20KT 12SM SCT012 BKN016 01/M01 A3023 RMK SC3SC4 SLP246

CYYZ;2009-12-25 09:00;CYYZ 250900Z 10013G18KT 12SM BKN015 01/M01 A3022 RMK SC7 SLP240

CYYZ;2009-12-25 10:00;CYYZ 251000Z 10012G21KT 15SM BKN012 BKN025 01/M01 A3018 RMK SC5SC2 SLP228

CYYZ;2009-12-25 11:00;CYYZ 251100Z 11013G25KT 15SM BKN013 BKN025 01/M01 A3018 RMK SC5SC2 SLP227

CYYZ;2009-12-25 12:00;CYYZ 251200Z CCA 10010G20KT 15SM BKN016 01/M01 A3016 RMK SC7 SLP223

CYYZ;2009-12-25 13:00;CYYZ 251300Z 10013G20KT 15SM BKN014 OVC180 01/M01 A3016 RMK SC6AC2 SLP221

CYYZ;2009-12-25 14:00;CYYZ 251400Z 10019G27KT 15SM BKN016 OVC160 02/M01 A3016 RMK SC5AC3 SLP223

CYYZ;2009-12-25 15:00;CYYZ 251500Z 09016KT 15SM FEW018 SCT120 OVC160 02/M02 A3016 RMK SC2AC2AS4 SLP221

CYYZ;2009-12-25 16:00;CYYZ 251600Z 09019G25KT 15SM FEW015 SCT096 OVC150 02/M01 A3014 RMK SC2AC2AS4 SLP214

CYYZ;2009-12-25 17:00;CYYZ 251700Z 11015G21KT 15SM SCT014 OVC130 02/M01 A3011 RMK SC3AS5 SLP205

CYYZ;2009-12-25 17:11;CYYZ 251711Z 10017G24KT 15SM BKN012 OVC130 02/ RMK SC6AC2

CYYZ;2009-12-25 18:00;CYYZ 251800Z 11016G22KT 15SM BKN014 OVC130 02/M00 A3009 RMK SC6AC2 SLP198

CYYZ;2009-12-25 18:31;CYYZ 251831Z 11018G26KT 15SM SCT013 BKN097 OVC130 02/ RMK SC3AC2AC2

CYYZ;2009-12-25 19:00;CYYZ 251900Z 11016G26KT 15SM SCT013 BKN036 OVC130 03/00 A3008 RMK SC3SC3AC2 SLP193

CYYZ;2009-12-25 19:05;CYYZ 251905Z 11023G30KT 12SM -RA FEW013 SCT036 BKN068 OVC130 03/ RMK SC2SC2AC2AC2

CYYZ;2009-12-25 20:00;CYYZ 252000Z 10014G21KT 10SM -RA FEW011 BKN042 OVC067 03/01 A3006 RMK SC2SC5AC2 SLP188

CYYZ;2009-12-25 21:00;CYYZ 252100Z CCA 09015G20KT 7SM -RA FEW011 SCT034 OVC051 03/02 A3004 RMK SF2SC2SC4 BR SLP181

CYYZ;2009-12-25 21:23;CYYZ 252123Z 10017G25KT 4SM -RA BR FEW008 BKN031 OVC052 03/ RMK SF2SC4SC2

CYYZ;2009-12-25 22:00;CYYZ 252200Z CCB 10016G21KT 6SM -RA BR SCT007 OVC052 03/02 A3005 RERA RMK SF3SC5 SLP183

CYYZ;2009-12-25 22:22;CYYZ 252222Z 10015G22KT 5SM -RA BR BKN008 BKN026 OVC043 03/ RMK SF5SC2SC1

CYYZ;2009-12-25 23:00;CYYZ 252300Z 10021G27KT 6SM -RA BR BKN006 OVC022 03/03 A3003 RMK SF6SC2 SLP176

CYYZ;2009-12-26 00:00;CYYZ 260000Z 10020G28KT 7SM RA BKN006 OVC024 03/03 A3000 RMK SF6SC2 BR SLP165

CYYZ;2009-12-26 01:00;CYYZ 260100Z 10020G30KT 5SM -RA BR BKN006 OVC015 03/03 A2999 RERA RMK SF7SC1 SLP161

CYYZ;2009-12-26 02:00;CYYZ 260200Z 10022G32KT 8SM BKN007 OVC015 03/03 A2995 RMK SF6SC2 SLP148

CYYZ;2009-12-26 02:25;CYYZ 260225Z 10022G34KT 8SM -RA BKN007 OVC014 03/ RMK SF6SC2

CYYZ;2009-12-26 03:00;CYYZ 260300Z 10019G33KT 6SM -RA BR BKN007 OVC014 03/03 A2992 RMK SF6SC2 SLP140

CYYZ;2009-12-26 04:00;CYYZ 260400Z 10024G29KT 6SM -RA BR BKN007 OVC014 03/03 A2993 RMK SF6SC2 SLP142

CYYZ;2009-12-26 05:00;CYYZ 260500Z 10020G26KT 8SM -RA BKN008 OVC019 03/03 A2992 RMK SF6SC2 SLP138

CYYZ;2009-12-26 06:00;CYYZ 260600Z CCA 09017G25KT 8SM -RA BKN006 OVC015 03/03 A2991 RMK SF6SC2 /R10/ SLP135

CYYZ;2009-12-26 07:00;CYYZ 260700Z 09016G24KT 8SM -RA BKN006 OVC014 03/03 A2990 RMK SF6SC2 SLP133

CYYZ;2009-12-26 08:00;CYYZ 260800Z 10017KT 10SM -RA BKN006 OVC014 03/03 A2991 RMK SF6SC2 SLP134

CYYZ;2009-12-26 09:00;CYYZ 260900Z 09014G19KT 8SM -RA BKN006 OVC012 04/04 A2990 RMK SF6SC2 SLP131

CYYZ;2009-12-26 10:00;CYYZ 261000Z 09014G20KT 8SM -RA BKN005 OVC009 04/04 A2990 RMK SF6SC2 SLP131

CYYZ;2009-12-26 11:00;CYYZ 261100Z 11014KT 8SM -RA BKN006 OVC012 04/04 A2991 RMK SF6SC2 SLP134

CYYZ;2009-12-26 12:00;CYYZ 261200Z 11016KT 8SM -RA BKN004 OVC010 04/04 A2992 RMK SF6SC2 SLP137

CYYZ;2009-12-26 12:42;CYYZ 261242Z 11014KT 4SM -RA BR BKN003 OVC011 04/ RMK SF6SC2

CYYZ;2009-12-26 13:00;CYYZ 261300Z 11011KT 3SM -RA BR BKN003 OVC007 04/04 A2992 RMK SF6SC2 SLP139

CYYZ;2009-12-26 14:00;CYYZ 261400Z 22009KT 4SM -RA BR BKN003 OVC007 04/04 A2995 RMK SF6SC2 SLP146

CYYZ;2009-12-26 14:15;CYYZ 261415Z 27010G15KT 10SM -RA SCT008 OVC012 02/ RMK SF3SC5

CYYZ;2009-12-26 14:30;CYYZ 261430Z 28010KT 10SM -RA SCT008 OVC016 02/ RMK SF3SC5

CYYZ;2009-12-26 15:00;CYYZ 261500Z 31005KT 10SM -RA SCT010 OVC017 02/01 A2996 RMK SF3SC5 SLP152

CYYZ;2009-12-26 16:00;CYYZ 261600Z 28002KT 12SM -RA SCT010 OVC020 02/02 A2996 RMK SF3SC5 SLP153

CYYZ;2009-12-26 16:22;CYYZ 261622Z 27006KT 4SM -RA BR BKN008 OVC020 02/ RMK SF5SC3

CYYZ;2009-12-26 16:54;CYYZ 261654Z 28006KT 10SM -RA SCT008 OVC015 02/ RMK SF3SC5

CYYZ;2009-12-26 17:00;CYYZ 261700Z 29006KT 10SM -RA FEW008 BKN015 OVC027 01/01 A2995 RMK SF2SC2SC3 SLP150

CYYZ;2009-12-26 17:13;CYYZ 261713Z 27006KT 10SM -DZ BKN005 OVC025 01/ RMK SF6SC2 PCPN VRY LGT

CYYZ;2009-12-26 17:53;CYYZ 261753Z 28003KT 10SM -DZ SCT020 OVC060 01/ RMK SF3SC5 PCPN VRY LGT

CYYZ;2009-12-26 18:00;CYYZ 261800Z 29003KT 10SM -DZ SCT020 OVC064 02/00 A2994 RMK SF3SC5 PCPN VRY LGT SLP146

CYYZ;2009-12-26 18:20;CYYZ 261820Z 35004KT 12SM OVC060 02/ RMK SC8

CYYZ;2009-12-26 19:00;CYYZ 261900Z 04003KT 15SM SCT034 OVC068 02/01 A2993 RMK SC3AC5 SLP143

CYYZ;2009-12-26 20:00;CYYZ 262000Z 03003KT 15SM BKN033 OVC070 02/M01 A2995 RMK SC6AC2 CU ASOCTD SLP147

CYYZ;2009-12-26 21:00;CYYZ 262100Z 04002KT 15SM BKN035 BKN040 BKN080 02/M01 A2995 RMK SC5SC1AC2 CU ASOCTD SLP147

CYYZ;2009-12-26 22:00;CYYZ 262200Z 00000KT 15SM FEW030 BKN035 BKN095 01/M01 A2994 RMK SC2SC3AC2 SLP146

CYYZ;2009-12-26 23:00;CYYZ 262300Z 18002KT 15SM SCT030 BKN035 02/M01 A2995 RMK SC3SC4 SLP148

CYYZ;2009-12-27 00:00;CYYZ 270000Z 07005KT 15SM BKN051 01/M01 A2995 RMK SC7 SLP147

CYYZ;2009-12-27 01:00;CYYZ 270100Z 09003KT 15SM FEW048 BKN054 01/M00 A2994 RMK SC2SC4 SLP145

CYYZ;2009-12-27 02:00;CYYZ 270200Z 22003KT 15SM FEW048 BKN059 00/M01 A2995 RMK SC2SC5 SLP147

CYYZ;2009-12-27 03:00;CYYZ 270300Z 24003KT 15SM BKN036 BKN190 M01/M01 A2994 RMK SC5AC1 SLP147

CYYZ;2009-12-27 04:00;CYYZ 270400Z 31002KT 15SM FEW054 FEW190 M01/M01 A2993 RMK SC2AC1 SLP143

CYYZ;2009-12-27 05:00;CYYZ 270500Z 04004KT 15SM FEW054 FEW190 M02/M03 A2991 RMK SC1AC1 SLP137

CYYZ;2009-12-27 06:00;CYYZ 270600Z 07002KT 15SM FEW025 FEW190 M01/M01 A2989 RMK SC1AC1 SLP131

CYYZ;2009-12-27 06:38;CYYZ 270638Z 09003KT 15SM BKN008 M01/ RMK ST5

CYYZ;2009-12-27 07:00;CYYZ 270700Z 11004KT 15SM BKN007 M00/M01 A2989 RMK ST6 SLP130

CYYZ;2009-12-27 08:00;CYYZ 270800Z 15004KT 15SM BKN007 01/00 A2989 RMK ST6 SLP128

CYYZ;2009-12-27 08:45;CYYZ 270845Z 13007KT 1SM BR BKN002 BKN008 01/ RMK ST5ST2

CYYZ;2009-12-27 08:49;CYYZ 270849Z 13006KT 1/2SM R05/P6000FT/D R06L/2400FT/N FG BKN002 BKN004 00/ RMK ST5ST2

CYYZ;2009-12-27 09:00;CYYZ 270900Z 14007KT 1/8SM R05/3000V5500FT/D R06L/2200FT/N FG VV002 00/00 A2987 RMK FG8 SLP121

CYYZ;2009-12-27 10:00;CYYZ 271000Z 14005KT 1/8SM R05/2800V6000FT/D R06L/2800FT/N FG VV002 00/00 A2986 RMK FG8 SLP117

CYYZ;2009-12-27 10:23;CYYZ 271023Z 15003KT 3/8SM R05/3000VP6000FT/D R06L/3000VP6000FT/N FG VV002 00/ RMK FG8

CYYZ;2009-12-27 10:32;CYYZ 271032Z 14004KT 1SM R05/3000VP6000FT/D R06L/P6000FT/U BR OVC003 00/ RMK FG3ST5

CYYZ;2009-12-27 10:44;CYYZ 271044Z 13004KT 1 1/2SM BR OVC003 00/ RMK FG2ST6

CYYZ;2009-12-27 11:00;CYYZ 271100Z 13004KT 2SM BR OVC002 M00/M00 A2985 RMK FG2ST6 SLP116

CYYZ;2009-12-27 11:40;CYYZ 271140Z 12004KT 4SM BR OVC003 00/ RMK ST8

CYYZ;2009-12-27 12:00;CYYZ 271200Z 12003KT 4SM BR OVC003 00/00 A2985 RMK ST8 SLP114

CYYZ;2009-12-27 12:40;CYYZ 271240Z 00000KT 3/4SM R05/P6000FT/U R06L/P6000FT/U BR BKN002 OVC058 00/ RMK FG3ST4SC1

CYYZ;2009-12-27 13:00;CYYZ 271300Z CCA 19002KT 1SM R05/P6000FT/U R24R/3000VP6000FT/U BR SCT003 OVC057 00/00 A2986 RMK FG2SF2SC4 SLP119

CYYZ;2009-12-27 13:10;CYYZ 271310Z 22003KT 4SM BR FEW008 SCT015 OVC056 00/ RMK SF2SC2SC4

CYYZ;2009-12-27 14:00;CYYZ 271400Z 25007KT 15SM BKN050 M00/M01 A2986 RMK SC7 SLP117

CYYZ;2009-12-27 15:00;CYYZ 271500Z 20004KT 15SM SCT055 BKN075 00/M02 A2987 RMK SC3AC4 SLP122

CYYZ;2009-12-27 16:00;CYYZ 271600Z 20005KT 15SM FEW025 FEW060 BKN073 BKN130 01/M02 A2986 RMK CU1SC2AC2AC2 SLP118

CYYZ;2009-12-27 17:00;CYYZ 271700Z CCA 24012G17KT 15SM FEW025 FEW035 BKN071 BKN130 02/M04 A2983 RMK CU1SC2AC3AC2 SLP111

CYYZ;2009-12-27 18:00;CYYZ 271800Z 23010G16KT 15SM FEW025 BKN040 OVC070 01/M05 A2982 RMK CU1SC5AC2 SLP105

CYYZ;2009-12-27 19:00;CYYZ 271900Z 24009G15KT 15SM FEW030 SCT045 OVC069 01/M05 A2981 RMK CU2SC2AC4 SLP102

CYYZ;2009-12-27 20:00;CYYZ 272000Z 24011KT 15SM FEW025 SCT030 BKN068 01/M05 A2981 RMK CU1SC3AC3 SLP101

CYYZ;2009-12-27 20:28;CYYZ 272028Z 24007KT 15SM -SHSN FEW025 SCT030 BKN067 00/ RMK CU1SC3AC3 PCPN VRY LGT

CYYZ;2009-12-27 21:00;CYYZ 272100Z 22007KT 15SM FEW030 SCT040 BKN064 00/M05 A2980 RMK CU1SC3SC3 SLP099

CYYZ;2009-12-27 21:38;CYYZ 272138Z CCA 22007KT 15SM -SHSN SCT040 OVC060 M00/ RMK SC3SC5 PCPN VRY LGT

CYYZ;2009-12-27 22:00;CYYZ 272200Z 22009KT 15SM -SHSN SCT043 OVC060 M00/M04 A2979 RMK SC3SC5 PCPN VRY LGT SLP096

CYYZ;2009-12-27 22:45;CYYZ 272245Z 20008KT 15SM FEW045 BKN054 M01/ RMK SC2SC4

CYYZ;2009-12-27 23:00;CYYZ 272300Z 22010KT 15SM FEW045 BKN054 M01/M05 A2979 RMK SC2SC4 SLP095

CYYZ;2009-12-28 00:00;CYYZ 280000Z 22008KT 15SM BKN052 M01/M05 A2979 RMK SC6 SLP095

CYYZ;2009-12-28 01:00;CYYZ 280100Z 25008KT 15SM FEW036 BKN051 M01/M04 A2978 RMK SC2SC4 SLP093

CYYZ;2009-12-28 02:00;CYYZ 280200Z 23007KT 15SM BKN053 BKN079 M01/M04 A2976 RMK SC6AC2 SLP086

CYYZ;2009-12-28 03:00;CYYZ 280300Z 26009KT 15SM FEW023 BKN043 M01/M05 A2974 RMK SC1SC6 SLP079

CYYZ;2009-12-28 04:00;CYYZ 280400Z 26005KT 15SM FEW020 OVC048 M02/M04 A2972 RMK SC1SC6 MOON DIMLY VISBL SLP073

CYYZ;2009-12-28 04:38;CYYZ 280438Z 27004KT 12SM -SN FEW020 OVC036 M02/ RMK SC1SC6

CYYZ;2009-12-28 05:00;CYYZ 280500Z 29003KT 10SM -SN FEW020 OVC035 M02/M04 A2970 RMK SC2SC6 SLP066

CYYZ;2009-12-28 06:00;CYYZ 280600Z 29004KT 12SM -SN FEW020 OVC048 M02/M04 A2967 RMK SC2SC6 MOON DIMLY VISBL SLP055

CYYZ;2009-12-28 07:00;CYYZ 280700Z 29009KT 12SM -SN BKN018 OVC039 M02/M05 A2966 RMK SC6SC2 SLP050

CYYZ;2009-12-28 08:00;CYYZ 280800Z 28010KT 12SM -SN BKN034 OVC056 M03/M05 A2966 RMK SC6SC2 SLP050

CYYZ;2009-12-28 08:21;CYYZ 280821Z 28008KT 15SM OVC036 M02/ RMK SC8

CYYZ;2009-12-28 09:00;CYYZ 280900Z 27011KT 15SM FEW035 BKN062 BKN120 M03/M05 A2966 RMK SC1SC4AC2 SLP052

CYYZ;2009-12-28 10:00;CYYZ 281000Z 25009KT 15SM BKN048 M04/M06 A2966 RMK SC6 SLP051

CYYZ;2009-12-28 11:00;CYYZ 281100Z 26011KT 15SM SCT021 BKN049 M03/M06 A2965 RMK SC3SC4 SLP049

CYYZ;2009-12-28 12:00;CYYZ 281200Z 26014G19KT 15SM FEW020 BKN060 M03/M06 A2965 RMK SC2SC5 SLP050

CYYZ;2009-12-28 13:00;CYYZ 281300Z 26016G21KT 15SM FEW025 OVC060 M03/M06 A2965 RMK SC2SC6 SLP050

CYYZ;2009-12-28 14:00;CYYZ 281400Z 25016KT 15SM FEW025 SCT035 SCT120 M03/M07 A2965 RMK SC2SC2AC1 SLP048

CYYZ;2009-12-28 14:42;CYYZ 281442Z 24015G21KT 4SM -SHSN FEW025 BKN034 M03/ RMK CU2SC3

CYYZ;2009-12-28 15:00;CYYZ 281500Z CCA 25015KT 15SM -SHSN FEW025 SCT040 BKN120 BKN240 M03/M07 A2965 RMK CU1SC2AC2CI1 PCPN VRY LGT SLP048

CYYZ;2009-12-28 15:15;CYYZ 281515Z 24018KT 15SM FEW025 SCT040 BKN120 BKN190 BKN240 M03/ RMK CU1SC2AC2AC2CI1

CYYZ;2009-12-28 16:00;CYYZ 281600Z 24017KT 10SM -SHSN FEW025 BKN035 BKN120 M03/M07 A2964 RMK CU2SC3AC2 PCPN VRY LGT SLP045

CYYZ;2009-12-28 17:00;CYYZ 281700Z 24015KT 15SM -SHSN OVC020 M03/M07 A2961 RMK SC8 PCPN VRY LGT SLP037

CYYZ;2009-12-28 18:00;CYYZ 281800Z CCA 23017KT 6SM -SHSN SCT018 OVC035 M02/M05 A2957 RMK SC3SC5 SLP022

CYYZ;2009-12-28 19:00;CYYZ 281900Z 24016KT 12SM -SHSN FEW025 BKN055 OVC060 M02/M05 A2956 RMK SC2SC3SC2 PCPN VRY LGT SLP017

CYYZ;2009-12-28 19:40;CYYZ 281940Z 25018KT 15SM FEW025 SCT062 OVC070 M02/ RMK SC2SC2AC4

CYYZ;2009-12-28 19:49;CYYZ 281949Z 24019G24KT 4SM -SHSN FEW020 SCT035 OVC052 M02/ RMK SC2SC2SC4

CYYZ;2009-12-28 20:00;CYYZ 282000Z CCA 24015G22KT 12SM -SHSN FEW030 BKN055 BKN140 M02/M05 A2954 RMK CF2SC2AS2 PCPN VRY LGT SUN DIMLY VISBL SLP011

CYYZ;2009-12-28 21:00;CYYZ 282100Z 24020G26KT 12SM -SHSN FEW025 BKN080 BKN100 M02/M06 A2955 RMK SC2AC2AS2 PCPN VRY LGT SLP013

CYYZ;2009-12-28 22:00;CYYZ 282200Z 28015G20KT 12SM -SHSN SCT025 BKN120 M02/M06 A2957 RMK SC3AC3 PCPN VRY LGT CU ASOCTD SLP020

CYYZ;2009-12-28 22:20;CYYZ 282220Z 31018G25KT 12SM FEW035 BKN042 BKN120 M02/ RMK CF1SC4AC2

CYYZ;2009-12-28 23:00;CYYZ 282300Z 31027G33KT 15SM FEW035 SCT080 M03/M10 A2961 RMK SC2AC2 SLP034

CYYZ;2009-12-28 23:38;CYYZ 282338Z 31027G32KT 10SM -SHSN SCT011 BKN022 BKN042 M04/ RMK SC3SC2SC2

CYYZ;2009-12-28 23:52;CYYZ 282352Z 31020G31KT 15SM FEW012 FEW022 M04/ RMK SC1SC2

CYYZ;2009-12-29 00:00;CYYZ 290000Z 31024KT 15SM FEW012 FEW031 M04/M10 A2965 RMK SC1SC2 SLP051

CYYZ;2009-12-29 01:00;CYYZ 290100Z 30022G35KT 15SM SCT028 M06/M12 A2970 RMK SC2 SLP067

CYYZ;2009-12-29 02:00;CYYZ 290200Z 31030G36KT 15SM FEW030 BKN042 M06/M12 A2975 RMK SC2SC2 SLP082

CYYZ;2009-12-29 02:14;CYYZ 290214Z 31027G38KT 12SM -SHSN FEW032 BKN043 M07/ RMK SC2SC4

CYYZ;2009-12-29 03:00;CYYZ 290300Z 34025G35KT 7SM -SHSN FEW013 BKN018 BKN029 M08/M13 A2980 RMK SC2SC3SC2 PRESRR SLP102

CYYZ;2009-12-29 03:54;CYYZ 290354Z 34017G26KT 4SM -SHSN BKN008 OVC022 M09/ RMK SF5SC3

CYYZ;2009-12-29 04:00;CYYZ 290400Z 34022G29KT 4SM -SHSN BKN008 OVC017 M09/M12 A2984 RMK SF5SC3 SLP116

CYYZ;2009-12-29 04:09;CYYZ 290409Z 33022G29KT 10SM -SHSN SCT018 BKN032 M09/ RMK SC3SC3

CYYZ;2009-12-29 04:48;CYYZ 290448Z 34020G26KT 3SM -SHSN BKN007 OVC021 M10/ RMK SF6SC2

CYYZ;2009-12-29 05:00;CYYZ 290500Z 32023G28KT 2SM -SHSN BKN007 OVC017 M10/M12 A2989 RMK SF6SC2 SLP131

CYYZ;2009-12-29 05:35;CYYZ 290535Z 36012KT 1 1/4SM R23/P6000FT/D R24R/4500VP6000FT/U -SHSN OVC005 M11/ RMK SN3SF5 RWY 33L P6000FT U 33R 3000FT V 5500FT D VIS W 2

CYYZ;2009-12-29 06:00;CYYZ 290600Z 35014KT 3SM -SHSN SCT005 OVC025 M11/M13 A2995 RMK SC3SC5 PRESRR SLP151

CYYZ;2009-12-29 06:11;CYYZ 290611Z 36015KT 1 1/4SM R23/P6000FT/D R24R/P6000FT/D -SHSN OVC005 M12/ RMK SN3SF5 RWY 33L P6000FT D

CYYZ;2009-12-29 06:24;CYYZ 290624Z 35015KT 3SM -SHSN FEW005 BKN015 OVC034 M12/ RMK SF2SC4SC2

CYYZ;2009-12-29 07:00;CYYZ 290700Z 32019KT 8SM -SHSN SCT022 BKN039 M12/M15 A2999 RMK SC3SC4 SLP167

CYYZ;2009-12-29 08:00;CYYZ 290800Z 36015G21KT 8SM -SHSN FEW023 BKN043 M13/M17 A3006 RMK SC2SC4 PRESRR SLP190

CYYZ;2009-12-29 09:00;CYYZ 290900Z 35016KT 10SM -SHSN FEW031 BKN042 M15/M18 A3010 RMK SC2SC5 SLP203

CYYZ;2009-12-29 10:00;CYYZ 291000Z 36013KT 12SM -SHSN SCT026 M15/M18 A3014 RMK SC3 SLP217

CYYZ;2009-12-29 10:48;CYYZ 291048Z 36012KT 12SM BKN025 M15/ RMK SC3

CYYZ;2009-12-29 11:00;CYYZ 291100Z 01009KT 12SM BKN025 M15/M18 A3019 RMK SC3 SLP233

CYYZ;2009-12-29 12:00;CYYZ 291200Z 36010KT 12SM BKN040 M15/M18 A3024 RMK SC7 SLP252

CYYZ;2009-12-29 13:00;CYYZ 291300Z 34011KT 15SM BKN037 M15/M19 A3027 RMK SC6 SLP263

CYYZ;2009-12-29 14:00;CYYZ 291400Z 35010G15KT 15SM SCT024 BKN036 M15/M19 A3031 RMK SC3SC3 SLP278

CYYZ;2009-12-29 15:00;CYYZ 291500Z 34005KT 15SM FEW030 BKN040 M14/M18 A3035 RMK SC2SC2 SLP291

CYYZ;2009-12-29 16:00;CYYZ 291600Z 27003KT 15SM FEW025 BKN030 M14/M18 A3036 RMK SC2SC5 SLP295

CYYZ;2009-12-29 17:00;CYYZ 291700Z 00000KT 15SM FEW030 BKN035 M12/M17 A3034 RMK CU2SC6 SLP290

CYYZ;2009-12-29 18:00;CYYZ 291800Z 30010G15KT 15SM FEW025 SCT035 M09/M15 A3032 RMK CU2SC2 CONTRAIL SLP282

CYYZ;2009-12-29 19:00;CYYZ 291900Z 31024G30KT 15SM FEW025 SCT035 M08/M15 A3031 RMK CU2SC2 SLP279

CYYZ;2009-12-29 20:00;CYYZ 292000Z 32017G24KT 15SM FEW035 BKN040 M07/M15 A3034 RMK CU2SC5 SLP286

CYYZ;2009-12-29 21:00;CYYZ 292100Z 29011G18KT 15SM FEW035 BKN045 BKN070 M07/M14 A3034 RMK CU2SC4AC2 SLP287

CYYZ;2009-12-29 22:00;CYYZ 292200Z 27011KT 15SM BKN045 M07/M13 A3034 RMK SC7 SLP288

CYYZ;2009-12-29 23:00;CYYZ 292300Z 26012KT 15SM BKN044 M08/M12 A3035 RMK SC7 SLP290

CYYZ;2009-12-30 00:00;CYYZ 300000Z 25009KT 15SM BKN043 M08/M12 A3035 RMK SC7 SLP293

CYYZ;2009-12-30 01:00;CYYZ 300100Z 25011G16KT 15SM BKN042 M07/M11 A3035 RMK SC7 SLP293

CYYZ;2009-12-30 02:00;CYYZ 300200Z 26012KT 15SM BKN044 M07/M10 A3036 RMK SC7 SLP295

CYYZ;2009-12-30 03:00;CYYZ 300300Z 26017KT 15SM BKN045 M06/M09 A3035 RMK SC7 SLP292

CYYZ;2009-12-30 03:07;CYYZ 300307Z 25015G20KT 12SM -SHSN BKN040 M06/ RMK SC7

CYYZ;2009-12-30 03:45;CYYZ 300345Z 26013KT 15SM BKN037 BKN043 M06/ RMK SC5SC2

CYYZ;2009-12-30 04:00;CYYZ 300400Z 26010KT 15SM BKN036 M06/M09 A3037 RMK SC6 SLP296

CYYZ;2009-12-30 05:00;CYYZ 300500Z 27011KT 15SM BKN037 M05/M09 A3036 RMK SC6 SLP293

CYYZ;2009-12-30 06:00;CYYZ 300600Z 26010KT 15SM BKN036 M05/M09 A3035 RMK SC7 SLP289

CYYZ;2009-12-30 07:00;CYYZ 300700Z 25009KT 15SM BKN031 OVC043 M05/M09 A3035 RMK SC6SC2 SLP290

CYYZ;2009-12-30 08:00;CYYZ 300800Z 25011KT 15SM OVC033 M06/M10 A3036 RMK SC8 SLP293

CYYZ;2009-12-30 09:00;CYYZ 300900Z 25009KT 15SM FEW035 M07/M11 A3035 RMK SC2 SLP289

CYYZ;2009-12-30 10:00;CYYZ 301000Z 23008KT 15SM FEW036 FEW120 M08/M11 A3034 RMK SC1AC1 SLP284

CYYZ;2009-12-30 11:00;CYYZ 301100Z 24009KT 15SM FEW032 M08/M12 A3034 RMK SC1 SLP284

CYYZ;2009-12-30 12:00;CYYZ 301200Z 24007KT 15SM FEW020 FEW050 FEW100 M08/M12 A3034 RMK SC1SC1AC1 SLP287

CYYZ;2009-12-30 13:00;CYYZ 301300Z 25006KT 15SM FEW035 FEW180 M08/M11 A3034 RMK SC1AC0 SLP288

CYYZ;2009-12-30 14:00;CYYZ 301400Z 25008KT 15SM FEW035 BKN260 M07/M11 A3033 RMK SC1CI1 SLP282

CYYZ;2009-12-30 15:00;CYYZ 301500Z 25008KT 15SM FEW015 BKN023 BKN270 M05/M10 A3032 RMK SC1SF4CI2 SLP278

CYYZ;2009-12-30 16:00;CYYZ 301600Z 21010KT 15SM FEW020 BKN270 M04/M09 A3030 RMK SC1CS6 SLP272

CYYZ;2009-12-30 17:00;CYYZ 301700Z 21010KT 15SM FEW025 BKN270 M03/M09 A3026 RMK SC1CS6 SLP258

CYYZ;2009-12-30 18:00;CYYZ 301800Z 20009G15KT 15SM FEW030 OVC270 M02/M08 A3023 RMK SC1CS8 SLP246

CYYZ;2009-12-30 19:00;CYYZ 301900Z 20008G15KT 15SM FEW030 OVC270 M02/M08 A3019 RMK SC1CS8 SLP235

CYYZ;2009-12-30 20:00;CYYZ 302000Z 17008KT 15SM FEW025 OVC095 M02/M08 A3018 RMK SF1AS8 SLP230

CYYZ;2009-12-30 21:00;CYYZ 302100Z 17007KT 15SM FEW025 FEW065 OVC095 M02/M08 A3016 RMK SF1SC1AS8 SLP224

CYYZ;2009-12-30 22:00;CYYZ 302200Z 19008KT 15SM FEW065 OVC095 M02/M07 A3015 RMK SC1AS8 SLP220

CYYZ;2009-12-30 23:00;CYYZ 302300Z 17006KT 15SM BKN095 OVC120 M02/M08 A3013 RMK AS5AS3 SLP215

CYYZ;2009-12-31 00:00;CYYZ 310000Z 19005KT 15SM BKN091 OVC120 M03/M07 A3013 RMK AC5AS3 SLP212

CYYZ;2009-12-31 01:00;CYYZ 310100Z 17004KT 15SM FEW088 OVC110 M02/M07 A3010 RMK AC2AS6 SLP204

CYYZ;2009-12-31 02:00;CYYZ 310200Z 13003KT 15SM FEW098 BKN140 M02/M08 A3007 RMK AC2AS5 SLP195

CYYZ;2009-12-31 03:00;CYYZ 310300Z 18002KT 15SM FEW085 BKN140 M02/M08 A3006 RMK AC2AS4 SLP188

CYYZ;2009-12-31 04:00;CYYZ 310400Z 20004KT 15SM FEW055 BKN140 M02/M07 A3004 RMK SC2AC4 SLP182

CYYZ;2009-12-31 05:00;CYYZ 310500Z 19005KT 15SM OVC069 M01/M07 A3002 RMK AC8 SLP177

CYYZ;2009-12-31 06:00;CYYZ 310600Z 18005KT 15SM OVC054 M01/M07 A3000 RMK SC8 SLP167

CYYZ;2009-12-31 07:00;CYYZ 310700Z 18005KT 15SM SCT045 BKN085 M01/M07 A2999 RMK SC3AC4 SLP163

CYYZ;2009-12-31 08:00;CYYZ 310800Z 18005KT 15SM BKN026 BKN045 M01/M06 A2999 RMK SC5SC2 SLP163

CYYZ;2009-12-31 09:00;CYYZ 310900Z 18005KT 15SM -SHSN BKN024 OVC045 M00/M04 A2998 RMK SC6SC2 SLP159

CYYZ;2009-12-31 10:00;CYYZ 311000Z 18005KT 15SM -SHSN BKN042 OVC073 M00/M03 A2996 RMK SC6AC2 SLP153

CYYZ;2009-12-31 11:00;CYYZ 311100Z 18005KT 10SM -SHSN SCT012 OVC017 M00/M02 A2995 RMK SC3SC5 SLP151

CYYZ;2009-12-31 12:00;CYYZ 311200Z 18006KT 10SM -SHSN BKN016 OVC095 00/M01 A2995 RMK SF5AC3 SLP149

CYYZ;2009-12-31 12:36;CYYZ 311236Z 18006KT 8SM BKN010 OVC025 00/ RMK SF6SC2

CYYZ;2009-12-31 13:00;CYYZ 311300Z 19005KT 6SM BR OVC010 01/M01 A2994 RMK SC8 SLP147

CYYZ;2009-12-31 14:00;CYYZ 311400Z 19005KT 10SM OVC013 01/M01 A2995 RMK SC8 SLP149

CYYZ;2009-12-31 14:18;CYYZ 311418Z 19005KT 8SM OVC018 01/ RMK SC8

CYYZ;2009-12-31 15:00;CYYZ 311500Z 18004KT 8SM OVC013 01/M00 A2995 RMK SC8 SLP148

CYYZ;2009-12-31 15:44;CYYZ 311544Z 19005KT 6SM -RA OVC008 02/ RMK SC8 PCPN VRY LGT

CYYZ;2009-12-31 16:00;CYYZ 311600Z 19006KT 5SM -RA BR OVC008 02/00 A2994 RMK SC8 SLP145

CYYZ;2009-12-31 17:00;CYYZ 311700Z 19005KT 6SM -RA BR BKN008 OVC013 02/01 A2992 RMK SC6SC2 SLP138

CYYZ;2009-12-31 18:00;CYYZ 311800Z 21007KT 5SM -RASN BR FEW009 OVC018 02/01 A2990 RMK SF2SC6 SLP133

CYYZ;2009-12-31 18:47;CYYZ 311847Z 19006KT 5SM -RA BR OVC009 02/ RMK SF8

CYYZ;2009-12-31 19:00;CYYZ 311900Z 20005KT 6SM -RA BR BKN008 OVC022 02/01 A2989 RMK SF5ST3 SLP128

CYYZ;2009-12-31 20:00;CYYZ 312000Z 23007KT 8SM -RA BKN009 BKN018 OVC065 03/01 A2988 RMK SF5SC2SC1 SLP127

CYYZ;2009-12-31 20:22;CYYZ 312022Z 22006KT 8SM -RA BKN012 OVC018 03/ RMK SF6SC2

CYYZ;2009-12-31 21:00;CYYZ 312100Z 22006KT 9SM -RA BKN012 OVC021 03/01 A2989 RMK SF5SC3 SLP128

CYYZ;2009-12-31 21:11;CYYZ 312111Z 22007KT 9SM -RA FEW016 OVC022 03/ RMK SF2SC6

CYYZ;2009-12-31 22:00;CYYZ 312200Z 21005KT 8SM -RA BKN021 OVC029 02/01 A2990 RMK SF5SC3 SLP132

CYYZ;2009-12-31 23:00;CYYZ 312300Z 20005KT 9SM -RA FEW018 OVC025 02/01 A2990 RMK SF1SC7 SLP133

